{"type":"FeatureCollection", "features": [
{"type":"Feature","geometry":{"type":"MultiPolygon","coordinates":[[[[100.5498,4.2634],[100.5425,4.2156],[100.5764,4.1986],[100.5737,4.237],[100.5498,4.2634]]],[[[100.6214,4.6458],[100.6025,4.6389],[100.5856,4.6042],[100.5817,4.5692],[100.6175,4.5544],[100.6539,4.5697],[100.6489,4.5944],[100.6594,4.5972],[100.6631,4.6063],[100.6542,4.6133],[100.6383,4.6325],[100.6214,4.6458]]],[[[100.6069,4.8394],[100.5553,4.8214],[100.5706,4.7858],[100.5962,4.7812],[100.6247,4.7975],[100.6217,4.815],[100.6272,4.8319],[100.6069,4.8394]]],[[[100.6286,4.7619],[100.5772,4.7519],[100.5858,4.6917],[100.5956,4.6686],[100.6244,4.6786],[100.638,4.6747],[100.6586,4.6861],[100.6703,4.7281],[100.6633,4.7436],[100.6481,4.7567],[100.6344,4.7542],[100.6286,4.7619]]],[[[101.2653,3.0597],[101.2345,3.0457],[101.2136,3.0164],[101.2564,3.0181],[101.28,3.0439],[101.2653,3.0597]]],[[[101.3283,3.0678],[101.3019,3.0594],[101.2833,3.0133],[101.335,3.0106],[101.3383,3.0547],[101.3283,3.0678]]],[[[101.2325,2.9072],[101.2555,2.9091],[101.2547,2.9664],[101.2308,2.9466],[101.2325,2.9072]]],[[[101.4226,2.976],[101.3903,2.9405],[101.3871,2.914],[101.3564,2.9116],[101.3387,2.8938],[101.321,2.9106],[101.2847,2.8699],[101.2931,2.8386],[101.3275,2.8303],[101.3616,2.8113],[101.4097,2.8043],[101.4097,2.8352],[101.4241,2.8647],[101.4104,2.8927],[101.4235,2.9298],[101.4048,2.9372],[101.4226,2.976]]],[[[101.2617,3.0114],[101.2233,3.0042],[101.2172,2.9553],[101.2617,3.0114]]],[[[101.3616,2.9944],[101.3162,2.9691],[101.2808,2.9029],[101.2972,2.893],[101.3136,2.9114],[101.3302,2.9107],[101.3519,2.9337],[101.3677,2.9708],[101.3616,2.9944]]],[[[101.3036,2.9715],[101.2639,2.9486],[101.2768,2.92],[101.3036,2.9715]]],[[[101.3327,3.0091],[101.2878,3.0008],[101.2931,2.9784],[101.3327,3.0091]]],[[[104.1755,2.8938],[104.1557,2.8933],[104.1612,2.8228],[104.1172,2.7832],[104.122,2.7446],[104.1503,2.7204],[104.2152,2.7208],[104.2235,2.7692],[104.2061,2.781],[104.2048,2.8141],[104.1755,2.8938]]],[[[110.3422,1.8044],[110.3275,1.7892],[110.3019,1.7372],[110.3153,1.7161],[110.3381,1.7131],[110.345,1.6975],[110.3397,1.68],[110.3517,1.6462],[110.3642,1.6558],[110.3761,1.6531],[110.3786,1.6589],[110.3725,1.675],[110.3722,1.705],[110.3579,1.7127],[110.3556,1.7589],[110.3383,1.7864],[110.3422,1.8044]]],[[[110.4944,1.6331],[110.4603,1.6222],[110.4681,1.5883],[110.4417,1.5567],[110.4328,1.5247],[110.4572,1.5081],[110.4886,1.5683],[110.5211,1.5511],[110.5339,1.5803],[110.5119,1.6292],[110.4944,1.6331]]],[[[110.2711,1.7097],[110.215,1.7019],[110.2136,1.6797],[110.2442,1.6739],[110.2597,1.6292],[110.2861,1.6344],[110.3019,1.6525],[110.2769,1.6836],[110.2711,1.7097]]],[[[110.5072,1.7494],[110.4783,1.7231],[110.4472,1.7325],[110.4256,1.6817],[110.3889,1.6942],[110.3794,1.6606],[110.3786,1.6542],[110.3736,1.6514],[110.365,1.6547],[110.3517,1.6447],[110.3653,1.6053],[110.4078,1.5842],[110.4622,1.5928],[110.4528,1.6233],[110.4856,1.6444],[110.48,1.6672],[110.4983,1.7075],[110.5256,1.7236],[110.5072,1.7494]]],[[[111.3058,2.1061],[111.2843,2.1018],[111.281,2.0763],[111.3058,2.0586],[111.3283,2.0673],[111.3308,2.0792],[111.3452,2.0901],[111.3461,2.0969],[111.3425,2.1061],[111.3058,2.1061]]],[[[104.1173,2.3167],[104.0982,2.2947],[104.1274,2.2809],[104.1368,2.3101],[104.1173,2.3167]]],[[[111.2527,2.4335],[111.2172,2.4187],[111.1838,2.3649],[111.1917,2.2913],[111.1881,2.2497],[111.229,2.2408],[111.2509,2.1964],[111.2823,2.2118],[111.2762,2.2816],[111.2935,2.2992],[111.3103,2.3688],[111.3269,2.3925],[111.2601,2.4181],[111.2527,2.4335]]],[[[111.2909,2.1124],[111.2483,2.1342],[111.2226,2.0925],[111.2567,2.0709],[111.2909,2.1124]]],[[[111.3567,2.1881],[111.3507,2.2281],[111.3299,2.2619],[111.2915,2.2818],[111.2896,2.2202],[111.2655,2.1887],[111.2414,2.1982],[111.2229,2.2349],[111.1908,2.195],[111.1664,2.1864],[111.1584,2.1588],[111.1833,2.137],[111.2475,2.1522],[111.2972,2.1394],[111.3364,2.1219],[111.3433,2.159],[111.3706,2.1703],[111.3719,2.19],[111.3836,2.1911],[111.3894,2.1808],[111.3983,2.2017],[111.3654,2.2141],[111.3567,2.1881]]],[[[104.5194,2.4694],[104.4996,2.462],[104.52,2.4256],[104.5417,2.4532],[104.5194,2.4694]]],[[[111.3383,2.8019],[111.3136,2.7928],[111.2878,2.7469],[111.2806,2.7075],[111.2811,2.6453],[111.2961,2.5642],[111.3105,2.5131],[111.3003,2.4658],[111.3019,2.4308],[111.3269,2.4178],[111.3456,2.3911],[111.345,2.3697],[111.3631,2.3475],[111.3797,2.3719],[111.4083,2.3692],[111.4111,2.3936],[111.3922,2.4697],[111.3781,2.49],[111.3778,2.5703],[111.3845,2.6161],[111.3792,2.7033],[111.3831,2.7356],[111.3656,2.7506],[111.3383,2.8019]]],[[[117.5576,4.2223],[117.5396,4.1997],[117.55,4.1704],[117.5786,4.1824],[117.5576,4.2223]]],[[[117.6438,4.1913],[117.6888,4.1645],[117.901,4.1645],[117.885,4.1851],[117.8209,4.1961],[117.78,4.2193],[117.7789,4.2403],[117.7524,4.2602],[117.6883,4.2646],[117.6308,4.2249],[117.6438,4.1913]]],[[[117.5678,4.2517],[117.5336,4.235],[117.6031,4.2],[117.6064,4.2197],[117.5678,4.2517]]],[[[117.5583,4.3078],[117.5436,4.2964],[117.5525,4.2678],[117.5861,4.2406],[117.6167,4.2275],[117.6511,4.2531],[117.6475,4.2714],[117.6036,4.2789],[117.5733,4.3036],[117.5583,4.3078]]],[[[118.6506,4.4914],[118.6278,4.4764],[118.6726,4.426],[118.6875,4.4424],[118.7214,4.4356],[118.7544,4.4561],[118.6936,4.4711],[118.6725,4.4956],[118.6506,4.4914]]],[[[118.5025,4.5539],[118.4797,4.52],[118.5039,4.5147],[118.5025,4.5539]]],[[[118.7585,4.6275],[118.7328,4.6013],[118.7479,4.5853],[118.7715,4.6093],[118.7585,4.6275]]],[[[118.462,4.6985],[118.447,4.6989],[118.4296,4.6633],[118.3706,4.6622],[118.3714,4.6477],[118.4265,4.6284],[118.4604,4.6064],[118.4793,4.6174],[118.5149,4.5962],[118.5604,4.6114],[118.5681,4.6388],[118.5475,4.655],[118.4965,4.6412],[118.4811,4.6776],[118.462,4.6985]]],[[[117.0069,7.3569],[116.9814,7.3192],[116.9258,7.2911],[116.8868,7.2888],[116.8528,7.1983],[116.8756,7.2031],[116.9031,7.2389],[116.9308,7.2328],[116.9814,7.2611],[116.9925,7.2883],[117.0172,7.2725],[117.0222,7.3208],[117.0069,7.3569]]],[[[117.2425,7.3581],[117.2025,7.3511],[117.1892,7.3606],[117.1444,7.3364],[117.1228,7.3153],[117.0753,7.3058],[117.0608,7.2925],[117.0692,7.2608],[117.0522,7.1908],[117.0756,7.1181],[117.1508,7.1756],[117.1853,7.1894],[117.2128,7.1892],[117.2428,7.2119],[117.2725,7.2136],[117.2628,7.2761],[117.2956,7.3256],[117.2825,7.3483],[117.2425,7.3581]]],[[[99.8408,6.2947],[99.7995,6.2734],[99.7879,6.2379],[99.7677,6.2183],[99.8122,6.1725],[99.8303,6.2003],[99.8181,6.2388],[99.8408,6.2947]]],[[[99.8525,6.2623],[99.8347,6.2635],[99.8205,6.2347],[99.8508,6.2256],[99.8525,6.2623]]],[[[99.8361,6.4732],[99.7923,6.425],[99.7396,6.4256],[99.705,6.4372],[99.6669,6.4265],[99.6412,6.4358],[99.6418,6.3941],[99.6565,6.3605],[99.712,6.3612],[99.7225,6.3256],[99.7136,6.31],[99.7311,6.2722],[99.7865,6.2899],[99.8074,6.3197],[99.8397,6.3253],[99.8652,6.2975],[99.8807,6.3189],[99.9148,6.335],[99.9023,6.361],[99.9119,6.3856],[99.8938,6.4146],[99.856,6.4348],[99.8544,6.4606],[99.8361,6.4732]]],[[[100.5453,4.9283],[100.5236,4.8969],[100.4981,4.9136],[100.4797,4.8928],[100.4861,4.8653],[100.5203,4.8617],[100.5356,4.8925],[100.5761,4.9003],[100.5669,4.9264],[100.5564,4.9183],[100.5522,4.9172],[100.5469,4.9217],[100.5453,4.9283]]],[[[110.406,0.9737],[110.4061,0.9521],[110.4363,0.9452],[110.4376,0.9169],[110.4823,0.881],[110.5549,0.8594],[110.6224,0.8659],[110.6477,0.8882],[110.6603,0.871],[110.699,0.8841],[110.7177,0.906],[110.7789,0.8942],[110.8104,0.9007],[110.8012,0.944],[110.8512,0.9496],[110.8863,0.9838],[110.8983,1.0194],[110.9939,1.0285],[111.0624,1.0491],[111.1459,1.0508],[111.1854,1.0599],[111.2258,1.0839],[111.2857,1.0563],[111.353,1.0368],[111.4112,1.0091],[111.4426,1.0135],[111.4807,1.0355],[111.5123,1.0105],[111.5263,0.9655],[111.5485,0.9852],[111.6018,1.0001],[111.6423,1.0356],[111.6686,1.0467],[111.7158,1.0257],[111.7279,1.0109],[111.7658,1.0222],[111.785,1.0018],[111.8053,1.0171],[111.8305,1.0046],[111.8683,1.0051],[111.8778,1.0464],[111.9305,1.0938],[111.9455,1.1217],[112.0067,1.1332],[112.09,1.143],[112.1339,1.143],[112.1531,1.156],[112.1436,1.1809],[112.1626,1.2185],[112.1745,1.3019],[112.2101,1.3446],[112.2229,1.3831],[112.1991,1.4102],[112.2087,1.4493],[112.2731,1.4691],[112.3163,1.5011],[112.3484,1.5018],[112.3939,1.5196],[112.4291,1.5249],[112.4485,1.5544],[112.4861,1.5761],[112.5954,1.5694],[112.6501,1.5693],[112.6815,1.5524],[112.7251,1.5654],[112.777,1.5618],[112.8014,1.5397],[112.8399,1.5376],[112.8752,1.5812],[112.9047,1.5843],[112.9259,1.5683],[112.9706,1.5639],[113.0003,1.5721],[113.0565,1.5542],[113.0618,1.5308],[113.0304,1.4931],[113.0326,1.4738],[112.9763,1.4483],[112.9735,1.4081],[113.0121,1.4072],[113.0817,1.4282],[113.1002,1.4393],[113.1324,1.3942],[113.1722,1.3793],[113.2639,1.3918],[113.3214,1.3771],[113.3554,1.3548],[113.3668,1.3262],[113.3932,1.315],[113.424,1.2834],[113.4626,1.3016],[113.5277,1.3206],[113.5808,1.3019],[113.5979,1.2593],[113.6212,1.2478],[113.6235,1.2204],[113.6624,1.2214],[113.7032,1.2609],[113.7916,1.2928],[113.8273,1.3327],[113.8214,1.3709],[113.8719,1.3873],[113.8864,1.4028],[113.9363,1.4198],[113.9533,1.4424],[113.9788,1.4529],[114.0251,1.4468],[114.0795,1.4628],[114.1112,1.455],[114.1373,1.464],[114.1652,1.4385],[114.2099,1.4107],[114.2466,1.449],[114.2864,1.4517],[114.336,1.4859],[114.3797,1.4931],[114.4108,1.512],[114.4712,1.472],[114.5044,1.4628],[114.5372,1.4356],[114.5696,1.4296],[114.5859,1.4455],[114.5946,1.4818],[114.6164,1.5159],[114.6019,1.536],[114.6115,1.575],[114.6525,1.5896],[114.7087,1.638],[114.7189,1.7173],[114.7086,1.7637],[114.7151,1.7841],[114.7005,1.8043],[114.7279,1.8338],[114.7223,1.8568],[114.7463,1.8684],[114.7921,1.8465],[114.8194,1.8923],[114.8556,1.8948],[114.8776,1.9265],[114.8541,1.9479],[114.8552,1.9741],[114.8737,1.9954],[114.8769,2.0327],[114.8564,2.0437],[114.8078,2.0241],[114.7945,2.0562],[114.7973,2.0878],[114.8186,2.1277],[114.7933,2.146],[114.7319,2.1483],[114.7392,2.1911],[114.7845,2.2006],[114.7998,2.2504],[114.8275,2.2451],[114.8816,2.2603],[114.9172,2.2553],[114.9502,2.3101],[114.9536,2.3489],[114.9746,2.3668],[114.9972,2.349],[115.0601,2.4074],[115.0982,2.4029],[115.0987,2.4246],[115.1445,2.4759],[115.1893,2.4828],[115.2017,2.473],[115.2421,2.4986],[115.2578,2.5404],[115.2236,2.5426],[115.2122,2.5736],[115.1704,2.6133],[115.1333,2.5899],[115.1143,2.5895],[115.0977,2.6127],[115.1199,2.6567],[115.1075,2.7229],[115.1405,2.7475],[115.1419,2.8057],[115.103,2.8175],[115.1668,2.8773],[115.1751,2.9312],[115.2127,2.9586],[115.2352,2.9597],[115.2793,3.0055],[115.2884,3.0354],[115.3168,3.0173],[115.3317,2.9752],[115.3936,2.9796],[115.4265,3.0157],[115.4532,3.0279],[115.486,3.0182],[115.5217,3.0651],[115.5207,3.1102],[115.5296,3.1294],[115.562,3.1515],[115.5595,3.1716],[115.5214,3.1893],[115.5198,3.2259],[115.5393,3.2519],[115.5365,3.3163],[115.5433,3.3582],[115.5873,3.4493],[115.6097,3.447],[115.6237,3.4087],[115.6497,3.4288],[115.6425,3.4776],[115.6193,3.5102],[115.6117,3.5757],[115.5933,3.5945],[115.5809,3.663],[115.5916,3.7608],[115.5882,3.7758],[115.6227,3.8402],[115.6259,3.8799],[115.5875,3.906],[115.5798,3.9402],[115.6177,3.9373],[115.6562,3.9876],[115.6819,4.0707],[115.6881,4.1532],[115.7062,4.1908],[115.7323,4.1924],[115.7738,4.243],[115.818,4.2219],[115.8388,4.2668],[115.8785,4.2951],[115.8698,4.3197],[115.8789,4.3802],[115.9099,4.3882],[115.9301,4.3536],[115.9999,4.3478],[116.0276,4.3319],[116.0342,4.295],[116.0704,4.2721],[116.0844,4.2766],[116.116,4.3328],[116.1561,4.3402],[116.1702,4.3843],[116.2046,4.3739],[116.254,4.3755],[116.2798,4.3597],[116.3435,4.384],[116.3789,4.3758],[116.4283,4.3275],[116.4406,4.2881],[116.5046,4.3217],[116.5391,4.3265],[116.5302,4.349],[116.5412,4.3761],[116.5636,4.3905],[116.6101,4.366],[116.616,4.3377],[116.6642,4.3459],[116.7055,4.3332],[116.7324,4.352],[116.7436,4.3804],[116.7677,4.3667],[116.7863,4.3396],[116.8082,4.3438],[116.8291,4.3264],[116.8683,4.3355],[116.9005,4.3612],[116.9451,4.3533],[116.9615,4.3379],[117,4.3396],[117.0248,4.3203],[117.0446,4.3437],[117.1068,4.3331],[117.1583,4.3529],[117.1704,4.3366],[117.2031,4.3359],[117.2174,4.3585],[117.248,4.3725],[117.2855,4.3326],[117.2959,4.3095],[117.3436,4.289],[117.3726,4.2844],[117.3888,4.2572],[117.4297,4.2297],[117.4434,4.1909],[117.4836,4.1681],[117.5322,4.1655],[117.5405,4.1868],[117.5319,4.2406],[117.5592,4.2583],[117.5512,4.2671],[117.5417,4.2958],[117.5527,4.3183],[117.5665,4.3089],[117.6065,4.3199],[117.5961,4.3871],[117.6223,4.4008],[117.6325,4.4228],[117.6626,4.4327],[117.6729,4.3974],[117.7188,4.3562],[117.7475,4.3531],[117.7603,4.3339],[117.7985,4.332],[117.8597,4.2851],[117.8786,4.2432],[117.9317,4.2477],[117.996,4.2218],[118.0769,4.2544],[118.1153,4.2815],[118.1778,4.2981],[118.2225,4.2984],[118.2523,4.3182],[118.3251,4.3251],[118.3497,4.345],[118.3841,4.3441],[118.4125,4.3248],[118.4274,4.3428],[118.503,4.3615],[118.5266,4.3501],[118.5882,4.3969],[118.5851,4.4156],[118.621,4.417],[118.6438,4.4417],[118.6222,4.4731],[118.5949,4.4845],[118.5941,4.5085],[118.5708,4.5215],[118.5328,4.5239],[118.5046,4.4857],[118.4732,4.5094],[118.4878,4.5614],[118.462,4.5693],[118.4242,4.6017],[118.4117,4.5847],[118.3837,4.5968],[118.3683,4.6289],[118.305,4.6297],[118.3035,4.6554],[118.2661,4.661],[118.2567,4.6908],[118.1942,4.7628],[118.1897,4.8078],[118.1642,4.8394],[118.1312,4.8404],[118.125,4.8727],[118.1505,4.8876],[118.2103,4.9611],[118.2449,4.9698],[118.3037,4.9605],[118.3267,5.0189],[118.3872,5.0233],[118.4258,5.0092],[118.4509,4.9862],[118.4483,4.9548],[118.4747,4.9241],[118.5154,4.9227],[118.5505,4.961],[118.6071,4.9437],[118.6649,4.9384],[118.718,4.9522],[118.7561,4.9525],[118.8047,4.9838],[118.8618,4.9944],[118.8931,5.0222],[118.9253,5.0369],[119.0899,5.0766],[119.1607,5.1041],[119.2332,5.1627],[119.2672,5.2078],[119.2672,5.2431],[119.2483,5.2726],[119.2647,5.31],[119.2567,5.3592],[119.2091,5.424],[119.1589,5.45],[119.1096,5.4362],[119.103,5.4149],[119.0489,5.4009],[119.0122,5.4075],[118.9572,5.4297],[118.9475,5.3933],[118.9108,5.3728],[118.8797,5.3856],[118.935,5.4175],[118.9217,5.4378],[118.8508,5.4786],[118.7739,5.5306],[118.7536,5.5347],[118.7094,5.5642],[118.6522,5.6306],[118.6031,5.6528],[118.5758,5.6842],[118.47,5.7553],[118.3878,5.7989],[118.3505,5.8273],[118.3272,5.8172],[118.2781,5.8217],[118.2372,5.8417],[118.2228,5.8233],[118.2108,5.8169],[118.1967,5.8183],[118.1531,5.8035],[118.1611,5.7483],[118.1261,5.7278],[118.1478,5.6969],[118.1192,5.6694],[118.1127,5.7063],[118.0858,5.6967],[118.0572,5.7214],[118.0197,5.6944],[117.9763,5.6772],[117.935,5.6959],[117.9464,5.7333],[117.9156,5.7364],[117.8958,5.7557],[117.8968,5.7877],[117.9161,5.8008],[117.9895,5.8047],[118.0053,5.8158],[118.0308,5.7889],[118.0847,5.8281],[118.117,5.8368],[118.1311,5.8556],[118.1048,5.8697],[118.0919,5.8992],[118.0597,5.9178],[118.0689,5.9511],[118.0411,5.9897],[118.0411,6.0364],[118.0147,6.0319],[118.0114,6.0592],[117.9846,6.0656],[117.9685,6.0369],[117.8983,5.9792],[117.8955,5.9517],[117.8247,5.9356],[117.7714,5.9403],[117.7722,5.9076],[117.7122,5.8967],[117.6722,5.9083],[117.6206,5.8939],[117.6033,5.905],[117.5225,5.8933],[117.5837,5.9249],[117.5619,5.952],[117.5803,5.9622],[117.5845,5.9756],[117.5972,5.9725],[117.6132,5.9791],[117.6287,5.994],[117.6245,6.0339],[117.6586,6.0616],[117.6325,6.1186],[117.6153,6.1325],[117.6069,6.1647],[117.5883,6.1725],[117.6078,6.2108],[117.6467,6.2419],[117.7069,6.2303],[117.7228,6.2508],[117.731,6.3185],[117.7193,6.3432],[117.7253,6.3945],[117.7422,6.4261],[117.6307,6.5115],[117.6006,6.5101],[117.5696,6.5276],[117.5429,6.5557],[117.5222,6.6164],[117.513,6.6244],[117.4728,6.5547],[117.4264,6.5534],[117.4054,6.5639],[117.3881,6.6033],[117.3222,6.6217],[117.2954,6.6129],[117.2828,6.6619],[117.2647,6.7],[117.2855,6.7223],[117.2419,6.7683],[117.235,6.8052],[117.2186,6.8214],[117.2538,6.8649],[117.2583,6.8908],[117.2502,6.9448],[117.2147,6.9469],[117.1921,6.9615],[117.1531,7.0128],[117.1011,6.9975],[117.0594,6.9751],[117.0706,6.9481],[117.0528,6.9353],[117.0319,6.8917],[117.0562,6.8769],[117.0528,6.8422],[117.0344,6.8362],[117.0129,6.7879],[116.9759,6.7444],[116.9811,6.7028],[116.9459,6.6854],[116.9302,6.6642],[116.8961,6.6499],[116.8772,6.6211],[116.8586,6.6165],[116.8537,6.5812],[116.8106,6.5647],[116.7646,6.5759],[116.7532,6.5877],[116.7558,6.6289],[116.7894,6.6684],[116.818,6.7327],[116.8499,6.7694],[116.8517,6.8239],[116.8439,6.8564],[116.8111,6.8701],[116.8332,6.8904],[116.8379,6.9309],[116.8288,6.9675],[116.8008,6.9775],[116.7898,7.0014],[116.7464,7.0353],[116.7322,7.0156],[116.725,6.9669],[116.7039,6.9599],[116.7058,6.9296],[116.6817,6.8864],[116.6397,6.8639],[116.6506,6.8147],[116.6294,6.7789],[116.6442,6.7342],[116.6428,6.7078],[116.6158,6.6681],[116.5744,6.6478],[116.5475,6.6111],[116.5407,6.5832],[116.5061,6.5447],[116.4951,6.4984],[116.4799,6.476],[116.4267,6.4388],[116.3347,6.3839],[116.3139,6.3572],[116.3294,6.3367],[116.3214,6.2997],[116.2442,6.2856],[116.2581,6.2569],[116.2033,6.2356],[116.1841,6.2204],[116.1706,6.1869],[116.1474,6.1608],[116.1544,6.1408],[116.0886,6.1056],[116.1031,6.0869],[116.1305,6.0881],[116.1097,6.0506],[116.1093,5.9983],[116.0828,5.9959],[116.0466,5.9561],[116.0433,5.8472],[116.0114,5.8244],[116.0053,5.8044],[115.9769,5.7833],[115.903,5.7513],[115.8862,5.6226],[115.8729,5.5821],[115.8339,5.5517],[115.7629,5.5306],[115.6961,5.5345],[115.6415,5.5453],[115.6052,5.5702],[115.62,5.6059],[115.5899,5.623],[115.5769,5.5885],[115.5452,5.5398],[115.4784,5.4873],[115.4249,5.4258],[115.3846,5.4108],[115.3656,5.3879],[115.3694,5.3577],[115.3536,5.2942],[115.3789,5.2939],[115.4347,5.2736],[115.4311,5.2511],[115.5187,5.1969],[115.5914,5.181],[115.5525,5.14],[115.5464,5.0719],[115.5113,5.0289],[115.4639,5.0152],[115.4547,4.9857],[115.4264,4.9794],[115.3968,4.9269],[115.3661,4.9065],[115.329,4.9025],[115.2493,4.9166],[115.2296,4.9596],[115.1974,4.965],[115.1962,4.9358],[115.1604,4.9106],[115.1936,4.8561],[115.2481,4.811],[115.2419,4.7766],[115.2606,4.7544],[115.263,4.7094],[115.2781,4.6817],[115.2691,4.6642],[115.2959,4.6421],[115.2959,4.5823],[115.2802,4.5598],[115.2813,4.5219],[115.2983,4.4367],[115.3512,4.391],[115.3759,4.3536],[115.3749,4.3357],[115.3459,4.3133],[115.3278,4.3146],[115.2932,4.3503],[115.2667,4.3453],[115.2493,4.3789],[115.2105,4.376],[115.1653,4.3932],[115.1326,4.3899],[115.1106,4.4054],[115.1107,4.4924],[115.078,4.5984],[115.0651,4.6195],[115.0505,4.7312],[115.038,4.7932],[115.0214,4.8221],[115.0183,4.8513],[115.03,4.8731],[115.0007,4.8846],[114.9762,4.8368],[114.8903,4.8188],[114.864,4.8054],[114.8489,4.7672],[114.7948,4.7464],[114.7912,4.7089],[114.8129,4.6726],[114.827,4.5548],[114.8309,4.4541],[114.8487,4.4346],[114.8818,4.4271],[114.8866,4.3741],[114.8605,4.3218],[114.8269,4.2835],[114.8518,4.2521],[114.7986,4.1724],[114.8145,4.1559],[114.7819,4.1328],[114.7483,4.084],[114.7252,4.062],[114.6794,4.0349],[114.6388,4.0222],[114.6237,4.0332],[114.6333,4.064],[114.5806,4.0827],[114.5514,4.1376],[114.5357,4.1537],[114.5003,4.1577],[114.4598,4.2334],[114.4539,4.2776],[114.4316,4.2854],[114.4125,4.2665],[114.3779,4.2774],[114.35,4.2642],[114.3178,4.2759],[114.3165,4.3085],[114.3258,4.3576],[114.3054,4.3772],[114.3086,4.4173],[114.2642,4.4944],[114.2372,4.5295],[114.196,4.5411],[114.1725,4.5716],[114.1281,4.5869],[114,4.5911],[113.9678,4.5809],[113.9947,4.5011],[113.9971,4.4433],[113.964,4.3227],[113.9406,4.2753],[113.9074,4.2272],[113.8181,4.1222],[113.7829,4.0572],[113.7618,4.0293],[113.6669,3.9295],[113.553,3.8353],[113.4339,3.7564],[113.4236,3.7144],[113.405,3.6744],[113.3728,3.6343],[113.3575,3.6033],[113.2955,3.5464],[113.3026,3.5167],[113.2614,3.4686],[113.1943,3.4162],[113.171,3.3918],[113.1542,3.3467],[113.0798,3.2893],[113.0683,3.234],[113.0441,3.2088],[113.0312,3.1798],[112.9785,3.1415],[112.9233,3.1137],[112.8684,3.0973],[112.7551,3.0751],[112.6212,3.0387],[112.5856,3.0154],[112.5662,3.0211],[112.5053,3.0106],[112.2758,2.9611],[112.1579,2.9259],[112,2.8906],[111.8856,2.8736],[111.8633,2.8764],[111.7531,2.8572],[111.6578,2.8301],[111.635,2.8494],[111.5981,2.7942],[111.5449,2.7659],[111.4908,2.7451],[111.4672,2.7125],[111.4317,2.7],[111.4194,2.63],[111.3978,2.5608],[111.3958,2.5356],[111.4272,2.5072],[111.3914,2.4856],[111.4122,2.4561],[111.4108,2.4247],[111.4392,2.3775],[111.4117,2.3594],[111.3875,2.3647],[111.3744,2.34],[111.355,2.3406],[111.3275,2.3702],[111.32,2.3191],[111.3061,2.287],[111.3454,2.2523],[111.3539,2.2219],[111.3797,2.22],[111.4133,2.1878],[111.4028,2.1683],[111.3767,2.1875],[111.3712,2.1635],[111.3553,2.1378],[111.3488,2.1027],[111.3475,2.0794],[111.3443,2.0884],[111.3317,2.0783],[111.3306,2.0683],[111.3245,2.0628],[111.303,2.057],[111.283,2.0724],[111.2528,2.0662],[111.2065,2.0879],[111.1788,2.0123],[111.159,1.934],[111.1073,1.8352],[111.1078,1.7849],[111.0862,1.7566],[111.1088,1.7331],[111.1239,1.7011],[111.0822,1.675],[111.0467,1.6808],[111.0248,1.6656],[111.0126,1.6388],[110.9947,1.5636],[110.9996,1.5408],[111.0361,1.5083],[111.0577,1.4567],[111.0777,1.4376],[111.1328,1.4186],[111.1725,1.3876],[111.2104,1.411],[111.2609,1.4152],[111.3015,1.396],[111.3178,1.3247],[111.2748,1.351],[111.2521,1.395],[111.2185,1.3913],[111.1702,1.3596],[111.1228,1.3889],[111.0539,1.4089],[111.0232,1.4404],[110.9944,1.4864],[110.9397,1.5219],[110.8853,1.5322],[110.8097,1.575],[110.7881,1.5786],[110.7656,1.5592],[110.7597,1.4842],[110.745,1.4664],[110.6844,1.4378],[110.6783,1.4481],[110.7369,1.4797],[110.7433,1.5144],[110.7289,1.5486],[110.6661,1.565],[110.6214,1.595],[110.5975,1.6011],[110.5406,1.5847],[110.5358,1.5586],[110.5075,1.5417],[110.4883,1.5167],[110.4586,1.5067],[110.4312,1.5233],[110.4242,1.5617],[110.4039,1.5689],[110.3636,1.6042],[110.3361,1.6706],[110.3419,1.7031],[110.3244,1.7122],[110.2953,1.6894],[110.3067,1.6519],[110.2731,1.6217],[110.26,1.6178],[110.2436,1.6669],[110.2064,1.6783],[110.195,1.7069],[110.1411,1.6958],[110.0844,1.7015],[110.0693,1.696],[110.0067,1.6981],[109.9447,1.6881],[109.9129,1.6917],[109.9129,1.7122],[109.8732,1.7311],[109.8803,1.7562],[109.8428,1.7875],[109.787,1.8082],[109.7543,1.8269],[109.7066,1.8419],[109.6844,1.8765],[109.6567,1.902],[109.6476,1.9319],[109.6522,1.9985],[109.6419,2.0283],[109.6184,1.9872],[109.5897,1.9708],[109.5618,1.9734],[109.5535,1.9281],[109.5397,1.9049],[109.5531,1.8578],[109.5763,1.8456],[109.5846,1.791],[109.6354,1.8051],[109.6829,1.785],[109.6667,1.7338],[109.668,1.7015],[109.6568,1.6704],[109.6611,1.6187],[109.6928,1.5921],[109.7811,1.503],[109.8121,1.4664],[109.8304,1.4244],[109.8934,1.4156],[109.9376,1.4158],[109.9641,1.3865],[109.9599,1.3623],[109.9743,1.308],[110.0464,1.2644],[110.0963,1.1975],[110.1564,1.1967],[110.1892,1.1785],[110.206,1.1521],[110.2078,1.1185],[110.24,1.1119],[110.244,1.083],[110.2599,1.0687],[110.2785,0.9958],[110.3206,1.0007],[110.3544,0.9864],[110.3933,0.9936],[110.406,0.9737]]],[[[103.926,1.6572],[103.975,1.6447],[103.9745,1.6245],[104.0113,1.5889],[104.0336,1.5514],[104.0292,1.5333],[104.0408,1.4953],[104.04,1.4658],[104.0908,1.4297],[104.1122,1.3994],[104.0883,1.3697],[104.1567,1.3469],[104.1961,1.3453],[104.2614,1.3581],[104.2831,1.3696],[104.2739,1.4189],[104.2958,1.4467],[104.2789,1.4722],[104.2778,1.5325],[104.2539,1.5636],[104.2642,1.61],[104.2492,1.6481],[104.2161,1.6931],[104.2206,1.7122],[104.2005,1.7386],[104.1878,1.7847],[104.1481,1.8444],[104.1173,1.8622],[104.105,1.8894],[104.1167,1.9292],[104.1139,1.9683],[104.0363,2.083],[104.0039,2.1518],[103.9658,2.1968],[103.9567,2.24],[103.9713,2.2641],[103.9523,2.2943],[103.9605,2.3129],[103.9093,2.352],[103.8403,2.4347],[103.8198,2.4824],[103.8309,2.5219],[103.8153,2.573],[103.7581,2.6239],[103.7206,2.6325],[103.6678,2.66],[103.6303,2.6664],[103.6214,2.6814],[103.5425,2.7511],[103.4569,2.8581],[103.4431,2.8872],[103.4294,2.9478],[103.4353,2.9867],[103.4342,3.0458],[103.4494,3.0989],[103.4433,3.1661],[103.445,3.2367],[103.4319,3.2858],[103.4233,3.3572],[103.4294,3.4075],[103.4553,3.4725],[103.475,3.4753],[103.4725,3.5289],[103.4364,3.5592],[103.3942,3.612],[103.3467,3.6811],[103.3253,3.7544],[103.3422,3.8061],[103.3781,3.8196],[103.3656,3.8814],[103.3678,3.9169],[103.4014,3.9661],[103.4242,3.9842],[103.3982,4.0396],[103.3859,4.1159],[103.4085,4.1284],[103.4174,4.1744],[103.4451,4.1856],[103.446,4.2398],[103.4789,4.2744],[103.4916,4.3288],[103.4559,4.3933],[103.456,4.4342],[103.444,4.4697],[103.4493,4.5108],[103.4767,4.5266],[103.4677,4.5644],[103.4334,4.6493],[103.4491,4.6578],[103.4474,4.6983],[103.4222,4.7625],[103.437,4.7852],[103.425,4.8148],[103.3623,4.921],[103.3056,5.0243],[103.2358,5.1594],[103.2192,5.1975],[103.1831,5.2546],[103.1861,5.2689],[103.1153,5.3847],[102.9744,5.5241],[102.9183,5.5368],[102.8522,5.5735],[102.798,5.6258],[102.7669,5.6378],[102.6882,5.707],[102.6305,5.782],[102.5982,5.8092],[102.4789,5.8786],[102.4833,5.8978],[102.4513,5.9515],[102.3727,6.1287],[102.3479,6.1636],[102.3253,6.1789],[102.2856,6.1892],[102.2116,6.2244],[102.1448,6.2072],[102.0943,6.2413],[102.0805,6.2254],[102.0774,6.1911],[102.093,6.1487],[102.0537,6.0802],[102.0033,6.0496],[101.9479,5.9901],[101.9223,5.9102],[101.9411,5.8668],[101.9171,5.843],[101.8838,5.8371],[101.8668,5.8074],[101.8328,5.7895],[101.8147,5.7372],[101.7908,5.7552],[101.7661,5.7951],[101.6934,5.7813],[101.6642,5.8153],[101.6649,5.8644],[101.636,5.8796],[101.6236,5.8992],[101.5815,5.9344],[101.5398,5.9186],[101.4824,5.8768],[101.411,5.8781],[101.3914,5.8717],[101.3721,5.8382],[101.3158,5.808],[101.2751,5.8134],[101.2499,5.759],[101.2571,5.715],[101.2058,5.6622],[101.1742,5.6504],[101.1345,5.616],[101.1187,5.6695],[101.0574,5.7473],[101.0301,5.7477],[100.9861,5.8065],[101.0155,5.8354],[101.0095,5.8736],[101.0362,5.9179],[101.052,5.9103],[101.0878,5.9251],[101.1265,5.9813],[101.1064,5.9991],[101.1132,6.0351],[101.1056,6.0615],[101.1321,6.1021],[101.0897,6.1341],[101.0606,6.1404],[101.0757,6.1704],[101.1266,6.1953],[101.0969,6.2601],[101.0194,6.2537],[100.9882,6.2842],[100.9714,6.2874],[100.9402,6.2499],[100.9078,6.2453],[100.8827,6.2611],[100.8537,6.2438],[100.8352,6.2889],[100.8492,6.3123],[100.8473,6.3539],[100.8218,6.3566],[100.8186,6.4374],[100.7777,6.4632],[100.7463,6.4698],[100.7329,6.5062],[100.7087,6.4709],[100.6532,6.4434],[100.6362,6.4575],[100.574,6.4828],[100.5617,6.4954],[100.5274,6.4868],[100.49,6.525],[100.4579,6.5313],[100.4239,6.5146],[100.3595,6.5466],[100.3529,6.5725],[100.3141,6.6033],[100.3267,6.6225],[100.3251,6.6631],[100.2959,6.6869],[100.2333,6.6968],[100.205,6.726],[100.1803,6.6989],[100.1811,6.6545],[100.1661,6.6307],[100.1841,6.5781],[100.1553,6.5611],[100.1635,6.4981],[100.1479,6.4535],[100.1265,6.4195],[100.1605,6.3149],[100.1814,6.2692],[100.241,6.2128],[100.272,6.1534],[100.2904,6.0879],[100.3262,6.046],[100.3426,5.9981],[100.3536,5.9427],[100.3658,5.8283],[100.3675,5.7747],[100.3494,5.7097],[100.3535,5.6897],[100.3381,5.6621],[100.3399,5.5695],[100.3708,5.5239],[100.3805,5.4634],[100.3647,5.3864],[100.4031,5.3417],[100.4172,5.2858],[100.4095,5.2699],[100.4239,5.2267],[100.4229,5.1688],[100.3914,5.1375],[100.3836,5.1142],[100.3603,5.0944],[100.3759,5.0674],[100.3953,5.0094],[100.4211,4.9864],[100.4219,4.9497],[100.4481,4.9153],[100.4717,4.9278],[100.5142,4.9103],[100.5317,4.9306],[100.5469,4.9297],[100.5522,4.9189],[100.5647,4.9275],[100.5753,4.925],[100.5772,4.8989],[100.55,4.8889],[100.5481,4.8642],[100.5786,4.8597],[100.5861,4.8444],[100.6239,4.8392],[100.6292,4.8292],[100.6231,4.8136],[100.6278,4.7983],[100.6111,4.78],[100.6278,4.7669],[100.6353,4.7553],[100.6447,4.7592],[100.6631,4.7461],[100.6719,4.7286],[100.6658,4.7019],[100.6539,4.6736],[100.6225,4.6483],[100.6392,4.6336],[100.6564,4.6128],[100.6639,4.6078],[100.6625,4.5978],[100.6539,4.5917],[100.6592,4.5714],[100.6429,4.5383],[100.6178,4.51],[100.6186,4.47],[100.6095,4.4283],[100.5825,4.4164],[100.5853,4.3741],[100.5595,4.3204],[100.5867,4.2914],[100.5921,4.243],[100.6097,4.2031],[100.6025,4.19],[100.6261,4.1564],[100.6628,4.1703],[100.7064,4.1492],[100.7256,4.1164],[100.7617,4.0856],[100.7672,4.0453],[100.7603,4.0178],[100.7133,4.0044],[100.7002,3.9583],[100.7133,3.878],[100.7519,3.8519],[100.7762,3.8465],[100.8189,3.8574],[100.8092,3.8053],[100.8143,3.7838],[100.8701,3.7689],[100.9134,3.7293],[100.9377,3.6762],[100.9776,3.6694],[101.018,3.6369],[101.0548,3.594],[101.0974,3.4901],[101.124,3.4493],[101.1734,3.3943],[101.1891,3.3478],[101.2211,3.3383],[101.256,3.3085],[101.3001,3.2484],[101.3066,3.1603],[101.3183,3.1156],[101.3592,3.0733],[101.3564,3.015],[101.3947,2.9879],[101.3683,2.959],[101.3864,2.9387],[101.4213,2.9788],[101.4394,2.9654],[101.4121,2.8928],[101.4511,2.8961],[101.4445,2.866],[101.4148,2.8455],[101.4144,2.8077],[101.4613,2.7083],[101.4759,2.6917],[101.5388,2.6617],[101.5778,2.6525],[101.6029,2.6341],[101.6706,2.6169],[101.6951,2.5944],[101.7634,2.6002],[101.7944,2.5745],[101.7986,2.5428],[101.8469,2.4819],[101.8564,2.4168],[101.93,2.4244],[101.9719,2.3979],[101.9761,2.37],[102.0244,2.3608],[102.058,2.34],[102.0781,2.2958],[102.1206,2.2681],[102.155,2.2172],[102.1886,2.22],[102.2364,2.1928],[102.3444,2.1519],[102.3717,2.1336],[102.4147,2.1275],[102.4358,2.1142],[102.4783,2.1053],[102.5169,2.0822],[102.5394,2.0586],[102.5464,2.0283],[102.5975,1.9821],[102.6471,1.9297],[102.6786,1.8785],[102.7081,1.8528],[102.7451,1.8678],[102.7989,1.8622],[102.8493,1.8411],[102.8856,1.815],[102.8862,1.7925],[102.9409,1.7402],[103.0039,1.7381],[103.0747,1.7033],[103.1437,1.6468],[103.2108,1.6114],[103.3206,1.5681],[103.3602,1.5365],[103.4104,1.4301],[103.4219,1.3817],[103.4419,1.3287],[103.5086,1.2647],[103.5152,1.3051],[103.5469,1.3346],[103.5453,1.3583],[103.6063,1.3459],[103.6317,1.3664],[103.6507,1.4061],[103.6983,1.4585],[103.7269,1.4675],[103.7675,1.4553],[103.7943,1.4827],[103.8164,1.4852],[103.8694,1.4667],[103.895,1.4331],[103.9237,1.4361],[103.9601,1.4262],[103.9944,1.4364],[104.012,1.4712],[104.0042,1.4822],[104.0151,1.5242],[103.9981,1.569],[103.9667,1.5935],[103.9558,1.6333],[103.926,1.6572]]],[[[115.2573,5.3103],[115.2351,5.3875],[115.2004,5.3474],[115.1715,5.2947],[115.2141,5.2782],[115.2414,5.241],[115.2687,5.2903],[115.2573,5.3103]]],[[[100.2258,5.4642],[100.2064,5.4606],[100.1858,5.4786],[100.1772,5.4331],[100.1878,5.4275],[100.1831,5.3817],[100.1964,5.3097],[100.1775,5.2839],[100.225,5.2864],[100.2622,5.2772],[100.2919,5.28],[100.315,5.355],[100.3167,5.3831],[100.3444,5.4131],[100.3103,5.4411],[100.3083,5.4647],[100.2789,5.4678],[100.2555,5.4831],[100.2258,5.4642]]],[[[118.1961,5.8517],[118.1687,5.8492],[118.1511,5.8222],[118.1756,5.8117],[118.197,5.8206],[118.2119,5.82],[118.23,5.8333],[118.2244,5.8436],[118.1961,5.8517]]],[[[117.9232,5.7961],[117.947,5.7767],[117.9633,5.748],[118.0014,5.7419],[118.0169,5.7681],[117.9789,5.7878],[117.9232,5.7961]]],[[[103.0054,5.8166],[102.9938,5.7887],[102.9985,5.7493],[103.0189,5.7514],[103.0439,5.7881],[103.0054,5.8166]]],[[[117.7217,6.0358],[117.6981,6.0303],[117.6851,5.9853],[117.715,5.9828],[117.7217,6.0358]]],[[[117.6486,6.0217],[117.6316,5.992],[117.6073,5.9703],[117.5858,5.9736],[117.5778,5.9365],[117.5957,5.9192],[117.6246,5.9206],[117.6817,5.9694],[117.6783,6],[117.6486,6.0217]]],[[[116.0178,6.0425],[116.005,6.0231],[116.0558,6.0017],[116.0519,6.0261],[116.0178,6.0425]]],[[[117.4759,6.7512],[117.4174,6.7545],[117.3904,6.7419],[117.394,6.7134],[117.4356,6.6933],[117.4069,6.6733],[117.3547,6.6824],[117.3311,6.673],[117.3453,6.6369],[117.3811,6.6327],[117.3991,6.6186],[117.4304,6.6234],[117.4528,6.6389],[117.4887,6.6469],[117.5105,6.6699],[117.5102,6.6902],[117.4811,6.7306],[117.4759,6.7512]]],[[[117.3067,7.0767],[117.2806,7.0772],[117.2647,7.0422],[117.305,7.0144],[117.3483,7.0481],[117.3067,7.0767]]]]},"properties":{"GID_0":"MYS","ISO_A2":"MY","ISO_A3":"MYS","NAME_EN":"Malaysia","NAME_IT":"Malaysia"}}
]}