{"type":"FeatureCollection", "features": [
{"type":"Feature","geometry":{"type":"MultiPolygon","coordinates":[[[[-62.5782,17.1021],[-62.5532,17.1049],[-62.5418,17.1376],[-62.5443,17.1787],[-62.5785,17.2074],[-62.6082,17.206],[-62.6282,17.1715],[-62.6329,17.129],[-62.6093,17.096],[-62.5782,17.1021]]],[[[-62.6838,17.2943],[-62.7215,17.3574],[-62.7801,17.4046],[-62.8088,17.4174],[-62.849,17.4068],[-62.864,17.3701],[-62.8257,17.3301],[-62.7679,17.2935],[-62.7096,17.2932],[-62.6604,17.2607],[-62.6521,17.2235],[-62.6207,17.2399],[-62.6838,17.2943]]]]},"properties":{"GID_0":"KNA","ISO_A2":"KN","ISO_A3":"KNA","NAME_EN":"St. Kitts and Nevis","NAME_IT":"Saint Kitts e Nevis"}}
]}