{"type":"FeatureCollection", "features": [
{"type":"Feature","geometry":{"type":"Polygon","coordinates":[[[16.8007,7.5557],[16.8438,7.5298],[16.9101,7.5616],[16.9053,7.6163],[17.1604,7.6667],[17.1692,7.7069],[17.3147,7.8284],[17.4499,7.8719],[17.5151,7.8687],[17.5423,7.9147],[17.6489,7.9457],[17.6717,7.9828],[17.9216,7.9586],[18.032,8.0093],[18.6016,8.0467],[18.63,8.1464],[18.6736,8.2122],[18.8044,8.2607],[18.8509,8.3054],[18.989,8.5107],[19.0423,8.5543],[19.0658,8.6374],[19.1206,8.6687],[19.0196,8.7614],[18.923,8.8004],[18.8683,8.8757],[18.9927,8.9792],[19.0777,9.0149],[19.2184,9.0315],[19.3092,9.0078],[19.4011,9.026],[19.672,9.0208],[19.7729,9.0574],[19.9271,9.0608],[20.0578,9.1417],[20.2387,9.1459],[20.3532,9.1282],[20.4559,9.1735],[20.5286,9.3371],[20.6379,9.3178],[20.6628,9.3953],[20.7608,9.4011],[20.8773,9.5252],[20.9516,9.5679],[20.9501,9.6138],[21.0249,9.7585],[21.1153,9.7919],[21.1331,9.8479],[21.2628,9.9937],[21.3406,9.9637],[21.4534,10.0831],[21.4681,10.1522],[21.5613,10.2104],[21.6757,10.2376],[21.7374,10.3202],[21.7666,10.404],[21.7175,10.5079],[21.7336,10.654],[21.7886,10.6694],[21.7912,10.7981],[21.8808,10.8699],[21.934,10.8534],[22.0816,10.895],[22.1518,10.876],[22.3269,10.9558],[22.5207,11.0076],[22.7343,10.9745],[22.8813,10.9309],[22.9861,11.1996],[22.9533,11.312],[22.9453,11.4172],[22.789,11.4032],[22.7542,11.4751],[22.6622,11.5155],[22.5661,11.6207],[22.5541,11.6872],[22.635,12.0268],[22.5514,12.053],[22.4917,12.0205],[22.4925,12.1485],[22.444,12.272],[22.4219,12.3878],[22.3721,12.4415],[22.413,12.4952],[22.4589,12.6198],[22.2874,12.6966],[22.1951,12.7069],[22.1362,12.6659],[22.0328,12.6372],[21.9342,12.6394],[21.858,12.7341],[21.8507,12.8715],[21.9257,13.0469],[22.0204,13.1391],[22.1279,13.1643],[22.2842,13.3497],[22.221,13.4518],[22.2137,13.5665],[22.1462,13.6218],[22.1294,13.7159],[22.0922,13.7762],[22.2319,13.9474],[22.3927,14.05],[22.5364,14.1186],[22.5791,14.1844],[22.5582,14.2297],[22.4792,14.232],[22.4376,14.2757],[22.4496,14.4724],[22.3842,14.5067],[22.4112,14.5959],[22.7172,14.6864],[22.6711,14.8487],[22.7594,14.9173],[22.7569,14.9722],[22.8707,15.0831],[22.9997,15.2372],[22.9902,15.4159],[22.9303,15.4652],[22.9306,15.5508],[23.0359,15.6178],[23.1223,15.7099],[23.3335,15.6863],[23.4165,15.6931],[23.5781,15.7538],[23.8058,15.7427],[24.0017,15.7049],[24.0001,16.0001],[24.0001,19.5081],[23.4059,19.8131],[22.8029,20.1259],[22.0883,20.4938],[21.6809,20.7051],[21.0821,21.0074],[20.6688,21.2101],[20.3507,21.3735],[18.7261,22.1677],[18.2439,22.3959],[17.5573,22.7225],[16.8471,23.0585],[16.3784,23.2782],[15.9982,23.4504],[15.4414,23.2061],[14.9979,22.9992],[15.1144,22.4048],[15.1919,21.9897],[15.1984,21.4913],[15.2886,21.4323],[15.6256,20.9632],[15.5462,20.8804],[15.5901,20.7745],[15.7457,20.6296],[15.8652,20.4625],[15.9956,20.3485],[15.7536,19.9478],[15.6974,19.5178],[15.5938,18.7319],[15.565,18.1464],[15.5393,17.5999],[15.5055,16.8979],[14.9566,16.3253],[14.6939,16.0442],[14.3848,15.7316],[14.2414,15.5411],[13.9702,15.1565],[13.8695,15.0428],[13.7897,14.8632],[13.81,14.7217],[13.6773,14.6366],[13.696,14.5511],[13.6409,14.5137],[13.4997,14.4778],[13.4796,14.3796],[13.6378,13.7015],[14.0829,13.0794],[14.4598,13.0738],[14.5633,12.9107],[14.5474,12.796],[14.5885,12.7447],[14.7036,12.7239],[14.7769,12.6296],[14.8239,12.6335],[14.8582,12.48],[14.9096,12.3762],[14.8937,12.3059],[14.9258,12.1215],[14.9818,12.0847],[15.0349,12.1027],[15.0754,11.9716],[15.0399,11.9051],[15.0955,11.846],[15.0817,11.7599],[15.1028,11.5804],[15.1334,11.5064],[15.0584,11.3953],[15.0503,11.2775],[15.112,11.0846],[15.0477,10.9992],[15.0838,10.95],[15.0724,10.8202],[15.1567,10.646],[15.1466,10.5364],[15.2413,10.4724],[15.3122,10.307],[15.3562,10.2927],[15.4452,10.1963],[15.4871,10.1237],[15.6873,9.9948],[15.4133,9.9349],[15.2484,9.9915],[15.1128,9.9867],[15.0619,9.9487],[14.9615,9.9849],[14.8024,9.9357],[14.4661,10.0066],[14.2082,10.0016],[14.1351,9.8239],[14.0263,9.7316],[13.9823,9.6443],[14.0467,9.6008],[14.1109,9.5178],[14.1564,9.5022],[14.2744,9.3584],[14.3114,9.3687],[14.3849,9.267],[14.3485,9.2068],[14.493,9.0577],[14.836,8.8152],[14.9014,8.8135],[14.9874,8.7323],[14.982,8.6895],[15.106,8.6578],[15.2002,8.509],[15.3967,8.0913],[15.3957,8.0444],[15.4524,7.8811],[15.5047,7.7936],[15.5886,7.7725],[15.5936,7.6876],[15.5465,7.5112],[15.728,7.5191],[15.8096,7.4411],[15.9748,7.4833],[16.0567,7.5776],[16.2355,7.6067],[16.3755,7.6659],[16.4305,7.7187],[16.4146,7.7741],[16.4891,7.7903],[16.5161,7.8429],[16.5837,7.8339],[16.5945,7.7689],[16.668,7.7382],[16.6672,7.6687],[16.7268,7.6502],[16.8007,7.5557]]]},"properties":{"GID_0":"TCD","ISO_A2":"TD","ISO_A3":"TCD","NAME_EN":"Chad","NAME_IT":"Ciad"}}
]}