{"type":"FeatureCollection", "features": [
{"type":"Feature","geometry":{"type":"MultiPolygon","coordinates":[[[[-61.6374,12.0463],[-61.6371,12.0538],[-61.6168,12.0765],[-61.6254,12.0935],[-61.6265,12.1129],[-61.6096,12.1351],[-61.6021,12.1687],[-61.6057,12.2024],[-61.6101,12.2093],[-61.6046,12.2232],[-61.6154,12.2301],[-61.6443,12.2254],[-61.6546,12.2351],[-61.6885,12.2176],[-61.7043,12.1968],[-61.7246,12.1832],[-61.7349,12.1512],[-61.7532,12.121],[-61.7474,12.1099],[-61.7632,12.0838],[-61.7524,12.074],[-61.7576,12.0635],[-61.7513,12.0493],[-61.7549,12.0293],[-61.7851,12.011],[-61.7846,11.9979],[-61.7668,11.9929],[-61.7632,12.0018],[-61.7368,12.0124],[-61.7254,12.0018],[-61.6635,12.0271],[-61.6529,12.026],[-61.6374,12.0463]]],[[[-61.584,12.3165],[-61.5957,12.3001],[-61.5851,12.2921],[-61.5765,12.306],[-61.584,12.3165]]],[[[-61.4371,12.5288],[-61.4499,12.5168],[-61.4501,12.5007],[-61.4551,12.4865],[-61.4824,12.4718],[-61.4985,12.4679],[-61.4701,12.4454],[-61.4549,12.4585],[-61.4296,12.4585],[-61.4326,12.4785],[-61.4199,12.501],[-61.4296,12.5096],[-61.4371,12.5288]]]]},"properties":{"GID_0":"GRD","ISO_A2":"GD","ISO_A3":"GRD","NAME_EN":"Grenada","NAME_IT":"Grenada"}}
]}