{"type":"FeatureCollection", "features": [
{"type":"Feature","geometry":{"type":"MultiPolygon","coordinates":[[[[51.1751,-10.1599],[51.1523,-10.1954],[51.1584,-10.2048],[51.1798,-10.164],[51.1751,-10.1599]]],[[[47.7451,-10.0557],[47.7451,-10.0668],[47.7592,-10.0754],[47.7528,-10.094],[47.734,-10.1021],[47.7476,-10.1107],[47.7628,-10.0904],[47.7587,-10.0662],[47.7451,-10.0557]]],[[[46.5203,-9.6968],[46.5162,-9.7151],[46.504,-9.7337],[46.4917,-9.7401],[46.4937,-9.7535],[46.5137,-9.7513],[46.5281,-9.7199],[46.5203,-9.6968]]],[[[46.4495,-9.3746],[46.4503,-9.3868],[46.4651,-9.389],[46.4684,-9.4085],[46.4553,-9.419],[46.4315,-9.4185],[46.4262,-9.4309],[46.397,-9.436],[46.347,-9.451],[46.3181,-9.4554],[46.3078,-9.4618],[46.291,-9.4612],[46.2801,-9.4671],[46.2534,-9.4601],[46.2209,-9.4335],[46.2145,-9.4432],[46.2292,-9.4798],[46.2534,-9.494],[46.2867,-9.4946],[46.3037,-9.4885],[46.3181,-9.4776],[46.3434,-9.4671],[46.369,-9.4626],[46.3937,-9.451],[46.4231,-9.4477],[46.4373,-9.454],[46.459,-9.4557],[46.504,-9.4421],[46.5209,-9.4248],[46.5231,-9.3985],[46.492,-9.3829],[46.4495,-9.3746]]],[[[46.2409,-9.3712],[46.212,-9.3774],[46.204,-9.389],[46.2076,-9.4038],[46.2276,-9.3862],[46.2429,-9.3862],[46.2409,-9.3712]]],[[[46.3931,-9.3668],[46.3726,-9.3696],[46.3401,-9.3674],[46.3206,-9.3696],[46.2965,-9.3674],[46.2862,-9.3765],[46.312,-9.3862],[46.338,-9.3801],[46.3906,-9.3868],[46.4228,-9.3871],[46.4384,-9.3732],[46.3931,-9.3668]]],[[[56.2957,-7.1026],[56.2853,-7.1012],[56.2715,-7.1337],[56.2848,-7.141],[56.294,-7.1179],[56.2957,-7.1026]]],[[[55.5212,-4.7632],[55.5165,-4.7507],[55.5265,-4.7307],[55.5217,-4.7074],[55.5348,-4.6821],[55.5104,-4.6644],[55.4726,-4.641],[55.4629,-4.625],[55.4714,-4.6053],[55.4651,-4.5945],[55.4673,-4.5818],[55.4506,-4.5621],[55.4334,-4.5626],[55.4309,-4.6113],[55.4245,-4.6157],[55.3976,-4.6174],[55.3687,-4.639],[55.3778,-4.6504],[55.3972,-4.649],[55.4062,-4.6593],[55.4341,-4.6782],[55.4461,-4.6762],[55.4695,-4.7082],[55.4831,-4.7146],[55.4895,-4.7404],[55.4631,-4.746],[55.4631,-4.7596],[55.4956,-4.7757],[55.5026,-4.7954],[55.5212,-4.8038],[55.5401,-4.8015],[55.5248,-4.784],[55.5212,-4.7632]]],[[[55.8342,-4.3372],[55.8251,-4.3635],[55.8312,-4.3793],[55.8448,-4.3807],[55.8528,-4.3596],[55.8493,-4.3498],[55.8342,-4.3372]]],[[[55.7612,-4.3582],[55.7592,-4.3421],[55.7658,-4.3276],[55.7353,-4.306],[55.7226,-4.311],[55.7072,-4.2888],[55.7012,-4.2946],[55.6781,-4.2965],[55.6856,-4.3199],[55.6926,-4.3257],[55.7159,-4.3279],[55.7281,-4.3501],[55.7612,-4.3582]]],[[[55.232,-4.4646],[55.2145,-4.466],[55.2053,-4.4801],[55.2256,-4.5029],[55.2256,-4.5126],[55.2478,-4.5109],[55.2531,-4.4857],[55.2448,-4.471],[55.232,-4.4646]]]]},"properties":{"GID_0":"SYC","ISO_A2":"SC","ISO_A3":"SYC","NAME_EN":"Seychelles","NAME_IT":"Seychelles"}}
]}