{"type":"FeatureCollection", "features": [
{"type":"Feature","geometry":{"type":"Polygon","coordinates":[[[69.3104,37.1171],[69.4056,37.1716],[69.4226,37.2361],[69.3825,37.3302],[69.379,37.4354],[69.5688,37.5797],[69.8101,37.572],[69.8605,37.6135],[70.1416,37.5223],[70.2689,37.6199],[70.2964,37.7666],[70.1892,37.845],[70.2087,37.9233],[70.326,37.9985],[70.5035,38.1644],[70.6107,38.3457],[70.6786,38.4089],[70.9895,38.4904],[71.1631,38.3872],[71.2527,38.3103],[71.3741,38.2556],[71.3212,38.0705],[71.2611,37.9217],[71.3304,37.8865],[71.5241,37.9571],[71.5905,37.9219],[71.5952,37.806],[71.5501,37.7355],[71.4955,37.5371],[71.4946,37.3014],[71.456,37.2131],[71.4327,37.0566],[71.4651,36.9632],[71.5411,36.8476],[71.5668,36.7642],[71.6738,36.6728],[71.8424,36.6813],[72.0137,36.8067],[72.343,36.9892],[72.6629,37.0173],[72.7759,37.195],[72.9788,37.2974],[73.0968,37.3266],[73.1486,37.4019],[73.2154,37.4059],[73.3075,37.4639],[73.51,37.4745],[73.65,37.4352],[73.7758,37.4396],[73.774,37.3392],[73.6571,37.3138],[73.6318,37.2497],[73.8422,37.2326],[73.9678,37.299],[74.2052,37.3366],[74.2761,37.401],[74.4028,37.3904],[74.5344,37.4035],[74.569,37.3735],[74.7099,37.3849],[74.8093,37.3512],[74.877,37.2747],[75.1162,37.3203],[75.1338,37.4374],[75.0555,37.5272],[74.928,37.5562],[74.8966,37.6577],[74.9951,37.7628],[74.9054,37.8429],[74.9146,38.009],[74.8229,38.0831],[74.7858,38.1855],[74.7878,38.3545],[74.8694,38.4035],[74.8673,38.4984],[74.7187,38.5223],[74.631,38.583],[74.3822,38.653],[74.1341,38.6684],[74.0698,38.5311],[73.9243,38.5361],[73.8067,38.6335],[73.7536,38.7335],[73.7068,38.8856],[73.7473,38.9331],[73.8456,38.9478],[73.8198,39.033],[73.7448,39.0304],[73.6915,39.1568],[73.6162,39.2378],[73.5651,39.2404],[73.67,39.3908],[73.6348,39.4665],[73.3901,39.4512],[73.3551,39.3975],[73.1789,39.3552],[72.8676,39.3514],[72.6975,39.3904],[72.4791,39.3821],[72.4701,39.3519],[72.3079,39.298],[72.263,39.2109],[72.1667,39.2738],[72.0855,39.2853],[72.0356,39.3665],[71.9188,39.2803],[71.802,39.2737],[71.7527,39.324],[71.7962,39.3753],[71.7865,39.4434],[71.5624,39.4549],[71.551,39.5874],[71.4989,39.6136],[71.4146,39.5712],[71.2586,39.5489],[71.0897,39.4992],[71.0661,39.4142],[70.9124,39.3833],[70.768,39.3994],[70.7614,39.4625],[70.6564,39.5805],[70.524,39.6326],[70.375,39.591],[70.3045,39.5301],[70.1042,39.6022],[70.0148,39.5542],[69.932,39.5771],[69.8673,39.5234],[69.7121,39.5933],[69.6262,39.5852],[69.4833,39.5249],[69.3402,39.5392],[69.3203,39.7095],[69.2799,39.803],[69.3557,39.9779],[69.4781,39.9009],[69.5331,39.9329],[69.5071,40.0338],[69.5625,40.1038],[69.7013,40.1164],[69.9961,40.222],[70.0784,40.2037],[70.2152,40.1283],[70.2689,40.1317],[70.5651,40.0207],[70.6384,39.9726],[70.6817,40.0881],[70.759,40.0899],[70.8243,40.1597],[70.9712,40.1646],[70.9676,40.2285],[70.868,40.223],[70.7779,40.1839],[70.6456,40.165],[70.571,40.2447],[70.5505,40.3459],[70.3852,40.3765],[70.3327,40.4492],[70.4948,40.5114],[70.6303,40.6209],[70.7355,40.6576],[70.7847,40.7323],[70.6444,40.8682],[70.5683,40.9722],[70.4486,41.0422],[70.3897,41.0009],[70.3655,40.8912],[70.2149,40.8263],[70.1552,40.8343],[70.0803,40.7652],[69.9227,40.7039],[69.7676,40.6888],[69.6677,40.6299],[69.5479,40.7535],[69.401,40.782],[69.3484,40.7121],[69.3634,40.6155],[69.2739,40.4954],[69.339,40.3479],[69.2593,40.2482],[69.3161,40.2016],[68.9995,40.2205],[68.7753,40.1977],[68.5383,40.1406],[68.6084,40.0918],[68.8729,40.1464],[68.9774,40.1517],[69.0142,40.0802],[68.8894,40.068],[68.8124,40],[68.9129,39.9043],[68.7162,39.8693],[68.5919,39.7243],[68.6266,39.6507],[68.5149,39.5341],[68.0334,39.5766],[67.7968,39.6544],[67.705,39.6566],[67.6282,39.6],[67.4987,39.5719],[67.4255,39.497],[67.519,39.3387],[67.3923,39.2998],[67.4621,39.2032],[67.6169,39.1774],[67.6779,39.144],[67.7007,39.0046],[67.9757,39.0333],[68.1153,39.01],[68.1991,38.9261],[68.197,38.8513],[68.073,38.8035],[68.1277,38.7412],[68.0581,38.7059],[68.086,38.6478],[68.0685,38.5407],[68.1967,38.4061],[68.2336,38.3286],[68.3203,38.2925],[68.4026,38.195],[68.3699,38.0785],[68.2846,37.984],[68.2703,37.9094],[68.1288,37.8773],[68.0427,37.7366],[67.9388,37.6403],[67.8284,37.4633],[67.8208,37.2348],[67.7868,37.0892],[67.9003,37.0582],[67.9095,37.0152],[68.0271,36.9304],[68.2048,37.0242],[68.2814,37.0206],[68.3053,37.1031],[68.3908,37.0978],[68.4387,37.1528],[68.5383,37.164],[68.6427,37.2075],[68.8344,37.3183],[68.9682,37.3204],[69.119,37.1763],[69.2501,37.0959],[69.3104,37.1171]]]},"properties":{"GID_0":"TJK","ISO_A2":"TJ","ISO_A3":"TJK","NAME_EN":"Tajikistan","NAME_IT":"Tagikistan"}}
]}