{"type":"FeatureCollection", "features": [
{"type":"Feature","geometry":{"type":"Polygon","coordinates":[[[43.8995,41.1648],[44.1692,41.1995],[44.1718,41.2377],[44.4355,41.1877],[44.5337,41.1908],[44.6109,41.235],[44.7117,41.2082],[44.8018,41.2216],[44.8321,41.2806],[44.946,41.2586],[44.988,41.299],[45.1126,41.3463],[45.1787,41.4079],[45.3069,41.4681],[45.3919,41.4257],[45.4369,41.4492],[45.7055,41.3404],[45.7172,41.2648],[45.9439,41.1804],[46.2454,41.1758],[46.2735,41.1399],[46.4666,41.0385],[46.6261,41.0657],[46.6514,41.2048],[46.6902,41.2435],[46.6756,41.3365],[46.6094,41.3895],[46.4888,41.4235],[46.3519,41.4926],[46.2478,41.6548],[46.2959,41.7862],[46.399,41.851],[46.4182,41.9075],[46.3043,41.95],[46.2262,42.0018],[46.0148,42.042],[45.9467,42.0254],[45.9065,42.0881],[45.7687,42.1258],[45.6061,42.219],[45.6407,42.2894],[45.7136,42.2905],[45.7313,42.3858],[45.7729,42.4363],[45.5774,42.5458],[45.35,42.529],[45.1672,42.6978],[45.0351,42.7012],[44.9711,42.7446],[44.8691,42.7416],[44.7982,42.6317],[44.7465,42.644],[44.7274,42.7206],[44.6621,42.7503],[44.5062,42.7516],[44.413,42.7138],[44.2566,42.6887],[44.209,42.6268],[44.0347,42.605],[43.9481,42.5585],[43.7702,42.5877],[43.7314,42.6276],[43.8037,42.7184],[43.7909,42.7501],[43.6449,42.7999],[43.5617,42.8661],[43.4652,42.8909],[43.3431,42.89],[43.1921,42.9344],[43.0266,43.0499],[43.0386,43.0906],[42.8927,43.1701],[42.7654,43.1853],[42.6738,43.168],[42.4543,43.2129],[42.4261,43.254],[42.2885,43.2084],[42.2131,43.2299],[42.0387,43.1969],[41.8782,43.2461],[41.8201,43.2038],[41.5825,43.2354],[41.4203,43.3531],[41.3317,43.3341],[41.1392,43.3946],[41.0432,43.3907],[40.6523,43.5595],[40.5719,43.5161],[40.3353,43.5527],[40.2631,43.5829],[40.0969,43.5633],[40.012,43.3849],[40.0735,43.3785],[40.2449,43.316],[40.2779,43.1893],[40.5201,43.1418],[40.5812,43.091],[40.8654,43.0754],[40.9368,43.0079],[41.0418,42.996],[41.1037,42.8493],[41.2085,42.8026],[41.4374,42.7407],[41.5137,42.5918],[41.5554,42.3946],[41.5921,42.374],[41.6387,42.2646],[41.6604,42.1321],[41.7254,42.0993],[41.7782,41.8621],[41.7171,41.704],[41.5735,41.6043],[41.5787,41.52],[41.655,41.4836],[41.7088,41.4977],[41.8231,41.4346],[41.9552,41.5246],[42.0481,41.4945],[42.1839,41.5145],[42.4077,41.4666],[42.5101,41.4686],[42.5841,41.5702],[42.6779,41.5973],[42.7836,41.5782],[42.8662,41.4991],[42.9696,41.4515],[43.0248,41.3783],[43.2023,41.3004],[43.2318,41.1927],[43.3554,41.2012],[43.4372,41.1794],[43.4711,41.1295],[43.5413,41.1489],[43.7297,41.1138],[43.8229,41.1583],[43.8995,41.1648]]]},"properties":{"GID_0":"GEO","ISO_A2":"GE","ISO_A3":"GEO","NAME_EN":"Georgia","NAME_IT":"Georgia"}}
]}