{"type":"FeatureCollection", "features": [
{"type":"Feature","geometry":{"type":"MultiPolygon","coordinates":[[[[-23.4624,14.9721],[-23.4407,14.9868],[-23.4324,15.0204],[-23.4801,15.0732],[-23.5015,15.1246],[-23.5449,15.1565],[-23.5735,15.1607],[-23.6151,15.2282],[-23.6471,15.2476],[-23.6807,15.2601],[-23.6907,15.2885],[-23.6815,15.3115],[-23.7043,15.3329],[-23.7549,15.3324],[-23.7604,15.3062],[-23.7749,15.299],[-23.7563,15.261],[-23.741,15.2485],[-23.7546,15.224],[-23.7668,15.1515],[-23.7601,15.136],[-23.7785,15.0915],[-23.7543,15.0432],[-23.7149,15.0129],[-23.7268,14.9857],[-23.6751,14.9396],[-23.661,14.9371],[-23.6254,14.9101],[-23.5582,14.9088],[-23.534,14.9021],[-23.4776,14.9135],[-23.4624,14.9721]]],[[[-23.179,15.339],[-23.201,15.2924],[-23.231,15.2668],[-23.2157,15.2476],[-23.2279,15.2188],[-23.2329,15.1629],[-23.2135,15.136],[-23.1857,15.119],[-23.1571,15.1163],[-23.111,15.1426],[-23.0876,15.1674],[-23.1007,15.2732],[-23.109,15.3068],[-23.1343,15.3082],[-23.1749,15.3218],[-23.179,15.339]]],[[[-22.7887,16.2268],[-22.8071,16.2082],[-22.8332,16.2029],[-22.886,16.2088],[-22.9135,16.231],[-22.9212,16.1785],[-22.9051,16.1504],[-22.9065,16.124],[-22.959,16.0832],[-22.966,16.0415],[-22.9493,16.0135],[-22.8904,15.9924],[-22.8782,15.9735],[-22.7976,15.9788],[-22.7365,16.0187],[-22.6818,16.0496],[-22.6649,16.0843],[-22.6776,16.1201],[-22.6749,16.1457],[-22.7049,16.1768],[-22.7038,16.2021],[-22.7479,16.211],[-22.7887,16.2268]]],[[[-24.2896,14.9546],[-24.2868,14.9749],[-24.299,15.0135],[-24.3132,15.0324],[-24.3357,15.0454],[-24.3696,15.0524],[-24.4146,15.0251],[-24.454,15.0104],[-24.4868,14.9801],[-24.499,14.9482],[-24.5018,14.8904],[-24.4668,14.8568],[-24.4504,14.8501],[-24.4299,14.8271],[-24.4007,14.8135],[-24.346,14.8171],[-24.3085,14.8382],[-24.2818,14.8676],[-24.2774,14.8862],[-24.2896,14.9546]]],[[[-24.6813,14.9001],[-24.7257,14.8899],[-24.7496,14.8585],[-24.7199,14.8099],[-24.7024,14.8018],[-24.6679,14.8335],[-24.6813,14.9001]]],[[[-24.3201,16.4846],[-24.3068,16.4854],[-24.2787,16.5632],[-24.2601,16.581],[-24.2224,16.594],[-24.169,16.5912],[-24.1285,16.5721],[-24.1093,16.5521],[-24.0368,16.5496],[-24.0149,16.5535],[-24.0071,16.5718],[-24.0351,16.584],[-24.0496,16.6032],[-24.071,16.6121],[-24.1585,16.6146],[-24.1771,16.6315],[-24.2299,16.6476],[-24.2724,16.6313],[-24.2985,16.6468],[-24.3157,16.6699],[-24.3426,16.6821],[-24.361,16.6676],[-24.3893,16.6682],[-24.4199,16.6554],[-24.4263,16.6143],[-24.4093,16.5963],[-24.3632,16.5765],[-24.3593,16.554],[-24.3346,16.5238],[-24.3201,16.4846]]],[[[-22.9182,16.8549],[-22.986,16.8257],[-22.9946,16.7968],[-22.9885,16.731],[-22.9699,16.7001],[-22.9396,16.6882],[-22.9451,16.6393],[-22.9101,16.5974],[-22.8854,16.5954],[-22.8993,16.6354],[-22.8718,16.6693],[-22.8968,16.7324],[-22.894,16.7618],[-22.8799,16.7732],[-22.9024,16.8049],[-22.8893,16.8346],[-22.9182,16.8549]]],[[[-24.7751,16.806],[-24.7912,16.7843],[-24.786,16.769],[-24.7585,16.7599],[-24.7449,16.7363],[-24.7224,16.7535],[-24.7488,16.7951],[-24.7751,16.806]]],[[[-24.9171,16.9221],[-24.9454,16.9046],[-24.961,16.9204],[-24.9907,16.9112],[-25.0093,16.8718],[-25.026,16.8871],[-25.0574,16.8721],[-25.0843,16.8454],[-25.0613,16.824],[-25.0521,16.8032],[-25.0096,16.7932],[-24.984,16.7765],[-24.9479,16.7929],[-24.9224,16.7949],[-24.8935,16.8113],[-24.8743,16.809],[-24.8615,16.8321],[-24.876,16.861],[-24.8957,16.8671],[-24.914,16.8854],[-24.9035,16.9062],[-24.9171,16.9221]]],[[[-24.9776,17.0693],[-24.9629,17.0882],[-24.9662,17.114],[-24.999,17.1262],[-25.0171,17.1535],[-25.0226,17.1774],[-25.0676,17.1863],[-25.0876,17.204],[-25.1735,17.161],[-25.2274,17.1435],[-25.2443,17.1226],[-25.2693,17.1187],[-25.3318,17.0979],[-25.3615,17.0554],[-25.3482,17.0235],[-25.3257,17.0157],[-25.3215,16.9762],[-25.3096,16.9535],[-25.3199,16.9343],[-25.2999,16.9062],[-25.2718,16.9204],[-25.231,16.9124],[-25.1737,16.9229],[-25.1476,16.9582],[-25.1329,16.9613],[-25.1065,16.9946],[-25.0843,17.0137],[-25.0507,17.0174],[-24.986,17.0549],[-24.9776,17.0693]]]]},"properties":{"GID_0":"CPV","ISO_A2":"CV","ISO_A3":"CPV","NAME_EN":"Cabo Verde","NAME_IT":"Capo Verde"}}
]}