{"type":"FeatureCollection", "features": [
{"type":"Feature","geometry":{"type":"Polygon","coordinates":[[[35.2821,-16.886],[35.3122,-16.8279],[35.2853,-16.7154],[35.1701,-16.6203],[35.145,-16.5562],[35.2622,-16.4703],[35.2648,-16.3917],[35.3084,-16.2125],[35.4053,-16.1238],[35.4485,-16.1133],[35.5254,-16.1668],[35.7448,-16.0733],[35.8144,-16.0307],[35.8133,-15.9322],[35.8521,-15.4175],[35.7892,-15.1679],[35.915,-14.895],[35.8705,-14.8946],[35.8703,-14.6745],[35.637,-14.3948],[35.5174,-14.2607],[35.484,-14.1674],[35.2302,-13.8848],[35.0867,-13.6965],[34.8664,-13.4819],[34.6035,-13.4818],[34.5209,-13.3372],[34.5394,-13.2492],[34.5502,-13.0294],[34.5082,-12.849],[34.5239,-12.7297],[34.4983,-12.6643],[34.4138,-12.3497],[34.4084,-12.2546],[34.4253,-12.1595],[34.5975,-11.766],[34.6341,-11.6621],[34.6426,-11.5825],[34.9579,-11.5713],[34.9257,-11.4151],[34.8827,-11.3552],[34.8049,-11.3212],[34.6861,-11.1412],[34.6283,-11.102],[34.6042,-10.9895],[34.6365,-10.9468],[34.6519,-10.7576],[34.5551,-10.549],[34.5756,-10.4672],[34.5416,-10.4156],[34.5698,-10.3076],[34.5548,-10.1885],[34.5225,-10.1153],[34.539,-10.0642],[34.5015,-9.9764],[34.3445,-9.8065],[34.306,-9.7402],[34.1747,-9.6121],[34.0363,-9.4919],[33.9648,-9.5284],[33.9671,-9.627],[33.9432,-9.7061],[33.8925,-9.6838],[33.7603,-9.582],[33.6849,-9.608],[33.5519,-9.5859],[33.5198,-9.627],[33.4403,-9.6127],[33.3942,-9.5392],[33.3231,-9.4842],[33.2102,-9.5089],[33.1481,-9.4908],[33.0228,-9.4003],[32.9445,-9.4202],[32.9511,-9.4916],[33.042,-9.5068],[33.008,-9.5762],[33.0225,-9.6236],[33.2023,-9.6001],[33.2401,-9.6556],[33.2451,-9.7558],[33.3735,-9.8578],[33.3949,-9.9054],[33.3159,-10.0693],[33.3481,-10.1159],[33.4073,-10.1209],[33.4951,-10.1816],[33.5617,-10.2586],[33.5385,-10.3191],[33.5751,-10.4496],[33.6347,-10.4726],[33.7062,-10.6024],[33.5575,-10.7176],[33.4516,-10.8245],[33.381,-10.813],[33.2485,-10.8738],[33.3285,-11.074],[33.4029,-11.1606],[33.3702,-11.241],[33.2305,-11.4288],[33.2422,-11.5317],[33.3048,-11.6058],[33.2988,-11.7331],[33.3226,-11.8033],[33.2941,-11.8567],[33.3108,-11.92],[33.2947,-12.0068],[33.2455,-12.1108],[33.2922,-12.166],[33.286,-12.238],[33.3529,-12.3466],[33.4496,-12.3179],[33.5294,-12.3478],[33.3991,-12.5104],[33.2899,-12.5486],[33.215,-12.6296],[33.1589,-12.6022],[33.065,-12.6262],[33.0164,-12.7242],[32.9612,-12.7757],[32.9816,-12.8702],[33.0389,-12.8965],[33.0407,-12.9453],[33.0023,-13.118],[33.0261,-13.2142],[32.9473,-13.2983],[32.9437,-13.3963],[32.864,-13.4802],[32.8405,-13.5406],[32.7588,-13.5828],[32.7136,-13.6378],[32.8027,-13.6555],[32.8293,-13.7267],[32.8155,-13.803],[32.8934,-13.8139],[32.9937,-13.9522],[33.0006,-14.0185],[33.1516,-13.9412],[33.2963,-14.0321],[33.3174,-14.0775],[33.2969,-14.1397],[33.342,-14.2124],[33.3792,-14.2158],[33.4483,-14.3615],[33.5448,-14.4356],[33.6299,-14.5316],[33.6449,-14.5832],[33.7132,-14.5718],[33.7294,-14.488],[33.8136,-14.5418],[33.9121,-14.4767],[34.0743,-14.485],[34.0931,-14.4502],[34.2626,-14.4293],[34.3561,-14.3842],[34.4181,-14.4287],[34.4496,-14.4959],[34.5413,-14.6009],[34.5447,-14.7499],[34.5709,-14.822],[34.5902,-14.9582],[34.6207,-15.0006],[34.5712,-15.0635],[34.5794,-15.1999],[34.6041,-15.2672],[34.5049,-15.4098],[34.4261,-15.4745],[34.4542,-15.5935],[34.4371,-15.6562],[34.3649,-15.7386],[34.2996,-15.7585],[34.2486,-15.8407],[34.2578,-15.9161],[34.3627,-15.9672],[34.4375,-16.0616],[34.3925,-16.1277],[34.4235,-16.254],[34.5732,-16.3211],[34.5851,-16.3979],[34.6874,-16.4996],[34.7576,-16.5109],[34.7825,-16.5834],[34.8532,-16.6178],[34.8608,-16.6735],[34.9244,-16.7444],[34.9825,-16.7467],[35.0393,-16.8229],[35.156,-16.8319],[35.1674,-16.9185],[35.1363,-16.9681],[35.0633,-16.9921],[35.0974,-17.1272],[35.297,-17.1262],[35.3046,-16.9817],[35.2649,-16.9368],[35.2821,-16.886]]]},"properties":{"GID_0":"MWI","ISO_A2":"MW","ISO_A3":"MWI","NAME_EN":"Malawi","NAME_IT":"Malawi"}}
]}