{"type":"FeatureCollection", "features": [
{"type":"Feature","geometry":{"type":"Polygon","coordinates":[[[-55.7015,-27.4026],[-55.5944,-27.3342],[-55.5804,-27.2482],[-55.6228,-27.1937],[-55.3777,-26.9676],[-55.2731,-26.9435],[-55.1964,-26.9689],[-55.1316,-26.9421],[-55.1352,-26.8663],[-55.0604,-26.8046],[-54.962,-26.7906],[-54.9389,-26.6932],[-54.8328,-26.6812],[-54.7909,-26.6384],[-54.8083,-26.5631],[-54.7099,-26.4587],[-54.6304,-26.229],[-54.6762,-26.1463],[-54.5906,-25.8339],[-54.6593,-25.6862],[-54.5936,-25.6683],[-54.616,-25.4562],[-54.496,-25.2774],[-54.436,-25.1545],[-54.457,-25.0286],[-54.4045,-24.8333],[-54.3351,-24.6464],[-54.3323,-24.4899],[-54.2624,-24.3745],[-54.3234,-24.2425],[-54.3306,-24.1482],[-54.2836,-24.083],[-54.3158,-24.0115],[-54.4827,-23.8819],[-54.6753,-23.8136],[-54.9042,-23.9058],[-54.9318,-23.9615],[-55.1115,-23.9602],[-55.2303,-24.0086],[-55.3142,-23.9561],[-55.3536,-23.9889],[-55.4409,-23.9095],[-55.442,-23.7312],[-55.4767,-23.6409],[-55.5346,-23.611],[-55.537,-23.4445],[-55.5011,-23.3792],[-55.5485,-23.3142],[-55.5193,-23.259],[-55.5388,-23.163],[-55.5893,-23.144],[-55.639,-23.0266],[-55.6659,-22.8686],[-55.6274,-22.7667],[-55.6267,-22.6186],[-55.7237,-22.5452],[-55.745,-22.3865],[-55.789,-22.3793],[-55.861,-22.2763],[-56.06,-22.2905],[-56.2077,-22.2781],[-56.3408,-22.2032],[-56.4027,-22.0747],[-56.5183,-22.1003],[-56.5655,-22.19],[-56.6456,-22.245],[-56.7529,-22.2341],[-56.8305,-22.2977],[-56.9998,-22.2227],[-57.2495,-22.2402],[-57.5834,-22.1643],[-57.6158,-22.0934],[-57.7557,-22.1308],[-57.9207,-22.1193],[-58.0051,-22.0434],[-57.9202,-21.8726],[-57.9552,-21.8555],[-57.8962,-21.6999],[-57.9154,-21.5872],[-57.9628,-21.5491],[-57.9049,-21.4021],[-57.8543,-21.336],[-57.9176,-21.2757],[-57.8502,-21.214],[-57.8651,-21.0386],[-57.8181,-20.9812],[-57.9201,-20.8811],[-57.8597,-20.8483],[-57.8721,-20.7408],[-57.9148,-20.6677],[-58.0148,-20.6053],[-58.0037,-20.4232],[-58.0768,-20.3768],[-58.0867,-20.2706],[-58.1532,-20.2611],[-58.1649,-20.0651],[-58.2019,-19.8648],[-58.2354,-19.7755],[-58.8235,-19.4969],[-59.1145,-19.344],[-59.9769,-19.2952],[-60.601,-19.4559],[-61.7355,-19.6342],[-61.9224,-20.0892],[-62.2666,-20.5627],[-62.2607,-21.0585],[-62.6424,-22.2429],[-62.6172,-22.3],[-62.3895,-22.4499],[-62.2567,-22.5151],[-62.1357,-22.7867],[-62.0116,-22.9303],[-61.9892,-23.0208],[-61.8632,-23.0866],[-61.6726,-23.2858],[-61.5769,-23.3076],[-61.4986,-23.3989],[-61.3953,-23.4602],[-61.3579,-23.4459],[-61.2347,-23.5485],[-61.0958,-23.612],[-61.0995,-23.6582],[-61.0025,-23.7941],[-60.9319,-23.8048],[-60.825,-23.8738],[-60.7349,-23.8764],[-60.584,-23.945],[-60.4693,-23.9609],[-60.3201,-24.0485],[-60.1167,-24.0395],[-60.0466,-24.0121],[-59.495,-24.3251],[-59.353,-24.4847],[-59.1091,-24.6233],[-58.9402,-24.6818],[-58.7958,-24.7748],[-58.7119,-24.7849],[-58.6547,-24.8336],[-58.566,-24.8262],[-58.424,-24.8908],[-58.3273,-24.9992],[-58.2465,-24.9338],[-57.9789,-25.0823],[-57.8737,-25.0794],[-57.7876,-25.1517],[-57.7616,-25.2157],[-57.5559,-25.4448],[-57.5619,-25.5428],[-57.6787,-25.6595],[-57.7504,-25.6599],[-57.7968,-25.8296],[-57.8565,-25.8609],[-57.8827,-25.9368],[-57.8494,-26.006],[-58.1153,-26.1532],[-58.1132,-26.2366],[-58.2004,-26.375],[-58.1767,-26.4501],[-58.219,-26.5298],[-58.1906,-26.5857],[-58.2453,-26.7392],[-58.3698,-26.8655],[-58.4913,-26.933],[-58.4776,-26.9918],[-58.5476,-27.0384],[-58.5596,-27.1059],[-58.6625,-27.1722],[-58.5937,-27.2296],[-58.6066,-27.2951],[-58.3764,-27.279],[-58.2434,-27.2491],[-58.0973,-27.2726],[-58.0069,-27.2637],[-57.7025,-27.3336],[-57.5456,-27.4303],[-57.2883,-27.4216],[-57,-27.5106],[-56.85,-27.6042],[-56.7373,-27.5595],[-56.7033,-27.4591],[-56.548,-27.4694],[-56.4822,-27.5784],[-56.3641,-27.5958],[-56.2896,-27.488],[-56.2827,-27.4085],[-56.1435,-27.3125],[-56.0644,-27.3042],[-55.9082,-27.3445],[-55.8285,-27.4332],[-55.7525,-27.4484],[-55.7015,-27.4026]]]},"properties":{"GID_0":"PRY","ISO_A2":"PY","ISO_A3":"PRY","NAME_EN":"Paraguay","NAME_IT":"Paraguay"}}
]}