{"type":"FeatureCollection", "features": [
{"type":"Feature","geometry":{"type":"Polygon","coordinates":[[[11.8618,-4.8299],[12.0099,-5.0307],[12.1732,-4.898],[12.2022,-4.7804],[12.3016,-4.8136],[12.4624,-4.5961],[12.6161,-4.5643],[12.6628,-4.4874],[12.7362,-4.4904],[12.7344,-4.386],[12.9061,-4.4675],[13.0133,-4.5922],[13.0993,-4.6465],[13.1825,-4.639],[13.3025,-4.7822],[13.4436,-4.868],[13.5944,-4.8138],[13.6307,-4.7423],[13.7169,-4.725],[13.7506,-4.5383],[13.7359,-4.4578],[13.8192,-4.4225],[13.8768,-4.4946],[13.9691,-4.5113],[14.0205,-4.4308],[14.1993,-4.3909],[14.3206,-4.3141],[14.3873,-4.3412],[14.4426,-4.4829],[14.3589,-4.5436],[14.406,-4.688],[14.412,-4.8936],[14.4899,-4.8482],[14.592,-4.9034],[14.6879,-4.9176],[14.8438,-4.8245],[14.9131,-4.6811],[15.0872,-4.5105],[15.1943,-4.3476],[15.3132,-4.2789],[15.4153,-4.2965],[15.4994,-4.2123],[15.5564,-4.0482],[15.9005,-3.9514],[16.0581,-3.6089],[16.1871,-3.3954],[16.2224,-3.2963],[16.1841,-3.2505],[16.1953,-3.016],[16.1802,-2.875],[16.2349,-2.6032],[16.1843,-2.3829],[16.1915,-2.225],[16.242,-2.123],[16.4055,-1.992],[16.589,-1.7452],[16.7415,-1.433],[16.846,-1.264],[16.9302,-1.186],[17.13,-1.064],[17.237,-1.047],[17.3412,-0.9905],[17.457,-0.876],[17.7001,-0.5676],[17.7404,-0.3977],[17.714,-0.128],[17.771,0],[17.787,0.143],[17.855,0.26],[17.954,0.3653],[17.9599,0.4662],[17.886,0.572],[17.8953,0.7751],[17.845,0.919],[17.8501,1.0124],[17.9418,1.1645],[17.976,1.338],[18.068,1.5214],[18.0833,1.7039],[18.0583,1.8038],[18.0925,1.9621],[18.0672,2.0213],[18.106,2.2666],[18.212,2.399],[18.242,2.507],[18.33,2.5845],[18.433,2.7779],[18.4389,2.8766],[18.529,3.062],[18.5848,3.0976],[18.6417,3.2089],[18.6351,3.4711],[18.595,3.477],[18.4909,3.6517],[18.4197,3.609],[18.2647,3.5881],[18.189,3.4812],[18.1235,3.5661],[17.9193,3.5735],[17.733,3.6512],[17.6063,3.6413],[17.4741,3.7031],[17.3659,3.6102],[17.0581,3.5481],[16.7545,3.5571],[16.672,3.5418],[16.5965,3.4773],[16.5584,3.2534],[16.5058,3.1599],[16.5445,3.0657],[16.4934,3.0043],[16.5201,2.8423],[16.1888,2.2104],[16.0837,2.1936],[16.0894,2.093],[16.0508,1.9746],[16.1385,1.7947],[16.1491,1.6942],[16.0296,1.6586],[16.0271,1.7663],[15.8821,1.7993],[15.748,1.9195],[15.5319,1.9555],[15.4862,1.9826],[15.3524,1.9128],[15.2072,2.0389],[15.113,1.983],[14.9126,2.064],[14.8074,2.06],[14.6104,2.193],[14.4635,2.1439],[14.3629,2.1877],[14.2915,2.1719],[13.299,2.171],[13.2944,2.0613],[13.2097,1.9818],[13.1596,1.8756],[13.1824,1.757],[13.1371,1.7018],[13.1382,1.5816],[13.2526,1.4055],[13.2574,1.316],[13.3236,1.2358],[13.375,1.2909],[13.5566,1.2787],[13.6477,1.3494],[13.7592,1.3529],[13.8139,1.4287],[13.9994,1.4201],[14.0665,1.3807],[14.1872,1.3956],[14.279,1.3412],[14.295,1.2412],[14.3964,1.0937],[14.4453,0.9605],[14.498,0.9286],[14.4887,0.8252],[14.368,0.6985],[14.3845,0.6374],[14.2228,0.5364],[14.1196,0.5583],[14.0513,0.4071],[13.9895,0.3762],[13.8887,0.2027],[13.9278,0.1208],[13.9268,-0.0835],[13.8954,-0.2122],[14.0187,-0.2356],[14.1628,-0.3299],[14.173,-0.4231],[14.4008,-0.4771],[14.4632,-0.5517],[14.4987,-0.6809],[14.4102,-0.909],[14.4856,-1.2601],[14.4523,-1.365],[14.4737,-1.5525],[14.377,-1.6017],[14.4512,-1.6924],[14.3986,-1.8757],[14.2573,-1.9832],[14.2532,-2.1056],[14.1564,-2.1943],[14.2169,-2.2849],[14.1029,-2.474],[13.998,-2.4465],[13.9226,-2.465],[13.9164,-2.3587],[13.8139,-2.1534],[13.7488,-2.1203],[13.5061,-2.4295],[13.374,-2.4207],[13.21,-2.3393],[13.1664,-2.3788],[13.0409,-2.3338],[12.9987,-2.1952],[12.8852,-2.0995],[12.8416,-1.9396],[12.7433,-1.8689],[12.5718,-1.8583],[12.5207,-1.9014],[12.4441,-1.8746],[12.4752,-2.019],[12.52,-2.0867],[12.5267,-2.3188],[12.4683,-2.4213],[12.1766,-2.4213],[12.0923,-2.4393],[11.9967,-2.3399],[11.8209,-2.3874],[11.7752,-2.4565],[11.6978,-2.3728],[11.6362,-2.5208],[11.7027,-2.6629],[11.6414,-2.6982],[11.6161,-2.7842],[12.0666,-2.9694],[12.0135,-3.1352],[11.9474,-3.1718],[12.0455,-3.3526],[11.8779,-3.5769],[11.9478,-3.6263],[11.8843,-3.7474],[11.6963,-3.6707],[11.6316,-3.5702],[11.5374,-3.5139],[11.4584,-3.5839],[11.3343,-3.6139],[11.2496,-3.7181],[11.2515,-3.8118],[11.2009,-3.9907],[11.374,-4.1446],[11.3888,-4.2063],[11.686,-4.4515],[11.8263,-4.6121],[11.7915,-4.691],[11.849,-4.7457],[11.8618,-4.8299]]]},"properties":{"GID_0":"COG","ISO_A2":"CG","ISO_A3":"COG","NAME_EN":"Congo","NAME_IT":"Repubblica del Congo"}}
]}