{"type":"FeatureCollection", "features": [
{"type":"Feature","geometry":{"type":"MultiPolygon","coordinates":[[[[-16.3018,33.0971],[-16.3214,33.1058],[-16.3698,33.083],[-16.376,33.068],[-16.3798,33.0567],[-16.3947,33.0405],[-16.3789,33.0246],[-16.339,33.0548],[-16.3143,33.0643],[-16.2952,33.0614],[-16.2915,33.0795],[-16.3018,33.0971]]],[[[-16.9006,32.8345],[-16.9605,32.829],[-16.99,32.8302],[-17.0161,32.8153],[-17.0516,32.8083],[-17.0936,32.8153],[-17.1252,32.8274],[-17.1712,32.8689],[-17.195,32.8705],[-17.2488,32.8252],[-17.2658,32.815],[-17.2514,32.8017],[-17.2452,32.773],[-17.2126,32.7367],[-17.1387,32.7032],[-17.1044,32.6781],[-17.0167,32.6522],[-16.9862,32.6511],[-16.9465,32.6329],[-16.9172,32.6414],[-16.8961,32.6469],[-16.8501,32.6362],[-16.8313,32.6402],[-16.8036,32.6627],[-16.7924,32.6859],[-16.7736,32.6907],[-16.7461,32.7345],[-16.7451,32.7555],[-16.7783,32.7576],[-16.813876595744677,32.76827659574468],[-16.8139,32.76828358208955],[-16.8841,32.8267],[-16.9006,32.8345]]],[[[-31.0977,39.6779],[-31.0865,39.6857],[-31.0867,39.7173],[-31.1182,39.7219],[-31.1281,39.7015],[-31.112,39.6686],[-31.0977,39.6779]]],[[[-9.079,38.8136],[-9.0463,38.8362],[-9.0285,38.8674],[-9.0565,38.8576],[-9.0821,38.8187],[-9.079,38.8136]]],[[[-8.9976,38.8821],[-9.0099,38.8788],[-9.0221,38.8546],[-8.9974,38.8565],[-8.9818,38.8682],[-8.9976,38.8821]]],[[[-27.9784,39.0618],[-27.9973,39.0886],[-28.0368,39.0972],[-28.0503,39.0927],[-28.0716,39.0684],[-28.0366,39.0227],[-28.0097,39.0244],[-27.9959,39.0123],[-27.9674,39.0091],[-27.9492,39.0181],[-27.9574,39.0402],[-27.9784,39.0618]]],[[[-31.233,39.3711],[-31.1684,39.3767],[-31.1476,39.4073],[-31.1434,39.4357],[-31.1267,39.4479],[-31.1479,39.4739],[-31.1527,39.4963],[-31.1806,39.4977],[-31.213,39.5195],[-31.2322,39.5138],[-31.2572,39.4882],[-31.2569,39.463],[-31.2682,39.4509],[-31.2624,39.4181],[-31.2516,39.4021],[-31.25,39.3759],[-31.233,39.3711]]],[[[-28.6266,38.5314],[-28.6036,38.5466],[-28.6129,38.5613],[-28.5993,38.5941],[-28.6287,38.6137],[-28.6472,38.6162],[-28.6635,38.6301],[-28.717,38.6439],[-28.7444,38.6174],[-28.8321,38.6041],[-28.8167,38.5815],[-28.7826,38.5647],[-28.7618,38.5626],[-28.7496,38.5249],[-28.7269,38.5193],[-28.6512,38.5224],[-28.6266,38.5314]]],[[[-28.1276,38.4061],[-28.0948,38.3998],[-28.0303,38.4116],[-28.0362,38.4289],[-28.0598,38.4436],[-28.133,38.4507],[-28.1923,38.4625],[-28.2084,38.4801],[-28.2332,38.4872],[-28.2441,38.4995],[-28.2954,38.506],[-28.3114,38.5246],[-28.3911,38.5584],[-28.478,38.5606],[-28.5148,38.5493],[-28.5382,38.5299],[-28.5429,38.4922],[-28.5179,38.4523],[-28.4459,38.4203],[-28.4164,38.4281],[-28.3687,38.4125],[-28.3527,38.4159],[-28.3049,38.4107],[-28.2736,38.4125],[-28.2576,38.4042],[-28.241,38.3822],[-28.198,38.3951],[-28.1796,38.4094],[-28.1276,38.4061]]],[[[-27.8124,38.5775],[-27.9043,38.6146],[-27.9293,38.6282],[-27.978,38.6441],[-28.0187,38.6671],[-28.1185,38.6931],[-28.1453,38.7063],[-28.1777,38.7137],[-28.2889,38.752],[-28.3187,38.7563],[-28.2706,38.7164],[-28.2312,38.7013],[-28.1919,38.667],[-28.1058,38.6318],[-28.0671,38.6268],[-28.0257,38.6015],[-27.9438,38.5896],[-27.9207,38.5739],[-27.8694,38.5538],[-27.8301,38.5338],[-27.7745,38.5355],[-27.7536,38.5478],[-27.7839,38.5673],[-27.8124,38.5775]]],[[[-27.2187,38.6533],[-27.1649,38.6534],[-27.1331,38.6436],[-27.0802,38.6455],[-27.0754,38.6686],[-27.0424,38.696],[-27.0626,38.715],[-27.0619,38.7592],[-27.1031,38.7854],[-27.1309,38.7812],[-27.1653,38.7915],[-27.2033,38.7958],[-27.2313,38.7924],[-27.2585,38.8035],[-27.326,38.796],[-27.3629,38.7786],[-27.3805,38.747],[-27.3705,38.7077],[-27.3522,38.6868],[-27.2877,38.6551],[-27.2187,38.6533]]],[[[-25.4386,37.7128],[-25.391,37.7158],[-25.3684,37.7127],[-25.352,37.7235],[-25.3265,37.7257],[-25.2525,37.7462],[-25.1999,37.7353],[-25.1698,37.7417],[-25.1501,37.7574],[-25.1347,37.8065],[-25.1494,37.8495],[-25.1981,37.8587],[-25.2304,37.8526],[-25.278,37.8594],[-25.3275,37.8539],[-25.405,37.8259],[-25.4357,37.8301],[-25.4711,37.8239],[-25.4994,37.8401],[-25.5264,37.8226],[-25.5537,37.8145],[-25.5848,37.8126],[-25.6268,37.8313],[-25.6408,37.8275],[-25.6935,37.8438],[-25.6991,37.863],[-25.7196,37.885],[-25.7817,37.9097],[-25.8402,37.8769],[-25.8536,37.8518],[-25.841,37.827],[-25.8165,37.8091],[-25.7883,37.7974],[-25.7762,37.7819],[-25.7375,37.7621],[-25.7124,37.7425],[-25.6864,37.7317],[-25.6188,37.7494],[-25.5849,37.7392],[-25.5667,37.7425],[-25.5301,37.7148],[-25.5008,37.7075],[-25.4828,37.7176],[-25.4386,37.7128]]],[[[-25.046,36.9829],[-25.0545,37.0102],[-25.0927,37.0147],[-25.119,37.0027],[-25.149,37.0078],[-25.1818,36.9965],[-25.186,36.984],[-25.1728,36.9505],[-25.1415,36.9383],[-25.1133,36.9511],[-25.0923,36.9486],[-25.0696,36.9281],[-25.0468,36.9279],[-25.0137,36.9396],[-25.046,36.9829]]],[[[-7.966,36.9996],[-7.9251,36.9693],[-7.8865,36.9699],[-7.9165,36.9993],[-7.9451,37.0049],[-7.966,36.9996]]],[[[-7.8112,37.0257],[-7.8279,37.0251],[-7.8582,37.009],[-7.8512,36.999],[-7.8121,37.0137],[-7.8112,37.0257]]],[[[-8.3078,37.07477272727272],[-8.3077625,37.0747625],[-8.2835,37.0727],[-8.2533,37.0866],[-8.2339,37.0825],[-8.1848,37.0906],[-8.096,37.0643],[-7.9915,37.0057],[-7.9454,37.006],[-7.911,37.0004],[-7.8882,36.9821],[-7.8699,37.0082],[-7.8263,37.0274],[-7.8124,37.0279],[-7.794,37.0151],[-7.719,37.0593],[-7.6607,37.0863],[-7.6171,37.1132],[-7.6012,37.1346],[-7.5607,37.1518],[-7.5412,37.1546],[-7.494,37.1715],[-7.4593,37.1774],[-7.4074,37.1718],[-7.4196,37.2381],[-7.432,37.2594],[-7.4217,37.2738],[-7.4422,37.3113],[-7.4448,37.3465],[-7.4363,37.3614],[-7.4405,37.391],[-7.4613,37.4131],[-7.4567,37.4524],[-7.4954,37.5234],[-7.5117,37.5249],[-7.5227,37.5531],[-7.471,37.6349],[-7.4531,37.6485],[-7.4478,37.6975],[-7.4187,37.7438],[-7.4227,37.755],[-7.3967,37.764],[-7.3686,37.7874],[-7.3244,37.8158],[-7.3013,37.8416],[-7.2796,37.8765],[-7.2736,37.8991],[-7.2582,37.9221],[-7.2497,37.9669],[-7.2618,37.9775],[-7.2457,37.9922],[-7.2267,37.9881],[-7.2023,38.0034],[-7.1735,37.9928],[-7.1562,37.994],[-7.1291,38.0108],[-7.1283,38.0295],[-7.0987,38.0438],[-7.0429,38.0165],[-7.025,38.0247],[-7.002,38.0224],[-6.9998,38.0495],[-6.9898,38.0556],[-6.9878,38.102],[-6.9724,38.1148],[-6.9583,38.1455],[-6.9684,38.1593],[-6.9614,38.1768],[-6.9348,38.2005],[-6.9357,38.2193],[-6.9805,38.2113],[-7.0295,38.1825],[-7.0435,38.1873],[-7.0854,38.1693],[-7.1078,38.1878],[-7.1178,38.2114],[-7.1429,38.2406],[-7.143,38.2617],[-7.1755,38.2885],[-7.2023,38.329],[-7.2482,38.3695],[-7.2713,38.3948],[-7.2881,38.4251],[-7.3303,38.4445],[-7.296,38.4792],[-7.3216,38.4783],[-7.3146,38.5139],[-7.3026,38.5211],[-7.3034,38.5431],[-7.2844,38.5755],[-7.2639,38.5879],[-7.2601,38.6109],[-7.2725,38.6384],[-7.2672,38.6993],[-7.2594,38.7242],[-7.2026,38.7522],[-7.1903,38.7701],[-7.1638,38.7798],[-7.1286,38.8138],[-7.0964,38.816],[-7.0686,38.8542],[-7.0532,38.858],[-7.0329,38.8773],[-7.0522,38.907],[-7.0275,38.9229],[-7.0204,38.9401],[-6.9866,38.9763],[-6.9511,39.0236],[-6.9678,39.0395],[-6.9594,39.0545],[-6.9809,39.0878],[-7.0282,39.1157],[-7.0535,39.1177],[-7.1008,39.1046],[-7.144,39.1086],[-7.1347,39.1712],[-7.2207,39.1925],[-7.2415,39.2083],[-7.248,39.2534],[-7.2315,39.2783],[-7.267,39.301],[-7.2726,39.3113],[-7.3103,39.341],[-7.3105,39.369],[-7.3228,39.3813],[-7.3014,39.4227],[-7.3056,39.4461],[-7.2943,39.4568],[-7.3478,39.488],[-7.3819,39.4912],[-7.3885,39.524],[-7.4267,39.5327],[-7.4465,39.5481],[-7.4669,39.577],[-7.4994,39.5896],[-7.5101,39.6188],[-7.5274,39.6349],[-7.5317,39.6673],[-7.4555,39.6624],[-7.403,39.6463],[-7.3752,39.6508],[-7.3337,39.6408],[-7.2865,39.6607],[-7.2515,39.6668],[-7.2015,39.6622],[-7.1514,39.6531],[-7.1228,39.6638],[-7.065,39.658],[-7.0155,39.6704],[-7.0054,39.7018],[-6.9873,39.7276],[-6.9939,39.7403],[-6.9768,39.7723],[-6.9895,39.7947],[-6.9709,39.825],[-6.9401,39.8341],[-6.9301,39.8536],[-6.9035,39.8708],[-6.8995,39.9107],[-6.9073,39.9197],[-6.885,39.9407],[-6.8867,39.9793],[-6.8667,40.0152],[-6.8972,40.0521],[-6.9173,40.0661],[-6.9208,40.0871],[-6.9542,40.1156],[-6.9998,40.1191],[-7.0152,40.1357],[-7.0213,40.1805],[-7.0107,40.2229],[-6.9983,40.2353],[-6.9659,40.2369],[-6.9514,40.2576],[-6.9073,40.2539],[-6.868,40.2643],[-6.8614,40.2996],[-6.817,40.3253],[-6.7903,40.3342],[-6.7939,40.3554],[-6.781,40.3645],[-6.8092,40.3837],[-6.8387,40.4147],[-6.8497,40.4515],[-6.8108,40.5052],[-6.7953,40.5114],[-6.8042,40.5312],[-6.8009,40.5503],[-6.8454,40.5659],[-6.8276,40.603],[-6.8062,40.6327],[-6.794,40.6613],[-6.8286,40.7385],[-6.8257,40.7849],[-6.8169,40.7971],[-6.8241,40.8401],[-6.8019,40.8456],[-6.809,40.8824],[-6.8385,40.8905],[-6.8491,40.9028],[-6.8476,40.9246],[-6.8591,40.9497],[-6.8755,40.9609],[-6.9088,40.9989],[-6.9216,41.0025],[-6.9313,41.0294],[-6.9161,41.0384],[-6.8799,41.0282],[-6.8338,41.0285],[-6.8089,41.0365],[-6.7542,41.104],[-6.7707,41.124],[-6.7679,41.1348],[-6.7413,41.1483],[-6.7004,41.181],[-6.6914,41.2096],[-6.6529,41.2353],[-6.6484,41.2475],[-6.5866,41.2524],[-6.5713,41.239],[-6.5226,41.2756],[-6.5115,41.2644],[-6.4804,41.2735],[-6.4913,41.2849],[-6.4688,41.3013],[-6.4493,41.2988],[-6.4153,41.3479],[-6.3797,41.3563],[-6.3935,41.3698],[-6.3896,41.3847],[-6.3713,41.392],[-6.3525,41.3783],[-6.3154,41.3901],[-6.3324,41.4052],[-6.2948,41.4362],[-6.3053,41.4497],[-6.2686,41.4871],[-6.2577,41.5141],[-6.2369,41.5213],[-6.2173,41.5505],[-6.1891,41.5748],[-6.2087,41.5991],[-6.2358,41.607],[-6.2544,41.633],[-6.3023,41.6618],[-6.3546,41.6764],[-6.3745,41.6737],[-6.4443,41.6848],[-6.4573,41.6666],[-6.4887,41.6575],[-6.5125,41.6612],[-6.5538,41.6933],[-6.5537,41.7168],[-6.5647,41.7515],[-6.5438,41.7839],[-6.5428,41.8055],[-6.5283,41.8282],[-6.5257,41.8601],[-6.5176,41.8751],[-6.5712,41.8835],[-6.5459,41.9308],[-6.5494,41.9445],[-6.5883,41.9675],[-6.5994,41.9483],[-6.7,41.9333],[-6.7506,41.9436],[-6.7687,41.9841],[-6.8113,41.9925],[-6.81,41.9695],[-6.8216,41.946],[-6.8488,41.9424],[-6.8695,41.9484],[-6.892,41.9398],[-6.9443,41.9446],[-6.9578,41.9689],[-6.9793,41.9738],[-7.0062,41.9506],[-7.0683,41.949],[-7.0875,41.9735],[-7.1414,41.9907],[-7.1584,41.9762],[-7.1869,41.9663],[-7.1838,41.933],[-7.1735,41.9191],[-7.1967,41.88],[-7.232,41.8673],[-7.2578,41.8659],[-7.3153,41.8425],[-7.3862,41.8413],[-7.4088,41.8167],[-7.4437,41.8394],[-7.4525,41.8651],[-7.4852,41.8613],[-7.5385,41.8366],[-7.5739,41.8297],[-7.6147,41.8326],[-7.5915,41.8807],[-7.6538,41.8812],[-7.7008,41.9077],[-7.7333,41.8923],[-7.7635,41.899],[-7.7783,41.8869],[-7.8452,41.8813],[-7.8415,41.8665],[-7.8922,41.8595],[-7.8844,41.8891],[-7.8879,41.9268],[-7.9063,41.9271],[-7.9213,41.8818],[-7.9488,41.871],[-7.9715,41.8764],[-7.9877,41.8692],[-8.014,41.829],[-8.0387,41.83],[-8.0576,41.8157],[-8.1309,41.8089],[-8.165,41.8181],[-8.1617,41.861],[-8.1717,41.8791],[-8.2,41.8737],[-8.2169,41.9132],[-8.1979,41.9395],[-8.1628,41.9756],[-8.1278,42.0056],[-8.086,42.0165],[-8.0844,42.0473],[-8.0966,42.0723],[-8.1214,42.0828],[-8.1496,42.0793],[-8.1704,42.0673],[-8.1881,42.0739],[-8.1859,42.0982],[-8.1954,42.1482],[-8.2591,42.1213],[-8.2736,42.1241],[-8.3039,42.1039],[-8.3234,42.1007],[-8.3319,42.0838],[-8.371,42.0883],[-8.3816,42.0764],[-8.4048,42.0804],[-8.4289,42.0723],[-8.443,42.0824],[-8.5281,42.0747],[-8.546,42.0542],[-8.5953,42.0569],[-8.6413,42.0443],[-8.6591,42.0255],[-8.6622,42.0026],[-8.6786,41.9913],[-8.7161,41.9802],[-8.7441,41.9659],[-8.7563,41.9331],[-8.7859,41.9173],[-8.8184,41.9113],[-8.851,41.8771],[-8.8733,41.8699],[-8.8668,41.8457],[-8.876,41.8371],[-8.8643,41.811],[-8.8749,41.7976],[-8.8696,41.7771],[-8.8804,41.7499],[-8.8604,41.7035],[-8.8258,41.6704],[-8.8273,41.6497],[-8.8099,41.6126],[-8.8051,41.5838],[-8.786,41.5374],[-8.7885,41.5018],[-8.7746,41.4729],[-8.7868,41.4151],[-8.7746,41.386],[-8.7626,41.375],[-8.7554,41.3428],[-8.7393,41.3324],[-8.7399,41.3099],[-8.7229,41.2571],[-8.7262,41.2404],[-8.7154,41.2215],[-8.7171,41.204],[-8.6682,41.1396],[-8.6575,41.0907],[-8.6563,41.0521],[-8.6443,41.0195],[-8.6507,40.9708],[-8.6607,40.9292],[-8.6974,40.8046],[-8.7351,40.7032],[-8.7535,40.6463],[-8.7404,40.6465],[-8.7188,40.6763],[-8.7196,40.6982],[-8.6985,40.7185],[-8.7015,40.7571],[-8.6815,40.781],[-8.6785,40.7415],[-8.6668,40.7268],[-8.6663,40.6937],[-8.7029,40.6551],[-8.721,40.6585],[-8.7497,40.6401],[-8.7861,40.5121],[-8.8447,40.3307],[-8.879,40.2463],[-8.9096,40.1876],[-8.9065,40.1787],[-8.8751,40.1618],[-8.8618,40.1376],[-8.8676,40.1076],[-8.9396,39.9443],[-8.9964,39.8285],[-9.0318,39.7663],[-9.0507,39.7201],[-9.0499,39.7012],[-9.0832,39.6232],[-9.0868,39.6043],[-9.0757,39.5885],[-9.1118,39.5454],[-9.1529,39.5096],[-9.1718,39.5009],[-9.2039,39.4676],[-9.2279,39.4362],[-9.2774,39.399],[-9.347,39.3635],[-9.3683,39.3622],[-9.3574,39.3193],[-9.3468,39.311],[-9.3365,39.2829],[-9.3399,39.2254],[-9.3589,39.1724],[-9.3943,39.1213],[-9.3945,39.1121],[-9.422,39.0746],[-9.4161,39.0432],[-9.4261,38.9958],[-9.4152,38.9494],[-9.4496,38.8621],[-9.4762,38.8154],[-9.5005,38.7807],[-9.481994247787611,38.756923008849554],[-9.481907142857157,38.7569],[-9.4755,38.7292],[-9.4861,38.7079],[-9.46035,38.6952],[-9.460333333333333,38.695166666666665],[-9.4185,38.6901],[-9.4058,38.7036],[-9.3269,38.676],[-9.2893,38.6956],[-9.2418,38.6988],[-9.2159,38.6914],[-9.1287,38.7085],[-9.1058,38.7289],[-9.091,38.7637],[-9.0915,38.7968],[-9.0851,38.8201],[-9.0668,38.8512],[-9.0568,38.8599],[-9.0379,38.8671],[-9.0201,38.8885],[-9.0029,38.9332],[-8.9879,38.916],[-8.9949,38.8838],[-8.9785,38.8674],[-8.9893,38.8546],[-8.9749,38.829],[-8.954,38.8243],[-8.9318,38.7971],[-8.9451,38.7782],[-8.9312,38.7621],[-8.9626,38.7571],[-8.999,38.7415],[-9.0126,38.7287],[-9.0435,38.7171],[-9.0321,38.7007],[-9.0079,38.6862],[-9.0129,38.6701],[-9.0385,38.6615],[-9.0482,38.6785],[-9.0753,38.6707],[-9.1138,38.6374],[-9.1511,38.672],[-9.1801,38.6791],[-9.2406,38.6748],[-9.2592,38.663],[-9.2323,38.6347],[-9.2115,38.605],[-9.1907,38.5604],[-9.1826,38.5288],[-9.1844,38.4885],[-9.221,38.4128],[-9.1961,38.4095],[-9.1689,38.4297],[-9.1146,38.4346],[-9.1082,38.4429],[-9.0785,38.436115217391304],[-9.078484444444445,38.43611555555556],[-9.0783,38.436119565217396],[-9.078177777777778,38.436122222222224],[-9.076948936170213,38.43614893617021],[-9.07684888888889,38.436151111111116],[-9.0642,38.4348],[-8.9969,38.4607],[-8.981,38.4791],[-8.9339,38.4883],[-8.9291,38.5026],[-8.8992,38.5191],[-8.8576,38.5115],[-8.8324,38.4932],[-8.8018,38.4807],[-8.7554,38.4868],[-8.7582,38.5043],[-8.7821,38.5149],[-8.7457,38.5549],[-8.7399,38.5229],[-8.7293,38.5129],[-8.7226,38.4849],[-8.7207,38.4432],[-8.7004,38.4424],[-8.6721,38.419],[-8.7293,38.4199],[-8.7599,38.4143],[-8.7874,38.4285],[-8.7904,38.4385],[-8.8249,38.4449],[-8.8457,38.4401],[-8.8218,38.416],[-8.7904,38.3515],[-8.7785,38.299],[-8.7746,38.2401],[-8.7818,38.1721],[-8.7943,38.126],[-8.8107,38.0815],[-8.8379,38.0213],[-8.8596,37.981],[-8.8734,37.96864166666667],[-8.8735,37.96863333333334],[-8.8711,37.9539],[-8.8449,37.9368],[-8.8162,37.9317],[-8.7994,37.9046],[-8.7925,37.8657],[-8.793,37.8195],[-8.807,37.776],[-8.8072,37.7525],[-8.797,37.7361],[-8.7919,37.7056],[-8.7957,37.6742],[-8.806,37.6488],[-8.8124,37.5809],[-8.8031,37.5756],[-8.7856,37.5316],[-8.7968,37.4987],[-8.7997,37.443],[-8.8084,37.4139],[-8.8414,37.3588],[-8.8719,37.3219],[-8.8732,37.3],[-8.8604,37.2684],[-8.8851,37.2209],[-8.9042,37.1982],[-8.9106,37.1749],[-8.9034,37.1654],[-8.9382,37.1082],[-8.9585,37.0941],[-8.9608,37.0739],[-8.979,37.0568],[-8.9674,37.0265],[-8.9422,37.0046],[-8.9268,37.019],[-8.906,37.0239],[-8.8945,37.0424],[-8.8641,37.0418],[-8.8551,37.0546],[-8.8255,37.0645],[-8.7882,37.0628],[-8.7267,37.0865],[-8.6664,37.0856],[-8.667966666666665,37.098333333333336],[-8.6679,37.09835],[-8.6647,37.1068],[-8.6296,37.1232],[-8.5295,37.1157],[-8.5041,37.1006],[-8.4791,37.0984],[-8.4367,37.0853],[-8.3965,37.0904],[-8.3712,37.1017],[-8.3523,37.0988],[-8.3078,37.07477272727272]]]]},"properties":{"GID_0":"PRT","ISO_A2":"PT","ISO_A3":"PRT","NAME_EN":"Portugal","NAME_IT":"Portogallo"}}
]}