{"type":"FeatureCollection", "features": [
{"type":"Feature","geometry":{"type":"Polygon","coordinates":[[[-88.226,15.723],[-88.2626,15.7365],[-88.3121,15.781],[-88.4362,15.8493],[-88.4926,15.8885],[-88.5546,15.946],[-88.5471,15.8807],[-88.5543,15.8124],[-88.5846,15.7618],[-88.6243,15.7471],[-88.7957,15.8613],[-88.8807,15.861],[-88.9126,15.9042],[-88.9498,15.8927],[-89.0122,15.8985],[-89.0569,15.9192],[-89.1502,15.8972],[-89.213,15.8952],[-89.2242,15.9286],[-89.2163,16.0029],[-89.1822,16.5115],[-89.1462,17.0498],[-89.1469,17.8146],[-89.7291,17.8159],[-90.1411,17.8165],[-90.9876,17.8155],[-90.9875,17.2514],[-91.4397,17.251],[-91.4288,17.2185],[-91.3245,17.1827],[-91.2791,17.1796],[-91.2675,17.1083],[-91.2225,17.0886],[-91.2137,17.0529],[-91.1753,17.0157],[-91.1232,17.0035],[-91.1226,16.977],[-91.0657,16.9209],[-91.0672,16.9012],[-90.9593,16.8631],[-90.9173,16.8192],[-90.8804,16.8226],[-90.8554,16.7956],[-90.762,16.7621],[-90.7082,16.7171],[-90.6584,16.6407],[-90.6413,16.5681],[-90.5867,16.4695],[-90.5014,16.4663],[-90.4588,16.421],[-90.4208,16.4249],[-90.3981,16.3861],[-90.3998,16.3395],[-90.4417,16.2867],[-90.458,16.2078],[-90.4304,16.1207],[-90.442,16.0743],[-91.7314,16.074],[-91.9568,15.6943],[-92.2106,15.2614],[-92.0747,15.0893],[-92.0736,15.0459],[-92.1008,15.0114],[-92.1508,14.9869],[-92.1364,14.8913],[-92.1848,14.8283],[-92.1478,14.7187],[-92.146,14.6626],[-92.1814,14.6142],[-92.1833,14.5777],[-92.2224,14.5304],[-92.0451,14.4013],[-91.9187,14.2946],[-91.7946,14.1962],[-91.7482,14.1732],[-91.5899,14.0735],[-91.3579,13.9712],[-91.2304,13.9338],[-91.0551,13.9143],[-90.8918,13.9146],[-90.7904,13.9249],[-90.681,13.9279],[-90.5349,13.9057],[-90.3974,13.8596],[-90.1249,13.7416],[-90.0918,13.7534],[-90.1143,13.797],[-90.1096,13.835],[-90.0794,13.876],[-90.0313,13.9034],[-90.0267,13.9367],[-89.9599,13.9709],[-89.909,14.0129],[-89.892,14.0437],[-89.8174,14.0644],[-89.7756,14.0354],[-89.7417,14.0658],[-89.7094,14.1406],[-89.6324,14.2001],[-89.5679,14.202],[-89.5194,14.2246],[-89.5372,14.2964],[-89.5805,14.3445],[-89.5677,14.4202],[-89.535,14.4212],[-89.5152,14.3883],[-89.467,14.4287],[-89.4255,14.4116],[-89.3821,14.4475],[-89.2964,14.4944],[-89.2491,14.568],[-89.2176,14.5837],[-89.1554,14.5722],[-89.153,14.6629],[-89.1267,14.7151],[-89.16,14.7328],[-89.1634,14.777],[-89.2187,14.8398],[-89.2189,14.887],[-89.1667,14.932],[-89.1517,14.9846],[-89.1785,15.014],[-89.1479,15.0703],[-88.9671,15.1371],[-88.8262,15.2552],[-88.6838,15.3349],[-88.6015,15.4126],[-88.5682,15.4275],[-88.3548,15.604],[-88.3188,15.6695],[-88.2427,15.691],[-88.226,15.723]]]},"properties":{"GID_0":"GTM","ISO_A2":"GT","ISO_A3":"GTM","NAME_EN":"Guatemala","NAME_IT":"Guatemala"}}
]}