{"type":"FeatureCollection", "features": [
{"type":"Feature","geometry":{"type":"Polygon","coordinates":[[[-6.9679,10.3474],[-6.764,10.3915],[-6.6722,10.3651],[-6.6302,10.4388],[-6.6812,10.47],[-6.6677,10.6301],[-6.5956,10.6219],[-6.4619,10.5648],[-6.4164,10.7007],[-6.2177,10.7263],[-6.205,10.4965],[-6.1666,10.3663],[-6.2393,10.298],[-6.1213,10.2051],[-6.0232,10.1989],[-5.9761,10.2778],[-5.9111,10.3011],[-5.8889,10.3676],[-5.7725,10.4403],[-5.5631,10.4639],[-5.5245,10.4329],[-5.4659,10.5925],[-5.4739,10.7584],[-5.4223,10.8526],[-5.4869,10.9704],[-5.4907,11.0719],[-5.3414,11.1366],[-5.2721,11.2345],[-5.2594,11.3684],[-5.2163,11.3957],[-5.2039,11.5292],[-5.2413,11.6049],[-5.2994,11.6268],[-5.2651,11.7462],[-5.2677,11.8356],[-5.1565,11.9478],[-4.8566,12.0145],[-4.7343,11.9968],[-4.6583,12.0539],[-4.5866,12.1965],[-4.4379,12.3415],[-4.4509,12.4267],[-4.3935,12.5319],[-4.4779,12.634],[-4.4792,12.7218],[-4.3696,12.7314],[-4.2945,12.6992],[-4.2272,12.8016],[-4.2302,12.9372],[-4.3533,13.1163],[-4.2583,13.2297],[-4.1334,13.3118],[-4.0925,13.3954],[-4.0058,13.4335],[-3.9568,13.4953],[-3.9124,13.3791],[-3.7977,13.3585],[-3.7226,13.2832],[-3.5998,13.2022],[-3.4488,13.1579],[-3.4248,13.2672],[-3.2561,13.2839],[-3.282,13.5341],[-3.2616,13.7185],[-3.1856,13.6853],[-3.103,13.6937],[-2.9537,13.6268],[-2.872,13.6553],[-2.903,13.7244],[-2.8959,13.8256],[-2.8324,13.9979],[-2.837,14.0606],[-2.6723,14.1342],[-2.4765,14.2979],[-2.292,14.2522],[-2.1058,14.1503],[-1.9937,14.1958],[-1.9754,14.4809],[-1.746,14.4858],[-1.6749,14.5069],[-1.3149,14.7336],[-1.0879,14.7901],[-0.9517,14.8849],[-0.8238,15.0133],[-0.7015,15.0815],[-0.4621,15.0826],[-0.3764,15.0114],[-0.2538,15.077],[-0.0092,14.9852],[0.2686,14.9897],[0.4018,14.9696],[0.5121,15.0014],[0.6942,14.9474],[0.9732,14.9789],[1.324,15.2651],[1.9126,15.3062],[2.6288,15.3671],[3.0979,15.3417],[3.5275,15.3415],[3.5382,15.4883],[3.6077,15.5262],[3.7061,15.6394],[3.8721,15.6919],[3.942,15.9354],[4.0044,15.986],[3.9877,16.0606],[4.0765,16.3204],[4.0768,16.9123],[4.2412,16.9877],[4.2389,17.3925],[4.2403,18.0065],[4.245,18.81],[4.2429,19.1367],[3.343,18.9613],[3.1212,19.1195],[3.1081,19.1781],[3.198,19.2807],[3.2721,19.4096],[3.2127,19.5915],[3.2299,19.8252],[3.1673,19.8381],[2.964,19.9506],[2.8113,19.9704],[2.7034,20.0047],[2.5783,20.0049],[2.3992,20.0719],[2.3384,20.1838],[2.266,20.2564],[2.1731,20.288],[2.0954,20.2121],[2.0439,20.2568],[1.9055,20.2502],[1.8032,20.2969],[1.671,20.4105],[1.6341,20.579],[1.4552,20.6508],[1.3718,20.6657],[1.3059,20.7442],[1.177,20.7335],[1.1586,20.793],[1.1849,20.9032],[1.1667,21.1189],[0.7779,21.3575],[0.0047,21.8345],[-0.013,21.9113],[-0.781,22.4118],[-1.1342,22.643],[-1.6839,23.006],[-2.4035,23.4678],[-2.8254,23.733],[-3.5057,24.1659],[-3.961,24.4451],[-4.4166,24.7319],[-4.83,24.9966],[-5,25],[-6.5644,25],[-6.4972,24.4122],[-6.4377,23.8296],[-6.3185,22.8465],[-6.2016,21.8163],[-6.1353,21.2587],[-6.0548,20.5606],[-5.9948,20.0245],[-5.8768,18.9979],[-5.8081,18.3821],[-5.744,17.7694],[-5.6583,17.0038],[-5.6028,16.4994],[-5.3271,16.3331],[-5.5064,15.508],[-5.5149,15.5019],[-6.154,15.4941],[-6.9035,15.497],[-7.9044,15.4972],[-8.6077,15.4975],[-9.3285,15.4963],[-9.3111,15.6662],[-9.4429,15.5976],[-9.4082,15.4344],[-9.6976,15.4275],[-9.7935,15.3727],[-9.9983,15.3566],[-10.1315,15.367],[-10.3206,15.4312],[-10.5076,15.4401],[-10.7295,15.4244],[-10.7178,15.3676],[-10.8293,15.269],[-10.9029,15.1036],[-10.9985,15.2382],[-11.2405,15.4108],[-11.4288,15.6454],[-11.5675,15.5764],[-11.6285,15.5222],[-11.7147,15.5265],[-11.7711,15.3371],[-11.8381,15.1719],[-11.8469,15.0484],[-11.7923,15.0252],[-11.8061,14.9016],[-11.9789,14.7616],[-12.1802,14.758],[-12.1589,14.6826],[-12.221,14.4923],[-12.2017,14.4062],[-12.1037,14.3757],[-12.0987,14.308],[-12.0224,14.2851],[-11.9863,14.1932],[-11.98,14.0879],[-11.9384,13.9977],[-11.95,13.82],[-12.0595,13.7257],[-12.0377,13.6234],[-11.9693,13.5351],[-11.8642,13.4502],[-11.8881,13.3874],[-11.8254,13.3296],[-11.766,13.3432],[-11.7338,13.4169],[-11.5908,13.3361],[-11.5189,13.2529],[-11.4921,13.1212],[-11.3473,12.9326],[-11.3838,12.9021],[-11.3857,12.7745],[-11.4207,12.7261],[-11.3997,12.5896],[-11.3506,12.4944],[-11.3803,12.3834],[-11.4978,12.2095],[-11.4641,12.1336],[-11.2575,11.9925],[-11.192,12.0145],[-11.1343,12.0951],[-11.0154,12.2056],[-10.9328,12.2233],[-10.7874,12.105],[-10.7951,12.0376],[-10.7355,11.9193],[-10.6722,11.8939],[-10.6208,11.9692],[-10.4564,12.1165],[-10.3094,12.2188],[-10.091,12.1797],[-10.0671,12.1391],[-9.9144,12.0985],[-9.8829,12.0571],[-9.6998,12.0238],[-9.6808,12.1163],[-9.6304,12.1728],[-9.5414,12.1927],[-9.4793,12.2458],[-9.3656,12.245],[-9.3188,12.277],[-9.3125,12.3694],[-9.4046,12.4615],[-9.362,12.4957],[-9.1617,12.4862],[-9.0457,12.4284],[-8.9689,12.3484],[-8.9786,12.1929],[-8.8955,12.1466],[-8.9129,12.0412],[-8.8054,12.0052],[-8.7949,11.9239],[-8.8543,11.6283],[-8.6906,11.5875],[-8.6541,11.4993],[-8.5021,11.3993],[-8.3969,11.3823],[-8.4865,11.222],[-8.5663,11.2047],[-8.6253,11.1139],[-8.6806,10.9671],[-8.5905,10.9502],[-8.5151,10.972],[-8.4824,11.0651],[-8.3819,11.076],[-8.2871,10.9951],[-8.2756,10.8531],[-8.3015,10.6362],[-8.2254,10.41],[-8.1205,10.4221],[-8.0917,10.3581],[-7.9686,10.3136],[-7.9265,10.171],[-7.8559,10.2048],[-7.7273,10.3555],[-7.7283,10.4258],[-7.6202,10.4526],[-7.449,10.4636],[-7.4254,10.3895],[-7.3651,10.3624],[-7.3844,10.2826],[-7.1785,10.2573],[-7.0896,10.2249],[-7.0473,10.1619],[-6.9758,10.1951],[-6.9953,10.3106],[-6.9679,10.3474]]]},"properties":{"GID_0":"MLI","ISO_A2":"ML","ISO_A3":"MLI","NAME_EN":"Mali","NAME_IT":"Mali"}}
]}