{"type":"FeatureCollection", "features": [
{"type":"Feature","geometry":{"type":"Polygon","coordinates":[[[-15.9534,12.4426],[-15.8878,12.4505],[-15.6808,12.4245],[-15.4332,12.5332],[-15.3352,12.6133],[-15.1736,12.6843],[-14.9127,12.6797],[-14.3261,12.6804],[-13.9988,12.6743],[-13.5005,12.6751],[-13.2055,12.6538],[-13.076,12.6356],[-13.0416,12.5784],[-13.0622,12.4855],[-12.9431,12.4769],[-12.9424,12.536],[-12.8897,12.5531],[-12.8435,12.4973],[-12.6423,12.4377],[-12.5632,12.3675],[-12.5153,12.4041],[-12.3904,12.3758],[-12.3557,12.3079],[-12.189,12.3609],[-12.0887,12.4253],[-12.0099,12.4031],[-11.8981,12.4494],[-11.8435,12.3965],[-11.7268,12.391],[-11.63,12.4353],[-11.4734,12.45],[-11.3726,12.4171],[-11.3551,12.5082],[-11.4111,12.5368],[-11.3997,12.5896],[-11.4207,12.7261],[-11.3857,12.7745],[-11.3838,12.9021],[-11.3515,12.9779],[-11.4116,13.0208],[-11.4251,13.0876],[-11.4921,13.1212],[-11.5189,13.2529],[-11.5908,13.3361],[-11.7338,13.4169],[-11.766,13.3432],[-11.8254,13.3296],[-11.8881,13.3874],[-11.8642,13.4502],[-11.9693,13.5351],[-12.0377,13.6234],[-12.0595,13.7257],[-11.9478,13.8128],[-11.93,13.9246],[-11.9384,13.9977],[-12.0048,13.9949],[-11.98,14.0879],[-11.9863,14.1932],[-12.02,14.281],[-12.0987,14.308],[-12.1037,14.3757],[-12.2017,14.4062],[-12.221,14.4923],[-12.1868,14.5556],[-12.1589,14.6826],[-12.2145,14.7058],[-12.2412,14.7644],[-12.3259,14.8249],[-12.3962,14.8444],[-12.4532,14.8929],[-12.4615,14.982],[-12.6077,15.0828],[-12.6988,15.0987],[-12.8525,15.2021],[-12.8351,15.2882],[-12.9484,15.3675],[-12.9643,15.5005],[-13.0526,15.4777],[-13.1048,15.5057],[-13.0874,15.5813],[-13.2518,15.6552],[-13.208,15.6953],[-13.292,15.7665],[-13.2983,15.8595],[-13.3774,16.0133],[-13.3789,16.0575],[-13.4989,16.0806],[-13.5758,16.133],[-13.6817,16.095],[-13.7199,16.144],[-13.7982,16.1423],[-13.9741,16.2236],[-13.9573,16.3153],[-14.0311,16.3521],[-14.0746,16.4089],[-14.2204,16.5439],[-14.3299,16.5657],[-14.3271,16.6301],[-14.4109,16.6362],[-14.5015,16.6141],[-14.629,16.6276],[-14.6506,16.6497],[-14.7525,16.6269],[-14.9536,16.6478],[-15.0542,16.6281],[-15.1152,16.5792],[-15.161,16.5879],[-15.2259,16.5526],[-15.3155,16.5728],[-15.3993,16.5373],[-15.4695,16.5927],[-15.5751,16.5155],[-15.7,16.4721],[-15.8685,16.5144],[-16.008,16.5022],[-16.0567,16.4805],[-16.1133,16.5562],[-16.1906,16.5201],[-16.2879,16.5035],[-16.3565,16.2707],[-16.3906,16.2175],[-16.459,16.1837],[-16.4476,16.1069],[-16.5099,16.0617],[-16.5235,15.8501],[-16.5438,15.7646],[-16.6674,15.5424],[-16.8617,15.2467],[-16.9787,15.0957],[-17.1074,14.9532],[-17.1282,14.9104],[-17.2654,14.8404],[-17.5157,14.7376],[-17.4304,14.7182],[-17.3821,14.7398],[-17.2525,14.703],[-17.1655,14.6276],[-17.0582,14.4554],[-17.008,14.4371],[-16.9332,14.3503],[-16.9293,14.2857],[-16.8783,14.2376],[-16.8666,14.1845],[-16.784,14.0939],[-16.7504,13.816],[-16.6337,13.7268],[-16.6354,13.6836],[-16.5452,13.5924],[-16.0277,13.5913],[-15.4731,13.5909],[-15.4332,13.7194],[-15.3387,13.7832],[-15.2152,13.7497],[-15.0621,13.8269],[-14.9765,13.7962],[-14.8721,13.7871],[-14.8014,13.7333],[-14.7821,13.6538],[-14.7125,13.6152],[-14.6262,13.6556],[-14.5061,13.6252],[-14.4686,13.5406],[-14.4273,13.5017],[-14.3201,13.4551],[-14.239,13.4741],[-14.164,13.5327],[-14.0268,13.5537],[-13.9575,13.5784],[-13.8864,13.5493],[-13.7916,13.4385],[-13.8028,13.3782],[-13.8596,13.3225],[-13.9508,13.3216],[-14.004,13.2915],[-14.1026,13.2848],[-14.132,13.2229],[-14.2344,13.2155],[-14.2626,13.2401],[-14.3478,13.2277],[-14.5063,13.3066],[-14.5607,13.3629],[-14.6588,13.341],[-14.8031,13.4162],[-14.9948,13.4901],[-15.0751,13.5656],[-15.1398,13.5814],[-15.1956,13.5285],[-15.2221,13.4267],[-15.2952,13.3669],[-15.3795,13.3553],[-15.4917,13.3951],[-15.591,13.3493],[-15.6804,13.3706],[-15.8021,13.348],[-15.8025,13.1811],[-16.0241,13.1637],[-16.6258,13.1658],[-16.702,13.1621],[-16.7291,13.0821],[-16.746,12.9465],[-16.7899,12.7729],[-16.7675,12.6206],[-16.7913,12.4849],[-16.7717,12.4041],[-16.6884,12.3587],[-16.51,12.35],[-16.3722,12.3762],[-16.2013,12.4606],[-16.1606,12.4477],[-16.0378,12.4715],[-15.9534,12.4426]]]},"properties":{"GID_0":"SEN","ISO_A2":"SN","ISO_A3":"SEN","NAME_EN":"Senegal","NAME_IT":"Senegal"}}
]}