{"type":"FeatureCollection", "features": [
{"type":"Feature","geometry":{"type":"Polygon","coordinates":[[[-4.2196,5.2199],[-3.9912,5.2549],[-3.8885,5.2371],[-3.8051,5.2079],[-3.5918,5.1713],[-3.3846,5.1457],[-3.1121,5.0921],[-3.019,5.116],[-2.9762,5.0871],[-2.9431,5.1143],[-2.8768,5.1281],[-2.8102,5.1063],[-2.7405,5.1248],[-2.7412,5.1757],[-2.7853,5.2859],[-2.7266,5.3409],[-2.7683,5.5544],[-2.7614,5.5993],[-2.8487,5.6486],[-2.9345,5.6198],[-2.9667,5.6406],[-2.9527,5.716],[-3.0261,5.7097],[-3.0205,5.8571],[-3.074,5.9853],[-3.1023,6.1519],[-3.1858,6.326],[-3.2366,6.5387],[-3.2341,6.5965],[-3.2567,6.6439],[-3.2089,6.7344],[-3.2258,6.8249],[-3.1166,7.0059],[-3.0749,7.0629],[-3.0321,7.0717],[-3.0236,7.1425],[-2.9534,7.2392],[-2.9782,7.2721],[-2.9347,7.4865],[-2.9235,7.6086],[-2.8486,7.7802],[-2.8086,7.9656],[-2.7717,7.9971],[-2.6367,8.0547],[-2.6085,8.1519],[-2.5554,8.1469],[-2.4949,8.2052],[-2.5044,8.334],[-2.549,8.5423],[-2.5965,8.8319],[-2.6159,8.9115],[-2.6513,8.944],[-2.6727,9.0202],[-2.7605,9.0256],[-2.7746,9.1373],[-2.7323,9.1654],[-2.7143,9.2095],[-2.6619,9.2401],[-2.7195,9.3347],[-2.6736,9.3874],[-2.7072,9.4748],[-2.7632,9.4011],[-2.7987,9.4193],[-2.9012,9.531],[-3.0172,9.7433],[-3.0662,9.7233],[-3.1206,9.8396],[-3.1842,9.8429],[-3.1924,9.9149],[-3.2812,9.8516],[-3.3972,9.9165],[-3.4698,9.9251],[-3.5993,9.9197],[-3.6323,9.9527],[-3.7086,9.9425],[-3.8092,9.8883],[-3.9004,9.9006],[-3.9729,9.8695],[-3.9876,9.8296],[-4.0429,9.8016],[-4.1234,9.8317],[-4.1804,9.7753],[-4.2672,9.7373],[-4.2909,9.6379],[-4.3944,9.597],[-4.4376,9.6624],[-4.5079,9.6467],[-4.5221,9.7053],[-4.571,9.6873],[-4.6147,9.7222],[-4.708,9.688],[-4.7377,9.747],[-4.8002,9.7552],[-4.8163,9.7865],[-4.7868,9.8302],[-4.8291,9.8621],[-4.9727,9.9077],[-4.9498,9.9472],[-4.9878,9.9844],[-4.9717,10.0422],[-5.0765,10.1066],[-5.0747,10.1829],[-5.1188,10.2564],[-5.2321,10.3156],[-5.2786,10.3157],[-5.3651,10.2875],[-5.4072,10.2956],[-5.4726,10.3522],[-5.5189,10.4333],[-5.5631,10.4639],[-5.6763,10.4629],[-5.7082,10.441],[-5.7725,10.4403],[-5.8889,10.3676],[-5.9111,10.3011],[-5.9761,10.2778],[-5.9907,10.221],[-6.0232,10.1989],[-6.1213,10.2051],[-6.2226,10.259],[-6.2393,10.298],[-6.1666,10.3663],[-6.205,10.4965],[-6.2511,10.5273],[-6.2122,10.5705],[-6.213,10.6462],[-6.2346,10.6704],[-6.2177,10.7263],[-6.2564,10.7366],[-6.3505,10.6946],[-6.4164,10.7007],[-6.4203,10.6255],[-6.4619,10.5648],[-6.5399,10.5869],[-6.5956,10.6219],[-6.6235,10.668],[-6.6677,10.6301],[-6.6812,10.47],[-6.6302,10.4388],[-6.6722,10.3651],[-6.7092,10.3595],[-6.764,10.3915],[-6.8544,10.3624],[-6.9475,10.3696],[-6.9953,10.3106],[-6.971,10.2504],[-6.9758,10.1951],[-7.0473,10.1619],[-7.0896,10.2249],[-7.1785,10.2573],[-7.333,10.269],[-7.3844,10.2826],[-7.3651,10.3624],[-7.4254,10.3895],[-7.449,10.4636],[-7.5085,10.4794],[-7.5513,10.4444],[-7.6202,10.4526],[-7.7283,10.4258],[-7.7273,10.3555],[-7.7648,10.2928],[-7.8559,10.2048],[-7.9265,10.171],[-7.9805,10.1746],[-8.0165,10.0971],[-8.1067,10.0469],[-8.1373,9.9922],[-8.1178,9.9577],[-8.1245,9.901],[-8.1015,9.8326],[-8.1364,9.6905],[-8.1278,9.6548],[-8.1529,9.5891],[-8.1492,9.5321],[-8.0603,9.4018],[-7.9681,9.396],[-7.8831,9.4356],[-7.8665,9.3754],[-7.8874,9.2906],[-7.9257,9.2173],[-7.8819,9.1577],[-7.8392,9.1531],[-7.788,9.1061],[-7.9183,9.004],[-7.9171,8.967],[-7.9548,8.8694],[-7.947,8.7866],[-7.9011,8.7653],[-7.8455,8.7768],[-7.7727,8.7671],[-7.7268,8.6673],[-7.6876,8.5448],[-7.6611,8.5059],[-7.68,8.4549],[-7.6411,8.3774],[-7.7517,8.3789],[-7.7884,8.4637],[-7.835,8.4809],[-7.8524,8.42],[-7.9213,8.4473],[-7.9381,8.5011],[-7.9851,8.4838],[-8.0651,8.5066],[-8.157,8.4862],[-8.1969,8.5027],[-8.2408,8.4608],[-8.2258,8.3607],[-8.238,8.3278],[-8.2191,8.234],[-8.1667,8.1964],[-8.1264,8.1962],[-8.0689,8.1615],[-8.009,8.1638],[-8.0106,8.094],[-7.9466,8.0424],[-8.0407,8.0328],[-8.1147,7.8448],[-8.0718,7.8083],[-8.094,7.722],[-8.1399,7.6933],[-8.1726,7.5817],[-8.2149,7.5337],[-8.3028,7.6014],[-8.3797,7.579],[-8.4174,7.6082],[-8.4722,7.5546],[-8.4141,7.4938],[-8.3899,7.3288],[-8.3518,7.271],[-8.3609,7.2428],[-8.2784,7.1852],[-8.2994,7.0888],[-8.2736,7.0067],[-8.3249,6.9661],[-8.3074,6.8482],[-8.4018,6.6824],[-8.5606,6.5615],[-8.5687,6.5188],[-8.4903,6.4324],[-8.436,6.4803],[-8.3991,6.4232],[-8.3804,6.3565],[-8.2804,6.3468],[-8.1717,6.2756],[-8.1186,6.2804],[-8.0053,6.3151],[-7.9653,6.2811],[-7.9016,6.2799],[-7.8206,6.1937],[-7.8483,6.0941],[-7.7868,6.0749],[-7.7685,6.0316],[-7.7881,5.9836],[-7.693,5.9049],[-7.6603,5.9197],[-7.5752,5.8973],[-7.4756,5.8105],[-7.4413,5.7537],[-7.4043,5.6477],[-7.3788,5.6239],[-7.3801,5.5292],[-7.4448,5.4209],[-7.4187,5.3747],[-7.3651,5.3277],[-7.4154,5.2544],[-7.475,5.224],[-7.4709,5.1504],[-7.5004,5.0966],[-7.5533,5.0762],[-7.54,4.9989],[-7.5569,4.9753],[-7.5265,4.919],[-7.5918,4.9056],[-7.591,4.8053],[-7.5616,4.7888],[-7.5464,4.6091],[-7.5659,4.5773],[-7.55,4.5102],[-7.5531,4.3863],[-7.5151,4.3618],[-7.4046,4.3835],[-7.184,4.5215],[-7.0571,4.5388],[-6.9135,4.664],[-6.7074,4.6937],[-6.6399,4.7221],[-6.584,4.7654],[-6.4474,4.7929],[-6.1985,4.884],[-6.1049,4.9315],[-6.0751,4.9615],[-6.0232,4.969],[-5.8415,5.0371],[-5.549,5.084],[-5.2057,5.1232],[-4.7588,5.1537],[-4.5435,5.1879],[-4.2196,5.2199]]]},"properties":{"GID_0":"CIV","ISO_A2":"CI","ISO_A3":"CIV","NAME_EN":"Côte d'Ivoire","NAME_IT":"Costa d'Avorio"}}
]}