{"type":"FeatureCollection", "features": [
{"type":"Feature","geometry":{"type":"MultiPolygon","coordinates":[[[[-66.0221,17.9774],[-65.9943,17.9788],[-65.9807,17.9676],[-65.9135,17.9763],[-65.8971,17.991],[-65.884,17.9901],[-65.8699,18.0068],[-65.8568,18.0046],[-65.8299,18.0199],[-65.831,18.0501],[-65.8179,18.0629],[-65.8015,18.0582],[-65.796,18.084],[-65.7671,18.149],[-65.7426,18.164],[-65.7285,18.1863],[-65.6979,18.184],[-65.6899,18.1957],[-65.6643,18.2068],[-65.6449,18.1979],[-65.6282,18.2046],[-65.6374,18.2285],[-65.6018,18.2301],[-65.6093,18.2526],[-65.6251,18.2568],[-65.6315,18.2951],[-65.6249,18.3043],[-65.6329,18.3501],[-65.619,18.3662],[-65.6274,18.3754],[-65.6482,18.3749],[-65.6735,18.3624],[-65.7101,18.3724],[-65.721,18.3896],[-65.7401,18.3796],[-65.7871,18.4065],[-65.8149,18.4093],[-65.8329,18.4299],[-65.8774,18.4374],[-65.901,18.4526],[-65.9254,18.4446],[-65.9918,18.4604],[-66.0015,18.4454],[-66.0246,18.444],[-66.039,18.4546],[-66.0724,18.4574],[-66.0888,18.4687],[-66.1376,18.451],[-66.1715,18.451],[-66.194,18.466],[-66.2396,18.4682],[-66.2699,18.4807],[-66.2846,18.4712],[-66.316,18.4746],[-66.3332,18.4826],[-66.3776,18.4885],[-66.4251,18.4888],[-66.4413,18.4849],[-66.4493,18.4707],[-66.4821,18.471],[-66.5357,18.4815],[-66.5593,18.4901],[-66.5815,18.4837],[-66.6357,18.4937],[-66.7007,18.4829],[-66.7087,18.4715],[-66.749,18.4762],[-66.7818,18.4918],[-66.8363,18.4871],[-66.8512,18.491],[-66.9118,18.4837],[-66.9399,18.4915],[-66.9788,18.4912],[-67.0179,18.5113],[-67.0924,18.516],[-67.1385,18.5079],[-67.1651,18.4879],[-67.1693,18.4671],[-67.1554,18.434],[-67.1568,18.4188],[-67.1932,18.3935],[-67.2262,18.3788],[-67.2626,18.3704],[-67.2693,18.3546],[-67.256,18.341],[-67.2351,18.2993],[-67.1954,18.2901],[-67.189,18.2657],[-67.1746,18.2449],[-67.174,18.2265],[-67.1585,18.2171],[-67.1582,18.1913],[-67.1765,18.1724],[-67.1796,18.141],[-67.1868,18.1351],[-67.1818,18.1107],[-67.1988,18.0921],[-67.1996,18.0468],[-67.1801,18.0293],[-67.1735,18.0124],[-67.2068,17.999],[-67.2154,17.986],[-67.2124,17.954],[-67.1954,17.9507],[-67.184,17.9626],[-67.1254,17.946],[-67.0993,17.9468],[-67.061,17.9749],[-67.0443,17.9676],[-66.9885,17.9707],[-66.9818,17.9513],[-66.9526,17.9326],[-66.9046,17.9499],[-66.8618,17.9526],[-66.836,17.9496],[-66.7932,17.9776],[-66.7904,17.9924],[-66.7701,18.006],[-66.7557,17.9876],[-66.7251,17.9918],[-66.6724,17.966],[-66.6496,17.9799],[-66.6271,17.9826],[-66.6193,17.9621],[-66.594,17.9713],[-66.5829,17.9607],[-66.5382,17.9737],[-66.5049,17.9876],[-66.4649,17.9907],[-66.3868,17.9374],[-66.3749,17.9518],[-66.339,17.9765],[-66.3171,17.9771],[-66.289,17.9418],[-66.2712,17.9471],[-66.261,17.9357],[-66.2318,17.931],[-66.2265,17.951],[-66.2001,17.961],[-66.1549,17.9293],[-66.1288,17.9468],[-66.1129,17.9482],[-66.0893,17.9632],[-66.069,17.9665],[-66.0429,17.956],[-66.0221,17.9774]]],[[[-65.391,18.1618],[-65.4385,18.1585],[-65.4454,18.1474],[-65.4713,18.144],[-65.5482,18.1193],[-65.5771,18.1196],[-65.5696,18.0912],[-65.5585,18.0843],[-65.5249,18.0812],[-65.511,18.0907],[-65.4804,18.0963],[-65.4471,18.0876],[-65.4118,18.106],[-65.359,18.1268],[-65.3379,18.1207],[-65.2957,18.1268],[-65.2954,18.1429],[-65.341,18.1493],[-65.391,18.1618]]],[[[-65.3371,18.349],[-65.3299,18.3249],[-65.2932,18.286],[-65.2443,18.3035],[-65.2454,18.3118],[-65.2726,18.3312],[-65.3185,18.3282],[-65.3371,18.349]]],[[[-67.8599,18.1212],[-67.884,18.1138],[-67.9104,18.1207],[-67.9332,18.1143],[-67.9385,18.0899],[-67.9249,18.066],[-67.8968,18.0521],[-67.8715,18.0579],[-67.8451,18.0812],[-67.8479,18.1096],[-67.8599,18.1212]]]]},"properties":{"GID_0":"PRI","ISO_A2":"PR","ISO_A3":"PRI","NAME_EN":"Puerto Rico","NAME_IT":"Porto Rico"}}
]}