{"type":"FeatureCollection", "features": [
{"type":"Feature","geometry":{"type":"Polygon","coordinates":[[[-62.1501,16.7121],[-62.1786,16.7155],[-62.1992,16.7294],[-62.2329,16.7375],[-62.226,16.7151],[-62.1893,16.6749],[-62.1613,16.6751],[-62.1446,16.6965],[-62.1501,16.7121]]]},"properties":{"NAME_1":"SaintAnthon","GID_1":"MSR.1_1"}},
{"type":"Feature","geometry":{"type":"Polygon","coordinates":[[[-62.1501,16.7121],[-62.1499,16.7521],[-62.1724,16.7826],[-62.1996,16.7345],[-62.1786,16.7155],[-62.1501,16.7121]]]},"properties":{"NAME_1":"SaintGeorges","GID_1":"MSR.2_1"}},
{"type":"Feature","geometry":{"type":"Polygon","coordinates":[[[-62.1992,16.7294],[-62.1996,16.7345],[-62.1724,16.7826],[-62.181,16.8168],[-62.1987,16.8243],[-62.2329,16.7375],[-62.1992,16.7294]]]},"properties":{"NAME_1":"SaintPeter","GID_1":"MSR.3_1"}}
]}