{"type":"FeatureCollection", "features": [
{"type":"Feature","geometry":{"type":"MultiPolygon","coordinates":[[[[-10.5988,8.003],[-10.6001,8.0264],[-10.5592,8.0491],[-10.5098,8.1288],[-10.458,8.1528],[-10.382,8.1447],[-10.3466,8.1491],[-10.2992,8.1919],[-10.2894,8.2216],[-10.312,8.2786],[-10.2939,8.2909],[-10.2879,8.3543],[-10.2658,8.4159],[-10.2694,8.4916],[-10.2869,8.4848],[-10.3314,8.5029],[-10.386,8.4929],[-10.4084,8.4502],[-10.4458,8.4035],[-10.5122,8.336],[-10.5535,8.3077],[-10.5796,8.308],[-10.5971,8.3323],[-10.674,8.3409],[-10.7002,8.2935],[-10.7163,8.3048],[-10.6961,8.3596],[-10.6531,8.3879],[-10.6571,8.4242],[-10.6496,8.4763],[-10.6306,8.4907],[-10.6224,8.5417],[-10.5812,8.5751],[-10.5823,8.5914],[-10.5229,8.6102],[-10.4818,8.6379],[-10.4694,8.6746],[-10.5232,8.7375],[-10.5358,8.7725],[-10.5869,8.8043],[-10.5982,8.959],[-10.5848,9.0432],[-10.613,9.0667],[-10.6603,9.0815],[-10.73,9.0792],[-10.7261,9.1311],[-10.7145,9.1439],[-10.7235,9.1835],[-10.6637,9.21],[-10.6752,9.2502],[-10.6615,9.29],[-10.6689,9.3093],[-10.7074,9.3301],[-10.731,9.3802],[-10.8166,9.3919],[-10.802,9.4144],[-10.8434,9.4428],[-10.8486,9.491],[-10.831,9.5206],[-10.8738,9.5375],[-10.8594,9.5582],[-10.911,9.6019],[-10.9214,9.65],[-10.9679,9.6737],[-10.9838,9.725],[-11.0387,9.7977],[-11.0973,9.8479],[-11.1428,9.8691],[-11.1602,9.8905],[-11.175,9.9758],[-11.2067,10.0004],[-11.3139,9.9984],[-11.5014,10],[-11.8858,9.9975],[-11.9066,9.9358],[-12.12,9.8719],[-12.1418,9.8743],[-12.2271,9.9247],[-12.2892,9.9088],[-12.4317,9.8816],[-12.4902,9.826],[-12.5014,9.7892],[-12.5361,9.7205],[-12.5667,9.7027],[-12.5915,9.6541],[-12.5917,9.5999],[-12.6212,9.6011],[-12.6605,9.532],[-12.6507,9.5089],[-12.6785,9.4637],[-12.6855,9.4308],[-12.724,9.3952],[-12.7578,9.3884],[-12.7509,9.3496],[-12.777,9.3426],[-12.7941,9.2975],[-12.8408,9.2853],[-12.8764,9.2966],[-12.9007,9.271],[-12.9351,9.2867],[-12.9588,9.2353],[-12.9542,9.1898],[-13.0021,9.0974],[-13.0508,9.0826],[-13.0583,9.0584],[-13.0876,9.0484],[-13.1231,9.0578],[-13.1742,9.0924],[-13.2069,9.0727],[-13.2476,9.0751],[-13.3035,9.0399],[-13.284,8.9535],[-13.2301,8.9482],[-13.196,8.9126],[-13.1574,8.9082],[-13.1596,8.8843],[-13.1432,8.841],[-13.206,8.8585],[-13.2462,8.8196],[-13.2485,8.7579],[-13.2435,8.6624],[-13.2118,8.6165],[-13.1974,8.5715],[-13.1704,8.5271],[-13.1365,8.5296],[-13.1282,8.5701],[-13.0899,8.5843],[-13.0565,8.576],[-13.0274,8.6001],[-12.9649,8.5921],[-12.9163,8.5476],[-12.9518,8.5276],[-12.9676,8.5526],[-13.0124,8.5551],[-13.049,8.5279],[-13.0671,8.4979],[-13.104,8.4874],[-13.1076,8.4693],[-13.1554,8.4501],[-13.1854,8.4829],[-13.2482,8.4943],[-13.2804,8.4663],[-13.2837,8.421],[-13.234,8.3446],[-13.2015,8.3343],[-13.1946,8.3004],[-13.1715,8.2799],[-13.1557,8.2129],[-13.1304,8.1965],[-13.0818,8.2179],[-13.0612,8.2382],[-12.9879,8.2346],[-12.9929,8.2088],[-12.9421,8.1549],[-12.896,8.0804],[-12.9054,8.0426],[-12.889,7.9465],[-12.9065,7.9438],[-12.951,7.9065],[-12.9254,7.8699],[-12.9021,7.8665],[-12.8721,7.8254],[-12.826,7.7957],[-12.7107,7.7015],[-12.681,7.7087],[-12.6182,7.6882],[-12.5482,7.6776],[-12.5399,7.6537],[-12.4879,7.6257],[-12.4682,7.5838],[-12.4693,7.561],[-12.4426,7.5193],[-12.4901,7.4485],[-12.4601,7.4232],[-12.4999,7.3829],[-12.461,7.376],[-12.3226,7.3337],[-12.1035,7.2493],[-11.911,7.1721],[-11.7437,7.0896],[-11.6612,7.0407],[-11.6193,7.0071],[-11.5971,6.974],[-11.5104,6.936],[-11.4874,6.9182],[-11.4167,6.9455],[-11.4109,6.9682],[-11.3752,7.0058],[-11.3605,7.0467],[-11.3679,7.0731],[-11.3297,7.0744],[-11.331,7.1088],[-11.3504,7.1353],[-11.3173,7.1644],[-11.3075,7.1936],[-11.2323,7.2448],[-11.1746,7.2639],[-11.1681,7.3025],[-11.1382,7.3207],[-11.098,7.3848],[-11.0559,7.3991],[-11.0039,7.44],[-10.9475,7.4957],[-10.9171,7.4945],[-10.838,7.5451],[-10.8113,7.5853],[-10.7036,7.7077],[-10.7003,7.7265],[-10.6504,7.7603],[-10.6011,7.77],[-10.5988,8.003]]],[[[-12.6204,7.6407],[-12.6846,7.6393],[-12.7474,7.6243],[-12.7962,7.6301],[-12.8038,7.6182],[-12.8715,7.6185],[-12.9218,7.5913],[-12.914,7.5646],[-12.7932,7.5335],[-12.6921,7.5024],[-12.5907,7.4596],[-12.5629,7.4279],[-12.5349,7.416],[-12.5301,7.4676],[-12.496,7.4971],[-12.5171,7.5596],[-12.536,7.5568],[-12.5432,7.5429],[-12.5529,7.5399],[-12.5535,7.5496],[-12.569,7.5474],[-12.5949,7.589],[-12.5843,7.634],[-12.6204,7.6407]]],[[[-12.5593,7.6124],[-12.5937,7.594],[-12.5685,7.5482],[-12.5568,7.5521],[-12.5474,7.5454],[-12.534,7.561],[-12.5212,7.564],[-12.5029,7.5476],[-12.4935,7.564],[-12.5029,7.5838],[-12.5593,7.6124]]]]},"properties":{"GID_0":"SLE","ISO_A2":"SL","ISO_A3":"SLE","NAME_EN":"Sierra Leone","NAME_IT":"Sierra Leone"}}
]}