{"type":"FeatureCollection", "features": [
{"type":"Feature","geometry":{"type":"MultiPolygon","coordinates":[[[[-158.9204,-19.256],[-158.94,-19.2636],[-158.9186,-19.2795],[-158.9204,-19.256]]],[[[-159.7685,-18.824],[-159.795,-18.8458],[-159.8028,-18.8708],[-159.7912,-18.8933],[-159.7725,-18.8814],[-159.7769,-18.8553],[-159.7685,-18.824]]]]},"properties":{"NAME_1":"Aitutaki","GID_1":"COK.1_1"}},
{"type":"Feature","geometry":{"type":"Polygon","coordinates":[[[-158.1214,-19.9658],[-158.1344,-19.9667],[-158.1422,-20],[-158.1162,-20.0295],[-158.0812,-20.004],[-158.1081,-19.9697],[-158.1214,-19.9658]]]},"properties":{"NAME_1":"Atiu","GID_1":"COK.2_1"}},
{"type":"Feature","geometry":{"type":"Polygon","coordinates":[[[-157.9111,-21.8911],[-157.9439,-21.898],[-157.9611,-21.9325],[-157.9559,-21.9468],[-157.9335,-21.9591],[-157.8791,-21.9558],[-157.8753,-21.9339],[-157.9111,-21.8911]]]},"properties":{"NAME_1":"Mangaia","GID_1":"COK.3_1"}},
{"type":"Feature","geometry":{"type":"Polygon","coordinates":[[[-161.0067,-10.3698],[-161.0058,-10.3744],[-160.9872,-10.4025],[-160.9717,-10.4172],[-160.9579,-10.4264],[-160.9539,-10.4253],[-160.9786,-10.4072],[-160.9878,-10.3961],[-160.9997,-10.3769],[-161.0067,-10.3698]]]},"properties":{"NAME_1":"Manihiki","GID_1":"COK.4_1"}},
{"type":"Feature","geometry":{"type":"Polygon","coordinates":[[[-157.3239,-20.1797],[-157.3206,-20.1558],[-157.3287,-20.1415],[-157.3543,-20.1317],[-157.3602,-20.1705],[-157.3414,-20.1897],[-157.3239,-20.1797]]]},"properties":{"NAME_1":"Mauke","GID_1":"COK.5_1"}},
{"type":"Feature","geometry":{"type":"Polygon","coordinates":[[[-157.7078,-19.8384],[-157.7203,-19.8431],[-157.7244,-19.8697],[-157.7106,-19.8983],[-157.683,-19.8858],[-157.68,-19.8514],[-157.7078,-19.8384]]]},"properties":{"NAME_1":"Mitiaro","GID_1":"COK.6_1"}},
{"type":"Feature","geometry":{"type":"Polygon","coordinates":[[[-163.1522,-17.9973],[-163.1729,-17.9978],[-163.1722,-18.0188],[-163.1793,-18.0382],[-163.1979,-18.0583],[-163.18,-18.0766],[-163.1773,-18.0907],[-163.1574,-18.0961],[-163.1468,-18.0812],[-163.1327,-18.0758],[-163.1149,-18.0529],[-163.1122,-18.0366],[-163.129,-18.0275],[-163.1522,-17.9973]],[[-163.1641,-18.0038],[-163.1586,-18.0001],[-163.1222,-18.0394],[-163.126,-18.0538],[-163.1561,-18.0807],[-163.171,-18.0801],[-163.1862,-18.0584],[-163.1685,-18.0312],[-163.1641,-18.0038]]]},"properties":{"NAME_1":"Palmerston","GID_1":"COK.7_1"}},
{"type":"Feature","geometry":{"type":"Polygon","coordinates":[[[-158.0515,-8.9789],[-158.0575,-8.9772],[-158.0402,-9.0026],[-158.03,-9.0244],[-158.025,-9.0283],[-158.0067,-9.0303],[-158.0056,-9.0253],[-158.02,-9.0269],[-158.0292,-9.0164],[-158.0515,-8.9789]]]},"properties":{"NAME_1":"Penhryn","GID_1":"COK.8_1"}},
{"type":"Feature","geometry":{"type":"Polygon","coordinates":[[[-165.8309,-10.9133],[-165.8306,-10.9106],[-165.8401,-10.9005],[-165.8396,-10.9106],[-165.8309,-10.9133]]]},"properties":{"NAME_1":"Pukapuka","GID_1":"COK.9_1"}},
{"type":"Feature","geometry":{"type":"Polygon","coordinates":[[[-161.0878,-9.9972],[-161.0994,-10],[-161.1031,-10.0225],[-161.0986,-10.0256],[-161.0939,-9.999],[-161.0878,-9.9972]]]},"properties":{"NAME_1":"Rakahanga","GID_1":"COK.10_1"}},
{"type":"Feature","geometry":{"type":"Polygon","coordinates":[[[-159.7917,-21.1991],[-159.8106,-21.1991],[-159.8316,-21.2178],[-159.8197,-21.2556],[-159.7589,-21.2728],[-159.7375,-21.2692],[-159.7236,-21.2432],[-159.7319,-21.2167],[-159.7536,-21.2031],[-159.776,-21.2055],[-159.7917,-21.1991]]]},"properties":{"NAME_1":"Rarotonga","GID_1":"COK.11_1"}}
]}