{"type":"FeatureCollection", "features": [
{"type":"Feature","geometry":{"type":"Polygon","coordinates":[[[-77.4024,17.8607],[-77.3251,17.8199],[-77.2693,17.7735],[-77.2501,17.7493],[-77.2015,17.7143],[-77.1487,17.709],[-77.126,17.7421],[-77.1449,17.7535],[-77.1701,17.7857],[-77.1707,17.8174],[-77.149,17.8726],[-77.1221,17.8971],[-77.0776,17.9126],[-77.0582,17.9079],[-76.9979,17.841],[-76.9737,17.8526],[-76.9499,17.8388],[-76.9096,17.8657],[-76.8796,17.9174],[-76.874,17.9501],[-76.8526,17.9685],[-76.8126,17.9726],[-76.8035,17.9643],[-76.7401,17.9679],[-76.7232,17.9471],[-76.7018,17.9479],[-76.6549,17.9313],[-76.6282,17.9065],[-76.616,17.8807],[-76.594,17.8682],[-76.5657,17.8732],[-76.5371,17.8518],[-76.4943,17.8671],[-76.434,17.8713],[-76.3957,17.8807],[-76.3393,17.8662],[-76.3001,17.8704],[-76.2815,17.8838],[-76.2335,17.8924],[-76.1815,17.9129],[-76.2012,17.9363],[-76.2229,17.9351],[-76.2368,17.9526],[-76.2312,17.974],[-76.2671,18.0104],[-76.2721,18.0482],[-76.3118,18.0985],[-76.3371,18.1557],[-76.3599,18.169],[-76.4357,18.1843],[-76.4654,18.1846],[-76.4807,18.2076],[-76.519,18.1963],[-76.576,18.2079],[-76.5974,18.2354],[-76.6443,18.2274],[-76.6857,18.2671],[-76.7176,18.2643],[-76.7499,18.2799],[-76.7793,18.271],[-76.7904,18.2821],[-76.8082,18.3332],[-76.8251,18.3362],[-76.8946,18.3912],[-76.8899,18.4099],[-76.9393,18.4149],[-76.9574,18.4018],[-77.0462,18.4243],[-77.0807,18.4124],[-77.1237,18.4129],[-77.1585,18.4257],[-77.1774,18.4426],[-77.2029,18.4387],[-77.2363,18.4588],[-77.3054,18.4696],[-77.3999,18.4615],[-77.4385,18.4801],[-77.5249,18.4832],[-77.5829,18.4907],[-77.6363,18.4824],[-77.6535,18.4971],[-77.7054,18.4979],[-77.7154,18.5071],[-77.8124,18.5237],[-77.8796,18.5207],[-77.9246,18.5012],[-77.9368,18.4432],[-78.0137,18.4571],[-78.051,18.4521],[-78.1179,18.4557],[-78.1407,18.4629],[-78.1668,18.4535],[-78.2135,18.4565],[-78.2382,18.4401],[-78.2663,18.3971],[-78.2999,18.3924],[-78.3018,18.3779],[-78.3354,18.3704],[-78.3404,18.2915],[-78.369,18.2726],[-78.3571,18.2412],[-78.2968,18.2196],[-78.2618,18.2196],[-78.2432,18.1957],[-78.1618,18.2165],[-78.1346,18.2068],[-78.1049,18.2143],[-78.0679,18.2113],[-78.0382,18.1907],[-78.0271,18.1601],[-78.0265,18.1276],[-77.9638,18.0849],[-77.9432,18.0351],[-77.8954,18.0365],[-77.8538,18.0257],[-77.8313,18.0001],[-77.8412,17.9751],[-77.8371,17.9476],[-77.8004,17.9251],[-77.7929,17.8982],[-77.7404,17.8657],[-77.6629,17.8596],[-77.5529,17.866],[-77.5188,17.8429],[-77.4662,17.8599],[-77.4024,17.8607]]]},"properties":{"GID_0":"JAM","ISO_A2":"JM","ISO_A3":"JAM","NAME_EN":"Jamaica","NAME_IT":"Giamaica"}}
]}