{"type":"FeatureCollection", "features": [
{"type":"Feature","geometry":{"type":"MultiPolygon","coordinates":[[[[-87.8086,13.4031],[-87.7524,13.3596],[-87.6835,13.3688],[-87.6496,13.4163],[-87.6526,13.4529],[-87.614,13.4585],[-87.631,13.4143],[-87.6046,13.3829],[-87.5888,13.379],[-87.5799,13.3801],[-87.5707,13.3763],[-87.5335,13.3432],[-87.4779,13.3574],[-87.4804,13.3871],[-87.4468,13.4154],[-87.429,13.3963],[-87.4274,13.3518],[-87.4579,13.2785],[-87.4818,13.3046],[-87.4976,13.269],[-87.4751,13.2554],[-87.4301,13.1596],[-87.4243,13.1143],[-87.391,13.1135],[-87.3326,13.0332],[-87.2974,13.0182],[-87.2813,12.9852],[-87.1227,12.9983],[-87.0277,12.9888],[-86.959,13.0322],[-86.9481,13.0641],[-86.9179,13.0923],[-86.9333,13.1211],[-86.9183,13.1455],[-86.929,13.1823],[-86.9079,13.2563],[-86.8646,13.2942],[-86.8192,13.3063],[-86.7618,13.2686],[-86.7065,13.2954],[-86.7104,13.3694],[-86.7363,13.38],[-86.7224,13.4253],[-86.7374,13.4783],[-86.7457,13.5507],[-86.767,13.5701],[-86.7515,13.6359],[-86.785,13.6567],[-86.7619,13.7208],[-86.7628,13.7731],[-86.7153,13.7871],[-86.6537,13.7778],[-86.5345,13.7979],[-86.4991,13.7692],[-86.4511,13.7829],[-86.4387,13.7622],[-86.3521,13.7596],[-86.3288,13.7734],[-86.3013,13.814],[-86.3028,13.8416],[-86.2521,13.8842],[-86.2222,13.9274],[-86.1859,13.9551],[-86.1861,13.9821],[-86.1359,14.0085],[-86.1505,14.0325],[-86.0924,14.0639],[-86.0065,14.0708],[-86.0233,14.0076],[-86.0154,13.9898],[-85.9476,13.9388],[-85.92,13.9079],[-85.8879,13.9221],[-85.8438,13.9032],[-85.8445,13.8772],[-85.8112,13.8402],[-85.7437,13.8398],[-85.7643,13.8793],[-85.7591,13.9583],[-85.7125,13.988],[-85.6825,13.9784],[-85.6637,14.0107],[-85.6079,14.0254],[-85.5765,14.0624],[-85.523,14.0464],[-85.509,14.0816],[-85.4699,14.0918],[-85.4053,14.1248],[-85.3794,14.1755],[-85.3752,14.2113],[-85.3387,14.2446],[-85.2784,14.2574],[-85.1836,14.2506],[-85.1579,14.2935],[-85.1811,14.328],[-85.2255,14.3668],[-85.2067,14.3896],[-85.1783,14.461],[-85.1376,14.5172],[-85.151,14.5666],[-85.1297,14.5797],[-85.0897,14.5491],[-85.0451,14.5723],[-85.0252,14.602],[-85.0281,14.698],[-84.9615,14.7513],[-84.9289,14.7579],[-84.9034,14.8077],[-84.8601,14.807],[-84.8197,14.8233],[-84.7929,14.8095],[-84.7713,14.7471],[-84.7468,14.7115],[-84.7122,14.6887],[-84.681,14.687],[-84.5818,14.6501],[-84.5245,14.6538],[-84.498,14.621],[-84.4691,14.6145],[-84.4331,14.6319],[-84.3832,14.6773],[-84.3093,14.6817],[-84.2788,14.6551],[-84.2545,14.6746],[-84.269,14.7189],[-84.2287,14.7312],[-84.1802,14.7079],[-84.1464,14.7136],[-84.0992,14.7376],[-84.0034,14.7493],[-83.9803,14.74],[-83.918,14.7722],[-83.8989,14.759],[-83.8515,14.7668],[-83.8355,14.7837],[-83.7634,14.8021],[-83.7388,14.8314],[-83.7112,14.8258],[-83.6999,14.8533],[-83.6715,14.8712],[-83.6337,14.8729],[-83.6194,14.8903],[-83.5636,14.91],[-83.5066,14.9988],[-83.4681,14.9751],[-83.4277,14.9873],[-83.4073,15.0213],[-83.3307,15.0076],[-83.291,14.9829],[-83.2369,14.9805],[-83.1949,15.0176],[-83.2624,15.0504],[-83.3135,15.0999],[-83.3382,15.149],[-83.3512,15.1965],[-83.3901,15.2557],[-83.466,15.2871],[-83.6182,15.3343],[-83.7104,15.389],[-83.7362,15.3721],[-83.6824,15.3304],[-83.6487,15.2904],[-83.6524,15.2612],[-83.6963,15.2424],[-83.714,15.2032],[-83.7668,15.2076],[-83.7682,15.2651],[-83.8607,15.3193],[-83.9282,15.3699],[-83.9793,15.3979],[-84.0488,15.389],[-84.0299,15.3413],[-84.079,15.3324],[-84.1001,15.341],[-84.1385,15.396],[-84.1054,15.4299],[-84.0954,15.4738],[-84.0404,15.5263],[-83.959,15.4938],[-83.9268,15.469],[-83.9238,15.4429],[-83.8832,15.4413],[-83.8087,15.4126],[-83.7568,15.3701],[-83.7276,15.3932],[-83.8057,15.416],[-83.8551,15.4426],[-83.9296,15.4979],[-84.0943,15.6471],[-84.3082,15.8176],[-84.4538,15.8263],[-84.5282,15.8388],[-84.5357,15.7801],[-84.5782,15.7785],[-84.5968,15.8013],[-84.6379,15.7738],[-84.6712,15.8087],[-84.6579,15.8676],[-84.7821,15.8988],[-84.8815,15.9357],[-84.9151,15.954],[-85.011,15.9846],[-85.0685,15.9819],[-85.1288,15.9487],[-85.1757,15.909],[-85.2746,15.8801],[-85.4018,15.8782],[-85.456,15.8599],[-85.491,15.861],[-85.6165,15.909],[-85.7215,15.9687],[-85.8685,16.009],[-85.9851,16.0268],[-85.9818,16.0049],[-85.9371,16.0113],[-85.8879,15.9929],[-85.8235,15.9868],[-85.8485,15.944],[-85.871,15.9379],[-85.9018,15.9576],[-85.9396,15.9265],[-85.9896,15.9049],[-86.0663,15.8973],[-86.1232,15.9049],[-86.2218,15.871],[-86.2851,15.8129],[-86.3324,15.8018],[-86.3587,15.7807],[-86.4229,15.7801],[-86.4837,15.8124],[-86.6757,15.7876],[-86.7787,15.7993],[-86.8313,15.7674],[-86.9068,15.7551],[-86.9635,15.7612],[-87.0196,15.7771],[-87.1438,15.7899],[-87.2182,15.8029],[-87.3732,15.8482],[-87.3965,15.8174],[-87.4313,15.8146],[-87.4593,15.781],[-87.504,15.7863],[-87.5804,15.836],[-87.6251,15.8915],[-87.6554,15.8907],[-87.7135,15.9185],[-87.7668,15.8935],[-87.8135,15.9015],[-87.8699,15.889],[-87.931,15.8412],[-87.9529,15.806],[-87.999,15.7865],[-88.0418,15.7846],[-88.0476,15.764],[-88.1054,15.7243],[-88.1218,15.6865],[-88.1601,15.6835],[-88.2199,15.7226],[-88.239,15.6962],[-88.3175,15.6538],[-88.3548,15.604],[-88.4131,15.5596],[-88.5682,15.4275],[-88.6015,15.4126],[-88.6838,15.3349],[-88.8262,15.2552],[-88.9671,15.1371],[-89.1479,15.0703],[-89.1785,15.014],[-89.1517,14.9846],[-89.1667,14.932],[-89.2189,14.887],[-89.2187,14.8398],[-89.1634,14.777],[-89.16,14.7328],[-89.1267,14.7151],[-89.153,14.6629],[-89.1463,14.6025],[-89.1554,14.5722],[-89.2176,14.5837],[-89.2491,14.568],[-89.2964,14.4944],[-89.3485,14.466],[-89.3498,14.4226],[-89.2983,14.3903],[-89.224,14.3781],[-89.1762,14.3434],[-89.1233,14.3382],[-89.0903,14.3463],[-89.0308,14.3188],[-89.0273,14.2738],[-88.9902,14.2507],[-88.9561,14.2028],[-88.9084,14.2037],[-88.8646,14.1783],[-88.8199,14.0836],[-88.7517,14.0849],[-88.6746,14.0082],[-88.6285,14.0191],[-88.5891,14.0066],[-88.565,13.9788],[-88.5376,13.9831],[-88.4976,13.9566],[-88.5122,13.9107],[-88.4948,13.8591],[-88.4665,13.8503],[-88.4191,13.8791],[-88.3769,13.8824],[-88.3533,13.8654],[-88.255,13.8974],[-88.2154,13.9307],[-88.2119,13.9815],[-88.1548,13.9702],[-88.103,13.9865],[-88.0675,13.959],[-88.0156,13.8864],[-87.9119,13.8982],[-87.8199,13.8834],[-87.7999,13.8892],[-87.754,13.8614],[-87.7451,13.8326],[-87.7103,13.8108],[-87.727,13.7255],[-87.7494,13.6941],[-87.7568,13.6005],[-87.7877,13.5521],[-87.7913,13.5188],[-87.7657,13.5013],[-87.7359,13.5057],[-87.7183,13.4609],[-87.8086,13.4031]]],[[[-87.6387,13.2976],[-87.6646,13.2757],[-87.6593,13.251],[-87.6151,13.2576],[-87.6157,13.2899],[-87.6387,13.2976]]],[[[-87.5938,13.379],[-87.6363,13.3746],[-87.661,13.3465],[-87.646,13.3179],[-87.581,13.3079],[-87.5743,13.3457],[-87.5646,13.3593],[-87.5729,13.3768],[-87.5938,13.379]]],[[[-86.8812,16.123],[-86.9365,16.1213],[-86.9896,16.0921],[-86.9557,16.069],[-86.8829,16.1007],[-86.8812,16.123]]],[[[-86.3646,16.3926],[-86.3201,16.3946],[-86.271,16.431],[-86.3699,16.4149],[-86.4401,16.3782],[-86.4604,16.379],[-86.5612,16.3365],[-86.5549,16.306],[-86.4829,16.3329],[-86.4601,16.3515],[-86.3921,16.3662],[-86.3646,16.3926]]],[[[-85.854,16.5157],[-85.8907,16.4979],[-85.931,16.4538],[-85.9274,16.4196],[-85.8465,16.4837],[-85.854,16.5157]]]]},"properties":{"GID_0":"HND","ISO_A2":"HN","ISO_A3":"HND","NAME_EN":"Honduras","NAME_IT":"Honduras"}}
]}