{"type":"FeatureCollection", "features": [
{"type":"Feature","geometry":{"type":"MultiPolygon","coordinates":[[[[73.149,-0.6868],[73.1446,-0.6857],[73.1457,-0.696],[73.1551,-0.7001],[73.1638,-0.7007],[73.1654,-0.6924],[73.1529,-0.6893],[73.149,-0.6868]]],[[[73.2146,-0.5771],[73.2204,-0.5849],[73.2254,-0.5871],[73.226,-0.5937],[73.2221,-0.5987],[73.224,-0.6037],[73.2349,-0.5924],[73.2396,-0.584],[73.2365,-0.579],[73.224,-0.5807],[73.2146,-0.5771]]],[[[73.0888,-0.5812],[73.0774,-0.5826],[73.0757,-0.5907],[73.0899,-0.6199],[73.1013,-0.6351],[73.0987,-0.6154],[73.0926,-0.6082],[73.0929,-0.6032],[73.0865,-0.6004],[73.0815,-0.5915],[73.0832,-0.5857],[73.0888,-0.5812]]],[[[73.1165,-0.6607],[73.1171,-0.6676],[73.1268,-0.6771],[73.1293,-0.6746],[73.1165,-0.6607]]],[[[73.4199,-0.2785],[73.4168,-0.2771],[73.4099,-0.2837],[73.4129,-0.2926],[73.421,-0.2974],[73.4282,-0.3099],[73.4379,-0.3124],[73.4404,-0.3063],[73.4235,-0.2871],[73.4199,-0.2785]]],[[[73.1288,0.2335],[73.129,0.2271],[73.1385,0.2143],[73.1404,0.2229],[73.1288,0.2335]]],[[[73.2832,0.2329],[73.2787,0.2343],[73.2696,0.2318],[73.2637,0.2224],[73.2712,0.2204],[73.2774,0.2229],[73.2832,0.2329]]],[[[73.0346,0.3021],[73.0285,0.3029],[73.0321,0.2938],[73.0435,0.2893],[73.0451,0.294],[73.0357,0.2968],[73.0346,0.3021]]],[[[73.5204,0.3415],[73.5143,0.3421],[73.5035,0.3371],[73.5068,0.3326],[73.5204,0.3415]]],[[[73.4899,0.3274],[73.4863,0.3299],[73.4815,0.321],[73.4879,0.3179],[73.496,0.3251],[73.4899,0.3274]]],[[[73.4435,0.2835],[73.4324,0.2857],[73.4271,0.2818],[73.4243,0.2713],[73.4274,0.2646],[73.4349,0.2715],[73.4435,0.2835]]],[[[73.0521,0.2893],[73.0582,0.2846],[73.0579,0.2807],[73.0668,0.2688],[73.0735,0.2676],[73.0801,0.2713],[73.0676,0.2746],[73.0632,0.2826],[73.0574,0.2879],[73.0521,0.2893]]],[[[73.5576,0.3838],[73.5512,0.3796],[73.5476,0.3713],[73.5515,0.3668],[73.5563,0.3735],[73.5576,0.3838]]],[[[73.0113,0.396],[73.0046,0.3974],[73.0062,0.3885],[73.0113,0.3874],[73.0182,0.3904],[73.0113,0.396]]],[[[73.571,0.4449],[73.5665,0.4487],[73.5657,0.4354],[73.5718,0.4404],[73.571,0.4449]]],[[[72.9935,0.4965],[72.9885,0.4954],[72.9874,0.4882],[72.991,0.4771],[72.9996,0.4821],[72.9971,0.494],[72.9935,0.4965]]],[[[73.0029,0.4521],[72.996,0.4479],[73.0007,0.4363],[73.0054,0.436],[73.0074,0.4463],[73.0029,0.4521]]],[[[73.5729,0.4268],[73.569,0.4282],[73.5679,0.416],[73.5732,0.4193],[73.5729,0.4268]]],[[[72.9996,0.5363],[72.9924,0.5324],[72.9915,0.5254],[72.9985,0.5271],[73.0015,0.531],[72.9996,0.5363]]],[[[73.546,0.5071],[73.5437,0.5001],[73.5479,0.4929],[73.5568,0.4921],[73.546,0.5071]]],[[[73.4454,0.6415],[73.4407,0.6401],[73.4482,0.6301],[73.4512,0.6349],[73.4454,0.6415]]],[[[73.4365,0.7307],[73.4351,0.7418],[73.4293,0.7396],[73.4324,0.7265],[73.4365,0.7307]]],[[[73.4388,0.7635],[73.4307,0.7632],[73.4335,0.7488],[73.4376,0.7543],[73.4337,0.761],[73.4388,0.7635]]],[[[73.3774,1.7854],[73.3682,1.7868],[73.3646,1.7801],[73.3712,1.7782],[73.3774,1.7854]]],[[[73.3962,1.8001],[73.3882,1.8015],[73.3793,1.7949],[73.3793,1.786],[73.3971,1.7974],[73.3962,1.8001]]],[[[73.541,1.9432],[73.5379,1.9149],[73.5346,1.8971],[73.5304,1.8857],[73.5246,1.876],[73.519,1.8582],[73.5254,1.8585],[73.5251,1.8701],[73.5304,1.8688],[73.5318,1.8801],[73.5371,1.8901],[73.5376,1.8965],[73.5526,1.9249],[73.5529,1.931],[73.5496,1.9404],[73.541,1.9432]]],[[[73.5354,2.0354],[73.5296,2.0337],[73.5315,2.0226],[73.5368,2.0232],[73.5354,2.0354]]],[[[73.5399,2.0651],[73.5329,2.0599],[73.5376,2.0554],[73.5399,2.0651]]],[[[73.5863,2.1288],[73.5746,2.124],[73.5568,2.1204],[73.5518,2.1179],[73.5596,2.1063],[73.569,2.1162],[73.5835,2.1224],[73.5863,2.1288]]],[[[73.5338,2.006],[73.5354,2.0176],[73.5321,2.0174],[73.5338,2.006]]],[[[73.5115,1.8457],[73.5079,1.8437],[73.4982,1.8313],[73.4871,1.8249],[73.4915,1.8212],[73.4993,1.8268],[73.5104,1.8407],[73.5115,1.8457]]],[[[73.1076,2.2001],[73.1074,2.1924],[73.1137,2.1885],[73.1207,2.191],[73.1076,2.2001]]],[[[73.0974,2.1899],[73.0924,2.1913],[73.0896,2.1843],[73.1007,2.1854],[73.0974,2.1899]]],[[[72.9182,2.3268],[72.9132,2.3229],[72.9154,2.3126],[72.9201,2.3113],[72.9182,2.3268]]],[[[72.9449,2.2949],[72.9396,2.2954],[72.9393,2.2887],[72.944,2.2874],[72.9449,2.2949]]],[[[73.3449,2.3457],[73.3346,2.3426],[73.3368,2.3354],[73.3449,2.3457]]],[[[73.3504,2.4424],[73.3554,2.4282],[73.359,2.414],[73.3604,2.3804],[73.3646,2.399],[73.3621,2.4021],[73.3585,2.4243],[73.3504,2.4424]]],[[[72.8954,2.6751],[72.8893,2.6682],[72.8982,2.6668],[72.8954,2.6751]]],[[[73.4285,2.7824],[73.4287,2.7915],[73.4251,2.7915],[73.4229,2.7796],[73.4174,2.7715],[73.426,2.7721],[73.4285,2.7824]]],[[[72.8926,3.0579],[72.8843,3.0565],[72.8879,3.0515],[72.8926,3.0579]]],[[[72.8418,3.4774],[72.836,3.4799],[72.8326,3.4729],[72.8424,3.474],[72.8418,3.4774]]],[[[72.9326,3.5382],[72.9299,3.5401],[72.9157,3.5151],[72.9279,3.529],[72.9326,3.5382]]],[[[73.4946,3.9446],[73.4915,3.9471],[73.4846,3.936],[73.489,3.9357],[73.4946,3.9446]]],[[[73.0701,2.1699],[73.0624,2.171],[73.0612,2.1635],[73.0682,2.1632],[73.0701,2.1699]]],[[[73.5079,4.181],[73.5015,4.1779],[73.5001,4.1696],[73.5038,4.1679],[73.5193,4.1696],[73.5188,4.1785],[73.5079,4.181]]],[[[73.5315,4.1943],[73.5257,4.1976],[73.5238,4.189],[73.5285,4.1754],[73.531,4.176],[73.5315,4.1943]]],[[[73.5471,4.2196],[73.5374,4.2201],[73.5343,4.2118],[73.5471,4.2196]]],[[[73.5574,4.2871],[73.5504,4.2871],[73.551,4.2793],[73.5571,4.2826],[73.5574,4.2871]]],[[[73.6532,4.3765],[73.6462,4.3765],[73.6457,4.3721],[73.6537,4.3718],[73.6532,4.3765]]],[[[72.9618,4.4432],[72.9574,4.4446],[72.9521,4.4388],[72.9538,4.4346],[72.9629,4.4287],[72.966,4.431],[72.966,4.4396],[72.9618,4.4432]]],[[[73.0062,4.879],[73.0004,4.881],[72.9921,4.8782],[72.9949,4.8699],[73.0004,4.8649],[73.0018,4.874],[73.0062,4.879]]],[[[73.4707,4.9657],[73.4649,4.9671],[73.4593,4.9582],[73.4476,4.9546],[73.4488,4.9496],[73.4565,4.9463],[73.466,4.9499],[73.4726,4.9579],[73.4707,4.9657]]],[[[73.0351,5.4493],[73.0249,5.4507],[73.0251,5.4465],[73.0351,5.4493]]],[[[73.4085,5.7712],[73.4071,5.7624],[73.4124,5.7599],[73.4154,5.7671],[73.4085,5.7712]]],[[[73.0135,5.7704],[73.0099,5.7624],[73.0154,5.7613],[73.0135,5.7704]]],[[[73.4824,5.8376],[73.4707,5.8201],[73.464,5.8165],[73.4557,5.8063],[73.484,5.8276],[73.481,5.8299],[73.4824,5.8376]]],[[[73.4688,5.8868],[73.4618,5.8832],[73.4621,5.8782],[73.4685,5.8774],[73.4718,5.8812],[73.4688,5.8868]]],[[[73.4557,5.9074],[73.4557,5.8974],[73.4604,5.8996],[73.4557,5.9074]]],[[[73.4079,5.9693],[73.4013,5.9679],[73.4115,5.9568],[73.4224,5.9382],[73.4265,5.9424],[73.4143,5.9554],[73.4079,5.9693]]],[[[73.2857,6.0774],[73.281,6.0715],[73.284,6.0629],[73.2882,6.0649],[73.2857,6.0774]]],[[[73.2979,6.2026],[73.2985,6.1951],[73.2921,6.1785],[73.3004,6.1851],[73.3015,6.196],[73.2979,6.2026]]],[[[73.2707,6.2393],[73.2646,6.239],[73.2624,6.2307],[73.2679,6.2293],[73.2726,6.2326],[73.2707,6.2393]]],[[[73.2424,6.2963],[73.2387,6.2935],[73.2435,6.2846],[73.2449,6.2765],[73.2513,6.2804],[73.2482,6.2888],[73.2424,6.2963]]],[[[73.1543,6.2865],[73.149,6.2885],[73.1465,6.2829],[73.1513,6.2801],[73.1543,6.2865]]],[[[73.2307,6.3318],[73.2254,6.3321],[73.2229,6.3224],[73.2349,6.3221],[73.2307,6.3318]]],[[[73.1143,6.3074],[73.1068,6.3079],[73.1038,6.301],[73.111,6.2971],[73.1143,6.3074]]],[[[73.2107,6.3532],[73.2046,6.3546],[73.2043,6.3476],[73.2076,6.3432],[73.216,6.3471],[73.2107,6.3532]]],[[[73.054,6.3643],[73.0457,6.3646],[73.0443,6.3557],[73.0499,6.3549],[73.0546,6.3599],[73.054,6.3643]]],[[[72.9604,6.5521],[72.9524,6.5532],[72.9518,6.546],[72.9579,6.5468],[72.9604,6.5521]]],[[[72.9849,6.5479],[72.9749,6.5476],[72.9724,6.5396],[72.9771,6.5363],[72.9851,6.5388],[72.9879,6.5449],[72.9849,6.5479]]],[[[72.9371,6.4335],[72.9313,6.4346],[72.9215,6.4274],[72.9287,6.4254],[72.9371,6.4335]]],[[[72.9221,6.4435],[72.9143,6.4438],[72.909,6.4368],[72.9212,6.4382],[72.9221,6.4435]]],[[[73.054,6.5799],[73.049,6.5818],[73.0457,6.574],[73.0529,6.561],[73.0579,6.5643],[73.0582,6.5738],[73.054,6.5799]]],[[[73.0104,6.6079],[73.0043,6.6029],[73.0115,6.596],[73.0143,6.601],[73.0104,6.6079]]],[[[73.0687,6.6335],[73.0626,6.6307],[73.0682,6.621],[73.0668,6.6163],[73.0726,6.6115],[73.0765,6.619],[73.0743,6.629],[73.0687,6.6335]]],[[[73.1243,6.7063],[73.1154,6.7051],[73.1179,6.6999],[73.1179,6.6887],[73.1249,6.6951],[73.1243,6.7063]]],[[[73.0849,6.6718],[73.0771,6.6688],[73.0774,6.6562],[73.0799,6.6524],[73.086,6.6532],[73.089,6.6587],[73.0882,6.6665],[73.0849,6.6718]]],[[[72.9101,6.6712],[72.9024,6.6701],[72.8943,6.6718],[72.8935,6.6665],[72.9054,6.6682],[72.9101,6.6712]]],[[[73.1849,6.7765],[73.1732,6.7679],[73.1699,6.7535],[73.1651,6.7418],[73.1668,6.7368],[73.1837,6.7679],[73.1849,6.7765]]],[[[73.0554,6.7518],[73.0507,6.7535],[73.0482,6.7449],[73.0565,6.7385],[73.059,6.7443],[73.0554,6.7518]]],[[[73.2154,6.826],[73.2085,6.8271],[73.1968,6.8124],[73.2035,6.8071],[73.2099,6.8068],[73.2176,6.8157],[73.2154,6.826]]],[[[73.014,6.8401],[73.0068,6.8396],[73.0085,6.834],[73.0154,6.8351],[73.014,6.8401]]],[[[73.156,6.834],[73.1515,6.834],[73.1524,6.8254],[73.1557,6.8226],[73.1626,6.8235],[73.156,6.834]]],[[[73.121,6.7843],[73.1185,6.7763],[73.1246,6.7757],[73.121,6.7843]]],[[[73.2337,6.9238],[73.2224,6.9213],[73.2337,6.9149],[73.2346,6.894],[73.2332,6.8874],[73.2279,6.8796],[73.2204,6.8765],[73.2235,6.8701],[73.2343,6.871],[73.236,6.8785],[73.2368,6.9015],[73.2357,6.9171],[73.2337,6.9238]]],[[[73.1093,6.894],[73.1132,6.8815],[73.1176,6.8835],[73.1137,6.8932],[73.1093,6.894]]],[[[73.2168,6.9654],[73.2101,6.9621],[73.2182,6.9432],[73.2226,6.9568],[73.2168,6.9654]]],[[[72.9924,7.024],[72.9962,7.006],[73.0007,7.004],[73.0043,7.0112],[72.9924,7.024]]],[[[72.9218,7.0932],[72.9224,7.0843],[72.926,7.0743],[72.934,7.0774],[72.931,7.0851],[72.9218,7.0932]]]]},"properties":{"GID_0":"MDV","ISO_A2":"MV","ISO_A3":"MDV","NAME_EN":"Maldives","NAME_IT":"Maldive"}}
]}