{"type":"FeatureCollection", "features": [
{"type":"Feature","geometry":{"type":"MultiPolygon","coordinates":[[[[37.0998,24.9721],[37.0716,24.9864],[37.066,24.9652],[37.1047,24.9484],[37.0998,24.9721]]],[[[36.8557,25.4213],[36.8522,25.4092],[36.8811,25.392],[36.8811,25.4119],[36.8557,25.4213]]],[[[36.982,25.4746],[36.9766,25.4583],[36.9822,25.4344],[37.006,25.4448],[36.982,25.4746]]],[[[36.8564,25.5654],[36.8403,25.5706],[36.8274,25.5457],[36.8401,25.5343],[36.8564,25.5654]]],[[[36.5125,25.6551],[36.4989,25.663],[36.4821,25.6443],[36.5076,25.6134],[36.5322,25.6157],[36.5452,25.6258],[36.5138,25.6402],[36.5125,25.6551]]],[[[50.1959,26.1574],[50.2208,26.1904],[50.2189,26.2656],[50.2305,26.319],[50.2173,26.3641],[50.1886,26.3584],[50.1796,26.3121],[50.1651,26.2978],[50.1798,26.286],[50.1969,26.2417],[50.1731,26.2133],[50.12,26.2185],[50.1214,26.1765],[50.1082,26.1504],[50.0744,26.1445],[50.0778,26.1272],[50.0934,26.1228],[50.1139,26.0918],[50.1177,26.058],[50.1383,26.0295],[50.156,26.0393],[50.1505,26.0673],[50.1622,26.0945],[50.167,26.1733],[50.1843,26.1738],[50.1959,26.1574]]],[[[34.692,27.9588],[34.6749,27.9508],[34.6964,27.9306],[34.7053,27.904],[34.7353,27.9155],[34.7368,27.9324],[34.7105,27.9574],[34.692,27.9588]]],[[[34.5209,28.0137],[34.4987,27.9906],[34.5026,27.9451],[34.5268,27.9376],[34.5543,27.9116],[34.6203,27.9193],[34.6191,27.933],[34.5903,27.9462],[34.587,27.9641],[34.5696,27.9704],[34.5496,27.9626],[34.5181,27.9684],[34.5146,27.9835],[34.5515,28.0016],[34.5209,28.0137]]],[[[42.09318911392405,16.810001012658226],[42.0694,16.8122],[42.0478,16.7918],[42.0478,16.7661],[42.0201,16.7372],[42.0007,16.7493],[41.9714,16.7362],[41.9368,16.7502],[41.9089,16.7481],[41.8915,16.7562],[41.8664,16.79],[41.867,16.8182],[41.8529,16.8386],[41.825,16.8621],[41.7917,16.8701],[41.7769,16.8881],[41.7581,16.894],[41.7608,16.866],[41.7735,16.8634],[41.7885,16.8402],[41.7726,16.8074],[41.8092,16.8091],[41.8287,16.7909],[41.8393,16.7548],[41.8887,16.7161],[41.9082,16.7153],[41.9333,16.6857],[41.9763,16.6674],[41.9859,16.6839],[42.0206,16.6861],[42.0586,16.6953],[42.1089,16.6817],[42.1157,16.6615],[42.1052,16.6431],[42.0738,16.6305],[42.1201,16.6231],[42.1406,16.6099],[42.1606,16.5839],[42.187,16.5864],[42.1939,16.606],[42.1808,16.6202],[42.1741,16.6662],[42.1908,16.6961],[42.1805,16.7224],[42.1603,16.7174],[42.138,16.7455],[42.1241,16.745],[42.0959,16.7894],[42.09318911392405,16.810001012658226]]],[[[36.80509800995025,25.716173134328358],[36.8039,25.7577],[36.8212,25.7509],[36.8277,25.7327],[36.8452,25.7228],[36.8807,25.6764],[36.897,25.6619],[36.9247,25.6577],[36.9388,25.6463],[36.9466,25.622],[36.9672,25.6045],[36.9747,25.5532],[37.0004,25.5463],[36.9997,25.4996],[37.033,25.4824],[37.0391,25.4689],[37.0642,25.4566],[37.0769,25.4421],[37.0749,25.4009],[37.091,25.3811],[37.0888,25.3528],[37.1087,25.3366],[37.1109,25.3134],[37.1316,25.2962],[37.178,25.2367],[37.1891,25.2352],[37.2073,25.2091],[37.2391,25.1902],[37.2642,25.1308],[37.2632,25.0893],[37.2439,25.0717],[37.254,25.0358],[37.286,24.9906],[37.2833,24.9597],[37.2576,24.9316],[37.2492,24.8955],[37.265,24.874],[37.255,24.8549],[37.2224,24.8244],[37.1992,24.8105],[37.1964,24.8328],[37.1643,24.8391],[37.1552,24.8238],[37.1834,24.7964],[37.2132,24.8037],[37.2302,24.7931],[37.2328,24.7669],[37.2097,24.7579],[37.2277,24.7236],[37.2278,24.7025],[37.2621,24.6916],[37.3004,24.6655],[37.3179,24.6356],[37.3413,24.625],[37.3546,24.585],[37.3726,24.5482],[37.4148,24.5111],[37.4355,24.4673],[37.4609,24.4377],[37.4615,24.4138],[37.4245,24.3905],[37.4269,24.3694],[37.4694,24.3413],[37.4951,24.3047],[37.5018,24.286],[37.5222,24.2699],[37.5519,24.2734],[37.5738,24.2483],[37.6232,24.2464],[37.6305,24.2751],[37.6461,24.2863],[37.6978,24.2945],[37.697,24.278],[37.7197,24.2581],[37.7488,24.2615],[37.7634,24.2479],[37.7825,24.2077],[37.8124,24.1922],[37.8475,24.1572],[37.8683,24.1511],[37.8938,24.1551],[37.9289,24.1463],[37.934,24.1589],[37.9139,24.195],[37.9548,24.2025],[37.9315,24.1718],[37.9395,24.1597],[37.9338,24.145],[37.9859,24.1128],[38.0184,24.083],[38.0655,24.0588],[38.0777,24.0674],[38.1069,24.0536],[38.1192,24.0359],[38.2161,23.9528],[38.2483,23.9384],[38.2551,23.9507],[38.294,23.9314],[38.3159,23.8967],[38.3556,23.8787],[38.3759,23.8608],[38.4043,23.8155],[38.4325,23.8118],[38.4593,23.7821],[38.4649,23.7674],[38.4631,23.7361],[38.483,23.6806],[38.5061,23.6568],[38.5047,23.6403],[38.5279,23.6285],[38.5462,23.5812],[38.5735,23.5584],[38.605,23.5712],[38.5989,23.5433],[38.6376,23.5073],[38.642,23.462],[38.6545,23.4221],[38.6747,23.3825],[38.6672,23.3581],[38.6913,23.3326],[38.6841,23.2981],[38.7084,23.268],[38.7157,23.2426],[38.7417,23.2012],[38.769,23.1825],[38.7829,23.1953],[38.7929,23.1657],[38.797,23.1341],[38.8092,23.1142],[38.8085,23.0615],[38.7882,23.0375],[38.8144,22.9886],[38.8673,22.9719],[38.8965,22.969],[38.919,22.9575],[38.9198,22.9406],[38.9365,22.9019],[38.9725,22.8631],[38.9574,22.8458],[38.9306,22.8538],[38.8935,22.9084],[38.8878,22.9228],[38.8623,22.9401],[38.8494,22.9381],[38.8829,22.8939],[38.8875,22.878],[38.9185,22.8329],[38.9422,22.8122],[38.9537,22.7878],[38.9791,22.7542],[39.0123,22.7508],[38.9878,22.7295],[39.0179,22.6944],[39.0319,22.643],[39.0785,22.5804],[39.0865,22.5538],[39.0773,22.4977],[39.0894,22.4624],[39.0756,22.4031],[39.0854,22.3866],[39.1232,22.3787],[39.1264,22.4135],[39.1433,22.4059],[39.1353,22.37],[39.1167,22.3521],[39.0994,22.3232],[39.0988,22.3093],[39.0818,22.2531],[39.0403,22.2031],[39.0445,22.1831],[39.0386,22.1597],[39.062,22.1455],[39.0505,22.1089],[39.0471,22.0587],[39.0187,22.0661],[39.0105,22.0345],[39.017,22.0005],[39.004,21.9851],[38.9767,21.9975],[38.98,22.0209],[38.9336,22.0178],[38.935,21.9977],[38.9473,21.9745],[38.9651,21.9668],[38.9704,21.9506],[38.9473,21.9429],[38.9475,21.9202],[38.9739,21.8743],[38.982,21.8524],[39.0016,21.8413],[39.0132,21.8176],[39.0356,21.8044],[39.0538,21.7747],[39.0512,21.7644],[39.0846,21.7109],[39.1069,21.6152],[39.1112,21.5447],[39.1215,21.5292],[39.143,21.5336],[39.1629,21.4998],[39.1687,21.445],[39.1881,21.4129],[39.1691,21.3635],[39.1447,21.3478],[39.1115,21.349],[39.1031,21.3107],[39.1441,21.2332],[39.1617,21.2205],[39.1744,21.1891],[39.1683,21.1753],[39.1745,21.1414],[39.1964,21.0958],[39.2147,21.0925],[39.2391,21.0752],[39.2506,21.0458],[39.2668,21.0347],[39.2768,21.0126],[39.2715,20.9796],[39.2853,20.9561],[39.3225,20.9177],[39.3477,20.9233],[39.3714,20.902],[39.3591,20.8816],[39.3772,20.8627],[39.4086,20.8413],[39.4273,20.8209],[39.4513,20.8124],[39.4316,20.79],[39.458,20.7647],[39.4829,20.7734],[39.504,20.7478],[39.4865,20.7265],[39.4988,20.7015],[39.533,20.6578],[39.5339,20.6418],[39.5583,20.6234],[39.5813,20.5846],[39.5837,20.565],[39.6,20.542],[39.6401,20.5119],[39.6655,20.4542],[39.6867,20.4329],[39.7091,20.4198],[39.7305,20.3916],[39.7964,20.3458],[39.8171,20.3395],[39.8698,20.2952],[39.9169,20.2715],[39.9447,20.2629],[39.9179,20.2988],[39.9384,20.3021],[39.9745,20.281],[39.9866,20.2653],[40.0025,20.2627],[40.0103,20.2822],[40.0458,20.2788],[40.0655,20.2882],[40.1169,20.2683],[40.1262,20.2325],[40.1444,20.2249],[40.169,20.1907],[40.1963,20.1958],[40.2361,20.1918],[40.2342,20.155],[40.2621,20.1372],[40.2831,20.1037],[40.3117,20.0983],[40.3469,20.0787],[40.4105,20.0529],[40.4304,20.0285],[40.4989,19.9861],[40.5228,19.9782],[40.5474,19.9535],[40.5493,19.937],[40.5363,19.9034],[40.5734,19.8889],[40.5856,19.8667],[40.587,19.8288],[40.6245,19.812],[40.6319,19.7797],[40.659,19.7944],[40.6766,19.7833],[40.7371,19.7983],[40.7626,19.7705],[40.7886,19.7342],[40.8086,19.6717],[40.8065,19.6169],[40.788,19.6088],[40.7997,19.5855],[40.8287,19.5744],[40.8607,19.5479],[40.9222,19.535],[40.9468,19.5021],[40.9639,19.4942],[40.9617,19.4659],[40.9477,19.4223],[40.9492,19.3904],[40.9819,19.3324],[41.0119,19.3194],[41.0168,19.2913],[41.0317,19.2829],[41.0472,19.2575],[41.0514,19.2374],[41.0423,19.2246],[41.0458,19.1778],[41.0715,19.1346],[41.07,19.1268],[41.0983,19.1035],[41.124,19.1022],[41.158,19.0923],[41.1667,19.0404],[41.1318,18.9654],[41.1495,18.9338],[41.1605,18.8827],[41.1896,18.8599],[41.2434,18.8467],[41.2366,18.8048],[41.2174,18.7597],[41.2207,18.7512],[41.2061,18.7215],[41.2086,18.7073],[41.2387,18.6743],[41.2572,18.6115],[41.2785,18.593],[41.3022,18.5831],[41.3551,18.5822],[41.3833,18.5381],[41.4185,18.5145],[41.4341,18.4633],[41.4549,18.4111],[41.4424,18.3935],[41.459,18.3366],[41.4792,18.3163],[41.4758,18.2896],[41.5084,18.2845],[41.4994,18.2511],[41.5155,18.2538],[41.5346,18.2236],[41.5307,18.2127],[41.5716,18.165],[41.5811,18.1301],[41.5817,18.1018],[41.6139,18.0637],[41.6318,18.0489],[41.6623,18.0024],[41.6816,17.9486],[41.6965,17.9402],[41.7168,17.9127],[41.7788,17.8606],[41.7792,17.8357],[41.7967,17.84],[41.8354,17.8104],[41.8784,17.8018],[41.8979,17.7762],[41.9261,17.7636],[41.9669,17.7219],[42.0015,17.6995],[42.0434,17.6837],[42.0564,17.658],[42.0804,17.6544],[42.1377,17.5999],[42.1361,17.5726],[42.1802,17.5593],[42.2077,17.5296],[42.2294,17.518],[42.2602,17.4727],[42.2805,17.4534],[42.3082,17.4461],[42.3238,17.42],[42.3249,17.3959],[42.3142,17.3648],[42.3112,17.3362],[42.3271,17.3367],[42.3304,17.3143],[42.326,17.2859],[42.3369,17.2813],[42.3342,17.2426],[42.3379,17.2084],[42.361,17.1474],[42.3646,17.1282],[42.3687,17.0314],[42.3791,17.0416],[42.3782,17.0761],[42.3692,17.1017],[42.3862,17.1264],[42.3664,17.1829],[42.4174,17.1587],[42.4151,17.1051],[42.4472,17.0734],[42.4579,17.0516],[42.5261,17.0325],[42.5559,17.0026],[42.5411,16.987],[42.5382,16.9511],[42.5471,16.9271],[42.5339,16.8844],[42.5606,16.872],[42.5748,16.8556],[42.5725,16.8424],[42.597,16.8375],[42.6089,16.8236],[42.6325,16.8227],[42.6692,16.7901],[42.6903,16.7324],[42.7044,16.7198],[42.7072,16.6942],[42.7177,16.6746],[42.7351,16.6763],[42.7233,16.6107],[42.7132,16.5833],[42.7263,16.5507],[42.7373,16.5019],[42.7556,16.4964],[42.7733,16.475],[42.7768,16.4526],[42.7607,16.4277],[42.7681,16.4053],[42.8037,16.4013],[42.8306,16.3795],[42.9498,16.3995],[42.9373,16.4414],[42.9448,16.4898],[42.9922,16.5217],[43.1207,16.5286],[43.1295,16.5926],[43.1398,16.5966],[43.1463,16.6364],[43.1286,16.6715],[43.1574,16.6656],[43.2062,16.6476],[43.2347,16.6428],[43.2364,16.667],[43.2276,16.7019],[43.2117,16.7097],[43.2305,16.7305],[43.2556,16.7374],[43.2588,16.7553],[43.2518,16.7793],[43.2666,16.7949],[43.2326,16.8069],[43.2213,16.8382],[43.2023,16.8497],[43.18,16.8491],[43.176,16.8669],[43.1516,16.8801],[43.1381,16.9176],[43.1947,16.9445],[43.1781,16.9633],[43.1795,17.0302],[43.2027,17.0101],[43.2309,17.0295],[43.2397,17.0474],[43.2272,17.0754],[43.2081,17.0783],[43.1853,17.0986],[43.1602,17.087],[43.158,17.1141],[43.1779,17.1307],[43.1708,17.1727],[43.2163,17.2104],[43.1999,17.2427],[43.2017,17.2588],[43.2559,17.2785],[43.2672,17.2922],[43.3024,17.2932],[43.3365,17.304],[43.326,17.3284],[43.2768,17.3582],[43.2588,17.3623],[43.228,17.3855],[43.2471,17.4015],[43.2255,17.4262],[43.2565,17.4578],[43.2408,17.4805],[43.2604,17.4899],[43.2854,17.5173],[43.3359,17.5398],[43.3547,17.5564],[43.3992,17.5566],[43.4196,17.5658],[43.4454,17.55],[43.4846,17.5451],[43.4957,17.5269],[43.5272,17.5142],[43.5665,17.4834],[43.6178,17.4261],[43.6833,17.3667],[43.7889,17.375],[43.8319,17.3389],[43.9056,17.3417],[43.9667,17.3306],[44.0114,17.4025],[44.0233,17.3913],[44.0496,17.4049],[44.0667,17.4058],[44.1006,17.3661],[44.1308,17.3836],[44.1381,17.4089],[44.3661,17.4333],[44.4667,17.4333],[44.5667,17.4056],[44.65,17.4333],[45.2167,17.4333],[45.4,17.3333],[46.1,17.25],[46.3667,17.2333],[46.75,17.2833],[47,16.95],[47.1833,16.95],[47.4667,17.1167],[47.6,17.45],[48.1833,18.1667],[49.1167,18.6167],[50.7833,18.7889],[52,19],[55,20],[55.1494,20.4531],[55.221,20.6644],[55.3354,21.007],[55.3468,21.0475],[55.4059,21.2246],[55.4793,21.4382],[55.5502,21.6546],[55.6667,22],[55.5667,22.1553],[55.5273,22.2131],[55.4816,22.2872],[55.2092,22.7088],[55.1373,22.6316],[54.5376,22.7076],[53.8074,22.7968],[53.3313,22.8533],[52.581,22.9392],[51.9202,23.7377],[51.7581,23.9306],[51.5904,24.127],[51.589,24.2546],[51.562,24.2479],[51.5338,24.2513],[51.5114,24.2836],[51.486,24.3073],[51.4385,24.3227],[51.404,24.3241],[51.3813,24.3162],[51.355,24.2887],[51.3152,24.2941],[51.2929,24.2843],[51.2767,24.2944],[51.2856,24.3257],[51.2801,24.3414],[51.3055,24.3598],[51.3202,24.4246],[51.3622,24.4647],[51.3754,24.4644],[51.4107,24.4959],[51.4158,24.5249],[51.4426,24.5422],[51.4538,24.5574],[51.4977,24.5678],[51.4768,24.5903],[51.4588,24.5898],[51.443,24.6207],[51.4121,24.6144],[51.4139,24.5971],[51.3653,24.5214],[51.3138,24.4854],[51.0985,24.4708],[51.0246,24.4924],[50.9945,24.504],[50.9284,24.5468],[50.8734,24.646],[50.8117,24.7445],[50.7901,24.7432],[50.7723,24.7182],[50.7457,24.7907],[50.7488,24.8112],[50.729,24.8418],[50.728,24.8712],[50.7018,24.8909],[50.6827,24.8941],[50.6727,24.91],[50.6735,24.9442],[50.6505,24.9811],[50.6313,24.9992],[50.6093,25.0393],[50.5811,25.0699],[50.5596,25.0829],[50.5565,25.1096],[50.5454,25.1352],[50.5582,25.1483],[50.5591,25.1818],[50.5311,25.2159],[50.5201,25.2476],[50.5328,25.2723],[50.532,25.2993],[50.5095,25.3445],[50.504,25.3709],[50.4935,25.3814],[50.4933,25.4027],[50.4487,25.4423],[50.4276,25.4454],[50.388,25.4818],[50.3954,25.4972],[50.3617,25.5025],[50.3813,25.4759],[50.3797,25.457],[50.3469,25.4746],[50.3328,25.501],[50.3117,25.5149],[50.3094,25.5436],[50.2726,25.556],[50.2555,25.5902],[50.2311,25.6037],[50.2109,25.6386],[50.2198,25.6509],[50.1963,25.6628],[50.1559,25.6942],[50.1428,25.7195],[50.1641,25.7307],[50.1769,25.7072],[50.1954,25.7007],[50.2156,25.6792],[50.235,25.6837],[50.2498,25.6525],[50.2629,25.6722],[50.2375,25.6898],[50.2273,25.7252],[50.213,25.7461],[50.1924,25.7524],[50.1393,25.8261],[50.1292,25.8526],[50.1109,25.8794],[50.1058,25.9173],[50.1253,25.9309],[50.1147,25.9464],[50.1194,25.9646],[50.1028,25.9869],[50.0673,25.9882],[50.0641,26.0028],[50.0376,26.0061],[50.0177,25.9849],[50.0016,25.9874],[50.0004,26.085],[49.9832,26.1093],[49.9633,26.1616],[49.9127,26.1464],[49.9229,26.1644],[49.9536,26.1979],[49.8436,26.2171],[49.7611,26.3228],[49.6655,26.4124],[49.6424,26.4275],[49.59,26.4503],[49.6959,26.6053],[49.7496,26.674],[49.8174,26.6183],[49.8354,26.5818],[49.8706,26.5602],[49.8883,26.5406],[49.9165,26.5237],[49.8955,26.4932],[49.9293,26.5051],[49.9689,26.4852],[50.0007,26.4636],[50.0098,26.4487],[50.0572,26.4559],[50.0714,26.4645],[50.0612,26.4901],[50.0438,26.5036],[50.0393,26.5442],[50.0732,26.5409],[50.0869,26.5609],[50.0879,26.5818],[50.0738,26.5958],[50.0218,26.5901],[50.0087,26.6563],[49.9878,26.6609],[49.9868,26.7185],[50.0062,26.7423],[50.023,26.716],[50.021,26.7012],[50.0392,26.6719],[50.0657,26.6899],[50.1013,26.6852],[50.1048,26.7073],[50.0745,26.7242],[50.0577,26.7484],[50.0099,26.8002],[49.9975,26.8208],[49.9613,26.8409],[49.9544,26.8528],[49.8693,26.8604],[49.8464,26.8769],[49.7822,26.8985],[49.7001,26.9549],[49.6677,26.9851],[49.6766,27.023],[49.6463,27.0234],[49.6284,27.0629],[49.617,27.0614],[49.5837,27.0921],[49.5675,27.1418],[49.5854,27.1682],[49.5759,27.1817],[49.5549,27.1635],[49.5272,27.1886],[49.549,27.1961],[49.54,27.2364],[49.509,27.2466],[49.4886,27.2899],[49.4997,27.3222],[49.5329,27.3352],[49.5564,27.326],[49.575,27.2914],[49.5904,27.3024],[49.632,27.3148],[49.6451,27.3002],[49.6748,27.2969],[49.6825,27.3083],[49.5808,27.329],[49.5482,27.3543],[49.5283,27.3556],[49.4864,27.3446],[49.4676,27.3169],[49.4543,27.282],[49.4765,27.2815],[49.4839,27.2654],[49.472,27.2379],[49.5001,27.2281],[49.5179,27.2041],[49.5336,27.1957],[49.4955,27.1623],[49.5029,27.1365],[49.4737,27.1307],[49.4538,27.1191],[49.433,27.1447],[49.4188,27.1222],[49.3813,27.1129],[49.363,27.127],[49.3666,27.1497],[49.401,27.1625],[49.4076,27.1748],[49.3865,27.1955],[49.3618,27.1888],[49.3663,27.1676],[49.3441,27.1595],[49.3186,27.1812],[49.3195,27.2436],[49.3255,27.2627],[49.3137,27.2787],[49.3172,27.3032],[49.3088,27.3348],[49.2856,27.3417],[49.2598,27.3319],[49.2405,27.3135],[49.2225,27.3081],[49.2174,27.3285],[49.2405,27.3444],[49.2715,27.3885],[49.2324,27.4058],[49.2352,27.3854],[49.2125,27.374],[49.1876,27.3855],[49.1604,27.41],[49.1293,27.401],[49.1253,27.4158],[49.145,27.4347],[49.1817,27.4476],[49.2217,27.4472],[49.2464,27.4327],[49.2584,27.4465],[49.2841,27.4395],[49.3009,27.4769],[49.2765,27.4863],[49.2553,27.5249],[49.2234,27.5338],[49.2208,27.5705],[49.1989,27.5487],[49.1272,27.5378],[49.0964,27.5428],[49.0768,27.5584],[49.0523,27.5588],[49.0278,27.5725],[48.9956,27.608],[48.968,27.6226],[48.9374,27.6061],[48.9211,27.5717],[48.8945,27.5692],[48.9049,27.6142],[48.8671,27.596],[48.8483,27.6035],[48.8489,27.6277],[48.8586,27.6608],[48.8533,27.696],[48.834,27.6867],[48.8156,27.6986],[48.826,27.7193],[48.8106,27.7263],[48.7837,27.7115],[48.809,27.7725],[48.8059,27.8038],[48.8278,27.8312],[48.8299,27.79],[48.81212121212122,27.776856969696976],[48.8294,27.7745],[48.84,27.8123],[48.8508,27.8166],[48.8701,27.7917],[48.8564,27.7704],[48.8748,27.7458],[48.8902,27.7665],[48.8736,27.7803],[48.888,27.8195],[48.8838,27.8339],[48.8234,27.8698],[48.8232,27.9014],[48.7942,27.904],[48.7425,27.9686],[48.76813380094328,27.97573328092877],[48.793,27.9916],[48.7902,28.0012],[48.6946,28.0158],[48.6653,28.0314],[48.6642,28.0456],[48.6225,28.0853],[48.6085,28.1232],[48.6101,28.163],[48.6269,28.2066],[48.5743,28.2578],[48.5409,28.2814],[48.5185,28.3215],[48.5132,28.3431],[48.5306,28.389],[48.4749,28.3765],[48.4762,28.3955],[48.5063,28.3899],[48.5247,28.4152],[48.5001,28.4387],[48.501,28.4943],[48.4678,28.5053],[48.4304,28.5343],[47.7045,28.5244],[47.709,28.5431],[47.654,28.5957],[47.6361,28.629],[47.6054,28.6549],[47.5935,28.6909],[47.5909,28.7274],[47.5979,28.7567],[47.5847,28.8356],[47.5547,28.8718],[47.5395,28.8997],[47.5095,28.9344],[47.496,28.9667],[47.4652,28.9999],[47.2675,29.0218],[47.2038,29.0273],[47.1564,29.035],[46.933,29.06],[46.8411,29.0682],[46.7827,29.0761],[46.5631,29.1],[46.5229,29.0914],[46.4779,29.0712],[46.4245,29.0586],[46.2203,29.0777],[45.9867,29.0984],[45.8195,29.1081],[45.6926,29.1223],[45.5185,29.1348],[45.3743,29.142],[45.1228,29.1637],[44.9783,29.1747],[44.9056,29.1823],[44.7269,29.1917],[44.6776,29.225],[44.5342,29.3344],[44.5134,29.3545],[44.0406,29.7052],[43.5685,30.0513],[43.2068,30.3137],[42.8369,30.5795],[42.5121,30.8109],[42.0856,31.1117],[41.4407,31.3732],[40.9149,31.6694],[40.4133,31.9481],[39.797,32.0545],[39.2009,32.1543],[39.1792,32.1354],[39.0063,32.0006],[38.667,31.9193],[38.0398,31.7635],[37.984,31.7445],[37.9596,31.7436],[37.6787,31.6721],[37.64,31.6635],[37.4033,31.6017],[37.3818,31.5946],[37.1805,31.5458],[37.0062,31.5006],[37.1922,31.3171],[37.2399,31.2784],[37.2671,31.2449],[37.33,31.1782],[37.3911,31.1217],[37.4592,31.05],[37.518,30.9931],[37.5463,30.9611],[37.5742,30.9371],[37.6336,30.8781],[37.9328,30.5763],[37.9615,30.5377],[37.9971,30.5007],[37.6656,30.3326],[37.6364,30.2767],[37.5208,30.0425],[37.5055,30.0008],[37.2071,29.9479],[37.1265,29.9314],[37.1007,29.929],[36.865,29.8856],[36.7849,29.8679],[36.7599,29.8205],[36.7361,29.789],[36.6809,29.7494],[36.6441,29.6944],[36.6245,29.6369],[36.616,29.6318],[36.5504,29.5636],[36.5473,29.5462],[36.5273,29.5143],[36.4923,29.4853],[36.4601,29.4525],[36.4493,29.4304],[36.4093,29.4057],[36.3709,29.3976],[36.3313,29.3731],[36.3103,29.352],[36.2126,29.2862],[36.1518,29.232],[36.0982,29.2026],[36.0728,29.1834],[35.9696,29.1982],[35.9083,29.21],[35.8199,29.22],[35.7371,29.238],[35.1351,29.3318],[35.0742,29.3441],[35.0469,29.3445],[34.9607,29.3574],[34.9443,29.3234],[34.9515,29.3022],[34.9286,29.2905],[34.9418,29.2419],[34.9096,29.2205],[34.8939,29.1779],[34.8924,29.1494],[34.8813,29.1423],[34.8714,29.0838],[34.8727,29.0706],[34.8547,29.0491],[34.8477,29.0254],[34.8612,28.9947],[34.8448,28.9718],[34.8434,28.9369],[34.8215,28.8839],[34.8389,28.8729],[34.8286,28.8316],[34.8319,28.8113],[34.815,28.7766],[34.8057,28.7243],[34.7802,28.6794],[34.7812,28.6574],[34.7975,28.6131],[34.7922,28.5775],[34.801,28.5596],[34.8055,28.5232],[34.7928,28.4965],[34.7744,28.4821],[34.7554,28.4414],[34.7549,28.4242],[34.7393,28.406],[34.7362,28.3885],[34.696,28.2932],[34.6761,28.2674],[34.6641,28.201],[34.6327,28.1749],[34.6048,28.1386],[34.5909,28.1319],[34.5711,28.0955],[34.606,28.0886],[34.6041,28.0619],[34.6243,28.024],[34.6383,28.0297],[34.648,28.0618],[34.6603,28.0694],[34.6493,28.0929],[34.6783,28.1191],[34.7141,28.1271],[34.7429,28.0834],[34.74,28.0607],[34.7592,28.0611],[34.7616,28.0931],[34.7837,28.0964],[34.8134,28.1114],[34.8303,28.1075],[34.8489,28.0706],[34.8851,28.0814],[34.9275,28.0758],[34.9561,28.0953],[35.0235,28.1117],[35.0626,28.1084],[35.1056,28.0795],[35.1077,28.0685],[35.1463,28.07],[35.1674,28.055],[35.1999,28.0552],[35.2218,28.0467],[35.2243,28.0302],[35.1994,28.0282],[35.1673,28.0128],[35.1643,28.0014],[35.2093,27.9845],[35.2345,27.9632],[35.2675,27.95],[35.2816,27.9162],[35.3055,27.8973],[35.3325,27.8608],[35.349,27.8518],[35.3523,27.8157],[35.3604,27.7966],[35.4084,27.7844],[35.4294,27.7738],[35.4405,27.745],[35.4606,27.7245],[35.4736,27.694],[35.4727,27.6772],[35.486,27.6506],[35.5132,27.6252],[35.5261,27.6031],[35.528,27.5603],[35.5428,27.5141],[35.5859,27.4685],[35.5921,27.434],[35.6615,27.3604],[35.7455,27.3152],[35.755,27.288],[35.8073,27.2252],[35.8174,27.197],[35.7896,27.1705],[35.7882,27.1407],[35.8,27.1134],[35.848,27.0736],[35.8671,27.0467],[35.8802,27.0393],[35.9158,26.9961],[35.9499,26.9831],[35.9831,26.9449],[36.0016,26.9399],[36.0191,26.9104],[36.045,26.8899],[36.045,26.8562],[36.0623,26.8296],[36.0665,26.8042],[36.0915,26.7746],[36.0919,26.7525],[36.1079,26.731],[36.1322,26.7268],[36.1541,26.7102],[36.1739,26.6695],[36.2031,26.6578],[36.2232,26.6371],[36.2475,26.588],[36.2833,26.547],[36.3121,26.4938],[36.3204,26.468],[36.3413,26.4366],[36.3444,26.4054],[36.3734,26.3504],[36.3991,26.3144],[36.4103,26.2874],[36.4337,26.2633],[36.4645,26.214],[36.4828,26.1747],[36.4843,26.1425],[36.4961,26.1165],[36.5208,26.0956],[36.5739,26.0622],[36.6073,26.058],[36.6223,26.0623],[36.6786,26.0499],[36.7058,26.0308],[36.7115,25.9799],[36.6945,25.9218],[36.6756,25.8873],[36.6458,25.8567],[36.6722,25.8437],[36.6974,25.7993],[36.7177,25.7882],[36.7207,25.7672],[36.7514,25.7362],[36.7755,25.7353],[36.785,25.719],[36.80509800995025,25.716173134328358]]],[[[42.0592,16.5604],[42.0446,16.5647],[42.0359,16.5461],[42.0442,16.5262],[42.0616,16.5277],[42.0734,16.5544],[42.0592,16.5604]]],[[[41.7659,16.7329],[41.724,16.7307],[41.7374,16.7105],[41.7603,16.6971],[41.8055,16.6931],[41.8123,16.7007],[41.7935,16.7278],[41.7659,16.7329]]],[[[42.0416,16.6471],[42.0107,16.6517],[42.0017,16.6263],[42.02,16.6191],[42.0347,16.6267],[42.0416,16.6471]]],[[[41.5738,16.8938],[41.5681,16.8577],[41.5828,16.8304],[41.6104,16.8129],[41.602,16.85],[41.5793,16.8785],[41.5738,16.8938]]],[[[41.9342,16.9509],[41.9168,16.952],[41.8936,16.9234],[41.8732,16.9152],[41.8435,16.9154],[41.837,16.8986],[41.8441,16.8814],[41.8818,16.8357],[41.8873,16.8188],[41.9108,16.8006],[41.9399,16.7883],[41.9849,16.7829],[41.9984,16.7515],[42.0111,16.7617],[41.9729,16.8124],[41.9407,16.8205],[41.924,16.8474],[41.9484,16.8564],[41.985,16.8563],[41.9762,16.8747],[41.9528,16.8808],[41.9331,16.9113],[41.9471,16.9327],[41.9342,16.9509]]],[[[41.4872,16.8695],[41.4816,16.8518],[41.5173,16.8456],[41.5288,16.8563],[41.5115,16.875],[41.4872,16.8695]]],[[[41.6958,16.9561],[41.677,16.9596],[41.6571,16.9369],[41.6521,16.9177],[41.6772,16.8927],[41.7075,16.899],[41.7059,16.9096],[41.7251,16.9279],[41.6958,16.9561]]],[[[41.072,18.5946],[41.0461,18.5977],[41.0528,18.5711],[41.0751,18.5683],[41.072,18.5946]]],[[[40.006,20.2525],[40.0329,20.2329],[40.0705,20.2333],[40.1406,20.1908],[40.1508,20.196],[40.0896,20.2306],[40.0242,20.2442],[40.006,20.2525]]]]},"properties":{"GID_0":"SAU","ISO_A2":"SA","ISO_A3":"SAU","NAME_EN":"Saudi Arabia","NAME_IT":"Arabia Saudita"}}
]}