{"type":"FeatureCollection", "features": [
{"type":"Feature","geometry":{"type":"Polygon","coordinates":[[[-3.6382,31.1508],[-3.5359,31.0113],[-3.5562,30.9336],[-3.6462,30.8521],[-3.647,30.6975],[-3.843,30.6274],[-3.9948,30.5924],[-4.1455,30.5848],[-4.3202,30.5284],[-4.6064,30.2821],[-4.9355,30.14],[-5.285,29.8971],[-5.3336,29.7679],[-5.536,29.5164],[-5.6497,29.504],[-5.7221,29.5857],[-5.7987,29.6142],[-6.0687,29.5616],[-6.4395,29.5652],[-6.5211,29.524],[-6.6796,29.5175],[-6.7761,29.4616],[-6.9142,29.4969],[-7.0215,29.4931],[-7.1487,29.5222],[-7.2387,29.4849],[-7.3343,29.4013],[-7.4939,29.3643],[-7.5916,29.3769],[-7.65,29.2983],[-7.7853,29.2554],[-7.9591,29.1298],[-8.321,28.9157],[-8.4612,28.796],[-8.6677,28.7135],[-8.6665,27.7027],[-8.6739,27.2981],[-7.8948,26.8538],[-7,26.3414],[-6.3421,25.9393],[-5.4085,25.3664],[-4.4166,24.7319],[-3.961,24.4451],[-3.5057,24.1659],[-2.8254,23.733],[-2.4035,23.4678],[-1.6839,23.006],[-0.781,22.4118],[-0.013,21.9113],[0.0047,21.8345],[0.7779,21.3575],[1.1667,21.1189],[1.1849,20.9032],[1.1586,20.793],[1.177,20.7335],[1.3059,20.7442],[1.3718,20.6657],[1.4552,20.6508],[1.6341,20.579],[1.671,20.4105],[1.8032,20.2969],[1.9055,20.2502],[2.0439,20.2568],[2.0954,20.2121],[2.1731,20.288],[2.266,20.2564],[2.3384,20.1838],[2.3992,20.0719],[2.5783,20.0049],[2.7034,20.0047],[2.964,19.9506],[3.1673,19.8381],[3.2299,19.8252],[3.2127,19.5915],[3.2721,19.4096],[3.198,19.2807],[3.1081,19.1781],[3.1212,19.1195],[3.3352,18.9602],[4.2196,19.1321],[4.667,19.2222],[5.8171,19.4377],[6.4524,20.0029],[6.8381,20.3346],[7.1607,20.6194],[7.4457,20.8425],[8.3341,21.3813],[9.1868,21.8971],[10.1396,22.4586],[10.9721,22.9486],[11.9874,23.5321],[11.6034,24.2638],[11.423,24.1996],[11.1376,24.391],[11.0403,24.4333],[10.9538,24.529],[10.8478,24.568],[10.7675,24.5096],[10.7066,24.5721],[10.6153,24.5727],[10.5443,24.533],[10.3574,24.5369],[10.2169,24.6497],[10.0947,24.8879],[10.0376,24.9624],[10.0327,25.3587],[9.5382,26.0019],[9.3996,26.1948],[9.4567,26.253],[9.513,26.3843],[9.8639,26.5191],[9.9139,26.6461],[9.9245,26.861],[9.8629,26.9416],[9.7826,27.2652],[9.8141,27.4621],[9.8625,27.5033],[9.943,27.7317],[9.9622,27.8866],[9.8335,28.2853],[9.9028,28.7598],[9.8723,29.027],[9.7806,29.4241],[9.5393,29.9006],[9.4155,30.0421],[9.3917,30.1667],[9.559,30.23],[9.3635,30.9955],[9.1272,31.9035],[9.066,32.0869],[8.801,32.2357],[8.3575,32.5021],[8.3233,32.823],[8.2479,32.924],[8.1159,33.0508],[8.1132,33.1021],[7.9048,33.1845],[7.8322,33.1903],[7.7534,33.4303],[7.6333,33.5863],[7.5955,33.7582],[7.5317,33.8041],[7.5808,34.0857],[7.6612,34.1966],[7.7381,34.1671],[7.8159,34.2129],[7.8568,34.4062],[8.0118,34.4581],[8.2743,34.6434],[8.3019,34.7333],[8.2497,34.9201],[8.3177,34.9505],[8.3592,35.0994],[8.4564,35.2207],[8.314,35.3143],[8.3622,35.5254],[8.3542,35.6749],[8.2615,35.7634],[8.2583,35.9088],[8.3436,36.102],[8.3091,36.1737],[8.3812,36.2964],[8.4055,36.4224],[8.1694,36.4628],[8.449,36.6205],[8.4869,36.7798],[8.576,36.774],[8.6338,36.8569],[8.6414,36.9414],[8.4256,36.8958],[8.2835,36.9151],[8.2264,36.9517],[7.9914,36.8588],[7.8471,36.8428],[7.7722,36.866],[7.7244,36.9561],[7.623,36.9628],[7.5159,37.0405],[7.2098,37.0887],[7.2542,36.9959],[7.1653,36.9166],[6.9317,36.8816],[6.8144,36.9484],[6.6732,36.949],[6.5647,36.99],[6.4875,37.0864],[6.3369,37.0681],[6.2647,37.0263],[6.2128,36.909],[5.989,36.8379],[5.7968,36.8064],[5.707,36.8206],[5.572,36.7647],[5.5493,36.7106],[5.428,36.6536],[5.2913,36.6372],[5.0856,36.7092],[5.0928,36.7755],[4.7583,36.8952],[4.5146,36.884],[4.4213,36.9088],[4.2122,36.893],[3.9518,36.8978],[3.8929,36.9233],[3.7288,36.8839],[3.6414,36.8239],[3.4986,36.7695],[3.235,36.8046],[3.187,36.7485],[3.0762,36.7535],[3.0138,36.8188],[2.9006,36.8056],[2.8077,36.6986],[2.6032,36.6016],[2.4099,36.6043],[2.3486,36.6439],[1.9989,36.5659],[1.9124,36.5766],[1.4895,36.5278],[1.3409,36.5499],[0.9417,36.4494],[0.8725,36.3743],[0.6616,36.3311],[0.4521,36.2217],[0.3402,36.1917],[0.1344,36.0405],[0.028,35.8618],[-0.1127,35.7879],[-0.2786,35.8191],[-0.3405,35.9087],[-0.473,35.8853],[-0.5017,35.7943],[-0.6243,35.7137],[-0.8252,35.7673],[-0.8516,35.7232],[-1.0225,35.6804],[-1.1933,35.565],[-1.2739,35.3688],[-1.4145,35.3004],[-1.5533,35.2706],[-1.7728,35.1203],[-1.9623,35.0731],[-2.1556,35.101],[-2.2153,35.0473],[-1.8865,34.8098],[-1.7391,34.745],[-1.8207,34.6495],[-1.7323,34.5074],[-1.7802,34.393],[-1.7049,34.3096],[-1.7113,34.237],[-1.6476,34.1067],[-1.699,33.8703],[-1.6528,33.6824],[-1.5985,33.6151],[-1.6703,33.286],[-1.5754,33.1501],[-1.4607,33.0418],[-1.5413,32.9573],[-1.3812,32.7393],[-1.2701,32.6955],[-0.9963,32.517],[-1.1214,32.4143],[-1.1979,32.4041],[-1.2432,32.2047],[-1.1552,32.1144],[-1.2051,32.0848],[-1.5775,32.0917],[-2.0139,32.1818],[-2.1893,32.1427],[-2.4627,32.1594],[-2.599,32.1125],[-2.9152,32.1188],[-2.9395,32.0357],[-2.8522,31.8809],[-2.8316,31.798],[-2.9995,31.7582],[-3.6618,31.6339],[-3.6584,31.3791],[-3.7618,31.3346],[-3.7896,31.2358],[-3.7069,31.1543],[-3.6551,31.0826],[-3.6382,31.1508]]]},"properties":{"GID_0":"DZA","ISO_A2":"DZ","ISO_A3":"DZA","NAME_EN":"Algeria","NAME_IT":"Algeria"}}
]}