{"type":"FeatureCollection", "features": [
{"type":"Feature","geometry":{"type":"MultiPolygon","coordinates":[[[[22.5542,65.7875],[22.5729,65.7958],[22.5995,65.7984],[22.6432,65.7911],[22.6828,65.7714],[22.6589,65.7682],[22.6578,65.7557],[22.6922,65.7589],[22.6974,65.7724],[22.688,65.7828],[22.712,65.788],[22.6964,65.8057],[22.7078,65.8307],[22.6901,65.8422],[22.6911,65.8641],[22.6542,65.8938],[22.6688,65.9042],[22.7245,65.8828],[22.7234,65.8755],[22.7563,65.8625],[22.7891,65.8578],[22.7995,65.8474],[22.8411,65.8203],[22.8276,65.8161],[22.838,65.7963],[22.8922,65.7911],[22.8984,65.7859],[22.9453,65.7766],[22.9583,65.7646],[22.9771,65.7646],[23.0208,65.75],[23.0542,65.7542],[23.0854,65.7354],[23.075,65.7271],[23.0797,65.7047],[23.1063,65.7167],[23.1495,65.7214],[23.1422,65.7349],[23.1828,65.7578],[23.2255,65.7255],[23.2568,65.7214],[23.2521,65.7333],[23.2766,65.7328],[23.2828,65.7412],[23.2271,65.7604],[23.2286,65.7693],[23.1901,65.7922],[23.1911,65.8245],[23.1651,65.8339],[23.1578,65.8432],[23.1026,65.8588],[23.0854,65.8688],[23.0547,65.8734],[23.0667,65.8812],[23.1068,65.8651],[23.1479,65.8521],[23.1714,65.8401],[23.1995,65.8349],[23.2276,65.813],[23.2542,65.8042],[23.287,65.8057],[23.2776,65.7943],[23.3036,65.7901],[23.3286,65.8141],[23.3849,65.7807],[23.4036,65.7724],[23.4328,65.7724],[23.4307,65.7849],[23.4151,65.788],[23.4089,65.8057],[23.4292,65.8208],[23.5104,65.8146],[23.5396,65.8063],[23.5661,65.8047],[23.5568,65.788],[23.5979,65.7854],[23.6005,65.8099],[23.6417,65.7937],[23.6724,65.8109],[23.6672,65.8266],[23.6797,65.8349],[23.737,65.8307],[23.775,65.7937],[23.7547,65.7891],[23.7776,65.7755],[23.8146,65.7688],[23.8438,65.7875],[23.8563,65.8042],[23.888,65.7776],[23.9104,65.7667],[23.9271,65.7771],[23.9297,65.7901],[23.9479,65.8],[23.9938,65.7917],[24.0359,65.8005],[24.0396,65.8208],[24.0771,65.8083],[24.0875,65.8125],[24.1479,65.8146],[24.154,65.823],[24.159,65.8544],[24.1386,65.864],[24.1298,65.8777],[24.1319,65.8912],[24.1107,65.8962],[24.1143,65.9187],[24.0821,65.924],[24.0835,65.933],[24.0424,65.952],[24.0501,66.0014],[24.0082,66.016],[24,66.0342],[23.969,66.0485],[23.9711,66.062],[23.9497,66.067],[23.94,66.0763],[23.9455,66.1122],[23.9345,66.1125],[23.94,66.1484],[23.9296,66.1531],[23.8742,66.1545],[23.8417,66.1598],[23.8001,66.1788],[23.7348,66.1893],[23.7368,66.2028],[23.7048,66.2125],[23.6957,66.2262],[23.6976,66.2397],[23.6767,66.2492],[23.6675,66.2629],[23.6707,66.2854],[23.6596,66.2856],[23.67,66.3575],[23.6811,66.3572],[23.6857,66.3887],[23.666,66.4071],[23.6548,66.4074],[23.6613,66.4523],[23.685,66.4608],[23.7193,66.4645],[23.7213,66.478],[23.7338,66.4867],[23.7695,66.4994],[23.8045,66.5076],[23.8086,66.5345],[23.8318,66.5385],[23.8795,66.5554],[23.8906,66.6272],[23.8794,66.6275],[23.8842,66.6589],[23.8955,66.6586],[23.9011,66.6946],[23.9125,66.6943],[23.916,66.7168],[23.8947,66.7263],[23.8997,66.7577],[23.9223,66.7572],[23.9266,66.7841],[23.9493,66.7836],[23.9592,66.7743],[23.9933,66.7735],[23.9969,66.7959],[24.0111,66.8136],[23.9913,66.8321],[23.9799,66.8324],[23.9501,66.8602],[23.9522,66.8736],[23.8981,66.893],[23.8995,66.9019],[23.8774,66.907],[23.8809,66.9294],[23.8716,66.9432],[23.8387,66.9529],[23.8301,66.9712],[23.8079,66.9762],[23.7985,66.9899],[23.7649,66.9952],[23.7561,67.0134],[23.7339,67.0184],[23.7252,67.0367],[23.6921,67.0464],[23.6732,67.0739],[23.6759,67.0919],[23.6535,67.0968],[23.6447,67.1151],[23.6115,67.1248],[23.6128,67.1338],[23.5796,67.1435],[23.5694,67.1528],[23.572,67.1707],[23.5964,67.1792],[23.5997,67.2017],[23.5895,67.2109],[23.5664,67.2114],[23.5717,67.2474],[23.6206,67.2643],[23.6554,67.2636],[23.6799,67.272],[23.7378,67.2708],[23.7515,67.284],[23.7549,67.3064],[23.7795,67.3149],[23.783,67.3374],[23.7489,67.3426],[23.7524,67.3651],[23.7407,67.3654],[23.7442,67.3878],[23.7696,67.4008],[23.7731,67.4232],[23.7395,67.433],[23.6579,67.4348],[23.6243,67.4445],[23.5776,67.4455],[23.5433,67.4508],[23.5186,67.4423],[23.4719,67.4433],[23.4265,67.4532],[23.4057,67.4716],[23.4076,67.4851],[23.4446,67.4979],[23.4589,67.5156],[23.483,67.5197],[23.4862,67.5421],[23.4765,67.5558],[23.5234,67.5549],[23.5488,67.5679],[23.5568,67.6218],[23.536,67.6403],[23.5131,67.6452],[23.5027,67.6545],[23.5073,67.6859],[23.4955,67.6862],[23.5101,67.785],[23.4877,67.7945],[23.4937,67.835],[23.5056,67.8347],[23.5096,67.8617],[23.536,67.8792],[23.5611,67.8877],[23.6087,67.8867],[23.61,67.8957],[23.6478,67.9084],[23.6737,67.9214],[23.6765,67.9394],[23.6667,67.9531],[23.6323,67.9629],[23.5846,67.9639],[23.5747,67.9776],[23.5516,67.9826],[23.555,68.0051],[23.5437,68.0098],[23.484,68.011],[23.4853,68.02],[23.4042,68.0397],[23.4055,68.0486],[23.3823,68.0536],[23.3622,68.081],[23.3641,68.0945],[23.3541,68.1083],[23.3314,68.1177],[23.3333,68.1312],[23.3112,68.1452],[23.2631,68.1461],[23.2498,68.1373],[23.2258,68.1378],[23.1999,68.1247],[23.1645,68.1299],[23.1549,68.1481],[23.1671,68.238],[23.1195,68.2434],[23.1092,68.2571],[23.0856,68.262],[23.0892,68.289],[23.0783,68.2982],[23.042,68.2989],[23.0311,68.3081],[22.9844,68.3224],[22.9481,68.323],[22.9244,68.3279],[22.9256,68.3369],[22.8898,68.342],[22.855,68.3561],[22.8578,68.3786],[22.8341,68.3835],[22.7971,68.3797],[22.7485,68.3804],[22.7375,68.3895],[22.7015,68.3946],[22.655,68.4134],[22.6565,68.4269],[22.582,68.4144],[22.583,68.4234],[22.5465,68.424],[22.5231,68.4333],[22.4871,68.4384],[22.4403,68.457],[22.4159,68.4574],[22.3653,68.44],[22.3685,68.4715],[22.3446,68.4764],[22.3075,68.4724],[22.2587,68.473],[22.2217,68.469],[22.1977,68.4738],[22.1847,68.4649],[22.1481,68.4654],[22.1367,68.4745],[22.0635,68.4754],[22.0281,68.4893],[22.0167,68.4985],[22.0179,68.512],[21.9958,68.5393],[21.9009,68.5764],[21.8768,68.5811],[21.7296,68.5826],[21.7055,68.5874],[21.7075,68.6144],[21.6965,68.6325],[21.6723,68.6373],[21.673,68.6463],[21.6247,68.6602],[21.6001,68.6605],[21.5885,68.6696],[21.49,68.6704],[21.4539,68.6842],[21.4293,68.6844],[21.4178,68.698],[21.4198,68.7296],[21.4074,68.7297],[21.4089,68.7522],[21.3968,68.7568],[21.3226,68.7573],[21.2863,68.7711],[21.2871,68.7846],[21.2512,68.8074],[21.2265,68.8076],[21.1657,68.8305],[21.1538,68.8396],[21.0806,68.8671],[21.0558,68.8673],[21.0442,68.8854],[20.9943,68.8811],[20.9576,68.8949],[20.9077,68.8906],[20.9082,68.9041],[20.8714,68.9178],[20.8721,68.9358],[20.9095,68.9357],[20.9223,68.9446],[20.9233,68.9671],[20.8865,68.9853],[20.8493,68.99],[20.8374,69.0081],[20.8126,69.0127],[20.8129,69.0217],[20.7757,69.0309],[20.7384,69.0356],[20.6382,69.0359],[20.6133,69.0405],[20.5887,69.0541],[20.5637,69.0587],[20.451,69.059],[20.4509,69.0545],[20.3131,69.0548],[20.3131,69.0503],[20.1628,69.0505],[20.1628,69.046],[20.0626,69.0461],[20.0876,69.0371],[20.0876,69.028],[20.125,69.01],[20.15,69.0055],[20.1499,68.9965],[20.1873,68.9874],[20.1872,68.9784],[20.2122,68.9739],[20.2121,68.9649],[20.2494,68.9558],[20.2493,68.9468],[20.3114,68.9287],[20.3107,68.8836],[20.3232,68.8836],[20.3225,68.8386],[20.3349,68.8385],[20.3343,68.7935],[20.3217,68.78],[20.2968,68.7665],[20.2966,68.753],[20.2718,68.744],[20.2343,68.7036],[20.2341,68.69],[20.2092,68.6631],[20.0982,68.6091],[20.0737,68.6046],[20.0736,68.5956],[20.0368,68.5821],[20.0123,68.5821],[19.9387,68.5596],[19.951,68.5506],[19.9755,68.5506],[20.0245,68.5326],[20.1711,68.5055],[20.1833,68.4964],[20.2199,68.4919],[20.2198,68.4829],[20.1464,68.4559],[20.1097,68.447],[20.1097,68.4379],[20.0365,68.411],[20.0122,68.4065],[20.0122,68.3974],[19.9635,68.3839],[19.9635,68.3749],[19.9392,68.3704],[19.9271,68.3569],[19.8785,68.3659],[19.8542,68.3659],[19.8298,68.3748],[19.7568,68.3883],[19.7202,68.3927],[19.4759,68.4372],[19.4393,68.4416],[19.243,68.4769],[19.2064,68.4767],[19.1573,68.4855],[19.1571,68.49],[19.034,68.5119],[18.9971,68.5162],[18.8382,68.5152],[18.8384,68.5107],[18.6061,68.509],[18.5555,68.5356],[18.4552,68.5708],[18.4307,68.5706],[18.4178,68.5795],[18.3814,68.5747],[18.3446,68.5743],[18.3207,68.5651],[18.284,68.5647],[18.2602,68.5555],[18.2234,68.5551],[18.1996,68.5459],[18.1629,68.5455],[18.1269,68.5361],[18.1291,68.5091],[18.1169,68.509],[18.1206,68.464],[18.1084,68.4638],[18.1118,68.4233],[18.0996,68.4232],[18.104,68.3692],[18.1162,68.3693],[18.122,68.2973],[18.1342,68.2974],[18.1399,68.2254],[18.152,68.2255],[18.1545,68.194],[18.1311,68.1847],[18.1322,68.1712],[18.1096,68.153],[18.0863,68.1437],[18.0874,68.1302],[18.0423,68.0937],[18.0191,68.0844],[18.0202,68.0709],[17.997,68.0616],[17.9634,68.0342],[17.9646,68.0207],[17.9414,68.0114],[17.9191,67.9931],[17.9203,67.9796],[17.9092,67.9705],[17.8849,67.9747],[17.8354,67.9921],[17.8111,67.9963],[17.7492,68.018],[17.7253,68.0177],[17.7124,68.0265],[17.6752,68.0396],[17.6269,68.0434],[17.614,68.0522],[17.59,68.0519],[17.5771,68.0607],[17.5287,68.0646],[17.5158,68.0734],[17.4918,68.073],[17.4788,68.0819],[17.4304,68.0857],[17.4174,68.0945],[17.3689,68.0982],[17.3558,68.1071],[17.3068,68.1153],[17.2708,68.1147],[17.2718,68.1058],[17.2483,68.1009],[17.2385,68.0827],[17.215,68.0778],[17.2161,68.0688],[17.1926,68.0639],[17.1937,68.0549],[17.1594,68.0408],[17.1355,68.0405],[17.1246,68.0313],[17.1007,68.0309],[17.0545,68.0166],[17.0437,68.0074],[17.0198,68.0069],[17.009,67.9977],[16.9851,67.9973],[16.963,67.9834],[16.9391,67.983],[16.8931,67.9686],[16.8591,67.9545],[16.7901,67.9352],[16.7336,67.9116],[16.7036,67.8704],[16.7061,67.8525],[16.6842,67.8385],[16.6246,67.7562],[16.6153,67.738],[16.5857,67.6968],[16.5883,67.6789],[16.5784,67.6651],[16.5562,67.6557],[16.5581,67.6422],[16.5359,67.6327],[16.5046,67.605],[16.5059,67.596],[16.4831,67.5911],[16.474,67.5728],[16.4512,67.5679],[16.4525,67.5589],[16.4297,67.5539],[16.4311,67.5449],[16.409,67.5354],[16.3745,67.5302],[16.2458,67.5274],[16.2465,67.5229],[16.1528,67.5208],[16.1433,67.507],[16.1455,67.4935],[16.1235,67.484],[16.114,67.4703],[16.1162,67.4568],[16.0943,67.4473],[16.098,67.4248],[16.1503,67.39],[16.175,67.3815],[16.1772,67.368],[16.2032,67.3506],[16.2149,67.3508],[16.2539,67.3247],[16.256,67.3112],[16.2806,67.3027],[16.3194,67.2765],[16.3331,67.2633],[16.3718,67.2371],[16.3738,67.2236],[16.3983,67.2152],[16.4062,67.1612],[16.3947,67.161],[16.4013,67.1161],[16.3898,67.1158],[16.3971,67.0664],[16.3856,67.0662],[16.3889,67.0437],[16.3551,67.0385],[16.3335,67.029],[16.2675,67.0095],[16.2351,66.9952],[16.2129,66.9902],[16.1377,66.9569],[16.117,66.9429],[16.042,66.9096],[16.0022,66.8725],[15.9801,66.8675],[15.9717,66.8493],[15.9496,66.8442],[15.9412,66.826],[15.9192,66.8209],[15.9207,66.8119],[15.8987,66.8069],[15.8903,66.7886],[15.8683,66.7836],[15.8698,66.7746],[15.8479,66.7695],[15.8395,66.7513],[15.8176,66.7462],[15.8191,66.7373],[15.7972,66.7322],[15.7889,66.7139],[15.7671,66.7089],[15.7686,66.6999],[15.7467,66.6948],[15.7385,66.6766],[15.7167,66.6715],[15.7084,66.6532],[15.6866,66.6482],[15.6882,66.6392],[15.6664,66.6341],[15.6582,66.6158],[15.6365,66.6107],[15.6283,66.5925],[15.6058,66.5919],[15.4387,66.5152],[15.4395,66.5107],[15.3979,66.4915],[15.3763,66.4863],[15.39,66.4732],[15.3949,66.4463],[15.4061,66.4466],[15.4118,66.4152],[15.423,66.4155],[15.4286,66.3841],[15.4398,66.3844],[15.4455,66.353],[15.4566,66.3533],[15.463,66.3174],[15.4742,66.3177],[15.4806,66.2819],[15.4599,66.2723],[15.4163,66.2665],[15.4068,66.2572],[15.3631,66.2515],[15.3537,66.2422],[15.3101,66.2364],[15.3006,66.2271],[15.2571,66.2213],[15.2477,66.212],[15.2255,66.2114],[15.2161,66.2021],[15.1726,66.1963],[15.1632,66.187],[15.1197,66.1811],[15.1104,66.1718],[15.067,66.166],[15.0364,66.1515],[14.5168,66.1346],[14.5264,66.0898],[14.5374,66.0901],[14.5621,65.9737],[14.5731,65.974],[14.5947,65.871],[14.6056,65.8714],[14.615,65.8265],[14.6296,65.809],[14.6124,65.7859],[14.5925,65.7762],[14.5953,65.7627],[14.5754,65.753],[14.5782,65.7396],[14.5583,65.7299],[14.5611,65.7164],[14.5412,65.7067],[14.5341,65.6884],[14.5397,65.6615],[14.5289,65.6612],[14.5336,65.6388],[14.5265,65.6205],[14.5156,65.6201],[14.5241,65.5798],[14.5062,65.5611],[14.5109,65.5387],[14.5001,65.5383],[14.5057,65.5115],[14.4949,65.5111],[14.5071,65.4528],[14.4963,65.4525],[14.5084,65.3942],[14.4977,65.3939],[14.5125,65.3222],[14.5055,65.3039],[14.4744,65.2983],[14.4655,65.2889],[14.4265,65.2695],[14.4061,65.2643],[14.3973,65.2549],[14.3769,65.2497],[14.3621,65.2176],[14.3659,65.1996],[14.3475,65.1854],[14.3338,65.1488],[14.3376,65.1309],[14.3298,65.1171],[14.3095,65.1118],[14.3114,65.1029],[14.2911,65.0976],[14.293,65.0887],[14.237,65.0505],[14.2168,65.0452],[14.2187,65.0363],[14.1908,65.0172],[14.1706,65.0119],[14.1726,65.0029],[14.1428,64.9928],[14.1447,64.9838],[14.1246,64.9786],[14.1265,64.9696],[14.1064,64.9643],[14.1083,64.9554],[14.0806,64.9362],[14.0605,64.931],[14.0624,64.922],[14.0423,64.9167],[14.0443,64.9078],[14.0242,64.9025],[14.0176,64.8842],[13.9976,64.8789],[13.9996,64.8699],[13.9795,64.8646],[13.9815,64.8557],[13.9615,64.8504],[13.9635,64.8414],[13.9434,64.8361],[13.9454,64.8272],[13.9254,64.8218],[13.9274,64.8129],[13.9074,64.8076],[13.9094,64.7986],[13.8895,64.7933],[13.8915,64.7844],[13.8715,64.7791],[13.8735,64.7701],[13.8536,64.7648],[13.8471,64.7465],[13.8282,64.7367],[13.8113,64.7179],[13.7914,64.7126],[13.7935,64.7037],[13.7736,64.6984],[13.7756,64.6894],[13.7557,64.6841],[13.7578,64.6751],[13.7379,64.6698],[13.74,64.6609],[13.7201,64.6555],[13.7222,64.6466],[13.7024,64.6412],[13.696,64.6229],[13.6793,64.6042],[13.6606,64.5944],[13.6533,64.5805],[13.7219,64.5563],[13.7427,64.5571],[13.8795,64.5086],[13.9003,64.5094],[13.9655,64.4985],[13.9882,64.4903],[14.0194,64.4916],[14.0845,64.4806],[14.0978,64.4676],[14.1195,64.4639],[14.1252,64.4371],[14.1149,64.4367],[14.1575,64.2353],[14.1472,64.2349],[14.1566,64.1901],[14.1231,64.1527],[14.1035,64.1475],[14.1054,64.1385],[14.072,64.1011],[14.0525,64.0958],[14.0358,64.0771],[14.0294,64.0588],[14.01,64.0535],[14.0119,64.0445],[13.9953,64.0258],[13.9758,64.0205],[13.9777,64.0116],[13.936,64.0144],[13.829,64.0326],[13.7974,64.0358],[13.7332,64.0466],[13.7025,64.0453],[13.6709,64.0485],[13.6484,64.0566],[13.4584,64.0755],[13.4164,64.0781],[13.2896,64.0905],[13.2589,64.0892],[13.2272,64.0922],[13.1454,64.0885],[13.1465,64.084],[13.0852,64.0812],[13.0863,64.0767],[13.0352,64.0744],[13.0364,64.0699],[12.9853,64.0675],[12.9864,64.063],[12.9252,64.0601],[12.9173,64.0507],[12.8776,64.0443],[12.8697,64.0349],[12.8493,64.0339],[12.8414,64.0245],[12.8018,64.0181],[12.7939,64.0086],[12.7543,64.0022],[12.7464,63.9928],[12.7261,63.9918],[12.7182,63.9823],[12.6979,63.9813],[12.6126,63.9138],[12.5935,63.9084],[12.5958,63.8994],[12.5421,63.8696],[12.5444,63.8607],[12.5164,63.8502],[12.5188,63.8413],[12.4932,63.8219],[12.4563,63.8065],[12.4587,63.7975],[12.4219,63.7821],[12.4141,63.7726],[12.3786,63.7527],[12.381,63.7438],[12.3455,63.7239],[12.3225,63.6955],[12.3048,63.6856],[12.3072,63.6766],[12.2277,63.6317],[12.2088,63.6262],[12.156,63.5963],[12.167,63.5561],[12.177,63.5567],[12.188,63.5165],[12.198,63.5171],[12.2089,63.4769],[12.2026,63.463],[12.1838,63.4575],[12.1787,63.4391],[12.16,63.4336],[12.1624,63.4247],[12.1437,63.4192],[12.1386,63.4008],[12.1199,63.3953],[12.1224,63.3863],[12.1037,63.3808],[12.0986,63.3624],[12.08,63.3569],[12.0824,63.348],[12.0153,63.2991],[12.0078,63.2896],[11.9805,63.279],[11.9879,63.2523],[11.9979,63.2529],[12.0127,63.2356],[12.0176,63.2177],[12.0324,63.2005],[12.0558,63.1882],[12.0607,63.1703],[12.0841,63.1581],[12.089,63.1402],[12.1124,63.1279],[12.1271,63.1106],[12.1319,63.0928],[12.1552,63.0805],[12.1698,63.0632],[12.1746,63.0454],[12.1979,63.0331],[12.2125,63.0158],[12.2172,62.9979],[12.2011,62.9835],[12.1064,62.9286],[12.1088,62.9196],[12.0732,62.9041],[12.0792,62.8818],[12.089,62.8824],[12.1094,62.8066],[12.1191,62.8071],[12.137,62.7403],[12.1308,62.7264],[12.1137,62.7164],[12.1173,62.703],[12.1002,62.693],[12.1038,62.6796],[12.0794,62.6602],[12.083,62.6468],[12.066,62.6368],[12.0598,62.6229],[12.0694,62.5873],[12.0791,62.5878],[12.085,62.5655],[12.0947,62.566],[12.1006,62.5438],[12.1103,62.5443],[12.1162,62.522],[12.1258,62.5225],[12.1317,62.5003],[12.1414,62.5008],[12.1472,62.4785],[12.1569,62.479],[12.1628,62.4568],[12.1724,62.4573],[12.1782,62.435],[12.1879,62.4355],[12.1937,62.4132],[12.2033,62.4138],[12.2091,62.3915],[12.2188,62.392],[12.2245,62.3697],[12.2342,62.3703],[12.2399,62.348],[12.2495,62.3485],[12.2553,62.3262],[12.2649,62.3267],[12.2706,62.3044],[12.2802,62.305],[12.2859,62.2827],[12.2955,62.2832],[12.3024,62.2564],[12.2974,62.2381],[12.2816,62.2237],[12.2862,62.2058],[12.2812,62.1875],[12.2716,62.1869],[12.2666,62.1686],[12.2712,62.1507],[12.2555,62.1363],[12.2505,62.118],[12.2551,62.1001],[12.2451,62.0634],[12.2295,62.049],[12.2341,62.0311],[12.2291,62.0128],[12.2147,61.9939],[12.2192,61.976],[12.2093,61.9393],[12.1938,61.9249],[12.184,61.8882],[12.1885,61.8703],[12.1836,61.852],[12.1681,61.8375],[12.1632,61.8192],[12.1678,61.8013],[12.1629,61.783],[12.1475,61.7685],[12.1426,61.7502],[12.1471,61.7323],[12.1411,61.7184],[12.1611,61.715],[12.1751,61.6978],[12.195,61.6944],[12.2089,61.6771],[12.2289,61.6737],[12.2427,61.6564],[12.2627,61.653],[12.2649,61.644],[12.3594,61.6086],[12.3941,61.5834],[12.3963,61.5745],[12.436,61.5676],[12.4829,61.5702],[12.484,61.5657],[12.5684,61.5703],[12.6039,61.5406],[12.6237,61.5372],[12.6259,61.5282],[12.6947,61.4777],[12.7144,61.4742],[12.7165,61.4653],[12.785,61.4147],[12.8047,61.4112],[12.8502,61.3775],[12.8636,61.3601],[12.8687,61.3378],[12.8635,61.3195],[12.8479,61.3051],[12.8417,61.2912],[12.8458,61.2734],[12.8188,61.2268],[12.7971,61.1985],[12.7642,61.1787],[12.7384,61.1683],[12.7312,61.1589],[12.7066,61.144],[12.7004,61.1302],[12.7045,61.1123],[12.6892,61.0979],[12.684,61.0796],[12.6882,61.0617],[12.6626,61.0513],[12.5703,61.0463],[12.5693,61.0508],[12.5232,61.0482],[12.5221,61.0527],[12.4022,61.046],[12.4033,61.0416],[12.3572,61.039],[12.3583,61.0345],[12.303,61.0314],[12.3041,61.0269],[12.2488,61.0238],[12.2315,61.0183],[12.2369,60.996],[12.2505,60.9787],[12.2722,60.9664],[12.2765,60.9485],[12.2981,60.9362],[12.3106,60.9234],[12.3149,60.9055],[12.3273,60.8927],[12.3444,60.8213],[12.3536,60.8218],[12.3611,60.7906],[12.3702,60.7912],[12.3777,60.7599],[12.3868,60.7605],[12.3932,60.7337],[12.4136,60.7258],[12.4809,60.6754],[12.484,60.662],[12.5044,60.6541],[12.5179,60.5961],[12.5736,60.554],[12.5949,60.5417],[12.6123,60.4658],[12.6032,60.4653],[12.6113,60.4296],[12.6023,60.4291],[12.6084,60.4024],[12.5913,60.3969],[12.5934,60.388],[12.5763,60.3825],[12.5784,60.3736],[12.5613,60.3681],[12.5634,60.3592],[12.5234,60.3344],[12.4984,60.3239],[12.5209,60.2258],[12.5299,60.2263],[12.5411,60.1772],[12.5293,60.1495],[12.5134,60.1395],[12.5016,60.1118],[12.5046,60.0984],[12.4888,60.0884],[12.4839,60.0701],[12.467,60.0646],[12.4622,60.0463],[12.4305,60.0264],[12.4127,60.0254],[12.3969,60.0154],[12.3752,59.9916],[12.3584,59.9861],[12.3605,59.9771],[12.3368,59.9622],[12.319,59.9612],[12.3122,59.9517],[12.2943,59.9507],[12.2608,59.9397],[12.2451,59.9297],[12.2272,59.9287],[12.2204,59.9192],[12.1969,59.9043],[12.1823,59.8898],[12.1467,59.8877],[12.1268,59.8956],[12.11,59.89],[12.0389,59.8857],[12.0012,59.8925],[11.9901,59.9009],[11.9734,59.8953],[11.9467,59.8937],[11.9222,59.8831],[11.9244,59.8742],[11.88,59.8715],[11.8843,59.8537],[11.8499,59.847],[11.8443,59.8331],[11.8809,59.8308],[11.9251,59.7974],[11.9349,59.7573],[11.926,59.7568],[11.9412,59.6944],[11.897,59.6916],[11.8804,59.6861],[11.8737,59.6766],[11.877,59.6633],[11.8626,59.6488],[11.7743,59.6433],[11.7589,59.6332],[11.7324,59.6316],[11.7082,59.621],[11.7104,59.6121],[11.6939,59.6065],[11.7094,59.5442],[11.7181,59.5447],[11.727,59.5091],[11.7478,59.4968],[11.7675,59.4167],[11.7763,59.4172],[11.7883,59.3682],[11.8079,59.3604],[11.8199,59.3476],[11.8155,59.3293],[11.836,59.2446],[11.8196,59.2391],[11.8131,59.2296],[11.7967,59.224],[11.7989,59.2151],[11.7825,59.2096],[11.7869,59.1917],[11.7727,59.1773],[11.7824,59.1372],[11.7672,59.1272],[11.7726,59.1049],[11.7834,59.0965],[11.7704,59.0776],[11.7486,59.0581],[11.7324,59.0526],[11.7345,59.0436],[11.7042,59.0236],[11.6988,59.0097],[11.702,58.9963],[11.6891,58.9774],[11.6945,58.9551],[11.6642,58.935],[11.6535,58.9072],[11.6189,58.9049],[11.6125,58.8955],[11.5866,58.8938],[11.551,58.8959],[11.5359,58.8859],[11.4906,58.8919],[11.4647,58.8902],[11.4569,58.9214],[11.4709,58.9359],[11.4519,59.0115],[11.4399,59.0243],[11.4204,59.0321],[11.4083,59.0448],[11.4027,59.0671],[11.3775,59.0971],[11.359,59.1004],[11.3469,59.1131],[11.3122,59.1108],[11.2971,59.1007],[11.2537,59.0978],[11.2288,59.0915],[11.2058,59.0794],[11.1925,59.0782],[11.1747,59.0665],[11.1692,59.054],[11.1531,59.0476],[11.1353,59.0332],[11.1203,59.0096],[11.1419,58.994],[11.1897,58.9999],[11.1831,58.9918],[11.1414,58.9865],[11.1175,58.9682],[11.1303,58.9504],[11.1481,58.9393],[11.1664,58.9374],[11.1747,58.9249],[11.1586,58.9174],[11.1292,58.9251],[11.1108,58.9204],[11.0958,58.9026],[11.1486,58.9026],[11.1458,58.894],[11.1197,58.8904],[11.1164,58.8721],[11.1231,58.864],[11.1708,58.8699],[11.1958,58.8646],[11.1608,58.8568],[11.1508,58.8451],[11.1475,58.8285],[11.1703,58.8315],[11.1953,58.8296],[11.2019,58.8421],[11.2381,58.8374],[11.2303,58.8293],[11.2475,58.8101],[11.2219,58.7993],[11.1864,58.7779],[11.1981,58.7646],[11.2331,58.7432],[11.2458,58.7412],[11.2619,58.7207],[11.2431,58.7218],[11.2386,58.7393],[11.2158,58.7513],[11.1981,58.7546],[11.1692,58.7499],[11.1758,58.7349],[11.1692,58.7243],[11.1875,58.711],[11.2064,58.714],[11.2169,58.7079],[11.2181,58.6921],[11.2336,58.6821],[11.2575,58.6768],[11.2714,58.6535],[11.2719,58.6382],[11.2631,58.6179],[11.2786,58.6199],[11.2808,58.5982],[11.2758,58.586],[11.3058,58.5804],[11.3008,58.5713],[11.2647,58.5668],[11.2419,58.5576],[11.2386,58.5476],[11.2525,58.5293],[11.2425,58.5176],[11.2758,58.5151],[11.2808,58.4974],[11.3058,58.4929],[11.3097,58.4793],[11.2908,58.4604],[11.2931,58.4435],[11.2675,58.4354],[11.2614,58.4451],[11.2314,58.4376],[11.2431,58.4304],[11.2231,58.4185],[11.2219,58.3946],[11.2536,58.384],[11.2192,58.3693],[11.2192,58.3493],[11.2369,58.3557],[11.2653,58.3515],[11.2897,58.3599],[11.3031,58.3735],[11.3158,58.3654],[11.3631,58.3626],[11.3564,58.3751],[11.3936,58.3974],[11.3875,58.369],[11.3697,58.3649],[11.3575,58.3499],[11.3608,58.3418],[11.3831,58.3432],[11.4092,58.354],[11.4214,58.3729],[11.4375,58.3832],[11.4486,58.3726],[11.4531,58.3529],[11.4253,58.3557],[11.4047,58.3471],[11.3997,58.3165],[11.4175,58.3049],[11.4414,58.2999],[11.4336,58.2849],[11.4169,58.276],[11.4181,58.2685],[11.4519,58.2707],[11.4769,58.2796],[11.4958,58.299],[11.5186,58.3054],[11.5325,58.3179],[11.5431,58.3365],[11.5725,58.3571],[11.5747,58.366],[11.5581,58.3826],[11.5714,58.4032],[11.5842,58.4135],[11.5869,58.4374],[11.6086,58.4076],[11.6281,58.4051],[11.6308,58.386],[11.5981,58.3618],[11.5508,58.3126],[11.5325,58.304],[11.5297,58.2854],[11.5008,58.2754],[11.5014,58.2693],[11.4631,58.2487],[11.4369,58.2479],[11.4186,58.2279],[11.4047,58.2015],[11.4286,58.2049],[11.4514,58.2001],[11.4747,58.2118],[11.4792,58.2368],[11.5025,58.2463],[11.5292,58.244],[11.5564,58.2346],[11.5736,58.2479],[11.5647,58.254],[11.6131,58.2646],[11.6269,58.2613],[11.6503,58.2685],[11.6669,58.2849],[11.6664,58.3004],[11.6769,58.311],[11.7003,58.3063],[11.7225,58.314],[11.7297,58.3282],[11.7058,58.3307],[11.6942,58.3382],[11.7625,58.3387],[11.7942,58.3246],[11.8164,58.3285],[11.8469,58.3288],[11.8864,58.3474],[11.9025,58.3446],[11.9114,58.3343],[11.8864,58.3307],[11.8697,58.3229],[11.8153,58.3168],[11.8264,58.3001],[11.8136,58.2896],[11.8469,58.2749],[11.8397,58.259],[11.8569,58.2571],[11.8725,58.2224],[11.9158,58.2276],[11.8953,58.206],[11.8569,58.1946],[11.8564,58.1732],[11.8658,58.1599],[11.8408,58.1435],[11.8425,58.1224],[11.8258,58.1068],[11.8314,58.0926],[11.8014,58.0832],[11.8131,58.0776],[11.8131,58.0632],[11.8214,58.056],[11.8169,58.0224],[11.8053,58.019],[11.8108,57.9893],[11.7931,57.9885],[11.7758,57.9729],[11.7558,57.9671],[11.7575,57.9496],[11.7453,57.9393],[11.7497,57.931],[11.7781,57.931],[11.7836,57.9201],[11.7547,57.9146],[11.7775,57.9038],[11.7408,57.9012],[11.7242,57.9032],[11.7031,57.8915],[11.7197,57.8871],[11.6986,57.8718],[11.6847,57.8749],[11.6753,57.8537],[11.6847,57.836],[11.7058,57.8249],[11.7269,57.8243],[11.7414,57.7996],[11.7269,57.7932],[11.7319,57.7832],[11.7653,57.7885],[11.7731,57.7976],[11.8158,57.7929],[11.8153,57.7788],[11.7986,57.7762],[11.7947,57.7521],[11.7797,57.7468],[11.7414,57.7462],[11.7147,57.7357],[11.7175,57.7246],[11.7036,57.7185],[11.7136,57.7004],[11.7347,57.701],[11.7542,57.694],[11.7875,57.6957],[11.8453,57.6882],[11.8508,57.6721],[11.8347,57.6593],[11.8453,57.649],[11.8747,57.6354],[11.8753,57.6176],[11.8858,57.6115],[11.9053,57.6149],[11.9242,57.626],[11.9153,57.5954],[11.8969,57.5871],[11.9125,57.5799],[11.9231,57.5896],[11.9381,57.5738],[11.9197,57.5579],[11.9231,57.5499],[11.9119,57.5262],[11.9414,57.5115],[11.9181,57.5104],[11.9192,57.5004],[11.9503,57.5018],[11.9519,57.4879],[11.9386,57.4843],[11.9092,57.4637],[11.9131,57.4449],[11.9047,57.4357],[11.9286,57.4202],[11.9292,57.4079],[11.9131,57.3932],[11.9369,57.3932],[11.9575,57.379],[11.9447,57.3599],[11.9664,57.3551],[11.9742,57.3665],[12.0136,57.3651],[12.0264,57.3749],[12.0175,57.3838],[12.0181,57.3963],[12.0425,57.4188],[12.0564,57.4596],[12.0664,57.4476],[12.0953,57.4357],[12.1097,57.434],[12.1086,57.4076],[12.0831,57.4079],[12.0797,57.396],[12.1225,57.399],[12.1269,57.3779],[12.1114,57.3776],[12.0847,57.3688],[12.0636,57.3376],[12.0864,57.3368],[12.1225,57.3462],[12.1614,57.3276],[12.1536,57.3174],[12.1669,57.3093],[12.1636,57.284],[12.1431,57.284],[12.1047,57.2687],[12.0914,57.2521],[12.1203,57.2535],[12.1292,57.2468],[12.0936,57.234],[12.1181,57.2271],[12.1431,57.2132],[12.1786,57.214],[12.2036,57.2254],[12.2158,57.214],[12.1919,57.2032],[12.1669,57.2001],[12.1786,57.1901],[12.2125,57.1854],[12.2042,57.1707],[12.2264,57.1629],[12.2081,57.1457],[12.2186,57.1396],[12.2136,57.1296],[12.1919,57.1224],[12.2275,57.111],[12.2431,57.0968],[12.2436,57.0826],[12.2736,57.0685],[12.2686,57.0499],[12.2858,57.046],[12.3103,57.0235],[12.3297,57.024],[12.3419,57.0165],[12.3569,56.9888],[12.3569,56.9754],[12.3475,56.9646],[12.3614,56.936],[12.3519,56.9282],[12.3658,56.9165],[12.3931,56.9154],[12.3975,56.9068],[12.4153,56.9018],[12.4597,56.8957],[12.4625,56.889],[12.5019,56.886],[12.5236,56.8715],[12.5342,56.8704],[12.5492,56.856],[12.5453,56.8432],[12.5769,56.8415],[12.5986,56.831],[12.6125,56.8138],[12.6042,56.7985],[12.6192,56.7687],[12.6308,56.7649],[12.6225,56.7521],[12.6236,56.741],[12.6403,56.736],[12.6452,56.7206],[12.6619,56.7226],[12.6842,56.7071],[12.6803,56.6807],[12.7108,56.681],[12.7275,56.669],[12.7331,56.6563],[12.7269,56.641],[12.7614,56.6474],[12.7764,56.6407],[12.7908,56.6488],[12.8419,56.6635],[12.8542,56.6449],[12.8753,56.6507],[12.8925,56.6404],[12.9153,56.6126],[12.9125,56.6001],[12.9386,56.5887],[12.9464,56.5526],[12.9469,56.5318],[12.9392,56.4985],[12.9247,56.4738],[12.9008,56.4493],[12.8803,56.4365],[12.8464,56.4315],[12.7897,56.4529],[12.7286,56.4721],[12.7081,56.4715],[12.6786,56.4532],[12.6553,56.4549],[12.6186,56.4221],[12.6236,56.3982],[12.6375,56.3887],[12.6886,56.3807],[12.7042,56.3668],[12.7408,56.3579],[12.7458,56.3352],[12.7558,56.3315],[12.7686,56.3012],[12.7864,56.2979],[12.8275,56.2824],[12.8381,56.2707],[12.8353,56.2615],[12.8158,56.2374],[12.8014,56.2274],[12.7725,56.2179],[12.7225,56.2329],[12.7119,56.2232],[12.6931,56.2229],[12.6881,56.2326],[12.6719,56.2379],[12.6714,56.2471],[12.6581,56.2557],[12.6086,56.2654],[12.5925,56.2732],[12.5175,56.2946],[12.4831,56.3007],[12.4458,56.3029],[12.4692,56.2907],[12.4847,56.2893],[12.4975,56.2751],[12.5336,56.2429],[12.5431,56.2126],[12.5364,56.2071],[12.5531,56.1915],[12.5542,56.1765],[12.5642,56.1671],[12.5675,56.1435],[12.5847,56.1404],[12.5925,56.1274],[12.6292,56.0988],[12.6547,56.0843],[12.6753,56.0665],[12.6881,56.044],[12.6892,56.0276],[12.7003,56.0249],[12.7069,56.0043],[12.7314,56.0029],[12.7481,55.9901],[12.7547,55.9763],[12.7586,55.9521],[12.7814,55.9376],[12.8053,55.9129],[12.8036,55.9021],[12.8125,55.876],[12.8269,55.8643],[12.8308,55.8535],[12.8692,55.8618],[12.9014,55.8451],[12.9286,55.8143],[12.9336,55.7863],[12.9297,55.7746],[12.9069,55.7635],[12.9008,55.7507],[12.9247,55.7404],[12.9519,55.7499],[12.9719,55.7251],[12.9958,55.7296],[13.0058,55.7201],[13.0397,55.7043],[13.0547,55.6924],[13.0631,55.6662],[13.0325,55.6451],[12.9886,55.634],[12.9908,55.6249],[12.9708,55.6149],[12.9725,55.606],[12.9519,55.5985],[12.9197,55.5932],[12.9053,55.5762],[12.8892,55.5643],[12.9081,55.5468],[12.9092,55.5257],[12.9192,55.521],[12.9303,55.5001],[12.9536,55.4799],[12.9686,55.456],[12.9497,55.4582],[12.9514,55.4229],[12.9292,55.4093],[12.8908,55.4093],[12.8747,55.4179],[12.8686,55.4374],[12.8281,55.4149],[12.8153,55.3843],[12.8853,55.3971],[12.9086,55.3857],[12.9253,55.3851],[12.9486,55.3988],[12.9686,55.4018],[13.0253,55.3821],[13.0753,55.3696],[13.0964,55.3771],[13.1342,55.3729],[13.1475,55.3651],[13.1647,55.3696],[13.2042,55.3635],[13.2269,55.3554],[13.2725,55.3438],[13.3192,55.3424],[13.3597,55.3363],[13.3919,55.3504],[13.4236,55.354],[13.4508,55.3696],[13.4897,55.3824],[13.5347,55.3874],[13.5619,55.3835],[13.5964,55.3871],[13.6119,55.4046],[13.6275,55.4137],[13.6458,55.4176],[13.6764,55.416],[13.7097,55.426],[13.7597,55.4265],[13.7908,55.4229],[13.8108,55.4254],[13.8436,55.4196],[13.8575,55.4282],[13.8831,55.434],[13.9325,55.4329],[13.9742,55.4215],[14.0475,55.3854],[14.1008,55.3849],[14.1469,55.3771],[14.1719,55.3774],[14.2003,55.3863],[14.2108,55.3963],[14.2414,55.4393],[14.2742,55.4557],[14.2825,55.4732],[14.3153,55.4843],[14.3181,55.4924],[14.3492,55.5107],[14.3475,55.5221],[14.3575,55.5371],[14.3619,55.554],[14.3425,55.5635],[14.3331,55.5871],[14.2997,55.606],[14.2847,55.6176],[14.2714,55.6749],[14.2269,55.6876],[14.2042,55.7026],[14.1942,55.734],[14.1947,55.7532],[14.2019,55.7857],[14.2169,55.824],[14.2469,55.8721],[14.2692,55.894],[14.2842,55.9026],[14.3175,55.9149],[14.3236,55.9257],[14.3208,55.9399],[14.3364,55.9571],[14.3525,55.9626],[14.3792,55.9604],[14.3853,55.974],[14.4069,55.9765],[14.4186,55.9924],[14.4336,55.9926],[14.4503,56.0076],[14.4647,56.0137],[14.4708,56.0368],[14.4969,56.0354],[14.5325,56.0426],[14.5469,56.0526],[14.5564,56.0407],[14.5569,56.0276],[14.5792,56.0315],[14.5814,56.0446],[14.6008,56.0376],[14.5831,56.0185],[14.6097,56.0176],[14.6103,55.9993],[14.6342,56.006],[14.6614,55.9996],[14.6736,55.9918],[14.7036,56.0129],[14.7153,56.0096],[14.7131,55.9971],[14.7531,56.0096],[14.7825,56.0343],[14.7597,56.0432],[14.7547,56.0563],[14.7242,56.0618],[14.7203,56.0738],[14.7258,56.0915],[14.7153,56.1013],[14.6981,56.1024],[14.6753,56.1265],[14.6731,56.1457],[14.6869,56.1632],[14.7031,56.164],[14.7131,56.1568],[14.7397,56.161],[14.7586,56.1496],[14.7747,56.1568],[14.7992,56.1501],[14.8092,56.1579],[14.8297,56.1557],[14.8314,56.1357],[14.8575,56.1401],[14.8569,56.1471],[14.8619,56.1657],[14.8908,56.1554],[14.9536,56.1593],[14.9875,56.1688],[14.9953,56.156],[15.0097,56.1515],[15.0308,56.1538],[15.0219,56.1662],[15.0336,56.1796],[15.0525,56.1837],[15.0775,56.174],[15.0614,56.1551],[15.1031,56.1471],[15.1231,56.1557],[15.1742,56.151],[15.2369,56.1574],[15.2742,56.1726],[15.2831,56.1682],[15.3092,56.1707],[15.3114,56.1504],[15.2881,56.1451],[15.2908,56.1312],[15.3492,56.126],[15.3681,56.131],[15.3842,56.1521],[15.3897,56.1735],[15.4031,56.1804],[15.4258,56.1732],[15.4508,56.1729],[15.4669,56.1674],[15.4664,56.1526],[15.4792,56.1479],[15.4958,56.169],[15.5347,56.1807],[15.5469,56.1918],[15.5681,56.1876],[15.5675,56.1988],[15.5892,56.204],[15.5986,56.1968],[15.5925,56.1871],[15.5625,56.1754],[15.5831,56.1699],[15.5636,56.1604],[15.5875,56.1526],[15.5942,56.1668],[15.6231,56.1749],[15.6469,56.1918],[15.6636,56.1626],[15.7075,56.1632],[15.7242,56.1526],[15.7408,56.1551],[15.7486,56.1435],[15.7247,56.1413],[15.7119,56.1324],[15.7414,56.1213],[15.7531,56.1079],[15.7642,56.106],[15.7769,56.1329],[15.7919,56.1543],[15.8158,56.1574],[15.8203,56.1457],[15.7869,56.1232],[15.7864,56.0976],[15.8047,56.1029],[15.8514,56.0754],[15.8475,56.0871],[15.8686,56.096],[15.8914,56.1179],[15.8964,56.1376],[15.9125,56.1521],[15.9575,56.1793],[15.9542,56.1893],[15.9719,56.2007],[15.9964,56.2021],[16.0164,56.2299],[16.0192,56.2454],[16.0464,56.2418],[16.0342,56.2682],[16.0425,56.2835],[16.0531,56.2879],[16.0586,56.304],[16.0481,56.3104],[16.0547,56.3332],[16.0842,56.3565],[16.0842,56.3699],[16.0936,56.3815],[16.0931,56.4221],[16.1103,56.4215],[16.1186,56.4465],[16.1292,56.4504],[16.1292,56.4637],[16.1458,56.4696],[16.1425,56.4804],[16.1631,56.4824],[16.1714,56.4979],[16.1853,56.5115],[16.1869,56.524],[16.2136,56.5321],[16.2264,56.5499],[16.2236,56.5843],[16.2358,56.609],[16.2497,56.6149],[16.2453,56.6332],[16.2714,56.6376],[16.2819,56.6451],[16.2781,56.656],[16.2958,56.6587],[16.3197,56.6557],[16.3208,56.6449],[16.3569,56.6574],[16.3797,56.6596],[16.3764,56.6732],[16.3619,56.6782],[16.3631,56.6951],[16.3731,56.7032],[16.3703,56.7163],[16.3775,56.7271],[16.3664,56.7337],[16.3653,56.751],[16.3897,56.7562],[16.3864,56.7724],[16.4242,56.7721],[16.4464,56.7643],[16.4803,56.7713],[16.4847,56.7912],[16.4675,56.8032],[16.4286,56.7868],[16.4069,56.784],[16.4058,56.8076],[16.4208,56.8221],[16.4164,56.834],[16.4397,56.8587],[16.4375,56.8765],[16.4503,56.8929],[16.4453,56.9079],[16.4303,56.9126],[16.4381,56.9229],[16.4664,56.9221],[16.4636,56.9532],[16.4458,56.9626],[16.4336,56.9888],[16.4486,56.9957],[16.4725,56.9726],[16.4803,56.9849],[16.4703,56.9921],[16.4814,57.0113],[16.4914,57.0152],[16.4703,57.0296],[16.5169,57.0282],[16.5397,57.0218],[16.5403,57.0446],[16.5569,57.046],[16.5764,57.0407],[16.5858,57.054],[16.5358,57.0679],[16.5747,57.0793],[16.5564,57.0993],[16.5269,57.116],[16.5075,57.1193],[16.5025,57.1396],[16.4858,57.1535],[16.4658,57.1621],[16.4558,57.1907],[16.4764,57.2007],[16.4814,57.2149],[16.5058,57.2282],[16.5064,57.2432],[16.4764,57.2682],[16.4875,57.2888],[16.5047,57.2924],[16.5153,57.3018],[16.5481,57.309],[16.5575,57.3315],[16.5714,57.3363],[16.5575,57.3543],[16.5631,57.3621],[16.5575,57.3754],[16.5703,57.3779],[16.6019,57.3712],[16.6158,57.3643],[16.6347,57.3712],[16.6381,57.3937],[16.6458,57.4087],[16.6719,57.4107],[16.6842,57.4165],[16.7225,57.4446],[16.7114,57.456],[16.6675,57.4535],[16.7003,57.4729],[16.7142,57.4735],[16.7019,57.4915],[16.6758,57.5018],[16.6692,57.5151],[16.6547,57.5174],[16.6475,57.5329],[16.6764,57.5349],[16.6447,57.5479],[16.6253,57.5479],[16.5853,57.5554],[16.5619,57.5643],[16.5469,57.5782],[16.5203,57.5857],[16.5481,57.5962],[16.5419,57.6074],[16.5642,57.6082],[16.5614,57.5979],[16.5825,57.5985],[16.6064,57.5749],[16.6319,57.5687],[16.6436,57.554],[16.6664,57.5565],[16.6314,57.574],[16.6314,57.5932],[16.6586,57.6065],[16.6247,57.6446],[16.6425,57.6546],[16.6519,57.6821],[16.7069,57.6835],[16.7097,57.6779],[16.7358,57.6724],[16.7503,57.676],[16.7053,57.6918],[16.7225,57.7137],[16.7142,57.7265],[16.6825,57.7276],[16.6647,57.7468],[16.6292,57.7646],[16.6236,57.7721],[16.5819,57.7899],[16.5681,57.8054],[16.5481,57.8157],[16.5019,57.8326],[16.4636,57.8376],[16.4469,57.834],[16.4442,57.856],[16.4275,57.864],[16.4081,57.8824],[16.4186,57.8849],[16.4408,57.8682],[16.4803,57.8557],[16.4958,57.844],[16.5147,57.8493],[16.5297,57.8435],[16.5353,57.8324],[16.5653,57.824],[16.5864,57.8057],[16.6014,57.8013],[16.6369,57.7674],[16.6514,57.7615],[16.6942,57.7626],[16.6525,57.7821],[16.6325,57.7996],[16.5936,57.8176],[16.5681,57.8379],[16.5531,57.8382],[16.5203,57.8749],[16.5047,57.8782],[16.5008,57.891],[16.5092,57.8999],[16.5464,57.8968],[16.5814,57.876],[16.5803,57.8904],[16.5619,57.9188],[16.5981,57.9321],[16.5558,57.941],[16.5269,57.9538],[16.5108,57.974],[16.5008,57.9982],[16.5219,57.9929],[16.5408,57.9682],[16.5553,57.9688],[16.5731,57.9565],[16.5875,57.9538],[16.6058,57.9301],[16.5942,57.9212],[16.6147,57.9071],[16.6214,57.8918],[16.6464,57.8812],[16.6892,57.8776],[16.6958,57.8915],[16.7297,57.8846],[16.7386,57.8746],[16.7708,57.8582],[16.7903,57.8662],[16.7953,57.8804],[16.7825,57.9085],[16.8019,57.9171],[16.7664,57.9371],[16.7792,57.9663],[16.8031,57.9676],[16.8125,57.9804],[16.7842,58.0015],[16.7597,57.9999],[16.7264,57.9796],[16.7114,57.9643],[16.6697,57.9946],[16.6508,58.0024],[16.6719,58.0079],[16.6819,58.0018],[16.7169,57.9932],[16.7342,58.0032],[16.7208,58.0115],[16.7525,58.0149],[16.7647,58.0062],[16.7981,58.0029],[16.7975,58.0165],[16.7775,58.0149],[16.7747,58.0279],[16.7508,58.0379],[16.7497,58.0568],[16.7286,58.0632],[16.7425,58.0718],[16.7731,58.0704],[16.7647,58.0615],[16.7675,58.0504],[16.8019,58.0443],[16.8136,58.0635],[16.7919,58.0765],[16.7503,58.0901],[16.7447,58.1051],[16.7508,58.1199],[16.7786,58.116],[16.8036,58.1288],[16.8303,58.1326],[16.8219,58.1415],[16.8258,58.1565],[16.8008,58.1615],[16.8131,58.1715],[16.8314,58.169],[16.8553,58.1929],[16.8119,58.2074],[16.7986,58.2165],[16.8003,58.229],[16.7908,58.2379],[16.7586,58.2449],[16.7308,58.259],[16.7547,58.2651],[16.7936,58.2832],[16.8042,58.2954],[16.8386,58.289],[16.8286,58.269],[16.8469,58.2707],[16.8581,58.2646],[16.8758,58.2729],[16.8897,58.2974],[16.8453,58.3124],[16.8231,58.3104],[16.8075,58.3174],[16.7808,58.3187],[16.7475,58.3099],[16.7097,58.3226],[16.6769,58.3307],[16.7058,58.3354],[16.7242,58.3312],[16.7369,58.3474],[16.7564,58.3307],[16.8025,58.3374],[16.7847,58.3454],[16.7931,58.3621],[16.7764,58.3763],[16.7503,58.374],[16.7292,58.3643],[16.7081,58.3696],[16.7197,58.3932],[16.7053,58.4024],[16.6642,58.406],[16.6558,58.4176],[16.6219,58.4207],[16.6142,58.4382],[16.5803,58.4354],[16.5569,58.4457],[16.5231,58.4493],[16.5069,58.4585],[16.4686,58.4651],[16.4403,58.4749],[16.4525,58.4821],[16.4842,58.4732],[16.4986,58.4807],[16.5192,58.4682],[16.5497,58.4571],[16.5775,58.4515],[16.5958,58.4435],[16.6314,58.4454],[16.6397,58.4385],[16.6641,58.4326],[16.7547,58.4254],[16.7892,58.4421],[16.8203,58.4396],[16.8486,58.4435],[16.8681,58.4696],[16.9131,58.4749],[16.9419,58.4743],[16.9497,58.4851],[16.9303,58.4926],[16.9003,58.5099],[16.8831,58.5118],[16.8642,58.5293],[16.8375,58.5426],[16.8319,58.5559],[16.7892,58.5585],[16.7836,58.5685],[16.7681,58.569],[16.8014,58.5965],[16.7736,58.6046],[16.7264,58.606],[16.7219,58.5999],[16.6958,58.5999],[16.6647,58.6162],[16.6136,58.6224],[16.5953,58.629],[16.5792,58.6282],[16.5508,58.6338],[16.5514,58.6196],[16.5192,58.6174],[16.5003,58.6274],[16.4408,58.6379],[16.4286,58.6324],[16.4297,58.5957],[16.4069,58.5851],[16.3958,58.5865],[16.3803,58.6035],[16.3903,58.6113],[16.3608,58.6293],[16.3342,58.6288],[16.3097,58.6068],[16.2608,58.609],[16.2475,58.6168],[16.2169,58.599],[16.2108,58.6076],[16.1847,58.6135],[16.1853,58.6415],[16.2108,58.6304],[16.2575,58.629],[16.2731,58.6443],[16.2492,58.654],[16.2264,58.6571],[16.2275,58.6651],[16.2631,58.6624],[16.2758,58.6679],[16.3169,58.6635],[16.3519,58.6662],[16.3792,58.6585],[16.4647,58.6569],[16.4914,58.6515],[16.5242,58.649],[16.5992,58.6363],[16.6286,58.6385],[16.6536,58.6329],[16.6769,58.6343],[16.7097,58.6268],[16.7653,58.6265],[16.8114,58.6201],[16.8742,58.6179],[16.9069,58.6101],[16.9297,58.6107],[16.9464,58.6168],[16.9925,58.6243],[17.0236,58.626],[17.0308,58.6312],[17.0219,58.6638],[16.9731,58.6621],[16.9414,58.6674],[16.9525,58.6793],[17.0375,58.6718],[17.0419,58.6643],[17.0764,58.6482],[17.0942,58.6504],[17.1247,58.6629],[17.1392,58.6629],[17.1325,58.6796],[17.1442,58.6824],[17.1536,58.6951],[17.1208,58.6988],[17.1158,58.6926],[17.0808,58.6888],[17.0742,58.6951],[17.0875,58.7151],[17.1186,58.7254],[17.1158,58.7287],[17.1103,58.7285],[17.1125,58.7326],[17.0892,58.7396],[17.0642,58.7315],[17.0225,58.7388],[17.0364,58.7446],[17.0542,58.7379],[17.0636,58.7479],[17.0919,58.7412],[17.0969,58.7562],[17.1181,58.7424],[17.1142,58.7379],[17.1153,58.7332],[17.1131,58.7304],[17.1308,58.7263],[17.1581,58.7299],[17.1903,58.7212],[17.2053,58.7318],[17.2414,58.7268],[17.2586,58.7212],[17.2975,58.7293],[17.2858,58.7376],[17.3042,58.7576],[17.3297,58.7468],[17.3536,58.756],[17.3736,58.7451],[17.3992,58.7468],[17.3897,58.7618],[17.3886,58.7768],[17.4025,58.7876],[17.4219,58.7946],[17.4614,58.7868],[17.4853,58.7776],[17.5064,58.7863],[17.4936,58.7965],[17.4619,58.8068],[17.4681,58.8174],[17.4869,58.8171],[17.4947,58.8304],[17.5108,58.8379],[17.4919,58.846],[17.4953,58.8585],[17.4769,58.8618],[17.4758,58.8779],[17.4925,58.8757],[17.5247,58.8485],[17.5403,58.8485],[17.5703,58.836],[17.5831,58.8518],[17.6019,58.8632],[17.5519,58.8729],[17.5503,58.889],[17.5669,58.8926],[17.6208,58.8824],[17.6186,58.8963],[17.6275,58.9049],[17.6181,58.9168],[17.5969,58.9129],[17.5931,58.9276],[17.5719,58.9504],[17.6175,58.9485],[17.6164,58.986],[17.6286,59.0074],[17.6147,59.0215],[17.6136,59.0357],[17.6281,59.0443],[17.6353,59.064],[17.6197,59.0782],[17.6458,59.0885],[17.6536,59.0996],[17.6814,59.1021],[17.6825,59.1232],[17.6653,59.1404],[17.6797,59.1565],[17.6925,59.1149],[17.7064,59.1024],[17.6847,59.0871],[17.6864,59.0654],[17.7403,59.0615],[17.7325,59.0762],[17.7408,59.0843],[17.7375,59.0957],[17.7686,59.1068],[17.7847,59.0965],[17.7531,59.0829],[17.7581,59.0682],[17.7436,59.0601],[17.7492,59.0299],[17.7519,58.9888],[17.7381,58.9782],[17.7369,58.9646],[17.7453,58.9576],[17.7392,58.9299],[17.7458,58.911],[17.7619,58.8993],[17.7747,58.8743],[17.7997,58.866],[17.8164,58.8932],[17.8358,58.8896],[17.8169,58.879],[17.8203,58.8537],[17.8119,58.8537],[17.8181,58.8179],[17.7981,58.8101],[17.7942,58.7968],[17.8258,58.801],[17.8431,58.7968],[17.8531,58.8082],[17.8697,58.811],[17.8647,58.8218],[17.8786,58.8315],[17.9069,58.8293],[17.9342,58.8232],[17.9336,58.851],[17.9142,58.8579],[17.9397,58.8779],[17.9564,58.8957],[17.9642,58.9154],[17.9814,58.9385],[17.9581,58.9488],[17.9558,58.9579],[17.9708,58.9643],[17.9886,58.9851],[18.0153,58.999],[18.0092,59.0054],[18.0264,59.0179],[18.0431,59.0224],[18.0431,59.036],[18.0586,59.0515],[18.1103,59.0501],[18.1047,59.0668],[18.1392,59.0699],[18.1408,59.0776],[18.1708,59.0807],[18.2203,59.0907],[18.2003,59.074],[18.2019,59.0626],[18.2186,59.0626],[18.2564,59.081],[18.2942,59.0829],[18.3331,59.0929],[18.2925,59.0979],[18.2819,59.1132],[18.3436,59.1293],[18.3731,59.1279],[18.3847,59.1374],[18.4081,59.1293],[18.4436,59.1457],[18.4642,59.1593],[18.4553,59.1712],[18.4308,59.1638],[18.3914,59.1607],[18.3625,59.1699],[18.3914,59.1926],[18.3681,59.2038],[18.3569,59.2038],[18.3186,59.2151],[18.3297,59.2301],[18.3603,59.2068],[18.3753,59.2057],[18.4019,59.1954],[18.4086,59.2029],[18.3886,59.2099],[18.3703,59.2287],[18.2992,59.2471],[18.2725,59.2571],[18.2897,59.2665],[18.3025,59.2579],[18.3392,59.2574],[18.3564,59.2699],[18.3353,59.2732],[18.3125,59.2649],[18.3119,59.2804],[18.2964,59.3077],[18.3147,59.3232],[18.3531,59.3126],[18.3436,59.2929],[18.3319,59.2818],[18.3542,59.2726],[18.3925,59.2721],[18.4236,59.2449],[18.4447,59.2365],[18.4569,59.241],[18.4964,59.2146],[18.5231,59.2132],[18.5392,59.2204],[18.5775,59.2215],[18.5753,59.2329],[18.5953,59.2524],[18.5225,59.2718],[18.5281,59.2826],[18.4742,59.2901],[18.4558,59.2904],[18.4492,59.3035],[18.4936,59.2901],[18.5342,59.2829],[18.5603,59.2626],[18.5931,59.2551],[18.6258,59.254],[18.6347,59.2454],[18.6514,59.2487],[18.6542,59.2665],[18.6753,59.2635],[18.7042,59.2785],[18.7081,59.289],[18.6497,59.2915],[18.6647,59.3054],[18.6431,59.3404],[18.6331,59.3376],[18.5836,59.3499],[18.5697,59.3438],[18.5475,59.3551],[18.5269,59.3526],[18.5192,59.3607],[18.5703,59.3535],[18.6058,59.3515],[18.6353,59.3565],[18.6308,59.3662],[18.5781,59.3757],[18.5558,59.3746],[18.5292,59.3854],[18.5369,59.3946],[18.5058,59.4118],[18.4731,59.4215],[18.4558,59.4179],[18.4286,59.424],[18.4353,59.4029],[18.4553,59.394],[18.4575,59.3676],[18.4519,59.3618],[18.4775,59.3376],[18.4808,59.3249],[18.4508,59.3243],[18.4531,59.3343],[18.4164,59.3488],[18.4092,59.3574],[18.3858,59.361],[18.3708,59.3565],[18.3497,59.3638],[18.3147,59.3546],[18.3047,59.3626],[18.2631,59.356],[18.1669,59.3198],[18.1503,59.3204],[18.1542,59.3324],[18.1403,59.341],[18.1181,59.3454],[18.1175,59.3524],[18.0797,59.3782],[18.0992,59.3999],[18.0953,59.4168],[18.1108,59.4368],[18.1492,59.4488],[18.1536,59.4374],[18.1703,59.4368],[18.1547,59.4151],[18.1525,59.3979],[18.1875,59.3932],[18.2069,59.3874],[18.2481,59.3851],[18.2892,59.3879],[18.3164,59.3818],[18.3403,59.3918],[18.3225,59.3985],[18.2903,59.4043],[18.2758,59.4201],[18.3103,59.4485],[18.3592,59.4562],[18.3875,59.4526],[18.4175,59.4801],[18.4414,59.4818],[18.4586,59.5015],[18.4775,59.506],[18.4936,59.5182],[18.5397,59.531],[18.5669,59.5451],[18.5953,59.5554],[18.6303,59.5621],[18.6636,59.5765],[18.6825,59.594],[18.6886,59.6096],[18.7058,59.6101],[18.7125,59.6274],[18.7353,59.6143],[18.7508,59.6193],[18.7353,59.629],[18.7486,59.6385],[18.7047,59.6399],[18.7125,59.6526],[18.7358,59.6593],[18.7653,59.6857],[18.8114,59.6888],[18.8531,59.6985],[18.9069,59.7046],[18.8997,59.7132],[18.9503,59.7151],[18.9686,59.704],[18.9964,59.7026],[19.0308,59.7071],[19.0714,59.7193],[19.0847,59.7318],[19.0892,59.7487],[19.0842,59.7582],[19.0631,59.7654],[19.0008,59.7693],[18.9553,59.776],[18.9186,59.7726],[18.9103,59.7762],[18.8575,59.7735],[18.7931,59.764],[18.7358,59.7515],[18.7203,59.759],[18.7353,59.7657],[18.7547,59.7621],[18.7764,59.7704],[18.8103,59.7729],[18.8219,59.7788],[18.8681,59.7793],[18.8686,59.7888],[18.8892,59.7985],[18.8914,59.806],[18.9253,59.826],[18.9392,59.8429],[18.9475,59.864],[18.9447,59.8779],[18.9236,59.8899],[18.8864,59.9199],[18.8986,59.9249],[18.9175,59.9188],[18.9164,59.9107],[18.9742,59.8735],[18.9792,59.8626],[19.0031,59.8401],[19.0108,59.839],[19.0531,59.816],[19.0731,59.8179],[19.0825,59.8365],[19.0736,59.8479],[19.0842,59.8557],[19.0842,59.8751],[19.0681,59.8865],[19.0158,59.9074],[18.9981,59.9046],[18.9875,59.9121],[18.9631,59.9168],[18.9414,59.9263],[18.9192,59.9249],[18.9258,59.9376],[18.9019,59.9649],[18.915,59.9784],[18.8875,59.992],[18.8835,60.0024],[18.8547,60.0214],[18.825,60.0729],[18.8307,60.0849],[18.8172,60.0943],[18.8349,60.1047],[18.8099,60.1203],[18.7953,60.1099],[18.7578,60.1099],[18.7229,60.125],[18.6875,60.125],[18.6828,60.1328],[18.625,60.1437],[18.6,60.1437],[18.5776,60.137],[18.587,60.1266],[18.5875,60.1104],[18.5661,60.1182],[18.5682,60.1286],[18.5443,60.138],[18.5411,60.1474],[18.5187,60.1542],[18.5,60.1667],[18.4417,60.175],[18.4646,60.1896],[18.4651,60.1995],[18.4807,60.2026],[18.4703,60.2161],[18.4786,60.2245],[18.4984,60.2026],[18.5375,60.1896],[18.55,60.1896],[18.5667,60.2021],[18.588,60.1922],[18.625,60.1937],[18.6167,60.2042],[18.5896,60.2146],[18.5505,60.2089],[18.5271,60.2229],[18.5938,60.2208],[18.6146,60.2333],[18.6078,60.2536],[18.575,60.2562],[18.5479,60.2729],[18.5438,60.2854],[18.5057,60.2932],[18.4875,60.3083],[18.4693,60.3089],[18.4682,60.3307],[18.4458,60.3417],[18.4271,60.3354],[18.3755,60.3422],[18.3667,60.35],[18.3401,60.3484],[18.3276,60.3568],[18.2854,60.3542],[18.2604,60.3354],[18.2318,60.3359],[18.2443,60.3505],[18.2443,60.3599],[18.2807,60.3734],[18.2745,60.3828],[18.2458,60.3812],[18.2208,60.3979],[18.188,60.4005],[18.1813,60.4063],[18.1484,60.413],[18.1453,60.4266],[18.1234,60.4276],[18.0984,60.4516],[18.1078,60.463],[18.0839,60.4714],[18.0578,60.4953],[18.0396,60.4958],[17.9964,60.5109],[18.0021,60.5208],[18.0214,60.5286],[18.0203,60.5516],[18.0083,60.5812],[18.0078,60.5953],[17.9911,60.6036],[17.9667,60.6],[17.9375,60.6021],[17.9208,60.5938],[17.8896,60.5938],[17.8708,60.5854],[17.8292,60.5812],[17.8146,60.5708],[17.7734,60.5682],[17.7516,60.5464],[17.7286,60.5422],[17.7193,60.5307],[17.7328,60.5047],[17.7068,60.5089],[17.7161,60.5203],[17.6937,60.5271],[17.6771,60.5375],[17.6693,60.5172],[17.6422,60.5297],[17.6557,60.5422],[17.6234,60.5401],[17.6411,60.5599],[17.6026,60.5734],[17.6005,60.5953],[17.6224,60.5964],[17.6359,60.6141],[17.6495,60.6151],[17.6641,60.6266],[17.6521,60.6312],[17.6276,60.6276],[17.6214,60.6401],[17.6083,60.6458],[17.5771,60.65],[17.5271,60.6521],[17.5125,60.6479],[17.4776,60.6474],[17.4625,60.6396],[17.4354,60.6479],[17.4021,60.6458],[17.3646,60.6563],[17.2984,60.6609],[17.3026,60.6703],[17.3349,60.6755],[17.3167,60.6937],[17.3021,60.6813],[17.2875,60.6875],[17.2667,60.6854],[17.225,60.6937],[17.2234,60.6974],[17.2641,60.713],[17.2833,60.7271],[17.313,60.7359],[17.3536,60.7536],[17.3234,60.7724],[17.3063,60.7687],[17.288,60.7807],[17.3375,60.7875],[17.3271,60.8083],[17.3042,60.8063],[17.2401,60.8089],[17.2547,60.8286],[17.287,60.8339],[17.2891,60.8474],[17.2734,60.8526],[17.2625,60.8667],[17.3042,60.8667],[17.3307,60.8734],[17.3167,60.8854],[17.2875,60.8771],[17.2526,60.8797],[17.1901,60.9161],[17.1979,60.9271],[17.1589,60.9255],[17.1422,60.9443],[17.1401,60.9557],[17.1599,60.9609],[17.1646,60.9708],[17.2026,60.9932],[17.2292,60.9979],[17.2411,61.0099],[17.1771,61.0083],[17.1839,61.0214],[17.1766,61.0328],[17.1547,61.0495],[17.1646,61.0625],[17.1828,61.0672],[17.1818,61.0828],[17.1995,61.0911],[17.1589,61.112],[17.1807,61.1193],[17.1828,61.1328],[17.1505,61.1505],[17.1714,61.1651],[17.1734,61.1786],[17.1646,61.1896],[17.1307,61.2036],[17.1578,61.213],[17.1667,61.225],[17.1896,61.2208],[17.2047,61.2266],[17.187,61.2432],[17.1932,61.2536],[17.1609,61.263],[17.1729,61.2771],[17.2,61.2771],[17.2229,61.2875],[17.1693,61.3036],[17.1771,61.3083],[17.2443,61.3068],[17.237,61.3182],[17.1901,61.3276],[17.2078,61.338],[17.1583,61.3438],[17.1359,61.3526],[17.1349,61.362],[17.1104,61.375],[17.1141,61.3807],[17.0901,61.3964],[17.0859,61.4161],[17.1266,61.4172],[17.1625,61.4146],[17.1729,61.4208],[17.2104,61.4208],[17.1979,61.4354],[17.1651,61.4297],[17.162,61.437],[17.1359,61.4505],[17.1276,61.4661],[17.1411,61.4672],[17.1745,61.4797],[17.1724,61.487],[17.1401,61.4964],[17.1068,61.5161],[17.1328,61.5161],[17.1208,61.5313],[17.0984,61.5318],[17.0792,61.5438],[17.1021,61.5521],[17.1375,61.5521],[17.1437,61.5479],[17.1979,61.5479],[17.175,61.5563],[17.1146,61.5583],[17.1307,61.5703],[17.0672,61.5714],[17.0875,61.5833],[17.1333,61.5833],[17.1313,61.6042],[17.1521,61.6063],[17.2042,61.6021],[17.2188,61.5938],[17.2396,61.6063],[17.1875,61.6208],[17.1167,61.6167],[17.1266,61.6266],[17.1625,61.6312],[17.1875,61.65],[17.1979,61.6333],[17.2292,61.6396],[17.2536,61.6714],[17.2286,61.6891],[17.2104,61.6917],[17.1896,61.7021],[17.1542,61.7021],[17.1313,61.7083],[17.1021,61.7083],[17.1109,61.7224],[17.1854,61.7167],[17.2229,61.725],[17.2484,61.7214],[17.2443,61.7089],[17.2687,61.7021],[17.2979,61.7],[17.2776,61.6891],[17.2797,61.6755],[17.3021,61.6771],[17.3172,61.6651],[17.3375,61.6646],[17.3453,61.6724],[17.3089,61.6984],[17.3328,61.7026],[17.3526,61.6984],[17.3724,61.687],[17.3734,61.6724],[17.4172,61.6339],[17.438,61.6214],[17.4849,61.6214],[17.4943,61.6474],[17.5016,61.6505],[17.5167,61.6937],[17.5026,61.7068],[17.4562,61.7313],[17.4188,61.7271],[17.3776,61.7339],[17.3776,61.7505],[17.387,61.7703],[17.3625,61.7813],[17.3922,61.7984],[17.4104,61.8042],[17.4083,61.8167],[17.3542,61.8146],[17.337,61.8276],[17.3417,61.8417],[17.325,61.8417],[17.313,61.8536],[17.3521,61.8667],[17.362,61.887],[17.3422,61.8974],[17.338,61.9068],[17.3443,61.9391],[17.338,61.9526],[17.3734,61.962],[17.388,61.9786],[17.3839,61.9859],[17.4042,61.9958],[17.4146,61.9896],[17.4578,62.0005],[17.425,62.0167],[17.4193,62.0266],[17.462,62.0318],[17.4536,62.0557],[17.4339,62.0589],[17.4354,62.0687],[17.4578,62.0693],[17.4688,62.0896],[17.463,62.0953],[17.4724,62.1109],[17.4714,62.1245],[17.5036,62.1422],[17.5099,62.1526],[17.5047,62.1745],[17.5271,62.1667],[17.5391,62.1714],[17.5328,62.187],[17.5099,62.1901],[17.4984,62.2266],[17.5104,62.2292],[17.5646,62.2271],[17.5792,62.2188],[17.5688,62.2104],[17.5396,62.2104],[17.5214,62.2016],[17.5375,62.1896],[17.575,62.1896],[17.5776,62.2016],[17.6021,62.2],[17.6411,62.2172],[17.6484,62.2286],[17.6333,62.2375],[17.6083,62.2396],[17.5771,62.25],[17.5104,62.2583],[17.4729,62.2604],[17.4562,62.2687],[17.4708,62.275],[17.4667,62.2958],[17.4464,62.3109],[17.4286,62.3307],[17.3953,62.3266],[17.3854,62.3104],[17.3714,62.3151],[17.3745,62.3286],[17.3651,62.3349],[17.375,62.3521],[17.3604,62.3917],[17.3974,62.4016],[17.3797,62.4224],[17.3911,62.4276],[17.3849,62.4474],[17.3521,62.4667],[17.3318,62.4714],[17.3359,62.487],[17.3646,62.4958],[17.4042,62.4979],[17.4792,62.5125],[17.5182,62.4849],[17.5193,62.4672],[17.5276,62.4526],[17.5521,62.4437],[17.5812,62.4417],[17.6396,62.4292],[17.6464,62.4172],[17.687,62.4099],[17.7021,62.4],[17.725,62.3979],[17.737,62.412],[17.7146,62.4229],[17.7099,62.4411],[17.6875,62.4437],[17.6568,62.463],[17.663,62.4766],[17.6818,62.4932],[17.7161,62.4984],[17.725,62.5083],[17.7542,62.5042],[17.7813,62.5062],[17.8172,62.4911],[17.8729,62.5083],[17.8875,62.5187],[17.8896,62.5417],[17.9057,62.5484],[17.9161,62.5672],[17.9109,62.587],[17.9266,62.5995],[17.9005,62.6099],[17.9297,62.6172],[17.9359,62.5776],[17.9495,62.5703],[17.9505,62.5578],[17.9771,62.5646],[18.0068,62.5828],[18.0349,62.5901],[18.062,62.613],[18.0266,62.6328],[17.9688,62.6458],[17.9396,62.6375],[17.9349,62.6516],[17.8917,62.6646],[17.8708,62.6604],[17.8464,62.6693],[17.8599,62.6786],[17.8833,62.6667],[17.9208,62.6771],[17.9583,62.6563],[17.9771,62.6563],[17.9693,62.6786],[17.9849,62.688],[17.9891,62.7036],[17.9766,62.7203],[17.9464,62.7297],[17.9724,62.7432],[17.9411,62.7661],[17.9307,62.7932],[17.8771,62.8146],[17.8833,62.8312],[17.8797,62.8453],[17.8932,62.8526],[17.8854,62.8667],[17.8667,62.8688],[17.8745,62.8828],[17.8609,62.8859],[17.8578,62.9016],[17.8359,62.9151],[17.837,62.9266],[17.8167,62.9396],[17.7797,62.9422],[17.7766,62.9536],[17.7589,62.9609],[17.7516,62.9724],[17.7229,62.9729],[17.6943,62.9839],[17.7068,62.9943],[17.7458,62.9813],[17.7703,63.0036],[17.8188,63.0104],[17.8245,63.0026],[17.7953,62.9984],[17.7859,62.9849],[17.7943,62.9672],[17.8167,62.9646],[17.8557,62.9411],[17.8693,62.9172],[17.9021,62.9125],[17.9172,62.9047],[17.8995,62.8839],[17.9089,62.8526],[17.9182,62.8411],[17.9125,62.8312],[17.9307,62.8245],[17.9464,62.8026],[17.9703,62.8068],[17.9672,62.8245],[17.9937,62.8312],[18.0005,62.8411],[18.0307,62.8443],[18.05,62.8521],[18.0667,62.8396],[18.0812,62.8417],[18.1099,62.8328],[18.1151,62.8255],[18.1542,62.8125],[18.1042,62.8104],[18.05,62.8208],[18.0203,62.8161],[17.9979,62.8271],[17.9818,62.8182],[17.9818,62.8089],[18.0563,62.7979],[18.0672,62.787],[18.1172,62.7703],[18.1391,62.7776],[18.1755,62.8203],[18.1891,62.813],[18.1776,62.7943],[18.2125,62.7938],[18.2307,62.7984],[18.2724,62.8214],[18.2849,62.8516],[18.2396,62.85],[18.2234,62.8328],[18.2089,62.8297],[18.2005,62.8609],[18.2276,62.8911],[18.2479,62.9],[18.2932,62.8953],[18.2922,62.8755],[18.3151,62.8557],[18.3479,62.8354],[18.3953,62.8526],[18.4005,62.8682],[18.4313,62.8667],[18.4557,62.8755],[18.4568,62.8901],[18.4036,62.9099],[18.4271,62.9125],[18.4609,62.9047],[18.487,62.9089],[18.512,62.9339],[18.4875,62.9437],[18.4359,62.937],[18.3979,62.9562],[18.4141,62.9693],[18.4375,62.9646],[18.4625,62.9708],[18.4854,62.9604],[18.5146,62.9562],[18.5214,62.9693],[18.5438,62.9583],[18.5578,62.963],[18.538,62.9734],[18.537,62.9891],[18.4771,63],[18.45,63],[18.4021,63.0062],[18.3458,62.9979],[18.3411,62.9901],[18.3167,62.9833],[18.2687,62.9979],[18.2932,63.0089],[18.2958,63.0187],[18.3312,63.0146],[18.337,63.0224],[18.325,63.0458],[18.3453,63.0495],[18.3526,63.0359],[18.3708,63.0208],[18.4313,63.0208],[18.3943,63.038],[18.387,63.0516],[18.3688,63.0521],[18.3667,63.0646],[18.4042,63.0583],[18.4307,63.062],[18.438,63.0484],[18.4536,63.0411],[18.4484,63.0297],[18.4708,63.0292],[18.4911,63.0609],[18.512,63.0714],[18.5328,63.1047],[18.5234,63.1266],[18.5349,63.1297],[18.5313,63.1458],[18.55,63.1542],[18.5547,63.1318],[18.575,63.1208],[18.6016,63.1266],[18.5901,63.137],[18.6036,63.1453],[18.5839,63.1766],[18.6146,63.1792],[18.6354,63.1854],[18.6599,63.1766],[18.663,63.1693],[18.6938,63.1729],[18.7057,63.2036],[18.6943,63.2109],[18.6953,63.2245],[18.675,63.2313],[18.675,63.2417],[18.7354,63.2375],[18.7396,63.2292],[18.7151,63.2245],[18.7109,63.2005],[18.7375,63.1771],[18.7771,63.1958],[18.7979,63.1979],[18.8271,63.2146],[18.8521,63.2042],[18.8828,63.2047],[18.8854,63.2333],[18.7854,63.2438],[18.7693,63.2484],[18.788,63.2641],[18.8047,63.2526],[18.8271,63.25],[18.8578,63.2589],[18.8641,63.2703],[18.8484,63.2859],[18.8703,63.2932],[18.8932,63.2724],[18.8693,63.262],[18.8672,63.2443],[18.8854,63.2396],[18.913,63.2505],[18.9245,63.2474],[18.9609,63.2109],[18.9911,63.2099],[18.9922,63.2005],[19.0125,63.1875],[19.0349,63.1901],[19.0307,63.2109],[19.0604,63.2083],[19.0849,63.2172],[19.0833,63.2313],[19.0609,63.2339],[19.0521,63.2417],[19.0286,63.2307],[19.0245,63.2505],[19.0375,63.2625],[19.0917,63.2375],[19.1099,63.2464],[19.112,63.2714],[19.1307,63.3078],[19.1349,63.3276],[19.1828,63.3234],[19.2021,63.3312],[19.2396,63.3271],[19.2516,63.3339],[19.2521,63.35],[19.2422,63.3703],[19.2604,63.4042],[19.2547,63.4099],[19.262,63.4266],[19.2547,63.437],[19.2651,63.4578],[19.2901,63.4766],[19.3151,63.4547],[19.338,63.4484],[19.3464,63.4401],[19.3896,63.4604],[19.4188,63.4625],[19.4438,63.4562],[19.4557,63.4661],[19.4875,63.4813],[19.512,63.4859],[19.5021,63.4958],[19.4813,63.4917],[19.4484,63.5068],[19.4474,63.5161],[19.4297,63.5214],[19.4526,63.5359],[19.438,63.5464],[19.4453,63.5599],[19.438,63.5682],[19.4729,63.5708],[19.5161,63.5474],[19.5234,63.5359],[19.5438,63.5292],[19.5625,63.5313],[19.5849,63.5245],[19.5818,63.513],[19.5995,63.4984],[19.5943,63.4901],[19.6047,63.4776],[19.6224,63.4703],[19.6193,63.4505],[19.6411,63.4516],[19.6484,63.4318],[19.6938,63.4417],[19.7026,63.4516],[19.7313,63.4625],[19.7641,63.4651],[19.7599,63.487],[19.7516,63.4974],[19.7229,63.5146],[19.7495,63.5255],[19.7484,63.5391],[19.8203,63.5547],[19.8391,63.5672],[19.8714,63.5995],[19.9141,63.6026],[19.9214,63.6182],[19.9354,63.6229],[19.9792,63.6104],[20.012,63.6141],[19.9922,63.6297],[19.9984,63.662],[20.0146,63.6688],[20.0646,63.6729],[20.1083,63.6521],[20.1688,63.6604],[20.2083,63.6563],[20.2328,63.662],[20.2193,63.6807],[20.2417,63.6958],[20.2578,63.6891],[20.2536,63.6693],[20.3057,63.6568],[20.3161,63.6724],[20.2984,63.687],[20.3266,63.6984],[20.3203,63.7182],[20.2984,63.7318],[20.3005,63.7411],[20.3292,63.7479],[20.3479,63.7458],[20.3724,63.7328],[20.3667,63.7208],[20.3464,63.7016],[20.3682,63.6932],[20.3797,63.6818],[20.4078,63.6828],[20.3901,63.6953],[20.4245,63.6984],[20.4391,63.7328],[20.4297,63.7422],[20.4422,63.762],[20.4688,63.7729],[20.4932,63.7922],[20.4901,63.8078],[20.5109,63.8172],[20.5245,63.812],[20.5214,63.7922],[20.5266,63.7797],[20.5089,63.7755],[20.5328,63.7641],[20.5297,63.7516],[20.5396,63.7354],[20.5745,63.737],[20.5604,63.7625],[20.5641,63.7734],[20.5547,63.7859],[20.5599,63.7953],[20.6182,63.8161],[20.6391,63.8057],[20.6443,63.7922],[20.6703,63.7964],[20.6734,63.813],[20.7036,63.8245],[20.6526,63.8297],[20.6547,63.8411],[20.6688,63.8521],[20.6917,63.8563],[20.7057,63.8516],[20.7375,63.8563],[20.7745,63.8734],[20.7755,63.8828],[20.7922,63.9036],[20.7943,63.9391],[20.8208,63.9396],[20.8536,63.9557],[20.8604,63.9813],[20.8901,63.9776],[20.8984,64.0036],[20.9182,64.0089],[20.912,64.0224],[20.8964,64.0297],[20.9036,64.0422],[20.9245,64.0443],[20.9432,64.0641],[20.9318,64.0714],[20.9375,64.0833],[20.9599,64.0901],[20.9547,64.1099],[20.9641,64.1224],[20.9578,64.1318],[20.9651,64.1432],[21.0042,64.1604],[21.0203,64.1589],[21.0464,64.1859],[21.0505,64.1974],[21.0786,64.2047],[21.1286,64.2005],[21.1432,64.2193],[21.1724,64.2318],[21.1734,64.2516],[21.2057,64.2568],[21.2047,64.2682],[21.2234,64.287],[21.263,64.2922],[21.287,64.288],[21.2917,64.2979],[21.3146,64.3042],[21.3453,64.3068],[21.3401,64.3141],[21.4104,64.3292],[21.4068,64.3432],[21.4229,64.3562],[21.4375,64.3479],[21.4599,64.3505],[21.4693,64.3786],[21.4953,64.3839],[21.4922,64.3974],[21.5292,64.4187],[21.55,64.4187],[21.5833,64.4375],[21.6083,64.4354],[21.6161,64.4443],[21.5995,64.4599],[21.5589,64.4568],[21.5396,64.4729],[21.5182,64.4609],[21.5141,64.4484],[21.4896,64.4458],[21.4714,64.4505],[21.4724,64.5078],[21.4521,64.5167],[21.4146,64.5104],[21.4255,64.5349],[21.4583,64.5417],[21.4813,64.5208],[21.5104,64.5083],[21.5271,64.525],[21.4797,64.5401],[21.4828,64.5703],[21.4484,64.5807],[21.438,64.562],[21.4193,64.563],[21.3953,64.5891],[21.3604,64.6042],[21.3396,64.5938],[21.3474,64.5839],[21.313,64.5818],[21.2938,64.6042],[21.2729,64.6083],[21.2479,64.6062],[21.2297,64.6182],[21.2411,64.6276],[21.2391,64.6432],[21.2229,64.6563],[21.1854,64.6583],[21.1771,64.6667],[21.2057,64.6693],[21.1974,64.6828],[21.2911,64.6849],[21.2443,64.7109],[21.2125,64.7396],[21.2375,64.7458],[21.2938,64.7458],[21.2766,64.7662],[21.2458,64.7792],[21.1917,64.7792],[21.1792,64.775],[21.125,64.775],[21.0917,64.7937],[21.1182,64.7953],[21.0542,64.8229],[21.0271,64.825],[21.0151,64.8557],[21.025,64.8562],[21.0568,64.8443],[21.0958,64.825],[21.1333,64.8167],[21.1563,64.8354],[21.1786,64.8411],[21.1568,64.8557],[21.2224,64.863],[21.212,64.8703],[21.2161,64.8828],[21.1995,64.8912],[21.2391,64.9026],[21.2234,64.9099],[21.2401,64.9234],[21.2255,64.9359],[21.2417,64.9479],[21.2813,64.9563],[21.3083,64.9563],[21.3271,64.9625],[21.3464,64.9568],[21.3849,64.9568],[21.3568,64.9714],[21.3563,64.9833],[21.3667,64.9938],[21.3917,64.9938],[21.3901,65.013],[21.4167,65.0125],[21.4609,65.0214],[21.4604,65.0396],[21.4443,65.0484],[21.4479,65.0604],[21.5297,65.0568],[21.5495,65.0651],[21.512,65.087],[21.5307,65.0964],[21.5255,65.1078],[21.5391,65.1245],[21.5089,65.1432],[21.5625,65.1396],[21.5891,65.1422],[21.5891,65.1516],[21.5734,65.1651],[21.5703,65.1766],[21.5526,65.188],[21.5495,65.1995],[21.5318,65.2047],[21.537,65.2203],[21.5255,65.2286],[21.5521,65.2333],[21.5771,65.2438],[21.6161,65.2453],[21.6693,65.2151],[21.7,65.2104],[21.7339,65.2109],[21.7,65.2333],[21.6714,65.2255],[21.6495,65.237],[21.6359,65.2547],[21.6682,65.2662],[21.6651,65.2786],[21.6854,65.2958],[21.7141,65.3026],[21.7021,65.3146],[21.6807,65.3089],[21.6786,65.2943],[21.6521,65.2896],[21.6151,65.3026],[21.6068,65.3109],[21.637,65.3245],[21.6146,65.3354],[21.5875,65.3271],[21.5688,65.3417],[21.5479,65.3417],[21.4979,65.3521],[21.475,65.3417],[21.462,65.3557],[21.4932,65.3609],[21.4896,65.3729],[21.4651,65.3734],[21.4484,65.387],[21.5089,65.3859],[21.5104,65.3979],[21.5542,65.3958],[21.5807,65.3828],[21.587,65.3724],[21.5839,65.3547],[21.6026,65.3484],[21.6542,65.3417],[21.6641,65.3516],[21.6099,65.3766],[21.5755,65.388],[21.5589,65.4047],[21.5583,65.425],[21.5729,65.425],[21.5964,65.413],[21.6313,65.4063],[21.6625,65.4063],[21.6828,65.3984],[21.6943,65.412],[21.7203,65.4078],[21.7458,65.3979],[21.8849,65.4047],[21.9229,65.3979],[21.9245,65.4182],[21.8943,65.4349],[21.9313,65.4417],[21.9578,65.4328],[21.9589,65.4213],[21.9953,65.4172],[22.0047,65.4537],[22.0203,65.4589],[22.0167,65.4688],[21.9797,65.4693],[21.8833,65.5271],[21.9229,65.5271],[21.9479,65.5188],[21.9771,65.5188],[21.9979,65.5125],[22.0417,65.5188],[22.0651,65.5182],[22.0776,65.5266],[22.1104,65.5229],[22.1333,65.5125],[22.1557,65.5193],[22.1589,65.5349],[22.1443,65.5463],[22.137,65.562],[22.112,65.5807],[22.0417,65.5833],[22.0125,65.5896],[21.9443,65.6255],[21.937,65.637],[21.888,65.6484],[21.875,65.6604],[21.8563,65.6563],[21.8193,65.6693],[21.8182,65.6807],[21.7922,65.6901],[21.7901,65.7068],[21.8161,65.7016],[21.8307,65.6911],[21.8422,65.6713],[21.9021,65.6687],[21.9266,65.6599],[21.9422,65.6464],[21.9792,65.6458],[22.0057,65.6391],[22.0286,65.6182],[22.0109,65.6026],[22.0234,65.5943],[22.0521,65.5875],[22.0828,65.5922],[22.0682,65.6057],[22.087,65.612],[22.1271,65.5938],[22.1536,65.5932],[22.15,65.5833],[22.1745,65.5766],[22.1984,65.5641],[22.2193,65.5807],[22.238,65.5672],[22.2682,65.5682],[22.2792,65.5563],[22.3208,65.5625],[22.3484,65.5484],[22.3958,65.5354],[22.3995,65.5516],[22.3667,65.5813],[22.3047,65.5984],[22.3188,65.6083],[22.387,65.6193],[22.3688,65.6354],[22.3396,65.6438],[22.3026,65.6609],[22.2609,65.6703],[22.2661,65.6589],[22.238,65.6484],[22.2339,65.6745],[22.2661,65.6776],[22.2583,65.6958],[22.287,65.7016],[22.288,65.6901],[22.3068,65.6776],[22.3422,65.6661],[22.3703,65.6693],[22.3526,65.6839],[22.3578,65.7016],[22.3172,65.713],[22.3328,65.7318],[22.338,65.7484],[22.3062,65.7813],[22.3484,65.7839],[22.3359,65.7922],[22.3703,65.7995],[22.3536,65.8203],[22.362,65.8297],[22.3641,65.8495],[22.3505,65.8568],[22.3729,65.8688],[22.4,65.8583],[22.4396,65.8625],[22.4484,65.8505],[22.5099,65.8245],[22.5286,65.812],[22.5068,65.7797],[22.5391,65.7755],[22.5542,65.7875]]],[[[14.8486,56.0174],[14.8331,56.0168],[14.8403,55.9996],[14.8581,56.0057],[14.8486,56.0174]]],[[[15.6369,56.1326],[15.6136,56.1288],[15.5942,56.111],[15.6075,56.0974],[15.6308,56.1035],[15.6292,56.1235],[15.6369,56.1326]]],[[[15.4569,56.1657],[15.4392,56.166],[15.4136,56.1576],[15.4192,56.1424],[15.4492,56.1485],[15.4569,56.1657]]],[[[15.6481,56.1779],[15.6269,56.1735],[15.6325,56.161],[15.6581,56.1618],[15.6481,56.1779]]],[[[12.5619,56.4532],[12.5403,56.4504],[12.5642,56.4296],[12.5831,56.4379],[12.5619,56.4532]]],[[[12.6958,55.9201],[12.6653,55.9199],[12.6686,55.9126],[12.7081,55.8896],[12.7225,55.8971],[12.7264,55.9096],[12.6958,55.9201]]],[[[11.7925,57.5851],[11.7753,57.5865],[11.7797,57.5629],[11.7942,57.5618],[11.7925,57.5851]]],[[[11.8052,57.6231],[11.7758,57.6196],[11.7631,57.6046],[11.7731,57.5982],[11.8114,57.5915],[11.8114,57.6054],[11.7964,57.6126],[11.8052,57.6231]]],[[[15.8036,56.0324],[15.7753,56.0207],[15.7908,56.0129],[15.8036,56.0324]]],[[[15.7819,56.0985],[15.7503,56.0887],[15.7397,56.0721],[15.7725,56.079],[15.7864,56.091],[15.7819,56.0985]]],[[[15.6692,56.1237],[15.6531,56.1246],[15.6342,56.0974],[15.6519,56.0907],[15.6647,56.0788],[15.6808,56.0732],[15.7014,56.0732],[15.7069,56.0832],[15.6903,56.1054],[15.7075,56.1118],[15.6919,56.121],[15.6692,56.1237]]],[[[15.4892,56.1193],[15.4803,56.1249],[15.4369,56.1126],[15.4381,56.1043],[15.4614,56.0951],[15.4847,56.1051],[15.4892,56.1193]]],[[[15.5353,56.1288],[15.5197,56.1229],[15.5142,56.1124],[15.5214,56.1015],[15.5497,56.0979],[15.5608,56.1018],[15.5686,56.119],[15.5603,56.1268],[15.5353,56.1288]]],[[[16.7164,56.6524],[16.7175,56.6654],[16.7408,56.6876],[16.7375,56.706],[16.7581,56.7246],[16.7625,56.7524],[16.7747,56.7663],[16.7814,56.7938],[16.7875,56.8013],[16.8197,56.8179],[16.8581,56.8321],[16.8614,56.8587],[16.8558,56.8632],[16.8631,56.879],[16.8581,56.8876],[16.8836,56.9065],[16.8958,56.9215],[16.8886,56.9326],[16.9031,56.9432],[16.8881,56.9496],[16.8786,56.9685],[16.8853,56.9849],[16.9014,56.9846],[16.9292,57.014],[16.9069,57.0251],[16.9164,57.0415],[16.9542,57.0382],[16.9564,57.061],[16.9814,57.0704],[16.9692,57.0757],[16.9764,57.0882],[16.9908,57.0893],[16.9869,57.1049],[17.0103,57.1182],[17.0136,57.1282],[17.0308,57.1457],[17.0319,57.1618],[17.0503,57.1757],[17.0731,57.1804],[17.0664,57.1968],[17.0808,57.2349],[17.0536,57.2599],[17.0575,57.2782],[17.0714,57.2907],[17.0936,57.3029],[17.1219,57.3104],[17.1453,57.3082],[17.1403,57.3262],[17.1281,57.3396],[17.0853,57.3451],[17.0664,57.3662],[17.0164,57.3413],[16.9953,57.3176],[16.9858,57.3135],[16.9569,57.286],[16.9608,57.2296],[16.9331,57.2074],[16.9086,57.2035],[16.9008,57.1949],[16.9214,57.1651],[16.9164,57.1504],[16.9008,57.1326],[16.8969,57.1121],[16.8853,57.0962],[16.8758,57.0938],[16.8381,57.0599],[16.8242,57.0407],[16.8253,57.0176],[16.7981,57.0051],[16.7769,56.9874],[16.7653,56.9665],[16.7336,56.9324],[16.7225,56.8963],[16.7236,56.8849],[16.7097,56.8799],[16.6953,56.8846],[16.6331,56.8765],[16.6053,56.8476],[16.6008,56.8351],[16.5619,56.7946],[16.5414,56.7654],[16.5258,56.7574],[16.5236,56.7468],[16.5031,56.7137],[16.4847,56.6999],[16.4719,56.676],[16.4731,56.6563],[16.4608,56.6499],[16.4592,56.6346],[16.4281,56.6029],[16.4142,56.6007],[16.4142,56.5896],[16.3953,56.5607],[16.3903,56.5379],[16.3697,56.5235],[16.3797,56.5013],[16.3708,56.4629],[16.3797,56.4432],[16.3792,56.4271],[16.4069,56.4138],[16.4025,56.3951],[16.4053,56.3568],[16.4086,56.351],[16.4042,56.3201],[16.3925,56.2735],[16.4103,56.2524],[16.3964,56.2212],[16.4092,56.1996],[16.4408,56.2204],[16.4686,56.2265],[16.4842,56.2412],[16.4897,56.2601],[16.5169,56.3015],[16.5331,56.3168],[16.5664,56.3635],[16.5631,56.3821],[16.5714,56.3935],[16.5669,56.4021],[16.5958,56.446],[16.6031,56.4507],[16.6208,56.4893],[16.6164,56.4943],[16.6331,56.5107],[16.6386,56.5282],[16.6336,56.5376],[16.6503,56.5629],[16.6636,56.5665],[16.6919,56.5832],[16.7036,56.5999],[16.6969,56.6179],[16.7164,56.6524]]],[[[16.5047,57.0132],[16.5181,56.9954],[16.5342,57.0024],[16.5047,57.0132]]],[[[16.5892,57.1179],[16.5858,57.104],[16.6058,57.1063],[16.5892,57.1179]]],[[[16.5658,57.1746],[16.5381,57.1763],[16.5258,57.1618],[16.5431,57.1476],[16.5675,57.1596],[16.5658,57.1746]]],[[[16.5803,57.3338],[16.5586,57.3307],[16.5597,57.3121],[16.5764,57.3082],[16.5903,57.3185],[16.5803,57.3338]]],[[[16.6792,57.5496],[16.6886,57.534],[16.7025,57.5399],[16.6792,57.5496]]],[[[16.7931,57.961],[16.7781,57.9579],[16.7719,57.9465],[16.8025,57.9399],[16.7931,57.961]]],[[[16.7203,57.6213],[16.6992,57.6146],[16.6958,57.599],[16.6708,57.6032],[16.6603,57.5993],[16.6581,57.5824],[16.7031,57.5774],[16.7175,57.5971],[16.7281,57.6007],[16.7303,57.6193],[16.7203,57.6213]]],[[[16.6553,57.6574],[16.6397,57.6496],[16.6458,57.6387],[16.6653,57.6396],[16.6553,57.6574]]],[[[16.6675,57.8357],[16.6703,57.8135],[16.6553,57.799],[16.6792,57.7943],[16.6997,57.7835],[16.7214,57.7915],[16.7242,57.8029],[16.7097,57.8085],[16.6942,57.8243],[16.6675,57.8357]]],[[[16.7131,57.8526],[16.7014,57.8462],[16.7203,57.834],[16.7425,57.8085],[16.7825,57.8101],[16.7581,57.8224],[16.7736,57.8324],[16.7464,57.8371],[16.7131,57.8526]]],[[[16.5792,57.8696],[16.5586,57.8704],[16.5564,57.861],[16.5764,57.8568],[16.5792,57.8696]]],[[[16.8253,58.1196],[16.7858,58.1143],[16.7836,58.1024],[16.7975,58.0924],[16.8458,58.0907],[16.8353,58.1043],[16.8158,58.1013],[16.8253,58.1196]]],[[[16.9058,58.1993],[16.9092,58.1849],[16.9325,58.1787],[16.9469,58.1813],[16.9447,58.1968],[16.9214,58.204],[16.9058,58.1993]]],[[[11.6358,57.7021],[11.6303,57.6943],[11.6358,57.681],[11.6653,57.6787],[11.6647,57.6974],[11.6358,57.7021]]],[[[11.6569,57.7196],[11.6519,57.726],[11.6292,57.7279],[11.6331,57.7043],[11.6603,57.7038],[11.6569,57.7196]]],[[[11.6903,57.7535],[11.6708,57.7518],[11.6669,57.7418],[11.6725,57.7232],[11.6875,57.7263],[11.7019,57.7374],[11.6903,57.7535]]],[[[11.6508,57.7285],[11.6625,57.7316],[11.6503,57.7443],[11.6319,57.7426],[11.6508,57.7285]]],[[[11.6086,57.7901],[11.5981,57.7837],[11.6053,57.769],[11.6281,57.7738],[11.6086,57.7901]]],[[[11.8042,57.661],[11.7575,57.6554],[11.7314,57.6432],[11.7819,57.6307],[11.7903,57.6404],[11.8097,57.6457],[11.8042,57.661]]],[[[11.6069,57.9007],[11.5786,57.8996],[11.5675,57.8838],[11.5764,57.8621],[11.6025,57.8551],[11.6208,57.8643],[11.6414,57.881],[11.6242,57.9007],[11.6069,57.9007]]],[[[11.6486,57.9046],[11.6286,57.8993],[11.6403,57.8868],[11.6631,57.8965],[11.6486,57.9046]]],[[[11.7053,58.0901],[11.7264,58.0962],[11.7358,58.1162],[11.7614,58.1132],[11.7636,58.1243],[11.7992,58.1335],[11.8036,58.1254],[11.8236,58.1243],[11.8292,58.1426],[11.8503,58.1696],[11.8425,58.179],[11.8453,58.1996],[11.8358,58.2121],[11.8425,58.2337],[11.8114,58.2565],[11.7825,58.2576],[11.7603,58.2649],[11.7681,58.274],[11.7647,58.2865],[11.7525,58.2993],[11.7286,58.3018],[11.7092,58.299],[11.6775,58.2815],[11.6781,58.2412],[11.6414,58.251],[11.6192,58.2496],[11.6014,58.2385],[11.5581,58.2188],[11.5247,58.2001],[11.4958,58.2024],[11.4492,58.1763],[11.4175,58.1782],[11.4075,58.1693],[11.4181,58.159],[11.4103,58.1429],[11.4247,58.1218],[11.4681,58.1174],[11.4686,58.101],[11.4592,58.0879],[11.4758,58.0768],[11.4881,58.0821],[11.4986,58.1029],[11.5447,58.0857],[11.5586,58.0871],[11.5714,58.1107],[11.5814,58.1207],[11.5997,58.124],[11.6236,58.1343],[11.6508,58.1213],[11.6375,58.1132],[11.6953,58.1129],[11.7031,58.0999],[11.6808,58.0921],[11.6669,58.0935],[11.6197,58.0529],[11.5925,58.0501],[11.5681,58.0629],[11.5119,58.054],[11.5036,58.0288],[11.4881,58.0238],[11.5264,58.0054],[11.5731,58.016],[11.5869,58.0074],[11.5431,58.0065],[11.5364,57.9888],[11.5225,57.9796],[11.5608,57.9529],[11.5653,57.9362],[11.5936,57.9321],[11.6319,57.949],[11.6392,57.9596],[11.6703,57.9618],[11.6858,57.9688],[11.6753,57.9815],[11.6947,57.9824],[11.6919,58.001],[11.6836,58.0082],[11.7075,58.014],[11.7275,58.0043],[11.7092,57.9974],[11.7247,57.9907],[11.7569,58.0065],[11.7658,58.0357],[11.7569,58.0524],[11.7658,58.0646],[11.7119,58.066],[11.7053,58.0901]]],[[[11.4592,58.0718],[11.4442,58.0696],[11.4553,58.0568],[11.4708,58.0601],[11.4592,58.0718]]],[[[11.511,58.0976],[11.4958,58.0865],[11.4992,58.0643],[11.5258,58.061],[11.5281,58.0721],[11.5481,58.0815],[11.511,58.0976]]],[[[17.9858,57.2912],[17.9586,57.2915],[17.9597,57.2782],[17.9908,57.2829],[17.9858,57.2912]]],[[[17.4769,58.7762],[17.4736,58.7646],[17.4419,58.7613],[17.4231,58.7485],[17.4314,58.7318],[17.4597,58.704],[17.4814,58.7052],[17.4925,58.7149],[17.4686,58.7301],[17.4881,58.736],[17.5181,58.7274],[17.5097,58.7432],[17.4769,58.7762]]],[[[18.7381,57.9285],[18.6981,57.9221],[18.6864,57.9135],[18.6387,57.8949],[18.6214,57.8826],[18.6158,57.854],[18.6064,57.8429],[18.5836,57.839],[18.5664,57.8454],[18.5441,57.8399],[18.5264,57.8285],[18.4965,57.8307],[18.4603,57.8193],[18.4269,57.7837],[18.4103,57.7518],[18.3908,57.7279],[18.3664,57.7071],[18.3542,57.691],[18.3342,57.6774],[18.3314,57.6697],[18.2969,57.6496],[18.2719,57.6318],[18.2608,57.6182],[18.2164,57.601],[18.1997,57.5999],[18.1692,57.5843],[18.1397,57.5643],[18.1047,57.5346],[18.1092,57.5021],[18.1281,57.4901],[18.1214,57.4676],[18.1253,57.451],[18.1203,57.4427],[18.1442,57.4341],[18.1481,57.4138],[18.1847,57.3988],[18.1814,57.3799],[18.1703,57.3699],[18.1831,57.349],[18.1708,57.3307],[18.1697,57.3199],[18.1247,57.2938],[18.1031,57.2893],[18.0914,57.2593],[18.1131,57.2574],[18.1208,57.249],[18.1514,57.244],[18.1464,57.2349],[18.1542,57.2071],[18.1486,57.1921],[18.1675,57.1824],[18.1497,57.1682],[18.1703,57.1468],[18.1986,57.1454],[18.2181,57.1357],[18.2242,57.1165],[18.2147,57.1085],[18.2131,57.0949],[18.1969,57.0657],[18.2114,57.0593],[18.2408,57.0646],[18.2486,57.0774],[18.2814,57.0896],[18.2953,57.0913],[18.2981,57.0746],[18.2886,57.0488],[18.2764,57.036],[18.2425,57.0354],[18.2181,57.0307],[18.1975,57.0182],[18.2042,56.9996],[18.1925,56.9954],[18.1869,56.9818],[18.1547,56.9538],[18.1408,56.9346],[18.1225,56.9201],[18.1264,56.9079],[18.1653,56.9135],[18.1931,56.9051],[18.2536,56.9279],[18.2936,56.9287],[18.3086,56.9457],[18.3242,56.949],[18.3208,56.9646],[18.3631,56.984],[18.3564,56.9949],[18.3753,56.9974],[18.3425,57.0135],[18.3375,57.0268],[18.3469,57.0363],[18.3369,57.0724],[18.3497,57.0751],[18.3825,57.1005],[18.4175,57.1127],[18.4414,57.1099],[18.4547,57.1174],[18.4369,57.1232],[18.4003,57.1193],[18.3886,57.1268],[18.4175,57.1485],[18.4481,57.1538],[18.4643,57.1657],[18.5369,57.1891],[18.5564,57.1926],[18.5453,57.2071],[18.5697,57.2176],[18.6214,57.2201],[18.6469,57.219],[18.6753,57.2293],[18.6881,57.2179],[18.7025,57.2335],[18.6819,57.2346],[18.6708,57.2443],[18.6992,57.2457],[18.7159,57.2629],[18.7108,57.276],[18.6836,57.2751],[18.6658,57.284],[18.6636,57.299],[18.6881,57.3207],[18.7164,57.3226],[18.7119,57.3324],[18.7225,57.3421],[18.7397,57.3462],[18.7558,57.3638],[18.7931,57.3746],[18.8069,57.3718],[18.8214,57.3824],[18.8436,57.3841],[18.8509,57.3963],[18.8681,57.399],[18.8937,57.3929],[18.9164,57.4018],[18.9275,57.4243],[18.9142,57.4229],[18.8908,57.4449],[18.8719,57.446],[18.8575,57.4343],[18.8419,57.4413],[18.8181,57.439],[18.7853,57.4524],[18.8036,57.4676],[18.792,57.4741],[18.7697,57.4674],[18.7681,57.5004],[18.7497,57.5096],[18.7692,57.5274],[18.7809,57.5285],[18.7909,57.5493],[18.8119,57.5532],[18.8164,57.5601],[18.7997,57.5683],[18.7947,57.5915],[18.8086,57.5993],[18.7986,57.6093],[18.7637,57.6151],[18.7731,57.6477],[18.7975,57.656],[18.7981,57.6712],[18.8069,57.6785],[18.7997,57.6946],[18.7758,57.6868],[18.7759,57.6999],[18.8097,57.7019],[18.8136,57.711],[18.8008,57.7182],[18.8031,57.7405],[18.8142,57.7491],[18.8292,57.743],[18.8358,57.7301],[18.8642,57.7215],[18.8831,57.7346],[18.8947,57.7176],[18.9331,57.7326],[18.9442,57.7226],[18.9581,57.7357],[18.9492,57.7399],[18.9542,57.7599],[18.9492,57.784],[18.9742,57.7754],[18.9925,57.776],[18.9903,57.7938],[19.0147,57.8074],[19.0158,57.8265],[19.0464,57.8379],[19.0586,57.8262],[19.0719,57.834],[19.0869,57.8149],[19.0992,57.8174],[19.0875,57.8444],[19.0681,57.8499],[19.0509,57.8693],[19.0286,57.8699],[19.0236,57.8815],[19.0242,57.9074],[19.0042,57.9162],[18.9575,57.914],[18.9275,57.9265],[18.9031,57.924],[18.8921,57.9291],[18.8547,57.9249],[18.8442,57.9193],[18.8325,57.8985],[18.8442,57.8918],[18.8453,57.879],[18.8264,57.8779],[18.8131,57.8674],[18.8003,57.8407],[18.7825,57.8471],[18.7786,57.8782],[18.7653,57.9071],[18.7503,57.9243],[18.7381,57.9285]]],[[[18.6464,59.0962],[18.6247,59.0988],[18.6131,59.0907],[18.6242,59.0843],[18.6464,59.0962]]],[[[17.5997,58.8465],[17.5931,58.8404],[17.6181,58.8262],[17.6331,58.8238],[17.6669,58.8021],[17.6814,58.8124],[17.6292,58.8329],[17.5986,58.8401],[17.5997,58.8465]]],[[[17.5775,58.8871],[17.5564,58.8887],[17.5647,58.8718],[17.5875,58.8782],[17.5775,58.8871]]],[[[18.1625,58.9024],[18.1297,58.894],[18.1225,58.8832],[18.1031,58.879],[18.0942,58.8599],[18.0997,58.8529],[18.1264,58.861],[18.1386,58.8713],[18.1408,58.8879],[18.1625,58.9024]]],[[[17.9747,58.9043],[17.9625,58.9024],[17.9531,58.8857],[17.9631,58.8793],[17.9825,58.8937],[17.9747,58.9043]]],[[[19.0347,57.8035],[19.0247,57.7991],[19.0442,57.7876],[19.0586,57.7968],[19.0347,57.8035]]],[[[19.0242,57.7857],[18.9981,57.7788],[19.0197,57.7585],[19.0369,57.7649],[19.0242,57.7857]]],[[[19.1936,57.9971],[19.1636,57.9943],[19.1475,57.9807],[19.1131,57.9832],[19.0792,57.9643],[19.0953,57.954],[19.0875,57.9338],[19.0736,57.9351],[19.0608,57.9218],[19.0419,57.9171],[19.0419,57.9015],[19.0803,57.8877],[19.0814,57.8671],[19.1181,57.8471],[19.1286,57.8571],[19.1436,57.8601],[19.1414,57.8699],[19.1664,57.8829],[19.1708,57.8915],[19.1369,57.9135],[19.1753,57.9341],[19.1897,57.9271],[19.2087,57.9377],[19.2453,57.9513],[19.2747,57.9513],[19.2853,57.9421],[19.3025,57.9426],[19.3508,57.9637],[19.3308,57.9826],[19.3042,57.9863],[19.2792,57.9749],[19.2447,57.9735],[19.2197,57.9871],[19.1881,57.9846],[19.1936,57.9971]]],[[[19.1975,58.3957],[19.1758,58.3937],[19.2092,58.3521],[19.2136,58.3393],[19.2525,58.3349],[19.2903,58.3401],[19.3225,58.3666],[19.2875,58.3832],[19.2453,58.3921],[19.1975,58.3957]]],[[[19.2108,59.4512],[19.2019,59.4493],[19.1847,59.4276],[19.2086,59.424],[19.2231,59.436],[19.2108,59.4512]]],[[[18.9003,59.3387],[18.9003,59.3565],[18.8758,59.3521],[18.8703,59.3415],[18.8797,59.3343],[18.8503,59.3165],[18.8903,59.324],[18.9003,59.3387]]],[[[18.9303,59.4038],[18.9003,59.4051],[18.8892,59.3965],[18.9114,59.3821],[18.9286,59.3768],[18.9164,59.3649],[18.9597,59.3707],[18.9303,59.4038]]],[[[18.8219,59.3971],[18.8053,59.399],[18.7958,59.3863],[18.8164,59.3849],[18.8219,59.3971]]],[[[18.9219,59.4457],[18.8958,59.4451],[18.8614,59.4379],[18.8519,59.4301],[18.8575,59.4124],[18.8508,59.3946],[18.8653,59.3868],[18.8931,59.4096],[18.9131,59.4176],[18.9136,59.4285],[18.9297,59.4351],[18.9219,59.4457]]],[[[18.9603,59.4207],[18.9342,59.4171],[18.9419,59.3968],[18.9542,59.3965],[18.9769,59.4079],[18.9797,59.4151],[18.9603,59.4207]]],[[[18.3664,58.9793],[18.3481,58.979],[18.2953,58.9582],[18.2558,58.961],[18.2419,58.9488],[18.2169,58.9374],[18.1725,58.9426],[18.1658,58.9182],[18.1936,58.9132],[18.2031,58.9038],[18.2203,58.9043],[18.2308,58.9174],[18.2697,58.9154],[18.2864,58.9218],[18.3108,58.951],[18.3542,58.9629],[18.3664,58.9793]]],[[[18.0369,58.9565],[18.0814,58.9696],[18.1314,58.9685],[18.1447,58.9874],[18.1714,58.9968],[18.1686,59.0104],[18.1853,59.0174],[18.1614,59.031],[18.1264,59.021],[18.0864,59.0157],[18.0881,59.0057],[18.0708,58.9912],[18.0542,58.9868],[18.0447,58.9754],[18.0264,58.9763],[18.0464,58.9954],[18.0169,58.9893],[17.9842,58.9629],[17.9631,58.9568],[17.9903,58.9421],[17.9931,58.9307],[18.0136,58.9293],[18.0314,58.9426],[18.0369,58.9565]]],[[[17.6675,59.0718],[17.6447,59.0713],[17.6458,59.0493],[17.6297,59.0218],[17.6536,59.0176],[17.6325,58.9915],[17.6219,58.9907],[17.6192,58.9707],[17.6258,58.9624],[17.6447,58.9615],[17.6453,58.9429],[17.6342,58.9243],[17.6686,58.9132],[17.6786,58.9238],[17.6986,58.9254],[17.6958,58.9421],[17.7069,58.9588],[17.6997,58.9826],[17.7136,58.9957],[17.7053,59.0007],[17.7014,59.0299],[17.6908,59.0501],[17.6686,59.0574],[17.6675,59.0718]]],[[[18.5431,59.0601],[18.5108,59.0529],[18.5136,59.0349],[18.5364,59.036],[18.5269,59.054],[18.5431,59.0601]]],[[[18.4831,59.1174],[18.4714,59.1199],[18.4325,59.1035],[18.4192,59.0901],[18.3869,59.0726],[18.3603,59.0532],[18.3703,59.0393],[18.3392,59.031],[18.3647,59.0088],[18.3864,59.0051],[18.4081,59.0076],[18.4292,59.0324],[18.4281,59.0435],[18.4503,59.0482],[18.4581,59.0638],[18.4903,59.0879],[18.4831,59.1174]]],[[[18.7236,59.1576],[18.7097,59.159],[18.6753,59.1368],[18.6964,59.1363],[18.7064,59.1521],[18.7236,59.1576]]],[[[18.1475,59.0571],[18.1353,59.0476],[18.1625,59.0426],[18.1803,59.0496],[18.1475,59.0571]]],[[[18.7136,59.2113],[18.6992,59.2126],[18.6758,59.1979],[18.6669,59.1862],[18.6897,59.1801],[18.7081,59.1885],[18.7325,59.191],[18.7514,59.2043],[18.7136,59.2113]]],[[[18.8158,59.4818],[18.7864,59.479],[18.7714,59.4835],[18.7442,59.4782],[18.7075,59.4657],[18.7736,59.4646],[18.7997,59.4724],[18.8158,59.4818]]],[[[19.0497,59.5799],[19.0169,59.5751],[19.0336,59.566],[19.0569,59.5651],[19.0792,59.5751],[19.0497,59.5799]]],[[[19.1753,59.5988],[19.1631,59.5996],[19.1469,59.5882],[19.1764,59.5887],[19.1753,59.5988]]],[[[18.9453,59.6615],[18.9264,59.6596],[18.8408,59.6193],[18.8269,59.6071],[18.7781,59.5793],[18.7547,59.5779],[18.7531,59.569],[18.8042,59.5801],[18.8347,59.5982],[18.8586,59.6054],[18.9158,59.6393],[18.9453,59.6615]]],[[[18.9619,59.6496],[18.9403,59.6521],[18.8803,59.6157],[18.8497,59.584],[18.8619,59.5796],[18.9131,59.5893],[18.9158,59.6182],[18.9358,59.6335],[18.9469,59.6215],[18.9719,59.6263],[18.9619,59.6496]]],[[[18.7864,59.6532],[18.7647,59.6471],[18.7597,59.6368],[18.7914,59.6404],[18.7864,59.6532]]],[[[19.1964,59.6693],[19.1803,59.6732],[19.1742,59.6607],[19.1953,59.6607],[19.1964,59.6693]]],[[[18.8375,59.6563],[18.8203,59.6437],[18.8675,59.6476],[18.8375,59.6563]]],[[[18.8103,59.6796],[18.8181,59.6649],[18.8453,59.6601],[18.8736,59.6607],[18.8842,59.656],[18.9075,59.6668],[18.8942,59.676],[18.8381,59.6857],[18.8103,59.6796]]],[[[19.1408,59.7401],[19.1514,59.7515],[19.1169,59.7576],[19.1103,59.7407],[19.1408,59.7401]]],[[[11.4058,58.1815],[11.3842,58.179],[11.3736,58.1587],[11.3553,58.1493],[11.3903,58.1446],[11.3875,58.1576],[11.4058,58.1815]]],[[[11.4831,58.2224],[11.4714,58.201],[11.5081,58.2137],[11.5547,58.2335],[11.5175,58.239],[11.4869,58.231],[11.4831,58.2224]]],[[[11.4019,58.2415],[11.3836,58.2443],[11.3792,58.2326],[11.4036,58.2265],[11.4019,58.2415]]],[[[11.3403,58.3549],[11.3225,58.3582],[11.3069,58.3501],[11.3214,58.3332],[11.3386,58.3299],[11.3403,58.3549]]],[[[11.7692,58.1074],[11.7553,58.101],[11.7658,58.0821],[11.7914,58.0985],[11.7692,58.1074]]],[[[11.5942,58.3879],[11.5792,58.3876],[11.5781,58.3676],[11.5892,58.366],[11.5942,58.3879]]],[[[11.2447,58.6693],[11.2364,58.6707],[11.2114,58.6568],[11.2247,58.6449],[11.2447,58.6693]]],[[[17.0408,58.2668],[17.0242,58.2682],[16.9997,58.2585],[16.9997,58.2474],[17.0419,58.2613],[17.0408,58.2668]]],[[[16.9247,58.284],[16.9003,58.2735],[16.8903,58.279],[16.8608,58.2588],[16.8808,58.2454],[16.8981,58.259],[16.9164,58.2671],[16.9247,58.284]]],[[[16.9464,58.3282],[16.9325,58.3132],[16.9497,58.3126],[16.9464,58.3282]]],[[[16.8931,58.3749],[16.8853,58.3621],[16.8675,58.3496],[16.8814,58.3451],[16.8964,58.3593],[16.8931,58.3749]]],[[[16.8142,58.4118],[16.8003,58.4146],[16.7814,58.4051],[16.7869,58.396],[16.7792,58.3796],[16.7958,58.3707],[16.8069,58.339],[16.8242,58.334],[16.8481,58.3196],[16.8803,58.3154],[16.9158,58.3282],[16.9108,58.3382],[16.8819,58.3312],[16.8564,58.3399],[16.8236,58.3579],[16.8508,58.3874],[16.8636,58.3932],[16.8564,58.4024],[16.8342,58.4038],[16.8103,58.3957],[16.8142,58.4118]]],[[[16.8936,58.411],[16.8714,58.4093],[16.8725,58.3982],[16.8958,58.4001],[16.8936,58.411]]],[[[16.9181,58.5282],[16.8914,58.5265],[16.8981,58.5157],[16.9464,58.5032],[16.9442,58.4943],[16.9619,58.4826],[16.9914,58.4857],[16.9986,58.4929],[16.9342,58.5168],[16.9181,58.5282]]],[[[11.1486,58.7932],[11.1353,58.7879],[11.1308,58.7654],[11.1636,58.7604],[11.1731,58.7685],[11.1492,58.7738],[11.1586,58.7849],[11.1486,58.7932]]],[[[11.1925,58.8182],[11.1736,58.8115],[11.1631,58.7996],[11.1764,58.7926],[11.1997,58.8024],[11.1925,58.8182]]],[[[11.2286,58.8315],[11.2086,58.8307],[11.2036,58.816],[11.2258,58.8129],[11.2347,58.8199],[11.2286,58.8315]]],[[[10.9958,58.9129],[10.9819,58.9068],[10.9914,58.8935],[10.9881,58.8838],[11.0325,58.8704],[11.0475,58.8615],[11.0619,58.8718],[11.0464,58.879],[11.0486,58.8949],[11.0231,58.899],[11.0158,58.9079],[10.9958,58.9129]]],[[[16.6519,58.4324],[16.6619,58.4174],[16.6831,58.4229],[16.6675,58.4318],[16.6519,58.4324]]],[[[16.1992,58.631],[16.1875,58.616],[16.2186,58.606],[16.2397,58.6151],[16.2397,58.6251],[16.1992,58.631]]],[[[17.2516,61.0391],[17.2229,61.0458],[17.2047,61.0276],[17.2375,61.0208],[17.2516,61.0391]]],[[[17.3083,61.1521],[17.3245,61.1526],[17.3271,61.1729],[17.3047,61.1641],[17.3083,61.1521]]],[[[17.4,61.5542],[17.3688,61.5604],[17.3625,61.5521],[17.3693,61.538],[17.4188,61.5396],[17.4583,61.5375],[17.4521,61.5521],[17.4,61.5542]]],[[[17.2917,61.5708],[17.2766,61.5703],[17.2672,61.5526],[17.2953,61.5568],[17.2917,61.5708]]],[[[17.4042,62.475],[17.3729,62.4792],[17.3651,62.4734],[17.3932,62.4536],[17.412,62.4182],[17.4141,62.3964],[17.4021,62.3833],[17.4026,62.3693],[17.4271,62.3542],[17.4516,62.3609],[17.4958,62.3563],[17.5146,62.3646],[17.5245,62.3776],[17.5187,62.3917],[17.5245,62.4016],[17.5182,62.4141],[17.4734,62.4359],[17.4911,62.4599],[17.4536,62.4714],[17.4042,62.475]]],[[[18.7858,59.2985],[18.7497,59.2924],[18.7225,59.274],[18.7136,59.2562],[18.7497,59.2607],[18.7675,59.2507],[18.7825,59.2551],[18.7914,59.2749],[18.8092,59.2899],[18.7858,59.2985]]],[[[18.6792,59.3699],[18.6792,59.376],[18.6247,59.3721],[18.6864,59.3363],[18.6786,59.3279],[18.6875,59.314],[18.7142,59.3063],[18.7392,59.3176],[18.7492,59.3312],[18.7408,59.3529],[18.7281,59.3513],[18.7181,59.3688],[18.6792,59.3699]]],[[[18.6508,59.4249],[18.6253,59.4138],[18.6164,59.4015],[18.6314,59.3893],[18.6542,59.3868],[18.6669,59.3929],[18.6892,59.3893],[18.7075,59.3976],[18.6525,59.3982],[18.6603,59.4201],[18.6508,59.4249]]],[[[18.7208,59.4262],[18.7214,59.4368],[18.6953,59.4338],[18.6986,59.426],[18.7208,59.4262]]],[[[18.7058,59.4518],[18.7242,59.4512],[18.7619,59.4621],[18.7014,59.464],[18.6664,59.4571],[18.6419,59.4488],[18.6397,59.4382],[18.6592,59.4376],[18.6942,59.4426],[18.7058,59.4518]]],[[[18.6797,59.4751],[18.6269,59.4701],[18.6647,59.4643],[18.6797,59.4751]]],[[[18.1097,59.3907],[18.0931,59.3821],[18.1147,59.3701],[18.1175,59.3587],[18.1464,59.3438],[18.1669,59.3387],[18.2064,59.3385],[18.2331,59.3499],[18.2569,59.371],[18.2342,59.3771],[18.2031,59.3771],[18.1842,59.3838],[18.1675,59.3785],[18.1397,59.3899],[18.1097,59.3907]]],[[[18.3775,59.3926],[18.3469,59.3901],[18.3858,59.3726],[18.4258,59.361],[18.4336,59.3635],[18.3775,59.3926]]],[[[18.3231,59.4435],[18.3031,59.4343],[18.2931,59.4129],[18.3231,59.3999],[18.3636,59.4032],[18.3797,59.3949],[18.4153,59.3899],[18.4342,59.3904],[18.4325,59.4007],[18.4047,59.4065],[18.3936,59.4157],[18.3736,59.4168],[18.3631,59.4038],[18.3331,59.4087],[18.3131,59.4165],[18.3603,59.4285],[18.3231,59.4435]]],[[[18.6742,59.5615],[18.6431,59.5612],[18.6081,59.5426],[18.5853,59.539],[18.5814,59.526],[18.5292,59.4985],[18.5097,59.4929],[18.5125,59.4626],[18.5553,59.436],[18.5986,59.4318],[18.6064,59.4718],[18.5969,59.4757],[18.5947,59.4957],[18.6214,59.4915],[18.6614,59.5065],[18.6742,59.5207],[18.6942,59.5279],[18.7292,59.5299],[18.7786,59.541],[18.8136,59.5404],[18.8069,59.5507],[18.7369,59.5418],[18.6936,59.5324],[18.6792,59.5446],[18.6542,59.549],[18.6742,59.5615]]],[[[18.7242,59.6118],[18.6792,59.5863],[18.6969,59.584],[18.7264,59.6013],[18.7242,59.6118]]],[[[18.7911,60.138],[18.7828,60.1474],[18.7609,60.137],[18.7813,60.1229],[18.7911,60.138]]],[[[18.7542,60.2083],[18.7359,60.2151],[18.7125,60.2167],[18.713,60.2068],[18.7318,60.2016],[18.7214,60.1932],[18.7167,60.1771],[18.7313,60.1542],[18.7667,60.15],[18.7911,60.1526],[18.7891,60.187],[18.7609,60.1943],[18.7542,60.2083]]],[[[19.1986,59.7843],[19.1692,59.7835],[19.1542,59.7765],[19.1703,59.7613],[19.1886,59.7637],[19.1986,59.7843]]],[[[19.1047,59.7843],[19.0631,59.7826],[19.0808,59.7693],[19.1047,59.7843]]],[[[18.9675,59.8579],[18.9503,59.8587],[18.9431,59.8401],[18.9247,59.8232],[18.8981,59.8054],[18.8908,59.7976],[18.8736,59.7882],[18.8931,59.7793],[18.9319,59.7837],[18.9764,59.7807],[19.0142,59.7815],[19.0114,59.8007],[18.9936,59.8054],[18.9981,59.8254],[18.9875,59.8318],[18.9886,59.8451],[18.9675,59.8579]]],[[[19.1414,59.8587],[19.1264,59.8632],[19.0875,59.8376],[19.1036,59.8299],[19.1403,59.8479],[19.1414,59.8587]]],[[[19.487,63.4495],[19.475,63.4562],[19.4495,63.4516],[19.4505,63.4234],[19.4792,63.4208],[19.4995,63.4411],[19.487,63.4495]]],[[[20.7672,63.5953],[20.7849,63.6141],[20.7693,63.6161],[20.7458,63.5979],[20.7672,63.5953]]],[[[20.9161,63.8057],[20.8911,63.8089],[20.8589,63.8016],[20.8359,63.7911],[20.8255,63.7755],[20.8297,63.7609],[20.8661,63.7557],[20.8609,63.7495],[20.8766,63.738],[20.8672,63.7245],[20.8641,63.6943],[20.9099,63.688],[20.9307,63.7089],[20.937,63.7307],[20.9234,63.737],[20.937,63.7495],[20.9453,63.7745],[20.9182,63.7943],[20.9161,63.8057]]],[[[21.2807,64.8943],[21.2599,64.9057],[21.2396,64.8771],[21.262,64.8776],[21.2807,64.8943]]],[[[21.5318,65.0339],[21.5125,65.0396],[21.4807,65.0339],[21.4693,65.0266],[21.4771,65.0125],[21.5208,65.0188],[21.5318,65.0339]]],[[[21.6089,65.0954],[21.5938,65.1042],[21.5688,65.1],[21.5714,65.0901],[21.6,65.0875],[21.6089,65.0954]]],[[[21.8099,65.2328],[21.7589,65.2349],[21.7672,65.2214],[21.7917,65.2125],[21.8516,65.2099],[21.8099,65.2328]]],[[[21.7896,65.2833],[21.7583,65.2854],[21.7547,65.2651],[21.775,65.2562],[21.8063,65.2542],[21.8422,65.2443],[21.8682,65.2464],[21.862,65.2578],[21.8234,65.2651],[21.7896,65.2833]]],[[[21.7984,65.3255],[21.7771,65.3333],[21.7505,65.3328],[21.7526,65.3234],[21.775,65.3167],[21.7984,65.3255]]],[[[22.4021,65.3781],[22.413,65.3609],[22.4521,65.35],[22.4646,65.3604],[22.438,65.3672],[22.4354,65.375],[22.4021,65.3781]]],[[[17.3354,60.7083],[17.3375,60.7188],[17.3125,60.7188],[17.3125,60.7083],[17.3354,60.7083]]],[[[17.5516,61.7234],[17.5297,61.7328],[17.5193,61.7193],[17.5313,61.7146],[17.5516,61.7234]]],[[[18.087,62.6641],[18.0583,62.6688],[18.0146,62.6688],[18.0047,62.6589],[18.0411,62.6536],[18.0563,62.6458],[18.0953,62.6526],[18.087,62.6641]]],[[[18.0812,62.7479],[18.0807,62.7557],[18.0521,62.7583],[18.0276,62.7495],[18.0307,62.7339],[18.0068,62.7245],[17.9964,62.6901],[18.0292,62.6729],[18.0792,62.675],[18.1266,62.6974],[18.1047,62.6984],[18.1109,62.7099],[18.137,62.713],[18.1557,62.7234],[18.1599,62.737],[18.1479,62.75],[18.1167,62.7521],[18.1057,62.7443],[18.0812,62.7479]]],[[[17.9729,62.7875],[17.9443,62.7859],[17.9833,62.7625],[18.0021,62.7604],[18.0286,62.7672],[18.0057,62.7849],[17.9729,62.7875]]],[[[17.7297,62.2214],[17.6964,62.2286],[17.6797,62.2078],[17.6818,62.1922],[17.7078,62.188],[17.7349,62.2089],[17.7297,62.2214]]],[[[17.587,62.3953],[17.5729,62.4042],[17.5443,62.388],[17.5875,62.3792],[17.587,62.3953]]],[[[17.5578,62.4349],[17.5375,62.4417],[17.5255,62.4339],[17.5375,62.4271],[17.5578,62.4349]]],[[[18.6672,60.1839],[18.6458,60.1958],[18.6417,60.1792],[18.6672,60.1839]]],[[[18.6286,60.2828],[18.6005,60.2818],[18.613,60.2672],[18.6307,60.2703],[18.6693,60.2609],[18.6734,60.2693],[18.6286,60.2828]]],[[[18.5229,60.1896],[18.5083,60.1979],[18.4839,60.1932],[18.4813,60.1833],[18.5,60.175],[18.5333,60.1792],[18.5229,60.1896]]],[[[18.4288,60.4979],[18.4042,60.5062],[18.3688,60.5021],[18.3693,60.488],[18.3828,60.4849],[18.3953,60.4703],[18.3953,60.4547],[18.3818,60.4464],[18.3953,60.4349],[18.3797,60.4203],[18.3974,60.4016],[18.4005,60.3672],[18.4224,60.3641],[18.4479,60.35],[18.4771,60.3417],[18.4938,60.3271],[18.5182,60.3245],[18.5276,60.3089],[18.5568,60.3005],[18.5807,60.2984],[18.5766,60.3224],[18.5505,60.3276],[18.587,60.3411],[18.5646,60.3458],[18.5568,60.3536],[18.5625,60.3688],[18.5359,60.3661],[18.5328,60.3547],[18.5193,60.3464],[18.5005,60.3651],[18.487,60.387],[18.4693,60.3932],[18.4703,60.4099],[18.4833,60.425],[18.475,60.4354],[18.4464,60.4547],[18.4516,60.4651],[18.4474,60.4807],[18.4318,60.488],[18.4288,60.4979]]],[[[18.4089,60.5214],[18.3937,60.5313],[18.3651,60.5224],[18.3875,60.5125],[18.4089,60.5214]]],[[[18.6203,62.9839],[18.6536,62.9859],[18.6505,62.9953],[18.6599,63.0161],[18.6276,63.0078],[18.6203,62.9839]]],[[[18.6995,63.0568],[18.7036,63.0641],[18.6813,63.0771],[18.6443,63.0641],[18.6411,63.0505],[18.6266,63.0297],[18.6151,63.0266],[18.6292,63.0125],[18.6521,63.0229],[18.6682,63.0234],[18.6776,63.0516],[18.6995,63.0568]]],[[[18.5521,63.0604],[18.5271,63.0667],[18.4917,63.0479],[18.5021,63.0354],[18.5453,63.038],[18.5521,63.0604]]],[[[21.7458,65.3958],[21.7104,65.3958],[21.6693,65.3859],[21.6917,65.3792],[21.7255,65.3818],[21.7714,65.3588],[21.7979,65.3521],[21.8266,65.3536],[21.812,65.3662],[21.7755,65.388],[21.7458,65.3958]]],[[[21.9995,65.3953],[21.9771,65.4],[21.9693,65.3859],[21.9818,65.3755],[22.0187,65.3688],[22.0224,65.3849],[21.9995,65.3953]]],[[[22.0703,65.4057],[22.05,65.4146],[22.0318,65.4078],[22.0458,65.3979],[22.0703,65.4057]]],[[[22.3937,65.4583],[22.3729,65.4646],[22.3484,65.4453],[22.3224,65.4484],[22.3062,65.4563],[22.2797,65.4276],[22.3083,65.4313],[22.3771,65.4313],[22.4245,65.4505],[22.3937,65.4583]]],[[[22.2078,65.4682],[22.1859,65.4693],[22.175,65.4792],[22.1568,65.4786],[22.1422,65.4672],[22.1578,65.462],[22.1453,65.4495],[22.1443,65.4339],[22.1625,65.4292],[22.2083,65.425],[22.2391,65.4349],[22.2089,65.4443],[22.1984,65.4547],[22.2224,65.4609],[22.2078,65.4682]]],[[[22.7333,65.4708],[22.7432,65.488],[22.7229,65.4875],[22.7062,65.4729],[22.7333,65.4708]]],[[[22.5589,65.5016],[22.5333,65.5083],[22.5036,65.5036],[22.5042,65.4854],[22.5292,65.475],[22.5766,65.4755],[22.5724,65.4912],[22.5589,65.5016]]],[[[22.1203,65.5068],[22.1125,65.5125],[22.0771,65.5146],[22.0859,65.4891],[22.1057,65.4943],[22.1203,65.5068]]],[[[22.7068,65.5026],[22.6833,65.5104],[22.6734,65.5005],[22.6958,65.4938],[22.7068,65.5026]]],[[[22.2396,65.5396],[22.2188,65.5479],[22.1818,65.5359],[22.212,65.5141],[22.2214,65.5005],[22.2479,65.4958],[22.2693,65.5162],[22.3266,65.5016],[22.3297,65.4922],[22.362,65.4901],[22.3703,65.4984],[22.3583,65.5062],[22.3297,65.5089],[22.3245,65.5224],[22.3062,65.5208],[22.2604,65.5313],[22.2396,65.5396]]],[[[22.7276,65.5214],[22.7167,65.5313],[22.6979,65.5292],[22.6917,65.5188],[22.7188,65.5146],[22.7276,65.5214]]],[[[22.5708,65.5313],[22.5464,65.5276],[22.5583,65.5167],[22.6141,65.5151],[22.6161,65.5224],[22.5708,65.5313]]],[[[22.8089,65.5568],[22.7938,65.5687],[22.7609,65.5661],[22.7672,65.5568],[22.7896,65.55],[22.8089,65.5568]]],[[[22.6901,65.5547],[22.6849,65.562],[22.6443,65.5537],[22.6625,65.5458],[22.6974,65.5463],[22.6901,65.5547]]],[[[22.6063,65.6125],[22.5797,65.6203],[22.5526,65.6047],[22.5891,65.5901],[22.5771,65.5771],[22.55,65.5833],[22.5297,65.5787],[22.5359,65.563],[22.5583,65.5563],[22.6036,65.5547],[22.6172,65.5745],[22.6349,65.5776],[22.6536,65.5891],[22.6396,65.5979],[22.6141,65.6005],[22.6063,65.6125]]],[[[23.7687,65.5708],[23.7484,65.5839],[23.7255,65.5807],[23.7234,65.5714],[23.7604,65.5604],[23.7687,65.5708]]],[[[22.6547,65.6359],[22.6375,65.6479],[22.613,65.6453],[22.6313,65.6333],[22.6547,65.6359]]],[[[23.8,65.6354],[23.8057,65.6412],[23.7813,65.6563],[23.7651,65.6453],[23.775,65.6375],[23.8,65.6354]]],[[[22.6391,65.6755],[22.6005,65.6589],[22.6313,65.6563],[22.6391,65.6755]]],[[[22.4104,65.7021],[22.4266,65.7182],[22.3979,65.7167],[22.3943,65.7068],[22.4104,65.7021]]],[[[22.9536,65.7412],[22.8917,65.7438],[22.8776,65.7391],[22.8755,65.713],[22.8995,65.7037],[22.9234,65.688],[22.9422,65.6693],[22.9609,65.6776],[22.9568,65.6911],[22.9911,65.7037],[22.9479,65.7188],[22.9641,65.7276],[22.9536,65.7412]]],[[[23.7938,65.7292],[23.8042,65.7438],[23.7708,65.7458],[23.7542,65.7354],[23.7188,65.7438],[23.6807,65.737],[23.6859,65.7089],[23.7292,65.7042],[23.7438,65.6979],[23.787,65.7203],[23.7938,65.7292]]],[[[22.775,65.7562],[22.7391,65.7557],[22.7297,65.7266],[22.738,65.713],[22.7563,65.7083],[22.7854,65.7125],[22.8063,65.7063],[22.7995,65.7453],[22.775,65.7562]]],[[[22.4911,65.8099],[22.4568,65.8089],[22.4714,65.7963],[22.4911,65.8099]]]]},"properties":{"GID_0":"SWE","ISO_A2":"SE","ISO_A3":"SWE","NAME_EN":"Sweden","NAME_IT":"Svezia"}}
]}