{"type":"FeatureCollection", "features": [
{"type":"Feature","geometry":{"type":"MultiPolygon","coordinates":[[[[107.7257,20.1199],[107.7441,20.1579],[107.6951,20.1396],[107.7257,20.1199]]],[[[103.5044,9.2983],[103.5048,9.3205],[103.4625,9.3123],[103.4848,9.2864],[103.5044,9.2983]]],[[[104.6464,9.7955],[104.6589,9.8126],[104.6347,9.8229],[104.612,9.7983],[104.6464,9.7955]]],[[[108.9677,10.5097],[108.9513,10.5521],[108.9305,10.5535],[108.9314,10.5138],[108.9501,10.5027],[108.9677,10.5097]]],[[[109.2999,12.2224],[109.2762,12.2281],[109.2401,12.2153],[109.274,12.1872],[109.297,12.1954],[109.3236,12.1844],[109.3356,12.1939],[109.3207,12.2211],[109.2999,12.2224]]],[[[109.3613,12.632],[109.3228,12.6373],[109.3085,12.6106],[109.3329,12.6082],[109.351,12.5865],[109.3983,12.5497],[109.3974,12.5926],[109.385,12.6237],[109.3613,12.632]]],[[[104.0348,10.0539],[104.0425,10.0688],[104.0181,10.084],[104.0362,10.1189],[104.0512,10.1873],[104.0707,10.2151],[104.081,10.2451],[104.0749,10.272],[104.08,10.3075],[104.0729,10.3365],[104.0791,10.3705],[104.0574,10.4027],[104.0305,10.4139],[104.007,10.4476],[103.9731,10.4399],[103.9673,10.4088],[103.9471,10.4019],[103.9354,10.3691],[103.9217,10.3598],[103.8888,10.3701],[103.8474,10.3745],[103.8417,10.3574],[103.8567,10.3117],[103.8886,10.2917],[103.9075,10.2925],[103.9495,10.2403],[103.9619,10.2027],[103.9844,10.0993],[103.9907,10.0488],[104.0148,10.0162],[104.031,10.0297],[104.0348,10.0539]]],[[[107.351,20.8324],[107.3439,20.8042],[107.3702,20.8043],[107.3815,20.8197],[107.351,20.8324]]],[[[107.0488,20.7559],[107.0528,20.7745],[107.0727,20.7891],[107.0942,20.7806],[107.1091,20.798],[107.0788,20.8225],[107.0435,20.8273],[107.0366,20.8588],[106.9522,20.8558],[106.953,20.7932],[106.968,20.778],[106.9733,20.7517],[107.017,20.7469],[107.032,20.7214],[107.0513,20.7214],[107.0719,20.7459],[107.0488,20.7559]]],[[[107.9658,21.4385],[108.037,21.4815],[108.0359,21.5464],[108.0051,21.5486],[107.9524,21.5389],[107.9423,21.5701],[107.8902,21.5988],[107.8714,21.6474],[107.8334,21.6439],[107.8155,21.6584],[107.7412,21.639],[107.7158,21.6214],[107.678,21.6096],[107.59,21.6066],[107.5602,21.6133],[107.5436,21.5891],[107.4896,21.5987],[107.4771,21.6627],[107.4664,21.6646],[107.4166,21.6391],[107.3828,21.5957],[107.3633,21.599],[107.3541,21.6306],[107.3607,21.6639],[107.3022,21.7413],[107.2644,21.7288],[107.2479,21.7037],[107.2222,21.7063],[107.1967,21.7212],[107.1846,21.7463],[107.1389,21.7632],[107.1103,21.7935],[107.0832,21.8094],[107.0255,21.8193],[107.0045,21.8326],[107.018,21.8638],[107.0624,21.8933],[107.0479,21.9301],[107.018,21.946],[106.9937,21.9486],[106.961,21.9192],[106.9339,21.9295],[106.9228,21.966],[106.8801,21.9819],[106.8395,21.9841],[106.8119,21.9735],[106.765,22.0132],[106.7374,22.0075],[106.7269,21.9815],[106.6974,21.9605],[106.6834,21.9852],[106.688,22.0094],[106.7087,22.0256],[106.6967,22.0515],[106.713,22.0957],[106.692,22.1218],[106.6955,22.1542],[106.6751,22.1878],[106.6958,22.2069],[106.6949,22.2402],[106.6828,22.2793],[106.6669,22.2863],[106.6602,22.3341],[106.6486,22.3397],[106.5815,22.3391],[106.5596,22.3489],[106.5855,22.3779],[106.5712,22.4039],[106.5604,22.4565],[106.5819,22.483],[106.5818,22.52],[106.6003,22.553],[106.6101,22.6046],[106.6299,22.6055],[106.6487,22.5772],[106.6934,22.5849],[106.7089,22.578],[106.7294,22.5998],[106.7222,22.6379],[106.7529,22.6923],[106.78,22.7082],[106.7611,22.7299],[106.796,22.77],[106.8182,22.7719],[106.8377,22.8032],[106.8182,22.8202],[106.7853,22.8141],[106.7072,22.8643],[106.7065,22.8885],[106.638,22.8862],[106.6157,22.9012],[106.6015,22.9291],[106.5669,22.9189],[106.5405,22.9389],[106.5126,22.9467],[106.5038,22.9145],[106.4595,22.8965],[106.4474,22.9035],[106.4038,22.8809],[106.3748,22.8841],[106.3458,22.8557],[106.2908,22.875],[106.2787,22.8688],[106.2495,22.8942],[106.266,22.9068],[106.2358,22.9546],[106.2003,22.9869],[106.1736,22.9825],[106.1549,22.9916],[106.1001,22.9868],[106.0842,22.9999],[106.0637,22.9912],[106.0065,22.9927],[106.0048,22.9535],[105.9921,22.9392],[105.9091,22.9397],[105.8728,22.9327],[105.846,22.9572],[105.8519,22.9728],[105.8282,22.9953],[105.8042,22.9932],[105.7789,23.0231],[105.7316,23.0387],[105.7213,23.0642],[105.6748,23.0623],[105.6463,23.081],[105.6175,23.0674],[105.5822,23.0679],[105.5636,23.0941],[105.5596,23.1285],[105.5721,23.1487],[105.5533,23.1871],[105.5269,23.1886],[105.4985,23.2027],[105.4813,23.2457],[105.4505,23.2786],[105.4414,23.2998],[105.412,23.2873],[105.37,23.32],[105.3514,23.3455],[105.3468,23.3709],[105.3232,23.3927],[105.3082,23.3818],[105.2839,23.3423],[105.2581,23.3427],[105.2387,23.2724],[105.211,23.2662],[105.1994,23.2784],[105.1673,23.283],[105.1558,23.2667],[105.1075,23.2456],[105.077,23.2651],[105.0509,23.2481],[105.0245,23.2189],[104.9989,23.2136],[104.9593,23.1937],[104.9473,23.1508],[104.9085,23.1808],[104.8815,23.1653],[104.8757,23.1256],[104.8016,23.1162],[104.8174,23.0751],[104.82,23.0378],[104.8353,22.9888],[104.8609,22.9785],[104.8632,22.9435],[104.8391,22.9214],[104.8106,22.9199],[104.7777,22.9052],[104.7529,22.8569],[104.7378,22.8587],[104.7333,22.8231],[104.7029,22.8266],[104.6717,22.8172],[104.6564,22.8331],[104.6265,22.8387],[104.6128,22.8163],[104.5962,22.8465],[104.5466,22.8405],[104.5137,22.7898],[104.4983,22.7864],[104.4709,22.7575],[104.4228,22.7374],[104.3992,22.702],[104.3524,22.6924],[104.3396,22.7224],[104.2778,22.7401],[104.2566,22.7795],[104.2707,22.8301],[104.2437,22.8439],[104.2205,22.8289],[104.1833,22.8261],[104.134,22.8046],[104.115,22.8117],[104.0393,22.7237],[104.0288,22.6895],[104.0295,22.6258],[104.0144,22.5909],[104.0054,22.5383],[103.9787,22.5065],[103.9614,22.5065],[103.8893,22.57],[103.8653,22.5824],[103.8241,22.6174],[103.8122,22.639],[103.766,22.6897],[103.7494,22.689],[103.7386,22.7121],[103.7026,22.7449],[103.6684,22.7672],[103.6595,22.7889],[103.6184,22.7855],[103.6043,22.7491],[103.5664,22.7049],[103.5798,22.6644],[103.5714,22.6422],[103.5528,22.6373],[103.5316,22.5949],[103.4882,22.6194],[103.4565,22.6583],[103.4605,22.6782],[103.4319,22.7028],[103.4277,22.7333],[103.4399,22.7533],[103.4108,22.7774],[103.372,22.7987],[103.3194,22.8076],[103.3098,22.7632],[103.2854,22.7371],[103.2891,22.7207],[103.2794,22.6784],[103.2497,22.669],[103.2269,22.6469],[103.1936,22.6494],[103.1684,22.6188],[103.158,22.5939],[103.1828,22.5609],[103.1479,22.5445],[103.1156,22.5145],[103.0796,22.5057],[103.0713,22.4791],[103.08,22.4511],[103.0308,22.4425],[102.9916,22.4632],[102.9838,22.4809],[102.9286,22.4843],[102.9213,22.5077],[102.8964,22.5441],[102.8776,22.5588],[102.8779,22.5879],[102.8553,22.6111],[102.8249,22.6271],[102.7877,22.6264],[102.7511,22.6676],[102.7104,22.6813],[102.6885,22.7045],[102.6556,22.6903],[102.6068,22.733],[102.5717,22.7059],[102.5341,22.7586],[102.4958,22.7806],[102.454,22.7567],[102.4564,22.7326],[102.4361,22.7018],[102.4074,22.6843],[102.3825,22.6806],[102.4035,22.6335],[102.3715,22.5934],[102.3453,22.5831],[102.3546,22.5666],[102.2998,22.5296],[102.2939,22.5118],[102.2481,22.46],[102.2665,22.4315],[102.2224,22.4255],[102.1892,22.4349],[102.159,22.43],[102.1446,22.4003],[102.1747,22.3702],[102.1819,22.3062],[102.2345,22.2825],[102.2461,22.2378],[102.2763,22.2362],[102.2833,22.2071],[102.325,22.2033],[102.3398,22.1664],[102.3647,22.1657],[102.3883,22.145],[102.3884,22.1307],[102.4333,22.1172],[102.4471,22.0744],[102.4762,22.0602],[102.4886,22.0419],[102.5137,22.0372],[102.4916,21.9949],[102.5188,21.9661],[102.5704,21.9373],[102.6128,21.9217],[102.6227,21.9074],[102.6155,21.8729],[102.6457,21.8589],[102.6483,21.8081],[102.6634,21.7909],[102.6494,21.7635],[102.6489,21.7354],[102.6822,21.6549],[102.6937,21.6644],[102.7374,21.6588],[102.788,21.7068],[102.8269,21.7367],[102.8109,21.825],[102.8171,21.8395],[102.8554,21.839],[102.8607,21.7995],[102.8557,21.7679],[102.859,21.7216],[102.8867,21.7128],[102.955,21.7289],[102.9855,21.7265],[102.9903,21.6843],[102.982,21.651],[102.9965,21.586],[102.9695,21.5664],[102.9629,21.5466],[102.9157,21.503],[102.905,21.4764],[102.8867,21.4615],[102.8926,21.4322],[102.9139,21.4374],[102.9217,21.4074],[102.8979,21.3846],[102.8896,21.3327],[102.8969,21.3032],[102.8585,21.298],[102.8141,21.2641],[102.8288,21.2465],[102.863,21.2576],[102.8945,21.2433],[102.9089,21.2254],[102.9045,21.1658],[102.9395,21.1584],[102.9628,21.1141],[102.9615,21.0813],[102.9884,21.0622],[103.0367,21.0575],[103.0599,21.0017],[103.087,20.969],[103.0891,20.9413],[103.1047,20.935],[103.1096,20.9015],[103.13,20.912],[103.2103,20.9021],[103.2352,20.8737],[103.2255,20.8517],[103.2369,20.8341],[103.267,20.8233],[103.2906,20.8384],[103.3502,20.8035],[103.3646,20.8079],[103.388,20.7858],[103.4128,20.7975],[103.4407,20.7974],[103.4639,20.8278],[103.4846,20.8106],[103.4819,20.7954],[103.5075,20.7554],[103.552,20.7451],[103.5832,20.7499],[103.6042,20.7424],[103.6479,20.701],[103.667,20.7007],[103.6843,20.6615],[103.7358,20.6688],[103.7337,20.7346],[103.7711,20.7349],[103.7911,20.7502],[103.7902,20.7808],[103.7796,20.8034],[103.8095,20.8291],[103.8161,20.8653],[103.8486,20.8621],[103.8993,20.906],[103.959,20.8983],[103.9798,20.9109],[104.0313,20.9038],[104.0499,20.9159],[104.0519,20.9517],[104.1206,20.9722],[104.1313,20.9493],[104.1891,20.9583],[104.1942,20.9477],[104.2432,20.9333],[104.2397,20.9099],[104.2808,20.928],[104.3282,20.8894],[104.3482,20.8505],[104.3697,20.8246],[104.3945,20.8224],[104.4122,20.8014],[104.4497,20.7946],[104.4585,20.7782],[104.4838,20.7683],[104.4886,20.7283],[104.5204,20.701],[104.553,20.7221],[104.5814,20.7033],[104.5848,20.6823],[104.6311,20.6742],[104.6408,20.6625],[104.6273,20.6263],[104.6022,20.6057],[104.5624,20.6077],[104.542,20.5981],[104.5278,20.5556],[104.4929,20.5408],[104.4756,20.517],[104.4493,20.5098],[104.4154,20.4894],[104.3872,20.488],[104.3752,20.4671],[104.4206,20.3766],[104.4741,20.369],[104.5651,20.417],[104.5974,20.417],[104.6133,20.4266],[104.6254,20.4616],[104.6602,20.475],[104.6653,20.4536],[104.686,20.4435],[104.7132,20.3981],[104.6844,20.4031],[104.6691,20.3876],[104.6211,20.3663],[104.6175,20.2929],[104.6096,20.256],[104.6315,20.2295],[104.662,20.2328],[104.7216,20.2009],[104.7745,20.1984],[104.8195,20.1709],[104.8228,20.1608],[104.8598,20.1429],[104.897,20.1473],[104.9224,20.1412],[104.9605,20.1122],[104.9759,20.0785],[104.9726,20.0616],[104.9347,20.0358],[104.9176,20.0148],[104.9044,19.9685],[104.8635,19.9449],[104.8425,19.9247],[104.8347,19.8567],[104.8367,19.8268],[104.8269,19.7859],[104.7836,19.7843],[104.757,19.7498],[104.7232,19.7552],[104.6709,19.7009],[104.6712,19.6836],[104.6534,19.6368],[104.6417,19.6219],[104.6123,19.6343],[104.5791,19.6261],[104.557,19.6103],[104.5057,19.6244],[104.4949,19.65],[104.4525,19.6528],[104.4448,19.6726],[104.4219,19.6799],[104.4037,19.7044],[104.3555,19.693],[104.3198,19.6678],[104.315,19.6888],[104.2606,19.7033],[104.2102,19.7031],[104.2005,19.6929],[104.1619,19.6957],[104.153,19.6664],[104.1078,19.6606],[104.0734,19.6759],[104.0575,19.6515],[104.0686,19.6362],[104.0623,19.6115],[104.086,19.5815],[104.1078,19.5686],[104.104,19.5233],[104.1233,19.5019],[104.0855,19.4796],[104.0703,19.4158],[104.0489,19.4249],[104.0141,19.4022],[103.9927,19.4052],[103.9603,19.3807],[103.9521,19.3573],[103.9079,19.3299],[103.9236,19.2855],[103.9623,19.2511],[103.9988,19.2326],[104.0715,19.2468],[104.1129,19.2233],[104.1309,19.2032],[104.1814,19.1981],[104.2004,19.1616],[104.2267,19.149],[104.213,19.1229],[104.2478,19.1125],[104.2715,19.1198],[104.3014,19.1124],[104.3116,19.0887],[104.3387,19.0755],[104.3668,19.0741],[104.3998,19.0574],[104.401,19.0383],[104.4536,18.985],[104.4974,19.0039],[104.5129,18.9814],[104.5436,18.9738],[104.5796,18.9012],[104.6279,18.888],[104.656,18.8654],[104.6768,18.8374],[104.6994,18.8401],[104.7371,18.8148],[104.7389,18.8007],[104.7844,18.8022],[104.7949,18.7842],[104.911,18.7903],[104.9381,18.7737],[104.9427,18.7387],[105.0103,18.7423],[105.038,18.7263],[105.053,18.706],[105.1056,18.7033],[105.1337,18.7148],[105.1392,18.6811],[105.1989,18.6388],[105.1804,18.6026],[105.1597,18.6133],[105.1347,18.5911],[105.1292,18.5485],[105.116,18.539],[105.1137,18.4916],[105.1039,18.4474],[105.1208,18.4191],[105.171,18.3923],[105.1902,18.3462],[105.1844,18.3249],[105.2428,18.2963],[105.2561,18.259],[105.3312,18.2526],[105.3204,18.2012],[105.3636,18.1639],[105.3836,18.17],[105.4096,18.1535],[105.4149,18.1742],[105.4376,18.1804],[105.4478,18.203],[105.4808,18.196],[105.5056,18.1789],[105.5215,18.1263],[105.5394,18.1058],[105.5401,18.082],[105.5681,18.0861],[105.5856,18.0384],[105.5811,18.0142],[105.6429,17.9926],[105.6418,17.9626],[105.6274,17.9498],[105.6193,17.8739],[105.6737,17.84],[105.6926,17.7679],[105.7199,17.7533],[105.7438,17.7217],[105.7512,17.6693],[105.7677,17.6743],[105.8174,17.6595],[105.8452,17.6277],[105.8612,17.6274],[106.0921,17.3601],[106.1316,17.337],[106.1422,17.3157],[106.1717,17.2981],[106.2351,17.2503],[106.2604,17.2536],[106.3032,17.2953],[106.3094,17.252],[106.3248,17.2158],[106.3031,17.2078],[106.3553,17.1554],[106.357,17.1338],[106.3728,17.1107],[106.4074,17.0886],[106.4022,17.0518],[106.4241,17.0308],[106.4275,17.0057],[106.4603,17.0008],[106.471,16.983],[106.516,16.971],[106.5304,16.9781],[106.5491,17.0074],[106.5478,16.9259],[106.5164,16.9144],[106.5191,16.8897],[106.5508,16.8675],[106.5518,16.6944],[106.5655,16.6671],[106.5645,16.6423],[106.6083,16.6073],[106.6483,16.5936],[106.6723,16.5621],[106.6474,16.5403],[106.647,16.5223],[106.6653,16.5033],[106.6745,16.4737],[106.6955,16.4399],[106.7342,16.4249],[106.7715,16.432],[106.7699,16.4665],[106.8056,16.4774],[106.8286,16.5219],[106.8302,16.5488],[106.863,16.5414],[106.8866,16.5218],[106.8866,16.4909],[106.8764,16.4702],[106.8869,16.4488],[106.8741,16.4259],[106.8959,16.4122],[106.8977,16.3916],[106.9381,16.3642],[106.9622,16.3586],[106.9699,16.3024],[107.0041,16.3162],[107.0443,16.3005],[107.0877,16.3119],[107.1456,16.2711],[107.157,16.2564],[107.1469,16.2215],[107.1587,16.1702],[107.1946,16.1451],[107.2449,16.148],[107.2839,16.1189],[107.3078,16.0815],[107.3298,16.0598],[107.4005,16.0647],[107.4536,16.0877],[107.4461,16.0394],[107.4675,16.025],[107.4323,15.9574],[107.4157,15.9124],[107.3927,15.8872],[107.3482,15.8936],[107.2575,15.8485],[107.2336,15.8437],[107.2164,15.8221],[107.2294,15.7837],[107.2115,15.7571],[107.2133,15.7391],[107.2443,15.7454],[107.2519,15.7219],[107.2772,15.6967],[107.2638,15.6583],[107.2913,15.6235],[107.3165,15.6264],[107.3431,15.6143],[107.3647,15.5699],[107.3648,15.5475],[107.3805,15.508],[107.4157,15.4906],[107.4345,15.5037],[107.4708,15.4967],[107.5139,15.4738],[107.5271,15.4422],[107.5186,15.4162],[107.5607,15.3946],[107.6034,15.4215],[107.6237,15.4136],[107.5954,15.382],[107.6088,15.3673],[107.6098,15.3347],[107.635,15.3192],[107.6149,15.2876],[107.6261,15.2262],[107.6021,15.2039],[107.6229,15.1351],[107.6229,15.1093],[107.5981,15.087],[107.6211,15.0509],[107.6014,15.0491],[107.5774,15.0297],[107.5406,15.0493],[107.4968,15.0203],[107.4736,15.0202],[107.4678,14.9876],[107.4786,14.9591],[107.5059,14.9288],[107.5303,14.928],[107.5442,14.9055],[107.5849,14.892],[107.5899,14.8637],[107.5703,14.852],[107.54,14.8182],[107.5094,14.7957],[107.5421,14.7501],[107.5213,14.7279],[107.5562,14.7208],[107.5601,14.6943],[107.5513,14.6409],[107.5596,14.6226],[107.5223,14.5881],[107.5322,14.5463],[107.5063,14.4851],[107.5057,14.4579],[107.4896,14.4288],[107.489,14.4072],[107.4605,14.406],[107.4108,14.3566],[107.3908,14.3263],[107.4067,14.2985],[107.4097,14.2647],[107.3774,14.1793],[107.3408,14.1323],[107.3445,14.107],[107.3672,14.0835],[107.3657,14.0347],[107.3574,14.0279],[107.3863,13.9896],[107.4322,13.9938],[107.4555,13.9802],[107.4533,13.93],[107.4696,13.9213],[107.4703,13.8907],[107.454,13.8708],[107.4717,13.8575],[107.4555,13.8283],[107.4514,13.7946],[107.4934,13.7728],[107.5358,13.7415],[107.5523,13.6941],[107.5705,13.6627],[107.5727,13.6244],[107.617,13.5259],[107.6277,13.3665],[107.6093,13.3169],[107.548,13.1701],[107.4944,13.0263],[107.4882,12.9711],[107.4918,12.8975],[107.5266,12.8404],[107.5542,12.8175],[107.5627,12.7884],[107.5591,12.7161],[107.5821,12.6797],[107.5692,12.6426],[107.586,12.598],[107.5793,12.5811],[107.5895,12.5587],[107.5624,12.5166],[107.5798,12.4953],[107.5653,12.4704],[107.5676,12.4543],[107.5438,12.4155],[107.5543,12.3793],[107.5475,12.3608],[107.5116,12.329],[107.4684,12.3106],[107.4444,12.2884],[107.4341,12.2461],[107.4155,12.2463],[107.3871,12.271],[107.3889,12.2851],[107.3628,12.3194],[107.3378,12.3265],[107.2694,12.3253],[107.2299,12.2956],[107.2088,12.2998],[107.183,12.2832],[107.1556,12.2779],[107.1386,12.2301],[107.1123,12.2178],[107.0927,12.1812],[107.0554,12.1519],[107.0447,12.1314],[107.0034,12.0894],[106.9269,12.0633],[106.8457,12.0741],[106.8154,12.0834],[106.7902,12.0754],[106.7682,12.0491],[106.7454,12.001],[106.722,11.9736],[106.6834,11.965],[106.6661,11.9838],[106.6358,11.9611],[106.627,11.9745],[106.5312,11.9685],[106.51,11.9801],[106.496,11.9691],[106.4693,11.9732],[106.4545,11.9888],[106.4321,11.9721],[106.4119,11.9736],[106.4667,11.8675],[106.4467,11.8662],[106.4379,11.8402],[106.4477,11.827],[106.434,11.8079],[106.4159,11.7595],[106.4276,11.7271],[106.4535,11.6904],[106.4403,11.6692],[106.3997,11.6914],[106.367,11.6964],[106.3173,11.6756],[106.2989,11.6812],[106.2497,11.7283],[106.2125,11.7288],[106.1807,11.7476],[106.1524,11.7368],[106.103,11.7487],[106.069,11.7762],[106.0242,11.7744],[106.0104,11.7498],[106.0157,11.7362],[106.003,11.704],[105.9776,11.6842],[105.9815,11.6676],[105.9545,11.6412],[105.9255,11.6492],[105.8907,11.6762],[105.8558,11.6646],[105.8279,11.6199],[105.8122,11.6199],[105.811,11.588],[105.8268,11.5648],[105.8588,11.5645],[105.8807,11.5457],[105.8848,11.4843],[105.8747,11.462],[105.9038,11.4403],[105.8705,11.3742],[105.8835,11.3678],[105.8695,11.322],[105.8769,11.2881],[105.909,11.2834],[105.9108,11.2406],[105.9263,11.2183],[105.9633,11.1962],[106.014,11.1847],[106.0231,11.1404],[106.0884,11.1013],[106.1087,11.0714],[106.1213,11.0887],[106.1584,11.0968],[106.1877,11.0512],[106.1964,10.9941],[106.1906,10.9717],[106.154,10.9829],[106.1439,10.9776],[106.1509,10.9411],[106.1377,10.9155],[106.163,10.8865],[106.1876,10.8401],[106.1894,10.7906],[106.1654,10.8117],[106.0934,10.808],[106.0727,10.8111],[106.0155,10.8502],[105.9769,10.8898],[105.9301,10.8631],[105.936,10.8392],[105.8984,10.8442],[105.8497,10.8631],[105.8643,10.8993],[105.8071,10.9735],[105.7789,11.0317],[105.7258,11.0241],[105.6645,10.9865],[105.5365,10.9518],[105.4961,10.9481],[105.4735,10.9647],[105.4516,10.955],[105.4272,10.9728],[105.4069,10.9356],[105.3378,10.8602],[105.2649,10.8968],[105.2387,10.8928],[105.1977,10.9114],[105.155,10.9233],[105.1051,10.9195],[105.1178,10.9474],[105.1123,10.9621],[105.0802,10.9546],[105.0791,10.9364],[105.0538,10.9304],[105.045,10.9016],[105.0294,10.8924],[105.0586,10.8191],[105.0643,10.7813],[105.092,10.756],[105.0983,10.721],[104.9569,10.6378],[104.9341,10.6108],[104.8969,10.5471],[104.8691,10.5222],[104.7541,10.5176],[104.6892,10.5376],[104.6481,10.5396],[104.6464,10.5291],[104.5874,10.528],[104.5827,10.5042],[104.5594,10.4925],[104.5548,10.4625],[104.5185,10.4408],[104.4986,10.4047],[104.4792,10.4307],[104.4392,10.4231],[104.4528,10.3999],[104.4432,10.3646],[104.4772,10.378],[104.5089,10.3491],[104.5281,10.3216],[104.5276,10.3012],[104.5664,10.278],[104.5866,10.244],[104.5969,10.1826],[104.6162,10.148],[104.6467,10.1471],[104.6792,10.1912],[104.7201,10.2226],[104.7415,10.2275],[104.7735,10.217],[104.8163,10.1838],[104.8634,10.1105],[104.8937,10.0862],[104.9501,10.0966],[104.9913,10.0987],[105.0761,10.012],[105.1029,9.9525],[105.0886,9.9267],[105.0688,9.9489],[105.0431,9.9383],[105.004,9.9054],[104.9579,9.8565],[104.9036,9.8531],[104.8876,9.8306],[104.8761,9.7725],[104.8575,9.7152],[104.8445,9.6316],[104.8329,9.4926],[104.8291,9.3745],[104.8249,9.3548],[104.8206,9.2525],[104.809,9.1789],[104.81,9.1172],[104.8022,9.0182],[104.8048,8.9803],[104.7995,8.8986],[104.7817,8.8293],[104.7821,8.8061],[104.8032,8.7765],[104.832,8.7761],[104.9033,8.8022],[104.877,8.7584],[104.8594,8.7433],[104.7944,8.7275],[104.7788,8.6948],[104.7965,8.6523],[104.7491,8.6409],[104.7303,8.6499],[104.7128,8.6326],[104.7174,8.6077],[104.7484,8.5913],[104.8025,8.5797],[104.838,8.5612],[105.0005,8.5988],[105.053,8.6219],[105.1079,8.636],[105.1294,8.6713],[105.179,8.7379],[105.2211,8.7568],[105.2688,8.7702],[105.3275,8.8296],[105.3468,8.86],[105.3883,8.9568],[105.3951,8.9959],[105.4244,9.0213],[105.4614,9.0656],[105.5082,9.1013],[105.5422,9.1197],[105.5994,9.1397],[105.7192,9.1935],[105.7524,9.2049],[105.7838,9.2254],[105.8808,9.2675],[106.0044,9.3049],[106.0988,9.3362],[106.1372,9.3363],[106.1869,9.3791],[106.1858,9.4168],[106.1721,9.4247],[106.2049,9.4552],[106.2101,9.4777],[106.2665,9.5063],[106.2828,9.5353],[106.2926,9.5765],[106.3088,9.5952],[106.3414,9.5748],[106.3681,9.5492],[106.372,9.5309],[106.4063,9.5376],[106.4135,9.5292],[106.488,9.5505],[106.526,9.5768],[106.5576,9.6167],[106.5784,9.6594],[106.5639,9.7424],[106.6458,9.8183],[106.6646,9.8401],[106.6872,9.8852],[106.6493,9.9358],[106.6506,9.9789],[106.6971,10.0267],[106.7341,10.0403],[106.7778,10.0888],[106.7894,10.1082],[106.7892,10.1518],[106.7762,10.1702],[106.7533,10.1807],[106.7566,10.2055],[106.781,10.2225],[106.7802,10.2488],[106.7558,10.2664],[106.7817,10.2926],[106.7827,10.3756],[106.8225,10.3774],[106.8346,10.3542],[106.8946,10.3651],[106.9706,10.3948],[106.9856,10.4132],[106.9661,10.4465],[106.9966,10.4605],[107.0415,10.4656],[107.0763,10.4317],[107.1134,10.4359],[107.1181,10.4167],[107.0924,10.3879],[107.0788,10.3925],[107.0554,10.3737],[107.0738,10.3304],[107.1661,10.3998],[107.2101,10.4053],[107.2394,10.3787],[107.2546,10.3794],[107.2953,10.4249],[107.3217,10.4466],[107.3605,10.4649],[107.4425,10.4677],[107.4701,10.4981],[107.5157,10.5032],[107.5707,10.5684],[107.6198,10.5935],[107.6628,10.6086],[107.7069,10.6326],[107.7275,10.6314],[107.7796,10.6554],[107.8212,10.7009],[107.8447,10.7037],[107.8969,10.7221],[107.994,10.7002],[108.0148,10.7366],[108.038,10.8327],[108.0629,10.8837],[108.0851,10.9141],[108.1348,10.9342],[108.1604,10.93],[108.2297,10.9547],[108.266,10.9464],[108.2824,10.9345],[108.3106,10.9576],[108.3402,10.9581],[108.3477,10.999],[108.3743,11.0327],[108.411,11.0324],[108.4346,11.0469],[108.4596,11.0393],[108.4743,11.05],[108.4845,11.086],[108.5119,11.1406],[108.5226,11.1511],[108.5621,11.1627],[108.5802,11.1798],[108.6232,11.1837],[108.6532,11.1936],[108.7119,11.1755],[108.7298,11.1842],[108.7456,11.2315],[108.7546,11.28],[108.7766,11.2882],[108.7864,11.3124],[108.8277,11.3197],[108.851,11.3345],[108.8885,11.3359],[108.9324,11.3073],[108.9637,11.3164],[109.019,11.3601],[109.006,11.3931],[109.0133,11.4245],[109.0126,11.5157],[109.0349,11.5497],[109.0248,11.5634],[109.0372,11.5884],[109.0672,11.5819],[109.0903,11.5875],[109.1285,11.5754],[109.1394,11.5838],[109.1523,11.62],[109.1663,11.6216],[109.1731,11.6635],[109.1999,11.7111],[109.2285,11.7211],[109.2312,11.7476],[109.1875,11.7887],[109.1797,11.8548],[109.2128,11.8825],[109.2318,11.8808],[109.2493,11.8632],[109.2715,11.8659],[109.2583,11.9237],[109.276,11.9444],[109.2723,11.9703],[109.25,11.9777],[109.2186,12.0286],[109.1953,12.0896],[109.1966,12.1176],[109.2119,12.1229],[109.2207,12.1541],[109.2011,12.1636],[109.2169,12.2113],[109.1984,12.2357],[109.2076,12.2909],[109.2347,12.308],[109.1984,12.3465],[109.198,12.395],[109.1635,12.4046],[109.1567,12.4236],[109.1781,12.4555],[109.2074,12.4379],[109.2441,12.4035],[109.261,12.3624],[109.2928,12.3459],[109.302,12.38],[109.3373,12.388],[109.3222,12.4165],[109.2897,12.4279],[109.2878,12.4565],[109.2975,12.4733],[109.2517,12.5067],[109.2303,12.5344],[109.2319,12.5934],[109.2117,12.5699],[109.1903,12.63],[109.229,12.6947],[109.2562,12.7024],[109.3151,12.7654],[109.3317,12.7933],[109.3516,12.7994],[109.3531,12.7632],[109.3774,12.7057],[109.3529,12.692],[109.344,12.6657],[109.401,12.6751],[109.408,12.633],[109.3974,12.6071],[109.4354,12.5856],[109.4351,12.6414],[109.4539,12.6676],[109.4257,12.6695],[109.3821,12.7371],[109.3665,12.7727],[109.3571,12.8216],[109.391,12.8442],[109.4136,12.8692],[109.4587,12.8949],[109.4272,12.948],[109.3699,13.0175],[109.3313,13.0878],[109.3045,13.1214],[109.2931,13.1661],[109.3015,13.1872],[109.2934,13.216],[109.3172,13.2545],[109.2841,13.3154],[109.2944,13.3646],[109.2643,13.3561],[109.2312,13.4137],[109.2226,13.4414],[109.2282,13.48],[109.2475,13.4938],[109.267,13.4793],[109.2913,13.4473],[109.2589,13.428],[109.2727,13.4156],[109.3096,13.4175],[109.3199,13.4441],[109.2983,13.4734],[109.2794,13.5327],[109.2816,13.5724],[109.2604,13.5871],[109.2259,13.641],[109.2341,13.6803],[109.2183,13.7146],[109.2146,13.7452],[109.24,13.7711],[109.2679,13.757],[109.2933,13.7671],[109.2856,13.8044],[109.2991,13.8265],[109.2937,13.8936],[109.2693,13.8975],[109.2452,13.9369],[109.2568,13.9624],[109.2469,14.0076],[109.2539,14.0162],[109.2234,14.0661],[109.2049,14.1136],[109.2214,14.1382],[109.1843,14.2021],[109.1816,14.2211],[109.1981,14.2351],[109.1847,14.2788],[109.1337,14.351],[109.1207,14.3795],[109.1277,14.3938],[109.1152,14.4242],[109.1245,14.4451],[109.0986,14.4878],[109.0683,14.5595],[109.0723,14.6024],[109.0654,14.6496],[109.0832,14.6683],[109.0779,14.7021],[109.0286,14.7761],[109.0027,14.821],[108.9563,14.9183],[108.9137,15.0384],[108.8969,15.1285],[108.8949,15.1882],[108.9011,15.2015],[108.941,15.2271],[108.9404,15.2426],[108.8979,15.2586],[108.8695,15.302],[108.8701,15.3304],[108.8048,15.3985],[108.7654,15.3867],[108.7298,15.4062],[108.6969,15.4403],[108.6961,15.4716],[108.6183,15.5149],[108.58,15.5572],[108.5257,15.6283],[108.4331,15.7742],[108.4126,15.819],[108.4062,15.8721],[108.3297,15.9211],[108.2955,15.9573],[108.2708,16.0016],[108.2479,16.0567],[108.2537,16.0969],[108.2803,16.0973],[108.338,16.1209],[108.2755,16.1332],[108.2591,16.1526],[108.2345,16.1474],[108.2206,16.1242],[108.2408,16.1101],[108.2012,16.0736],[108.1544,16.0895],[108.1248,16.1243],[108.1556,16.19],[108.1793,16.2],[108.1484,16.2211],[108.1186,16.2123],[108.0905,16.2271],[108.0378,16.3091],[107.9694,16.3229],[107.8933,16.3723],[107.797,16.4565],[107.7105,16.5247],[107.664,16.5551],[107.5963,16.5883],[107.5052,16.6521],[107.4068,16.7307],[107.3094,16.8023],[107.2314,16.8691],[107.1794,16.9214],[107.1421,16.9645],[107.1168,17.0038],[107.1129,17.0857],[107.0124,17.1495],[106.8165,17.2957],[106.7398,17.3626],[106.6555,17.4509],[106.5899,17.5439],[106.548,17.6195],[106.5139,17.6616],[106.4692,17.7475],[106.4445,17.8326],[106.45,17.8674],[106.4842,17.922],[106.5114,17.9426],[106.4576,18.0159],[106.4419,18.0447],[106.4209,18.1026],[106.4021,18.0991],[106.3566,18.1097],[106.2873,18.1758],[106.2525,18.2152],[106.2354,18.2164],[106.1604,18.2682],[106.122,18.2657],[106.1005,18.276],[106.0487,18.322],[106.0082,18.3659],[105.9597,18.4285],[105.9393,18.4667],[105.9155,18.4661],[105.8531,18.5508],[105.821,18.6105],[105.7986,18.6714],[105.775,18.764],[105.7607,18.7646],[105.7332,18.7958],[105.7151,18.8446],[105.6906,18.8743],[105.6372,18.8972],[105.628,18.9202],[105.6182,18.9775],[105.6213,19.0215],[105.6405,19.0667],[105.6738,19.0975],[105.6961,19.0878],[105.7256,19.103],[105.7337,19.203],[105.748,19.2291],[105.7712,19.2337],[105.7844,19.2748],[105.8017,19.276],[105.819,19.3096],[105.7882,19.3709],[105.7847,19.3993],[105.8101,19.4415],[105.807,19.4882],[105.8134,19.5734],[105.819,19.5805],[105.8373,19.6628],[105.8565,19.7063],[105.8791,19.7294],[105.9056,19.7427],[105.9337,19.7798],[105.9356,19.8394],[105.9539,19.878],[105.9497,19.907],[105.9677,19.9347],[106.0258,19.9599],[106.0663,19.9383],[106.103,19.9571],[106.1392,19.9679],[106.2078,20.012],[106.289,20.1032],[106.3663,20.1815],[106.3865,20.1957],[106.4385,20.2129],[106.5368,20.2253],[106.5523,20.2029],[106.5834,20.218],[106.6052,20.2564],[106.6153,20.3035],[106.5944,20.3232],[106.5774,20.3682],[106.6009,20.4463],[106.5983,20.4992],[106.5811,20.5162],[106.5851,20.5503],[106.6085,20.5775],[106.6902,20.6326],[106.7084,20.6631],[106.7078,20.6856],[106.7894,20.725],[106.7722,20.7691],[106.77,20.7955],[106.8597,20.7902],[106.9035,20.8007],[106.8755,20.8294],[106.8658,20.8692],[106.8766,20.8911],[106.9397,20.916],[106.9412,20.934],[106.9619,20.9508],[106.9876,20.9567],[107.0315,20.9462],[107.0591,20.9577],[107.0755,20.9458],[107.0984,20.9486],[107.157,20.9277],[107.1998,20.9351],[107.1968,20.9499],[107.2137,20.9722],[107.2495,20.9976],[107.2716,21.001],[107.328,20.9865],[107.3536,20.999],[107.3834,21.0409],[107.4124,21.0515],[107.4258,21.0679],[107.4622,21.0829],[107.4788,21.1031],[107.5327,21.1363],[107.5818,21.1767],[107.5843,21.2059],[107.5378,21.1961],[107.5304,21.2168],[107.5005,21.2457],[107.5005,21.2923],[107.565,21.2871],[107.6055,21.2911],[107.6306,21.3304],[107.6756,21.3807],[107.755,21.404],[107.7654,21.4469],[107.7921,21.4722],[107.8492,21.4595],[107.8937,21.4625],[107.8841,21.4372],[107.9105,21.4211],[107.9215,21.403],[107.9472,21.4006],[107.9658,21.4385]]],[[[107.3621,20.8609],[107.3929,20.8796],[107.3733,20.8917],[107.3299,20.876],[107.3621,20.8609]]],[[[107.9782,21.3972],[107.9174,21.3842],[107.8632,21.3809],[107.8461,21.339],[107.8796,21.3567],[107.9231,21.3624],[107.9433,21.3555],[107.9782,21.3972]]],[[[107.7997,21.3361],[107.816,21.358],[107.7258,21.3137],[107.7394,21.3062],[107.7997,21.3361]]],[[[107.8423,21.011],[107.863,21.0265],[107.838,21.0439],[107.8137,21.0168],[107.8423,21.011]]],[[[107.5753,21.1039],[107.5495,21.1142],[107.5279,21.0834],[107.5385,21.0651],[107.5709,21.0846],[107.5753,21.1039]]],[[[107.5116,20.8801],[107.5399,20.9179],[107.5607,20.9331],[107.5415,20.9597],[107.5181,20.9151],[107.4816,20.9012],[107.4754,20.8813],[107.5116,20.8801]]],[[[107.5177,20.9238],[107.5394,20.978],[107.5509,20.9919],[107.5359,21.0096],[107.5332,21.0393],[107.491,20.9948],[107.4877,20.9641],[107.4541,20.9167],[107.4611,20.905],[107.5177,20.9238]]],[[[107.7643,20.9565],[107.7859,20.9907],[107.7482,21.0239],[107.73,21.0022],[107.7612,20.974],[107.7643,20.9565]]],[[[107.572,20.9869],[107.6092,21.0647],[107.5874,21.0715],[107.5852,21.0362],[107.5646,20.9998],[107.572,20.9869]]]]},"properties":{"GID_0":"VNM","ISO_A2":"VN","ISO_A3":"VNM","NAME_EN":"Vietnam","NAME_IT":"Vietnam"}}
]}