{"type":"FeatureCollection", "features": [
{"type":"Feature","geometry":{"type":"Polygon","coordinates":[[[25.8783,-17.9722],[25.979,-17.9965],[26.0918,-17.9673],[26.1009,-17.9211],[26.2381,-17.9131],[26.3992,-17.9359],[26.554,-17.9858],[26.5868,-18.0424],[26.7178,-18.0774],[26.8262,-17.9901],[27.0347,-17.9622],[27.1461,-17.8415],[27.1317,-17.8019],[27.3438,-17.5754],[27.5523,-17.4107],[27.6203,-17.3344],[27.6298,-17.2476],[27.8376,-16.9634],[28.1696,-16.8277],[28.2757,-16.7279],[28.6745,-16.5628],[28.7531,-16.5556],[28.8293,-16.4917],[28.8655,-16.3711],[28.8541,-16.1595],[28.8741,-16.031],[28.9542,-15.9444],[29.0235,-15.9457],[29.214,-15.7809],[29.4527,-15.6805],[29.6576,-15.6542],[29.8007,-15.6073],[29.9817,-15.6369],[30.1751,-15.6178],[30.2013,-15.6502],[30.3609,-15.6457],[30.3937,-15.4811],[30.3641,-15.3266],[30.2841,-15.2599],[30.2209,-15.0739],[30.2194,-14.9979],[30.3743,-14.9603],[30.481,-14.9062],[30.7963,-14.7834],[31.1531,-14.698],[31.3271,-14.6392],[31.5064,-14.601],[31.6661,-14.5033],[31.8317,-14.4674],[31.9561,-14.401],[32.2376,-14.3149],[32.4242,-14.2786],[32.9055,-14.1021],[33.2302,-13.9997],[33.1402,-13.9396],[33.0006,-14.0185],[32.9937,-13.9522],[32.8293,-13.7267],[32.7588,-13.5828],[32.8405,-13.5406],[32.9437,-13.3963],[32.9473,-13.2983],[33.0261,-13.2142],[33.0023,-13.118],[33.0407,-12.9453],[32.9816,-12.8702],[32.9612,-12.7757],[33.065,-12.6262],[33.215,-12.6296],[33.2899,-12.5486],[33.3991,-12.5104],[33.5294,-12.3478],[33.4496,-12.3179],[33.3529,-12.3466],[33.286,-12.238],[33.2455,-12.1108],[33.2947,-12.0068],[33.3048,-11.6058],[33.2422,-11.5317],[33.2305,-11.4288],[33.3702,-11.241],[33.4029,-11.1606],[33.3285,-11.074],[33.2485,-10.8738],[33.381,-10.813],[33.4516,-10.8245],[33.5575,-10.7176],[33.7062,-10.6024],[33.6347,-10.4726],[33.5751,-10.4496],[33.5385,-10.3191],[33.5617,-10.2586],[33.4951,-10.1816],[33.3159,-10.0693],[33.3949,-9.9054],[33.3735,-9.8578],[33.2451,-9.7558],[33.2023,-9.6001],[33.0393,-9.6366],[32.9511,-9.4916],[32.9445,-9.4202],[32.7656,-9.3195],[32.7553,-9.282],[32.5459,-9.2544],[32.4372,-9.1181],[32.2554,-9.1303],[32.0694,-9.0481],[31.9881,-9.0753],[31.9369,-9.0191],[31.9505,-8.9359],[31.8015,-8.8851],[31.7358,-8.9233],[31.5793,-8.8369],[31.5815,-8.7373],[31.459,-8.6391],[31.212,-8.5762],[31.0969,-8.6214],[31.0169,-8.5767],[30.8421,-8.3572],[30.796,-8.2767],[30.564,-8.2972],[30.4295,-8.2733],[29.6979,-8.3696],[29.6269,-8.4165],[29.5602,-8.3804],[28.9899,-8.4618],[28.9506,-8.5104],[28.7993,-8.8987],[28.6161,-9.0821],[28.3906,-9.2257],[28.4081,-9.3225],[28.5164,-9.379],[28.6675,-9.8185],[28.6149,-9.9966],[28.6113,-10.1744],[28.5715,-10.2254],[28.6295,-10.3069],[28.6313,-10.5287],[28.6983,-10.6684],[28.5461,-10.8708],[28.5461,-10.9486],[28.4836,-11.1045],[28.5042,-11.1728],[28.3918,-11.5872],[28.4295,-11.7237],[28.5044,-11.873],[28.7197,-11.9914],[28.8825,-12.1529],[28.9642,-12.2094],[29.0509,-12.3782],[29.1335,-12.393],[29.2817,-12.368],[29.4943,-12.4514],[29.4683,-12.3022],[29.5853,-12.185],[29.6757,-12.228],[29.8223,-12.1467],[29.8257,-12.4954],[29.8114,-13.445],[29.7074,-13.4504],[29.6113,-13.4074],[29.6757,-13.263],[29.5745,-13.2125],[29.4437,-13.3108],[29.1703,-13.442],[29.1041,-13.3788],[28.9959,-13.4267],[28.8892,-13.1691],[28.8423,-13.1584],[28.8241,-13.032],[28.7772,-12.9566],[28.6402,-12.826],[28.5509,-12.9039],[28.4583,-12.7426],[28.5121,-12.6451],[28.3839,-12.5177],[28.3152,-12.419],[28.2061,-12.4268],[28.0583,-12.3956],[27.9343,-12.2603],[27.853,-12.2436],[27.7638,-12.2945],[27.6509,-12.2848],[27.5322,-12.1751],[27.4652,-12.0424],[27.4688,-11.9306],[27.2923,-11.803],[27.232,-11.784],[27.209,-11.566],[27.0165,-11.6148],[27.0478,-11.707],[27.0082,-11.8414],[26.8867,-11.9768],[26.7952,-11.9596],[26.7114,-12.0011],[26.5714,-11.9743],[26.4733,-11.9164],[26.33,-11.9586],[26.2238,-11.9238],[26.0119,-11.9337],[25.9578,-11.873],[25.7053,-11.8034],[25.6526,-11.7279],[25.5088,-11.7871],[25.4775,-11.6783],[25.3313,-11.6201],[25.2771,-11.3681],[25.3432,-11.2149],[25.0174,-11.2408],[24.6975,-11.3263],[24.5793,-11.4359],[24.4343,-11.4544],[24.3665,-11.3993],[24.3831,-11.2775],[24.3741,-11.0888],[24.2931,-11.0438],[24.128,-11.0093],[24.1159,-10.9138],[23.9786,-10.9045],[24.0296,-11.1557],[24.0236,-11.2477],[24.0769,-11.3809],[23.9671,-11.6619],[24.0174,-11.8252],[23.9901,-11.8869],[23.9754,-12.1248],[24.0679,-12.2952],[24.0579,-12.4263],[23.9517,-12.5346],[23.9001,-12.7833],[23.9537,-12.8836],[24.0659,-12.9984],[23.0893,-12.9928],[22.0029,-12.9973],[21.98,-14.5139],[22.0013,-16.2119],[22.0821,-16.2799],[22.1413,-16.4761],[22.2561,-16.5815],[22.49,-16.8377],[22.6869,-17.0124],[22.8286,-17.1637],[22.9985,-17.2721],[23.1039,-17.4137],[23.2489,-17.5348],[23.3491,-17.5557],[23.438,-17.6357],[24.2411,-17.469],[24.4571,-17.4772],[24.5742,-17.5366],[24.7019,-17.4933],[24.8732,-17.5239],[25.0408,-17.5842],[25.1676,-17.7385],[25.3433,-17.8295],[25.6181,-17.8354],[25.6735,-17.8052],[25.8498,-17.9016],[25.8783,-17.9722]]]},"properties":{"GID_0":"ZMB","ISO_A2":"ZM","ISO_A3":"ZMB","NAME_EN":"Zambia","NAME_IT":"Zambia"}}
]}