{"type":"FeatureCollection", "features": [
{"type":"Feature","geometry":{"type":"Polygon","coordinates":[[[-2.0276,49.1974],[-2.0328,49.2016],[-2.0407,49.203],[-2.0517,49.2028],[-2.0678,49.1995],[-2.0687,49.1832],[-2.0774,49.1801],[-2.0691,49.1749],[-2.0555,49.181],[-2.0374,49.1711],[-2.0376,49.1649],[-2.0285,49.1643],[-2.0335,49.189],[-2.0276,49.1974]]]},"properties":{"NAME_1":"Grouville","GID_1":"JEY.1_1"}},
{"type":"Feature","geometry":{"type":"Polygon","coordinates":[[[-2.1602,49.1949],[-2.2116,49.2046],[-2.2243,49.2008],[-2.2299,49.1893],[-2.2451,49.1815],[-2.2243,49.1732],[-2.1937,49.1843],[-2.176,49.171],[-2.1688,49.1779],[-2.1685,49.1899],[-2.1602,49.1949]]]},"properties":{"NAME_1":"SaintBerlade","GID_1":"JEY.2_1"}},
{"type":"Feature","geometry":{"type":"Polygon","coordinates":[[[-2.0774,49.1801],[-2.0833,49.1795],[-2.0934,49.1784],[-2.0763,49.1624],[-2.0563,49.169],[-2.0376,49.1649],[-2.0374,49.1711],[-2.0555,49.181],[-2.0691,49.1749],[-2.0774,49.1801]]]},"properties":{"NAME_1":"SaintClement","GID_1":"JEY.3_1"}},
{"type":"Feature","geometry":{"type":"Polygon","coordinates":[[[-2.0973,49.1763],[-2.0955,49.1996],[-2.0869,49.2043],[-2.085,49.2071],[-2.0866,49.2071],[-2.0884,49.21],[-2.1123,49.2111],[-2.1233,49.2143],[-2.1337,49.2073],[-2.1376,49.196],[-2.1185,49.1888],[-2.1179,49.1724],[-2.0973,49.1763]]]},"properties":{"NAME_1":"SaintHelier","GID_1":"JEY.4_1"}},
{"type":"Feature","geometry":{"type":"Polygon","coordinates":[[[-2.1207,49.2174],[-2.108,49.2195],[-2.1117,49.2474],[-2.1215,49.2551],[-2.1371,49.254],[-2.1521,49.2624],[-2.164,49.2526],[-2.1529,49.2418],[-2.1478,49.2379],[-2.1213,49.2329],[-2.1194,49.2232],[-2.1207,49.2174]]]},"properties":{"NAME_1":"SaintJohn","GID_1":"JEY.5_1"}},
{"type":"Feature","geometry":{"type":"Polygon","coordinates":[[[-2.1207,49.2174],[-2.1194,49.2232],[-2.1213,49.2329],[-2.1536,49.2343],[-2.1535,49.2257],[-2.161,49.2206],[-2.1591,49.2139],[-2.1563,49.2052],[-2.1548,49.1963],[-2.1376,49.196],[-2.1337,49.2073],[-2.1233,49.2143],[-2.1207,49.2174]]]},"properties":{"NAME_1":"SaintLawrence","GID_1":"JEY.6_1"}},
{"type":"Feature","geometry":{"type":"Polygon","coordinates":[[[-2.0276,49.1974],[-2.0171,49.1985],[-2.0293,49.2185],[-2.0232,49.2326],[-2.0435,49.2372],[-2.0617,49.2363],[-2.0686,49.2284],[-2.0621,49.2223],[-2.0617,49.219],[-2.0568,49.2109],[-2.047,49.207],[-2.0328,49.2016],[-2.0276,49.1974]]]},"properties":{"NAME_1":"SaintMartin","GID_1":"JEY.7_1"}},
{"type":"Feature","geometry":{"type":"Polygon","coordinates":[[[-2.164,49.2526],[-2.2011,49.2474],[-2.1804,49.2388],[-2.1811,49.2346],[-2.1645,49.2228],[-2.1535,49.2257],[-2.1536,49.2343],[-2.1478,49.2379],[-2.1529,49.2418],[-2.164,49.2526]]]},"properties":{"NAME_1":"SaintMary","GID_1":"JEY.8_1"}},
{"type":"Feature","geometry":{"type":"Polygon","coordinates":[[[-2.2011,49.2474],[-2.2307,49.2601],[-2.2474,49.2588],[-2.2546,49.2529],[-2.2285,49.2218],[-2.2271,49.2155],[-2.2148,49.2168],[-2.2053,49.2154],[-2.1909,49.2231],[-2.1858,49.2337],[-2.1804,49.2388],[-2.2011,49.2474]]]},"properties":{"NAME_1":"SaintOuen","GID_1":"JEY.9_1"}},
{"type":"Feature","geometry":{"type":"Polygon","coordinates":[[[-2.1602,49.1949],[-2.1548,49.1963],[-2.1563,49.2052],[-2.1591,49.2139],[-2.161,49.2206],[-2.1645,49.2228],[-2.1811,49.2346],[-2.1858,49.2337],[-2.1909,49.2231],[-2.2053,49.2154],[-2.2148,49.2168],[-2.2271,49.2155],[-2.2243,49.2008],[-2.2116,49.2046],[-2.1602,49.1949]]]},"properties":{"NAME_1":"SaintPeter","GID_1":"JEY.10_1"}},
{"type":"Feature","geometry":{"type":"Polygon","coordinates":[[[-2.0407,49.203],[-2.047,49.207],[-2.0568,49.2109],[-2.0617,49.219],[-2.0621,49.2223],[-2.0702,49.2232],[-2.0873,49.2135],[-2.0847,49.209],[-2.0854,49.2057],[-2.0955,49.1996],[-2.0973,49.1763],[-2.0934,49.1784],[-2.0833,49.1795],[-2.0687,49.1832],[-2.0678,49.1995],[-2.0517,49.2028],[-2.0407,49.203]]]},"properties":{"NAME_1":"SaintSaviour","GID_1":"JEY.11_1"}},
{"type":"Feature","geometry":{"type":"Polygon","coordinates":[[[-2.085,49.2071],[-2.0873,49.2135],[-2.0702,49.2232],[-2.0686,49.2284],[-2.0617,49.2363],[-2.0779,49.239],[-2.0993,49.2554],[-2.1117,49.2474],[-2.108,49.2195],[-2.1123,49.2111],[-2.0884,49.21],[-2.0866,49.2071],[-2.085,49.2071]]]},"properties":{"NAME_1":"Trinity","GID_1":"JEY.12_1"}}
]}