{"type":"FeatureCollection", "features": [
{"type":"Feature","geometry":{"type":"Polygon","coordinates":[[[27.2491,-11.7946],[27.2923,-11.803],[27.4688,-11.9306],[27.4652,-12.0424],[27.511,-12.0891],[27.5322,-12.1751],[27.6509,-12.2848],[27.7638,-12.2945],[27.853,-12.2436],[27.9343,-12.2603],[28.0443,-12.3499],[28.0583,-12.3956],[28.2061,-12.4268],[28.3152,-12.419],[28.3839,-12.5177],[28.5121,-12.6451],[28.4583,-12.7426],[28.5281,-12.831],[28.5509,-12.9039],[28.6402,-12.826],[28.7772,-12.9566],[28.8241,-13.032],[28.8423,-13.1584],[28.8892,-13.1691],[28.9692,-13.3879],[28.9959,-13.4267],[29.1041,-13.3788],[29.1703,-13.442],[29.2983,-13.3706],[29.4437,-13.3108],[29.5745,-13.2125],[29.6757,-13.263],[29.6113,-13.4074],[29.7074,-13.4504],[29.8114,-13.445],[29.8257,-12.4954],[29.8223,-12.1467],[29.7542,-12.1615],[29.6757,-12.228],[29.5853,-12.185],[29.4995,-12.2394],[29.4683,-12.3022],[29.4943,-12.4514],[29.2817,-12.368],[29.1335,-12.393],[29.0509,-12.3782],[28.9642,-12.2094],[28.8825,-12.1529],[28.7247,-11.9926],[28.5044,-11.873],[28.4295,-11.7237],[28.4294,-11.6323],[28.3935,-11.5933],[28.4077,-11.4759],[28.5042,-11.1728],[28.4836,-11.1045],[28.5461,-10.9486],[28.5469,-10.8636],[28.6223,-10.7271],[28.6983,-10.6684],[28.6599,-10.6294],[28.6719,-10.5592],[28.6313,-10.5287],[28.6295,-10.3069],[28.5715,-10.2254],[28.6113,-10.1744],[28.6335,-10.024],[28.6149,-9.9966],[28.6675,-9.8185],[28.62,-9.7013],[28.5621,-9.4941],[28.5123,-9.4472],[28.5164,-9.379],[28.4081,-9.3225],[28.3906,-9.2257],[28.6161,-9.0821],[28.7086,-9.0051],[28.7993,-8.8987],[28.9506,-8.5104],[28.9899,-8.4618],[29.5602,-8.3804],[29.6269,-8.4165],[29.6979,-8.3696],[30.4295,-8.2733],[30.564,-8.2972],[30.7951,-8.2768],[30.733,-8.1031],[30.6516,-7.9807],[30.5222,-7.62],[30.423,-7.418],[30.3589,-7.2478],[30.2386,-7.0218],[30.0851,-6.8361],[29.827,-6.643],[29.7466,-6.5535],[29.6549,-6.413],[29.595,-6.252],[29.5793,-6.1468],[29.5782,-5.9629],[29.607,-5.7748],[29.576,-5.556],[29.3731,-5.0169],[29.3372,-4.8536],[29.3272,-4.6989],[29.3943,-4.5054],[29.3821,-4.2108],[29.3478,-4.0414],[29.2537,-3.9181],[29.2318,-3.7905],[29.2455,-3.6422],[29.2382,-3.5211],[29.2009,-3.3087],[29.2346,-3.2687],[29.2243,-3.1804],[29.2573,-3.0863],[29.1677,-2.9597],[29.0967,-2.9206],[29.0402,-2.7431],[28.9178,-2.6804],[28.8835,-2.393],[28.9496,-2.3764],[29.0099,-2.2901],[29.1172,-2.2533],[29.1745,-2.1238],[29.1259,-1.8896],[29.142,-1.8438],[29.3367,-1.5472],[29.45,-1.5061],[29.5259,-1.4094],[29.5889,-1.3857],[29.6042,-1.2153],[29.5723,-1.188],[29.5964,-0.9844],[29.6311,-0.8975],[29.6365,-0.6729],[29.6595,-0.6231],[29.6773,-0.3428],[29.7296,-0.0908],[29.7574,-0.0138],[29.7152,0.0376],[29.7348,0.1271],[29.8229,0.1748],[29.8639,0.353],[29.9904,0.535],[29.9548,0.6355],[29.9848,0.8498],[30.1158,0.8973],[30.2262,0.9999],[30.2399,1.1004],[30.3892,1.1909],[30.4755,1.2127],[30.5497,1.2663],[30.6325,1.411],[30.701,1.496],[31.0334,1.7574],[31.1996,1.9672],[31.3056,2.1165],[31.3057,2.1571],[31.1306,2.2647],[31.0635,2.3532],[30.9805,2.4075],[30.931,2.336],[30.881,2.346],[30.834,2.426],[30.7409,2.4504],[30.778,2.6039],[30.8374,2.7673],[30.8902,2.8585],[30.858,2.9619],[30.7807,3.0229],[30.8097,3.1617],[30.89,3.34],[30.9378,3.4046],[30.9374,3.5082],[30.8724,3.4826],[30.857,3.569],[30.667,3.636],[30.5919,3.5943],[30.5557,3.8274],[30.4716,3.8269],[30.4303,3.871],[30.264,3.9563],[30.2226,3.9374],[30.1481,4.1035],[30.0572,4.1394],[30.0299,4.1925],[29.9023,4.3436],[29.7984,4.3683],[29.8203,4.5587],[29.7332,4.5745],[29.708,4.6163],[29.611,4.6609],[29.5026,4.6853],[29.4087,4.4833],[29.306,4.3783],[29.199,4.3562],[29.1392,4.4275],[29.0281,4.4907],[28.9027,4.471],[28.8064,4.4904],[28.7866,4.5582],[28.7166,4.534],[28.6622,4.4196],[28.5239,4.3716],[28.4804,4.3032],[28.4145,4.2828],[28.3535,4.3377],[28.2386,4.3296],[28.0389,4.467],[28.0263,4.5381],[27.8683,4.5479],[27.7769,4.6662],[27.789,4.7541],[27.7137,4.7859],[27.6575,4.8913],[27.5803,4.8854],[27.4316,5.0777],[27.2318,5.1523],[27.1574,5.1996],[27.0787,5.2041],[26.9351,5.1342],[26.8722,5.0338],[26.75,5.1035],[26.4637,5.0585],[26.3909,5.1474],[26.3017,5.1417],[26.1339,5.2506],[26.0631,5.1943],[25.9852,5.2397],[25.9167,5.1833],[25.862,5.2198],[25.7497,5.2378],[25.6587,5.328],[25.5879,5.3699],[25.4975,5.3641],[25.3762,5.3209],[25.3207,5.1874],[25.3552,5.1491],[25.318,5.0362],[25.1364,5],[25,5],[24.7845,4.9055],[24.6682,4.9163],[24.6105,5.0321],[24.5344,5.0805],[24.4073,5.1106],[24.3808,5.0107],[24.2983,5.0029],[24.1632,4.8972],[24.096,4.912],[23.9491,4.8523],[23.9498,4.8094],[23.8335,4.8294],[23.7803,4.7836],[23.7092,4.7823],[23.5821,4.733],[23.4259,4.6446],[23.4209,4.5889],[23.2752,4.6304],[23.1716,4.7382],[23.1133,4.708],[23.0323,4.7658],[22.9748,4.847],[22.9067,4.8179],[22.8701,4.7131],[22.7905,4.7145],[22.7426,4.6284],[22.6882,4.4613],[22.5967,4.4634],[22.5462,4.2708],[22.5504,4.2154],[22.445,4.124],[22.2813,4.1121],[22.164,4.154],[22.095,4.212],[22.007,4.239],[21.9547,4.224],[21.651,4.309],[21.5519,4.2471],[21.4278,4.2607],[21.279,4.338],[21.2113,4.287],[21.1189,4.3361],[21.054,4.401],[20.857,4.4455],[20.7833,4.4125],[20.656,4.4217],[20.6127,4.4016],[20.5329,4.4425],[20.4534,4.525],[20.453,4.627],[20.3579,4.737],[20.1963,4.8273],[20.1626,4.8702],[20.024,4.966],[19.915,4.98],[19.848,5.074],[19.696,5.133],[19.5549,5.1457],[19.4034,5.1211],[19.3589,5.073],[19.2413,5.0069],[19.212,4.9498],[19.098,4.922],[19.01,4.753],[18.906,4.656],[18.8318,4.5583],[18.794,4.423],[18.6761,4.3531],[18.6068,4.3576],[18.546,4.302],[18.6488,4.0764],[18.652,3.978],[18.602,3.896],[18.587,3.751],[18.65,3.331],[18.6417,3.2089],[18.5848,3.0976],[18.529,3.062],[18.4389,2.8766],[18.433,2.7779],[18.33,2.5845],[18.242,2.507],[18.212,2.399],[18.106,2.2666],[18.0888,2.0896],[18.0672,2.0213],[18.0925,1.9621],[18.0583,1.8038],[18.0833,1.7039],[18.068,1.5214],[17.976,1.338],[17.9418,1.1645],[17.8501,1.0124],[17.845,0.919],[17.8953,0.7751],[17.874,0.66],[17.886,0.572],[17.9599,0.4662],[17.954,0.3653],[17.855,0.26],[17.787,0.143],[17.771,0],[17.714,-0.128],[17.7404,-0.3977],[17.7001,-0.5676],[17.6096,-0.6935],[17.457,-0.876],[17.3412,-0.9905],[17.237,-1.047],[17.13,-1.064],[16.9302,-1.186],[16.846,-1.264],[16.7415,-1.433],[16.589,-1.7452],[16.538,-1.829],[16.4055,-1.992],[16.242,-2.123],[16.1915,-2.225],[16.1843,-2.3829],[16.2349,-2.6032],[16.1802,-2.875],[16.1953,-3.016],[16.1783,-3.1021],[16.1841,-3.2505],[16.2224,-3.2963],[16.1871,-3.3954],[16.0581,-3.6089],[15.9437,-3.8411],[15.9005,-3.9514],[15.7138,-3.9941],[15.5564,-4.0482],[15.5144,-4.1066],[15.4994,-4.2123],[15.4153,-4.2965],[15.3132,-4.2789],[15.1943,-4.3476],[15.0872,-4.5105],[14.9131,-4.6811],[14.8438,-4.8245],[14.6879,-4.9176],[14.592,-4.9034],[14.4899,-4.8482],[14.412,-4.8936],[14.406,-4.688],[14.3589,-4.5436],[14.4426,-4.4829],[14.4388,-4.4126],[14.3873,-4.3412],[14.3206,-4.3141],[14.1993,-4.3909],[14.0205,-4.4308],[13.9691,-4.5113],[13.8768,-4.4946],[13.8192,-4.4225],[13.7359,-4.4578],[13.7506,-4.5383],[13.7169,-4.725],[13.6307,-4.7423],[13.5944,-4.8138],[13.4436,-4.868],[13.3792,-4.8669],[13.3727,-4.7986],[13.3025,-4.7822],[13.1825,-4.639],[13.1063,-4.6473],[12.8152,-4.7858],[12.7238,-4.9431],[12.6396,-4.9509],[12.6295,-5.0206],[12.469,-5.0888],[12.5375,-5.1389],[12.5372,-5.4612],[12.5089,-5.4701],[12.5092,-5.6641],[12.5351,-5.7339],[12.2657,-5.7433],[12.2015,-5.7724],[12.4374,-6.0573],[12.6875,-6.0027],[12.7937,-5.9679],[12.8489,-5.9151],[12.963,-5.8992],[13.0051,-5.8557],[13.1176,-5.8996],[13.2128,-5.8576],[13.3604,-5.8997],[13.4262,-5.862],[13.531,-5.8951],[13.5917,-5.8763],[13.8387,-5.8756],[13.9878,-5.8429],[14.0381,-5.8842],[14.1773,-5.8616],[14.4586,-5.9012],[14.6108,-5.9097],[14.7003,-5.881],[14.9622,-5.8734],[15.7811,-5.8785],[16.3659,-5.8647],[16.4546,-5.8963],[16.5121,-5.8787],[16.5997,-5.9186],[16.6116,-6.0917],[16.7216,-6.1663],[16.69,-6.4006],[16.7621,-6.5383],[16.7978,-6.6947],[16.8763,-6.8469],[16.9404,-6.8748],[16.9371,-6.9578],[16.9827,-7.0233],[16.928,-7.0842],[16.9689,-7.1635],[17.0055,-7.3],[17.1164,-7.3576],[17.1084,-7.4176],[17.2375,-7.5959],[17.3063,-7.6369],[17.2923,-7.6937],[17.3787,-7.786],[17.4424,-7.9273],[17.4909,-7.9585],[17.5603,-8.1274],[17.7287,-8.0965],[17.7837,-8.1128],[17.885,-8.079],[18.1004,-8.0991],[18.0983,-8.0402],[18.2265,-7.9892],[18.3757,-8.0273],[18.3911,-8],[18.527,-8],[18.5582,-7.9336],[18.7776,-7.9221],[18.8002,-8],[19.4357,-7.9985],[19.3574,-7.9282],[19.3616,-7.812],[19.409,-7.701],[19.3687,-7.5831],[19.462,-7.571],[19.5294,-7.447],[19.4876,-7.3151],[19.4965,-7.176],[19.5636,-7.0573],[19.5439,-6.9998],[20.3017,-6.998],[20.3152,-6.928],[20.6213,-6.9317],[20.5446,-7.141],[20.5435,-7.2815],[20.815,-7.2804],[20.8217,-7.2933],[21.3775,-7.2791],[21.4871,-7.2872],[21.7797,-7.2747],[21.8203,-7.3289],[21.8567,-7.4702],[21.8477,-7.6049],[21.768,-7.7774],[21.7712,-8.0004],[21.8792,-8.1976],[21.9577,-8.503],[21.9226,-8.6],[21.903,-8.7669],[21.8589,-8.9083],[21.8437,-9.1205],[21.859,-9.2372],[21.798,-9.4303],[21.8294,-9.4571],[21.8802,-9.6508],[21.969,-9.731],[22.0245,-9.8338],[22.185,-9.9169],[22.2183,-10.0228],[22.223,-10.159],[22.3125,-10.3402],[22.3228,-10.4202],[22.278,-10.516],[22.3159,-10.5421],[22.3344,-10.7559],[22.181,-10.852],[22.208,-10.954],[22.227,-11.117],[22.2997,-11.244],[22.347,-11.179],[22.426,-11.179],[22.4872,-11.1322],[22.5083,-11.0434],[22.585,-11.036],[22.723,-11.11],[22.787,-11.113],[22.8591,-11.0616],[23.073,-11.123],[23.203,-11.102],[23.4355,-10.9382],[23.672,-11.008],[23.7634,-10.9974],[23.872,-11.017],[23.984,-10.8941],[24.1159,-10.9138],[24.128,-11.0093],[24.2931,-11.0438],[24.3741,-11.0888],[24.3943,-11.2274],[24.3831,-11.2775],[24.2979,-11.3992],[24.3665,-11.3993],[24.4343,-11.4544],[24.5793,-11.4359],[24.6975,-11.3263],[25.0174,-11.2408],[25.0711,-11.25],[25.2234,-11.2222],[25.2832,-11.1903],[25.3432,-11.2149],[25.2771,-11.3681],[25.3313,-11.6201],[25.4775,-11.6783],[25.5088,-11.7871],[25.5956,-11.7319],[25.6526,-11.7279],[25.7053,-11.8034],[25.8353,-11.8262],[25.9578,-11.873],[26.0119,-11.9337],[26.2238,-11.9238],[26.33,-11.9586],[26.4733,-11.9164],[26.5714,-11.9743],[26.7114,-12.0011],[26.7952,-11.9596],[26.8867,-11.9768],[27.0082,-11.8414],[27.0046,-11.7458],[27.0478,-11.707],[27.0165,-11.6148],[27.209,-11.566],[27.2491,-11.7946]]]},"properties":{"GID_0":"COD","ISO_A2":"CD","ISO_A3":"COD","NAME_EN":"Dem. Rep. Congo","NAME_IT":"Repubblica Democratica del Congo"}}
]}