{"type":"FeatureCollection", "features": [
{"type":"Feature","geometry":{"type":"Polygon","coordinates":[[[26.1659,-24.6919],[26.3933,-24.6366],[26.4711,-24.589],[26.5103,-24.488],[26.7201,-24.3198],[26.8424,-24.2745],[26.8668,-24.2427],[26.8787,-24.1656],[26.8632,-24.0997],[26.9093,-24.0284],[26.9278,-23.9224],[26.9553,-23.8736],[26.9517,-23.7943],[26.9711,-23.7028],[27.0028,-23.6443],[27.1458,-23.5748],[27.1348,-23.5336],[27.1924,-23.4981],[27.303,-23.4627],[27.3877,-23.39],[27.5287,-23.3853],[27.5628,-23.3496],[27.5729,-23.2653],[27.5997,-23.2176],[27.7037,-23.2037],[27.7521,-23.2193],[27.7819,-23.1431],[27.9201,-23.0683],[27.9437,-23.0349],[27.9353,-22.9656],[28.0389,-22.911],[28.0392,-22.8425],[28.1624,-22.7559],[28.1604,-22.7169],[28.2097,-22.6645],[28.3461,-22.572],[28.48,-22.571],[28.5083,-22.5888],[28.5641,-22.561],[28.6413,-22.558],[28.7381,-22.5043],[28.8311,-22.4883],[28.8799,-22.4477],[28.9118,-22.4614],[28.9715,-22.377],[28.9666,-22.3075],[29.0359,-22.2166],[29.1555,-22.2143],[29.2189,-22.1781],[29.3608,-22.1966],[29.2871,-22.1216],[29.2485,-22.0607],[29.1466,-22.0772],[29.0836,-22.0486],[29.0367,-21.9972],[29.0272,-21.8936],[29.0621,-21.8029],[28.9847,-21.7719],[28.9427,-21.7761],[28.6713,-21.6787],[28.6503,-21.654],[28.5673,-21.6324],[28.4904,-21.6671],[28.3665,-21.6073],[28.2768,-21.5979],[28.2003,-21.6108],[28.1104,-21.5864],[28.0305,-21.5818],[27.9666,-21.5138],[27.9749,-21.4563],[27.9166,-21.3628],[27.9008,-21.3028],[27.7911,-21.1778],[27.753,-21.1553],[27.686,-21.0658],[27.7124,-20.9676],[27.6901,-20.8799],[27.7134,-20.8492],[27.7342,-20.7521],[27.7041,-20.6108],[27.7287,-20.554],[27.6838,-20.4903],[27.5718,-20.4953],[27.4758,-20.4734],[27.3582,-20.4735],[27.285,-20.4978],[27.2979,-20.2999],[27.2813,-20.2258],[27.2426,-20.1425],[27.1911,-20.0835],[27.1095,-20.0837],[27.0563,-20.0225],[26.9679,-20.02],[26.8086,-19.9823],[26.7931,-19.9485],[26.7172,-19.9439],[26.6989,-19.8985],[26.6162,-19.8876],[26.5751,-19.8086],[26.4919,-19.7611],[26.4166,-19.7382],[26.3844,-19.6748],[26.3035,-19.5807],[26.2443,-19.5894],[26.1605,-19.5377],[26.1372,-19.443],[26.0434,-19.2199],[25.9762,-19.1368],[25.9581,-19.0925],[25.9917,-19.0398],[25.9873,-18.9991],[25.9409,-18.9104],[25.8196,-18.8437],[25.79,-18.7571],[25.786,-18.6405],[25.7102,-18.5978],[25.6499,-18.5089],[25.6093,-18.4879],[25.5223,-18.3857],[25.4901,-18.2961],[25.4205,-18.1588],[25.3563,-18.0903],[25.3222,-18.0779],[25.2372,-17.9177],[25.2631,-17.7995],[25.1629,-17.7808],[25.1135,-17.8294],[25.0104,-17.8371],[24.9663,-17.8042],[24.8133,-17.8563],[24.6322,-17.9818],[24.5752,-18.0651],[24.4894,-18.047],[24.4881,-18.0121],[24.4237,-17.9531],[24.368,-17.9511],[24.3072,-18.0023],[24.2011,-18.0166],[24.1174,-18.1044],[24.0732,-18.1148],[23.9816,-18.1896],[23.9353,-18.2058],[23.9249,-18.2488],[23.8755,-18.2759],[23.8085,-18.343],[23.7919,-18.3821],[23.6129,-18.504],[23.5688,-18.4767],[23.5564,-18.3407],[23.5249,-18.2739],[23.4129,-18.2044],[23.3782,-18.135],[23.3278,-18.0797],[23.2966,-17.9975],[23.1036,-17.9989],[22.9884,-18.0183],[21.4689,-18.318],[20.9988,-18.3179],[20.997,-20.9578],[21.0017,-22.0038],[20,-22.0018],[20.0002,-24.7669],[20.0902,-24.8328],[20.1152,-24.88],[20.2036,-24.8964],[20.2662,-24.9293],[20.2965,-24.9806],[20.3842,-25.0343],[20.4126,-25.0829],[20.4464,-25.199],[20.4997,-25.2722],[20.5427,-25.2928],[20.5392,-25.3448],[20.6434,-25.498],[20.6288,-25.5128],[20.6969,-25.5896],[20.6779,-25.6904],[20.7078,-25.7076],[20.7901,-25.8083],[20.8029,-25.921],[20.8374,-25.9508],[20.8187,-26.0586],[20.8633,-26.1327],[20.8152,-26.1924],[20.7904,-26.2712],[20.7594,-26.2865],[20.6462,-26.4351],[20.6174,-26.4437],[20.6048,-26.5147],[20.6304,-26.5825],[20.617,-26.6772],[20.6504,-26.8095],[20.6761,-26.861],[20.7635,-26.8664],[20.8178,-26.823],[20.8852,-26.7973],[20.9778,-26.8115],[21.0066,-26.8443],[21.0789,-26.8485],[21.1342,-26.8738],[21.2217,-26.8438],[21.2885,-26.849],[21.3327,-26.8256],[21.4049,-26.8221],[21.4854,-26.8414],[21.6031,-26.8451],[21.6269,-26.8666],[21.7033,-26.8574],[21.781,-26.8023],[21.7874,-26.6761],[21.8241,-26.6597],[21.949,-26.67],[22.0515,-26.6334],[22.2002,-26.4248],[22.1948,-26.3941],[22.2472,-26.347],[22.3668,-26.3192],[22.4023,-26.2441],[22.4789,-26.2012],[22.5288,-26.2267],[22.5777,-26.1916],[22.5875,-26.1416],[22.6731,-26.0737],[22.6692,-26.0139],[22.7249,-26.0151],[22.7229,-25.9084],[22.736,-25.8565],[22.7814,-25.8288],[22.7634,-25.781],[22.8535,-25.6116],[22.8148,-25.5788],[22.8526,-25.5355],[22.8477,-25.4966],[22.91,-25.4223],[23.0033,-25.3399],[23.1875,-25.279],[23.278,-25.2741],[23.4199,-25.3137],[23.4784,-25.2985],[23.5844,-25.3916],[23.6684,-25.4161],[23.7093,-25.4599],[23.758,-25.4687],[23.9016,-25.6224],[23.966,-25.6153],[24.0858,-25.6434],[24.1951,-25.6218],[24.2589,-25.7027],[24.3816,-25.7645],[24.4467,-25.7336],[24.6089,-25.8006],[24.6859,-25.8233],[24.729,-25.804],[24.7784,-25.8197],[24.8969,-25.8108],[24.9338,-25.7766],[25.0375,-25.7222],[25.1349,-25.7577],[25.347,-25.7666],[25.513,-25.6847],[25.5809,-25.6388],[25.6598,-25.4744],[25.6998,-25.291],[25.7291,-25.2569],[25.8829,-24.8759],[25.8424,-24.7903],[25.8583,-24.7572],[25.9644,-24.7494],[26.0074,-24.7243],[26.1659,-24.6919]]]},"properties":{"GID_0":"BWA","ISO_A2":"BW","ISO_A3":"BWA","NAME_EN":"Botswana","NAME_IT":"Botswana"}}
]}