{"type":"FeatureCollection", "features": [
{"type":"Feature","geometry":{"type":"Polygon","coordinates":[[[20.9673,40.9077],[20.9997,40.8553],[21.2221,40.8852],[21.3456,40.8766],[21.4363,40.9219],[21.5345,40.9114],[21.5948,40.8716],[21.7034,40.9398],[21.7968,40.9433],[21.9032,41.0587],[21.9078,41.0931],[22.0564,41.1602],[22.1385,41.1285],[22.2648,41.1676],[22.3383,41.1353],[22.5927,41.1197],[22.6681,41.1841],[22.7495,41.1826],[22.7684,41.3304],[22.9244,41.3413],[22.9378,41.4517],[22.926,41.6327],[23.0057,41.7182],[22.9502,41.7556],[22.847,41.9227],[22.8375,42.0071],[22.6574,42.0507],[22.5097,42.1298],[22.3648,42.3004],[22.2748,42.3379],[22.0201,42.2859],[21.9424,42.3204],[21.8722,42.2793],[21.6843,42.2276],[21.591,42.2489],[21.3885,42.222],[21.2392,42.0834],[21.1675,42.1702],[21.094,42.197],[20.9783,42.1327],[20.8232,42.0921],[20.739,42.0238],[20.743,41.8659],[20.6279,41.8483],[20.5194,41.7424],[20.5587,41.5836],[20.4558,41.5248],[20.5593,41.414],[20.4949,41.3392],[20.5394,41.1991],[20.6003,41.0919],[20.6699,41.0795],[20.738,40.9121],[20.8668,40.9246],[20.9673,40.9077]]]},"properties":{"GID_0":"MKD","ISO_A2":"MK","ISO_A3":"MKD","NAME_EN":"North Macedonia","NAME_IT":"Macedonia del Nord"}}
]}