{"type":"FeatureCollection", "features": [
{"type":"Feature","geometry":{"type":"MultiPolygon","coordinates":[[[[33.7929,44.3915],[33.8829,44.404],[33.971,44.391],[34.0929,44.4279],[34.1271,44.4285],[34.1646,44.4924],[34.251,44.5062],[34.3524,44.5868],[34.4162,44.6732],[34.4601,44.7124],[34.604,44.7726],[34.7229,44.8101],[34.8024,44.8199],[34.8968,44.8157],[34.9685,44.8407],[35.0307,44.8301],[35.0824,44.7918],[35.1257,44.8224],[35.1668,44.901],[35.2412,44.9188],[35.269,44.9682],[35.3224,44.9696],[35.3651,44.9943],[35.4065,45.0715],[35.5182,45.1226],[35.6035,45.1287],[35.7324,45.0913],[35.8065,45.0462],[35.839,44.9987],[35.9043,45.0187],[35.9543,45.0124],[36.0496,45.0507],[36.2265,45.0279],[36.2524,45.0507],[36.3749,45.059],[36.4465,45.0885],[36.406,45.1743],[36.4021,45.2132],[36.4335,45.2576],[36.4168,45.2835],[36.4799,45.3051],[36.4668,45.3365],[36.4996,45.3626],[36.6046,45.3476],[36.6468,45.3824],[36.5971,45.4376],[36.5288,45.4268],[36.4918,45.4507],[36.3913,45.4538],[36.3446,45.4796],[36.1432,45.4668],[36.0829,45.4482],[36.0585,45.391],[36.0204,45.3721],[35.9446,45.3771],[35.8763,45.4129],[35.8457,45.4468],[35.7537,45.3974],[35.7504,45.3621],[35.7165,45.3329],[35.596,45.3112],[35.5285,45.2835],[35.4529,45.3079],[35.3257,45.3918],[35.2021,45.5163],[35.1115,45.5932],[35.034,45.6799],[34.9679,45.7713],[34.8782,45.9299],[34.8424,46.0249],[34.8243,46.1376],[34.809,46.1585],[34.8479,46.2143],[34.8954,46.2385],[35.0443,46.2637],[35.109,46.3068],[35.1382,46.3513],[35.1999,46.381],[35.2687,46.3557],[35.3579,46.3599],[35.2624,46.2496],[35.2226,46.2212],[35.2143,46.1882],[34.9901,46.1046],[34.9951,46.079],[35.1554,46.1299],[35.1876,46.154],[35.2171,46.1885],[35.2385,46.221],[35.3462,46.3429],[35.4499,46.4393],[35.5785,46.4799],[35.7526,46.5988],[35.9215,46.6599],[36.0474,46.669],[36.109,46.6585],[36.1532,46.6707],[36.2196,46.661],[36.2551,46.6293],[36.2946,46.6385],[36.369,46.7049],[36.414,46.7263],[36.6124,46.7782],[36.721,46.7793],[36.7879,46.7499],[36.829,46.6999],[36.8963,46.8082],[37.0021,46.8688],[37.0368,46.871],[37.1626,46.9135],[37.2346,46.9512],[37.2921,46.9329],[37.3379,46.8913],[37.474,47.0282],[37.5357,47.0807],[37.6312,47.0951],[37.7057,47.0799],[37.7957,47.0854],[37.8999,47.111],[37.9715,47.0896],[38.0915,47.1071],[38.1315,47.0729],[38.1699,47.0743],[38.2346,47.1199],[38.2459,47.2284],[38.3342,47.253],[38.3256,47.3008],[38.2244,47.3131],[38.2525,47.3682],[38.3018,47.3827],[38.3113,47.4514],[38.2905,47.5202],[38.3154,47.5662],[38.3716,47.6111],[38.4667,47.6096],[38.4574,47.6374],[38.6143,47.6387],[38.6631,47.6637],[38.6751,47.6968],[38.7648,47.6841],[38.8394,47.8542],[38.93,47.8686],[39.0383,47.865],[39.1262,47.8397],[39.2259,47.866],[39.3161,47.8628],[39.3794,47.8758],[39.4065,47.8456],[39.456,47.8618],[39.5296,47.8292],[39.63,47.8404],[39.7263,47.8297],[39.8167,47.8831],[39.816,47.9456],[39.8479,47.9925],[39.8185,48.0079],[39.9039,48.1304],[39.9424,48.2171],[39.9964,48.2231],[40.0149,48.2666],[39.9864,48.3155],[39.9162,48.3002],[39.8503,48.3221],[39.938,48.3601],[39.9408,48.3868],[39.8519,48.4721],[39.8698,48.5198],[39.8501,48.5708],[39.7837,48.5931],[39.6887,48.5909],[39.6576,48.6242],[39.7084,48.6599],[39.7415,48.7787],[39.7807,48.7929],[39.797,48.85],[39.991,48.8012],[40.0756,48.8558],[40.0789,48.913],[40.0304,48.91],[39.9987,48.877],[39.9078,48.9124],[39.8298,48.8886],[39.7484,48.9927],[39.6777,49.0361],[39.7453,49.0448],[39.8147,49.0705],[39.9352,49.0634],[39.9611,49.1205],[40.0334,49.181],[40.076,49.188],[40.2003,49.2706],[40.1622,49.3995],[40.1633,49.4581],[40.2174,49.507],[40.2085,49.5617],[40.162,49.5962],[40.061,49.608],[39.9569,49.5984],[39.9131,49.5608],[39.7946,49.5696],[39.7196,49.6165],[39.6569,49.6268],[39.5973,49.7078],[39.6125,49.7424],[39.4528,49.7655],[39.3772,49.7396],[39.2654,49.7694],[39.2224,49.8498],[39.172,49.88],[39.0749,49.8205],[38.9371,49.8113],[38.9211,49.8689],[38.8496,49.8707],[38.7405,49.9141],[38.6983,49.955],[38.6118,49.9776],[38.504,49.9677],[38.4775,49.9992],[38.4242,49.9867],[38.3734,50.004],[38.3393,50.0859],[38.2439,50.065],[38.1998,50.0759],[38.1811,49.9591],[38.0478,49.9561],[37.9478,50.0196],[37.9338,50.0477],[37.7604,50.0963],[37.6523,50.1769],[37.6253,50.221],[37.6468,50.3053],[37.5742,50.3053],[37.4817,50.3539],[37.4931,50.429],[37.4095,50.411],[37.336,50.4209],[37.2936,50.3854],[37.167,50.3494],[37.0533,50.3343],[36.9256,50.3474],[36.8782,50.3393],[36.7112,50.2769],[36.6602,50.2287],[36.6147,50.2313],[36.5581,50.2868],[36.4931,50.3269],[36.4285,50.3249],[36.3843,50.296],[36.3154,50.294],[36.2688,50.3423],[36.2807,50.3594],[36.1826,50.4144],[36.155,50.4493],[36.0739,50.4637],[35.9769,50.461],[35.9368,50.4456],[35.8333,50.4501],[35.8099,50.4018],[35.7301,50.3594],[35.6313,50.3607],[35.5882,50.403],[35.5824,50.4666],[35.5122,50.4821],[35.4619,50.5267],[35.4477,50.5698],[35.4131,50.5897],[35.4165,50.6406],[35.5015,50.6883],[35.4722,50.7377],[35.4913,50.7714],[35.428,50.815],[35.4269,50.862],[35.3956,50.8852],[35.4055,50.9331],[35.3439,50.9486],[35.3551,50.9938],[35.4258,51.0333],[35.4236,51.054],[35.3128,51.0867],[35.2817,51.067],[35.1955,51.059],[35.1291,51.151],[35.1235,51.221],[34.9759,51.2369],[34.8321,51.1993],[34.8197,51.1763],[34.6879,51.1882],[34.6557,51.248],[34.5171,51.2468],[34.4146,51.2675],[34.3645,51.2331],[34.2707,51.2599],[34.3421,51.3578],[34.2253,51.3998],[34.2614,51.4633],[34.3182,51.5288],[34.2692,51.552],[34.2518,51.5886],[34.0914,51.6633],[34.127,51.6868],[34.2608,51.6977],[34.3065,51.7176],[34.4032,51.7208],[34.4322,51.7387],[34.3953,51.7828],[34.418,51.8213],[34.2655,51.9085],[34.2257,51.9061],[34.1988,51.9468],[34.157,51.9567],[34.0925,52.0153],[34.0692,52.069],[34.1143,52.134],[34.0182,52.1941],[33.9905,52.2302],[33.9342,52.2591],[33.923,52.3018],[33.8436,52.3037],[33.8325,52.3497],[33.7259,52.3545],[33.664,52.3257],[33.5712,52.3146],[33.5104,52.2927],[33.4721,52.3457],[33.4074,52.3601],[33.3439,52.3384],[33.243,52.3682],[33.1842,52.3631],[33.0813,52.304],[33.0526,52.3109],[32.9771,52.2648],[32.9088,52.2435],[32.88,52.2732],[32.7471,52.2705],[32.7066,52.2531],[32.6204,52.3022],[32.5319,52.3333],[32.3587,52.3358],[32.3963,52.2529],[32.3289,52.2354],[32.3512,52.139],[32.2992,52.092],[32.2299,52.0808],[32.21,52.0572],[32.0721,52.0228],[32.0219,52.0412],[31.9235,52.0361],[31.9497,52.0839],[31.8586,52.1076],[31.8077,52.0962],[31.6819,52.1147],[31.4796,52.1193],[31.4437,52.1375],[31.3068,52.0989],[31.2951,52.0696],[31.2354,52.0483],[31.1117,52.0948],[31.0574,52.0785],[30.9511,52.0785],[30.9406,51.9928],[30.862,51.9901],[30.8058,51.951],[30.8125,51.9161],[30.7118,51.8855],[30.6974,51.8379],[30.6239,51.7236],[30.578,51.711],[30.5677,51.6744],[30.521,51.6624],[30.5658,51.6076],[30.5288,51.5713],[30.5723,51.5044],[30.6166,51.4832],[30.6234,51.4061],[30.6571,51.3376],[30.6048,51.3216],[30.5881,51.2802],[30.5262,51.2698],[30.4646,51.3188],[30.4194,51.3126],[30.3288,51.3696],[30.3612,51.3786],[30.3485,51.4323],[30.2503,51.4937],[30.2018,51.5065],[30.0193,51.5172],[29.9931,51.4834],[29.9351,51.4898],[29.886,51.4549],[29.7853,51.4443],[29.7445,51.4787],[29.7209,51.529],[29.5929,51.475],[29.5227,51.493],[29.5084,51.4124],[29.4128,51.4303],[29.3621,51.3964],[29.3245,51.402],[29.3169,51.4491],[29.2417,51.497],[29.2648,51.5505],[29.2169,51.577],[29.1601,51.6507],[29.104,51.631],[29.0393,51.5805],[28.9049,51.5749],[28.8251,51.5428],[28.7843,51.4849],[28.8061,51.4611],[28.7141,51.4462],[28.6709,51.5168],[28.6805,51.5621],[28.6011,51.5643],[28.4892,51.5981],[28.3895,51.5604],[28.2973,51.633],[28.2594,51.6303],[28.2741,51.6978],[28.1715,51.6506],[28.0822,51.5702],[27.9658,51.5691],[27.9251,51.5865],[27.902,51.6364],[27.8339,51.6406],[27.8196,51.5876],[27.8328,51.5458],[27.7853,51.54],[27.7606,51.4928],[27.6697,51.5296],[27.7147,51.5727],[27.7198,51.6192],[27.6032,51.6209],[27.5126,51.6469],[27.4868,51.6221],[27.3788,51.6138],[27.349,51.6241],[27.2302,51.6024],[27.2625,51.6553],[27.1993,51.6837],[27.1935,51.7873],[26.9985,51.7816],[26.9852,51.764],[26.8673,51.781],[26.8265,51.7714],[26.7785,51.826],[26.5786,51.8292],[26.5217,51.8044],[26.3666,51.8766],[26.1936,51.881],[26.1163,51.9284],[26.0479,51.9423],[25.9616,51.9279],[25.854,51.9571],[25.8068,51.9331],[25.655,51.9332],[25.5682,51.9523],[25.4941,51.9323],[25.3703,51.9482],[25.2841,51.9834],[25.0869,51.9623],[24.995,51.9123],[24.946,51.9268],[24.8128,51.9037],[24.6039,51.9307],[24.4904,51.9129],[24.3869,51.9106],[24.3359,51.8348],[24.3543,51.7872],[24.2806,51.721],[24.1594,51.6702],[24.12,51.6211],[24.0271,51.5841],[23.9531,51.5916],[23.9451,51.6389],[23.8445,51.6387],[23.8386,51.6586],[23.6779,51.6461],[23.6555,51.6159],[23.6901,51.5899],[23.6721,51.5542],[23.689,51.5173],[23.6494,51.4463],[23.6941,51.4156],[23.6358,51.3285],[23.646,51.2927],[23.7196,51.267],[23.7393,51.2152],[23.8605,51.1578],[23.8496,51.124],[23.873,51.0822],[23.9111,51.0746],[23.9236,51.0189],[23.9704,50.9503],[24.0499,50.8941],[24.1423,50.8573],[24.1073,50.8387],[23.9976,50.8429],[23.9575,50.7945],[24.0238,50.7662],[24.0189,50.7258],[24.0715,50.7207],[24.0975,50.636],[24.0893,50.5596],[24.0345,50.4448],[23.9975,50.4121],[23.7667,50.4136],[23.7031,50.3753],[23.6863,50.3316],[23.6388,50.3205],[23.5816,50.2666],[23.4701,50.2179],[23.4294,50.1842],[23.2839,50.099],[23.213,50.0311],[23.0333,49.8813],[22.9544,49.8033],[22.8979,49.7645],[22.6408,49.53],[22.6997,49.4897],[22.6972,49.4448],[22.7468,49.3599],[22.7471,49.2168],[22.7077,49.1743],[22.889,49.092],[22.8471,49.0024],[22.7977,49.0493],[22.6611,49.0485],[22.6421,49.076],[22.5825,49.0973],[22.547,49.0623],[22.5422,49.0046],[22.478,48.9981],[22.429,48.9429],[22.4134,48.8881],[22.3848,48.8739],[22.3767,48.7932],[22.3462,48.7756],[22.3692,48.7384],[22.3541,48.6976],[22.3021,48.6826],[22.2396,48.6208],[22.193,48.6036],[22.1731,48.5668],[22.1483,48.4274],[22.2198,48.4273],[22.3394,48.3054],[22.3732,48.2389],[22.4428,48.2533],[22.5224,48.2373],[22.5923,48.1592],[22.5985,48.1133],[22.6782,48.0946],[22.7449,48.1233],[22.826,48.1198],[22.8804,48.0411],[22.8461,47.9884],[22.915,47.9604],[22.9444,47.9725],[22.9286,48.0194],[23.0168,47.9921],[23.0762,48.0089],[23.1526,48.1129],[23.289,48.0757],[23.3401,48.0185],[23.5027,47.969],[23.5358,48.0175],[23.6129,48.0084],[23.6663,47.984],[23.7734,47.9952],[23.8213,47.9807],[23.8529,47.937],[24.0107,47.9675],[24.1002,47.9368],[24.113,47.9153],[24.1983,47.9163],[24.2299,47.8967],[24.3265,47.9262],[24.3829,47.9267],[24.4375,47.9708],[24.514,47.9521],[24.5849,47.9651],[24.625,47.952],[24.6748,47.8937],[24.6746,47.8636],[24.7797,47.8377],[24.8798,47.7529],[24.8848,47.7246],[25.0414,47.7256],[25.1178,47.7681],[25.2236,47.8589],[25.2406,47.8962],[25.3125,47.9146],[25.5939,47.9387],[25.658,47.9497],[25.7763,47.9396],[25.8629,47.9704],[25.9536,47.9711],[26.0625,47.9883],[26.1026,47.9785],[26.1897,47.9957],[26.2137,48.051],[26.2685,48.0767],[26.3346,48.1825],[26.4068,48.1903],[26.4961,48.2186],[26.5516,48.2168],[26.6745,48.3082],[26.6905,48.3477],[26.7526,48.3186],[26.7727,48.2775],[26.8202,48.2932],[26.8288,48.3407],[26.7265,48.395],[26.8017,48.4164],[26.8887,48.4222],[26.9283,48.3705],[27.0029,48.3654],[27.0941,48.4091],[27.1506,48.3828],[27.1972,48.3962],[27.2295,48.3745],[27.2848,48.3841],[27.3239,48.4414],[27.3813,48.4106],[27.4642,48.4234],[27.4716,48.4489],[27.5661,48.4738],[27.6826,48.4435],[27.7636,48.4586],[27.8872,48.3905],[27.8614,48.3677],[27.9269,48.3286],[28.05,48.3271],[28.0965,48.3018],[28.0834,48.2534],[28.1076,48.2341],[28.1886,48.2554],[28.2179,48.2087],[28.3463,48.2493],[28.3717,48.2249],[28.3577,48.1851],[28.311,48.1565],[28.3542,48.1369],[28.3812,48.1756],[28.4264,48.1758],[28.4495,48.0884],[28.5331,48.1271],[28.5772,48.1722],[28.6556,48.1453],[28.8545,48.1217],[28.8556,48.033],[28.9438,47.9561],[28.989,47.979],[29.029,47.9489],[29.094,47.9466],[29.1032,47.9826],[29.1843,47.997],[29.2401,47.7978],[29.2677,47.758],[29.2222,47.724],[29.2419,47.6399],[29.2012,47.5715],[29.1318,47.5555],[29.2081,47.4399],[29.2519,47.4262],[29.3274,47.4384],[29.3393,47.3837],[29.3879,47.3861],[29.4079,47.3077],[29.4911,47.3157],[29.5036,47.3647],[29.5899,47.366],[29.6044,47.2635],[29.5607,47.244],[29.5912,47.1419],[29.515,47.1309],[29.5523,47.0804],[29.6104,47.105],[29.6275,47.0689],[29.608,47.0306],[29.6051,46.9695],[29.653,46.9259],[29.7381,46.9138],[29.7494,46.8688],[29.7961,46.8628],[29.8735,46.884],[29.8829,46.8455],[29.9387,46.8103],[29.9792,46.7636],[29.9729,46.6919],[29.9478,46.6522],[29.9672,46.5931],[29.9535,46.5631],[29.8938,46.5437],[29.9462,46.5013],[29.9942,46.5047],[30.0746,46.4033],[30.0104,46.3824],[29.9469,46.4028],[29.8855,46.3644],[29.8291,46.3821],[29.7542,46.4752],[29.737,46.4343],[29.6727,46.4388],[29.6804,46.3635],[29.5934,46.3643],[29.5605,46.4087],[29.4986,46.4436],[29.5089,46.4649],[29.4528,46.4972],[29.4013,46.4609],[29.3503,46.5063],[29.3145,46.4714],[29.3234,46.4185],[29.2166,46.397],[29.2418,46.4759],[29.2422,46.5633],[29.1506,46.5255],[29.0895,46.5279],[28.9342,46.4606],[28.9887,46.3261],[28.9482,46.2779],[29.056,46.2062],[28.9578,46.1081],[28.9982,46.0691],[28.9883,46.0236],[28.9542,46.0054],[28.7942,45.9772],[28.7651,45.9223],[28.7904,45.8464],[28.7119,45.8193],[28.7177,45.792],[28.6057,45.7688],[28.6003,45.7358],[28.5479,45.7372],[28.496,45.6753],[28.5276,45.6647],[28.5478,45.5836],[28.501,45.5675],[28.5163,45.5055],[28.4355,45.4876],[28.4062,45.5197],[28.3103,45.5456],[28.2689,45.5311],[28.2142,45.4668],[28.2884,45.4327],[28.287,45.4001],[28.3515,45.3202],[28.5625,45.2498],[28.6343,45.2448],[28.7204,45.2246],[28.7822,45.2377],[28.7534,45.2848],[28.792,45.2921],[28.8188,45.3363],[28.9155,45.288],[29.0454,45.361],[29.1705,45.3953],[29.2519,45.4353],[29.3005,45.4304],[29.4315,45.4429],[29.5947,45.3878],[29.6526,45.34],[29.6793,45.2695],[29.6634,45.2396],[29.6835,45.2061],[29.7282,45.2165],[29.766,45.3224],[29.7535,45.371],[29.7621,45.4482],[29.7179,45.4468],[29.6271,45.5088],[29.6918,45.5657],[29.8729,45.6751],[29.8124,45.694],[29.7885,45.7301],[29.9624,45.7779],[29.974,45.816],[29.9646,45.886],[30.056,45.811],[30.0921,45.8557],[30.139,45.871],[30.1535,45.8268],[30.2449,45.8815],[30.3563,45.9871],[30.4801,46.0799],[30.5126,46.1249],[30.5615,46.161],[30.6776,46.3204],[30.7454,46.3754],[30.7729,46.4368],[30.7363,46.5279],[30.7704,46.5535],[30.8563,46.5554],[31.0271,46.6035],[31.1724,46.6279],[31.2407,46.6096],[31.3524,46.6012],[31.3735,46.6237],[31.4804,46.6268],[31.5585,46.6129],[31.6376,46.6499],[31.8079,46.6162],[31.8788,46.6338],[31.9043,46.6563],[31.9174,46.7246],[31.8729,46.7663],[31.9126,46.8407],[31.9685,46.8688],[31.9346,46.7465],[31.9768,46.7099],[31.9815,46.6568],[32.0515,46.6149],[32.0965,46.6151],[32.1401,46.5571],[32.2421,46.5913],[32.3046,46.564],[32.2876,46.5243],[32.3182,46.4751],[32.0768,46.4987],[32.0168,46.4879],[31.914,46.5126],[31.8018,46.5274],[31.7551,46.5468],[31.6651,46.5368],[31.5485,46.5393],[31.6901,46.4435],[31.7129,46.4799],[31.7663,46.4874],[31.8865,46.4618],[31.9513,46.4393],[32.0126,46.4518],[32.0593,46.3979],[32.0065,46.359],[31.9232,46.336],[31.8379,46.3349],[31.7618,46.3082],[31.784,46.2757],[31.8738,46.2646],[31.9004,46.2976],[31.971,46.2571],[32.0468,46.2574],[32.1115,46.2096],[32.219,46.1899],[32.2254,46.1329],[32.4087,46.0901],[32.5426,46.0654],[32.546,46.0812],[32.6454,46.1063],[32.6751,46.0993],[32.769,46.1224],[32.9326,46.1057],[33.0146,46.1221],[33.0213,46.1521],[33.136,46.1246],[33.2051,46.174],[33.3054,46.1229],[33.4212,46.0304],[33.4704,46.0468],[33.5096,46.0818],[33.5093,46.1124],[33.5782,46.1576],[33.6132,46.1396],[33.6424,46.0812],[33.6149,46.0537],[33.6307,45.9571],[33.7532,45.9476],[33.6765,45.8982],[33.5679,45.8693],[33.5474,45.8376],[33.4946,45.8549],[33.4199,45.8307],[33.3593,45.7871],[33.2337,45.7507],[33.1846,45.769],[33.1426,45.7215],[33.096,45.7149],[32.9821,45.6732],[32.8243,45.5901],[32.7882,45.5621],[32.5635,45.4701],[32.5001,45.4229],[32.4799,45.3896],[32.4929,45.3488],[32.6529,45.3151],[32.7532,45.3646],[32.8596,45.3679],[32.9699,45.3518],[33.046,45.3707],[33.0315,45.2957],[33.1488,45.2035],[33.2818,45.1485],[33.306,45.1746],[33.3835,45.1971],[33.4238,45.1893],[33.5129,45.1338],[33.5615,45.0851],[33.6001,45.0101],[33.6129,44.9049],[33.5935,44.8457],[33.5496,44.8343],[33.5335,44.7915],[33.5476,44.7287],[33.5426,44.6576],[33.5054,44.6168],[33.4471,44.6065],[33.4015,44.5593],[33.4868,44.4974],[33.5957,44.4935],[33.636,44.4724],[33.6468,44.4287],[33.7085,44.421],[33.7379,44.3868],[33.7929,44.3915]]],[[[32.5504,46.0676],[32.7368,46.034],[32.8765,46.0154],[33.0171,46.0068],[32.9474,46.0424],[32.8654,46.0607],[32.8121,46.0307],[32.7218,46.0379],[32.5504,46.0676]]]]},"properties":{"GID_0":"UKR","ISO_A2":"UA","ISO_A3":"UKR","NAME_EN":"Ukraine","NAME_IT":"Ucraina"}}
]}