{"type":"FeatureCollection", "features": [
{"type":"Feature","geometry":{"type":"Polygon","coordinates":[[[72.4388,-7.2338],[72.4499,-7.246],[72.4524,-7.2582],[72.4576,-7.2687],[72.4899,-7.2907],[72.4887,-7.3051],[72.4721,-7.3293],[72.4632,-7.3526],[72.4729,-7.3596],[72.4793,-7.3832],[72.4543,-7.4015],[72.4399,-7.4293],[72.4246,-7.4304],[72.4204,-7.4068],[72.4321,-7.3749],[72.4343,-7.3468],[72.4265,-7.3129],[72.4076,-7.3079],[72.3949,-7.2899],[72.3832,-7.2874],[72.374,-7.2743],[72.3721,-7.2585],[72.3546,-7.2687],[72.3974,-7.3082],[72.4276,-7.3318],[72.4304,-7.3621],[72.4179,-7.4068],[72.4218,-7.4399],[72.4382,-7.4426],[72.4646,-7.4035],[72.494,-7.3815],[72.4735,-7.3538],[72.4751,-7.3329],[72.4924,-7.3115],[72.4935,-7.291],[72.4643,-7.2713],[72.454,-7.2587],[72.4488,-7.2396],[72.4388,-7.2338]]]},"properties":{"GID_0":"IOT","ISO_A2":"IO","ISO_A3":"IOT","NAME_EN":"Br. Indian Ocean Ter.","NAME_IT":"Territorio britannico dell'oceano Indiano"}}
]}