{"type":"FeatureCollection", "features": [
{"type":"Feature","geometry":{"type":"Polygon","coordinates":[[[18.6682,42.386],[18.7065,42.3224],[18.7757,42.2682],[18.8882,42.2749],[18.9051,42.2199],[18.9604,42.1957],[19.0112,42.1332],[19.0607,42.134],[19.0721,42.0849],[19.1426,42.0424],[19.1529,41.9465],[19.3176,41.8851],[19.3799,41.9576],[19.3692,42.019],[19.3993,42.1047],[19.2858,42.18],[19.4129,42.3167],[19.4366,42.3811],[19.4728,42.3948],[19.5631,42.5161],[19.6198,42.5491],[19.6562,42.6239],[19.7294,42.6584],[19.7728,42.5922],[19.7437,42.5504],[19.7674,42.5026],[19.82,42.4695],[19.9371,42.5194],[19.9979,42.5113],[20.0463,42.5777],[20.0716,42.6461],[19.9794,42.7202],[20.017,42.768],[20.1961,42.7392],[20.2378,42.8076],[20.3137,42.8262],[20.3108,42.8912],[20.1094,42.9678],[20.0739,42.9551],[19.95,43.0437],[19.7392,43.1196],[19.7437,43.1509],[19.6488,43.1566],[19.566,43.2188],[19.4945,43.2465],[19.475,43.3007],[19.3669,43.3779],[19.1952,43.4566],[19.1573,43.5415],[19.0785,43.5216],[18.9864,43.5603],[18.9603,43.5338],[18.974,43.4627],[19.0174,43.4435],[19.0783,43.3172],[19.0166,43.2555],[18.9594,43.3004],[18.9158,43.3682],[18.6955,43.2666],[18.717,43.2361],[18.6632,43.192],[18.6562,43.137],[18.6789,43.0372],[18.5525,43.0387],[18.4923,42.9752],[18.5021,42.9004],[18.4899,42.7626],[18.5703,42.7134],[18.5524,42.6419],[18.4599,42.5373],[18.4809,42.4709],[18.5971,42.4329],[18.6629,42.456],[18.6949,42.4018],[18.5771,42.4323],[18.5749,42.386],[18.626,42.3621],[18.6682,42.386]]]},"properties":{"GID_0":"MNE","ISO_A2":"ME","ISO_A3":"MNE","NAME_EN":"Montenegro","NAME_IT":"Montenegro"}}
]}