{"type":"FeatureCollection", "features": [
{"type":"Feature","geometry":{"type":"MultiPolygon","coordinates":[[[[50.7718,25.6174],[50.7529,25.6132],[50.7615,25.6035],[50.7718,25.6174]]],[[[50.7946,25.6585],[50.7796,25.6579],[50.7857,25.6399],[50.8082,25.6304],[50.819,25.6413],[50.8124,25.651],[50.7946,25.6585]]],[[[50.8149,25.6854],[50.7996,25.6749],[50.806,25.6646],[50.8187,25.6699],[50.8149,25.6854]]],[[[50.7999,25.7299],[50.7696,25.7193],[50.7443,25.6882],[50.7388,25.6557],[50.7621,25.6304],[50.7735,25.6471],[50.7579,25.664],[50.7551,25.6849],[50.7754,25.6807],[50.789,25.6899],[50.7999,25.7299]]],[[[50.6312,26.144],[50.6237,26.1604],[50.6282,26.1696],[50.6249,26.1871],[50.6101,26.1865],[50.5982,26.1743],[50.6043,26.1551],[50.5801,26.1654],[50.5668,26.1787],[50.5649,26.1974],[50.5796,26.2051],[50.5946,26.1938],[50.6143,26.199],[50.6224,26.2157],[50.6013,26.2279],[50.5915,26.2457],[50.574,26.236],[50.541,26.2268],[50.5299,26.2346],[50.5051,26.2368],[50.4765,26.2343],[50.4601,26.2279],[50.4451,26.2118],[50.4554,26.1985],[50.4546,26.1826],[50.4468,26.1718],[50.419,26.1729],[50.3826,26.1693],[50.3788,26.1443],[50.3846,26.124],[50.3996,26.121],[50.4243,26.1315],[50.4168,26.1449],[50.4201,26.1674],[50.4468,26.1712],[50.4532,26.1407],[50.4663,26.109],[50.4782,26.0979],[50.4818,26.0799],[50.4801,26.0624],[50.4851,26.0415],[50.4726,26.0187],[50.4718,26.0035],[50.4546,25.979],[50.4574,25.956],[50.4715,25.9349],[50.4924,25.9243],[50.5226,25.8929],[50.5479,25.8546],[50.5549,25.8204],[50.571,25.8137],[50.5946,25.834],[50.6076,25.851],[50.6032,25.8604],[50.6104,25.9107],[50.6132,25.9701],[50.6249,26.011],[50.6263,26.031],[50.6207,26.0443],[50.6179,26.1013],[50.6393,26.1146],[50.6312,26.144]]],[[[50.6649,26.2293],[50.6507,26.2162],[50.6607,26.2029],[50.6696,26.1813],[50.6849,26.194],[50.6787,26.2154],[50.6846,26.226],[50.6649,26.2293]]],[[[50.6296,26.2876],[50.6029,26.2776],[50.6035,26.2488],[50.6118,26.241],[50.629,26.246],[50.6576,26.2476],[50.6585,26.2757],[50.6296,26.2876]]]]},"properties":{"GID_0":"BHR","ISO_A2":"BH","ISO_A3":"BHR","NAME_EN":"Bahrain","NAME_IT":"Bahrein"}}
]}