{"type":"FeatureCollection", "features": [
{"type":"Feature","geometry":{"type":"Polygon","coordinates":[[[47.7655,30.0728],[48.0174,30.0043],[48.1674,30.0357],[48.4368,29.9163],[48.4479,30.008],[48.383,30.1273],[48.3987,30.2104],[48.1705,30.4227],[48.0369,30.4827],[48.0308,30.9938],[47.7017,30.9925],[47.6992,31.4],[47.8649,31.7792],[47.6515,32.0789],[47.5379,32.1393],[47.5673,32.2239],[47.4453,32.3235],[47.3851,32.4671],[47.104,32.4788],[46.8236,32.7023],[46.6467,32.8207],[46.4086,32.9431],[46.1614,32.9527],[46.1157,33.1091],[46.1998,33.1741],[46.1973,33.2534],[46.0507,33.3739],[46.0355,33.4647],[45.95,33.5648],[45.7748,33.6137],[45.662,33.7262],[45.5247,33.9318],[45.4446,33.9413],[45.4841,34.0722],[45.5804,34.1433],[45.5944,34.28],[45.5034,34.3268],[45.4532,34.4576],[45.5241,34.5625],[45.749,34.5779],[45.6771,34.713],[45.7011,34.812],[45.8741,34.9015],[45.883,35.031],[45.9398,35.0819],[46.0517,35.0484],[46.1603,35.0838],[46.1887,35.2158],[46.1269,35.3395],[46.0509,35.3834],[46.0127,35.5222],[46.013,35.6778],[46.2795,35.7296],[46.2908,35.8308],[46.1564,35.8018],[46.0869,35.8601],[45.7574,35.804],[45.5616,35.9987],[45.3419,36.0068],[45.3871,36.0784],[45.2381,36.433],[45.0927,36.4348],[45.0475,36.7293],[44.8522,36.8152],[44.9241,36.9074],[44.9146,37.0286],[44.8366,37.0393],[44.7711,37.1675],[44.6377,37.1867],[44.5114,37.0935],[44.2688,36.983],[44.2027,37.1048],[44.2817,37.1622],[44.2374,37.2791],[44.0298,37.3247],[43.9513,37.2554],[43.6666,37.2309],[43.1674,37.374],[42.9603,37.3179],[42.8033,37.378],[42.7343,37.3479],[42.5916,37.1473],[42.472,37.1365],[41.8283,36.5932],[41.423,36.5247],[41.2945,36.3562],[41.258,36.0546],[41.3811,35.8353],[41.3943,35.6303],[41.2826,35.4861],[41.2181,35.1322],[41.2345,34.7772],[41.1395,34.6641],[41.0124,34.4199],[40.6037,34.2368],[39.472,33.7003],[38.7968,33.3682],[39.0535,32.582],[39.0163,32.4598],[39.0395,32.3404],[39.2414,32.3203],[39.3021,32.2213],[39.2124,32.1524],[40.4133,31.9481],[41.4407,31.3732],[42.0856,31.1117],[42.7613,30.6335],[43.4541,30.1346],[44.2465,29.553],[44.7269,29.1917],[45.6926,29.1223],[46.4245,29.0586],[46.5426,29.098],[46.6904,29.2303],[46.9403,29.5717],[47.1289,29.9747],[47.3511,30.0817],[47.7655,30.0728]]]},"properties":{"GID_0":"IRQ","ISO_A2":"IQ","ISO_A3":"IRQ","NAME_EN":"Iraq","NAME_IT":"Iraq"}}
]}