{"type":"FeatureCollection", "features": [
{"type":"Feature","geometry":{"type":"Polygon","coordinates":[[[34.8855,29.5227],[35.0327,29.6307],[35.0513,29.8209],[35.0984,30.0226],[35.1758,30.1191],[35.1445,30.2395],[35.1866,30.3622],[35.152,30.4186],[35.2017,30.5745],[35.333,30.8082],[35.3601,30.9139],[35.4598,31.1204],[35.3949,31.2646],[35.4551,31.3593],[35.4756,31.4882],[35.3937,31.4843],[35.224,31.3672],[34.9139,31.3498],[34.8839,31.3967],[34.9456,31.4873],[34.9537,31.583],[35.2324,31.7878],[35.0825,31.8444],[34.992,31.9425],[35.0115,32.0448],[34.969,32.2142],[35.009,32.334],[35.098,32.4788],[35.2167,32.5481],[35.3906,32.5171],[35.4443,32.4098],[35.5365,32.3961],[35.5837,32.4606],[35.58,32.6329],[35.7563,32.7262],[35.8529,32.84],[35.9009,32.9387],[35.8501,33.2532],[35.8038,33.3531],[35.6685,33.2491],[35.5675,33.2908],[35.5187,33.1162],[35.3585,33.0569],[35.3193,33.1014],[35.1029,33.0941],[35.0418,32.8224],[34.9543,32.8251],[34.9101,32.5768],[34.8293,32.269],[34.719,31.971],[34.5901,31.7313],[34.489,31.5946],[34.5461,31.5426],[34.4079,31.4206],[34.3575,31.2856],[34.268,31.2236],[34.4076,30.8439],[34.4956,30.6841],[34.5217,30.5254],[34.5651,30.4813],[34.547,30.4001],[34.6167,30.3605],[34.8559,29.7392],[34.8855,29.5227]]]},"properties":{"GID_0":"ISR","ISO_A2":"IL","ISO_A3":"ISR","NAME_EN":"Israel","NAME_IT":"Israele"}}
]}