{"type":"FeatureCollection", "features": [
{"type":"Feature","geometry":{"type":"MultiPolygon","coordinates":[[[[-160.0297,-0.3776],[-160.0317,-0.387],[-160.0096,-0.3883],[-160.0046,-0.3788],[-160.0176,-0.369],[-160.0297,-0.3776]]],[[[-162.3794,6.4319],[-162.3586,6.4089],[-162.3514,6.4133],[-162.3794,6.4319]]],[[[-75.024,18.414],[-75.0299,18.4107],[-75.0188,18.3949],[-75.0018,18.394],[-75.004,18.4104],[-75.024,18.414]]],[[[166.6475,19.3094],[166.6344,19.3072],[166.6461,19.2878],[166.6428,19.2836],[166.6214,19.2886],[166.6011,19.3039],[166.5975,19.2989],[166.6172,19.2847],[166.6344,19.2794],[166.657,19.2683],[166.6475,19.3094]]],[[[-171.7292,25.7786],[-171.74,25.7778],[-171.7427,25.7599],[-171.7345,25.7575],[-171.7258,25.7742],[-171.7292,25.7786]]],[[[-169.4975,16.7743],[-169.5044,16.7747],[-169.5099,16.7713],[-169.5161,16.7711],[-169.5292,16.7603],[-169.555,16.7269],[-169.5534,16.7269],[-169.5294,16.7575],[-169.5166,16.7687],[-169.5069,16.77],[-169.4975,16.7743]]],[[[-177.3689,28.2172],[-177.387,28.2158],[-177.3903,28.1956],[-177.3597,28.2083],[-177.3689,28.2172]]]]},"properties":{"GID_0":"UMI","ISO_A2":"UM","ISO_A3":"UMI","NAME_EN":"U.S. Minor Outlying Is.","NAME_IT":"Isole minori esterne degli Stati Uniti d'America"}}
]}