{"type":"FeatureCollection", "features": [
{"type":"Feature","geometry":{"type":"Polygon","coordinates":[[[17.649,47.7958],[17.725,47.7543],[17.8989,47.7382],[17.9688,47.7577],[18.083,47.7569],[18.2951,47.7327],[18.4483,47.7658],[18.663,47.7613],[18.8222,47.8492],[18.7633,47.8733],[18.766,47.9866],[18.8128,47.9925],[18.8481,48.0525],[19.0579,48.0608],[19.1343,48.0763],[19.2444,48.0578],[19.2984,48.0893],[19.4034,48.0866],[19.4931,48.1133],[19.5278,48.2064],[19.6286,48.2514],[19.6957,48.2058],[19.7543,48.2171],[19.8948,48.1654],[20.0406,48.1748],[20.1307,48.2232],[20.1393,48.2596],[20.1991,48.2535],[20.24,48.2836],[20.2871,48.2637],[20.4108,48.3712],[20.4162,48.4187],[20.5018,48.4896],[20.5075,48.5331],[20.5903,48.5363],[20.6566,48.5644],[20.8403,48.5864],[20.9142,48.5613],[20.9715,48.5229],[21.0181,48.5332],[21.0944,48.5201],[21.1064,48.4943],[21.2435,48.5422],[21.3066,48.5286],[21.3288,48.5575],[21.4493,48.5765],[21.5202,48.5499],[21.5477,48.5115],[21.6146,48.5129],[21.6338,48.4479],[21.7329,48.3499],[21.8404,48.3355],[21.84,48.3649],[22.0251,48.3927],[22.0835,48.3762],[22.1422,48.3842],[22.1731,48.5668],[22.3021,48.6826],[22.3541,48.6976],[22.3692,48.7384],[22.3848,48.8739],[22.478,48.9981],[22.5422,49.0046],[22.547,49.0623],[22.4181,49.1041],[22.3792,49.1456],[22.3205,49.1356],[22.054,49.2158],[22.0363,49.2839],[21.9704,49.3483],[21.9004,49.3541],[21.8485,49.3912],[21.7657,49.3836],[21.6994,49.4185],[21.6016,49.4353],[21.4323,49.4158],[21.3927,49.4376],[21.2789,49.4611],[21.1894,49.4023],[21.124,49.4366],[21.0473,49.4183],[21.1013,49.3764],[21.0234,49.356],[20.9241,49.296],[20.8655,49.3475],[20.8074,49.3606],[20.7399,49.4171],[20.662,49.4042],[20.6119,49.4171],[20.5751,49.3797],[20.4547,49.418],[20.3222,49.4017],[20.2928,49.3516],[20.1922,49.3412],[20.1471,49.3227],[20.0691,49.1808],[19.9845,49.2325],[19.9227,49.2372],[19.8447,49.1951],[19.7673,49.206],[19.8218,49.2722],[19.7948,49.346],[19.7906,49.4107],[19.7296,49.3917],[19.6359,49.4104],[19.5536,49.4899],[19.5102,49.5824],[19.4134,49.5955],[19.3671,49.5411],[19.2625,49.5359],[19.2333,49.5105],[19.1974,49.4146],[19.1067,49.404],[19.0539,49.4152],[18.9829,49.3982],[18.9737,49.5063],[18.9309,49.5199],[18.7821,49.5119],[18.7498,49.4958],[18.558,49.5128],[18.5097,49.4389],[18.434,49.397],[18.3959,49.3571],[18.3113,49.3121],[18.2075,49.2942],[18.158,49.2722],[18.1077,49.1392],[18.1065,49.081],[18.0441,49.0315],[17.9238,49.0193],[17.8908,48.9892],[17.8683,48.9273],[17.7756,48.9196],[17.6969,48.8603],[17.6096,48.8542],[17.5152,48.8097],[17.4752,48.8395],[17.3629,48.8287],[17.1995,48.8812],[17.1133,48.8399],[17.0929,48.7964],[17.0168,48.7429],[16.9722,48.687],[16.9349,48.6012],[16.9551,48.5432],[16.8515,48.45],[16.8649,48.4199],[16.8453,48.351],[16.9273,48.2718],[16.9583,48.2643],[16.9775,48.1723],[17.0787,48.1064],[17.0687,48.0319],[17.1606,48.008],[17.2463,48.0203],[17.3345,47.9979],[17.4027,47.9559],[17.4507,47.8936],[17.5351,47.8606],[17.567,47.8166],[17.649,47.7958]]]},"properties":{"GID_0":"SVK","ISO_A2":"SK","ISO_A3":"SVK","NAME_EN":"Slovakia","NAME_IT":"Slovacchia"}}
]}