{"type":"FeatureCollection", "features": [
{"type":"Feature","geometry":{"type":"MultiPolygon","coordinates":[[[[103.0106,11.4348],[103.0469,11.4372],[103.0778,11.4226],[103.0905,11.3604],[103.1341,11.3499],[103.1454,11.3209],[103.0704,11.2835],[103.065,11.2549],[103.0937,11.1951],[103.1178,11.0993],[103.0965,11.0756],[103.1084,10.9632],[103.0982,10.9167],[103.1632,10.8699],[103.2055,10.8793],[103.2439,10.9187],[103.3012,10.9156],[103.3355,10.8997],[103.3546,10.8692],[103.4252,10.8957],[103.41,10.9577],[103.4661,11.087],[103.4742,11.1439],[103.501,11.1647],[103.5521,11.1676],[103.5918,11.0937],[103.6533,11.0781],[103.6578,10.9978],[103.7031,10.9155],[103.7131,10.8519],[103.6744,10.8095],[103.6604,10.7431],[103.5927,10.7353],[103.5513,10.7194],[103.5418,10.6848],[103.4898,10.6236],[103.5239,10.6055],[103.572,10.5426],[103.6029,10.5526],[103.6077,10.5032],[103.6435,10.4901],[103.7758,10.5362],[103.805,10.5258],[103.8682,10.6222],[103.9024,10.6517],[103.9174,10.6101],[104.0481,10.5495],[104.0999,10.5467],[104.1417,10.5641],[104.1832,10.5462],[104.2452,10.5714],[104.2721,10.5433],[104.2892,10.4784],[104.3508,10.4965],[104.389,10.4524],[104.4392,10.4231],[104.5173,10.4395],[104.5548,10.4625],[104.5594,10.4925],[104.5874,10.528],[104.6892,10.5376],[104.7541,10.5176],[104.8691,10.5222],[104.8969,10.5471],[104.9569,10.6378],[105.0983,10.721],[105.092,10.756],[105.0643,10.7813],[105.0586,10.8191],[105.0294,10.8924],[105.0802,10.9546],[105.1123,10.9621],[105.1051,10.9195],[105.155,10.9233],[105.2387,10.8928],[105.2649,10.8968],[105.3378,10.8602],[105.4069,10.9356],[105.4272,10.9728],[105.4516,10.955],[105.5365,10.9518],[105.6645,10.9865],[105.7258,11.0241],[105.7789,11.0317],[105.8071,10.9735],[105.8643,10.8993],[105.8497,10.8631],[105.8984,10.8442],[105.9769,10.8898],[106.0155,10.8502],[106.0727,10.8111],[106.1654,10.8117],[106.1876,10.8401],[106.1377,10.9155],[106.1509,10.9411],[106.1439,10.9776],[106.1906,10.9717],[106.1877,11.0512],[106.1584,11.0968],[106.1213,11.0887],[106.0231,11.1404],[106.014,11.1847],[105.9633,11.1962],[105.9108,11.2406],[105.909,11.2834],[105.8769,11.2881],[105.8705,11.3742],[105.9038,11.4403],[105.8747,11.462],[105.8848,11.4843],[105.8807,11.5457],[105.8268,11.5648],[105.811,11.588],[105.8558,11.6646],[105.8907,11.6762],[105.9545,11.6412],[106.003,11.704],[106.0242,11.7744],[106.069,11.7762],[106.103,11.7487],[106.1524,11.7368],[106.1807,11.7476],[106.2125,11.7288],[106.2497,11.7283],[106.2989,11.6812],[106.3173,11.6756],[106.367,11.6964],[106.4403,11.6692],[106.4535,11.6904],[106.4159,11.7595],[106.4467,11.8662],[106.4667,11.8675],[106.4119,11.9736],[106.4545,11.9888],[106.4693,11.9732],[106.5312,11.9685],[106.627,11.9745],[106.6661,11.9838],[106.6834,11.965],[106.722,11.9736],[106.7902,12.0754],[106.8154,12.0834],[106.9269,12.0633],[107.0034,12.0894],[107.0554,12.1519],[107.0927,12.1812],[107.1123,12.2178],[107.1386,12.2301],[107.1556,12.2779],[107.2088,12.2998],[107.2299,12.2956],[107.2694,12.3253],[107.3628,12.3194],[107.4155,12.2463],[107.4684,12.3106],[107.5439,12.3509],[107.5543,12.3793],[107.5438,12.4155],[107.5798,12.4953],[107.5624,12.5166],[107.5895,12.5587],[107.5692,12.6426],[107.5821,12.6797],[107.5591,12.7161],[107.5627,12.7884],[107.5542,12.8175],[107.5266,12.8404],[107.4918,12.8975],[107.4882,12.9711],[107.4944,13.0263],[107.548,13.1701],[107.6277,13.3665],[107.617,13.5259],[107.5727,13.6244],[107.5705,13.6627],[107.5358,13.7415],[107.4514,13.7946],[107.4717,13.8575],[107.4696,13.9213],[107.4533,13.93],[107.4555,13.9802],[107.4322,13.9938],[107.3863,13.9896],[107.3657,14.0347],[107.3672,14.0835],[107.3408,14.1323],[107.3774,14.1793],[107.4097,14.2647],[107.3921,14.328],[107.4605,14.406],[107.489,14.4072],[107.5063,14.4851],[107.5322,14.5463],[107.5223,14.5881],[107.5596,14.6226],[107.5548,14.6674],[107.4612,14.6072],[107.4568,14.5629],[107.4375,14.524],[107.3961,14.5427],[107.3281,14.5916],[107.2988,14.5879],[107.2759,14.5411],[107.2533,14.522],[107.2583,14.4923],[107.2004,14.4765],[107.1899,14.437],[107.1637,14.4149],[107.1114,14.3931],[107.0835,14.3952],[107.0774,14.4263],[107.0155,14.3969],[106.9672,14.3141],[106.9193,14.3296],[106.8952,14.3151],[106.8152,14.3118],[106.7544,14.3867],[106.7421,14.4284],[106.7033,14.43],[106.6394,14.4486],[106.6154,14.4864],[106.5605,14.538],[106.543,14.5934],[106.502,14.5833],[106.4615,14.5539],[106.4399,14.4939],[106.4108,14.4514],[106.3709,14.4546],[106.3315,14.4395],[106.2664,14.4729],[106.2377,14.4278],[106.2376,14.3987],[106.1865,14.351],[106.145,14.3719],[106.0955,14.3729],[106.0662,14.3516],[105.9948,14.3491],[106.035,14.2699],[106.0357,14.2278],[106.0516,14.2027],[106.11,14.1859],[106.1214,14.1097],[106.1877,14.063],[106.1752,14.0262],[106.1373,14.0165],[106.0995,13.9814],[106.1053,13.9097],[105.9108,13.9304],[105.7927,14.0237],[105.7733,14.0887],[105.7183,14.1073],[105.6355,14.1186],[105.6001,14.1484],[105.5584,14.1604],[105.4788,14.1174],[105.3905,14.0999],[105.362,14.1045],[105.3247,14.159],[105.2831,14.1705],[105.2491,14.231],[105.2407,14.2735],[105.2062,14.3127],[105.1514,14.2849],[105.1541,14.2547],[105.1025,14.2131],[105.0502,14.2149],[105.0228,14.2413],[105.0028,14.3027],[104.9845,14.3183],[105.0027,14.362],[104.9725,14.3923],[104.9463,14.3825],[104.8717,14.4182],[104.8336,14.4012],[104.8069,14.4373],[104.7548,14.4049],[104.6987,14.4273],[104.6801,14.3975],[104.6409,14.4232],[104.6023,14.3963],[104.5645,14.354],[104.499,14.3762],[104.476,14.3587],[104.4326,14.3599],[104.3783,14.3779],[104.3217,14.3739],[104.2754,14.4085],[104.2454,14.376],[104.1982,14.3838],[104.1392,14.3718],[104.1081,14.3784],[104.0919,14.3509],[104.028,14.3404],[103.9828,14.3542],[103.9422,14.3302],[103.8817,14.338],[103.8623,14.3655],[103.769,14.3671],[103.7003,14.3919],[103.7082,14.4311],[103.6595,14.4398],[103.6214,14.4041],[103.6063,14.4219],[103.5576,14.4319],[103.4982,14.4121],[103.4677,14.3647],[103.435,14.3908],[103.402,14.3578],[103.2618,14.35],[103.2189,14.3236],[103.19,14.3333],[103.1286,14.3198],[103.1153,14.2996],[103.0791,14.2939],[103.0221,14.2285],[102.9625,14.2122],[102.9299,14.177],[102.941,14.1523],[102.9232,14.106],[102.9007,14.0834],[102.9083,14.0212],[102.8666,14.0043],[102.7829,13.9328],[102.7663,13.8564],[102.7156,13.7738],[102.569,13.691],[102.548,13.6588],[102.5703,13.6431],[102.5799,13.6061],[102.5628,13.5791],[102.5268,13.5645],[102.4771,13.5714],[102.4388,13.5598],[102.3666,13.5779],[102.3338,13.5375],[102.3635,13.505],[102.3605,13.4059],[102.3451,13.3469],[102.35,13.2916],[102.3867,13.2172],[102.3931,13.1773],[102.4396,13.0856],[102.4595,13.0822],[102.5016,12.9922],[102.4855,12.948],[102.5091,12.8951],[102.5012,12.8498],[102.5322,12.8111],[102.5325,12.7676],[102.4998,12.7397],[102.5102,12.6704],[102.53,12.6545],[102.5669,12.6578],[102.617,12.6154],[102.6461,12.6103],[102.6779,12.543],[102.7648,12.4567],[102.7849,12.4004],[102.7434,12.3873],[102.7254,12.3629],[102.7261,12.3031],[102.7136,12.2609],[102.7185,12.2254],[102.7039,12.1724],[102.7359,12.1083],[102.7703,12.0745],[102.7844,11.9774],[102.8161,11.9332],[102.8198,11.8924],[102.8666,11.8063],[102.8859,11.7996],[102.9112,11.7458],[102.9151,11.6529],[102.9562,11.5586],[102.95,11.551],[103.014,11.4585],[103.0106,11.4348]]],[[[103.7603,10.5189],[103.7406,10.5179],[103.7384,10.4723],[103.77,10.441],[103.7972,10.4573],[103.796,10.5008],[103.7603,10.5189]]],[[[102.9861,11.4153],[102.9703,11.3945],[102.9905,11.318],[102.9926,11.2604],[103.0254,11.249],[103.0426,11.2936],[103.0345,11.3764],[103.0142,11.4189],[102.9861,11.4153]]],[[[103.2398,10.7791],[103.1944,10.7711],[103.21,10.7057],[103.2798,10.6796],[103.3154,10.6981],[103.2398,10.7791]]]]},"properties":{"GID_0":"KHM","ISO_A2":"KH","ISO_A3":"KHM","NAME_EN":"Cambodia","NAME_IT":"Cambogia"}}
]}