{"type":"FeatureCollection", "features": [
{"type":"Feature","geometry":{"type":"Polygon","coordinates":[[[17.1744,-28.0989],[17.1964,-28.1291],[17.1822,-28.2],[17.2148,-28.248],[17.3342,-28.2262],[17.3821,-28.2956],[17.4142,-28.3763],[17.3844,-28.4371],[17.3331,-28.4752],[17.3664,-28.5101],[17.3763,-28.562],[17.4321,-28.5832],[17.4225,-28.7232],[17.4967,-28.6932],[17.5684,-28.6856],[17.61,-28.7129],[17.6161,-28.7607],[17.6926,-28.7503],[17.9262,-28.7695],[18.0778,-28.8702],[18.1884,-28.9161],[18.2635,-28.8794],[18.3503,-28.8807],[18.4235,-28.9008],[18.5122,-28.8895],[18.5322,-28.8687],[18.73,-28.8316],[18.9356,-28.8572],[18.993,-28.8872],[19.015,-28.9312],[19.1189,-28.9694],[19.1967,-28.947],[19.2315,-28.9107],[19.2828,-28.9092],[19.2399,-28.8055],[19.2688,-28.7427],[19.4036,-28.7368],[19.4915,-28.6796],[19.5068,-28.5978],[19.546,-28.544],[19.633,-28.5125],[19.6709,-28.5294],[19.7386,-28.4857],[19.8133,-28.5083],[19.8476,-28.4596],[19.9992,-28.4278],[20.0005,-27.9841],[19.9988,-26.6187],[20.0002,-25.5316],[19.9988,-24.836],[20.0002,-24.753],[20,-22.0018],[21.0017,-22.0038],[20.997,-20.9578],[20.9988,-18.3179],[21.4689,-18.318],[22.9884,-18.0183],[23.1036,-17.9989],[23.2966,-17.9975],[23.3278,-18.0797],[23.3782,-18.135],[23.4129,-18.2044],[23.5249,-18.2739],[23.5564,-18.3407],[23.5688,-18.4767],[23.6129,-18.504],[23.7919,-18.3821],[23.8085,-18.343],[23.8755,-18.2759],[23.9249,-18.2488],[23.9353,-18.2058],[23.9816,-18.1896],[24.0732,-18.1148],[24.1174,-18.1044],[24.2011,-18.0166],[24.3072,-18.0023],[24.368,-17.9511],[24.4237,-17.9531],[24.4881,-18.0121],[24.4894,-18.047],[24.5752,-18.0651],[24.6322,-17.9818],[24.8133,-17.8563],[24.9663,-17.8042],[25.0104,-17.8371],[25.1135,-17.8294],[25.1962,-17.7574],[25.1577,-17.7034],[25.1213,-17.6835],[25.0408,-17.5842],[24.9775,-17.5526],[24.8732,-17.5239],[24.7019,-17.4933],[24.6394,-17.4982],[24.5742,-17.5366],[24.4571,-17.4772],[24.374,-17.4715],[24.3346,-17.4871],[24.2411,-17.469],[23.4408,-17.6351],[22.9293,-17.7394],[21.4335,-18.0241],[21.242,-17.9549],[21.2198,-17.9321],[20.9443,-17.9674],[20.812,-18.0407],[20.7076,-18.0173],[20.6463,-17.9785],[20.5476,-17.9826],[20.4724,-17.9482],[20.4533,-17.9167],[20.3716,-17.8988],[20.3266,-17.8683],[20.2483,-17.8935],[20.1704,-17.8816],[20.114,-17.9119],[20.0599,-17.8913],[19.9693,-17.893],[19.9195,-17.8663],[19.8908,-17.8824],[19.7961,-17.8778],[19.7494,-17.9137],[19.6619,-17.8527],[19.6143,-17.8654],[19.4043,-17.8707],[19.3306,-17.8387],[19.2287,-17.8312],[19.1405,-17.812],[19.1077,-17.84],[18.899,-17.8193],[18.8362,-17.7773],[18.8036,-17.7753],[18.6185,-17.6373],[18.5691,-17.5878],[18.5114,-17.5014],[18.4224,-17.3942],[17.9991,-17.3947],[17.9991,-17.39],[17.2747,-17.39],[17.2728,-17.3982],[16.8725,-17.3948],[16.8704,-17.3901],[16.3299,-17.3902],[16.283,-17.3935],[15.954,-17.3899],[15.4837,-17.39],[14.7311,-17.3905],[14.2143,-17.3841],[14.2045,-17.4119],[14.0942,-17.4425],[14.0157,-17.4201],[13.9569,-17.4334],[13.8805,-17.351],[13.8153,-17.3244],[13.6775,-17.2464],[13.6343,-17.2039],[13.5107,-17.1351],[13.5206,-17.0858],[13.4609,-17.0131],[13.3786,-16.9753],[13.2704,-16.9958],[13.1424,-16.9599],[13.0948,-16.9778],[12.9925,-16.9815],[12.9457,-17.0176],[12.88,-17.0428],[12.719,-17.1574],[12.5656,-17.2421],[12.4405,-17.2611],[12.4129,-17.2061],[12.2883,-17.2382],[12.2556,-17.2373],[12.188,-17.1973],[12.1675,-17.1586],[12.083,-17.1441],[11.9474,-17.182],[11.8816,-17.2311],[11.8371,-17.2369],[11.7554,-17.3024],[11.7349,-17.5862],[11.7601,-17.6901],[11.7679,-17.7821],[11.8021,-17.8915],[11.8001,-17.9576],[11.8368,-18.1038],[11.9565,-18.2612],[11.9549,-18.3026],[12.0004,-18.374],[12.004,-18.4251],[12.0346,-18.5015],[12.3251,-18.739],[12.3857,-18.8326],[12.451,-18.9068],[12.4865,-19.0157],[12.5668,-19.0849],[12.6129,-19.1826],[12.7049,-19.3407],[12.7026,-19.381],[12.8571,-19.649],[12.8949,-19.7393],[12.9343,-19.7912],[12.9526,-19.8512],[13.0329,-20.0015],[13.0546,-20.0726],[13.1482,-20.1532],[13.1954,-20.2124],[13.2104,-20.2793],[13.2404,-20.3221],[13.2535,-20.4004],[13.2482,-20.4585],[13.3301,-20.5971],[13.3651,-20.6885],[13.3751,-20.7913],[13.4196,-20.8838],[13.5501,-21.0504],[13.5732,-21.1349],[13.6868,-21.2574],[13.7032,-21.3051],[13.8063,-21.4229],[13.8793,-21.589],[13.9726,-21.7099],[13.9485,-21.771],[14.0638,-21.8662],[14.1415,-21.9674],[14.2896,-22.1346],[14.2885,-22.1671],[14.3924,-22.2824],[14.4199,-22.3388],[14.4668,-22.4843],[14.5085,-22.5535],[14.5276,-22.6501],[14.5212,-22.7035],[14.5438,-22.8079],[14.5393,-22.8985],[14.4824,-22.9576],[14.4071,-22.9515],[14.4024,-23.0082],[14.4232,-23.0968],[14.4812,-23.2457],[14.4974,-23.3079],[14.4974,-23.3899],[14.4613,-23.409],[14.4429,-23.4543],[14.5107,-23.6274],[14.4963,-23.7588],[14.5076,-23.7957],[14.511,-23.921],[14.4535,-23.9768],[14.4657,-24.1074],[14.529,-24.2849],[14.6104,-24.4471],[14.5946,-24.5551],[14.7404,-24.719],[14.7832,-24.7987],[14.7932,-24.919],[14.8751,-25.0779],[14.8407,-25.1618],[14.8015,-25.3012],[14.8115,-25.3882],[14.8438,-25.434],[14.8824,-25.5635],[14.854,-25.6029],[14.8268,-25.7488],[14.9096,-25.8521],[14.9096,-25.9307],[14.9565,-25.9962],[14.9788,-26.1151],[14.9463,-26.1437],[14.9663,-26.1871],[14.9526,-26.224],[14.9529,-26.3151],[15.0946,-26.4076],[15.1407,-26.5043],[15.1479,-26.5785],[15.1799,-26.6012],[15.1518,-26.6424],[15.0993,-26.6446],[15.0782,-26.6774],[15.1065,-26.7763],[15.1557,-26.8526],[15.1488,-26.901],[15.2282,-26.9285],[15.2299,-27.049],[15.2579,-27.0982],[15.2599,-27.2012],[15.2874,-27.3046],[15.3704,-27.441],[15.4215,-27.4826],[15.4601,-27.5699],[15.5304,-27.6554],[15.5471,-27.7529],[15.6107,-27.811],[15.6793,-27.9007],[15.6796,-27.9529],[15.7129,-27.9951],[15.8532,-28.1324],[16.0429,-28.2768],[16.3363,-28.5574],[16.4519,-28.6321],[16.4887,-28.5628],[16.5958,-28.5339],[16.6724,-28.4723],[16.7341,-28.4941],[16.7768,-28.4401],[16.769,-28.3968],[16.8084,-28.3619],[16.755,-28.302],[16.7602,-28.2626],[16.8204,-28.2739],[16.8879,-28.1729],[16.8814,-28.0977],[16.9071,-28.0704],[17.002,-28.0755],[17.0809,-28.0328],[17.138,-28.0929],[17.1744,-28.0989]]]},"properties":{"GID_0":"NAM","ISO_A2":"NA","ISO_A3":"NAM","NAME_EN":"Namibia","NAME_IT":"Namibia"}}
]}