{"type":"FeatureCollection", "features": [
{"type":"Feature","geometry":{"type":"MultiPolygon","coordinates":[[[[178.4283,-7.9569],[178.4314,-7.9675],[178.4294,-7.9781],[178.3992,-8.0133],[178.3943,-8.0253],[178.3857,-8.0374],[178.3784,-8.0599],[178.3728,-8.0703],[178.3808,-8.0722],[178.3805,-8.0572],[178.3864,-8.0483],[178.3863,-8.0396],[178.3953,-8.0272],[178.4006,-8.0136],[178.4374,-7.9735],[178.4283,-7.9569]]],[[[178.6708,-7.4585],[178.6626,-7.4645],[178.6806,-7.4961],[178.6885,-7.4986],[178.6977,-7.4884],[178.6942,-7.4823],[178.6828,-7.4758],[178.6708,-7.4585]]],[[[176.3178,-6.2994],[176.3272,-6.2938],[176.327,-6.2839],[176.3216,-6.2742],[176.3125,-6.2913],[176.3178,-6.2994]]],[[[177.3471,-6.104],[177.3347,-6.1029],[177.3373,-6.1148],[177.3469,-6.115],[177.3471,-6.104]]],[[[176.1197,-5.6619],[176.1206,-5.6711],[176.11,-5.67],[176.1367,-5.7014],[176.1267,-5.6722],[176.1197,-5.6619]]]]},"properties":{"GID_0":"TUV","ISO_A2":"TV","ISO_A3":"TUV","NAME_EN":"Tuvalu","NAME_IT":"Tuvalu"}}
]}