{"type":"FeatureCollection", "features": [
{"type":"Feature","geometry":{"type":"Polygon","coordinates":[[[-2.1618,49.1943],[-2.1349,49.196],[-2.0763,49.1624],[-2.0335,49.1626],[-2.0335,49.189],[-2.0171,49.1985],[-2.0293,49.2326],[-2.0512,49.2443],[-2.0729,49.2365],[-2.0924,49.2546],[-2.1371,49.254],[-2.1521,49.2624],[-2.2013,49.2474],[-2.2307,49.2601],[-2.2551,49.2487],[-2.2285,49.2218],[-2.2235,49.2024],[-2.2451,49.1821],[-2.2243,49.1732],[-2.1937,49.1843],[-2.176,49.171],[-2.1618,49.1943]]]},"properties":{"GID_0":"JEY","ISO_A2":"JE","ISO_A3":"JEY","NAME_EN":"Jersey","NAME_IT":"baliato di Jersey"}}
]}