{"type":"FeatureCollection", "features": [
{"type":"Feature","geometry":{"type":"Polygon","coordinates":[[[9.8393,2.6319],[9.8151,2.5063],[9.83,2.2902],[9.8461,2.2446],[9.8975,2.2022],[9.9889,2.1673],[10.1661,2.1507],[10.1901,2.1717],[10.4386,2.1728],[11.3532,2.1713],[11.3822,2.245],[11.3765,2.2969],[11.6125,2.2934],[11.7011,2.3156],[11.7525,2.2692],[11.8684,2.2704],[12.0157,2.288],[12.2124,2.2756],[12.2459,2.2484],[12.3072,2.2822],[12.4539,2.2525],[12.5733,2.268],[12.6222,2.2432],[12.7095,2.2272],[12.7969,2.2495],[12.8601,2.2269],[12.9321,2.2531],[13.0363,2.2338],[13.0877,2.2367],[13.1603,2.2813],[13.2223,2.2551],[13.2484,2.2707],[13.2951,2.2255],[13.2958,2.171],[13.9279,2.1728],[14.2915,2.1719],[14.3629,2.1877],[14.4635,2.1439],[14.6104,2.193],[14.6481,2.1315],[14.7245,2.1264],[14.8074,2.06],[14.8666,2.0863],[14.9126,2.064],[14.918,2.0015],[14.9998,2.0166],[15.0508,1.9785],[15.113,1.983],[15.2072,2.0389],[15.3091,1.9661],[15.3524,1.9128],[15.4862,1.9826],[15.5319,1.9555],[15.748,1.9195],[15.8059,1.859],[15.8679,1.8317],[15.8821,1.7993],[15.9614,1.766],[16.0271,1.7663],[16.0145,1.7176],[16.0296,1.6586],[16.1474,1.7122],[16.1385,1.7947],[16.0508,1.9746],[16.0795,2.0333],[16.0657,2.0732],[16.0891,2.2006],[16.1513,2.1795],[16.1888,2.2104],[16.1419,2.3585],[16.0724,2.4646],[16.0646,2.5279],[16.0835,2.5834],[16.0651,2.641],[16.052,2.7936],[16.093,2.8298],[16.0716,2.9105],[16.0321,2.984],[15.9582,3.0009],[15.8904,3.0944],[15.8,3.1008],[15.4943,3.4577],[15.2489,3.7107],[15.1088,3.9432],[15.0763,4.0217],[15.1399,4.0381],[15.1364,4.1063],[15.1127,4.1227],[15.1005,4.2631],[15.0178,4.4154],[14.8893,4.4707],[14.7304,4.6133],[14.7133,4.7712],[14.7146,4.8688],[14.6829,4.9323],[14.6935,5.0998],[14.6497,5.2164],[14.5692,5.2368],[14.5295,5.2738],[14.5731,5.4],[14.6305,5.511],[14.5919,5.6061],[14.6281,5.7131],[14.6204,5.8894],[14.607,5.9153],[14.5135,5.8942],[14.4343,5.9981],[14.4293,6.0798],[14.508,6.1282],[14.5314,6.1659],[14.5923,6.1975],[14.7398,6.2509],[14.8128,6.3641],[14.8014,6.4011],[14.851,6.4926],[14.9616,6.7499],[15.0635,6.7841],[15.1145,6.915],[15.1602,7.0587],[15.2124,7.1215],[15.2157,7.2292],[15.2841,7.3039],[15.3797,7.3756],[15.4558,7.4541],[15.4967,7.5258],[15.5705,7.5947],[15.5922,7.6776],[15.5868,7.7732],[15.5047,7.7936],[15.4524,7.8811],[15.3957,8.0444],[15.3967,8.0913],[15.2002,8.509],[15.1515,8.6022],[15.1083,8.656],[15.0591,8.6798],[14.982,8.6895],[14.9874,8.7323],[14.9014,8.8135],[14.836,8.8152],[14.6183,8.9748],[14.493,9.0577],[14.4678,9.1169],[14.4337,9.1295],[14.3485,9.2068],[14.3849,9.267],[14.3114,9.3687],[14.2744,9.3584],[14.1564,9.5022],[14.1109,9.5178],[14.0467,9.6008],[13.9823,9.6443],[14.0263,9.7316],[14.1351,9.8239],[14.2082,10.0016],[14.4661,10.0066],[14.8024,9.9357],[14.9615,9.9849],[15.0619,9.9487],[15.1128,9.9867],[15.2484,9.9915],[15.3641,9.962],[15.4133,9.9349],[15.5278,9.9547],[15.6873,9.9948],[15.671,10.0136],[15.4871,10.1237],[15.4452,10.1963],[15.3562,10.2927],[15.3122,10.307],[15.283,10.409],[15.2413,10.4724],[15.1466,10.5364],[15.1567,10.646],[15.1026,10.7406],[15.0724,10.8202],[15.096,10.8641],[15.0838,10.95],[15.0477,10.9992],[15.112,11.0846],[15.1007,11.1494],[15.0702,11.1981],[15.0503,11.2775],[15.0759,11.3225],[15.0586,11.3966],[15.0746,11.4436],[15.1334,11.5064],[15.1468,11.5543],[15.1028,11.5804],[15.0823,11.6823],[15.0817,11.7599],[15.1214,11.7798],[15.0955,11.846],[15.0523,11.8502],[15.0402,11.8999],[15.0776,11.9729],[15.0374,12.0968],[14.9818,12.0847],[14.9258,12.1215],[14.8937,12.3059],[14.9096,12.3762],[14.8582,12.48],[14.8527,12.5596],[14.8239,12.6335],[14.7769,12.6296],[14.7542,12.6814],[14.7036,12.7239],[14.5885,12.7447],[14.5474,12.796],[14.5648,12.8267],[14.5633,12.9107],[14.5334,12.9705],[14.4598,13.0738],[14.0855,13.0774],[14.1837,12.5292],[14.1733,12.4078],[14.2182,12.376],[14.3289,12.3747],[14.376,12.3578],[14.4335,12.3692],[14.5012,12.329],[14.5536,12.2449],[14.5911,12.2265],[14.6557,12.138],[14.6197,12.0403],[14.6525,11.9522],[14.6028,11.865],[14.6126,11.7806],[14.5568,11.7089],[14.5991,11.7006],[14.6502,11.6092],[14.6145,11.513],[14.5161,11.4728],[14.3223,11.3328],[14.169,11.2456],[13.9806,11.3188],[13.9403,11.2244],[13.8185,11.0743],[13.7849,11.0076],[13.7347,11.0114],[13.708,10.972],[13.7261,10.9315],[13.7013,10.8466],[13.6519,10.8206],[13.6213,10.719],[13.5474,10.6212],[13.574,10.5353],[13.5281,10.4662],[13.5239,10.4039],[13.4656,10.2462],[13.4832,10.2013],[13.4341,10.1348],[13.3465,10.1136],[13.2522,10.0422],[13.2476,10.0005],[13.286,9.958],[13.2368,9.9197],[13.2421,9.864],[13.2991,9.8277],[13.2589,9.7776],[13.2361,9.621],[13.2077,9.5578],[13.0343,9.5113],[12.9723,9.4711],[12.9368,9.4193],[12.871,9.3914],[12.9166,9.3379],[12.9136,9.2516],[12.886,9.1803],[12.8981,9.1169],[12.8385,9.0073],[12.804,8.9165],[12.8118,8.8004],[12.7858,8.7431],[12.715,8.7542],[12.6932,8.6622],[12.5753,8.614],[12.4826,8.6432],[12.4457,8.6009],[12.4657,8.5244],[12.3818,8.4822],[12.3134,8.4258],[12.2689,8.4463],[12.2388,8.3391],[12.2574,8.1765],[12.2113,8.1066],[12.2213,8.0026],[12.1537,7.8953],[12.0885,7.8364],[12.0319,7.7302],[12.0154,7.5736],[12.0343,7.5211],[11.9809,7.4934],[11.9433,7.3944],[11.8923,7.3485],[11.8807,7.3073],[11.8137,7.2281],[11.874,7.1036],[11.783,7.0509],[11.7171,7.0316],[11.6192,6.9761],[11.6066,6.9112],[11.5545,6.8641],[11.5809,6.8395],[11.5858,6.7406],[11.5515,6.7158],[11.5556,6.6705],[11.4942,6.5998],[11.4189,6.5972],[11.4239,6.5302],[11.3156,6.5088],[11.2802,6.5386],[11.241,6.5237],[11.1424,6.5341],[11.0991,6.5216],[11.0966,6.6821],[11.0323,6.716],[10.9943,6.687],[10.9192,6.7085],[10.9171,6.7552],[10.8405,6.8118],[10.8177,6.8531],[10.8412,6.9396],[10.7208,6.9893],[10.6836,7.036],[10.5977,7.0779],[10.5978,7.1454],[10.5663,7.1469],[10.551,6.9777],[10.5281,6.9266],[10.2171,6.8888],[10.1741,6.9382],[10.1845,6.9666],[10.1534,7.0385],[9.8639,6.7765],[9.7794,6.7945],[9.7531,6.6741],[9.7063,6.5156],[9.5972,6.5305],[9.588,6.4752],[9.5136,6.4431],[9.4677,6.4562],[9.4313,6.3172],[9.3524,6.353],[9.3364,6.3033],[9.2657,6.1842],[9.2117,6.1673],[9.1526,6.0906],[8.9451,5.9112],[8.9029,5.8631],[8.8588,5.8451],[8.883,5.7928],[8.8366,5.6796],[8.8986,5.6242],[8.9203,5.5647],[8.8405,5.4546],[8.8342,5.3285],[8.8152,5.2838],[8.8187,5.1856],[8.7886,5.1241],[8.7253,5.0748],[8.7211,5.0418],[8.603,4.8724],[8.6265,4.8175],[8.5449,4.8004],[8.5258,4.7348],[8.5389,4.6996],[8.5015,4.6002],[8.5051,4.5086],[8.5578,4.4844],[8.6804,4.474],[8.7199,4.5104],[8.8326,4.5459],[8.9091,4.4943],[8.8841,4.4383],[8.892,4.374],[8.9237,4.3217],[8.9334,4.2564],[8.9836,4.2226],[8.999,4.18],[8.9858,4.0963],[9.1152,4.0102],[9.1976,4.0123],[9.2051,3.9633],[9.2818,3.9718],[9.3454,3.9068],[9.434,3.8879],[9.4615,3.9907],[9.5321,3.9725],[9.5236,4.0278],[9.6398,3.9906],[9.6349,3.9395],[9.7159,3.8578],[9.6821,3.8351],[9.6142,3.8647],[9.5932,3.7531],[9.657,3.6293],[9.6364,3.6109],[9.6621,3.5346],[9.781,3.4371],[9.8789,3.3252],[9.9743,3.0903],[9.9491,3.0095],[9.9124,2.9727],[9.8811,2.8408],[9.8922,2.799],[9.8393,2.6319]]]},"properties":{"GID_0":"CMR","ISO_A2":"CM","ISO_A3":"CMR","NAME_EN":"Cameroon","NAME_IT":"Camerun"}}
]}