{"type":"FeatureCollection", "features": [
{"type":"Feature","geometry":{"type":"MultiPolygon","coordinates":[[[[-59.0681,-52.4212],[-59.1314,-52.4287],[-59.1508,-52.4354],[-59.1275,-52.4485],[-59.1075,-52.4382],[-59.0586,-52.4296],[-59.0681,-52.4212]]],[[[-59.6564,-52.3518],[-59.6658,-52.3613],[-59.7036,-52.3774],[-59.7169,-52.369],[-59.7442,-52.3862],[-59.7358,-52.3924],[-59.7086,-52.3965],[-59.6936,-52.3826],[-59.6531,-52.3726],[-59.6631,-52.3621],[-59.6564,-52.3518]]],[[[-59.6797,-52.3043],[-59.6947,-52.3029],[-59.7414,-52.3151],[-59.7653,-52.3174],[-59.7619,-52.3296],[-59.8092,-52.3521],[-59.8175,-52.3615],[-59.7897,-52.3715],[-59.7869,-52.3785],[-59.7608,-52.3843],[-59.7414,-52.3718],[-59.7375,-52.3449],[-59.7208,-52.3326],[-59.7164,-52.3157],[-59.6986,-52.3171],[-59.6797,-52.3043]]],[[[-59.7769,-52.1487],[-59.7947,-52.1535],[-59.8069,-52.1654],[-59.7931,-52.1712],[-59.7819,-52.1871],[-59.7558,-52.1796],[-59.7447,-52.1893],[-59.7442,-52.226],[-59.7569,-52.2282],[-59.7403,-52.2476],[-59.7503,-52.2526],[-59.7631,-52.2715],[-59.7347,-52.2915],[-59.7358,-52.2674],[-59.7036,-52.2568],[-59.6825,-52.246],[-59.6847,-52.2329],[-59.6692,-52.2218],[-59.6942,-52.2187],[-59.6836,-52.1879],[-59.6864,-52.1779],[-59.7297,-52.1674],[-59.7608,-52.1726],[-59.7769,-52.1487]]],[[[-59.7164,-52.0471],[-59.7403,-52.0599],[-59.7375,-52.0693],[-59.7503,-52.086],[-59.7336,-52.0957],[-59.7208,-52.0779],[-59.7236,-52.066],[-59.7164,-52.0471]]],[[[-59.5881,-51.8604],[-59.6186,-51.8621],[-59.6075,-51.8787],[-59.5925,-51.8718],[-59.5881,-51.8604]]],[[[-59.5358,-51.7588],[-59.5492,-51.759],[-59.5797,-51.7832],[-59.6236,-51.7885],[-59.6314,-51.7982],[-59.6136,-51.8071],[-59.5914,-51.8029],[-59.5597,-51.8071],[-59.5525,-51.7974],[-59.5558,-51.7768],[-59.5358,-51.7588]]],[[[-58.8247,-52.1357],[-58.8519,-52.1621],[-58.8553,-52.1774],[-58.8525,-52.2076],[-58.9203,-52.219],[-58.9203,-52.2282],[-58.9603,-52.2365],[-58.9842,-52.2226],[-58.9875,-52.2407],[-58.9619,-52.2446],[-58.9264,-52.2401],[-58.8869,-52.2318],[-58.8342,-52.2112],[-58.8247,-52.2015],[-58.8458,-52.1876],[-58.8408,-52.1635],[-58.8225,-52.1554],[-58.8247,-52.1357]]],[[[-58.4219,-51.9904],[-58.4169,-52.0026],[-58.4436,-52.0054],[-58.4503,-51.9946],[-58.4786,-51.9893],[-58.5081,-52.0074],[-58.5497,-52.0187],[-58.5531,-52.0296],[-58.5281,-52.0349],[-58.5064,-52.0687],[-58.4881,-52.0718],[-58.4736,-52.0812],[-58.4536,-52.0743],[-58.4442,-52.0868],[-58.4653,-52.089],[-58.4508,-52.1026],[-58.4203,-52.1007],[-58.4358,-52.0862],[-58.4286,-52.0701],[-58.4447,-52.0629],[-58.4419,-52.0476],[-58.4592,-52.0337],[-58.4414,-52.0301],[-58.4581,-52.011],[-58.4025,-52.0146],[-58.4103,-51.9965],[-58.4219,-51.9904]]],[[[-58.9653,-51.2349],[-58.9642,-51.2499],[-58.9475,-51.2562],[-58.9564,-51.2651],[-58.9392,-51.2826],[-58.9169,-51.2976],[-58.9192,-51.3135],[-58.8936,-51.3293],[-58.8775,-51.3465],[-58.8597,-51.3546],[-58.8669,-51.3768],[-58.8786,-51.3835],[-58.9314,-51.3804],[-58.9642,-51.3843],[-58.9744,-51.3801],[-59.0069,-51.3885],[-58.9964,-51.3976],[-59.0208,-51.4193],[-59.0058,-51.4251],[-58.9908,-51.4207],[-58.9697,-51.4234],[-58.9603,-51.4432],[-58.9831,-51.4426],[-58.9736,-51.4276],[-59.0125,-51.4254],[-59.0503,-51.4337],[-59.0569,-51.4257],[-59.0753,-51.4262],[-59.0942,-51.4101],[-59.1136,-51.424],[-59.1097,-51.4323],[-59.1408,-51.444],[-59.1447,-51.4637],[-59.1203,-51.4782],[-59.1047,-51.4782],[-59.0992,-51.4679],[-59.0681,-51.476],[-59.0197,-51.4952],[-59.0019,-51.5118],[-59.0397,-51.5029],[-59.0642,-51.5224],[-59.0558,-51.5399],[-59.0292,-51.5585],[-59.0447,-51.5637],[-59.0453,-51.5785],[-59.0792,-51.5615],[-59.0841,-51.5318],[-59.1103,-51.5021],[-59.1181,-51.5099],[-59.1131,-51.5296],[-59.1286,-51.5346],[-59.1586,-51.5771],[-59.1792,-51.5851],[-59.1642,-51.5965],[-59.1075,-51.6137],[-59.1031,-51.6249],[-59.0858,-51.6293],[-59.0836,-51.6393],[-59.0447,-51.646],[-59.0242,-51.6543],[-59.0208,-51.6662],[-59.0325,-51.6999],[-59.0397,-51.7076],[-59.0131,-51.7157],[-59.0091,-51.7499],[-58.9881,-51.7685],[-58.9992,-51.7754],[-58.9814,-51.7954],[-59.0097,-51.8243],[-59.0314,-51.8279],[-59.0475,-51.8249],[-59.038,-51.809],[-59.0436,-51.7951],[-59.0419,-51.7757],[-59.0247,-51.7737],[-59.0486,-51.7407],[-59.043,-51.7298],[-59.0586,-51.7229],[-59.0469,-51.7124],[-59.0558,-51.6968],[-59.0869,-51.6915],[-59.1042,-51.7051],[-59.1353,-51.7004],[-59.1547,-51.706],[-59.1564,-51.714],[-59.1803,-51.734],[-59.2158,-51.739],[-59.2103,-51.7199],[-59.2325,-51.7215],[-59.2503,-51.7371],[-59.2536,-51.7579],[-59.2781,-51.747],[-59.2825,-51.7585],[-59.3053,-51.7604],[-59.2814,-51.7899],[-59.3041,-51.7901],[-59.3203,-51.801],[-59.3358,-51.7873],[-59.3508,-51.7882],[-59.3614,-51.8001],[-59.3558,-51.8129],[-59.3941,-51.8387],[-59.4131,-51.8362],[-59.4236,-51.8276],[-59.4469,-51.8362],[-59.4886,-51.8329],[-59.508,-51.8523],[-59.488,-51.8615],[-59.4897,-51.8699],[-59.4669,-51.8718],[-59.4758,-51.8968],[-59.4992,-51.8913],[-59.5147,-51.8737],[-59.5264,-51.8732],[-59.5275,-51.9032],[-59.5108,-51.9129],[-59.4742,-51.9168],[-59.4975,-51.9376],[-59.5169,-51.9385],[-59.5347,-51.9257],[-59.5564,-51.926],[-59.5769,-51.9087],[-59.5947,-51.909],[-59.6114,-51.919],[-59.6153,-51.9507],[-59.5536,-51.964],[-59.5392,-51.971],[-59.5942,-51.9849],[-59.5814,-52.0043],[-59.6092,-51.9979],[-59.6369,-52.0074],[-59.6442,-52.0187],[-59.5986,-52.0232],[-59.6158,-52.0346],[-59.6142,-52.0493],[-59.5781,-52.0549],[-59.5642,-52.0801],[-59.5975,-52.0824],[-59.6136,-52.0924],[-59.6147,-52.1046],[-59.6042,-52.1201],[-59.6164,-52.1251],[-59.6397,-52.1188],[-59.6753,-52.1184],[-59.7036,-52.0949],[-59.7086,-52.1082],[-59.7224,-52.1154],[-59.7242,-52.1335],[-59.7064,-52.1362],[-59.6792,-52.1476],[-59.6858,-52.1532],[-59.6597,-52.1701],[-59.6453,-52.1657],[-59.6242,-52.1746],[-59.6231,-52.2026],[-59.6036,-52.2154],[-59.563,-52.2107],[-59.5869,-52.2351],[-59.5942,-52.249],[-59.5786,-52.2601],[-59.5636,-52.2518],[-59.5514,-52.2601],[-59.5308,-52.2493],[-59.493,-52.264],[-59.4803,-52.2749],[-59.4797,-52.2873],[-59.4964,-52.2993],[-59.498,-52.3126],[-59.4331,-52.3076],[-59.407,-52.3149],[-59.4069,-52.3321],[-59.3975,-52.3371],[-59.3742,-52.3343],[-59.3642,-52.3607],[-59.3325,-52.3507],[-59.3097,-52.3496],[-59.3153,-52.3293],[-59.3364,-52.3465],[-59.3497,-52.3365],[-59.3858,-52.3207],[-59.3847,-52.3037],[-59.3703,-52.2965],[-59.3492,-52.2954],[-59.3402,-52.276],[-59.3536,-52.2585],[-59.3408,-52.2532],[-59.3453,-52.2385],[-59.3714,-52.2329],[-59.3608,-52.2196],[-59.3336,-52.2168],[-59.3381,-52.2088],[-59.3631,-52.214],[-59.3825,-52.2115],[-59.4292,-52.2396],[-59.4303,-52.2307],[-59.4031,-52.2126],[-59.4281,-52.2062],[-59.4231,-52.1943],[-59.4331,-52.1874],[-59.4047,-52.1724],[-59.4425,-52.1587],[-59.4297,-52.141],[-59.4003,-52.1499],[-59.3953,-52.1382],[-59.3708,-52.1382],[-59.3564,-52.1518],[-59.3275,-52.1557],[-59.3064,-52.1487],[-59.2919,-52.1635],[-59.2669,-52.1757],[-59.2503,-52.1723],[-59.2519,-52.1985],[-59.2286,-52.2162],[-59.1614,-52.2101],[-59.1492,-52.2262],[-59.133,-52.2224],[-59.1064,-52.2335],[-59.0614,-52.2351],[-59.0547,-52.221],[-59.0353,-52.2043],[-59.0747,-52.1996],[-59.0891,-52.2071],[-59.1047,-52.1982],[-59.0675,-52.1662],[-59.0292,-52.1518],[-59.0241,-52.1437],[-59.0753,-52.1376],[-59.0897,-52.1557],[-59.1136,-52.141],[-59.1425,-52.1571],[-59.1492,-52.1463],[-59.1325,-52.1368],[-59.1164,-52.1176],[-59.1019,-52.126],[-59.0769,-52.1146],[-59.0758,-52.1046],[-59.0919,-52.1001],[-59.1164,-52.1087],[-59.1391,-52.0932],[-59.138,-52.0851],[-59.1053,-52.079],[-59.1269,-52.0626],[-59.1675,-52.0573],[-59.1831,-52.0649],[-59.1992,-52.0618],[-59.2014,-52.0488],[-59.1881,-52.0418],[-59.1969,-52.0215],[-59.2181,-52.0201],[-59.2703,-52.0046],[-59.2597,-51.9943],[-59.2419,-52.0096],[-59.1703,-52.0129],[-59.1575,-51.9993],[-59.1358,-52.0004],[-59.1008,-52.0301],[-59.0819,-52.0149],[-59.0697,-52.0301],[-59.0458,-52.041],[-59.0358,-52.0274],[-59.0203,-52.0299],[-59.0125,-52.0454],[-58.9997,-52.0493],[-58.9875,-52.086],[-58.9631,-52.0799],[-58.9642,-52.0668],[-58.9508,-52.0609],[-58.9469,-52.0821],[-58.9292,-52.109],[-58.9097,-52.0976],[-58.9092,-52.0871],[-58.8903,-52.0843],[-58.8869,-52.0757],[-58.8664,-52.0668],[-58.8564,-52.054],[-58.8136,-52.0546],[-58.8131,-52.0351],[-58.7886,-52.039],[-58.7803,-52.0476],[-58.7547,-52.0449],[-58.7353,-52.0501],[-58.7292,-52.0696],[-58.7153,-52.0638],[-58.7031,-52.0785],[-58.6753,-52.0943],[-58.6886,-52.1123],[-58.6569,-52.1232],[-58.6458,-52.0982],[-58.6581,-52.0746],[-58.663,-52.0537],[-58.6397,-52.0493],[-58.6525,-52.0276],[-58.6092,-52.0193],[-58.6197,-51.9962],[-58.6069,-51.9826],[-58.6286,-51.9682],[-58.6775,-51.9643],[-58.698,-51.9532],[-58.7253,-51.9512],[-58.7469,-51.9546],[-58.7564,-51.9632],[-58.7764,-51.9668],[-58.7835,-51.9549],[-58.8142,-51.9435],[-58.8486,-51.9393],[-58.8425,-51.921],[-58.8169,-51.9371],[-58.7997,-51.9301],[-58.8369,-51.9165],[-58.8881,-51.9018],[-58.9092,-51.8901],[-58.9097,-51.8821],[-58.9464,-51.8782],[-58.9625,-51.8679],[-59.0059,-51.8602],[-58.9725,-51.8501],[-58.9858,-51.8432],[-58.9608,-51.8154],[-58.9386,-51.8135],[-58.9358,-51.8274],[-58.9164,-51.8446],[-58.8953,-51.856],[-58.8364,-51.8715],[-58.8203,-51.8707],[-58.8092,-51.8846],[-58.7625,-51.8999],[-58.7331,-51.8915],[-58.6908,-51.8937],[-58.6769,-51.9051],[-58.6419,-51.8949],[-58.5903,-51.9032],[-58.5581,-51.9007],[-58.5547,-51.8901],[-58.5214,-51.8957],[-58.4803,-51.8932],[-58.4631,-51.9043],[-58.4325,-51.8996],[-58.4103,-51.9082],[-58.4269,-51.916],[-58.4403,-51.9101],[-58.4675,-51.9107],[-58.4658,-51.9204],[-58.4436,-51.926],[-58.3958,-51.9151],[-58.393,-51.899],[-58.3814,-51.8912],[-58.3492,-51.8829],[-58.3125,-51.8804],[-58.3058,-51.8688],[-58.2919,-51.8674],[-58.2764,-51.8518],[-58.2253,-51.8454],[-58.2347,-51.8649],[-58.2175,-51.864],[-58.2141,-51.8454],[-58.2358,-51.8387],[-58.2369,-51.8293],[-58.1903,-51.8276],[-58.1664,-51.8149],[-58.2081,-51.8149],[-58.2219,-51.8099],[-58.2819,-51.8068],[-58.2953,-51.826],[-58.3247,-51.8354],[-58.3219,-51.8207],[-58.2992,-51.8226],[-58.2819,-51.801],[-58.2581,-51.8057],[-58.2431,-51.7949],[-58.2308,-51.7985],[-58.1892,-51.794],[-58.1208,-51.7999],[-58.1169,-51.786],[-58.1436,-51.786],[-58.1697,-51.7799],[-58.1986,-51.7826],[-58.2203,-51.7732],[-58.1814,-51.7607],[-58.1336,-51.7682],[-58.0653,-51.7721],[-58.0636,-51.7593],[-58.0475,-51.7485],[-58.0324,-51.7576],[-58.0025,-51.7582],[-57.9736,-51.7507],[-57.9369,-51.7462],[-57.8803,-51.7471],[-57.8853,-51.7396],[-57.9275,-51.739],[-57.9308,-51.7257],[-57.8719,-51.7301],[-57.8258,-51.7187],[-57.8064,-51.704],[-57.7864,-51.7026],[-57.7703,-51.6926],[-57.7347,-51.6929],[-57.7175,-51.6804],[-57.7692,-51.681],[-57.7871,-51.6746],[-57.8225,-51.681],[-57.8319,-51.6943],[-57.8503,-51.6785],[-57.8464,-51.6665],[-57.8164,-51.6612],[-57.8036,-51.6512],[-57.7853,-51.6618],[-57.7747,-51.649],[-57.7231,-51.6426],[-57.7408,-51.6324],[-57.7641,-51.6326],[-57.7675,-51.6209],[-57.7819,-51.6162],[-57.8875,-51.5988],[-57.9025,-51.6007],[-57.9742,-51.586],[-58.0036,-51.5946],[-58.0514,-51.5935],[-58.0681,-51.5835],[-58.0697,-51.5699],[-58.0853,-51.5693],[-58.1303,-51.5568],[-58.1547,-51.5537],[-58.1583,-51.541],[-58.1364,-51.5412],[-58.1036,-51.5351],[-58.0925,-51.5271],[-58.0414,-51.5276],[-58.038,-51.501],[-58.0192,-51.5101],[-57.9947,-51.5068],[-57.9881,-51.5276],[-57.9564,-51.5404],[-57.9214,-51.5387],[-57.9125,-51.5424],[-57.8342,-51.5457],[-57.7853,-51.546],[-57.7625,-51.5407],[-57.7631,-51.5257],[-57.7869,-51.5185],[-57.8225,-51.5132],[-57.8747,-51.5093],[-57.8647,-51.4959],[-57.8347,-51.5043],[-57.7942,-51.5071],[-57.7447,-51.5146],[-57.7903,-51.4863],[-57.8114,-51.4857],[-57.8314,-51.4768],[-57.8436,-51.456],[-57.8414,-51.4451],[-57.8675,-51.4424],[-57.8708,-51.4293],[-57.8531,-51.4218],[-57.8536,-51.4093],[-57.8681,-51.4082],[-57.8931,-51.3965],[-57.9014,-51.3779],[-57.9436,-51.361],[-57.9786,-51.3671],[-57.9808,-51.3763],[-58.0108,-51.3812],[-58.0319,-51.3721],[-58.0531,-51.3765],[-58.0649,-51.3687],[-58.0992,-51.3818],[-58.1086,-51.3771],[-58.1564,-51.376],[-58.1592,-51.3821],[-58.2303,-51.3843],[-58.2742,-51.3888],[-58.2869,-51.4132],[-58.2908,-51.4304],[-58.3142,-51.4396],[-58.3208,-51.4543],[-58.3425,-51.4718],[-58.3692,-51.4785],[-58.3636,-51.4918],[-58.3775,-51.5137],[-58.3525,-51.519],[-58.3158,-51.514],[-58.3136,-51.5037],[-58.2864,-51.4901],[-58.2842,-51.5043],[-58.3031,-51.5218],[-58.2714,-51.5349],[-58.2519,-51.536],[-58.2253,-51.529],[-58.2069,-51.5335],[-58.2597,-51.5499],[-58.2397,-51.5651],[-58.2414,-51.5746],[-58.2075,-51.5838],[-58.1969,-51.6037],[-58.2331,-51.586],[-58.2542,-51.586],[-58.2614,-51.6004],[-58.2436,-51.6051],[-58.2431,-51.6171],[-58.2119,-51.6368],[-58.2353,-51.6426],[-58.2364,-51.6251],[-58.2691,-51.6004],[-58.2647,-51.5954],[-58.2631,-51.5657],[-58.2769,-51.5543],[-58.3264,-51.549],[-58.3669,-51.5624],[-58.3692,-51.5454],[-58.3886,-51.5376],[-58.4119,-51.5368],[-58.4103,-51.549],[-58.4319,-51.5576],[-58.4286,-51.5387],[-58.4331,-51.5237],[-58.4097,-51.5043],[-58.4236,-51.4812],[-58.4442,-51.4729],[-58.4564,-51.4782],[-58.4942,-51.4774],[-58.5086,-51.4865],[-58.5247,-51.4635],[-58.5108,-51.4554],[-58.5142,-51.4415],[-58.5347,-51.4457],[-58.5719,-51.4371],[-58.5369,-51.4212],[-58.5336,-51.4099],[-58.5042,-51.3812],[-58.4903,-51.3841],[-58.5136,-51.4065],[-58.5191,-51.4204],[-58.5064,-51.4251],[-58.4958,-51.4051],[-58.4786,-51.4012],[-58.4714,-51.4199],[-58.4742,-51.434],[-58.4453,-51.4504],[-58.4036,-51.4435],[-58.3786,-51.4468],[-58.3486,-51.4621],[-58.3386,-51.4493],[-58.3514,-51.4346],[-58.3236,-51.4362],[-58.3175,-51.4296],[-58.3203,-51.4082],[-58.3353,-51.3949],[-58.3303,-51.3796],[-58.3486,-51.3646],[-58.3792,-51.3482],[-58.3792,-51.3385],[-58.3953,-51.3307],[-58.4114,-51.3154],[-58.4386,-51.3182],[-58.4647,-51.311],[-58.4731,-51.2976],[-58.5058,-51.3096],[-58.5253,-51.3012],[-58.5614,-51.3021],[-58.5714,-51.2971],[-58.5869,-51.3135],[-58.6281,-51.3268],[-58.6603,-51.3288],[-58.6736,-51.3346],[-58.6919,-51.3265],[-58.7231,-51.3249],[-58.7392,-51.3143],[-58.7525,-51.3187],[-58.7903,-51.3054],[-58.8253,-51.2996],[-58.8381,-51.2876],[-58.8719,-51.2857],[-58.9069,-51.2724],[-58.9386,-51.2459],[-58.9653,-51.2349]]],[[[-60.4142,-52.2018],[-60.4297,-52.2076],[-60.4619,-52.211],[-60.4575,-52.2207],[-60.4319,-52.2168],[-60.4142,-52.2018]]],[[[-60.8758,-51.9649],[-60.8875,-51.9807],[-60.9036,-51.9782],[-60.9231,-51.9965],[-60.9158,-52.0057],[-60.8814,-52.0079],[-60.8525,-52.0143],[-60.8564,-51.9721],[-60.8758,-51.9649]]],[[[-61.1642,-51.8943],[-61.1908,-51.9029],[-61.1769,-51.9137],[-61.1642,-51.8943]]],[[[-61.1719,-51.874],[-61.2008,-51.8874],[-61.2175,-51.9051],[-61.2103,-51.9118],[-61.1703,-51.8868],[-61.1719,-51.874]]],[[[-60.8619,-51.7635],[-60.8847,-51.7643],[-60.8964,-51.7765],[-60.9169,-51.7793],[-60.9086,-51.7951],[-60.8886,-51.8082],[-60.8903,-51.8221],[-60.9208,-51.831],[-60.9542,-51.8504],[-60.9847,-51.8729],[-61.0125,-51.869],[-61.0286,-51.8593],[-60.9769,-51.831],[-60.9442,-51.8187],[-60.9408,-51.8012],[-60.9642,-51.8018],[-60.9831,-51.7846],[-61.0031,-51.7857],[-61.0147,-51.779],[-61.0386,-51.7835],[-61.0342,-51.7971],[-61.0569,-51.8154],[-61.0592,-51.829],[-61.0903,-51.824],[-61.0981,-51.8096],[-61.1275,-51.8149],[-61.1364,-51.8296],[-61.1625,-51.8362],[-61.1603,-51.8529],[-61.1392,-51.8446],[-61.1342,-51.8596],[-61.1375,-51.8799],[-61.1225,-51.8871],[-61.1364,-51.9043],[-61.1169,-51.9107],[-61.1108,-51.9243],[-61.0908,-51.9238],[-61.0681,-51.936],[-61.0725,-51.9432],[-61.0369,-51.9582],[-61.0297,-51.9721],[-61.0119,-51.9787],[-61.0003,-51.9906],[-60.9731,-51.9821],[-60.9592,-51.9671],[-60.9403,-51.9579],[-60.9036,-51.956],[-60.9047,-51.944],[-60.8864,-51.9346],[-60.8864,-51.9207],[-60.8697,-51.9168],[-60.8697,-51.9004],[-60.8914,-51.9104],[-60.9086,-51.8987],[-60.8881,-51.8915],[-60.8803,-51.8771],[-60.8858,-51.8499],[-60.8731,-51.829],[-60.8825,-51.8218],[-60.8631,-51.8126],[-60.8675,-51.7988],[-60.8553,-51.7876],[-60.8619,-51.7635]]],[[[-61.1847,-51.8451],[-61.2008,-51.8568],[-61.1869,-51.8649],[-61.1669,-51.856],[-61.1847,-51.8451]]],[[[-61.2275,-51.7965],[-61.2447,-51.8029],[-61.2403,-51.8138],[-61.2697,-51.8318],[-61.3092,-51.8004],[-61.3208,-51.8187],[-61.3481,-51.8243],[-61.3436,-51.8376],[-61.3203,-51.839],[-61.3003,-51.861],[-61.2286,-51.8757],[-61.2097,-51.8515],[-61.2353,-51.8429],[-61.2492,-51.8276],[-61.2103,-51.8196],[-61.2275,-51.7965]]],[[[-59.388,-51.336],[-59.4053,-51.3401],[-59.4119,-51.3585],[-59.448,-51.3523],[-59.4547,-51.3551],[-59.438,-51.3762],[-59.4442,-51.3951],[-59.4719,-51.399],[-59.3947,-51.4237],[-59.3981,-51.4349],[-59.4258,-51.449],[-59.4397,-51.4465],[-59.448,-51.4579],[-59.5086,-51.4593],[-59.5375,-51.4487],[-59.5464,-51.4632],[-59.5886,-51.4576],[-59.6003,-51.4485],[-59.5319,-51.4332],[-59.4997,-51.4171],[-59.4864,-51.3979],[-59.5058,-51.394],[-59.5536,-51.4262],[-59.5947,-51.4388],[-59.6236,-51.4346],[-59.6453,-51.4399],[-59.7003,-51.4479],[-59.7508,-51.4599],[-59.8053,-51.4568],[-59.8114,-51.4437],[-59.7903,-51.4332],[-59.7303,-51.4268],[-59.7303,-51.4201],[-59.7581,-51.4115],[-59.7775,-51.4193],[-59.8203,-51.4076],[-59.8258,-51.416],[-59.8558,-51.4129],[-59.8692,-51.3896],[-59.8914,-51.3813],[-59.9131,-51.3857],[-59.9169,-51.3954],[-59.9447,-51.3924],[-59.9614,-51.3954],[-59.9675,-51.4054],[-59.9842,-51.4093],[-59.9819,-51.4207],[-60.0142,-51.4171],[-60.003,-51.3993],[-60.0031,-51.3815],[-60.0358,-51.3838],[-60.0481,-51.399],[-60.0369,-51.411],[-60.0791,-51.4226],[-60.0942,-51.4407],[-60.0914,-51.4512],[-60.0492,-51.454],[-60.0314,-51.4521],[-59.9853,-51.4685],[-59.9975,-51.4768],[-60.0236,-51.4774],[-60.0497,-51.4829],[-60.0519,-51.4907],[-60.0853,-51.4851],[-60.0914,-51.4993],[-60.1069,-51.504],[-60.1669,-51.5001],[-60.1703,-51.486],[-60.1903,-51.4957],[-60.2108,-51.4974],[-60.2464,-51.4932],[-60.3075,-51.4726],[-60.3792,-51.4424],[-60.4042,-51.4198],[-60.4319,-51.4079],[-60.4769,-51.3932],[-60.4853,-51.3874],[-60.5325,-51.3707],[-60.5825,-51.361],[-60.6119,-51.3476],[-60.6336,-51.349],[-60.6142,-51.364],[-60.6592,-51.356],[-60.6658,-51.364],[-60.6497,-51.3721],[-60.6353,-51.3882],[-60.6277,-51.4171],[-60.6097,-51.4259],[-60.5992,-51.4404],[-60.5631,-51.4421],[-60.5197,-51.4524],[-60.4536,-51.4382],[-60.4481,-51.4543],[-60.4219,-51.4565],[-60.4097,-51.4715],[-60.3847,-51.4898],[-60.3858,-51.5049],[-60.4003,-51.5051],[-60.4575,-51.4932],[-60.4803,-51.4932],[-60.5103,-51.5007],[-60.5142,-51.5093],[-60.4931,-51.5418],[-60.4775,-51.5343],[-60.4314,-51.5473],[-60.3786,-51.5765],[-60.3347,-51.5815],[-60.3192,-51.5762],[-60.2925,-51.604],[-60.2731,-51.611],[-60.2303,-51.6101],[-60.2208,-51.6193],[-60.2553,-51.629],[-60.2203,-51.6329],[-60.1969,-51.6498],[-60.1769,-51.6701],[-60.1436,-51.6818],[-60.1153,-51.6807],[-60.103,-51.6724],[-60.0902,-51.6882],[-60.0992,-51.706],[-60.1692,-51.6918],[-60.1814,-51.6804],[-60.2147,-51.6601],[-60.2342,-51.6557],[-60.2475,-51.6693],[-60.2831,-51.6796],[-60.3003,-51.6813],[-60.3647,-51.6715],[-60.3808,-51.6746],[-60.4369,-51.6968],[-60.5025,-51.709],[-60.5142,-51.7046],[-60.5481,-51.7054],[-60.6036,-51.6801],[-60.6175,-51.6801],[-60.6497,-51.6668],[-60.6614,-51.6768],[-60.6619,-51.6899],[-60.6469,-51.7021],[-60.6414,-51.7285],[-60.6303,-51.7304],[-60.6081,-51.7554],[-60.5936,-51.7643],[-60.5925,-51.7751],[-60.5714,-51.7826],[-60.5719,-51.8001],[-60.5236,-51.8018],[-60.5347,-51.7721],[-60.4936,-51.7701],[-60.4786,-51.7762],[-60.443,-51.7732],[-60.4042,-51.7493],[-60.3697,-51.7596],[-60.3742,-51.719],[-60.3464,-51.7168],[-60.3219,-51.7074],[-60.3103,-51.7165],[-60.2786,-51.7207],[-60.2475,-51.6968],[-60.2003,-51.7024],[-60.1825,-51.7071],[-60.1897,-51.7187],[-60.1814,-51.7457],[-60.1869,-51.7599],[-60.2036,-51.7804],[-60.2258,-51.7729],[-60.2564,-51.784],[-60.2542,-51.7685],[-60.2686,-51.7582],[-60.2681,-51.7485],[-60.3092,-51.7612],[-60.3247,-51.7607],[-60.3303,-51.7815],[-60.3053,-51.7782],[-60.2997,-51.7868],[-60.3292,-51.8057],[-60.2992,-51.8176],[-60.2953,-51.8315],[-60.3181,-51.8271],[-60.3508,-51.861],[-60.3669,-51.8579],[-60.3814,-51.8454],[-60.3686,-51.8282],[-60.3636,-51.8099],[-60.3719,-51.7971],[-60.3908,-51.8115],[-60.4142,-51.8043],[-60.4063,-51.7962],[-60.3753,-51.7907],[-60.3686,-51.7824],[-60.3719,-51.766],[-60.3831,-51.7651],[-60.4002,-51.7787],[-60.4353,-51.7876],[-60.4475,-51.7768],[-60.4608,-51.7873],[-60.4614,-51.8004],[-60.4719,-51.8073],[-60.4831,-51.8318],[-60.5053,-51.8235],[-60.5131,-51.8335],[-60.4964,-51.8446],[-60.4908,-51.859],[-60.4681,-51.8374],[-60.4486,-51.8526],[-60.4742,-51.8668],[-60.4508,-51.8735],[-60.4847,-51.9049],[-60.5014,-51.9104],[-60.4925,-51.9199],[-60.5091,-51.9329],[-60.5414,-51.9351],[-60.5703,-51.9329],[-60.5875,-51.9265],[-60.6036,-51.9296],[-60.6336,-51.9179],[-60.6303,-51.9343],[-60.5958,-51.9329],[-60.5636,-51.9388],[-60.5614,-51.9479],[-60.5442,-51.9549],[-60.5003,-51.9538],[-60.4703,-51.9482],[-60.4563,-51.9359],[-60.4208,-51.9313],[-60.4075,-51.9396],[-60.4303,-51.9512],[-60.4558,-51.9699],[-60.5208,-51.9801],[-60.5497,-51.976],[-60.5764,-51.9868],[-60.5992,-51.9798],[-60.6375,-51.9754],[-60.6503,-51.9682],[-60.6831,-51.9735],[-60.7025,-51.9637],[-60.7258,-51.9604],[-60.7681,-51.961],[-60.7786,-51.9565],[-60.8058,-51.959],[-60.8403,-51.9557],[-60.8575,-51.9643],[-60.8397,-51.9851],[-60.8226,-51.9882],[-60.8175,-52.0032],[-60.7942,-51.9938],[-60.7525,-52.009],[-60.7458,-52.0179],[-60.7981,-52.0235],[-60.8097,-52.0349],[-60.8586,-52.0379],[-60.8808,-52.0262],[-60.9097,-52.0343],[-60.9658,-52.0432],[-60.9919,-52.0426],[-60.9919,-52.0043],[-61.0108,-52.0004],[-61.0447,-52.0146],[-61.0453,-52.0446],[-61.0508,-52.0713],[-61.0303,-52.0713],[-61.0192,-52.0815],[-61.0008,-52.0713],[-60.9742,-52.0785],[-60.9475,-52.091],[-60.9475,-52.1076],[-60.9247,-52.119],[-60.9025,-52.1148],[-60.8819,-52.1173],[-60.8658,-52.1254],[-60.8603,-52.1371],[-60.8392,-52.1507],[-60.8186,-52.1518],[-60.8125,-52.1635],[-60.8258,-52.1735],[-60.8003,-52.1904],[-60.7219,-52.1804],[-60.7664,-52.1688],[-60.7708,-52.1587],[-60.7953,-52.1401],[-60.8214,-52.1387],[-60.8514,-52.1196],[-60.8197,-52.1012],[-60.8092,-52.1137],[-60.7847,-52.1093],[-60.7503,-52.1249],[-60.7242,-52.1165],[-60.6958,-52.1234],[-60.7042,-52.1324],[-60.7269,-52.1312],[-60.7447,-52.1468],[-60.6814,-52.1896],[-60.6392,-52.2062],[-60.6475,-52.2132],[-60.6731,-52.1993],[-60.6975,-52.2104],[-60.6792,-52.2268],[-60.6814,-52.2357],[-60.6653,-52.2443],[-60.6514,-52.2596],[-60.6308,-52.2557],[-60.6147,-52.2599],[-60.6036,-52.2529],[-60.5953,-52.2362],[-60.5719,-52.2368],[-60.5047,-52.201],[-60.5186,-52.1918],[-60.4931,-52.1871],[-60.4897,-52.1735],[-60.5181,-52.159],[-60.5481,-52.1374],[-60.5581,-52.141],[-60.5747,-52.1274],[-60.5603,-52.1221],[-60.5247,-52.149],[-60.4692,-52.179],[-60.4675,-52.1613],[-60.4503,-52.1529],[-60.4231,-52.1487],[-60.4064,-52.1529],[-60.4136,-52.1668],[-60.4042,-52.1746],[-60.3675,-52.1771],[-60.3664,-52.1607],[-60.3336,-52.1551],[-60.3225,-52.1457],[-60.2797,-52.0937],[-60.2669,-52.0932],[-60.2686,-52.0757],[-60.2786,-52.0618],[-60.2736,-52.0404],[-60.2886,-52.0115],[-60.2431,-51.9879],[-60.2231,-51.9873],[-60.2025,-51.9943],[-60.2375,-52.0071],[-60.2258,-52.0126],[-60.1719,-52.0049],[-60.1519,-52.0043],[-60.1042,-52.0099],[-60.0869,-51.9982],[-60.0986,-51.9837],[-60.0914,-51.9663],[-60.0769,-51.9554],[-60.0397,-51.9707],[-60.0303,-51.9621],[-60.0086,-51.9726],[-59.9966,-51.9887],[-60.0192,-51.9999],[-60.0036,-52.0062],[-59.9753,-52.0004],[-59.9503,-51.9901],[-59.9208,-51.9671],[-59.8886,-51.9724],[-59.8586,-51.9649],[-59.8486,-51.951],[-59.8503,-51.9312],[-59.8364,-51.9001],[-59.7914,-51.8546],[-59.7741,-51.8432],[-59.7469,-51.8121],[-59.7225,-51.8118],[-59.6919,-51.791],[-59.6258,-51.7537],[-59.6353,-51.7424],[-59.6064,-51.7318],[-59.6014,-51.7157],[-59.5908,-51.711],[-59.578,-51.6921],[-59.5603,-51.6779],[-59.5425,-51.6482],[-59.5164,-51.6307],[-59.4753,-51.6151],[-59.4797,-51.6362],[-59.4553,-51.6379],[-59.4392,-51.634],[-59.4258,-51.6204],[-59.3936,-51.6074],[-59.3914,-51.5924],[-59.3736,-51.5646],[-59.3492,-51.5426],[-59.3392,-51.5249],[-59.3669,-51.5276],[-59.353,-51.5118],[-59.3497,-51.4965],[-59.3286,-51.501],[-59.3419,-51.5132],[-59.3342,-51.5249],[-59.2892,-51.4912],[-59.2736,-51.4765],[-59.2675,-51.4624],[-59.2853,-51.4407],[-59.2813,-51.4273],[-59.2558,-51.4257],[-59.2197,-51.4154],[-59.2081,-51.4068],[-59.2381,-51.3968],[-59.2403,-51.3899],[-59.2814,-51.3829],[-59.3136,-51.3684],[-59.3525,-51.3615],[-59.388,-51.336]]],[[[-59.6914,-51.9374],[-59.7153,-51.9415],[-59.7158,-51.9576],[-59.7247,-51.9743],[-59.6986,-51.9801],[-59.6953,-51.9921],[-59.6714,-51.9849],[-59.6653,-51.9738],[-59.6986,-51.9538],[-59.6814,-51.9446],[-59.6914,-51.9374]]],[[[-59.6014,-51.4062],[-59.6364,-51.4082],[-59.6431,-51.4199],[-59.603,-51.424],[-59.5908,-51.4215],[-59.6014,-51.4062]]],[[[-59.7147,-51.3899],[-59.7314,-51.3996],[-59.7247,-51.4229],[-59.6831,-51.4079],[-59.6892,-51.3929],[-59.7147,-51.3899]]],[[[-59.8286,-51.367],[-59.8614,-51.366],[-59.8625,-51.3793],[-59.8342,-51.3796],[-59.8286,-51.367]]],[[[-59.6303,-51.3693],[-59.6542,-51.3684],[-59.6719,-51.3751],[-59.6297,-51.3838],[-59.5947,-51.3793],[-59.5897,-51.3721],[-59.6303,-51.3693]]],[[[-59.7392,-51.3182],[-59.7708,-51.3299],[-59.7719,-51.344],[-59.7931,-51.3551],[-59.7731,-51.3671],[-59.7453,-51.3718],[-59.7369,-51.3615],[-59.6997,-51.3615],[-59.7197,-51.3476],[-59.7458,-51.3362],[-59.7392,-51.3182]]],[[[-60.2947,-51.2612],[-60.3019,-51.2699],[-60.3219,-51.2657],[-60.3214,-51.2818],[-60.2825,-51.3057],[-60.2403,-51.3085],[-60.2336,-51.3237],[-60.1908,-51.3482],[-60.1664,-51.3551],[-60.1419,-51.3571],[-60.1219,-51.3654],[-60.1386,-51.3913],[-60.1808,-51.3921],[-60.1864,-51.3635],[-60.2069,-51.3476],[-60.2308,-51.3376],[-60.2442,-51.3604],[-60.2853,-51.369],[-60.2847,-51.3843],[-60.2997,-51.3935],[-60.2814,-51.4082],[-60.2625,-51.4143],[-60.2386,-51.4149],[-60.198,-51.3965],[-60.1903,-51.4051],[-60.1358,-51.4049],[-60.1169,-51.4021],[-60.1192,-51.3915],[-60.0858,-51.3821],[-60.0536,-51.3404],[-60.0864,-51.3143],[-60.0858,-51.3034],[-60.1131,-51.3048],[-60.1581,-51.316],[-60.1836,-51.3154],[-60.2486,-51.299],[-60.263,-51.2804],[-60.2641,-51.2707],[-60.2947,-51.2612]]],[[[-59.9547,-51.2863],[-59.9714,-51.2929],[-59.9903,-51.2851],[-59.9958,-51.2999],[-60.0292,-51.299],[-60.0447,-51.3045],[-60.0403,-51.3143],[-59.9903,-51.3451],[-59.9292,-51.3565],[-59.9214,-51.3462],[-59.9397,-51.3321],[-59.9219,-51.3157],[-59.9264,-51.3051],[-59.9464,-51.3004],[-59.9547,-51.2863]]],[[[-61.0792,-51.7751],[-61.0703,-51.7946],[-61.0547,-51.7812],[-61.0792,-51.7751]]],[[[-61.2586,-51.6774],[-61.2653,-51.6918],[-61.2953,-51.6929],[-61.3264,-51.7004],[-61.3097,-51.7232],[-61.3175,-51.747],[-61.2986,-51.764],[-61.2802,-51.7607],[-61.2752,-51.7437],[-61.3047,-51.7396],[-61.2786,-51.7204],[-61.2931,-51.7118],[-61.2731,-51.6987],[-61.2636,-51.7068],[-61.2342,-51.7018],[-61.2397,-51.6879],[-61.2586,-51.6774]]],[[[-60.6936,-51.6048],[-60.6858,-51.6426],[-60.6942,-51.6688],[-60.6825,-51.6762],[-60.6669,-51.6687],[-60.6697,-51.6521],[-60.6936,-51.6048]]],[[[-60.4325,-51.606],[-60.4603,-51.6107],[-60.4447,-51.6249],[-60.4325,-51.606]]],[[[-60.8069,-51.5676],[-60.8186,-51.5762],[-60.8031,-51.5832],[-60.7831,-51.5829],[-60.7514,-51.5885],[-60.7369,-51.5804],[-60.7603,-51.5712],[-60.8069,-51.5676]]],[[[-60.7258,-51.4641],[-60.7258,-51.4735],[-60.6964,-51.4829],[-60.6903,-51.4757],[-60.7258,-51.4641]]],[[[-60.8408,-51.1957],[-60.8814,-51.199],[-60.8842,-51.2107],[-60.8481,-51.201],[-60.8408,-51.1957]]],[[[-60.8319,-51.1512],[-60.8558,-51.1515],[-60.8458,-51.1632],[-60.8319,-51.1512]]],[[[-60.3958,-51.356],[-60.3864,-51.3715],[-60.3719,-51.3657],[-60.3958,-51.356]]],[[[-60.7264,-51.3266],[-60.7364,-51.336],[-60.7141,-51.3515],[-60.7175,-51.3699],[-60.7014,-51.381],[-60.6847,-51.3737],[-60.6736,-51.3504],[-60.6819,-51.341],[-60.7264,-51.3266]]],[[[-60.5998,-51.2427],[-60.6025,-51.259],[-60.5919,-51.2835],[-60.5792,-51.2938],[-60.5575,-51.2993],[-60.5353,-51.2973],[-60.5231,-51.3104],[-60.5086,-51.3049],[-60.5236,-51.2854],[-60.5469,-51.2771],[-60.5664,-51.2599],[-60.5998,-51.2427]]],[[[-59.8871,-51.2382],[-59.8914,-51.2543],[-59.8608,-51.2629],[-59.8486,-51.2554],[-59.8725,-51.2407],[-59.8871,-51.2382]]],[[[-59.7058,-51.3321],[-59.7153,-51.3365],[-59.7058,-51.351],[-59.6552,-51.3593],[-59.6358,-51.3457],[-59.6608,-51.3432],[-59.6747,-51.3357],[-59.7019,-51.3476],[-59.7058,-51.3321]]],[[[-59.7558,-51.2487],[-59.7853,-51.249],[-59.7992,-51.2551],[-59.8242,-51.2535],[-59.8297,-51.2713],[-59.8125,-51.2804],[-59.7697,-51.2843],[-59.7581,-51.2938],[-59.7325,-51.2935],[-59.7108,-51.3026],[-59.6792,-51.2938],[-59.6619,-51.3018],[-59.6331,-51.3074],[-59.6192,-51.3052],[-59.6075,-51.3143],[-59.5997,-51.334],[-59.5875,-51.3435],[-59.5481,-51.3476],[-59.5336,-51.3443],[-59.4825,-51.3437],[-59.4847,-51.331],[-59.4719,-51.3201],[-59.4458,-51.3354],[-59.4358,-51.3271],[-59.4508,-51.3099],[-59.4725,-51.3021],[-59.4769,-51.2799],[-59.5036,-51.274],[-59.5186,-51.286],[-59.5386,-51.286],[-59.5419,-51.299],[-59.5581,-51.3101],[-59.5892,-51.3126],[-59.6014,-51.2812],[-59.5875,-51.2701],[-59.6558,-51.2646],[-59.6725,-51.2715],[-59.6964,-51.2724],[-59.7464,-51.2651],[-59.7558,-51.2487]]],[[[-61.1169,-51.0232],[-61.1247,-51.0382],[-61.1097,-51.049],[-61.1281,-51.056],[-61.1275,-51.0679],[-61.1008,-51.0685],[-61.0903,-51.0779],[-61.0714,-51.0662],[-61.0781,-51.0515],[-61.0931,-51.0435],[-61.0914,-51.0343],[-61.1169,-51.0232]]],[[[-61.2603,-51.0093],[-61.2481,-51.0301],[-61.1931,-51.0568],[-61.1747,-51.0601],[-61.1681,-51.0496],[-61.1814,-51.0421],[-61.2092,-51.0357],[-61.2236,-51.0187],[-61.2603,-51.0093]]]]},"properties":{"GID_0":"FLK","ISO_A2":"FK","ISO_A3":"FLK","NAME_EN":"Falkland Is.","NAME_IT":"Isole Falkland"}}
]}