{"type":"FeatureCollection", "features": [
{"type":"Feature","geometry":{"type":"MultiPolygon","coordinates":[[[[14.5443,35.8296],[14.5565,35.8276],[14.5765,35.8615],[14.5632,35.8799],[14.4951,35.919],[14.4913,35.931],[14.4607,35.9379],[14.4249,35.9607],[14.4088,35.9526],[14.3976,35.9682],[14.3535,35.9665],[14.351,35.9738],[14.3765,35.9871],[14.3676,35.999],[14.3221,35.9776],[14.336,35.969],[14.3376,35.9515],[14.3282,35.9418],[14.3426,35.9307],[14.3279,35.9071],[14.3354,35.8801],[14.3718,35.8534],[14.4518,35.8185],[14.5315,35.8057],[14.5429,35.8115],[14.5443,35.8296]]],[[[14.3404,36.0193],[14.3226,36.019],[14.3235,36.0032],[14.3496,36.006],[14.3404,36.0193]]],[[[14.2715,36.0157],[14.3018,36.0243],[14.3212,36.0251],[14.3365,36.0351],[14.3221,36.0496],[14.2824,36.0612],[14.2679,36.0735],[14.2374,36.0824],[14.1848,36.074],[14.193,36.0463],[14.219,36.0212],[14.2715,36.0157]]]]},"properties":{"GID_0":"MLT","ISO_A2":"MT","ISO_A3":"MLT","NAME_EN":"Malta","NAME_IT":"Malta"}}
]}