{"type":"FeatureCollection", "features": [
{"type":"Feature","geometry":{"type":"Polygon","coordinates":[[[62.9328,35.3778],[63.0946,35.4206],[63.1278,35.543],[63.0959,35.6168],[63.2459,35.6821],[63.1065,35.8202],[63.1205,35.8618],[63.3072,35.8571],[63.5363,35.9025],[63.5725,35.951],[63.8599,35.9986],[64.0619,36.0019],[64.0572,36.0963],[64.1659,36.1596],[64.2832,36.1505],[64.3145,36.2045],[64.4458,36.241],[64.5796,36.3491],[64.6353,36.4383],[64.6169,36.6309],[64.7961,36.9161],[64.7537,37.1116],[64.9904,37.2188],[65.131,37.2472],[65.2685,37.2336],[65.5302,37.2398],[65.6444,37.3432],[65.646,37.4421],[65.7045,37.5381],[65.7936,37.5458],[65.8554,37.4888],[66.074,37.4504],[66.1481,37.3717],[66.3085,37.3196],[66.5264,37.3461],[66.5308,37.403],[66.6396,37.4395],[66.6371,37.4839],[66.5383,37.5795],[66.5482,37.7918],[66.6766,37.962],[66.5512,38.0382],[66.4,38.0325],[66.2455,38.154],[65.8515,38.2741],[65.7974,38.2359],[65.4814,38.319],[65.3005,38.4085],[65.025,38.6125],[64.8266,38.6795],[64.5228,38.8382],[64.3311,38.9858],[64.1771,38.9592],[63.7454,39.2067],[63.5391,39.3836],[63.1704,39.5741],[62.798,39.7758],[62.4879,39.9514],[62.4006,40.093],[62.4138,40.1735],[62.3915,40.3179],[62.3332,40.3835],[62.3495,40.4383],[62.1443,40.5565],[62.0455,40.7121],[62.0001,40.8203],[61.9709,41.0191],[61.8804,41.1094],[61.6606,41.2259],[61.6269,41.265],[61.4215,41.2859],[61.3799,41.1649],[61.2998,41.1452],[61.1713,41.1732],[61.046,41.2347],[60.5056,41.2165],[60.1312,41.3948],[60.0937,41.4321],[60.1119,41.5481],[60.1638,41.6095],[60.0686,41.7285],[60.0836,41.8093],[60.2584,41.8154],[60.045,41.9164],[60.03,42.0097],[59.9702,42.1282],[60.0391,42.1959],[59.828,42.3063],[59.7176,42.286],[59.4192,42.2766],[59.2706,42.3929],[59.2774,42.4388],[59.1695,42.528],[59.0478,42.5107],[58.9347,42.5436],[58.7025,42.7265],[58.5954,42.6659],[58.4727,42.6503],[58.2972,42.6894],[58.1548,42.6097],[58.3065,42.5483],[58.3234,42.4481],[58.2012,42.4674],[58.1347,42.4425],[58.0468,42.5047],[57.9151,42.4572],[57.9473,42.3716],[57.9285,42.2451],[57.8472,42.2463],[57.8355,42.1729],[57.6756,42.152],[57.5217,42.1741],[57.3128,42.1378],[57.2141,42.0684],[57.1675,41.975],[56.984,41.8673],[56.9722,41.6724],[57.0199,41.5864],[57.0316,41.4459],[57.0889,41.3347],[57.0424,41.2632],[56.2045,41.3116],[55.8674,41.3221],[55.7798,41.2947],[55.4662,41.2757],[55.2834,41.4158],[55.146,41.5766],[55.0712,41.7088],[54.9685,41.8014],[54.9577,41.9096],[54.836,42.0224],[54.2872,42.3054],[54.1663,42.3435],[53.9225,42.3335],[53.5861,42.2927],[53.4202,42.2588],[52.9594,42.1033],[52.4531,41.7707],[52.5811,41.687],[52.5551,41.5406],[52.7673,41.3893],[52.8566,41.1675],[52.8463,41.0838],[52.9367,41.0188],[52.9402,40.9473],[52.8497,40.7475],[52.8628,40.6735],[52.7367,40.4956],[52.706,40.2881],[52.7685,40.1597],[52.7358,40.0813],[52.772,40],[52.886,39.9335],[52.9036,40],[53.1745,40.0056],[53.2892,39.9556],[53.4247,39.9863],[53.4951,39.928],[53.4378,39.8062],[53.4602,39.6765],[53.6156,39.6522],[53.6023,39.5638],[53.4836,39.5695],[53.2362,39.5452],[53.0963,39.4331],[53.1589,39.3395],[53.2302,39.3931],[53.4648,39.3358],[53.5375,39.298],[53.5719,39.1881],[53.7413,39.0514],[53.8782,39.0242],[53.9731,38.8833],[53.9183,38.739],[53.8604,38.6495],[53.8337,38.4929],[53.8698,38.3757],[53.8523,38.141],[53.8222,38.0342],[53.8142,37.8147],[53.8852,37.503],[53.8978,37.3408],[54.2436,37.3092],[54.3945,37.3564],[54.583,37.4554],[54.6532,37.4307],[54.7978,37.5231],[54.784,37.6327],[54.8238,37.7252],[55.0279,37.8631],[55.1293,37.951],[55.2655,37.9821],[55.4844,38.0855],[55.8134,38.1115],[55.9808,38.065],[56.1732,38.0825],[56.3371,38.07],[56.3402,38.1838],[56.4633,38.254],[56.7368,38.2575],[57.0017,38.1774],[57.0945,38.1847],[57.1605,38.2565],[57.249,38.2574],[57.2937,38.1502],[57.3806,38.0729],[57.3591,37.9744],[57.518,37.9144],[57.7326,37.9096],[57.8344,37.8605],[57.956,37.8424],[58.0494,37.7953],[58.2119,37.7601],[58.2373,37.6735],[58.3871,37.617],[58.5126,37.6484],[58.5533,37.6931],[58.7382,37.6294],[58.8239,37.6756],[59.0476,37.6128],[59.2763,37.4973],[59.3478,37.5154],[59.4031,37.426],[59.3924,37.3267],[59.552,37.1663],[59.5538,37.1225],[59.6995,37.1282],[59.8331,37.0921],[59.9275,37.0298],[60.021,37.0333],[60.0843,36.9785],[60.1768,36.8424],[60.3707,36.6242],[60.6348,36.6276],[61.1402,36.6621],[61.191,36.5677],[61.1702,36.3403],[61.2292,36.1724],[61.1593,35.9896],[61.234,35.9155],[61.26,35.8129],[61.2229,35.6604],[61.5895,35.4352],[61.7825,35.4096],[61.9686,35.4515],[62.0662,35.4316],[62.1526,35.3428],[62.2649,35.2954],[62.3075,35.1298],[62.4821,35.2783],[62.6451,35.2236],[62.7456,35.2537],[62.9328,35.3778]]]},"properties":{"GID_0":"TKM","ISO_A2":"TM","ISO_A3":"TKM","NAME_EN":"Turkmenistan","NAME_IT":"Turkmenistan"}}
]}