{"type":"FeatureCollection", "features": [
{"type":"Feature","geometry":{"type":"MultiPolygon","coordinates":[[[[-15.4227,11.8807],[-15.4388,11.8772],[-15.4595,11.861],[-15.4369,11.8439],[-15.424,11.8572],[-15.4227,11.8807]]],[[[-16.0085,11.8929],[-16.0446,11.8871],[-16.0646,11.8732],[-16.1035,11.8654],[-16.1174,11.8746],[-16.159,11.8737],[-16.1629,11.8543],[-16.1543,11.8074],[-16.1201,11.7876],[-16.0971,11.7807],[-16.0735,11.7626],[-16.0404,11.7601],[-16.0276,11.781],[-16.0199,11.8207],[-16.0001,11.8451],[-15.9838,11.8804],[-16.0085,11.8929]]],[[[-15.8387,12.011],[-15.8576,11.9976],[-15.8829,11.9918],[-15.894,11.9604],[-15.834,12.0046],[-15.8387,12.011]]],[[[-16.2849,11.9782],[-16.2974,11.9696],[-16.294,11.9443],[-16.2999,11.9076],[-16.3137,11.8693],[-16.2962,11.8554],[-16.2307,11.8399],[-16.204,11.8549],[-16.1985,11.8676],[-16.1765,11.8715],[-16.1807,11.889],[-16.1999,11.8879],[-16.2249,11.9001],[-16.2696,11.9529],[-16.2849,11.9782]]],[[[-15.659,11.5007],[-15.6901,11.4913],[-15.7015,11.4654],[-15.7174,11.469],[-15.7357,11.4568],[-15.7107,11.433],[-15.6679,11.4418],[-15.6462,11.4579],[-15.6665,11.4843],[-15.659,11.5007]]],[[[-16.1629,11.5312],[-16.1882,11.5201],[-16.2349,11.514],[-16.2596,11.4893],[-16.2754,11.4665],[-16.3046,11.456],[-16.2915,11.4368],[-16.2549,11.4421],[-16.2279,11.4399],[-16.1946,11.4615],[-16.1643,11.4987],[-16.1629,11.5312]]],[[[-15.951,11.5379],[-15.9632,11.521],[-15.9585,11.5151],[-15.9488,11.5063],[-15.9451,11.5057],[-15.9401,11.5118],[-15.9343,11.5129],[-15.9329,11.5201],[-15.951,11.5379]]],[[[-16.2726,11.5899],[-16.2874,11.5871],[-16.3185,11.5551],[-16.3424,11.5429],[-16.3721,11.5607],[-16.4024,11.5526],[-16.4185,11.5226],[-16.396,11.491],[-16.3829,11.5029],[-16.356,11.4943],[-16.3329,11.4996],[-16.3165,11.4871],[-16.2871,11.4943],[-16.2704,11.4896],[-16.2451,11.5549],[-16.246,11.5799],[-16.2726,11.5899]]],[[[-15.9835,11.5837],[-16.0093,11.554],[-16.0126,11.5226],[-15.9974,11.5104],[-15.9665,11.5293],[-15.9476,11.5474],[-15.9585,11.5549],[-15.9662,11.5549],[-15.9671,11.5607],[-15.9765,11.5679],[-15.9835,11.5837]]],[[[-15.9462,11.6085],[-15.9587,11.6049],[-15.9763,11.5846],[-15.9768,11.5768],[-15.964,11.5576],[-15.9557,11.5551],[-15.9537,11.5518],[-15.944,11.5474],[-15.9474,11.5404],[-15.9318,11.5226],[-15.9151,11.5196],[-15.8976,11.5335],[-15.9068,11.564],[-15.9054,11.5832],[-15.934,11.5818],[-15.9462,11.6085]]],[[[-15.4654,11.6379],[-15.4824,11.6224],[-15.5251,11.6032],[-15.5704,11.5765],[-15.6121,11.5357],[-15.6029,11.5204],[-15.5743,11.5015],[-15.546,11.5018],[-15.5376,11.5157],[-15.5515,11.5332],[-15.5115,11.5504],[-15.5035,11.5635],[-15.4663,11.5537],[-15.4785,11.5824],[-15.4682,11.609],[-15.4654,11.6379]]],[[[-16.096,11.4257],[-16.1593,11.3982],[-16.1457,11.3704],[-16.1143,11.3713],[-16.0912,11.3871],[-16.0699,11.3904],[-16.069,11.421],[-16.096,11.4257]]],[[[-15.9274,11.5171],[-15.9354,11.5051],[-15.9446,11.5051],[-15.949,11.5054],[-15.9546,11.5085],[-15.9635,11.516],[-15.9788,11.516],[-15.994,11.5051],[-16.0076,11.5107],[-16.029,11.5032],[-16.0468,11.4765],[-16.081,11.459],[-16.0788,11.4457],[-16.0299,11.4232],[-15.9993,11.4404],[-15.9821,11.4385],[-15.9668,11.4207],[-15.9435,11.4276],[-15.9132,11.4482],[-15.9054,11.494],[-15.9099,11.5146],[-15.9274,11.5171]]],[[[-15.151,11.0771],[-15.1996,11.0707],[-15.2329,11.0599],[-15.2496,11.0432],[-15.2518,11.0168],[-15.2235,10.9968],[-15.2065,10.9954],[-15.1907,11.0235],[-15.1626,11.0401],[-15.1404,11.0671],[-15.151,11.0771]]],[[[-15.624,11.056],[-15.6415,11.0563],[-15.6401,11.0249],[-15.6143,11.0401],[-15.624,11.056]]],[[[-16.0057,11.0535],[-16.0168,11.0324],[-15.971,11.036],[-15.9832,11.0488],[-16.0057,11.0535]]],[[[-15.3585,11.2735],[-15.3785,11.2471],[-15.4001,11.2443],[-15.3749,11.2274],[-15.3743,11.2471],[-15.3568,11.2468],[-15.3468,11.2513],[-15.3376,11.2468],[-15.3282,11.2537],[-15.3229,11.2638],[-15.3363,11.2676],[-15.3465,11.2679],[-15.3585,11.2735]]],[[[-16.4496,11.3151],[-16.4782,11.2979],[-16.4771,11.2771],[-16.4374,11.2993],[-16.4496,11.3151]]],[[[-16.2232,11.3101],[-16.2351,11.2921],[-16.2615,11.2879],[-16.2643,11.261],[-16.2838,11.2463],[-16.2626,11.2324],[-16.2479,11.2126],[-16.2235,11.2199],[-16.1837,11.2213],[-16.1507,11.2546],[-16.1646,11.2879],[-16.1815,11.2982],[-16.2026,11.289],[-16.2062,11.3062],[-16.2232,11.3101]]],[[[-16.0301,11.3563],[-16.059,11.3521],[-16.0826,11.3335],[-16.109,11.3365],[-16.1318,11.3199],[-16.1262,11.3032],[-16.1079,11.2887],[-16.0701,11.3132],[-16.0271,11.3188],[-16.0187,11.3351],[-16.0301,11.3563]]],[[[-16.218974947807933,11.107697077244259],[-16.219050595238098,11.107585119047618],[-16.2313,11.1113],[-16.2449,11.0874],[-16.2193,11.061],[-16.1776,11.0274],[-16.149,11.0221],[-16.1338,11.0335],[-16.1129,11.0332],[-16.0976,11.0238],[-16.0732,11.0276],[-16.0512,11.0482],[-16.0549,11.0643],[-16.039,11.0737],[-16.0418,11.1226],[-16.0693,11.1588],[-16.0535,11.1818],[-16.0596,11.1926],[-16.0832,11.2032],[-16.1224,11.2015],[-16.1282,11.1812],[-16.1476,11.1696],[-16.1721,11.1662],[-16.1735,11.1368],[-16.1837,11.1251],[-16.218974947807933,11.107697077244259]]],[[[-15.9551,11.2018],[-15.979,11.1665],[-15.9612,11.1432],[-15.9585,11.1262],[-15.9746,11.0921],[-15.9751,11.0779],[-15.9935,11.0576],[-15.9432,11.0465],[-15.8982,11.0501],[-15.8799,11.0593],[-15.8979,11.086],[-15.8971,11.1249],[-15.9124,11.1665],[-15.9551,11.2018]]],[[[-15.9849,11.2062],[-16.0385,11.196],[-16.0632,11.1593],[-16.0504,11.1363],[-16.0346,11.1215],[-16.031,11.0646],[-16.0085,11.0682],[-15.9676,11.1218],[-15.9879,11.1635],[-15.9782,11.181],[-15.9849,11.2062]]],[[[-15.6579,11.306],[-15.7121,11.2993],[-15.7299,11.2813],[-15.7568,11.2704],[-15.7546,11.2554],[-15.7799,11.2274],[-15.7704,11.221],[-15.7854,11.1996],[-15.771,11.1885],[-15.771,11.1707],[-15.7207,11.1696],[-15.7254,11.184],[-15.7201,11.2087],[-15.6968,11.2135],[-15.6818,11.2363],[-15.6612,11.2312],[-15.6651,11.264],[-15.654,11.2893],[-15.6579,11.306]]],[[[-15.8357,11.306],[-15.8637,11.294],[-15.8921,11.2532],[-15.8932,11.2368],[-15.9085,11.2146],[-15.8751,11.1929],[-15.8371,11.2024],[-15.8349,11.2268],[-15.8521,11.2393],[-15.8443,11.2613],[-15.8196,11.2832],[-15.8357,11.306]]],[[[-15.7762,11.3713],[-15.8087,11.3665],[-15.8318,11.324],[-15.8312,11.3071],[-15.8018,11.304],[-15.789,11.3296],[-15.7888,11.3568],[-15.7762,11.3713]]],[[[-15.8432,11.3785],[-15.8612,11.3743],[-15.8996,11.3326],[-15.889,11.3229],[-15.8532,11.3496],[-15.8432,11.3785]]],[[[-14.9135,11.0799],[-14.8646,11.1691],[-14.823,11.2497],[-14.7917,11.3306],[-14.7681,11.3824],[-14.7034,11.472],[-14.6654,11.5067],[-14.6111,11.509],[-14.5711,11.5023],[-14.5162,11.4988],[-14.477,11.5211],[-14.3195,11.6031],[-14.2681,11.6784],[-14.2483,11.6666],[-14.2279,11.6737],[-14.2066,11.6724],[-14.1768,11.6602],[-14.1376,11.6643],[-14.1089,11.6363],[-14.089,11.6305],[-14.0621,11.648],[-14.0374,11.6561],[-14,11.6449],[-13.9771,11.6484],[-13.9423,11.6634],[-13.9359,11.6819],[-13.9205,11.6825],[-13.8972,11.668],[-13.8798,11.6686],[-13.8669,11.6904],[-13.8601,11.7155],[-13.8708,11.7373],[-13.8455,11.7497],[-13.834,11.7399],[-13.8424,11.723],[-13.8297,11.7086],[-13.8006,11.7162],[-13.8044,11.6964],[-13.7824,11.6865],[-13.7483,11.695],[-13.7295,11.7092],[-13.7134,11.7098],[-13.7152,11.7524],[-13.72,11.7664],[-13.7115,11.8134],[-13.7203,11.8814],[-13.7129,11.9636],[-13.7053,11.997],[-13.7138,12.0089],[-13.7761,12.0247],[-13.8077,12.0506],[-13.8178,12.0793],[-13.8713,12.1002],[-13.8872,12.1244],[-13.9043,12.1312],[-13.9418,12.1359],[-13.9647,12.1781],[-13.9569,12.2006],[-13.9408,12.2051],[-13.9224,12.236],[-13.8719,12.2379],[-13.8555,12.2566],[-13.865,12.2795],[-13.836,12.2777],[-13.8239,12.2606],[-13.8097,12.2878],[-13.7983,12.273],[-13.8087,12.2535],[-13.7784,12.2492],[-13.7674,12.2714],[-13.7557,12.274],[-13.7321,12.2494],[-13.7139,12.2536],[-13.7046,12.2838],[-13.6847,12.307],[-13.6662,12.312],[-13.6552,12.3606],[-13.663,12.4054],[-13.6397,12.4383],[-13.6388,12.4663],[-13.6562,12.5071],[-13.6775,12.5279],[-13.703,12.6284],[-13.7086,12.6744],[-13.9988,12.6743],[-14.229,12.679],[-14.2322,12.6752],[-14.3261,12.6765],[-14.3261,12.6804],[-14.4663,12.6813],[-14.6255,12.6805],[-14.7333,12.6781],[-14.8793,12.6791],[-14.9756,12.6816],[-15.038,12.6852],[-15.1206,12.6853],[-15.1244,12.6806],[-15.1736,12.6843],[-15.2353,12.6592],[-15.2692,12.6383],[-15.3352,12.6133],[-15.3671,12.5781],[-15.4332,12.5332],[-15.503,12.5053],[-15.5899,12.4676],[-15.5892,12.464],[-15.6808,12.4245],[-15.7369,12.4338],[-15.8878,12.4505],[-15.9534,12.4426],[-16.0378,12.4715],[-16.0679,12.4705],[-16.1606,12.4477],[-16.2013,12.4606],[-16.2686,12.4316],[-16.3398,12.3912],[-16.3722,12.3762],[-16.3791,12.3619],[-16.419,12.3654],[-16.4855,12.357],[-16.51,12.35],[-16.5434,12.36],[-16.6041,12.3461],[-16.6388,12.3565],[-16.6884,12.3587],[-16.6832,12.3446],[-16.6271,12.3201],[-16.5963,12.286],[-16.5476,12.274],[-16.5193,12.249],[-16.4824,12.1963],[-16.4393,12.184],[-16.3965,12.2051],[-16.3487,12.1932],[-16.3043,12.2212],[-16.2921,12.2199],[-16.2454,12.2629],[-16.2329,12.2415],[-16.2496,12.2174],[-16.2496,12.2001],[-16.3196,12.1643],[-16.3324,12.1229],[-16.3471,12.0999],[-16.334,12.0801],[-16.3271,12.0432],[-16.3332,12.0299],[-16.3237,12.0096],[-16.286,11.9996],[-16.2562,11.979],[-16.239,11.9574],[-16.2324,11.9326],[-16.1926,11.9099],[-16.1635,11.9088],[-16.1232,11.8988],[-16.099,11.8757],[-16.0893,11.8812],[-16.0521,11.9213],[-15.9799,11.9135],[-15.959,11.9215],[-15.9326,11.9449],[-15.9279,11.9601],[-15.8857,11.9976],[-15.8607,12.001],[-15.8496,12.0135],[-15.8082,12.0118],[-15.809,11.9921],[-15.8446,11.979],[-15.8763,11.9396],[-15.8882,11.9126],[-15.9249,11.8768],[-15.9407,11.8146],[-15.9587,11.7974],[-15.9682,11.7749],[-15.9457,11.7443],[-15.9104,11.7568],[-15.8871,11.756],[-15.8815,11.766],[-15.8526,11.7638],[-15.8051,11.7435],[-15.7662,11.769],[-15.7013,11.7943],[-15.663,11.7943],[-15.6342,11.8273],[-15.6021,11.8374],[-15.5739,11.8735],[-15.5362,11.8938],[-15.5191,11.9085],[-15.5057,11.9324],[-15.4887,11.9391],[-15.4455,11.9418],[-15.4094,11.965],[-15.3665,11.9666],[-15.3322,11.9574],[-15.3,11.9251],[-15.2677,11.9239],[-15.2367,11.9062],[-15.1978,11.8993],[-15.1769,11.9122],[-15.143,11.9585],[-15.1191,11.9717],[-15.0943,11.9727],[-15.0781,11.9807],[-15.0508,11.981],[-15.0317,11.9741],[-15.0183,11.949],[-15.051,11.9281],[-15.0745,11.9412],[-15.0943,11.9333],[-15.1258,11.8966],[-15.1642,11.8899],[-15.192,11.8693],[-15.2478,11.8672],[-15.2664,11.8766],[-15.2854,11.8696],[-15.316,11.8699],[-15.3525,11.8878],[-15.3916,11.882],[-15.4326,11.837],[-15.4636,11.8341],[-15.5219,11.7799],[-15.5339,11.7544],[-15.554,11.726],[-15.5387,11.7015],[-15.5368,11.6804],[-15.5079,11.6726],[-15.5015,11.7021],[-15.4787,11.6832],[-15.4807,11.6471],[-15.4568,11.6435],[-15.454,11.6163],[-15.4593,11.5954],[-15.446,11.5679],[-15.4121,11.5629],[-15.4174,11.5829],[-15.3735,11.5671],[-15.3668,11.5843],[-15.3326,11.5974],[-15.3199,11.6126],[-15.3349,11.6346],[-15.3101,11.6396],[-15.2965,11.656],[-15.2601,11.6354],[-15.236,11.6329],[-15.2043,11.639],[-15.1768,11.6549],[-15.1715,11.641],[-15.1979,11.6276],[-15.2465,11.6171],[-15.2676,11.6215],[-15.2576,11.5746],[-15.2646,11.5682],[-15.281,11.6085],[-15.2937,11.6076],[-15.3401,11.5543],[-15.3321,11.5388],[-15.3724,11.5351],[-15.389,11.5179],[-15.3987,11.4918],[-15.4163,11.4832],[-15.4329,11.4857],[-15.4701,11.4582],[-15.4596,11.4335],[-15.4815,11.419],[-15.494,11.3657],[-15.5037,11.3488],[-15.5007,11.3265],[-15.4646,11.3301],[-15.4132,11.3738],[-15.359,11.401],[-15.3521,11.3782],[-15.3882,11.3549],[-15.4193,11.3013],[-15.3907,11.2532],[-15.3768,11.2529],[-15.3579,11.2779],[-15.3329,11.2713],[-15.329,11.2663],[-15.3218,11.266],[-15.3204,11.2615],[-15.3307,11.2496],[-15.3407,11.2451],[-15.3468,11.2496],[-15.366,11.2379],[-15.3737,11.2243],[-15.4018,11.2351],[-15.406,11.2024],[-15.3907,11.1799],[-15.3599,11.1629],[-15.3326,11.1371],[-15.3129,11.1315],[-15.299,11.1379],[-15.2901,11.1213],[-15.261,11.1135],[-15.2162,11.1201],[-15.2085,11.1501],[-15.2285,11.2054],[-15.2126,11.2149],[-15.2043,11.1749],[-15.1876,11.1396],[-15.2035,11.1082],[-15.2068,11.0704],[-15.1321,11.0801],[-15.0987,11.1071],[-15.0915,11.1213],[-15.0507,11.1329],[-15.0065,11.1738],[-14.9874,11.2154],[-14.9807,11.1918],[-15.0004,11.1576],[-15.0251,11.1301],[-15.0449,11.0996],[-15.0624,11.0999],[-15.0721,11.0649],[-15.0976,11.0504],[-15.0901,11.004],[-15.099,10.9501],[-15.0776,10.9226],[-15.0599,10.9213],[-15.029,10.934],[-15.0157,10.9501],[-14.9946,10.9615],[-14.9672,10.9861],[-14.9528,11.0056],[-14.9135,11.0799]]]]},"properties":{"GID_0":"GNB","ISO_A2":"GW","ISO_A3":"GNB","NAME_EN":"Guinea-Bissau","NAME_IT":"Guinea-Bissau"}}
]}