{"type":"FeatureCollection", "features": [
{"type":"Feature","geometry":{"type":"MultiPolygon","coordinates":[[[[80.9326,6.076],[80.9421,6.0846],[80.9779,6.0871],[80.9951,6.0996],[81.0701,6.1096],[81.1268,6.1237],[81.1301,6.1321],[81.1685,6.1457],[81.1799,6.1604],[81.176,6.181],[81.1968,6.184],[81.1979,6.164],[81.226,6.1646],[81.241,6.1815],[81.2693,6.1843],[81.2949,6.1965],[81.3246,6.199],[81.3401,6.2238],[81.3665,6.2315],[81.4165,6.2646],[81.4401,6.2971],[81.4674,6.306],[81.5243,6.3626],[81.5535,6.3671],[81.5643,6.379],[81.6182,6.416],[81.6199,6.4338],[81.6493,6.4457],[81.6626,6.466],[81.6929,6.4871],[81.7396,6.5693],[81.776,6.6451],[81.7721,6.6704],[81.7993,6.706],[81.8012,6.7318],[81.8262,6.7632],[81.8187,6.784],[81.8324,6.8346],[81.8307,6.8543],[81.8485,6.8976],[81.8432,6.9054],[81.8654,6.964],[81.8646,6.9815],[81.8788,7.0226],[81.8576,7.1018],[81.8574,7.1338],[81.8376,7.1365],[81.8279,7.1679],[81.8618,7.1865],[81.8599,7.216],[81.868,7.2876],[81.8662,7.3218],[81.8407,7.4112],[81.8087,7.4585],[81.7949,7.4363],[81.7776,7.459],[81.7554,7.461],[81.7546,7.4935],[81.7757,7.516],[81.7604,7.5657],[81.7707,7.5799],[81.7232,7.6463],[81.6971,7.6562],[81.6857,7.679],[81.6521,7.699],[81.6518,7.7188],[81.616,7.7337],[81.6093,7.7121],[81.5788,7.7249],[81.5799,7.7426],[81.6021,7.7715],[81.6396,7.7468],[81.6524,7.7476],[81.6643,7.7224],[81.6832,7.7102],[81.7065,7.726],[81.6865,7.7496],[81.6407,7.7871],[81.6268,7.8101],[81.5912,7.8321],[81.5685,7.8696],[81.5604,7.9329],[81.5215,7.9271],[81.519,7.8799],[81.5493,7.8351],[81.5479,7.8132],[81.5232,7.8137],[81.5396,7.841],[81.5176,7.8785],[81.5207,7.9324],[81.5499,7.9415],[81.5429,7.9785],[81.5085,7.9971],[81.4751,8.0374],[81.4568,8.0938],[81.4599,8.1101],[81.4424,8.1221],[81.4246,8.1899],[81.4068,8.2446],[81.3876,8.3299],[81.3879,8.3576],[81.3471,8.5032],[81.3221,8.5249],[81.3015,8.509],[81.2807,8.5074],[81.2879,8.4843],[81.2782,8.4649],[81.2221,8.4607],[81.196,8.4801],[81.1907,8.506],[81.1499,8.5068],[81.134,8.4893],[81.1218,8.5035],[81.1668,8.5393],[81.1851,8.5135],[81.2104,8.5082],[81.2096,8.5265],[81.1921,8.5543],[81.2188,8.584],[81.2193,8.6204],[81.2268,8.6285],[81.2226,8.6584],[81.2043,8.6765],[81.1746,8.7337],[81.1649,8.7396],[81.1087,8.8068],[81.0779,8.8618],[81.0593,8.8615],[81.0332,8.8874],[81.0104,8.9301],[80.9971,8.941],[80.9671,8.9851],[80.944,8.9285],[80.919,8.9357],[80.9054,8.9679],[80.9243,8.9849],[80.8763,9.0246],[80.9018,9.0476],[80.9457,8.9974],[80.9376,9.0307],[80.9115,9.0824],[80.8799,9.1315],[80.8646,9.1646],[80.8432,9.2335],[80.8146,9.289],[80.7918,9.3132],[80.7424,9.3493],[80.7157,9.3754],[80.6835,9.3854],[80.6629,9.4071],[80.6682,9.4213],[80.6243,9.4576],[80.5907,9.4596],[80.5796,9.4457],[80.5571,9.4482],[80.5574,9.4732],[80.5307,9.4826],[80.4954,9.4785],[80.474,9.4993],[80.4424,9.4996],[80.4063,9.5132],[80.421,9.529],[80.4582,9.534],[80.4749,9.524],[80.511,9.5185],[80.5437,9.5024],[80.5801,9.4732],[80.5901,9.4801],[80.5279,9.5276],[80.4996,9.556],[80.3957,9.6357],[80.3621,9.6643],[80.3313,9.6976],[80.2757,9.7776],[80.2507,9.8268],[80.2087,9.8357],[80.1888,9.8276],[80.1399,9.8254],[80.1129,9.8112],[80.0707,9.8112],[80.0357,9.8185],[79.9863,9.8112],[79.9454,9.7946],[79.9424,9.786],[79.9043,9.7618],[79.8632,9.7624],[79.8546,9.7496],[79.8651,9.7063],[79.8918,9.7118],[79.8968,9.7388],[79.9196,9.7435],[79.9424,9.691],[79.9665,9.6979],[79.9854,9.6851],[80.0193,9.6499],[80.0446,9.6504],[80.0685,9.6401],[80.0987,9.6176],[80.1065,9.6399],[80.1435,9.6235],[80.171,9.5976],[80.1924,9.6218],[80.1729,9.6299],[80.1699,9.6565],[80.2337,9.6288],[80.2993,9.5899],[80.3226,9.5671],[80.339,9.564],[80.3949,9.5135],[80.3926,9.4801],[80.3768,9.4782],[80.3363,9.4587],[80.2813,9.4546],[80.2504,9.4688],[80.2626,9.5143],[80.2265,9.5315],[80.179,9.5412],[80.114,9.5746],[80.0923,9.593],[80.0749,9.5882],[80.1474,9.5354],[80.1743,9.5063],[80.1862,9.4849],[80.1532,9.4429],[80.1113,9.4162],[80.0568,9.3943],[80.0546,9.3649],[80.0629,9.3313],[80.0843,9.3288],[80.1218,9.3007],[80.1099,9.2765],[80.1207,9.2618],[80.1207,9.2237],[80.0968,9.1543],[80.0776,9.1204],[80.0657,9.0604],[80.0404,9.0163],[80.0151,9.0126],[79.991,8.9954],[79.9865,8.9757],[79.9674,8.9693],[79.9454,8.9468],[79.9235,8.9474],[79.8957,8.9685],[79.9274,8.9818],[79.904,8.994],[79.8774,9.0193],[79.9018,9.0232],[79.9024,9.0374],[79.8635,9.0721],[79.7838,9.101],[79.7296,9.1083],[79.6974,9.0965],[79.6957,9.0787],[79.7279,9.0746],[79.7851,9.0518],[79.8165,9.0326],[79.8718,8.9849],[79.929,8.8949],[79.9157,8.816],[79.9599,8.7262],[79.9496,8.709],[79.9524,8.6785],[79.9443,8.6607],[79.9474,8.6326],[79.9218,8.5976],[79.9187,8.5526],[79.869,8.5304],[79.8649,8.4529],[79.8474,8.4396],[79.8429,8.4163],[79.8465,8.3512],[79.8321,8.3237],[79.8374,8.2996],[79.819,8.2726],[79.804,8.2229],[79.8201,8.204],[79.819,8.1626],[79.8337,8.151],[79.8346,8.1299],[79.8201,8.1229],[79.8149,8.0988],[79.7937,8.0651],[79.8207,8.0401],[79.8354,8.0143],[79.8315,7.9829],[79.8146,7.9771],[79.7696,7.9835],[79.746,7.9943],[79.7363,8.0157],[79.7451,8.0343],[79.7315,8.0846],[79.7366,8.1082],[79.7279,8.1368],[79.7412,8.1515],[79.7493,8.1838],[79.7379,8.2018],[79.7707,8.2265],[79.7649,8.256],[79.7387,8.2299],[79.693,8.2102],[79.7046,8.1674],[79.7021,8.1124],[79.7063,8.0568],[79.7429,7.9424],[79.7643,7.851],[79.7815,7.7887],[79.7982,7.6985],[79.8004,7.6285],[79.786,7.6057],[79.7887,7.5421],[79.8024,7.4654],[79.8201,7.3957],[79.8424,7.271],[79.8393,7.2246],[79.8285,7.2074],[79.8524,7.1954],[79.8662,7.1679],[79.8707,7.1151],[79.8424,7.1115],[79.8682,7.0015],[79.8688,6.9699],[79.8535,6.9612],[79.8454,6.9235],[79.8621,6.8471],[79.8626,6.8246],[79.9007,6.7135],[79.9321,6.6493],[79.9593,6.5679],[79.9793,6.5176],[79.9826,6.4785],[79.9735,6.4707],[80.0038,6.4012],[80.0085,6.3757],[80.0293,6.3296],[80.038,6.2954],[80.0329,6.2688],[80.0529,6.2346],[80.0618,6.1932],[80.0885,6.1674],[80.1001,6.131],[80.1824,6.0499],[80.2237,6.0365],[80.2565,6.0029],[80.3149,5.9918],[80.3707,5.9674],[80.4201,5.9571],[80.4274,5.9718],[80.4549,5.9635],[80.4507,5.9471],[80.4718,5.9376],[80.5226,5.9354],[80.5426,5.9432],[80.5774,5.9354],[80.5915,5.9185],[80.6401,5.9443],[80.6499,5.9554],[80.691,5.9637],[80.7171,5.9599],[80.7265,5.9804],[80.7482,5.9982],[80.7866,6.0118],[80.806,6.0368],[80.8521,6.0462],[80.8699,6.0579],[80.9024,6.0635],[80.9326,6.076]]],[[[81.7857,7.599],[81.7565,7.6629],[81.7257,7.7101],[81.7079,7.7112],[81.7268,7.6676],[81.7337,7.6382],[81.7474,7.641],[81.7768,7.5696],[81.7718,7.556],[81.7829,7.5187],[81.7732,7.4904],[81.796,7.4746],[81.8065,7.5046],[81.806,7.529],[81.7857,7.599]]],[[[79.7676,8.3015],[79.7485,8.2885],[79.7363,8.2462],[79.7585,8.2574],[79.7532,8.2815],[79.7676,8.3015]]],[[[79.6646,9.5543],[79.6507,9.5476],[79.6543,9.5051],[79.704,9.476],[79.7299,9.4843],[79.7257,9.5257],[79.7001,9.529],[79.6646,9.5543]]],[[[79.8979,9.674],[79.8913,9.6968],[79.8404,9.7038],[79.8446,9.6801],[79.8682,9.639],[79.8926,9.624],[79.8621,9.6074],[79.8065,9.6107],[79.804,9.5754],[79.8454,9.5665],[79.8621,9.5707],[79.8626,9.6068],[79.9146,9.6313],[79.9313,9.6318],[79.9618,9.614],[79.999,9.6032],[80.0065,9.6321],[79.9896,9.6421],[79.969,9.6321],[79.9454,9.6457],[79.9296,9.6799],[79.8979,9.674]]]]},"properties":{"GID_0":"LKA","ISO_A2":"LK","ISO_A3":"LKA","NAME_EN":"Sri Lanka","NAME_IT":"Sri Lanka"}}
]}