{"type":"FeatureCollection", "features": [
{"type":"Feature","geometry":{"type":"MultiPolygon","coordinates":[[[[-81.2518,19.2749],[-81.2296,19.2918],[-81.1663,19.3013],[-81.1151,19.2929],[-81.0901,19.3096],[-81.096,19.3532],[-81.1851,19.346],[-81.2329,19.3485],[-81.2949,19.3037],[-81.3468,19.2921],[-81.3693,19.3235],[-81.3613,19.3446],[-81.3865,19.3968],[-81.4157,19.3851],[-81.3815,19.3421],[-81.3932,19.2824],[-81.381,19.2651],[-81.3449,19.2799],[-81.2879,19.2626],[-81.2518,19.2749]]],[[[-79.974,19.7132],[-80.0618,19.6954],[-80.1004,19.6729],[-80.0793,19.6551],[-79.974,19.7132]]],[[[-79.7374,19.7568],[-79.7918,19.7335],[-79.7546,19.7201],[-79.7374,19.7568]]]]},"properties":{"GID_0":"CYM","ISO_A2":"KY","ISO_A3":"CYM","NAME_EN":"Cayman Is.","NAME_IT":"Isole Cayman"}}
]}