{"type":"FeatureCollection", "features": [
{"type":"Feature","geometry":{"type":"Polygon","coordinates":[[[18.3141,42.6229],[18.4862,42.5663],[18.5703,42.7134],[18.4899,42.7626],[18.4923,42.9752],[18.5525,43.0387],[18.6789,43.0372],[18.6562,43.137],[18.6955,43.2666],[18.9158,43.3682],[19.0166,43.2555],[19.0783,43.3172],[19.0174,43.4435],[19.0785,43.5216],[19.3601,43.6045],[19.4801,43.594],[19.5105,43.7199],[19.3827,43.814],[19.2789,43.9219],[19.3521,43.9783],[19.5103,43.9646],[19.6124,44.024],[19.4656,44.1516],[19.3518,44.1978],[19.3133,44.279],[19.1538,44.2946],[19.1017,44.3937],[19.1222,44.5266],[19.2152,44.5902],[19.3304,44.7589],[19.366,44.897],[19.1693,44.9318],[18.9897,44.8614],[18.8621,44.8653],[18.7267,45.0315],[18.6009,45.0949],[18.4675,45.0749],[18.4049,45.1237],[18.2076,45.1399],[18.0969,45.0979],[17.9708,45.1547],[17.8556,45.0553],[17.6679,45.1345],[17.5155,45.1058],[17.3346,45.1473],[17.1783,45.1521],[17.0391,45.2111],[16.8462,45.2269],[16.8011,45.1889],[16.5939,45.2298],[16.5018,45.2183],[16.3276,45.0133],[16.2499,45.0163],[16.0851,45.1073],[16.0248,45.2198],[15.8284,45.2233],[15.758,45.1673],[15.7279,44.9636],[15.7877,44.8597],[15.7371,44.8113],[15.8192,44.7385],[15.9435,44.7209],[16.0491,44.6521],[16.0098,44.5646],[16.1331,44.5],[16.1338,44.3958],[16.2447,44.198],[16.4643,44.0233],[16.7139,43.8743],[16.7293,43.8152],[16.8196,43.7691],[17.0368,43.5713],[17.3062,43.4725],[17.2707,43.3985],[17.3465,43.2673],[17.6665,43.0771],[17.7289,42.9805],[17.5841,42.9447],[17.8017,42.8925],[18.0627,42.7585],[18.2701,42.6207],[18.3141,42.6229]]]},"properties":{"GID_0":"BIH","ISO_A2":"BA","ISO_A3":"BIH","NAME_EN":"Bosnia and Herz.","NAME_IT":"Bosnia ed Erzegovina"}}
]}