{"type":"FeatureCollection", "features": [
{"type":"Feature","geometry":{"type":"Polygon","coordinates":[[[19.0702,49.4128],[19.1067,49.404],[19.1972,49.4137],[19.219,49.4486],[19.2333,49.5105],[19.2625,49.5359],[19.3671,49.5411],[19.3714,49.5674],[19.4134,49.5955],[19.4755,49.5958],[19.5102,49.5824],[19.5536,49.4899],[19.6114,49.4469],[19.6359,49.4104],[19.7296,49.3917],[19.7906,49.4107],[19.7948,49.346],[19.8218,49.2722],[19.774,49.2397],[19.7673,49.206],[19.8447,49.1951],[19.9227,49.2372],[19.9845,49.2325],[20.0205,49.2015],[20.0691,49.1808],[20.1017,49.2264],[20.1471,49.3227],[20.1922,49.3412],[20.2928,49.3516],[20.3258,49.3669],[20.3222,49.4017],[20.3809,49.4033],[20.4547,49.418],[20.5751,49.3797],[20.6119,49.4171],[20.662,49.4042],[20.6882,49.4207],[20.7399,49.4171],[20.748,49.3934],[20.8074,49.3606],[20.8273,49.3361],[20.8655,49.3475],[20.9241,49.296],[20.9699,49.3099],[21.0234,49.356],[21.1013,49.3764],[21.0473,49.4183],[21.124,49.4366],[21.1894,49.4023],[21.2789,49.4611],[21.3927,49.4376],[21.4323,49.4158],[21.5131,49.4204],[21.5303,49.4351],[21.6016,49.4353],[21.6309,49.4473],[21.6589,49.4168],[21.6994,49.4185],[21.7657,49.3836],[21.8485,49.3912],[21.9004,49.3541],[21.9704,49.3483],[21.983,49.321],[22.0363,49.2839],[22.054,49.2158],[22.1757,49.1831],[22.2438,49.1758],[22.236,49.1544],[22.3205,49.1356],[22.3792,49.1456],[22.4181,49.1041],[22.5064,49.093],[22.6156,49.0902],[22.6611,49.0485],[22.7977,49.0493],[22.8471,49.0024],[22.8916,49.0077],[22.8665,49.04],[22.8681,49.0772],[22.889,49.092],[22.7077,49.1743],[22.7471,49.2168],[22.7396,49.2473],[22.751,49.3166],[22.7468,49.3599],[22.7168,49.4262],[22.6972,49.4448],[22.6997,49.4897],[22.6512,49.5084],[22.6408,49.53],[22.7841,49.6636],[22.7944,49.6904],[22.8369,49.7073],[22.8979,49.7645],[22.9544,49.8033],[23.0333,49.8813],[23.213,50.0311],[23.2839,50.099],[23.4294,50.1842],[23.4701,50.2179],[23.5816,50.2666],[23.6388,50.3205],[23.6863,50.3316],[23.7031,50.3753],[23.7667,50.4136],[23.9975,50.4121],[24.0345,50.4448],[24.0701,50.5034],[24.0893,50.5596],[24.0912,50.6191],[24.0752,50.7136],[24.0189,50.7258],[24.0238,50.7662],[23.9719,50.7745],[23.9575,50.7945],[23.9976,50.8429],[24.1073,50.8387],[24.1433,50.8582],[24.0865,50.889],[24.0499,50.8941],[23.9704,50.9503],[23.967,50.9783],[23.9236,51.0189],[23.9111,51.0746],[23.873,51.0822],[23.8496,51.124],[23.8605,51.1578],[23.7393,51.2152],[23.7196,51.267],[23.646,51.2918],[23.6358,51.3285],[23.6866,51.3686],[23.6969,51.403],[23.6494,51.4463],[23.6698,51.483],[23.6201,51.4964],[23.5953,51.5348],[23.5646,51.5353],[23.5679,51.5756],[23.5403,51.6019],[23.5582,51.6653],[23.55,51.7546],[23.615,51.7727],[23.6399,51.8053],[23.6071,51.8763],[23.6333,51.8985],[23.6421,51.9646],[23.6774,51.9985],[23.6435,52.0578],[23.6402,52.0858],[23.5986,52.1174],[23.5422,52.128],[23.4582,52.1846],[23.432,52.1734],[23.366,52.208],[23.3147,52.208],[23.2037,52.2266],[23.2044,52.2757],[23.1783,52.2831],[23.2156,52.3297],[23.3567,52.4689],[23.4666,52.5494],[23.5402,52.5802],[23.6414,52.6075],[23.7562,52.6145],[23.9316,52.709],[23.931,52.8076],[23.9166,52.8243],[23.921,52.8941],[23.9096,52.9333],[23.9396,52.9543],[23.9164,53.04],[23.8823,53.0661],[23.8854,53.1144],[23.9158,53.143],[23.9071,53.1727],[23.8639,53.1955],[23.8553,53.2318],[23.8188,53.244],[23.7074,53.4365],[23.6269,53.5957],[23.5861,53.7031],[23.5821,53.7438],[23.549,53.7678],[23.5485,53.8551],[23.5283,53.8607],[23.5121,53.9103],[23.5154,53.9602],[23.4807,53.998],[23.5139,54.0242],[23.5124,54.095],[23.4858,54.1532],[23.449,54.1606],[23.3375,54.2517],[23.2339,54.2609],[23.1983,54.2891],[23.1307,54.3093],[23.1066,54.2965],[23.0421,54.316],[23.0477,54.3492],[23.0031,54.3532],[23.0102,54.3828],[22.8363,54.4065],[22.8114,54.371],[22.7691,54.3608],[22.5281,54.3492],[22.4218,54.3485],[22.3188,54.3405],[21.7971,54.3318],[21.4403,54.3224],[21.0479,54.346],[20.8941,54.3511],[20.6894,54.3723],[20.6311,54.3663],[20.584,54.378],[20.3277,54.3957],[20.2195,54.408],[19.8937,54.4282],[19.8036,54.4424],[19.6469,54.4534],[19.4781,54.3978],[19.3302,54.3665],[19.2093,54.3532],[18.9895,54.3451],[18.846,54.3532],[18.7272,54.3763],[18.6614,54.4129],[18.5804,54.4377],[18.5501,54.5144],[18.5493,54.5727],[18.5119,54.6139],[18.4689,54.6337],[18.466,54.6861],[18.3964,54.7463],[18.4233,54.7887],[18.6183,54.722],[18.7076,54.6842],[18.7791,54.6131],[18.8262,54.6233],[18.7332,54.6819],[18.3697,54.8139],[18.3294,54.8353],[18.0571,54.8346],[17.915,54.8274],[17.6125,54.7743],[17.4697,54.757],[17.3529,54.7495],[17.2434,54.7299],[17.0503,54.6699],[16.96,54.6163],[16.8912,54.592],[16.748,54.5683],[16.6887,54.5696],[16.5286,54.5402],[16.4343,54.4892],[16.3138,54.3834],[16.1937,54.3095],[16.1024,54.2744],[16.0038,54.2548],[15.8483,54.2411],[15.7168,54.2088],[15.5533,54.1876],[15.4909,54.1671],[15.4294,54.1654],[15.286,54.1471],[15.0559,54.0941],[14.8053,54.0304],[14.7647,53.9935],[14.7647,53.9465],[14.6947,53.9379],[14.7019,53.9987],[14.6683,54.003],[14.5016,53.9642],[14.4513,53.9347],[14.3445,53.9119],[14.2264,53.9288],[14.2058,53.9106],[14.2139,53.8654],[14.2836,53.7723],[14.2668,53.6987],[14.2837,53.6826],[14.2839,53.6344],[14.3169,53.6181],[14.3026,53.5534],[14.3269,53.5038],[14.3713,53.4564],[14.3733,53.4089],[14.4155,53.3243],[14.4212,53.2761],[14.4506,53.2623],[14.3773,53.2017],[14.3663,53.172],[14.3877,53.143],[14.3486,53.0547],[14.2356,52.9932],[14.1437,52.9614],[14.1577,52.8748],[14.1229,52.8377],[14.2064,52.8193],[14.2788,52.7745],[14.351,52.7515],[14.433,52.6815],[14.5097,52.6416],[14.5962,52.6107],[14.6391,52.573],[14.6039,52.5313],[14.6345,52.4923],[14.5793,52.4417],[14.5442,52.426],[14.5748,52.2956],[14.5965,52.2729],[14.6927,52.2557],[14.716,52.2355],[14.6885,52.1989],[14.7031,52.1643],[14.6796,52.1449],[14.7004,52.0981],[14.7584,52.0674],[14.7413,52.0234],[14.707,51.9796],[14.7214,51.9516],[14.6944,51.9021],[14.5902,51.8381],[14.6067,51.804],[14.6538,51.7836],[14.6681,51.7258],[14.7474,51.6757],[14.761,51.6025],[14.7112,51.5627],[14.7367,51.5256],[14.796,51.5179],[14.8516,51.4896],[14.9491,51.4713],[14.9742,51.4419],[14.9647,51.3868],[14.9778,51.3417],[15.0334,51.2941],[15.0379,51.244],[15.0161,51.2273],[14.9931,51.1624],[14.9978,51.1224],[14.9647,51.0501],[14.9352,51.0202],[14.8681,50.9179],[14.8203,50.873],[14.9764,50.8671],[15.0004,50.8728],[14.9895,50.9216],[15.0143,50.9398],[15.0059,50.9866],[14.9849,51.0121],[15.0699,51.0178],[15.135,51.01],[15.1772,50.9935],[15.2283,50.9961],[15.2898,50.9627],[15.2746,50.9034],[15.3072,50.8642],[15.3662,50.8442],[15.3726,50.7813],[15.3958,50.7778],[15.4481,50.8074],[15.5227,50.7787],[15.5787,50.781],[15.6939,50.7406],[15.8319,50.7427],[15.8609,50.675],[15.9914,50.6846],[16.0248,50.5986],[16.0676,50.6398],[16.1278,50.6625],[16.215,50.6341],[16.2348,50.6716],[16.3431,50.6615],[16.4225,50.6067],[16.4459,50.5744],[16.4046,50.5693],[16.4018,50.5299],[16.3602,50.4993],[16.3176,50.5023],[16.2941,50.4792],[16.205,50.4487],[16.2145,50.4091],[16.2529,50.4056],[16.2992,50.3808],[16.3607,50.3795],[16.3653,50.3466],[16.3993,50.3192],[16.43,50.3251],[16.4819,50.2714],[16.5573,50.2205],[16.5617,50.1634],[16.6413,50.1122],[16.7051,50.0964],[16.745,50.1347],[16.7828,50.1451],[16.8156,50.1922],[16.8625,50.1996],[16.8991,50.2229],[16.9562,50.2249],[17.0165,50.2673],[17.0077,50.2941],[16.9286,50.3234],[16.9104,50.386],[16.8662,50.4151],[16.9079,50.4494],[16.964,50.4257],[16.9983,50.4277],[17.0525,50.407],[17.1108,50.405],[17.1433,50.3804],[17.2011,50.364],[17.2804,50.3195],[17.3278,50.3271],[17.3661,50.2821],[17.4207,50.2774],[17.4382,50.2517],[17.4956,50.2751],[17.6121,50.266],[17.7225,50.3177],[17.7511,50.29],[17.7318,50.2538],[17.765,50.2364],[17.7575,50.2106],[17.7075,50.1808],[17.6012,50.1696],[17.6117,50.1398],[17.6503,50.1108],[17.7051,50.1144],[17.762,50.0647],[17.7781,50.0201],[17.8685,49.9725],[17.9228,49.9788],[17.9874,50.0152],[18.0353,50.011],[18.0444,50.0366],[18.0859,50.046],[18.0991,50.0082],[18.1558,49.9827],[18.1828,50.0052],[18.2154,49.9757],[18.2763,49.9646],[18.2829,49.9362],[18.3375,49.946],[18.4633,49.9223],[18.4851,49.9064],[18.5828,49.9032],[18.5699,49.8736],[18.6039,49.8571],[18.571,49.8354],[18.6289,49.755],[18.6252,49.7224],[18.7171,49.6835],[18.7969,49.6849],[18.8258,49.6356],[18.8268,49.5969],[18.8553,49.5592],[18.8494,49.5186],[18.9309,49.5199],[18.9737,49.5063],[18.9662,49.468],[18.989,49.4343],[18.9829,49.3982],[19.0702,49.4128]]]},"properties":{"GID_0":"POL","ISO_A2":"PL","ISO_A3":"POL","NAME_EN":"Poland","NAME_IT":"Polonia"}}
]}