{"type":"FeatureCollection", "features": [
{"type":"Feature","geometry":{"type":"Polygon","coordinates":[[[63.6155,29.4697],[63.6649,29.4764],[63.9663,29.4264],[64.1408,29.3621],[64.1887,29.4619],[64.2633,29.5034],[64.4462,29.5372],[64.4876,29.5718],[64.6319,29.5811],[65.0971,29.5428],[65.7869,29.7253],[65.9988,29.7662],[66.2665,29.842],[66.3601,29.9732],[66.2417,30.0551],[66.2972,30.1372],[66.3488,30.2953],[66.3752,30.4744],[66.2981,30.5245],[66.3218,30.6446],[66.4697,30.9429],[66.5922,30.9606],[66.6968,31.0621],[66.7407,31.1918],[66.9023,31.2962],[67.0131,31.3116],[67.0166,31.2304],[67.3063,31.1826],[67.4458,31.2093],[67.7855,31.3439],[67.7409,31.4148],[67.6601,31.3972],[67.5757,31.5051],[67.7107,31.5001],[67.8611,31.6085],[67.9679,31.629],[68.0697,31.6903],[68.1775,31.8145],[68.2866,31.757],[68.4218,31.7574],[68.5701,31.828],[68.7018,31.7699],[68.717,31.6966],[68.8049,31.61],[68.9169,31.6047],[69.1179,31.7033],[69.1976,31.8484],[69.3235,31.9442],[69.2728,32.151],[69.2808,32.3564],[69.2407,32.4614],[69.2852,32.533],[69.3852,32.5666],[69.4659,32.6676],[69.4417,32.7895],[69.5305,32.8612],[69.492,32.9427],[69.5139,33.0139],[69.5892,33.0839],[69.7225,33.0931],[69.7865,33.1275],[69.8755,33.0957],[70.0239,33.1446],[70.0673,33.2135],[70.1556,33.1979],[70.3402,33.392],[70.1978,33.524],[70.2181,33.6433],[70.155,33.7256],[69.9732,33.7668],[69.9704,33.8235],[69.8716,33.934],[69.91,34.0201],[70.4303,33.9584],[70.5055,33.9289],[70.5939,33.9643],[70.7679,33.9549],[71.0763,34.0625],[71.1401,34.1553],[71.1221,34.2672],[71.1695,34.3636],[71.0873,34.3891],[71.0068,34.4611],[71.0268,34.5378],[71.128,34.6283],[71.1124,34.6829],[71.2444,34.7478],[71.3012,34.8655],[71.5255,34.9602],[71.5358,35.0904],[71.6902,35.2144],[71.5669,35.3118],[71.6709,35.4306],[71.6202,35.5113],[71.6452,35.5646],[71.5254,35.6179],[71.5733,35.7172],[71.4951,35.768],[71.4803,35.8577],[71.376,35.972],[71.2647,36.0129],[71.234,36.0721],[71.3183,36.1535],[71.6143,36.3213],[71.657,36.4779],[71.7958,36.4006],[71.8321,36.5055],[71.9353,36.5609],[72.1062,36.6057],[72.1029,36.6485],[72.3026,36.745],[72.4952,36.7776],[72.6562,36.8498],[72.8826,36.8411],[73.1882,36.8769],[73.3525,36.8532],[73.833,36.9092],[74.063,36.8404],[74.152,36.9098],[74.264,36.9045],[74.4279,36.9976],[74.5734,37.0217],[74.4331,37.1158],[74.5078,37.2392],[74.6697,37.2353],[74.7422,37.2757],[74.8054,37.2149],[74.8916,37.2217],[74.8093,37.3512],[74.7099,37.3849],[74.569,37.3735],[74.5344,37.4035],[74.2761,37.401],[74.2052,37.3366],[73.9678,37.299],[73.8422,37.2326],[73.6318,37.2497],[73.6571,37.3138],[73.774,37.3392],[73.7758,37.4396],[73.65,37.4352],[73.51,37.4745],[73.3075,37.4639],[73.1486,37.4019],[73.0968,37.3266],[72.9788,37.2974],[72.7759,37.195],[72.6629,37.0173],[72.343,36.9892],[72.0137,36.8067],[71.8424,36.6813],[71.6738,36.6728],[71.5668,36.7642],[71.4327,37.0566],[71.456,37.2131],[71.4946,37.3014],[71.4955,37.5371],[71.5501,37.7355],[71.5952,37.806],[71.5905,37.9219],[71.5241,37.9571],[71.3304,37.8865],[71.2611,37.9217],[71.3741,38.2556],[71.2527,38.3103],[71.1631,38.3872],[70.9895,38.4904],[70.6786,38.4089],[70.6107,38.3457],[70.5035,38.1644],[70.326,37.9985],[70.2087,37.9233],[70.1892,37.845],[70.2964,37.7666],[70.2689,37.6199],[70.1416,37.5223],[69.8605,37.6135],[69.8101,37.572],[69.5688,37.5797],[69.379,37.4354],[69.3825,37.3302],[69.4226,37.2361],[69.4056,37.1716],[69.2501,37.0959],[69.119,37.1763],[68.9682,37.3204],[68.8344,37.3183],[68.6427,37.2075],[68.4387,37.1528],[68.3908,37.0978],[68.3053,37.1031],[68.2814,37.0206],[68.2048,37.0242],[68.0271,36.9304],[67.9114,37.0091],[67.8901,37.0647],[67.7868,37.0892],[67.778,37.2043],[67.6489,37.2508],[67.5683,37.2209],[67.449,37.2352],[67.2693,37.1789],[67.1058,37.336],[66.9506,37.3889],[66.873,37.3616],[66.5547,37.3554],[66.2993,37.3197],[66.1481,37.3717],[66.074,37.4504],[65.8554,37.4888],[65.7936,37.5458],[65.7045,37.5381],[65.646,37.4421],[65.6444,37.3432],[65.5302,37.2398],[65.2685,37.2336],[65.131,37.2472],[64.9904,37.2188],[64.7537,37.1116],[64.7961,36.9161],[64.6169,36.6309],[64.6353,36.4383],[64.5796,36.3491],[64.4458,36.241],[64.3145,36.2045],[64.2832,36.1505],[64.1659,36.1596],[64.0572,36.0963],[64.0619,36.0019],[63.8599,35.9986],[63.5725,35.951],[63.5363,35.9025],[63.3072,35.8571],[63.1205,35.8618],[63.1065,35.8202],[63.2459,35.6821],[63.0959,35.6168],[63.1278,35.543],[63.0946,35.4206],[62.9427,35.3845],[62.7153,35.24],[62.552,35.2349],[62.4821,35.2783],[62.3075,35.1298],[62.2649,35.2954],[62.1526,35.3428],[62.0662,35.4316],[61.9686,35.4515],[61.7825,35.4096],[61.5895,35.4352],[61.3886,35.5667],[61.2833,35.5405],[61.1881,35.3996],[61.1909,35.2916],[61.0999,35.2757],[61.0876,35.1713],[61.1215,35.0779],[61.0568,34.794],[60.9123,34.6228],[60.8948,34.5683],[60.7277,34.5104],[60.8461,34.4263],[60.9347,34.3059],[60.7039,34.3155],[60.5938,34.2203],[60.5052,34.0841],[60.5627,33.794],[60.5318,33.6502],[60.6728,33.5318],[60.9,33.5389],[60.8273,33.398],[60.6368,33.2265],[60.5841,33.1275],[60.7088,32.7068],[60.8159,32.4724],[60.8802,32.2004],[60.8017,31.958],[60.775,31.7425],[60.7926,31.6217],[60.8457,31.4869],[61.7065,31.3772],[61.7776,31.3036],[61.7744,31.2094],[61.8343,31.0879],[61.8324,30.972],[61.7852,30.9366],[61.8076,30.8376],[61.2094,30.2176],[60.8658,29.8532],[61.9982,29.5185],[62.0038,29.5078],[62.4801,29.3765],[63.1715,29.4467],[63.6155,29.4697]]]},"properties":{"GID_0":"AFG","ISO_A2":"AF","ISO_A3":"AFG","NAME_EN":"Afghanistan","NAME_IT":"Afghanistan"}}
]}