{"type":"FeatureCollection", "features": [
{"type":"Feature","geometry":{"type":"MultiPolygon","coordinates":[[[[-44.4783,-2.7459],[-44.5022,-2.7264],[-44.5862,-2.8147],[-44.5803,-2.8594],[-44.6333,-2.9863],[-44.5609,-3.0225],[-44.4897,-2.9714],[-44.4761,-2.8766],[-44.4783,-2.7459]]],[[[-43.5594,-2.4194],[-43.5435,-2.3868],[-43.5581,-2.3555],[-43.6129,-2.3785],[-43.5815,-2.4233],[-43.5594,-2.4194]]],[[[-44.8704,-1.2993],[-44.929,-1.2668],[-44.9866,-1.2661],[-44.9873,-1.3227],[-45.0141,-1.3495],[-45.0053,-1.4008],[-44.9682,-1.3905],[-44.9164,-1.3444],[-44.8669,-1.3287],[-44.8704,-1.2993]]],[[[-45.7081,-1.2462],[-45.6693,-1.2489],[-45.6743,-1.194],[-45.709,-1.221],[-45.7081,-1.2462]]],[[[-45.5938,-1.2419],[-45.5383,-1.2298],[-45.5645,-1.1926],[-45.5938,-1.2419]]],[[[-48.8755,-0.2007],[-48.887,-0.1532],[-48.9327,-0.1628],[-48.9246,-0.214],[-48.8755,-0.2007]]],[[[-50.4054,2.1113],[-50.4574,2.1127],[-50.4684,2.1],[-50.5042,2.094],[-50.5212,2.0054],[-50.4906,1.9647],[-50.449,1.8796],[-50.4255,1.867],[-50.3699,1.8871],[-50.3174,1.9475],[-50.3267,1.9828],[-50.3625,2.022],[-50.3618,2.06],[-50.4054,2.1113]]],[[[-50.485,2.1833],[-50.544,2.1621],[-50.5113,2.1034],[-50.4934,2.097],[-50.4583,2.1152],[-50.4226,2.1185],[-50.4219,2.1423],[-50.4658,2.1844],[-50.485,2.1833]]],[[[-43.185,-22.8334],[-43.1857,-22.7847],[-43.2285,-22.7836],[-43.2378,-22.8328],[-43.185,-22.8334]]],[[[-45.3253,-23.7231],[-45.3415,-23.7278],[-45.3667,-23.8113],[-45.4619,-23.8881],[-45.4443,-23.9341],[-45.4079,-23.9385],[-45.3042,-23.908],[-45.2685,-23.9653],[-45.2322,-23.9446],[-45.2414,-23.8922],[-45.2869,-23.8515],[-45.2326,-23.8356],[-45.2298,-23.7763],[-45.283,-23.7343],[-45.3253,-23.7231]]],[[[-43.56739362186788,-23.058099544419132],[-43.6143,-23.031],[-43.713,-23.0541],[-43.8063,-23.0613],[-43.881,-23.0421],[-43.8823,-23.067],[-43.9737,-23.0455],[-43.956,-23.0873],[-43.733,-23.0578],[-43.6085,-23.0504],[-43.56739902676399,-23.05810729927007],[-43.56739362186788,-23.058099544419132]]],[[[-44.23,-23.076],[-44.2499,-23.11],[-44.3254,-23.1544],[-44.3769,-23.1715],[-44.3379,-23.2233],[-44.3113,-23.1805],[-44.2449,-23.2],[-44.1354,-23.1678],[-44.1764,-23.1171],[-44.2017,-23.1197],[-44.23,-23.076]]],[[[-41.89983043478261,-22.78236086956522],[-41.8999,-22.78242],[-41.8999,-22.7825],[-41.89983043478261,-22.78236086956522]]],[[[-41.8999,-22.78242],[-41.89983043478261,-22.78236086956522],[-41.9759,-22.7284],[-41.9997,-22.6354],[-41.9755,-22.554],[-41.9325,-22.5375],[-41.8545,-22.4493],[-41.7715,-22.3897],[-41.7735,-22.3641],[-41.6504,-22.2794],[-41.4938,-22.2154],[-41.27,-22.1554],[-41.2115,-22.1357],[-41.0097,-22.0246],[-40.9877,-22.0064],[-40.9752,-21.941],[-41.0245,-21.7251],[-41.0123,-21.621],[-41.0399,-21.6208],[-41.0726,-21.5256],[-41.0689,-21.4976],[-40.9614,-21.3608],[-40.9566,-21.2439],[-40.9146,-21.1727],[-40.8584,-21.1276],[-40.8049,-21.0025],[-40.8086,-20.9582],[-40.7455,-20.8492],[-40.7202,-20.8466],[-40.6533,-20.8059],[-40.6291,-20.8187],[-40.5833,-20.8027],[-40.5567,-20.7465],[-40.5342,-20.7397],[-40.4972,-20.6626],[-40.4318,-20.6411],[-40.3936,-20.5601],[-40.352,-20.4956],[-40.3197,-20.406],[-40.2694,-20.3249],[-40.2891,-20.2838],[-40.2344,-20.2763],[-40.1989,-20.2168],[-40.172,-20.1072],[-40.1919,-20.0543],[-40.1589,-20.0359],[-40.136,-19.9415],[-40.0994,-19.9187],[-40.0618,-19.8497],[-40.0537,-19.8128],[-39.989,-19.7437],[-39.9043,-19.6829],[-39.8108,-19.6496],[-39.7305,-19.4684],[-39.7011,-19.3862],[-39.6899,-19.285],[-39.7097,-19.172],[-39.7433,-18.9307],[-39.7498,-18.8381],[-39.746,-18.6963],[-39.7284,-18.6111],[-39.7282,-18.5183],[-39.7148,-18.4619],[-39.6693,-18.3506],[-39.6369,-18.2358],[-39.6093,-18.1846],[-39.4954,-18.0034],[-39.4257,-17.9331],[-39.3196,-17.8917],[-39.2662,-17.86],[-39.2582,-17.8268],[-39.1909,-17.7419],[-39.1356,-17.6895],[-39.1777,-17.6276],[-39.1879,-17.5707],[-39.1918,-17.4443],[-39.2211,-17.3018],[-39.2121,-17.1613],[-39.182,-17.1124],[-39.1722,-17.013],[-39.1515,-16.9422],[-39.1237,-16.9043],[-39.142,-16.8684],[-39.1416,-16.7615],[-39.107,-16.7089],[-39.0901,-16.6285],[-39.0852,-16.5473],[-39.0399,-16.3959],[-39.0088,-16.3749],[-39.0219,-16.2853],[-39.0111,-16.2458],[-38.9481,-16.1557],[-38.952,-16.097],[-38.9025,-15.9636],[-38.8528,-15.8494],[-38.9274,-15.691],[-38.9442,-15.5918],[-38.9517,-15.4691],[-38.9908,-15.2882],[-38.9967,-15.2146],[-38.9976,-14.9867],[-39.0187,-14.9202],[-39.0274,-14.783],[-39.0622,-14.747],[-39.0616,-14.625],[-39.0352,-14.5323],[-39.0327,-14.4875],[-39.0016,-14.3445],[-38.9799,-14.2937],[-38.9949,-14.2664],[-38.9899,-14.1993],[-38.9428,-14.0147],[-38.9288,-13.9068],[-38.9849,-13.8255],[-39.0003,-13.7757],[-38.9917,-13.7248],[-38.9364,-13.658],[-38.8985,-13.666],[-38.9014,-13.6018],[-38.9334,-13.5632],[-38.917,-13.4838],[-38.8924,-13.4606],[-38.9132,-13.3786],[-38.9462,-13.3989],[-38.9673,-13.3394],[-38.9564,-13.2635],[-38.9292,-13.2184],[-38.8672,-13.1862],[-38.8361,-13.1565],[-38.7623,-13.1189],[-38.7126,-13.0611],[-38.6433,-13.0153],[-38.4547,-13.0066],[-38.3873,-12.9568],[-38.354,-12.9572],[-38.3176,-12.9286],[-38.2088,-12.8123],[-38.1026,-12.686],[-38.0468,-12.6346],[-38.0015,-12.578],[-37.973,-12.5211],[-37.8256,-12.3096],[-37.7694,-12.2384],[-37.6908,-12.1083],[-37.6101,-11.9557],[-37.5127,-11.7396],[-37.4063,-11.5366],[-37.3122,-11.423],[-37.3016,-11.3685],[-37.2483,-11.2734],[-37.1661,-11.1825],[-37.1329,-11.1141],[-37.0354,-10.9798],[-37.034,-10.9562],[-36.9612,-10.8612],[-36.8581,-10.7487],[-36.7844,-10.6882],[-36.6729,-10.6308],[-36.6127,-10.5884],[-36.3877,-10.4986],[-36.3269,-10.3921],[-36.2935,-10.3535],[-36.3019,-10.3243],[-36.279,-10.2838],[-36.1703,-10.1749],[-36.1338,-10.1598],[-36.0888,-10.0944],[-36.0457,-10.0751],[-35.9379,-9.9024],[-35.9069,-9.8745],[-35.8161,-9.7345],[-35.7604,-9.6826],[-35.7094,-9.6658],[-35.6931,-9.6242],[-35.6509,-9.5686],[-35.5913,-9.5289],[-35.5793,-9.5029],[-35.5,-9.4217],[-35.4951,-9.3906],[-35.4597,-9.3441],[-35.396,-9.3019],[-35.3548,-9.2562],[-35.2398,-9.068],[-35.2228,-9.0171],[-35.1811,-8.9774],[-35.1292,-8.8666],[-35.1326,-8.8305],[-35.0864,-8.7479],[-35.0903,-8.695],[-35.0338,-8.5716],[-35.0036,-8.5492],[-35.0024,-8.4989],[-34.9606,-8.3957],[-34.9484,-8.3423],[-34.9449,-8.2624],[-34.9178,-8.212],[-34.9122,-8.1644],[-34.8571,-8.0257],[-34.8404,-8.0081],[-34.8202,-7.9174],[-34.845,-7.8131],[-34.8232,-7.7517],[-34.8336,-7.6831],[-34.8072,-7.6185],[-34.8391,-7.5539],[-34.8092,-7.5118],[-34.8108,-7.4511],[-34.7945,-7.333],[-34.8026,-7.3135],[-34.8035,-7.2138],[-34.7947,-7.1942],[-34.8423,-7.0574],[-34.874,-6.9861],[-34.8539,-6.9006],[-34.8876,-6.8832],[-34.9112,-6.8262],[-34.9339,-6.6969],[-34.9631,-6.6311],[-34.9749,-6.4196],[-34.991,-6.3715],[-35.0262,-6.3543],[-35.036,-6.2354],[-35.0713,-6.2217],[-35.095,-6.1824],[-35.1062,-6.0069],[-35.143,-5.9647],[-35.153,-5.8878],[-35.1788,-5.8664],[-35.1792,-5.799],[-35.2035,-5.7473],[-35.1922,-5.7006],[-35.2162,-5.6764],[-35.2171,-5.6318],[-35.2592,-5.5108],[-35.288,-5.4606],[-35.3194,-5.3778],[-35.3511,-5.3625],[-35.3707,-5.2846],[-35.4167,-5.221],[-35.4589,-5.197],[-35.4889,-5.1574],[-35.6062,-5.1206],[-35.639,-5.1195],[-35.7588,-5.0888],[-35.7852,-5.075],[-35.8792,-5.068],[-35.9495,-5.044],[-36.0394,-5.0514],[-36.1255,-5.0915],[-36.1605,-5.0965],[-36.2902,-5.0877],[-36.3841,-5.0876],[-36.4492,-5.0664],[-36.5079,-5.0623],[-36.544,-5.0889],[-36.6134,-5.0943],[-36.6887,-5.0883],[-36.7866,-5.0448],[-36.8666,-4.9586],[-36.9188,-4.9465],[-36.9603,-4.9185],[-37.0373,-4.9499],[-37.1053,-4.9223],[-37.1541,-4.9476],[-37.2227,-4.8791],[-37.253,-4.8311],[-37.295,-4.7302],[-37.342,-4.6911],[-37.4076,-4.6751],[-37.4786,-4.6463],[-37.5618,-4.6404],[-37.6394,-4.586],[-37.7292,-4.4941],[-37.7701,-4.4013],[-37.8542,-4.3795],[-37.9066,-4.3398],[-37.9883,-4.2608],[-38.0093,-4.2511],[-38.116,-4.148],[-38.1922,-4.0406],[-38.2729,-3.9447],[-38.3186,-3.9262],[-38.3603,-3.8849],[-38.4613,-3.7194],[-38.4959,-3.725],[-38.6524,-3.6822],[-38.7018,-3.6384],[-38.7624,-3.6059],[-38.8123,-3.5421],[-38.8478,-3.5428],[-38.9112,-3.5026],[-38.9734,-3.4115],[-39.0068,-3.3968],[-39.0487,-3.4126],[-39.0912,-3.3846],[-39.1127,-3.3471],[-39.1592,-3.3325],[-39.2277,-3.2408],[-39.2618,-3.2179],[-39.313,-3.2061],[-39.3442,-3.1781],[-39.3818,-3.1836],[-39.5499,-3.0791],[-39.5943,-3.068],[-39.6198,-3.026],[-39.6874,-2.9966],[-39.7325,-2.9905],[-39.892,-2.8814],[-39.9946,-2.8395],[-40.0388,-2.8419],[-40.1262,-2.8235],[-40.1438,-2.8402],[-40.1853,-2.8117],[-40.3312,-2.806],[-40.4392,-2.8093],[-40.498,-2.7843],[-40.5371,-2.8195],[-40.6031,-2.8483],[-40.6702,-2.8434],[-40.7744,-2.8528],[-40.8411,-2.8817],[-40.8581,-2.8615],[-40.9555,-2.872],[-41.0024,-2.8897],[-41.1114,-2.8948],[-41.2606,-2.8836],[-41.3403,-2.9274],[-41.3979,-2.9041],[-41.4784,-2.896],[-41.5125,-2.9117],[-41.5577,-2.8974],[-41.5859,-2.9063],[-41.6323,-2.8844],[-41.7289,-2.8032],[-41.7499,-2.8018],[-41.8122,-2.7283],[-41.857,-2.7217],[-41.9938,-2.7214],[-42.0437,-2.7285],[-42.0702,-2.6872],[-42.1284,-2.6952],[-42.2554,-2.6831],[-42.2636,-2.7579],[-42.3386,-2.7492],[-42.3646,-2.7156],[-42.4755,-2.6997],[-42.5042,-2.6781],[-42.5613,-2.6786],[-42.621,-2.6451],[-42.7021,-2.5689],[-42.7632,-2.5455],[-42.8253,-2.5447],[-42.9634,-2.4753],[-43.0549,-2.4401],[-43.2374,-2.3587],[-43.3116,-2.3387],[-43.4414,-2.3417],[-43.4841,-2.3835],[-43.4521,-2.4426],[-43.4566,-2.4826],[-43.507,-2.4775],[-43.5374,-2.4219],[-43.5798,-2.4586],[-43.6125,-2.5065],[-43.6641,-2.4879],[-43.7032,-2.509],[-43.717,-2.4759],[-43.7601,-2.4659],[-43.7399,-2.4322],[-43.6876,-2.3977],[-43.6452,-2.4027],[-43.6236,-2.3031],[-43.5943,-2.2827],[-43.6373,-2.2534],[-43.7204,-2.2914],[-43.7396,-2.3503],[-43.7268,-2.3865],[-43.7984,-2.4396],[-43.8381,-2.4167],[-43.8468,-2.5019],[-43.9312,-2.5616],[-43.9565,-2.6215],[-44.0226,-2.6526],[-44.0776,-2.7426],[-44.1364,-2.7664],[-44.1853,-2.7642],[-44.2414,-2.7805],[-44.2496,-2.7303],[-44.1376,-2.6816],[-44.1057,-2.6292],[-44.0801,-2.5635],[-44.034,-2.5499],[-44.0239,-2.5083],[-44.0527,-2.4688],[-44.0238,-2.4487],[-44.0308,-2.407],[-44.0946,-2.4066],[-44.1744,-2.4584],[-44.2259,-2.477],[-44.2998,-2.4862],[-44.3208,-2.5272],[-44.356,-2.5328],[-44.3707,-2.5715],[-44.3541,-2.6032],[-44.3804,-2.6682],[-44.3887,-2.7538],[-44.4092,-2.7925],[-44.407,-2.894],[-44.4537,-2.9873],[-44.5325,-3.044],[-44.5972,-3.04],[-44.6655,-3.0109],[-44.6794,-2.9791],[-44.6786,-2.9153],[-44.6507,-2.8915],[-44.6326,-2.8459],[-44.6516,-2.8075],[-44.6066,-2.6896],[-44.5573,-2.6042],[-44.5346,-2.5277],[-44.4902,-2.5217],[-44.476,-2.485],[-44.4429,-2.4575],[-44.4779,-2.4112],[-44.388,-2.4089],[-44.358,-2.3405],[-44.3985,-2.2144],[-44.4642,-2.1467],[-44.5301,-2.1599],[-44.5388,-2.1889],[-44.6232,-2.2673],[-44.6388,-2.2959],[-44.6854,-2.263],[-44.6341,-2.2285],[-44.5873,-2.1656],[-44.5886,-2.1368],[-44.498,-2.0493],[-44.4813,-1.9869],[-44.5146,-1.8857],[-44.5632,-1.8076],[-44.6168,-1.7589],[-44.6809,-1.7726],[-44.7256,-1.7581],[-44.7775,-1.6802],[-44.7382,-1.6505],[-44.675,-1.6414],[-44.6363,-1.6166],[-44.705,-1.555],[-44.7582,-1.5921],[-44.9058,-1.6047],[-44.9191,-1.5716],[-44.8725,-1.4856],[-44.8435,-1.4785],[-44.8303,-1.4295],[-44.8604,-1.4113],[-44.8868,-1.4421],[-44.9549,-1.4913],[-44.9612,-1.5434],[-45.0065,-1.4861],[-45.0489,-1.4904],[-45.0967,-1.4555],[-45.1325,-1.4848],[-45.198,-1.4884],[-45.2129,-1.5316],[-45.2496,-1.5872],[-45.3119,-1.5994],[-45.3435,-1.5868],[-45.3219,-1.5442],[-45.3163,-1.4863],[-45.3834,-1.4667],[-45.3103,-1.438],[-45.3049,-1.3364],[-45.3486,-1.3126],[-45.3704,-1.3955],[-45.4362,-1.4284],[-45.4581,-1.4701],[-45.4888,-1.4694],[-45.475,-1.372],[-45.4217,-1.3531],[-45.4196,-1.2949],[-45.4559,-1.2965],[-45.4945,-1.353],[-45.5191,-1.3193],[-45.5937,-1.2667],[-45.6259,-1.2836],[-45.6463,-1.2322],[-45.6899,-1.2736],[-45.7344,-1.235],[-45.733,-1.1996],[-45.6909,-1.1487],[-45.7424,-1.1406],[-45.7682,-1.199],[-45.829,-1.1766],[-45.8444,-1.2125],[-45.8831,-1.1495],[-45.8435,-1.0828],[-45.8715,-1.0525],[-45.8949,-1.1126],[-45.9465,-1.1956],[-45.9783,-1.0493],[-45.996,-1.0543],[-46.075,-1.161],[-46.0871,-1.1344],[-46.0615,-1.1026],[-46.0946,-1.0206],[-46.1413,-1.0582],[-46.1754,-0.9999],[-46.2177,-0.9921],[-46.1759,-0.9454],[-46.2029,-0.8853],[-46.2648,-0.9134],[-46.2677,-0.9652],[-46.3193,-1.0237],[-46.3478,-1.0068],[-46.4662,-1.0264],[-46.4765,-0.9642],[-46.4238,-0.8665],[-46.498,-0.8727],[-46.5151,-0.9297],[-46.5565,-0.9177],[-46.5775,-0.9815],[-46.642,-0.9489],[-46.6365,-0.907],[-46.5961,-0.8419],[-46.619,-0.8055],[-46.6653,-0.7912],[-46.6922,-0.8339],[-46.7354,-0.8622],[-46.7398,-0.8208],[-46.8064,-0.8705],[-46.8073,-0.8345],[-46.836,-0.7467],[-46.8837,-0.7672],[-46.8837,-0.8076],[-46.9422,-0.8075],[-46.9703,-0.7675],[-46.9462,-0.731],[-46.975,-0.7041],[-47.0085,-0.7689],[-47.0374,-0.794],[-47.0994,-0.7535],[-47.0743,-0.702],[-47.0948,-0.6724],[-47.1403,-0.6985],[-47.2182,-0.6327],[-47.262,-0.6243],[-47.3203,-0.5913],[-47.3843,-0.6025],[-47.3959,-0.654],[-47.4308,-0.6408],[-47.4217,-0.5846],[-47.472,-0.594],[-47.4849,-0.6194],[-47.47,-0.6938],[-47.501,-0.6911],[-47.5326,-0.614],[-47.59,-0.5764],[-47.5868,-0.6391],[-47.6291,-0.7073],[-47.632,-0.6038],[-47.69,-0.5558],[-47.7357,-0.5362],[-47.7709,-0.5659],[-47.8143,-0.5764],[-47.9032,-0.559],[-47.9211,-0.6256],[-47.9646,-0.6421],[-47.9912,-0.6947],[-48.0477,-0.6596],[-48.1584,-0.7742],[-48.1778,-0.821],[-48.2212,-0.8229],[-48.2541,-0.8826],[-48.2938,-0.9197],[-48.3658,-0.9189],[-48.4747,-0.8739],[-48.5061,-0.8104],[-48.5122,-0.7597],[-48.4867,-0.7272],[-48.4706,-0.6141],[-48.4737,-0.5267],[-48.4411,-0.4122],[-48.3883,-0.3527],[-48.3746,-0.3031],[-48.4074,-0.2452],[-48.4402,-0.2254],[-48.5051,-0.2426],[-48.6336,-0.2316],[-48.712,-0.2518],[-48.7437,-0.2499],[-48.8101,-0.2148],[-48.8347,-0.2227],[-48.947,-0.2222],[-49.0394,-0.1693],[-49.1367,-0.1682],[-49.1962,-0.1314],[-49.246,-0.1612],[-49.3346,-0.1605],[-49.3787,-0.191],[-49.4222,-0.1684],[-49.4386,-0.1265],[-49.4317,-0.0882],[-49.3575,-0.0239],[-49.3749,0.0444],[-49.397,0.0622],[-49.479,0.0811],[-49.5769,0.0907],[-49.6322,0.0749],[-49.6657,0.0966],[-49.6996,0.1505],[-49.6927,0.1781],[-49.6333,0.2414],[-49.5292,0.2917],[-49.4886,0.3342],[-49.4999,0.3668],[-49.5701,0.4145],[-49.6181,0.3921],[-49.6569,0.3939],[-49.7311,0.3753],[-49.8078,0.3321],[-49.8283,0.3554],[-49.8892,0.3225],[-49.9385,0.3653],[-49.9805,0.3605],[-50.0026,0.3374],[-50.0984,0.3445],[-50.1317,0.3307],[-50.1678,0.3403],[-50.1727,0.3976],[-50.0774,0.4634],[-50.0364,0.5342],[-50.0373,0.6019],[-50.0836,0.6402],[-50.1335,0.6196],[-50.2135,0.656],[-50.2312,0.7301],[-50.0974,0.767],[-50.0203,0.8588],[-49.9876,0.876],[-50.0025,0.9064],[-49.989,0.9395],[-49.9441,0.9594],[-49.8898,1.0136],[-49.8831,1.1691],[-49.9003,1.2129],[-49.9043,1.2956],[-49.8836,1.34],[-49.8758,1.4231],[-49.8826,1.5048],[-49.9206,1.6879],[-50.019,1.7531],[-50.1769,1.8136],[-50.2897,1.8079],[-50.3246,1.8154],[-50.3735,1.8011],[-50.4237,1.8045],[-50.475,1.8386],[-50.5256,1.9299],[-50.5827,1.9896],[-50.5981,2.0638],[-50.6431,2.1134],[-50.6819,2.1334],[-50.6866,2.1911],[-50.7253,2.2557],[-50.7704,2.4534],[-50.7942,2.4985],[-50.8165,2.503],[-50.8443,2.601],[-50.8477,2.6403],[-50.8824,2.6882],[-50.8873,2.7462],[-50.945,2.8178],[-50.9505,2.8822],[-50.9925,2.9622],[-51.0179,3.0387],[-51.0143,3.0856],[-51.0444,3.134],[-51.0328,3.2137],[-51.0865,3.3502],[-51.1093,3.4506],[-51.091,3.4805],[-51.0818,3.5595],[-51.0908,3.6319],[-51.0912,3.7385],[-51.0807,3.8848],[-51.0921,3.9083],[-51.1793,3.9195],[-51.1783,4.0034],[-51.1886,4.0778],[-51.2164,4.15],[-51.2834,4.2503],[-51.3942,4.365],[-51.4859,4.4372],[-51.5678,4.4749],[-51.5724,4.3407],[-51.5678,4.2496],[-51.6059,4.2365],[-51.6177,4.1597],[-51.6578,4.0508],[-51.753,3.9976],[-51.7814,3.9494],[-51.7873,3.906],[-51.875,3.8073],[-51.9211,3.7738],[-51.9183,3.7313],[-51.9691,3.7075],[-51.9933,3.6228],[-52.027,3.5878],[-52.082,3.4739],[-52.1162,3.4342],[-52.228,3.2506],[-52.2795,3.2365],[-52.296,3.1806],[-52.3255,3.1717],[-52.3465,3.1354],[-52.3269,3.0888],[-52.3954,2.8982],[-52.4278,2.8846],[-52.4811,2.7818],[-52.4821,2.7534],[-52.5496,2.615],[-52.5303,2.5898],[-52.5581,2.5552],[-52.5547,2.5234],[-52.6166,2.4496],[-52.64,2.4446],[-52.6618,2.3855],[-52.8051,2.3033],[-52.8528,2.2867],[-52.9012,2.1937],[-52.9867,2.1714],[-53.0429,2.1887],[-53.0734,2.2233],[-53.1758,2.2218],[-53.2258,2.2735],[-53.2728,2.2938],[-53.3611,2.2752],[-53.4218,2.2862],[-53.4604,2.3316],[-53.6022,2.2917],[-53.6785,2.2861],[-53.7468,2.3219],[-53.789,2.3652],[-53.8293,2.3147],[-53.876,2.3102],[-53.9094,2.2845],[-53.9444,2.283],[-53.9595,2.237],[-54.031,2.1998],[-54.0848,2.1912],[-54.1101,2.1289],[-54.1537,2.1403],[-54.1811,2.1792],[-54.2723,2.157],[-54.3321,2.1638],[-54.3723,2.2165],[-54.4697,2.2277],[-54.5016,2.2627],[-54.5485,2.3379],[-54.6419,2.3268],[-54.7032,2.3413],[-54.7233,2.3968],[-54.6922,2.4558],[-54.7431,2.4787],[-54.8259,2.4339],[-54.8568,2.4348],[-54.9596,2.5444],[-54.9726,2.6047],[-55.0142,2.5884],[-55.1027,2.5224],[-55.129,2.5698],[-55.1857,2.5551],[-55.212,2.5121],[-55.2664,2.4981],[-55.2993,2.522],[-55.3359,2.5165],[-55.3579,2.4872],[-55.3647,2.4127],[-55.4285,2.4394],[-55.4808,2.4427],[-55.5917,2.4334],[-55.7389,2.4012],[-55.7684,2.4456],[-55.8318,2.464],[-55.9388,2.5316],[-55.9867,2.5186],[-55.9999,2.4614],[-55.9873,2.4276],[-56.0443,2.3449],[-56.0902,2.352],[-56.1162,2.3086],[-56.1272,2.2536],[-56.0476,2.2281],[-56.0377,2.1681],[-56.0014,2.1497],[-55.9099,2.0327],[-55.9228,1.9764],[-55.9058,1.8911],[-55.9396,1.8561],[-55.995,1.8311],[-56.1054,1.8594],[-56.1886,1.8918],[-56.254,1.8869],[-56.3642,1.939],[-56.3975,1.9224],[-56.4537,1.9446],[-56.5211,1.9202],[-56.5917,1.915],[-56.629,1.9398],[-56.676,1.9133],[-56.7235,1.9196],[-56.7794,1.868],[-56.8002,1.8639],[-56.8747,1.8913],[-56.9145,1.9179],[-56.9862,1.9107],[-57.0601,1.9579],[-57.0813,2.0193],[-57.1224,2.0141],[-57.1751,1.9795],[-57.2538,1.9451],[-57.3024,1.9901],[-57.3563,1.9637],[-57.3761,1.9276],[-57.4231,1.9061],[-57.453,1.8393],[-57.5441,1.7023],[-57.6391,1.6913],[-57.7095,1.7152],[-57.7698,1.7199],[-57.8167,1.6802],[-57.8635,1.6743],[-57.9324,1.6466],[-57.9994,1.667],[-58.0013,1.5051],[-58.1292,1.5031],[-58.1661,1.5595],[-58.2347,1.5533],[-58.2947,1.5728],[-58.3186,1.5936],[-58.3758,1.5461],[-58.3821,1.4706],[-58.4815,1.4634],[-58.5026,1.4445],[-58.4727,1.3728],[-58.4733,1.2994],[-58.5071,1.2644],[-58.5476,1.2867],[-58.5889,1.2709],[-58.692,1.2885],[-58.7461,1.1999],[-58.7955,1.177],[-58.848,1.1959],[-58.9036,1.2338],[-58.892,1.2673],[-58.9138,1.2985],[-59.0167,1.3235],[-59.0827,1.3296],[-59.1557,1.3483],[-59.2527,1.3974],[-59.3369,1.5174],[-59.3826,1.5213],[-59.4424,1.6109],[-59.4759,1.6281],[-59.5481,1.7302],[-59.6178,1.731],[-59.6796,1.7853],[-59.6411,1.8247],[-59.7042,1.8541],[-59.7443,1.847],[-59.7523,1.9102],[-59.7202,2.0302],[-59.742,2.062],[-59.7228,2.1146],[-59.7399,2.1775],[-59.7219,2.2382],[-59.7345,2.2847],[-59.7875,2.2859],[-59.8354,2.3177],[-59.9097,2.3897],[-59.9077,2.4711],[-59.9385,2.5463],[-59.9326,2.5684],[-59.9878,2.6791],[-59.9912,2.8267],[-59.976,2.8926],[-59.9816,2.9292],[-59.9548,2.9918],[-59.959,3.0629],[-59.8974,3.16],[-59.9106,3.1837],[-59.8699,3.2701],[-59.7981,3.3564],[-59.8349,3.4407],[-59.8038,3.4973],[-59.8649,3.5616],[-59.8492,3.6005],[-59.7668,3.6232],[-59.7582,3.6455],[-59.6613,3.7132],[-59.6659,3.7768],[-59.6105,3.7935],[-59.5756,3.8251],[-59.5889,3.8607],[-59.5774,3.8927],[-59.5157,3.9414],[-59.5787,4.0037],[-59.6169,4.0594],[-59.655,4.0791],[-59.6278,4.1391],[-59.713,4.1716],[-59.7288,4.2373],[-59.718,4.296],[-59.6774,4.3467],[-59.7353,4.4175],[-59.7856,4.4446],[-59.8599,4.467],[-59.9013,4.4689],[-59.9245,4.5077],[-59.9776,4.4873],[-60.0629,4.5136],[-60.1154,4.5088],[-60.1596,4.5196],[-60.1585,4.5709],[-60.1302,4.5933],[-60.0917,4.5952],[-60.0735,4.6628],[-60.0284,4.7098],[-60.0333,4.7904],[-59.9966,4.9324],[-59.9908,4.9992],[-59.9694,5.0687],[-60.0162,5.0899],[-60.0854,5.1487],[-60.1219,5.2439],[-60.1826,5.2298],[-60.2123,5.2645],[-60.3034,5.2259],[-60.3292,5.1991],[-60.3966,5.2118],[-60.438,5.1769],[-60.4593,5.1933],[-60.5165,5.1988],[-60.5718,5.1894],[-60.6617,5.2217],[-60.7078,5.214],[-60.6682,5.161],[-60.6414,5.0682],[-60.5879,4.9658],[-60.5939,4.9331],[-60.6434,4.8824],[-60.6778,4.828],[-60.7315,4.7654],[-60.8048,4.7371],[-60.8345,4.7126],[-60.8895,4.7121],[-60.9408,4.6451],[-60.929,4.6073],[-60.9569,4.5462],[-60.9913,4.5161],[-61.0464,4.5218],[-61.1442,4.4836],[-61.2225,4.5271],[-61.3099,4.5428],[-61.3447,4.5318],[-61.3293,4.4637],[-61.3909,4.4302],[-61.4821,4.4364],[-61.5379,4.3838],[-61.5442,4.3599],[-61.5233,4.2823],[-61.5905,4.2504],[-61.6703,4.2594],[-61.7567,4.2554],[-61.8352,4.1941],[-61.9031,4.165],[-61.928,4.122],[-61.9656,4.1149],[-62.004,4.164],[-62.0607,4.1567],[-62.1346,4.0913],[-62.154,4.0901],[-62.2331,4.1319],[-62.3555,4.1503],[-62.3878,4.1287],[-62.5098,4.0872],[-62.5353,4.0342],[-62.6414,4.0516],[-62.6866,4.0323],[-62.7322,4.0358],[-62.7688,4.0062],[-62.7432,3.9743],[-62.783,3.9343],[-62.7888,3.8932],[-62.7538,3.8496],[-62.7354,3.8002],[-62.731,3.7076],[-62.7485,3.6726],[-62.7899,3.7176],[-62.8358,3.7385],[-62.8869,3.6835],[-62.9191,3.6724],[-62.9525,3.6118],[-62.9849,3.6096],[-63.0324,3.6657],[-63.073,3.6854],[-63.0608,3.7518],[-63.1233,3.8046],[-63.2044,3.8115],[-63.2266,3.8354],[-63.2335,3.8815],[-63.2049,3.9513],[-63.2808,3.9551],[-63.311,3.9818],[-63.3534,3.9602],[-63.3933,3.9804],[-63.4522,3.9554],[-63.4119,3.9118],[-63.4527,3.8582],[-63.4825,3.8736],[-63.5124,3.8474],[-63.5716,3.8832],[-63.5922,3.9282],[-63.6527,4.0018],[-63.6855,4.009],[-63.7005,3.9443],[-63.7388,3.9151],[-63.7552,3.9401],[-63.7966,3.9326],[-63.8502,3.9499],[-63.9261,3.926],[-63.9499,3.8865],[-63.9972,3.9035],[-64.0357,3.9342],[-64.0972,4.0251],[-64.1127,4.0913],[-64.1719,4.1288],[-64.2188,4.1154],[-64.2897,4.1438],[-64.3355,4.129],[-64.4316,4.1346],[-64.5605,4.1015],[-64.6275,4.1385],[-64.6586,4.2115],[-64.6914,4.2446],[-64.7805,4.2865],[-64.825,4.244],[-64.8105,4.1746],[-64.7322,4.1201],[-64.6739,4.0046],[-64.6199,3.9513],[-64.5802,3.9283],[-64.5684,3.8817],[-64.4725,3.7815],[-64.4286,3.7799],[-64.2891,3.6996],[-64.2811,3.6693],[-64.1858,3.5596],[-64.1869,3.4996],[-64.2399,3.4429],[-64.2552,3.411],[-64.2344,3.384],[-64.2413,3.3149],[-64.2138,3.2463],[-64.2083,3.1888],[-64.2352,3.1143],[-64.178,3.0632],[-64.1305,3.0043],[-64.1024,2.9515],[-64.0716,2.9376],[-64.0669,2.8796],[-64.0141,2.7954],[-63.9866,2.7307],[-63.9916,2.6362],[-64.0572,2.5129],[-64.0208,2.4665],[-63.9612,2.4546],[-63.7808,2.3912],[-63.7279,2.3862],[-63.6559,2.3939],[-63.4999,2.436],[-63.4068,2.4359],[-63.3948,2.4071],[-63.4255,2.3642],[-63.4014,2.2966],[-63.4012,2.2456],[-63.3723,2.2117],[-63.3977,2.1469],[-63.4924,2.1154],[-63.5619,2.1323],[-63.6174,2.1065],[-63.668,2.0169],[-63.7033,2.0462],[-63.7849,1.9815],[-63.8297,1.9682],[-63.9066,1.9915],[-63.9755,1.9913],[-64.0191,1.9513],[-64.0619,1.9307],[-64.0561,1.841],[-64.078,1.759],[-64.0652,1.676],[-64.1122,1.5893],[-64.1441,1.5824],[-64.3022,1.4683],[-64.3427,1.3843],[-64.4,1.3948],[-64.3513,1.5182],[-64.3974,1.5268],[-64.4386,1.4718],[-64.5313,1.4352],[-64.5827,1.3755],[-64.5908,1.3374],[-64.635,1.3202],[-64.6602,1.2913],[-64.7019,1.2912],[-64.7225,1.2385],[-64.7639,1.2307],[-64.8105,1.3144],[-64.8616,1.2693],[-64.8707,1.2386],[-64.9066,1.2416],[-64.9608,1.1896],[-65.0222,1.1149],[-65.1031,1.1566],[-65.1551,1.1249],[-65.154,1.0563],[-65.1669,1.0113],[-65.165,0.9505],[-65.2408,0.921],[-65.3028,0.9421],[-65.3292,0.9315],[-65.3519,0.873],[-65.398,0.8213],[-65.3975,0.7499],[-65.4528,0.6854],[-65.5306,0.6679],[-65.5642,0.6757],[-65.5914,0.7216],[-65.5736,0.7643],[-65.5486,0.7746],[-65.5214,0.8401],[-65.5084,0.9155],[-65.5419,0.9755],[-65.5856,1.0089],[-65.6528,1.0117],[-65.7394,0.9996],[-65.7672,0.964],[-65.8623,0.9309],[-65.8816,0.9016],[-65.9366,0.8821],[-65.9714,0.806],[-66.0701,0.805],[-66.0886,0.759],[-66.1511,0.7444],[-66.213,0.7806],[-66.3185,0.755],[-66.5994,0.9997],[-66.8568,1.2299],[-66.8377,1.1929],[-67.0232,1.1236],[-67.0746,1.1086],[-67.1019,1.217],[-67.1026,1.4221],[-67.0923,1.4648],[-67.1425,1.6281],[-67.2036,1.7966],[-67.2694,1.8248],[-67.3092,1.8569],[-67.3178,1.8939],[-67.3509,1.9429],[-67.3405,2.0413],[-67.3074,2.1268],[-67.3122,2.2137],[-67.3875,2.2299],[-67.4072,2.2233],[-67.4413,2.1669],[-67.4861,2.1532],[-67.5438,2.092],[-67.5879,2.0607],[-67.6059,2.0298],[-67.7057,2.0039],[-67.7376,2.0205],[-67.7821,1.9749],[-67.8401,1.9647],[-67.8701,1.9091],[-67.8761,1.8071],[-67.9012,1.8053],[-67.996,1.8531],[-68.0405,1.8893],[-68.0761,1.8967],[-68.137,1.9834],[-68.1632,1.9758],[-68.1881,2.0181],[-68.2134,1.9583],[-68.2784,1.8473],[-68.2447,1.7838],[-68.189,1.7576],[-68.1863,1.7302],[-69.3907,1.7311],[-69.437,1.7491],[-69.477,1.7444],[-69.513,1.7703],[-69.5531,1.7745],[-69.6546,1.7178],[-69.7103,1.7344],[-69.7452,1.7292],[-69.8092,1.6946],[-69.8482,1.7026],[-69.8484,1.3108],[-69.8461,1.0929],[-69.8051,1.066],[-69.7542,1.1133],[-69.7064,1.1002],[-69.6734,1.0711],[-69.6465,1.0902],[-69.5978,1.095],[-69.5778,1.0764],[-69.4371,1.0732],[-69.413,1.0408],[-69.3779,1.083],[-69.3222,1.088],[-69.2902,1.0609],[-69.2462,1.0478],[-69.2045,1.0134],[-69.2169,0.9813],[-69.1677,0.953],[-69.1761,0.9021],[-69.1292,0.8698],[-69.1603,0.8229],[-69.1416,0.7732],[-69.1809,0.7486],[-69.1224,0.6847],[-69.1079,0.646],[-69.1758,0.6568],[-69.2001,0.6094],[-69.2723,0.6019],[-69.2894,0.6371],[-69.3324,0.6427],[-69.3519,0.6138],[-69.4143,0.6883],[-69.4811,0.7353],[-69.631,0.6298],[-69.6494,0.6635],[-69.6877,0.6636],[-69.8066,0.5731],[-69.8324,0.5907],[-69.9091,0.5847],[-69.9362,0.5527],[-69.978,0.578],[-70.0052,0.5444],[-70.0405,0.5652],[-70.0411,0.2568],[-70.0404,-0.1076],[-70.0091,-0.161],[-70.0191,-0.2016],[-69.9822,-0.2632],[-69.923,-0.3254],[-69.8915,-0.3429],[-69.8482,-0.3371],[-69.8297,-0.3716],[-69.7617,-0.3997],[-69.729,-0.4387],[-69.656,-0.469],[-69.6028,-0.5067],[-69.586,-0.5632],[-69.5973,-0.5991],[-69.5593,-0.6411],[-69.6153,-0.7362],[-69.5944,-0.791],[-69.5613,-0.8123],[-69.5592,-0.8522],[-69.5205,-0.8801],[-69.5203,-0.9322],[-69.457,-0.9717],[-69.4249,-1.0059],[-69.4288,-1.0765],[-69.3951,-1.1167],[-69.4244,-1.2502],[-69.4095,-1.2844],[-69.3991,-1.3648],[-69.4265,-1.3852],[-69.4288,-1.459],[-69.4501,-1.4943],[-69.4466,-1.5339],[-69.5614,-2.1728],[-69.6432,-2.6156],[-69.7956,-3.4814],[-69.8636,-3.8542],[-69.9293,-4.2186],[-69.9487,-4.2393],[-69.9541,-4.2925],[-69.9754,-4.3377],[-69.9677,-4.3863],[-70.0272,-4.3686],[-70.0441,-4.3308],[-70.0723,-4.3218],[-70.0765,-4.2852],[-70.1577,-4.2752],[-70.1524,-4.3204],[-70.2039,-4.3258],[-70.2602,-4.3084],[-70.2842,-4.2721],[-70.2861,-4.169],[-70.3293,-4.1477],[-70.3529,-4.1696],[-70.3789,-4.1337],[-70.4336,-4.131],[-70.454,-4.1587],[-70.5029,-4.1678],[-70.523,-4.137],[-70.5582,-4.172],[-70.6168,-4.1936],[-70.6187,-4.1398],[-70.6452,-4.1275],[-70.6727,-4.1963],[-70.7663,-4.1615],[-70.8187,-4.1988],[-70.829,-4.2499],[-70.8647,-4.2535],[-70.8756,-4.3214],[-70.9005,-4.3271],[-70.9339,-4.3808],[-71.0191,-4.3801],[-71.0367,-4.3994],[-71.0822,-4.3722],[-71.183,-4.3939],[-71.2349,-4.3828],[-71.2833,-4.4416],[-71.3897,-4.4264],[-71.4179,-4.464],[-71.4722,-4.4339],[-71.5043,-4.476],[-71.525,-4.4648],[-71.5931,-4.5256],[-71.6339,-4.5079],[-71.7079,-4.5099],[-71.7394,-4.4825],[-71.9067,-4.5152],[-71.9429,-4.5942],[-72.0053,-4.6363],[-72.0367,-4.6372],[-72.1239,-4.7155],[-72.1926,-4.7452],[-72.2447,-4.7811],[-72.3102,-4.7744],[-72.325,-4.8022],[-72.3824,-4.8264],[-72.3877,-4.8658],[-72.4302,-4.9096],[-72.5417,-4.9527],[-72.599,-4.9838],[-72.6208,-5.0491],[-72.7362,-5.06],[-72.7414,-5.0881],[-72.8156,-5.1333],[-72.8615,-5.1389],[-72.8898,-5.1628],[-72.8717,-5.195],[-72.8706,-5.2877],[-72.8982,-5.3241],[-72.9393,-5.418],[-72.9612,-5.5208],[-72.9564,-5.5832],[-72.9735,-5.61],[-72.9602,-5.6556],[-73.0423,-5.7515],[-73.054,-5.792],[-73.1502,-5.8664],[-73.1807,-5.9254],[-73.1819,-5.9795],[-73.2265,-6.0248],[-73.2472,-6.1093],[-73.2456,-6.1436],[-73.2182,-6.1726],[-73.2178,-6.2073],[-73.1599,-6.2707],[-73.1333,-6.3703],[-73.1019,-6.4026],[-73.1086,-6.447],[-73.1698,-6.5175],[-73.1995,-6.5689],[-73.3289,-6.5977],[-73.3531,-6.5936],[-73.3801,-6.6359],[-73.5053,-6.6726],[-73.5682,-6.7217],[-73.6382,-6.7539],[-73.6845,-6.8162],[-73.7617,-6.9385],[-73.729,-6.9962],[-73.7265,-7.0347],[-73.7589,-7.0518],[-73.7957,-7.1136],[-73.7559,-7.1512],[-73.7145,-7.2202],[-73.6891,-7.2968],[-73.7371,-7.3381],[-73.8206,-7.338],[-73.8772,-7.3747],[-73.9534,-7.3461],[-73.9176,-7.4348],[-73.9446,-7.5229],[-73.9876,-7.5318],[-73.9365,-7.6045],[-73.8869,-7.6328],[-73.8207,-7.7171],[-73.7483,-7.7314],[-73.7019,-7.7606],[-73.6816,-7.7959],[-73.6842,-7.8455],[-73.707,-7.8729],[-73.7656,-7.8705],[-73.7467,-7.956],[-73.6962,-7.9594],[-73.6712,-8.0061],[-73.632,-8.0201],[-73.6183,-8.071],[-73.5909,-8.1126],[-73.5832,-8.1992],[-73.5374,-8.2605],[-73.529,-8.3505],[-73.4725,-8.3878],[-73.3902,-8.4724],[-73.3414,-8.477],[-73.3409,-8.583],[-73.3276,-8.6113],[-73.2634,-8.6887],[-73.2003,-8.6868],[-73.155,-8.7168],[-73.1344,-8.771],[-73.0378,-8.9024],[-72.9575,-8.9764],[-72.9579,-9.0225],[-72.9402,-9.0949],[-72.9584,-9.1428],[-73.0138,-9.169],[-72.9975,-9.1931],[-73.0344,-9.2332],[-73.0844,-9.2353],[-73.1111,-9.2782],[-73.1067,-9.3053],[-73.1916,-9.3664],[-73.2094,-9.4136],[-72.716,-9.4124],[-72.7042,-9.4338],[-72.6534,-9.4507],[-72.539,-9.4691],[-72.5176,-9.4905],[-72.4082,-9.4769],[-72.341,-9.5069],[-72.3185,-9.544],[-72.2819,-9.5422],[-72.2888,-9.6029],[-72.2462,-9.6615],[-72.2589,-9.7127],[-72.2156,-9.7779],[-72.1514,-9.797],[-72.1606,-9.826],[-72.151,-9.9058],[-72.1746,-9.9315],[-72.1495,-9.9667],[-72.1803,-10.0002],[-71.3759,-10.0007],[-71.3432,-9.9667],[-71.2982,-9.9916],[-71.2216,-9.9702],[-71.1925,-9.9417],[-71.1575,-9.8717],[-71.0776,-9.8282],[-70.9995,-9.8183],[-70.9739,-9.7595],[-70.9239,-9.7408],[-70.8531,-9.6551],[-70.7605,-9.6052],[-70.7301,-9.5664],[-70.6606,-9.5214],[-70.6322,-9.479],[-70.5714,-9.433],[-70.523,-9.4575],[-70.5046,-9.4945],[-70.5643,-9.5412],[-70.5672,-9.5728],[-70.5983,-9.6074],[-70.5516,-9.6694],[-70.5281,-9.7256],[-70.5598,-9.7895],[-70.613,-9.8052],[-70.6267,-9.8337],[-70.6279,-11.0039],[-70.5922,-10.9619],[-70.5325,-10.9374],[-70.4755,-10.9714],[-70.4383,-11.0268],[-70.4083,-11.0476],[-70.3109,-11.0706],[-70.2424,-11.0481],[-70.2013,-11.0536],[-69.9577,-10.9392],[-69.9012,-10.9205],[-69.7604,-10.9396],[-69.7359,-10.9742],[-69.6338,-10.9572],[-69.5987,-10.9415],[-69.5333,-10.9597],[-69.4236,-10.9272],[-69.3121,-10.9564],[-69.1613,-10.9627],[-69.0894,-10.983],[-69.0668,-10.9773],[-68.9637,-10.995],[-68.9115,-11.0223],[-68.8832,-11.0107],[-68.7489,-11.0109],[-68.7661,-11.0665],[-68.7219,-11.1039],[-68.7168,-11.1452],[-68.5435,-11.1104],[-68.4883,-11.0509],[-68.4033,-11.0535],[-68.3858,-11.0183],[-68.3266,-11.0098],[-68.2383,-10.9565],[-68.1973,-10.8594],[-68.1042,-10.7758],[-68.1058,-10.7166],[-68.0598,-10.6794],[-68.0025,-10.6501],[-67.9293,-10.6547],[-67.9097,-10.6402],[-67.8279,-10.65],[-67.7092,-10.7099],[-67.677,-10.6058],[-67.6609,-10.6166],[-67.6128,-10.5639],[-67.58,-10.5031],[-67.4478,-10.4562],[-67.4079,-10.3742],[-67.3176,-10.3769],[-67.3234,-10.3236],[-67.266,-10.3328],[-67.2295,-10.3135],[-67.1694,-10.3371],[-67.137,-10.298],[-67.0821,-10.2887],[-67.0113,-10.2536],[-66.9753,-10.1848],[-66.9115,-10.1395],[-66.8897,-10.1027],[-66.8089,-10.0386],[-66.7229,-9.9797],[-66.6765,-9.9682],[-66.6251,-9.8977],[-66.5893,-9.9035],[-66.5555,-9.884],[-66.3597,-9.8662],[-66.3159,-9.8314],[-66.2134,-9.8342],[-66.1521,-9.7856],[-66.0394,-9.7871],[-66.0242,-9.8122],[-65.9742,-9.7979],[-65.9725,-9.7755],[-65.886,-9.7525],[-65.8415,-9.7898],[-65.7838,-9.7863],[-65.7727,-9.7582],[-65.7189,-9.756],[-65.6894,-9.7999],[-65.6355,-9.8053],[-65.6306,-9.8344],[-65.553,-9.8354],[-65.5131,-9.7973],[-65.4996,-9.7382],[-65.4585,-9.7086],[-65.4435,-9.6693],[-65.395,-9.6858],[-65.3546,-9.7237],[-65.3206,-9.8145],[-65.2861,-9.8455],[-65.3213,-9.906],[-65.3331,-9.9657],[-65.3201,-10.001],[-65.3297,-10.0465],[-65.2997,-10.0991],[-65.2823,-10.1978],[-65.2841,-10.2364],[-65.3081,-10.2971],[-65.3895,-10.387],[-65.3875,-10.4415],[-65.4297,-10.481],[-65.3979,-10.5895],[-65.4168,-10.6187],[-65.3488,-10.6727],[-65.3482,-10.7785],[-65.2756,-10.8712],[-65.2509,-10.9846],[-65.3013,-11.0321],[-65.2864,-11.0922],[-65.3561,-11.1282],[-65.3489,-11.2113],[-65.3614,-11.2514],[-65.3462,-11.3049],[-65.2987,-11.3161],[-65.3346,-11.3579],[-65.3182,-11.4477],[-65.2985,-11.4972],[-65.2308,-11.5084],[-65.2048,-11.552],[-65.2039,-11.6005],[-65.1805,-11.607],[-65.1751,-11.6667],[-65.2004,-11.7152],[-65.1845,-11.7591],[-65.1329,-11.772],[-65.1256,-11.7101],[-65.1016,-11.7069],[-65.047,-11.7542],[-65.0316,-11.8601],[-65.0153,-11.9021],[-65.0421,-11.9617],[-65.0226,-11.9991],[-64.9842,-12.0144],[-64.9359,-12.0096],[-64.8232,-12.0264],[-64.8095,-12.0591],[-64.7575,-12.1123],[-64.7691,-12.1437],[-64.6988,-12.1872],[-64.6162,-12.2147],[-64.5781,-12.2108],[-64.5584,-12.2366],[-64.5063,-12.2277],[-64.4929,-12.2943],[-64.513,-12.3478],[-64.4631,-12.3839],[-64.4058,-12.4465],[-64.3666,-12.4605],[-64.2949,-12.4579],[-64.279,-12.5],[-64.2306,-12.4539],[-64.1722,-12.4671],[-64.1639,-12.5139],[-64.124,-12.4869],[-64.058,-12.4906],[-64.044,-12.5126],[-63.9907,-12.5045],[-63.9629,-12.5293],[-63.8969,-12.5],[-63.8872,-12.4457],[-63.8349,-12.4641],[-63.785,-12.4289],[-63.6265,-12.4718],[-63.5513,-12.5085],[-63.4981,-12.5666],[-63.4369,-12.5645],[-63.4287,-12.5974],[-63.39,-12.6476],[-63.3259,-12.6725],[-63.2412,-12.6906],[-63.2459,-12.6652],[-63.1525,-12.6328],[-63.1132,-12.6584],[-63.0499,-12.7343],[-63.0135,-12.829],[-62.9725,-12.8592],[-62.92,-12.8414],[-62.8921,-12.8588],[-62.8702,-12.9106],[-62.8067,-12.9404],[-62.7804,-13.0082],[-62.7345,-13.0213],[-62.6615,-12.9688],[-62.6087,-13.0431],[-62.5384,-13.0735],[-62.5224,-13.0662],[-62.4516,-13.0876],[-62.4108,-13.1268],[-62.3744,-13.1397],[-62.2458,-13.1441],[-62.2172,-13.1105],[-62.1879,-13.1513],[-62.1202,-13.1523],[-62.101,-13.2067],[-62.1081,-13.2569],[-62.0759,-13.2714],[-62.0202,-13.3261],[-62.0089,-13.3518],[-61.9458,-13.3828],[-61.9052,-13.4302],[-61.8618,-13.4506],[-61.8522,-13.5037],[-61.7909,-13.537],[-61.6949,-13.509],[-61.5911,-13.5011],[-61.4813,-13.5521],[-61.3426,-13.4919],[-61.2627,-13.4945],[-61.219,-13.5275],[-61.1413,-13.5118],[-61.1174,-13.4725],[-61.0474,-13.4681],[-61.0063,-13.5023],[-60.9873,-13.5436],[-60.9337,-13.5389],[-60.8799,-13.6172],[-60.8165,-13.637],[-60.6563,-13.7353],[-60.6256,-13.7191],[-60.5693,-13.7687],[-60.5183,-13.7737],[-60.4593,-13.8041],[-60.4415,-13.933],[-60.4103,-13.9444],[-60.3785,-13.9925],[-60.4212,-14.0697],[-60.4666,-14.0964],[-60.4816,-14.1813],[-60.4422,-14.2376],[-60.4424,-14.3075],[-60.3825,-14.3676],[-60.3918,-14.4291],[-60.3344,-14.5088],[-60.3211,-14.6089],[-60.2721,-14.6203],[-60.2442,-15.0968],[-60.3831,-15.1052],[-60.5615,-15.108],[-60.2352,-15.4735],[-60.2308,-15.5365],[-60.1799,-15.9977],[-60.172,-16.2621],[-59.8153,-16.2717],[-59.4942,-16.2753],[-59.4725,-16.2795],[-58.4304,-16.3213],[-58.3655,-16.2742],[-58.3203,-16.269],[-58.3037,-16.3097],[-58.3096,-16.3614],[-58.356,-16.4274],[-58.3346,-16.478],[-58.3381,-16.5163],[-58.4219,-16.5752],[-58.4593,-16.6528],[-58.4713,-16.7487],[-58.461,-16.7959],[-58.476,-16.8274],[-58.4601,-16.8642],[-58.4743,-16.935],[-58.4314,-16.9908],[-58.4313,-17.0655],[-58.3995,-17.0838],[-58.3955,-17.1845],[-58.2764,-17.3006],[-58.2552,-17.354],[-58.2029,-17.3543],[-58.1222,-17.4151],[-58.1183,-17.4504],[-58.0601,-17.4507],[-58.0433,-17.4927],[-57.9738,-17.5064],[-57.8878,-17.4528],[-57.747,-17.5548],[-57.7856,-17.5555],[-57.785,-17.6455],[-57.7148,-17.7337],[-57.7201,-17.7717],[-57.6904,-17.8009],[-57.7206,-17.8279],[-57.6,-18.0464],[-57.5748,-18.1319],[-57.5051,-18.2003],[-57.4538,-18.2312],[-57.5578,-18.2404],[-57.7666,-18.8993],[-57.7198,-18.8991],[-57.7101,-19.0326],[-57.7842,-19.0335],[-57.8931,-19.2618],[-58.1334,-19.7578],[-58.1268,-19.7747],[-57.9873,-19.888],[-57.8767,-19.9659],[-57.909,-20.0194],[-57.9586,-20.0248],[-57.978,-20.0535],[-58.0139,-20.0585],[-58.0503,-20.1004],[-58.0912,-20.11],[-58.1561,-20.1508],[-58.1532,-20.2611],[-58.1147,-20.2475],[-58.0867,-20.2706],[-58.0957,-20.3096],[-58.0768,-20.3768],[-58.0037,-20.4232],[-57.9935,-20.4456],[-58.0182,-20.5104],[-57.9965,-20.5698],[-58.0148,-20.6053],[-57.9743,-20.6407],[-57.9889,-20.688],[-57.9579,-20.6996],[-57.9148,-20.6677],[-57.8721,-20.7408],[-57.9356,-20.7523],[-57.9498,-20.7964],[-57.901,-20.788],[-57.8717,-20.804],[-57.8597,-20.8483],[-57.9201,-20.8811],[-57.867,-20.9389],[-57.8209,-20.9395],[-57.8181,-20.9812],[-57.8651,-21.0386],[-57.8462,-21.0989],[-57.8624,-21.1448],[-57.8502,-21.214],[-57.9176,-21.2757],[-57.8543,-21.336],[-57.9049,-21.4021],[-57.9324,-21.4762],[-57.9638,-21.5115],[-57.9628,-21.5491],[-57.9154,-21.5872],[-57.9287,-21.6539],[-57.8962,-21.6999],[-57.9464,-21.7438],[-57.91,-21.7733],[-57.9552,-21.8555],[-57.9202,-21.8726],[-57.9693,-22.0038],[-58.0051,-22.0434],[-57.9802,-22.0855],[-57.9423,-22.0824],[-57.9207,-22.1193],[-57.8663,-22.1311],[-57.8235,-22.1198],[-57.7557,-22.1308],[-57.7407,-22.106],[-57.6873,-22.0901],[-57.6158,-22.0934],[-57.5834,-22.1643],[-57.5525,-22.1782],[-57.4118,-22.196],[-57.3787,-22.2205],[-57.3279,-22.2295],[-57.2897,-22.2172],[-57.2495,-22.2402],[-57.1248,-22.2234],[-57.0988,-22.245],[-56.9998,-22.2227],[-56.99,-22.237],[-56.9098,-22.2551],[-56.8305,-22.2977],[-56.7529,-22.2341],[-56.7177,-22.2522],[-56.6456,-22.245],[-56.5655,-22.19],[-56.5183,-22.1003],[-56.4713,-22.0765],[-56.4027,-22.0747],[-56.38,-22.1465],[-56.3408,-22.2032],[-56.2928,-22.2295],[-56.2474,-22.2372],[-56.2077,-22.2781],[-56.06,-22.2905],[-55.9912,-22.2797],[-55.861,-22.2763],[-55.789,-22.3793],[-55.745,-22.3865],[-55.7332,-22.4305],[-55.7453,-22.481],[-55.7237,-22.5452],[-55.6267,-22.6186],[-55.6121,-22.6557],[-55.6274,-22.7667],[-55.653,-22.7928],[-55.6659,-22.8686],[-55.6499,-22.9131],[-55.6566,-22.9518],[-55.639,-23.0266],[-55.6111,-23.049],[-55.6176,-23.0886],[-55.5893,-23.144],[-55.5388,-23.163],[-55.521,-23.1943],[-55.5193,-23.259],[-55.5485,-23.3142],[-55.5011,-23.3792],[-55.537,-23.4445],[-55.5426,-23.4975],[-55.5245,-23.5651],[-55.5346,-23.611],[-55.4767,-23.6409],[-55.442,-23.7312],[-55.4326,-23.7862],[-55.4451,-23.8096],[-55.4331,-23.8639],[-55.4409,-23.9095],[-55.4119,-23.9586],[-55.3536,-23.9889],[-55.3142,-23.9561],[-55.2303,-24.0086],[-55.1928,-23.9846],[-55.1444,-23.9849],[-55.1115,-23.9602],[-55.0601,-23.9884],[-55.0054,-23.9554],[-54.9318,-23.9615],[-54.9042,-23.9058],[-54.8033,-23.8787],[-54.7593,-23.8543],[-54.7004,-23.8583],[-54.6753,-23.8136],[-54.6403,-23.835],[-54.5729,-23.847],[-54.5612,-23.8765],[-54.4827,-23.8819],[-54.3991,-23.9374],[-54.3667,-23.9972],[-54.3158,-24.0115],[-54.2812,-24.0717],[-54.3306,-24.1482],[-54.3234,-24.2425],[-54.2783,-24.2861],[-54.2607,-24.3282],[-54.2624,-24.3745],[-54.3323,-24.4899],[-54.3351,-24.6464],[-54.4045,-24.8333],[-54.457,-25.0286],[-54.458,-25.108],[-54.436,-25.1545],[-54.496,-25.2774],[-54.5783,-25.3894],[-54.616,-25.4562],[-54.6021,-25.5069],[-54.5956,-25.5921],[-54.4898,-25.6268],[-54.4521,-25.6632],[-54.404,-25.6556],[-54.3816,-25.6021],[-54.3531,-25.6103],[-54.3275,-25.574],[-54.2873,-25.5598],[-54.2594,-25.5949],[-54.2127,-25.5545],[-54.1597,-25.5437],[-54.1288,-25.5666],[-54.1004,-25.6225],[-54.0725,-25.5736],[-53.9874,-25.5786],[-53.9151,-25.6325],[-53.8753,-25.642],[-53.849,-25.7412],[-53.8223,-25.7952],[-53.8496,-25.8396],[-53.8211,-25.9096],[-53.8366,-25.9658],[-53.7182,-26.0732],[-53.7238,-26.1267],[-53.6666,-26.1751],[-53.5918,-26.2649],[-53.6255,-26.3368],[-53.6848,-26.3366],[-53.7064,-26.3959],[-53.686,-26.4415],[-53.7239,-26.555],[-53.7207,-26.5892],[-53.7411,-26.6417],[-53.7147,-26.6664],[-53.7458,-26.7417],[-53.7144,-26.7492],[-53.711,-26.7961],[-53.6642,-26.8681],[-53.6776,-26.9241],[-53.705,-26.943],[-53.7195,-26.9877],[-53.8054,-27.1391],[-53.8449,-27.1598],[-53.9551,-27.1665],[-53.9596,-27.2016],[-54.0126,-27.208],[-54.0183,-27.2438],[-54.0891,-27.3027],[-54.1456,-27.2991],[-54.187,-27.2736],[-54.2162,-27.3816],[-54.2652,-27.4008],[-54.3403,-27.4656],[-54.3688,-27.4594],[-54.4149,-27.4121],[-54.4716,-27.4304],[-54.4496,-27.4765],[-54.5311,-27.5049],[-54.5594,-27.4623],[-54.5842,-27.463],[-54.6204,-27.548],[-54.6564,-27.5203],[-54.6884,-27.5731],[-54.737,-27.5649],[-54.7845,-27.584],[-54.817,-27.5399],[-54.8472,-27.6234],[-54.903,-27.6465],[-54.9039,-27.7215],[-54.9472,-27.78],[-54.9826,-27.7744],[-55.0138,-27.7975],[-55.0469,-27.7728],[-55.0809,-27.7873],[-55.0255,-27.8309],[-55.0319,-27.8539],[-55.1,-27.8476],[-55.1489,-27.8902],[-55.196,-27.8631],[-55.2533,-27.9107],[-55.323,-27.9281],[-55.3439,-27.9726],[-55.3856,-27.9901],[-55.3786,-28.0403],[-55.4537,-28.0965],[-55.4851,-28.0775],[-55.5679,-28.1605],[-55.582,-28.1214],[-55.6926,-28.2153],[-55.7562,-28.2331],[-55.7651,-28.2718],[-55.6886,-28.3117],[-55.6683,-28.3371],[-55.6898,-28.4154],[-55.7696,-28.367],[-55.8677,-28.3538],[-55.9011,-28.4066],[-55.888,-28.4792],[-55.999,-28.5031],[-56.0238,-28.539],[-56.0122,-28.6042],[-56.0597,-28.6327],[-56.1394,-28.7007],[-56.1917,-28.7727],[-56.2843,-28.791],[-56.3039,-28.83],[-56.314,-28.916],[-56.4102,-28.9766],[-56.4015,-29.0207],[-56.4248,-29.0729],[-56.4963,-29.0901],[-56.5973,-29.1267],[-56.6497,-29.2192],[-56.6561,-29.2806],[-56.7084,-29.3619],[-56.7652,-29.3803],[-56.7836,-29.4355],[-56.8287,-29.489],[-56.8891,-29.5185],[-56.9705,-29.6059],[-56.9709,-29.6374],[-57.0194,-29.657],[-57.1045,-29.749],[-57.164,-29.7752],[-57.236,-29.7784],[-57.3183,-29.8676],[-57.3212,-29.9561],[-57.342,-30.0012],[-57.412,-30.0407],[-57.4577,-30.1067],[-57.5048,-30.1431],[-57.6091,-30.179],[-57.5609,-30.2113],[-57.5676,-30.2517],[-57.5007,-30.2892],[-57.4883,-30.2679],[-57.4163,-30.2783],[-57.3977,-30.3045],[-57.3057,-30.264],[-57.284,-30.294],[-57.203,-30.2849],[-57.1683,-30.2494],[-57.168,-30.1981],[-57.1296,-30.1414],[-57.0821,-30.0946],[-57.0316,-30.1024],[-56.9839,-30.0879],[-56.9564,-30.1009],[-56.8505,-30.089],[-56.7797,-30.1275],[-56.7847,-30.151],[-56.7294,-30.1719],[-56.6974,-30.2049],[-56.6619,-30.1977],[-56.6068,-30.2826],[-56.5369,-30.3344],[-56.4916,-30.3974],[-56.4613,-30.3849],[-56.4394,-30.4321],[-56.3818,-30.4996],[-56.2258,-30.5783],[-56.1883,-30.6046],[-56.1505,-30.7048],[-56.0618,-30.7746],[-56.0224,-30.7856],[-55.9896,-30.8585],[-56.0082,-30.8943],[-56.0184,-31.0481],[-56.0071,-31.0751],[-55.9335,-31.0872],[-55.8705,-31.0703],[-55.8135,-31.016],[-55.7807,-31.017],[-55.7038,-30.9553],[-55.6662,-30.954],[-55.6486,-30.923],[-55.6583,-30.864],[-55.5789,-30.8395],[-55.5458,-30.8906],[-55.5101,-30.9018],[-55.4783,-30.9536],[-55.4414,-30.9597],[-55.4373,-31.0047],[-55.3492,-31.0428],[-55.3599,-31.0675],[-55.2501,-31.2061],[-55.2467,-31.2523],[-55.1741,-31.2682],[-55.1523,-31.2933],[-55.0745,-31.3322],[-55.0024,-31.2693],[-54.9829,-31.3115],[-54.9352,-31.3565],[-54.8581,-31.4081],[-54.8367,-31.442],[-54.7391,-31.4256],[-54.6706,-31.4538],[-54.5868,-31.4566],[-54.5758,-31.4814],[-54.5157,-31.5102],[-54.457,-31.6067],[-54.4564,-31.6517],[-54.1583,-31.8735],[-54.1404,-31.8949],[-54.067,-31.923],[-54.0405,-31.8969],[-53.963,-31.923],[-53.9662,-31.9499],[-53.9132,-31.9657],[-53.8069,-32.0702],[-53.746,-32.0785],[-53.7115,-32.1985],[-53.6429,-32.2967],[-53.6333,-32.3503],[-53.6452,-32.3838],[-53.5552,-32.4734],[-53.4709,-32.4807],[-53.4334,-32.5563],[-53.3882,-32.5869],[-53.3345,-32.5843],[-53.2806,-32.6207],[-53.1701,-32.6521],[-53.0942,-32.7242],[-53.1675,-32.7995],[-53.2478,-32.8635],[-53.2985,-32.9484],[-53.4844,-33.0781],[-53.5171,-33.1304],[-53.5315,-33.2077],[-53.5001,-33.3998],[-53.5286,-33.613],[-53.5237,-33.6861],[-53.4395,-33.6935],[-53.4244,-33.7337],[-53.3773,-33.7463],[-53.2599,-33.6671],[-52.802,-33.3049],[-52.7267,-33.2332],[-52.6239,-33.1042],[-52.5026,-32.8821],[-52.4641,-32.7876],[-52.4182,-32.6131],[-52.371,-32.4882],[-52.3079,-32.3631],[-52.2509,-32.2798],[-52.141,-32.1792],[-52.0758,-32.1415],[-51.9689,-32.0318],[-51.8477,-31.9308],[-51.748,-31.87],[-51.6124,-31.8033],[-51.4272,-31.6956],[-51.2675,-31.5786],[-51.2145,-31.5335],[-51.0401,-31.3599],[-50.8791,-31.227],[-50.7538,-31.0921],[-50.6679,-30.9629],[-50.5583,-30.8182],[-50.4649,-30.6807],[-50.374,-30.5629],[-50.3041,-30.4424],[-50.158,-30.0665],[-50.0528,-29.8383],[-49.9764,-29.6972],[-49.9116,-29.5908],[-49.8286,-29.4758],[-49.6264,-29.2154],[-49.4717,-29.0469],[-49.3803,-28.9585],[-49.2443,-28.8451],[-49.1475,-28.7755],[-48.9299,-28.6482],[-48.8278,-28.6066],[-48.7615,-28.5355],[-48.7661,-28.4653],[-48.733,-28.3738],[-48.7082,-28.3423],[-48.6872,-28.2733],[-48.6454,-28.2346],[-48.6625,-28.18],[-48.6319,-28.085],[-48.6062,-28.0523],[-48.6299,-28.0098],[-48.6254,-27.9552],[-48.5753,-27.8923],[-48.5957,-27.8509],[-48.5443,-27.8299],[-48.5347,-27.7966],[-48.4979,-27.795],[-48.4765,-27.7635],[-48.5055,-27.7241],[-48.4274,-27.594],[-48.4257,-27.542],[-48.3757,-27.4806],[-48.4166,-27.3806],[-48.4835,-27.3783],[-48.5263,-27.4083],[-48.5381,-27.3254],[-48.5945,-27.3146],[-48.6155,-27.2717],[-48.6073,-27.2197],[-48.5423,-27.1826],[-48.5132,-27.1848],[-48.4836,-27.1481],[-48.5249,-27.1272],[-48.5504,-27.1571],[-48.5856,-27.1449],[-48.6136,-27.0981],[-48.5918,-27.0803],[-48.5828,-27.0001],[-48.6283,-26.9932],[-48.6265,-26.9333],[-48.6437,-26.9049],[-48.6275,-26.8333],[-48.5841,-26.7955],[-48.6689,-26.7669],[-48.6885,-26.6798],[-48.6788,-26.6203],[-48.6268,-26.4988],[-48.5935,-26.4531],[-48.5976,-26.4221],[-48.5419,-26.3017],[-48.5041,-26.2373],[-48.5276,-26.1638],[-48.5769,-26.1658],[-48.5976,-26.1305],[-48.6089,-26.0365],[-48.5918,-25.9611],[-48.501,-25.7535],[-48.4316,-25.6429],[-48.3583,-25.5859],[-48.3199,-25.5866],[-48.2769,-25.5141],[-48.287,-25.4892],[-48.2469,-25.4654],[-48.2149,-25.4741],[-48.1921,-25.4176],[-48.1449,-25.3549],[-48.0348,-25.2479],[-47.9248,-25.1609],[-47.9024,-25.0657],[-47.8544,-24.9895],[-47.7159,-24.8684],[-47.561,-24.7579],[-47.4248,-24.6851],[-47.245,-24.574],[-47.1408,-24.4895],[-47.0037,-24.4095],[-47.0182,-24.3788],[-47.0025,-24.3373],[-46.9402,-24.2808],[-46.8446,-24.2184],[-46.6351,-24.1045],[-46.4843,-24.0349],[-46.4156,-24.0157],[-46.3717,-23.9749],[-46.3323,-23.9727],[-46.295,-24.016],[-46.2474,-23.9939],[-46.1863,-23.9871],[-46.1284,-23.8441],[-45.9412,-23.7757],[-45.8242,-23.7573],[-45.6436,-23.7776],[-45.6231,-23.8051],[-45.5602,-23.7925],[-45.5026,-23.8426],[-45.467,-23.8191],[-45.432,-23.8295],[-45.3961,-23.8091],[-45.4301,-23.6881],[-45.4223,-23.6421],[-45.3579,-23.6249],[-45.3185,-23.5788],[-45.2851,-23.5723],[-45.2442,-23.5937],[-45.2306,-23.5476],[-45.1602,-23.5],[-45.0834,-23.4961],[-45.0551,-23.4592],[-45.0597,-23.4187],[-44.9493,-23.3786],[-44.908,-23.3341],[-44.8369,-23.3696],[-44.7851,-23.378],[-44.7012,-23.3402],[-44.6401,-23.331],[-44.5994,-23.3592],[-44.5558,-23.3036],[-44.58,-23.2709],[-44.5748,-23.2336],[-44.6249,-23.244],[-44.6589,-23.2214],[-44.6948,-23.2326],[-44.7212,-23.2018],[-44.6983,-23.1745],[-44.691,-23.0828],[-44.6686,-23.0542],[-44.6186,-23.0442],[-44.578,-23.054],[-44.4841,-23.0085],[-44.4505,-23.0174],[-44.4143,-22.9541],[-44.3672,-22.9604],[-44.3399,-22.9222],[-44.3072,-23.0067],[-44.2414,-23.0011],[-44.2014,-23.0383],[-44.1136,-23.0234],[-44.0826,-22.993],[-44.0743,-22.952],[-43.9543,-22.9275],[-43.882,-22.9209],[-43.832,-22.9312],[-43.796,-22.9194],[-43.7006,-22.9857],[-43.6743,-22.9803],[-43.6229,-23.0079],[-43.5616,-23.0582],[-43.3987,-23.0143],[-43.2963,-23.0168],[-43.2408,-23.0004],[-43.1502,-22.9509],[-43.1615,-22.9053],[-43.2108,-22.8976],[-43.2669,-22.8235],[-43.2786,-22.7805],[-43.1947,-22.722],[-43.0846,-22.6797],[-43.0372,-22.7008],[-43.0294,-22.7476],[-43.0638,-22.7648],[-43.0651,-22.8029],[-43.1346,-22.8816],[-43.0946,-22.9208],[-43.1104,-22.9536],[-43.0457,-22.9725],[-42.9177,-22.9749],[-42.8707,-22.9656],[-42.7331,-22.9565],[-42.6047,-22.9338],[-42.3613,-22.9355],[-42.1792,-22.945],[-42.0739,-22.9555],[-42.021,-22.975],[-42.0373,-22.9217],[-41.9823,-22.8714],[-41.9708,-22.8234],[-41.8999,-22.78242]]]]},"properties":{"GID_0":"BRA","ISO_A2":"BR","ISO_A3":"BRA","NAME_EN":"Brazil","NAME_IT":"Brasile"}}
]}