{"type":"FeatureCollection", "features": [
{"type":"Feature","geometry":{"type":"Polygon","coordinates":[[[29.7133,-2.8176],[29.7631,-2.7944],[29.7948,-2.7561],[29.8276,-2.7791],[29.8934,-2.747],[29.9184,-2.7027],[29.9363,-2.6413],[29.9208,-2.5576],[29.9432,-2.5007],[29.9672,-2.4864],[29.962,-2.4145],[29.9441,-2.3644],[29.9592,-2.3269],[30.0469,-2.3629],[30.097,-2.4233],[30.136,-2.4379],[30.1835,-2.4292],[30.1992,-2.3884],[30.2419,-2.3593],[30.3004,-2.3732],[30.374,-2.356],[30.3806,-2.3259],[30.4086,-2.3098],[30.4607,-2.3478],[30.5188,-2.4043],[30.5696,-2.4194],[30.6093,-2.3993],[30.6573,-2.4135],[30.7171,-2.3554],[30.7755,-2.3889],[30.8157,-2.3653],[30.8522,-2.3211],[30.8435,-2.2051],[30.8738,-2.1204],[30.8991,-2.0781],[30.8634,-2.0321],[30.8045,-1.9348],[30.8303,-1.8613],[30.8127,-1.7337],[30.8392,-1.6508],[30.7461,-1.5222],[30.7361,-1.4182],[30.6279,-1.3827],[30.6191,-1.3605],[30.569,-1.3375],[30.5515,-1.2513],[30.5094,-1.1719],[30.4701,-1.1557],[30.4475,-1.0476],[30.4308,-1.0625],[30.3493,-1.0697],[30.3409,-1.1304],[30.3072,-1.145],[30.2926,-1.1896],[30.2537,-1.2207],[30.2192,-1.2662],[30.1619,-1.3187],[30.1668,-1.3465],[30.1181,-1.3843],[30.083,-1.3728],[30.0238,-1.4151],[29.9961,-1.4477],[29.9138,-1.4821],[29.8855,-1.4231],[29.8818,-1.3561],[29.8639,-1.3576],[29.824,-1.3088],[29.7965,-1.3505],[29.7119,-1.3458],[29.6787,-1.3825],[29.5921,-1.3871],[29.5516,-1.4216],[29.5259,-1.4094],[29.45,-1.5061],[29.3939,-1.508],[29.3367,-1.5472],[29.2918,-1.626],[29.2683,-1.629],[29.2435,-1.6688],[29.2443,-1.6988],[29.142,-1.8438],[29.1259,-1.8896],[29.1414,-1.9895],[29.1731,-2.0799],[29.1663,-2.1505],[29.1172,-2.2533],[29.0996,-2.2738],[29.0099,-2.2901],[28.9809,-2.3424],[28.9496,-2.3764],[28.9133,-2.3713],[28.8674,-2.4273],[28.8929,-2.4909],[28.8631,-2.5336],[28.8932,-2.5606],[28.9178,-2.6804],[28.9667,-2.7035],[29.0039,-2.7042],[29.0362,-2.7388],[29.0556,-2.7101],[29.0541,-2.6188],[29.0817,-2.5949],[29.1497,-2.5912],[29.2232,-2.6315],[29.265,-2.6182],[29.326,-2.6534],[29.3552,-2.7317],[29.341,-2.7527],[29.3517,-2.7985],[29.3845,-2.8222],[29.4379,-2.7976],[29.4861,-2.8021],[29.5216,-2.83],[29.5911,-2.808],[29.6162,-2.8102],[29.6602,-2.7877],[29.7133,-2.8176]]]},"properties":{"GID_0":"RWA","ISO_A2":"RW","ISO_A3":"RWA","NAME_EN":"Rwanda","NAME_IT":"Ruanda"}}
]}