{"type":"FeatureCollection", "features": [
{"type":"Feature","geometry":{"type":"MultiPolygon","coordinates":[[[[126.4295,35.4496],[126.4288,35.435],[126.4069,35.4172],[126.4029,35.4046],[126.4125,35.364],[126.3972,35.3692],[126.3785,35.3276],[126.3781,35.3059],[126.3657,35.2871],[126.3378,35.2855],[126.3224,35.2631],[126.3081,35.2509],[126.2968,35.2231],[126.3367,35.1957],[126.3789,35.2087],[126.3672,35.1864],[126.3543,35.1841],[126.3965,35.1344],[126.403,35.1368],[126.4217,35.1071],[126.4457,35.1062],[126.4651,35.1],[126.4565,35.076],[126.4437,35.0585],[126.4181,35.041],[126.4275,35.0274],[126.4035,35.027],[126.4009,35.0419],[126.4088,35.0625],[126.3968,35.076],[126.3701,35.0618],[126.3503,35.0789],[126.3315,35.1049],[126.3446,35.1408],[126.3343,35.1494],[126.3206,35.1275],[126.3074,35.1377],[126.279,35.1357],[126.2638,35.1458],[126.2433,35.1114],[126.2509,35.0967],[126.2097,35.1029],[126.1904,35.1126],[126.1593,35.0988],[126.1654,35.0831],[126.1596,35.072],[126.1825,35.0578],[126.1988,35.063],[126.2226,35.0579],[126.2352,35.0444],[126.2269,35.0233],[126.2561,35.013],[126.2741,35.0383],[126.2607,35.0534],[126.3014,35.0597],[126.3165,35.0705],[126.3164,35.0871],[126.3336,35.0876],[126.3444,35.0691],[126.34,35.0604],[126.3577,35.0425],[126.3807,35.0494],[126.3902,35.0243],[126.3407,34.9974],[126.3549,34.9926],[126.3454,34.9734],[126.3273,34.9669],[126.3104,34.9857],[126.2951,34.9656],[126.3209,34.9435],[126.3297,34.9164],[126.3427,34.9149],[126.3734,34.9415],[126.3701,34.9748],[126.3935,34.9649],[126.3878,34.947],[126.3915,34.9217],[126.405,34.9114],[126.3911,34.891],[126.402,34.8788],[126.395,34.8694],[126.4054,34.857],[126.4008,34.8419],[126.3883,34.8368],[126.3625,34.8063],[126.35,34.7964],[126.3736,34.7798],[126.4012,34.7831],[126.441,34.7993],[126.4498,34.7828],[126.3811,34.7686],[126.3804,34.7526],[126.3606,34.742],[126.3894,34.7304],[126.3689,34.6988],[126.3549,34.6935],[126.3175,34.7508],[126.2988,34.7621],[126.2891,34.76],[126.2746,34.7273],[126.2795,34.7213],[126.2689,34.7017],[126.259,34.7007],[126.2557,34.6674],[126.2684,34.6477],[126.2606,34.6407],[126.2895,34.6207],[126.2799,34.6119],[126.2801,34.5954],[126.312,34.584],[126.3136,34.5676],[126.3342,34.5733],[126.3605,34.5641],[126.3798,34.563],[126.3893,34.5507],[126.39,34.5324],[126.4291,34.5554],[126.4401,34.5382],[126.4568,34.5352],[126.4712,34.5069],[126.4564,34.5016],[126.4556,34.4772],[126.472,34.4685],[126.4562,34.4478],[126.4765,34.427],[126.4844,34.4342],[126.5082,34.4267],[126.5168,34.4142],[126.4891,34.3963],[126.4734,34.3783],[126.4986,34.357],[126.5199,34.3608],[126.5269,34.3344],[126.5123,34.3191],[126.517,34.2964],[126.5445,34.3031],[126.5587,34.3219],[126.5846,34.32],[126.5967,34.3126],[126.6041,34.3311],[126.6028,34.3462],[126.6203,34.3592],[126.622,34.3928],[126.6349,34.412],[126.6571,34.4205],[126.6771,34.4163],[126.6884,34.4343],[126.7018,34.4392],[126.7294,34.447],[126.7479,34.4721],[126.7408,34.4807],[126.7614,34.5028],[126.7584,34.5259],[126.768,34.554],[126.7694,34.5863],[126.7778,34.5948],[126.7933,34.5703],[126.7919,34.5291],[126.7866,34.5127],[126.7975,34.4801],[126.8081,34.4682],[126.8047,34.4566],[126.818,34.4491],[126.8442,34.4516],[126.8559,34.4424],[126.8868,34.4335],[126.8786,34.4494],[126.8891,34.4565],[126.9255,34.4527],[126.979,34.4822],[126.9637,34.4965],[126.9748,34.5102],[126.9891,34.5617],[126.9835,34.5755],[126.9926,34.5828],[126.9995,34.6048],[126.9951,34.6209],[127.0461,34.635],[127.0667,34.6632],[127.0831,34.6654],[127.1068,34.6774],[127.1144,34.6934],[127.1353,34.7016],[127.1433,34.6932],[127.1777,34.6918],[127.1977,34.7063],[127.2113,34.7309],[127.209,34.7376],[127.2293,34.7576],[127.2438,34.7592],[127.2599,34.7332],[127.2721,34.7417],[127.2945,34.7327],[127.3038,34.7497],[127.3269,34.7518],[127.3329,34.7148],[127.3303,34.6988],[127.3055,34.6675],[127.2848,34.6667],[127.2776,34.6745],[127.2852,34.6911],[127.2746,34.7162],[127.2627,34.7156],[127.2396,34.6972],[127.2278,34.6547],[127.1893,34.6434],[127.1729,34.6271],[127.1721,34.5958],[127.1506,34.594],[127.136,34.5736],[127.1141,34.5595],[127.1215,34.5304],[127.1511,34.5211],[127.1948,34.5324],[127.208,34.5208],[127.2253,34.5263],[127.2553,34.5208],[127.2835,34.4974],[127.2688,34.4818],[127.3009,34.4707],[127.3216,34.4415],[127.3379,34.4455],[127.3373,34.457],[127.3191,34.4677],[127.3339,34.4792],[127.3535,34.4836],[127.3742,34.4812],[127.3913,34.4886],[127.3761,34.5037],[127.4046,34.5063],[127.4057,34.518],[127.4234,34.5288],[127.4332,34.5523],[127.3963,34.5596],[127.4042,34.569],[127.394,34.5809],[127.4008,34.5896],[127.4451,34.577],[127.457,34.5843],[127.4757,34.5743],[127.5057,34.5948],[127.4972,34.6151],[127.4964,34.6319],[127.4742,34.6352],[127.4809,34.6512],[127.3907,34.7111],[127.3729,34.7415],[127.3968,34.7568],[127.4004,34.771],[127.3857,34.7746],[127.3949,34.7905],[127.4185,34.8113],[127.4008,34.8251],[127.467,34.8447],[127.4922,34.8476],[127.4927,34.8756],[127.5128,34.8732],[127.5259,34.8452],[127.5428,34.8403],[127.526,34.8225],[127.5233,34.8101],[127.5606,34.8025],[127.5791,34.7613],[127.5941,34.7485],[127.5762,34.7315],[127.555,34.7186],[127.5505,34.682],[127.5588,34.6593],[127.5747,34.648],[127.5884,34.6519],[127.6332,34.6362],[127.6373,34.6488],[127.6331,34.6701],[127.6138,34.7069],[127.6397,34.7143],[127.6581,34.7556],[127.6823,34.7324],[127.7046,34.7205],[127.7495,34.7361],[127.7544,34.7634],[127.7457,34.7748],[127.7569,34.7868],[127.7662,34.8092],[127.7678,34.8313],[127.7762,34.8561],[127.7638,34.8634],[127.6986,34.8592],[127.6704,34.8371],[127.6616,34.8446],[127.6362,34.8281],[127.6132,34.8544],[127.5897,34.8746],[127.6133,34.8921],[127.5907,34.9187],[127.6142,34.9188],[127.6393,34.8838],[127.671,34.9031],[127.663,34.9109],[127.6723,34.9315],[127.6959,34.919],[127.7011,34.9319],[127.7107,34.9356],[127.7311,34.9549],[127.7419,34.9523],[127.7476,34.9335],[127.7685,34.9338],[127.7677,34.9538],[127.792,34.9402],[127.7953,34.9306],[127.822,34.9457],[127.8441,34.9526],[127.8634,34.947],[127.8965,34.9561],[127.9016,34.9721],[127.9171,34.9886],[127.9227,35.0142],[127.9412,35.0014],[127.9349,34.9815],[127.9567,34.9845],[127.9728,34.993],[127.9827,34.9758],[127.9975,34.996],[128.0147,34.9917],[128.0199,35.0046],[128.009,35.0221],[127.9943,35.032],[128.0027,35.0425],[128.0218,35.0307],[128.0309,35.0496],[128.0505,35.0161],[128.0393,34.9926],[128.051,34.9704],[128.0338,34.9585],[128.0402,34.9413],[128.0547,34.9287],[128.0957,34.9264],[128.1111,34.9027],[128.1777,34.9003],[128.2022,34.894],[128.1963,34.9117],[128.2036,34.9251],[128.197,34.9372],[128.2228,34.9463],[128.2677,34.9389],[128.2613,34.9271],[128.276,34.9099],[128.3017,34.9198],[128.2993,34.9359],[128.3199,34.9445],[128.3443,34.9399],[128.3438,34.9257],[128.3545,34.908],[128.3086,34.9088],[128.2982,34.9024],[128.3107,34.8874],[128.3633,34.87],[128.382,34.8791],[128.3968,34.8629],[128.3783,34.8516],[128.3959,34.8296],[128.4182,34.8398],[128.4522,34.8465],[128.4469,34.8637],[128.4667,34.8772],[128.4605,34.905],[128.446,34.9059],[128.4389,34.893],[128.4235,34.8838],[128.4177,34.9102],[128.4298,34.9211],[128.4313,34.957],[128.4438,34.9685],[128.4343,34.9851],[128.4637,34.9879],[128.4922,35.0054],[128.4997,35.0214],[128.4813,35.0286],[128.4787,35.0661],[128.4603,35.0632],[128.4294,35.045],[128.4093,35.0432],[128.3748,35.03],[128.3734,35.0495],[128.4028,35.0579],[128.432,35.0576],[128.4406,35.0702],[128.4656,35.0796],[128.4611,35.0896],[128.4709,35.0982],[128.4958,35.1068],[128.5178,35.098],[128.5336,35.1159],[128.5488,35.1073],[128.5502,35.0968],[128.5769,35.0906],[128.5629,35.0757],[128.5799,35.0669],[128.5736,35.0538],[128.6016,35.0563],[128.6245,35.084],[128.6011,35.1039],[128.5974,35.1423],[128.5798,35.1727],[128.5645,35.1867],[128.5865,35.2107],[128.5931,35.1735],[128.6087,35.158],[128.6188,35.1359],[128.6297,35.1488],[128.6445,35.1356],[128.6589,35.1369],[128.6663,35.1185],[128.6934,35.133],[128.7031,35.1058],[128.7152,35.1043],[128.7402,35.083],[128.7636,35.0775],[128.7714,35.0629],[128.7847,35.0777],[128.8324,35.0776],[128.7952,35.0597],[128.8124,35.0397],[128.811,35.0212],[128.8346,35.0109],[128.8512,35.042],[128.8458,35.0595],[128.8326,35.0579],[128.8401,35.0832],[128.8841,35.0793],[128.8895,35.1078],[128.9006,35.1114],[128.8952,35.0789],[128.9302,35.0927],[128.9503,35.0818],[128.9593,35.0486],[128.9954,35.0634],[129.0213,35.0697],[129.0264,35.0957],[129.0379,35.0971],[129.0561,35.118],[129.0738,35.1168],[129.075,35.1036],[129.0904,35.1036],[129.0996,35.0912],[129.129,35.1182],[129.1178,35.1321],[129.1181,35.1523],[129.1944,35.1602],[129.2009,35.1794],[129.2241,35.1859],[129.2301,35.2041],[129.2534,35.2465],[129.2521,35.2711],[129.2592,35.2843],[129.2579,35.3057],[129.2647,35.3191],[129.2826,35.3267],[129.2992,35.3184],[129.3222,35.3462],[129.3352,35.3559],[129.3578,35.3551],[129.3614,35.3632],[129.3451,35.375],[129.3466,35.3899],[129.3626,35.4065],[129.3714,35.4353],[129.3545,35.4592],[129.3748,35.4624],[129.3958,35.5012],[129.4154,35.48],[129.4424,35.501],[129.4459,35.5224],[129.4584,35.5531],[129.4527,35.5784],[129.4647,35.5864],[129.4628,35.6069],[129.4435,35.6256],[129.4416,35.6446],[129.454,35.6646],[129.4652,35.6668],[129.4762,35.6928],[129.4732,35.7051],[129.4863,35.7298],[129.4839,35.7435],[129.4941,35.7527],[129.4966,35.7716],[129.4916,35.7878],[129.5128,35.817],[129.5101,35.826],[129.5273,35.8637],[129.5188,35.8737],[129.5293,35.8835],[129.5275,35.9049],[129.5191,35.929],[129.532,35.9363],[129.5544,35.9682],[129.5519,35.9856],[129.5844,36.0165],[129.5776,36.0267],[129.5753,36.0623],[129.5556,36.0861],[129.5472,36.0849],[129.5335,36.0579],[129.5253,36.058],[129.5048,36.0371],[129.5032,36.0257],[129.4588,36.0034],[129.4436,35.9921],[129.4226,36.0004],[129.3858,36.0285],[129.3762,36.0519],[129.3835,36.0633],[129.418,36.0737],[129.4177,36.0856],[129.4396,36.0973],[129.4397,36.1106],[129.4258,36.1138],[129.398,36.1346],[129.4005,36.1537],[129.3934,36.1814],[129.3727,36.1968],[129.3857,36.2143],[129.3822,36.2413],[129.3729,36.2551],[129.3784,36.2776],[129.3746,36.2882],[129.3818,36.3222],[129.3793,36.333],[129.3948,36.3675],[129.4294,36.409],[129.4375,36.4656],[129.4343,36.4835],[129.4467,36.5043],[129.4392,36.5371],[129.4403,36.5523],[129.4217,36.5707],[129.4102,36.5959],[129.4163,36.6034],[129.4121,36.6224],[129.4378,36.6705],[129.4649,36.6866],[129.4755,36.7013],[129.477,36.7279],[129.468,36.7574],[129.478,36.7683],[129.4623,36.7886],[129.4571,36.8143],[129.4479,36.8278],[129.4277,36.8509],[129.4201,36.8681],[129.4192,36.8924],[129.4196,36.9511],[129.408,36.9797],[129.4165,36.991],[129.4102,37.0308],[129.4151,37.0533],[129.4251,37.0539],[129.4268,37.0642],[129.3962,37.0834],[129.3788,37.102],[129.3713,37.136],[129.3476,37.1769],[129.341,37.2216],[129.3501,37.2389],[129.3277,37.2634],[129.3291,37.2804],[129.3004,37.2929],[129.2887,37.3095],[129.2704,37.3215],[129.267,37.3433],[129.2508,37.363],[129.2513,37.3804],[129.2222,37.3962],[129.1976,37.4158],[129.1881,37.4387],[129.19,37.4514],[129.1597,37.4757],[129.1229,37.5191],[129.1122,37.5494],[129.1218,37.5579],[129.115,37.5789],[129.0542,37.6214],[129.0443,37.6432],[129.057,37.6587],[129.0554,37.6754],[129.0165,37.7051],[128.9959,37.7256],[128.9888,37.74],[128.8792,37.8294],[128.8772,37.841],[128.8513,37.8617],[128.8302,37.8842],[128.8343,37.8995],[128.7922,37.9316],[128.7632,37.9663],[128.7603,37.9794],[128.7306,38.0071],[128.7276,38.022],[128.7047,38.0389],[128.6761,38.067],[128.6748,38.0809],[128.6354,38.1166],[128.6088,38.1501],[128.6094,38.1835],[128.598,38.1974],[128.6027,38.2077],[128.5603,38.2579],[128.5471,38.2912],[128.5488,38.3031],[128.5286,38.3213],[128.5287,38.3325],[128.5128,38.3473],[128.5128,38.3686],[128.4762,38.4052],[128.4567,38.4316],[128.467,38.4501],[128.4403,38.4757],[128.4184,38.5128],[128.4186,38.5236],[128.4051,38.5445],[128.4019,38.5647],[128.372,38.5906],[128.3585,38.6118],[128.3151,38.5863],[128.315,38.5533],[128.3198,38.5059],[128.3097,38.4847],[128.3121,38.4727],[128.2892,38.4344],[128.2493,38.4037],[128.2307,38.3941],[128.2125,38.3701],[128.1994,38.369],[128.1761,38.3561],[128.1377,38.3283],[128.1098,38.3292],[128.0783,38.3088],[128.047,38.305],[128.0181,38.3117],[128.0074,38.2791],[127.9918,38.2787],[127.9582,38.3002],[127.9268,38.3094],[127.8885,38.3088],[127.8784,38.3133],[127.8335,38.3004],[127.8217,38.3038],[127.7973,38.3231],[127.7888,38.3388],[127.7638,38.3275],[127.7026,38.3299],[127.6818,38.319],[127.6537,38.3246],[127.6136,38.3211],[127.5861,38.3331],[127.5551,38.3246],[127.5038,38.2982],[127.452,38.3166],[127.4353,38.3153],[127.4113,38.3287],[127.3905,38.332],[127.3597,38.3217],[127.3376,38.3218],[127.3256,38.3139],[127.2918,38.313],[127.2749,38.3229],[127.2387,38.3273],[127.2072,38.3125],[127.168,38.3018],[127.1394,38.3072],[127.0769,38.2733],[127.0166,38.2374],[127.0118,38.2277],[126.9756,38.1997],[126.9671,38.1866],[126.962,38.1579],[126.9649,38.1381],[126.9379,38.127],[126.8922,38.0992],[126.8743,38.0809],[126.8554,38.0321],[126.8065,37.9925],[126.778,37.9635],[126.7415,37.9625],[126.6829,37.9453],[126.6953,37.9113],[126.6901,37.8981],[126.6921,37.8685],[126.6787,37.8359],[126.6671,37.7851],[126.6626,37.7807],[126.6255,37.7791],[126.6028,37.7629],[126.5753,37.7627],[126.5228,37.7901],[126.517,37.771],[126.53,37.7412],[126.5216,37.7144],[126.5314,37.7038],[126.534,37.6854],[126.5268,37.6743],[126.5442,37.6629],[126.5316,37.6545],[126.5473,37.6343],[126.5549,37.6082],[126.5726,37.5989],[126.5748,37.5883],[126.5965,37.5486],[126.6063,37.4863],[126.5951,37.4701],[126.5943,37.4383],[126.6142,37.4374],[126.5982,37.4161],[126.6097,37.4162],[126.6099,37.3871],[126.6163,37.3794],[126.6544,37.3559],[126.6471,37.3489],[126.6219,37.3546],[126.5829,37.3548],[126.595,37.3433],[126.6405,37.342],[126.6646,37.35],[126.6956,37.3832],[126.7213,37.3825],[126.7442,37.4025],[126.7638,37.3993],[126.7665,37.395],[126.7785,37.3937],[126.7801,37.3952],[126.7848,37.3922],[126.7860236409608,37.402890265486725],[126.7895,37.3955],[126.7843,37.3916],[126.7799,37.3948],[126.777,37.3919],[126.7728,37.3941],[126.7643,37.3941],[126.7438,37.3983],[126.7007,37.3548],[126.6885,37.3488],[126.6913,37.3358],[126.6073,37.3132],[126.5779,37.2931],[126.5586,37.2668],[126.561,37.2423],[126.5444,37.2334],[126.5446,37.206],[126.5606,37.1984],[126.5767,37.2192],[126.60408181818181,37.21017272727271],[126.6264,37.2191],[126.6468,37.211],[126.6546,37.2251],[126.6252,37.2678],[126.6098,37.2794],[126.5858,37.291],[126.6162,37.3138],[126.6712,37.329],[126.6764,37.3202],[126.7676,37.2925],[126.8013,37.2956],[126.8041,37.2768],[126.7907,37.2671],[126.7896,37.2441],[126.7563,37.2543],[126.7157,37.2552],[126.698,37.2611],[126.6772,37.2595],[126.672,37.2732],[126.6576,37.2828],[126.6464,37.2581],[126.6478,37.244],[126.6609,37.2209],[126.6546,37.1981],[126.6664,37.1915],[126.6579,37.1539],[126.6824,37.1605],[126.6757,37.1383],[126.684,37.1121],[126.7567,37.0555],[126.7453,37.038],[126.7494,37.0302],[126.7894,37.0297],[126.7976,37.0141],[126.7789,37.0074],[126.7892,36.995],[126.8093,36.9959],[126.8248,36.9824],[126.8496,36.9465],[126.8626,36.9488],[126.8674,36.9333],[126.8871,36.9363],[126.9037,36.9245],[126.9112,36.8926],[126.8628,36.88],[126.8268,36.8885],[126.8173,36.8965],[126.8111,36.927],[126.8025,36.9246],[126.7797,36.9668],[126.7826,36.9752],[126.75,36.9871],[126.7417,36.985],[126.6948,37.0004],[126.6839,36.998],[126.6331,37.0017],[126.5837,37.0227],[126.5419,37.0351],[126.5275,37.0436],[126.5191,37.0594],[126.4983,37.0649],[126.4891,37.0595],[126.4636,37.0176],[126.4702,37.0068],[126.4365,37.0077],[126.4311,37.0137],[126.3834,37.0122],[126.3323,36.9967],[126.3308,36.9853],[126.3798,36.9801],[126.3704,36.9603],[126.3502,36.9614],[126.3823,36.9365],[126.4086,36.936],[126.4201,36.9268],[126.4107,36.9082],[126.4218,36.899],[126.3952,36.8875],[126.3645,36.8765],[126.3704,36.8576],[126.3583,36.8491],[126.3477,36.8608],[126.3325,36.8635],[126.3247,36.8478],[126.3281,36.8147],[126.3048,36.8147],[126.2868,36.8232],[126.3146,36.8323],[126.2946,36.842],[126.318,36.887],[126.3193,36.9033],[126.3003,36.9193],[126.3096,36.9296],[126.3017,36.9424],[126.3102,36.9562],[126.3017,36.9779],[126.2847,36.9633],[126.2942,36.9293],[126.2765,36.8978],[126.248,36.9095],[126.2032,36.9005],[126.1903,36.8674],[126.1985,36.8557],[126.1754,36.8324],[126.1881,36.824],[126.1719,36.8117],[126.1656,36.8403],[126.1458,36.7911],[126.1219,36.7645],[126.1221,36.7531],[126.1415,36.7242],[126.1521,36.7362],[126.156,36.7566],[126.185,36.7533],[126.1963,36.7383],[126.2229,36.722],[126.2177,36.7108],[126.1945,36.7064],[126.1661,36.7166],[126.1509,36.7051],[126.1556,36.6778],[126.1891,36.6755],[126.2092,36.6931],[126.2306,36.695],[126.235,36.7181],[126.2737,36.7199],[126.2731,36.7035],[126.2613,36.6939],[126.2655,36.6716],[126.2843,36.6717],[126.301,36.6384],[126.3012,36.6266],[126.2888,36.6151],[126.2922,36.5848],[126.3321,36.6102],[126.3657,36.6269],[126.4142,36.615],[126.4161,36.6087],[126.4553,36.5954],[126.4714,36.5596],[126.4644,36.5484],[126.4881,36.5265],[126.4821,36.5161],[126.4811,36.4776],[126.49,36.4684],[126.4867,36.4548],[126.5002,36.4449],[126.4798,36.3848],[126.5097,36.3811],[126.5458,36.355],[126.5433,36.3389],[126.5198,36.3353],[126.5034,36.3247],[126.5182,36.3012],[126.5282,36.2971],[126.5481,36.2651],[126.529,36.2383],[126.5365,36.2017],[126.5237,36.1853],[126.5239,36.1519],[126.539,36.1479],[126.5597,36.1295],[126.5762,36.1383],[126.5932,36.1268],[126.6076,36.1006],[126.6317,36.0993],[126.6312,36.0547],[126.6446,36.0568],[126.6687,36.0312],[126.6612,36.0114],[126.7365,36.0004],[126.7341,35.9851],[126.706,35.9947],[126.6834,35.9842],[126.6409,35.9789],[126.5258,35.9736],[126.5218,35.948],[126.5344,35.934],[126.5648,35.9362],[126.5715,35.9198],[126.5879,35.9208],[126.588,35.9478],[126.616,35.9425],[126.6109,35.9129],[126.6148,35.8912],[126.6408,35.8844],[126.6675,35.8836],[126.6765,35.8699],[126.6834,35.842],[126.7068,35.7965],[126.6528,35.7919],[126.6315,35.7995],[126.6214,35.7869],[126.6286,35.7491],[126.6112,35.736],[126.5974,35.7146],[126.569,35.6928],[126.5582,35.6982],[126.5333,35.69],[126.5266,35.6774],[126.4669,35.6348],[126.478,35.6023],[126.4919,35.5859],[126.5108,35.579],[126.5752,35.5904],[126.6206,35.5884],[126.6512,35.5806],[126.614,35.5704],[126.5945,35.541],[126.5812,35.5446],[126.5475,35.5346],[126.5264,35.5348],[126.4848,35.5222],[126.4625,35.4841],[126.4391,35.4503],[126.4295,35.4496]],[[126.4629,34.7095],[126.3883,34.7258],[126.4138,34.7312],[126.4255,34.7442],[126.4568,34.7281],[126.4781,34.7351],[126.4629,34.7095]],[[126.7888,37.1738],[126.795,37.1716],[126.8014,37.1384],[126.7689,37.1273],[126.7583,37.1114],[126.7708,37.1016],[126.7568,37.056],[126.6861,37.1116],[126.7269,37.1387],[126.7416,37.153],[126.7472,37.1676],[126.7775,37.1652],[126.7888,37.1738]],[[126.5412,36.4504],[126.5248,36.4516],[126.5454,36.4723],[126.5671,36.4704],[126.5655,36.4521],[126.5412,36.4504]]],[[[126.9624,33.5189],[126.9409,33.5066],[126.9433,33.4948],[126.9639,33.4892],[126.9708,33.5025],[126.9624,33.5189]]],[[[126.3384,33.9529],[126.3137,33.9549],[126.3252,33.9352],[126.3384,33.9529]]],[[[126.9265,33.989],[126.9092,33.9799],[126.9141,33.97],[126.9333,33.9687],[126.9265,33.989]]],[[[126.5317,33.5213],[126.5146,33.5158],[126.4942,33.5209],[126.4834,33.5111],[126.4662,33.5086],[126.4516,33.4973],[126.4104,33.49],[126.3857,33.4893],[126.3689,33.4784],[126.3216,33.4665],[126.2921,33.4435],[126.2614,33.4342],[126.2642,33.4237],[126.2503,33.4011],[126.2232,33.39],[126.2133,33.375],[126.1829,33.3585],[126.1804,33.347],[126.1615,33.3341],[126.1684,33.3166],[126.1623,33.2866],[126.1823,33.2597],[126.2025,33.2455],[126.2336,33.2349],[126.241,33.2215],[126.2632,33.2094],[126.2704,33.1942],[126.2903,33.2054],[126.2979,33.2227],[126.3277,33.2408],[126.3559,33.2361],[126.3667,33.2289],[126.4086,33.2446],[126.4341,33.2349],[126.4499,33.2411],[126.4728,33.223],[126.4913,33.2325],[126.5105,33.2304],[126.5209,33.2409],[126.5586,33.2383],[126.5778,33.2448],[126.5999,33.2345],[126.6183,33.2415],[126.6482,33.2685],[126.6858,33.2694],[126.7398,33.2775],[126.7647,33.2919],[126.7778,33.3068],[126.8078,33.3018],[126.8358,33.3089],[126.8684,33.354],[126.8674,33.3638],[126.8835,33.3835],[126.9065,33.3915],[126.9083,33.4064],[126.9317,33.464],[126.902,33.4818],[126.9128,33.5071],[126.9018,33.5153],[126.8928,33.5269],[126.8714,33.5307],[126.8587,33.5255],[126.8287,33.5431],[126.8249,33.5587],[126.7981,33.5553],[126.7793,33.5647],[126.7619,33.5588],[126.7299,33.5608],[126.6671,33.5428],[126.6447,33.5556],[126.6345,33.536],[126.5975,33.5377],[126.585,33.5254],[126.5317,33.5213]]],[[[125.1016,34.0952],[125.095,34.0699],[125.1109,34.065],[125.1164,34.0521],[125.1338,34.0484],[125.139,34.0587],[125.1016,34.0952]]],[[[126.5545,34.175],[126.5397,34.1821],[126.5051,34.1604],[126.5046,34.1386],[126.5259,34.1217],[126.5431,34.1256],[126.5652,34.1437],[126.5763,34.145],[126.5834,34.1699],[126.5545,34.175]]],[[[126.6549,34.1978],[126.6403,34.1818],[126.6521,34.1701],[126.6406,34.1609],[126.6335,34.1422],[126.6584,34.1146],[126.6695,34.121],[126.6829,34.1486],[126.6684,34.1617],[126.6847,34.1816],[126.6549,34.1978]]],[[[126.7686,34.2006],[126.7549,34.208],[126.7497,34.1874],[126.7619,34.1774],[126.7686,34.2006]]],[[[126.8922,34.2163],[126.8762,34.2131],[126.8471,34.1743],[126.8595,34.1615],[126.8812,34.1552],[126.9149,34.1536],[126.9248,34.1751],[126.9209,34.1855],[126.8922,34.2163]]],[[[126.5679,34.2338],[126.5566,34.1949],[126.5613,34.1789],[126.5877,34.1727],[126.6237,34.2065],[126.6066,34.2244],[126.589,34.2227],[126.5679,34.2338]]],[[[127.258,34.2434],[127.2338,34.2367],[127.2409,34.2191],[127.2535,34.2122],[127.258,34.2434]]],[[[126.6215,34.2449],[126.6051,34.2494],[126.5931,34.235],[126.6131,34.2331],[126.6215,34.2449]]],[[[126.4313,36.378],[126.4094,36.3723],[126.4394,36.36],[126.4313,36.378]]],[[[126.3748,36.5966],[126.3599,36.6124],[126.3387,36.6078],[126.3116,36.5854],[126.3142,36.5711],[126.3277,36.5549],[126.3279,36.5123],[126.3361,36.5038],[126.3289,36.4748],[126.335,36.4416],[126.3575,36.4394],[126.3542,36.4276],[126.3717,36.4111],[126.39,36.4219],[126.4181,36.406],[126.4339,36.4181],[126.4087,36.4746],[126.4034,36.4987],[126.3749,36.542],[126.3748,36.5966]]],[[[126.4273,37.0611],[126.4227,37.0431],[126.4499,37.044],[126.4499,37.0546],[126.4273,37.0611]]],[[[126.3101,35.6177],[126.2939,35.6043],[126.2756,35.6043],[126.2708,35.5901],[126.2791,35.5794],[126.3112,35.6038],[126.3101,35.6177]]],[[[130.9134,37.5185],[130.9086,37.5474],[130.8919,37.5411],[130.845,37.5354],[130.8135,37.5224],[130.7916,37.5183],[130.8049,37.5039],[130.8019,37.4846],[130.81,37.4749],[130.843,37.4628],[130.8684,37.4589],[130.8961,37.4758],[130.9157,37.4825],[130.9101,37.4971],[130.9134,37.5185]]],[[[124.7048,37.9837],[124.6829,37.9817],[124.6406,37.9687],[124.6217,37.9778],[124.6097,37.97],[124.6258,37.9544],[124.6394,37.9239],[124.6801,37.923],[124.6913,37.9166],[124.7079,37.9446],[124.7301,37.9545],[124.7298,37.9781],[124.7048,37.9837]]],[[[124.717,37.8132],[124.7143,37.8323],[124.6893,37.8374],[124.6765,37.8198],[124.7028,37.8047],[124.717,37.8132]]],[[[126.0889,37.0964],[126.0669,37.1036],[126.0684,37.0831],[126.0889,37.0964]]],[[[126.4222,37.4004],[126.4079,37.4125],[126.4003,37.3957],[126.4068,37.3727],[126.4162,37.3648],[126.4338,37.3688],[126.4417,37.385],[126.4222,37.4004]]],[[[126.4189,37.4219],[126.4418,37.4207],[126.4854,37.4445],[126.5063,37.4657],[126.5345,37.4753],[126.5645,37.4794],[126.5824,37.4892],[126.5639,37.5148],[126.5249,37.5249],[126.512,37.534],[126.4985,37.5302],[126.4937,37.5075],[126.4738,37.4991],[126.4183,37.497],[126.3732,37.4719],[126.3553,37.4674],[126.3716,37.4455],[126.3951,37.4461],[126.4133,37.4352],[126.4189,37.4219]]],[[[126.4713,37.5375],[126.4616,37.5444],[126.434,37.5265],[126.4591,37.5168],[126.4713,37.5375]]],[[[126.5771,37.5378],[126.5667,37.5406],[126.5516,37.5283],[126.5753,37.5212],[126.5771,37.5378]]],[[[126.1974,37.679],[126.1747,37.6768],[126.1945,37.6594],[126.2099,37.6667],[126.1974,37.679]]],[[[125.7165,37.6744],[125.6924,37.6763],[125.6932,37.6542],[125.7165,37.6744]]],[[[126.3283,37.7447],[126.3194,37.7524],[126.289,37.7422],[126.2888,37.6953],[126.3147,37.6851],[126.3287,37.6702],[126.3246,37.6595],[126.3377,37.6448],[126.3732,37.6658],[126.379,37.6823],[126.3663,37.6946],[126.3429,37.6975],[126.3194,37.7126],[126.3209,37.737],[126.3283,37.7447]]],[[[126.4617,37.5893],[126.4886,37.6005],[126.5173,37.58],[126.5146,37.5999],[126.5343,37.6139],[126.5311,37.636],[126.5223,37.6533],[126.5322,37.6651],[126.5169,37.6747],[126.5209,37.6964],[126.5125,37.717],[126.5265,37.7473],[126.5114,37.7626],[126.5059,37.7833],[126.4877,37.7898],[126.4506,37.8121],[126.4359,37.8296],[126.4139,37.8219],[126.3925,37.8232],[126.387,37.8071],[126.3506,37.7917],[126.3555,37.7623],[126.3519,37.7401],[126.3552,37.7069],[126.3855,37.7],[126.4035,37.676],[126.4107,37.6506],[126.3998,37.6412],[126.3778,37.6367],[126.3774,37.6157],[126.4032,37.5942],[126.4564,37.5934],[126.4617,37.5893]]],[[[126.2859,37.8068],[126.2664,37.8153],[126.2405,37.8173],[126.2232,37.805],[126.2222,37.7869],[126.2076,37.7683],[126.2328,37.7511],[126.2483,37.7656],[126.2721,37.7691],[126.2927,37.7648],[126.315,37.7737],[126.3334,37.7969],[126.2859,37.8068]]],[[[126.1081,37.2723],[126.09,37.2478],[126.0919,37.2315],[126.1145,37.2205],[126.1173,37.2092],[126.1441,37.2151],[126.1436,37.2225],[126.1658,37.2326],[126.1119,37.2577],[126.1081,37.2723]]],[[[126.2882,37.271],[126.2918,37.256],[126.3307,37.2457],[126.3418,37.2501],[126.2882,37.271]]],[[[126.4821,37.2442],[126.4855,37.2592],[126.5018,37.2581],[126.4878,37.2832],[126.4545,37.2832],[126.4298,37.2563],[126.4314,37.2347],[126.4602,37.2274],[126.4821,37.2442]]],[[[126.2491,35.0067],[126.2495,34.9804],[126.2706,34.9761],[126.2643,35.0027],[126.2491,35.0067]]],[[[128.6537,35.0112],[128.631,35.0086],[128.6343,34.9987],[128.6218,34.986],[128.6442,34.9788],[128.6463,35],[128.6537,35.0112]]],[[[126.1635,34.9629],[126.178,34.9781],[126.178,34.9965],[126.1657,35.0035],[126.1542,35.0228],[126.1308,35.0231],[126.1069,35.0049],[126.1197,34.9966],[126.1329,35.0016],[126.1364,34.9664],[126.1622,34.9716],[126.1635,34.9629]]],[[[126.023,35.3634],[126.0213,35.336],[126.0414,35.3464],[126.023,35.3634]]],[[[126.1524,35.2903],[126.1331,35.2816],[126.1502,35.2716],[126.1524,35.2903]]],[[[129.0834,35.0848],[129.0593,35.101],[129.0312,35.0937],[129.0344,35.085],[129.0651,35.0614],[129.0879,35.0627],[129.0834,35.0848]]],[[[128.9528,35.0559],[128.9444,35.0746],[128.9302,35.0583],[128.9528,35.0559]]],[[[126.1604,35.0556],[126.1451,35.0594],[126.1337,35.0516],[126.1487,35.0335],[126.1975,35.0189],[126.2007,35.0389],[126.1803,35.052],[126.1604,35.0556]]],[[[126.0556,35.0752],[126.0788,35.056],[126.0947,35.0514],[126.111,35.0608],[126.1224,35.0771],[126.1172,35.1159],[126.1244,35.1347],[126.1176,35.1405],[126.089,35.1132],[126.056,35.0958],[126.0422,35.0846],[126.0556,35.0752]]],[[[126.0294,34.3415],[125.9968,34.3247],[126.038,34.3225],[126.0534,34.3317],[126.0294,34.3415]]],[[[126.0456,34.3094],[126.0291,34.3097],[126.0277,34.2903],[126.0487,34.2838],[126.0659,34.2889],[126.0845,34.2798],[126.0926,34.289],[126.0806,34.3076],[126.0544,34.3041],[126.0456,34.3094]]],[[[126.9875,34.337],[126.9686,34.3372],[126.9573,34.3154],[126.978,34.3063],[127.0033,34.3142],[127.0138,34.3303],[126.9875,34.337]]],[[[127.8032,34.4552],[127.7851,34.4302],[127.786,34.4183],[127.8079,34.4169],[127.8091,34.4496],[127.8032,34.4552]]],[[[127.2213,34.4944],[127.1989,34.4879],[127.1888,34.4939],[127.1631,34.4801],[127.1363,34.4729],[127.1169,34.4802],[127.0966,34.4684],[127.1064,34.4548],[127.0993,34.4432],[127.1371,34.4283],[127.1672,34.4352],[127.2085,34.4294],[127.2179,34.4372],[127.222,34.4552],[127.235,34.4758],[127.2213,34.4944]]],[[[126.0639,34.493],[126.045,34.4916],[126.0387,34.4759],[126.0471,34.4653],[126.0705,34.4813],[126.0639,34.493]]],[[[127.4678,34.5438],[127.4484,34.5383],[127.443,34.5271],[127.4585,34.5024],[127.4409,34.4928],[127.4526,34.4786],[127.4696,34.4866],[127.4969,34.4851],[127.5018,34.4949],[127.4911,34.5082],[127.4649,34.5082],[127.4788,34.5362],[127.4678,34.5438]]],[[[127.7692,34.5302],[127.7578,34.5515],[127.7255,34.5489],[127.7114,34.5303],[127.7348,34.5031],[127.7623,34.4992],[127.7713,34.4874],[127.7903,34.487],[127.7932,34.5019],[127.7811,34.5076],[127.7692,34.5302]]],[[[126.9493,34.4014],[126.935,34.3917],[126.8716,34.4001],[126.8637,34.3734],[126.8885,34.3653],[126.9083,34.3533],[126.9286,34.3703],[126.9479,34.3678],[126.942,34.3865],[126.9493,34.4014]]],[[[126.8353,34.3177],[126.8418,34.299],[126.8794,34.3262],[126.8754,34.3476],[126.848,34.3443],[126.8348,34.3587],[126.8017,34.3336],[126.787,34.3461],[126.7781,34.3323],[126.7905,34.3218],[126.8161,34.3271],[126.8353,34.3177]]],[[[126.733,34.3658],[126.7266,34.3823],[126.7014,34.3984],[126.6864,34.4024],[126.6486,34.3941],[126.639,34.3821],[126.6458,34.3673],[126.648,34.3311],[126.6695,34.3232],[126.6885,34.2967],[126.7319,34.3015],[126.7482,34.2915],[126.7717,34.3112],[126.7357,34.3429],[126.733,34.3658]]],[[[127.0322,34.3407],[127.0508,34.341],[127.0403,34.368],[127.0212,34.3766],[127.0069,34.3569],[127.0322,34.3407]]],[[[126.8331,34.4328],[126.8346,34.4437],[126.8006,34.4314],[126.7887,34.4328],[126.7639,34.4088],[126.7681,34.401],[126.7567,34.3834],[126.7794,34.382],[126.7666,34.3636],[126.7763,34.3573],[126.7933,34.3823],[126.8334,34.3842],[126.8598,34.3986],[126.8502,34.4183],[126.8331,34.4328]]],[[[127.0474,34.4561],[127.0342,34.4496],[127.037,34.424],[127.0682,34.4116],[127.0758,34.4235],[127.0648,34.4516],[127.0474,34.4561]]],[[[127.4669,34.4712],[127.4521,34.4688],[127.4584,34.4526],[127.4853,34.4477],[127.493,34.4315],[127.4873,34.4135],[127.5384,34.4312],[127.5371,34.448],[127.5054,34.4642],[127.4837,34.4589],[127.4669,34.4712]]],[[[125.2137,34.7026],[125.2008,34.7106],[125.1921,34.6864],[125.2039,34.6822],[125.2137,34.7026]]],[[[128.5299,34.7579],[128.5516,34.7481],[128.5584,34.7599],[128.5299,34.7579]]],[[[126.3285,34.7753],[126.3085,34.7823],[126.3082,34.7627],[126.3185,34.7591],[126.3285,34.7753]]],[[[128.4813,34.8157],[128.4694,34.8178],[128.4632,34.7916],[128.4786,34.7623],[128.4912,34.7575],[128.5084,34.7667],[128.5103,34.7776],[128.4934,34.7824],[128.4917,34.8006],[128.4813,34.8157]]],[[[128.4394,34.8191],[128.4398,34.8286],[128.4083,34.834],[128.3928,34.8232],[128.3783,34.8295],[128.3783,34.7986],[128.3858,34.7799],[128.4067,34.7624],[128.4255,34.7656],[128.4358,34.7797],[128.4421,34.803],[128.4394,34.8191]]],[[[126.1594,34.8221],[126.1384,34.7994],[126.0928,34.7887],[126.106,34.778],[126.1274,34.7805],[126.1364,34.7662],[126.152,34.7615],[126.165,34.7696],[126.1618,34.7908],[126.1524,34.8014],[126.1594,34.8221]]],[[[128.2395,34.8364],[128.2178,34.839],[128.2069,34.8272],[128.2104,34.8076],[128.2265,34.8004],[128.2453,34.8013],[128.2655,34.8182],[128.2395,34.8364]]],[[[125.3954,34.6923],[125.3611,34.6758],[125.37,34.6665],[125.3954,34.6923]]],[[[125.9679,34.7286],[125.937,34.7158],[125.9157,34.711],[125.9154,34.6815],[125.9329,34.6792],[125.9393,34.6655],[125.9652,34.6563],[125.9799,34.6643],[125.9877,34.6786],[126.0078,34.6852],[125.9906,34.7193],[125.9679,34.7286]]],[[[128.1887,34.7107],[128.1692,34.7004],[128.183,34.6912],[128.2024,34.6913],[128.1887,34.7107]]],[[[126.1456,34.7015],[126.1746,34.7008],[126.1795,34.7254],[126.1719,34.7515],[126.1629,34.7573],[126.1352,34.7556],[126.1247,34.771],[126.0768,34.7638],[126.0819,34.7507],[126.0706,34.735],[126.0829,34.7164],[126.1369,34.7286],[126.1501,34.7108],[126.1456,34.7015]]],[[[125.9969,34.8054],[125.9735,34.8021],[125.9644,34.7874],[125.9375,34.777],[125.9112,34.776],[125.8951,34.7602],[125.8864,34.7401],[125.9053,34.7213],[125.9176,34.7169],[125.9404,34.7226],[125.9435,34.7373],[125.9719,34.759],[125.9983,34.7617],[125.9851,34.7745],[126.0005,34.7895],[125.9969,34.8054]]],[[[128.0542,34.7559],[128.0511,34.7941],[128.0665,34.8183],[128.0306,34.8343],[128.0192,34.8301],[127.9897,34.8323],[127.9539,34.805],[127.9436,34.8101],[127.9352,34.8323],[127.9172,34.8355],[127.898,34.8726],[127.9205,34.8923],[127.9279,34.9069],[127.9184,34.9423],[127.8943,34.947],[127.8733,34.941],[127.8542,34.9276],[127.8445,34.9016],[127.8331,34.8928],[127.826,34.8734],[127.8102,34.8595],[127.8132,34.8339],[127.845,34.7875],[127.8377,34.7493],[127.8534,34.7476],[127.8623,34.7332],[127.8907,34.7217],[127.9124,34.7363],[127.9034,34.765],[127.9438,34.778],[127.9484,34.7657],[127.9441,34.7469],[127.957,34.7095],[127.9786,34.7115],[127.9923,34.7195],[128.0192,34.7026],[128.0443,34.7023],[128.0353,34.7312],[128.0564,34.7455],[128.0542,34.7559]]],[[[125.8534,34.6191],[125.8346,34.6221],[125.8234,34.6028],[125.8419,34.5971],[125.8611,34.6043],[125.8534,34.6191]]],[[[127.5348,34.5977],[127.5652,34.6038],[127.5641,34.6136],[127.5458,34.6184],[127.5254,34.6028],[127.5348,34.5977]]],[[[125.9947,34.6278],[125.9867,34.6088],[126.0091,34.6114],[125.9947,34.6278]]],[[[127.6654,34.5831],[127.6394,34.5751],[127.6493,34.5565],[127.6587,34.5527],[127.6757,34.5742],[127.6654,34.5831]]],[[[126.0693,34.628],[126.0508,34.6294],[126.0473,34.6101],[126.0652,34.6081],[126.0746,34.5842],[126.0854,34.5802],[126.0484,34.5547],[126.0447,34.5376],[126.0564,34.5306],[126.0861,34.5461],[126.0832,34.5561],[126.1097,34.5858],[126.0693,34.628]]],[[[126.0393,34.6303],[126.0174,34.6355],[126.011,34.6079],[126.0267,34.5923],[126.0145,34.5855],[126.0312,34.572],[126.0529,34.5706],[126.0644,34.5832],[126.0549,34.6045],[126.0332,34.6111],[126.0393,34.6303]]],[[[126.3268,34.5434],[126.3145,34.5437],[126.3009,34.5568],[126.3038,34.5708],[126.2788,34.5839],[126.25,34.5891],[126.2399,34.5756],[126.2507,34.5611],[126.2359,34.5365],[126.2187,34.5326],[126.2115,34.5167],[126.1983,34.51],[126.2049,34.4957],[126.1739,34.4954],[126.1724,34.4847],[126.1243,34.4646],[126.1177,34.4493],[126.1018,34.4413],[126.0892,34.4185],[126.1145,34.3813],[126.143,34.3852],[126.1348,34.3598],[126.1728,34.3527],[126.2032,34.358],[126.2393,34.3705],[126.2605,34.3856],[126.2655,34.3973],[126.2836,34.3936],[126.2796,34.372],[126.3022,34.3701],[126.3061,34.3805],[126.2971,34.3975],[126.3355,34.4145],[126.3657,34.4433],[126.3584,34.457],[126.3792,34.4864],[126.368,34.5154],[126.3538,34.5324],[126.3268,34.5434]]],[[[128.2415,34.651],[128.2279,34.6312],[128.2582,34.6208],[128.2757,34.6194],[128.2965,34.6314],[128.2415,34.651]]],[[[125.969,34.6388],[125.9464,34.6348],[125.9561,34.6235],[125.969,34.6388]]],[[[126.1604,34.6691],[126.1498,34.672],[126.1275,34.6521],[126.1322,34.6417],[126.122,34.6293],[126.1291,34.6205],[126.1466,34.6205],[126.1626,34.6281],[126.1739,34.6219],[126.1896,34.6333],[126.1875,34.6499],[126.1604,34.6691]]],[[[125.4266,34.6976],[125.4152,34.6985],[125.3975,34.6744],[125.3973,34.6619],[125.3846,34.6434],[125.4013,34.6251],[125.4218,34.6589],[125.4422,34.6653],[125.4506,34.6856],[125.4292,34.6849],[125.4266,34.6976]]],[[[127.7736,34.7239],[127.7561,34.7314],[127.7372,34.7294],[127.7563,34.7079],[127.7614,34.6844],[127.745,34.6666],[127.7212,34.6532],[127.7246,34.6376],[127.7142,34.6208],[127.7377,34.6106],[127.7493,34.5929],[127.7636,34.5935],[127.7925,34.5849],[127.8079,34.5966],[127.788,34.6071],[127.8001,34.6301],[127.7955,34.6674],[127.7763,34.6814],[127.791,34.7018],[127.787,34.7157],[127.7736,34.7239]]],[[[128.2113,34.8515],[128.1908,34.8592],[128.1676,34.8516],[128.1697,34.8401],[128.1921,34.8269],[128.2113,34.8515]]],[[[126.1162,34.882],[126.1083,34.8501],[126.0826,34.8592],[126.0613,34.844],[126.0906,34.8151],[126.0956,34.8026],[126.1185,34.8003],[126.1229,34.8125],[126.1146,34.8261],[126.1243,34.8359],[126.1397,34.8356],[126.1347,34.8529],[126.1571,34.8663],[126.1452,34.8753],[126.1162,34.882]]],[[[127.7253,34.894],[127.6987,34.8923],[127.6917,34.8828],[127.7042,34.8703],[127.7462,34.8733],[127.7438,34.8921],[127.7253,34.894]]],[[[128.6479,34.7484],[128.6382,34.7612],[128.6417,34.7748],[128.6581,34.7742],[128.6736,34.8141],[128.7405,34.7906],[128.7283,34.8113],[128.7261,34.828],[128.7032,34.8424],[128.7176,34.8497],[128.7351,34.8433],[128.7335,34.8621],[128.7438,34.8682],[128.7343,34.8904],[128.7066,34.8782],[128.7071,34.8991],[128.7239,34.9151],[128.7149,34.9363],[128.7194,34.9508],[128.6968,34.9729],[128.6945,34.9978],[128.7179,35.0099],[128.7124,35.0315],[128.6753,35.0318],[128.6674,35.0079],[128.6554,34.9904],[128.6471,34.9629],[128.6174,34.9632],[128.6005,34.958],[128.586,34.943],[128.6082,34.9148],[128.6257,34.8985],[128.5722,34.9089],[128.5496,34.9069],[128.5275,34.9236],[128.4766,34.8839],[128.4726,34.8721],[128.4821,34.8402],[128.5211,34.8268],[128.5335,34.8334],[128.5637,34.8329],[128.573,34.8543],[128.5888,34.847],[128.585,34.8337],[128.5842,34.7978],[128.5609,34.778],[128.5907,34.7762],[128.5768,34.749],[128.5821,34.7396],[128.6074,34.7318],[128.5918,34.7228],[128.5963,34.7082],[128.6103,34.7018],[128.6279,34.7134],[128.6261,34.7282],[128.6479,34.7484]]],[[[126.2945,34.85],[126.3021,34.8539],[126.3345,34.8483],[126.3381,34.8164],[126.3547,34.8151],[126.3713,34.8473],[126.357,34.8637],[126.3201,34.8623],[126.3132,34.8777],[126.337,34.8935],[126.3384,34.9079],[126.3181,34.9064],[126.2967,34.922],[126.2805,34.9098],[126.3029,34.8906],[126.2811,34.8871],[126.2816,34.8676],[126.2407,34.8479],[126.2628,34.8397],[126.2765,34.8557],[126.2945,34.85]]],[[[128.0151,34.8925],[128.0278,34.9064],[128.0309,34.9218],[128.0028,34.9153],[127.9774,34.8791],[127.9621,34.8696],[127.9693,34.8434],[127.9884,34.8364],[128.0173,34.8379],[128.0241,34.8473],[128.0548,34.8386],[128.0666,34.8686],[128.0476,34.8903],[128.0151,34.8925]]],[[[126.0626,34.9342],[126.0546,34.9122],[126.0129,34.9067],[125.9824,34.8673],[126.008,34.8592],[126.0175,34.8638],[126.05,34.855],[126.0657,34.8566],[126.0935,34.8835],[126.0836,34.8956],[126.084,34.9114],[126.0626,34.9342]]],[[[127.6643,34.9109],[127.6732,34.9044],[127.6934,34.9168],[127.6729,34.9303],[127.6643,34.9109]]],[[[127.7397,34.946],[127.7302,34.9517],[127.7044,34.9299],[127.7046,34.9133],[127.7371,34.9065],[127.761,34.9085],[127.7627,34.8918],[127.7842,34.8865],[127.7845,34.9155],[127.7652,34.9317],[127.7376,34.9322],[127.7397,34.946]]],[[[126.2489,34.9408],[126.2276,34.9375],[126.2202,34.9183],[126.2344,34.9095],[126.2513,34.9202],[126.2489,34.9408]]],[[[126.1918,34.9304],[126.2101,34.9416],[126.2143,34.9752],[126.1995,34.9712],[126.207,34.9562],[126.1945,34.9504],[126.1918,34.9304]]]]},"properties":{"GID_0":"KOR","ISO_A2":"KR","ISO_A3":"KOR","NAME_EN":"South Korea","NAME_IT":"Corea del Sud"}}
]}