{"type":"FeatureCollection", "features": [
{"type":"Feature","geometry":{"type":"MultiPolygon","coordinates":[[[[114.8272,4.2617],[114.8866,4.3741],[114.8818,4.4271],[114.8309,4.4541],[114.827,4.5548],[114.8129,4.6726],[114.7948,4.7464],[114.8489,4.7672],[114.864,4.8054],[114.9762,4.8368],[115.0443,4.9649],[115.0593,5.046],[114.9458,5.0058],[114.8361,4.9542],[114.6747,4.8425],[114.5522,4.7333],[114.45,4.6672],[114.2555,4.5989],[114.1775,4.5917],[114.196,4.5411],[114.2372,4.5295],[114.3086,4.4173],[114.3258,4.3576],[114.3178,4.2759],[114.4125,4.2665],[114.4539,4.2776],[114.4598,4.2334],[114.5003,4.1577],[114.5357,4.1537],[114.5806,4.0827],[114.6794,4.0349],[114.7483,4.084],[114.8518,4.2521],[114.8272,4.2617]]],[[[115.2812,4.5388],[115.2959,4.6421],[115.2691,4.6642],[115.2481,4.811],[115.1897,4.8604],[115.1604,4.9106],[115.1232,4.9087],[115.1144,4.8696],[115.038,4.7932],[115.0651,4.6195],[115.1107,4.4924],[115.1106,4.4054],[115.2105,4.376],[115.2493,4.3789],[115.3394,4.3115],[115.3759,4.3536],[115.2951,4.4419],[115.2812,4.5388]]]]},"properties":{"GID_0":"BRN","ISO_A2":"BN","ISO_A3":"BRN","NAME_EN":"Brunei","NAME_IT":"Brunei"}}
]}