{"type":"FeatureCollection", "features": [
{"type":"Feature","geometry":{"type":"MultiPolygon","coordinates":[[[[24.0704,34.8715],[24.0504,34.8387],[24.121,34.8007],[24.1132,34.826],[24.1257,34.8532],[24.1051,34.8674],[24.0704,34.8715]]],[[[27.2199,35.8296],[27.2051,35.8268],[27.189,35.8032],[27.1657,35.7965],[27.1599,35.7571],[27.1665,35.7351],[27.146,35.7163],[27.1162,35.666],[27.1207,35.6437],[27.0665,35.6071],[27.0729,35.5749],[27.1018,35.5604],[27.1126,35.5421],[27.1049,35.5115],[27.119,35.4849],[27.0829,35.4451],[27.1115,35.4238],[27.131,35.4274],[27.156,35.4082],[27.1571,35.4429],[27.1971,35.4774],[27.2204,35.4813],[27.2385,35.5043],[27.1993,35.5187],[27.2199,35.5471],[27.1893,35.5774],[27.1782,35.5993],[27.1513,35.6151],[27.1618,35.6549],[27.1932,35.6826],[27.1915,35.699],[27.2196,35.7365],[27.2096,35.7588],[27.2118,35.7788],[27.2313,35.7968],[27.2343,35.8135],[27.2199,35.8296]]],[[[27.0021,35.4329],[26.9249,35.4176],[26.9029,35.4224],[26.889,35.4021],[26.8688,35.391],[26.8446,35.3643],[26.8549,35.3468],[26.8824,35.3387],[26.9082,35.3632],[26.9243,35.3654],[26.9579,35.3924],[26.9885,35.3985],[27.001,35.4093],[27.0021,35.4329]]],[[[25.8804,35.161],[25.8474,35.1571],[25.8432,35.139],[25.8113,35.1096],[25.7526,35.1307],[25.711,35.1662],[25.7143,35.2199],[25.7404,35.2318],[25.7235,35.2624],[25.7271,35.3032],[25.7626,35.319],[25.7551,35.336],[25.7293,35.3407],[25.6985,35.3357],[25.6599,35.3482],[25.5626,35.3187],[25.544,35.3213],[25.4976,35.2993],[25.4515,35.2912],[25.4271,35.2949],[25.4201,35.3068],[25.3921,35.3182],[25.3865,35.3379],[25.3679,35.3393],[25.2665,35.3324],[25.1929,35.3329],[25.1857,35.3451],[25.1574,35.3457],[25.086,35.3371],[25.056,35.3407],[25.0401,35.3579],[25.0413,35.4001],[25.0185,35.4054],[25.0012,35.4215],[24.9743,35.4235],[24.9554,35.4021],[24.9188,35.4035],[24.886,35.4224],[24.8735,35.4096],[24.839,35.4074],[24.7871,35.4176],[24.7401,35.4201],[24.6993,35.4274],[24.6938,35.419],[24.6482,35.4204],[24.6138,35.3932],[24.5521,35.3754],[24.4546,35.3649],[24.4224,35.3676],[24.4104,35.3604],[24.3718,35.3615],[24.3412,35.3499],[24.2774,35.356],[24.2624,35.3632],[24.264,35.399],[24.2563,35.4565],[24.2426,35.4721],[24.2046,35.4529],[24.176,35.4518],[24.1521,35.4718],[24.119,35.4707],[24.0865,35.4896],[24.0801,35.5088],[24.1385,35.496],[24.1668,35.4949],[24.1821,35.5029],[24.2024,35.5396],[24.1749,35.5874],[24.1257,35.6024],[24.0776,35.5924],[24.0765,35.5682],[24.0521,35.5518],[24.0479,35.5243],[23.9932,35.5115],[23.9454,35.514],[23.9304,35.5232],[23.904,35.5187],[23.8421,35.5271],[23.779,35.5474],[23.7785,35.5988],[23.7724,35.6362],[23.7626,35.6482],[23.7743,35.6688],[23.7332,35.691],[23.7079,35.6596],[23.7046,35.6435],[23.7149,35.6151],[23.7076,35.5962],[23.7193,35.5799],[23.7287,35.5462],[23.7179,35.5074],[23.6804,35.4993],[23.6465,35.5001],[23.6135,35.5199],[23.6132,35.5651],[23.6024,35.5915],[23.586,35.5785],[23.5637,35.5104],[23.5804,35.4932],[23.5529,35.4649],[23.5682,35.4474],[23.5676,35.4254],[23.5418,35.4054],[23.5301,35.3815],[23.5296,35.3176],[23.5137,35.3057],[23.5349,35.2751],[23.5788,35.2612],[23.5735,35.2421],[23.6318,35.231],[23.6626,35.2368],[23.7579,35.2379],[23.7843,35.2304],[23.8082,35.2471],[23.8335,35.2479],[23.8674,35.2351],[23.8821,35.239],[23.9193,35.2218],[23.981,35.2313],[24.0001,35.2229],[24.0154,35.2021],[24.0407,35.1932],[24.0871,35.2029],[24.1332,35.2021],[24.1535,35.1912],[24.201,35.2004],[24.2304,35.1799],[24.2496,35.1832],[24.2865,35.1743],[24.3051,35.1854],[24.3543,35.1818],[24.3846,35.194],[24.4037,35.1707],[24.4568,35.1485],[24.479,35.1526],[24.5307,35.1371],[24.5599,35.1032],[24.6404,35.0951],[24.6921,35.0979],[24.7399,35.0832],[24.754,35.0543],[24.7596,35.0076],[24.7479,35.0043],[24.744,34.9643],[24.7471,34.9393],[24.7607,34.9265],[24.7938,34.9232],[24.8104,34.9368],[24.8379,34.9404],[24.9051,34.9318],[24.9821,34.9346],[25.0285,34.9321],[25.0435,34.9424],[25.0899,34.9388],[25.096,34.9315],[25.1324,34.9524],[25.1874,34.9538],[25.1951,34.9457],[25.2715,34.9674],[25.2815,34.984],[25.3307,34.9818],[25.3743,34.9985],[25.4171,34.9863],[25.4576,34.9912],[25.5054,34.9815],[25.5249,34.991],[25.5474,34.9882],[25.5938,35.0068],[25.6626,35.0046],[25.6863,35.0143],[25.7368,35.0032],[25.8146,34.9993],[25.8429,35.0149],[25.9351,35.034],[25.9618,35.0313],[25.9888,35.0371],[26.0063,35.019],[26.0576,35.0085],[26.0646,35.0213],[26.0874,35.0182],[26.0949,34.9963],[26.1204,34.9949],[26.1574,35.0151],[26.1887,35.0143],[26.2307,35.0326],[26.2435,35.0593],[26.2721,35.0879],[26.2857,35.136],[26.2804,35.1671],[26.3179,35.1787],[26.2893,35.1901],[26.2668,35.2104],[26.2774,35.2232],[26.2651,35.2637],[26.3074,35.2935],[26.3113,35.3171],[26.2893,35.3135],[26.2832,35.286],[26.2476,35.2732],[26.2357,35.2796],[26.2029,35.2346],[26.1629,35.1988],[26.1174,35.201],[26.1174,35.2254],[26.0838,35.2185],[26.0254,35.2299],[25.9976,35.1985],[25.954,35.1832],[25.8999,35.1826],[25.8804,35.161]]],[[[25.2199,35.4665],[25.1949,35.4401],[25.2365,35.4304],[25.2418,35.4515],[25.2199,35.4665]]],[[[29.599,36.1662],[29.5715,36.1521],[29.5593,36.121],[29.5804,36.1251],[29.6071,36.1446],[29.599,36.1662]]],[[[27.6015,36.2474],[27.5454,36.2382],[27.5185,36.2382],[27.5343,36.2143],[27.5696,36.2179],[27.6162,36.2143],[27.6182,36.2443],[27.6015,36.2474]]],[[[26.6768,36.3607],[26.659,36.3521],[26.6604,36.3357],[26.6896,36.3285],[26.6979,36.3429],[26.6768,36.3607]]],[[[23.2735,35.9046],[23.2687,35.9001],[23.2885,35.8532],[23.319,35.8285],[23.3268,35.8521],[23.3171,35.8812],[23.2874,35.8899],[23.2735,35.9046]]],[[[27.2346,35.9049],[27.2146,35.8957],[27.216,35.879],[27.1965,35.8524],[27.2221,35.836],[27.2415,35.8518],[27.2313,35.8746],[27.2346,35.9049]]],[[[27.8376,36.6399],[27.8174,36.6399],[27.7913,36.6129],[27.7726,36.6035],[27.771,36.5879],[27.8132,36.5829],[27.8501,36.5579],[27.8679,36.5601],[27.8782,36.5776],[27.8815,36.6063],[27.8732,36.6318],[27.8376,36.6399]]],[[[27.1704,36.6193],[27.1329,36.6132],[27.1257,36.5971],[27.1326,36.5649],[27.1938,36.5568],[27.2138,36.5793],[27.1896,36.6193],[27.1704,36.6193]]],[[[27.3518,36.4807],[27.336,36.4604],[27.2993,36.4535],[27.2951,36.4218],[27.3587,36.4265],[27.3587,36.4074],[27.391,36.3757],[27.4396,36.3926],[27.4221,36.4043],[27.3924,36.4368],[27.361,36.4807],[27.3518,36.4807]]],[[[28.2218,36.4562],[28.1882,36.4212],[28.1551,36.4243],[28.1188,36.4196],[28.0535,36.3982],[28.009,36.3749],[27.9826,36.3679],[27.9615,36.3537],[27.9149,36.3426],[27.8785,36.3226],[27.8457,36.2832],[27.8051,36.2704],[27.7896,36.2429],[27.7893,36.2215],[27.7657,36.1871],[27.7532,36.1865],[27.7229,36.1657],[27.699,36.1632],[27.7157,36.1318],[27.7107,36.1126],[27.7507,36.1051],[27.7601,36.0904],[27.761,36.0438],[27.7543,36.0088],[27.729,35.9524],[27.7201,35.9465],[27.7346,35.9146],[27.7687,35.8935],[27.7951,35.8887],[27.829,35.9165],[27.8629,35.9324],[27.904,35.9793],[27.9199,36.0074],[27.9535,36.0454],[28.0215,36.0771],[28.046,36.0762],[28.0568,36.0649],[28.0915,36.0846],[28.0832,36.1076],[28.0679,36.1063],[28.0765,36.1449],[28.0993,36.1746],[28.124,36.1874],[28.1596,36.2318],[28.1668,36.2626],[28.189,36.3046],[28.2162,36.3282],[28.2049,36.3474],[28.2412,36.3838],[28.2282,36.4032],[28.2374,36.4454],[28.2218,36.4562]]],[[[27.1338,36.9571],[27.1071,36.9549],[27.1338,36.9212],[27.1724,36.9529],[27.1338,36.9571]]],[[[19.3865,39.8682],[19.3724,39.8579],[19.3863,39.8357],[19.4107,39.8382],[19.4271,39.8613],[19.3865,39.8682]]],[[[23.611,39.2104],[23.5899,39.196],[23.6262,39.1476],[23.6435,39.1387],[23.6585,39.0893],[23.7099,39.0832],[23.7329,39.0715],[23.7668,39.0876],[23.7932,39.121],[23.7835,39.1301],[23.7232,39.1293],[23.7218,39.1479],[23.6826,39.1574],[23.6507,39.1718],[23.6357,39.1924],[23.611,39.2104]]],[[[23.4629,39.2107],[23.4429,39.1951],[23.4435,39.1815],[23.3921,39.164],[23.401,39.1482],[23.4474,39.1296],[23.4807,39.1624],[23.5154,39.1751],[23.5051,39.1946],[23.4629,39.2107]]],[[[20.1328,39.2396],[20.1341,39.2179],[20.1535,39.1918],[20.1757,39.1782],[20.1887,39.1965],[20.169,39.2238],[20.1328,39.2396]]],[[[23.9754,39.2382],[23.9632,39.2146],[23.9779,39.1946],[23.9376,39.1813],[23.9582,39.164],[23.9854,39.1651],[23.9882,39.1857],[23.9754,39.2382]]],[[[23.954,39.2904],[23.9182,39.2562],[23.9093,39.2293],[23.8829,39.2218],[23.8754,39.1724],[23.8579,39.1707],[23.8276,39.1488],[23.8485,39.1321],[23.9054,39.1604],[23.9212,39.1765],[23.9315,39.206],[23.9785,39.2549],[23.9829,39.2693],[23.959,39.276],[23.954,39.2904]]],[[[25.006,39.5615],[24.9768,39.5365],[24.9699,39.5093],[24.9735,39.4826],[24.9938,39.4746],[25.014,39.4938],[25.0549,39.5207],[25.0576,39.5299],[25.006,39.5615]]],[[[19.8504,39.8218],[19.8215,39.801],[19.7949,39.7901],[19.7507,39.7993],[19.7162,39.7893],[19.6732,39.796],[19.6451,39.7646],[19.6424,39.7493],[19.6834,39.709],[19.6735,39.6796],[19.6982,39.669],[19.7146,39.6729],[19.7363,39.6449],[19.7405,39.6243],[19.7724,39.6115],[19.7749,39.6004],[19.811,39.5905],[19.8504,39.5451],[19.8518,39.4893],[19.8729,39.4529],[19.9093,39.4304],[19.9301,39.4318],[19.9857,39.4135],[19.9999,39.3982],[20.0232,39.3943],[20.1115,39.3596],[20.1226,39.3796],[20.1068,39.3927],[20.0946,39.4235],[20.069,39.4551],[20.0332,39.4351],[20.0099,39.4379],[20.0032,39.4549],[19.9371,39.4726],[19.924,39.5043],[19.9235,39.5282],[19.9099,39.5663],[19.9279,39.5954],[19.9251,39.6277],[19.8921,39.6301],[19.844,39.6546],[19.8385,39.6974],[19.8801,39.7226],[19.931,39.7343],[19.9571,39.776],[19.8868,39.7974],[19.876,39.8152],[19.8504,39.8218]]],[[[25.4476,40.0349],[25.411,40.0171],[25.4021,40.0054],[25.3721,40.0026],[25.3529,39.9915],[25.3432,39.9632],[25.3179,39.9676],[25.306,39.9479],[25.2646,39.9629],[25.2638,39.9879],[25.2257,40.0049],[25.1715,39.9901],[25.1504,39.991],[25.1354,40.0062],[25.089,39.9907],[25.0438,39.9826],[25.0435,39.9579],[25.0732,39.9185],[25.0632,39.884],[25.0507,39.8782],[25.0574,39.8432],[25.0857,39.8393],[25.1274,39.8493],[25.1529,39.8471],[25.1554,39.8282],[25.1418,39.8096],[25.159,39.7982],[25.2237,39.8074],[25.1954,39.8418],[25.181,39.8438],[25.2149,39.8799],[25.2151,39.8951],[25.2335,39.911],[25.2571,39.9118],[25.2746,39.8857],[25.2687,39.8688],[25.2424,39.854],[25.2954,39.8196],[25.2999,39.7949],[25.3404,39.7826],[25.3501,39.8001],[25.3713,39.8074],[25.3468,39.8335],[25.3407,39.8779],[25.3568,39.8904],[25.3576,39.9093],[25.3757,39.9138],[25.3885,39.9446],[25.416,39.9693],[25.444,39.9799],[25.4321,40.0179],[25.4476,40.0349]]],[[[24.0776,39.3676],[24.0518,39.354],[24.0421,39.3368],[24.0488,39.3088],[24.0713,39.2929],[24.0949,39.3074],[24.0993,39.3429],[24.0776,39.3676]]],[[[24.3321,39.3679],[24.3113,39.3379],[24.3276,39.3332],[24.3321,39.3679]]],[[[24.1774,39.4293],[24.1582,39.4065],[24.1532,39.3676],[24.1893,39.3965],[24.1774,39.4293]]],[[[25.691,40.471],[25.6574,40.494],[25.6171,40.5035],[25.5618,40.5107],[25.5007,40.4979],[25.4785,40.4849],[25.4585,40.4574],[25.5079,40.4254],[25.5435,40.4137],[25.5746,40.3924],[25.6274,40.4015],[25.6974,40.4224],[25.7004,40.4646],[25.691,40.471]]],[[[24.6546,40.7996],[24.596,40.7757],[24.5838,40.759],[24.5624,40.7613],[24.559,40.7404],[24.5338,40.7137],[24.511,40.6632],[24.5124,40.6371],[24.5276,40.6201],[24.5763,40.6257],[24.6015,40.614],[24.6085,40.5957],[24.6407,40.5685],[24.6696,40.5754],[24.6907,40.591],[24.7157,40.5946],[24.7771,40.619],[24.7754,40.6415],[24.7626,40.6743],[24.7832,40.6857],[24.7785,40.7049],[24.7604,40.709],[24.7485,40.7499],[24.7165,40.786],[24.6985,40.7771],[24.6679,40.7835],[24.6546,40.7996]]],[[[24.7363,37.6338],[24.706,37.6237],[24.6724,37.6013],[24.7054,37.5938],[24.7376,37.5996],[24.7363,37.6338]]],[[[24.1457,37.7554],[24.1368,37.7543],[24.1035,37.6768],[24.1293,37.6815],[24.1365,37.7118],[24.1521,37.7199],[24.1457,37.7554]]],[[[23.349,37.7118],[23.3263,37.6951],[23.3246,37.6751],[23.3743,37.6937],[23.349,37.7118]]],[[[26.7465,37.8121],[26.6913,37.7957],[26.6579,37.7901],[26.6426,37.7724],[26.6087,37.7693],[26.5663,37.7315],[26.5851,37.7054],[26.5776,37.6929],[26.5932,37.6774],[26.6207,37.686],[26.6415,37.7026],[26.6837,37.7096],[26.724,37.7096],[26.7496,37.6982],[26.7846,37.6501],[26.8165,37.6368],[26.8696,37.6371],[26.8832,37.6638],[26.9085,37.6826],[26.9607,37.6907],[26.9804,37.7065],[27.0118,37.7026],[27.0704,37.7165],[27.0671,37.7274],[27.0249,37.7515],[27.031,37.7738],[26.9988,37.7768],[26.9779,37.7938],[26.9488,37.786],[26.9638,37.7713],[26.9574,37.7579],[26.9254,37.771],[26.8815,37.7788],[26.8485,37.806],[26.7465,37.8121]]],[[[23.5093,37.774],[23.4807,37.774],[23.4199,37.7554],[23.434,37.729],[23.4635,37.7146],[23.4679,37.6976],[23.4496,37.6876],[23.4824,37.6735],[23.5021,37.6793],[23.5293,37.7212],[23.5424,37.7287],[23.5654,37.7635],[23.5435,37.7726],[23.5093,37.774]]],[[[20.7032,37.9321],[20.646,37.8996],[20.6229,37.8671],[20.626,37.8201],[20.6704,37.7757],[20.6918,37.7435],[20.7115,37.7249],[20.7582,37.7076],[20.7588,37.6985],[20.8049,37.6535],[20.8271,37.6465],[20.8596,37.656],[20.8368,37.6813],[20.8429,37.699],[20.8646,37.7226],[20.884,37.7324],[20.9193,37.7368],[20.9751,37.7074],[20.9899,37.7279],[20.951,37.7446],[20.9407,37.7615],[20.8985,37.7782],[20.9054,37.8054],[20.8229,37.839],[20.786,37.8471],[20.7715,37.841],[20.734,37.869],[20.7062,37.9076],[20.7032,37.9321]]],[[[26.1882,38.5432],[26.2015,38.5179],[26.2579,38.5037],[26.2718,38.5165],[26.2379,38.5335],[26.1882,38.5432]]],[[[25.5713,38.6068],[25.5299,38.5926],[25.5618,38.5518],[25.5882,38.5332],[25.6113,38.5371],[25.621,38.5899],[25.594,38.6037],[25.5713,38.6068]]],[[[20.7843,38.6768],[20.7596,38.6643],[20.7412,38.6685],[20.7343,38.6396],[20.7549,38.6268],[20.7957,38.6504],[20.8082,38.6649],[20.7843,38.6768]]],[[[20.9554,38.6529],[20.9101,38.6496],[20.8899,38.6346],[20.8782,38.606],[20.9276,38.6149],[20.9515,38.6324],[20.9554,38.6529]]],[[[20.5637,38.4729],[20.536,38.4688],[20.5421,38.4432],[20.534,38.4307],[20.5488,38.3843],[20.5476,38.3607],[20.4901,38.3112],[20.4493,38.3246],[20.4424,38.3571],[20.4249,38.3549],[20.3999,38.3304],[20.3857,38.2982],[20.3857,38.2718],[20.3518,38.2493],[20.3587,38.2296],[20.3396,38.199],[20.3379,38.179],[20.3762,38.164],[20.3774,38.1529],[20.4399,38.161],[20.4393,38.2276],[20.4212,38.2687],[20.4371,38.2815],[20.4715,38.2304],[20.4807,38.2021],[20.4679,38.1918],[20.4788,38.1604],[20.4954,38.1346],[20.4868,38.1207],[20.5196,38.1004],[20.5688,38.0996],[20.6079,38.1176],[20.6407,38.1101],[20.6565,38.0946],[20.6907,38.0804],[20.7018,38.0685],[20.7449,38.0604],[20.7671,38.0687],[20.7976,38.0651],[20.8163,38.1135],[20.7726,38.1538],[20.7576,38.1813],[20.7129,38.2238],[20.6965,38.2635],[20.6749,38.2701],[20.634,38.2521],[20.6143,38.2785],[20.6063,38.3071],[20.6288,38.3218],[20.6071,38.4038],[20.6007,38.409],[20.5824,38.4646],[20.5637,38.4729]]],[[[24.7918,37.9985],[24.7329,37.9874],[24.7257,37.9771],[24.6926,37.9663],[24.684,37.9504],[24.6935,37.9374],[24.6979,37.8999],[24.7099,37.8707],[24.7468,37.8807],[24.7668,37.8751],[24.7988,37.8346],[24.7974,37.8215],[24.8274,37.8121],[24.8499,37.7779],[24.896,37.7526],[24.9101,37.7168],[24.9518,37.6821],[24.9546,37.6979],[24.9835,37.7326],[24.9963,37.7749],[24.961,37.7701],[24.9649,37.7962],[24.9782,37.8174],[24.9399,37.8396],[24.9399,37.856],[24.9576,37.8707],[24.9574,37.8988],[24.9438,37.9049],[24.8732,37.9024],[24.8424,37.9154],[24.8304,37.9307],[24.8238,37.966],[24.801,37.9668],[24.7851,37.9824],[24.7918,37.9985]]],[[[23.494,38.0021],[23.4676,37.9963],[23.4549,37.9782],[23.4374,37.9854],[23.4304,37.9526],[23.4532,37.9504],[23.4765,37.9615],[23.4946,37.956],[23.4693,37.9246],[23.4304,37.9296],[23.4043,37.9143],[23.4171,37.8901],[23.4546,37.8779],[23.5085,37.8949],[23.5507,37.9535],[23.5265,37.9624],[23.5399,37.9807],[23.5213,37.9968],[23.494,38.0021]]],[[[24.2593,38.0232],[24.2438,38.0196],[24.2357,37.9768],[24.2771,37.9776],[24.281,38.009],[24.2593,38.0232]]],[[[20.6513,38.5015],[20.6532,38.4824],[20.6407,38.4679],[20.614,38.466],[20.6388,38.4335],[20.6671,38.3599],[20.6863,38.3465],[20.6968,38.3126],[20.7237,38.3004],[20.7657,38.3218],[20.744,38.3288],[20.7488,38.3543],[20.7365,38.3868],[20.6757,38.3815],[20.7057,38.4282],[20.6976,38.4543],[20.6782,38.4585],[20.6712,38.4815],[20.6513,38.5015]]],[[[26.0104,38.6035],[25.9396,38.5882],[25.8921,38.5893],[25.8574,38.5807],[25.8312,38.5388],[25.8626,38.4915],[25.8951,38.4751],[25.9393,38.4624],[25.9562,38.4424],[25.954,38.4179],[25.9935,38.3724],[25.9957,38.3421],[25.9751,38.3321],[25.9665,38.3007],[25.9182,38.3001],[25.8899,38.2751],[25.876,38.274],[25.864,38.2471],[25.8857,38.2435],[25.8904,38.216],[25.9238,38.1949],[25.9529,38.1943],[25.9685,38.1668],[25.9985,38.1543],[26.0251,38.1615],[26.0238,38.1793],[26.0412,38.2007],[26.0982,38.2076],[26.1162,38.2315],[26.1068,38.241],[26.104,38.2726],[26.1513,38.3018],[26.161,38.326],[26.1429,38.3387],[26.144,38.366],[26.1346,38.4204],[26.1526,38.4496],[26.1443,38.4771],[26.1535,38.4957],[26.1507,38.5218],[26.1593,38.5526],[26.0843,38.5612],[26.0632,38.5938],[26.0443,38.589],[26.0104,38.6035]]],[[[24.2404,38.2968],[24.2401,38.3162],[24.2062,38.3377],[24.2201,38.364],[24.2129,38.3807],[24.1926,38.3868],[24.1857,38.404],[24.2049,38.4199],[24.184,38.4343],[24.1932,38.4532],[24.1879,38.4846],[24.2218,38.5118],[24.2232,38.5279],[24.1351,38.5829],[24.1215,38.6013],[24.1224,38.6285],[24.1549,38.6526],[24.1262,38.6668],[24.106,38.6671],[24.0479,38.6874],[23.9912,38.6785],[23.9562,38.6613],[23.8957,38.6799],[23.861,38.6721],[23.8157,38.6935],[23.7562,38.7082],[23.7174,38.7599],[23.6849,38.7526],[23.6407,38.7526],[23.5937,38.7665],[23.5535,38.7985],[23.5404,38.7988],[23.5168,38.8213],[23.4713,38.8357],[23.4454,38.8615],[23.4424,38.8862],[23.4265,38.9043],[23.4335,38.9401],[23.4254,38.9574],[23.3893,38.9596],[23.371,38.9824],[23.3771,39.0076],[23.3382,39.0157],[23.3188,39.039],[23.299,39.0399],[23.2374,39.024],[23.2043,39.0043],[23.1304,39.0085],[23.0901,38.981],[23.0874,38.9485],[23.0724,38.9379],[23.0488,38.9432],[23.0332,38.9249],[22.9701,38.9018],[22.9226,38.8915],[22.9029,38.8768],[22.8518,38.8696],[22.8374,38.8543],[22.8301,38.8257],[22.884,38.8385],[22.9601,38.8357],[22.9938,38.8599],[22.9896,38.8812],[23.0315,38.8826],[23.0413,38.8563],[23.0821,38.8385],[23.1346,38.8524],[23.1963,38.8346],[23.2337,38.8001],[23.2632,38.7826],[23.3243,38.7612],[23.3504,38.7254],[23.3871,38.6971],[23.4096,38.6937],[23.4401,38.6735],[23.4488,38.6493],[23.4915,38.6343],[23.5074,38.5893],[23.5268,38.5771],[23.5574,38.5824],[23.5926,38.5738],[23.6262,38.5418],[23.636,38.5107],[23.6204,38.4726],[23.5946,38.4693],[23.6218,38.4449],[23.6463,38.3996],[23.6726,38.4101],[23.7237,38.4099],[23.7713,38.3913],[23.801,38.3885],[23.8174,38.4038],[23.8424,38.4038],[23.8932,38.3838],[23.9635,38.3863],[23.9876,38.4012],[24.0154,38.3907],[24.0524,38.3918],[24.0493,38.369],[24.0707,38.326],[24.111,38.316],[24.0951,38.2796],[24.101,38.2604],[24.1199,38.2507],[24.1318,38.274],[24.1546,38.2715],[24.1388,38.2396],[24.1835,38.2171],[24.1918,38.1896],[24.211,38.1657],[24.1782,38.1304],[24.2043,38.1249],[24.2076,38.0974],[24.2243,38.0871],[24.2435,38.0954],[24.2832,38.0838],[24.2854,38.0665],[24.3082,38.0679],[24.321,38.0438],[24.3037,38.0288],[24.3315,38.0115],[24.3471,37.9785],[24.386,37.959],[24.3913,38.0029],[24.4276,38.0121],[24.4615,37.9965],[24.4776,37.9649],[24.4929,37.9488],[24.5115,37.9488],[24.5299,37.9682],[24.5596,37.9815],[24.5843,38.0249],[24.5879,38.0676],[24.5749,38.1068],[24.5907,38.1351],[24.5915,38.1571],[24.5499,38.141],[24.5085,38.1474],[24.4801,38.1415],[24.4249,38.1454],[24.3871,38.1643],[24.3487,38.1557],[24.3288,38.1679],[24.3318,38.1829],[24.2988,38.1871],[24.2721,38.1985],[24.2471,38.2421],[24.2576,38.2849],[24.2404,38.2968]]],[[[24.5085,38.8368],[24.4779,38.809],[24.4929,38.8043],[24.5085,38.8368]]],[[[24.4879,38.9824],[24.4476,38.9454],[24.4674,38.9154],[24.4507,38.9054],[24.4582,38.8801],[24.4771,38.8737],[24.4849,38.8546],[24.519,38.8462],[24.5413,38.834],[24.5685,38.8338],[24.5624,38.8029],[24.5338,38.7988],[24.531,38.7843],[24.551,38.7693],[24.5746,38.7857],[24.5946,38.7896],[24.6162,38.7635],[24.6513,38.7646],[24.6838,38.7732],[24.6826,38.8082],[24.6332,38.846],[24.6093,38.8518],[24.5854,38.8724],[24.5704,38.901],[24.5799,38.9249],[24.5218,38.9574],[24.4879,38.9824]]],[[[26.3443,39.3874],[26.2954,39.3743],[26.2257,39.384],[26.1746,39.3638],[26.1682,39.3238],[26.1499,39.3226],[26.1115,39.3065],[26.0332,39.2871],[26.0046,39.2885],[25.9976,39.2782],[25.9499,39.2743],[25.9196,39.2896],[25.8818,39.279],[25.8474,39.2351],[25.8551,39.1993],[25.8426,39.1743],[25.869,39.1665],[25.8743,39.1496],[25.9193,39.1385],[25.9457,39.1249],[25.9554,39.104],[25.9907,39.1082],[26.0651,39.0871],[26.0843,39.0896],[26.1271,39.1401],[26.1551,39.1587],[26.1551,39.1824],[26.1685,39.1974],[26.2012,39.2068],[26.2549,39.2054],[26.2949,39.1851],[26.2812,39.1551],[26.2504,39.1501],[26.2213,39.1304],[26.1882,39.126],[26.1621,39.0971],[26.1315,39.0868],[26.1051,39.0943],[26.0976,39.0821],[26.1196,39.0618],[26.146,39.0249],[26.1671,39.0129],[26.2093,39.0193],[26.2865,39.0013],[26.3338,38.9751],[26.356,38.9768],[26.4182,38.961],[26.4971,38.9768],[26.5182,38.9699],[26.5379,38.9849],[26.5407,39.0007],[26.486,39.064],[26.466,39.0685],[26.4418,39.1018],[26.4576,39.1146],[26.4893,39.1185],[26.5285,39.0821],[26.5304,39.0651],[26.5121,39.0568],[26.5368,39.0137],[26.564,39.0185],[26.609,39.0093],[26.6162,39.029],[26.5954,39.0687],[26.5576,39.0962],[26.5482,39.1382],[26.5299,39.1415],[26.5315,39.161],[26.5026,39.1785],[26.4751,39.2246],[26.4054,39.2626],[26.379,39.2813],[26.4254,39.3288],[26.4015,39.3435],[26.3696,39.3401],[26.3568,39.3471],[26.3571,39.3771],[26.3443,39.3874]]],[[[22.9521,36.3838],[22.9251,36.3782],[22.9074,36.3535],[22.8915,36.3182],[22.9168,36.3024],[22.9132,36.2674],[22.9232,36.2451],[22.9021,36.2374],[22.9157,36.1896],[22.9407,36.1576],[22.9751,36.1512],[22.9896,36.1376],[23.0251,36.1376],[23.0432,36.1301],[23.0571,36.1482],[23.0451,36.1757],[23.0596,36.2232],[23.0921,36.2193],[23.1057,36.2351],[23.1013,36.2504],[23.0599,36.2788],[22.9801,36.3282],[22.9521,36.3838]]],[[[25.7687,36.4046],[25.726,36.3665],[25.7354,36.3529],[25.7893,36.3438],[25.8213,36.3543],[25.8268,36.3726],[25.7782,36.394],[25.7687,36.4046]]],[[[26.3926,36.6443],[26.3707,36.6368],[26.3901,36.591],[26.3629,36.5879],[26.3574,36.5701],[26.3213,36.584],[26.3065,36.596],[26.2679,36.5979],[26.2601,36.5846],[26.286,36.5285],[26.2988,36.5137],[26.3204,36.5071],[26.3665,36.5157],[26.3407,36.539],[26.3593,36.5432],[26.3646,36.5771],[26.4165,36.5707],[26.4301,36.5846],[26.4654,36.5974],[26.3926,36.6443]]],[[[24.8599,36.6657],[24.8365,36.6587],[24.859,36.6315],[24.8949,36.6276],[24.911,36.5985],[24.949,36.5926],[24.9599,36.6021],[24.9501,36.6229],[24.9176,36.631],[24.8599,36.6657]]],[[[21.7637,36.7565],[21.7476,36.7251],[21.7763,36.7207],[21.7888,36.7407],[21.7637,36.7565]]],[[[21.7082,36.7938],[21.694,36.7843],[21.6963,36.7579],[21.719,36.764],[21.7082,36.7938]]],[[[24.6179,36.789],[24.6063,36.784],[24.6165,36.7524],[24.6454,36.7435],[24.6665,36.7532],[24.6657,36.7699],[24.6382,36.7868],[24.6179,36.789]]],[[[24.4299,36.7726],[24.4112,36.7704],[24.416,36.7376],[24.4274,36.7243],[24.4588,36.7221],[24.4696,36.7004],[24.4315,36.6901],[24.3907,36.711],[24.3979,36.724],[24.3712,36.7313],[24.3521,36.7501],[24.3379,36.7424],[24.3312,36.6782],[24.3171,36.6596],[24.3374,36.6518],[24.4229,36.6593],[24.4446,36.6699],[24.4729,36.6574],[24.5418,36.6838],[24.5435,36.7101],[24.5318,36.746],[24.5051,36.7549],[24.4768,36.7432],[24.4571,36.7446],[24.4257,36.761],[24.4299,36.7726]]],[[[25.1693,36.7168],[25.1393,36.716],[25.0951,36.6935],[25.0879,36.6754],[25.0601,36.6399],[25.0812,36.6354],[25.1204,36.6518],[25.1546,36.676],[25.1801,36.7004],[25.1693,36.7168]]],[[[25.3096,36.7918],[25.271,36.7849],[25.2529,36.7293],[25.3274,36.6785],[25.3526,36.6474],[25.386,36.6515],[25.3946,36.6718],[25.3813,36.6926],[25.3915,36.7101],[25.3888,36.7301],[25.3385,36.7554],[25.3299,36.7751],[25.3096,36.7918]]],[[[24.2412,36.8046],[24.2204,36.8018],[24.2218,36.7804],[24.2518,36.7751],[24.2571,36.7926],[24.2412,36.8046]]],[[[24.594,36.8163],[24.6065,36.8268],[24.5471,36.8407],[24.5193,36.799],[24.5426,36.7715],[24.5726,36.7762],[24.5879,36.7943],[24.594,36.8163]]],[[[25.3451,36.4546],[25.3232,36.4318],[25.334,36.419],[25.3557,36.4507],[25.3451,36.4546]]],[[[25.3918,36.4813],[25.3779,36.4599],[25.4129,36.4588],[25.4229,36.4449],[25.4257,36.4024],[25.4338,36.3915],[25.4124,36.3618],[25.4438,36.3315],[25.486,36.3629],[25.4885,36.4029],[25.4232,36.4746],[25.3918,36.4813]]],[[[22.9804,36.5088],[22.9463,36.5018],[22.9268,36.481],[22.9254,36.4663],[22.969,36.4765],[22.9915,36.4718],[22.9804,36.5088]]],[[[26.4582,37.0215],[26.4279,37.0126],[26.4421,36.9912],[26.4568,37.0015],[26.4582,37.0215]]],[[[24.991,36.9757],[24.9757,36.9626],[24.9904,36.9493],[25.0215,36.9551],[25.0238,36.9674],[24.991,36.9757]]],[[[25.0793,37.0496],[25.0535,37.0376],[25.0449,37.0229],[25.0196,37.0068],[25.019,36.9799],[25.0601,36.9724],[25.0729,36.9849],[25.0793,37.0496]]],[[[24.4976,37.2082],[24.4604,37.1988],[24.4399,37.1862],[24.4207,37.1576],[24.4343,37.1254],[24.486,37.1257],[24.5054,37.1101],[24.5146,37.1387],[24.5351,37.1551],[24.5229,37.1662],[24.5338,37.1935],[24.4976,37.2082]]],[[[25.2687,37.1304],[25.2257,37.1193],[25.2165,37.1454],[25.1649,37.1268],[25.1312,37.0979],[25.151,37.0943],[25.1071,37.0643],[25.1079,37.0426],[25.0976,37.0168],[25.1326,36.9968],[25.1821,36.9749],[25.2518,37.0157],[25.2521,37.0279],[25.2793,37.0612],[25.2554,37.0799],[25.2835,37.1243],[25.2818,37.1526],[25.2593,37.1507],[25.2687,37.1304]]],[[[25.8315,37.1346],[25.8118,37.1321],[25.7879,37.101],[25.8115,37.089],[25.8349,37.0929],[25.8224,37.119],[25.8315,37.1346]]],[[[26.811,37.2015],[26.7776,37.1946],[26.7671,37.1785],[26.774,37.1649],[26.816,37.1554],[26.8068,37.1349],[26.8154,37.1151],[26.8551,37.0954],[26.8876,37.1015],[26.8799,37.1321],[26.8357,37.1618],[26.856,37.184],[26.811,37.2015]]],[[[26.9737,37.4765],[26.941,37.4771],[26.9451,37.4474],[26.9613,37.4435],[27.0049,37.4637],[26.9737,37.4765]]],[[[23.3501,37.3485],[23.2824,37.3354],[23.3018,37.3204],[23.331,37.3213],[23.3626,37.3387],[23.3501,37.3485]]],[[[26.7215,37.411],[26.711,37.4046],[26.7168,37.3876],[26.7443,37.361],[26.7551,37.3782],[26.7196,37.4038],[26.7215,37.411]]],[[[25.2054,37.431],[25.1999,37.4201],[25.2335,37.3979],[25.216,37.3713],[25.2538,37.3774],[25.2324,37.3999],[25.2393,37.4221],[25.2054,37.431]]],[[[24.8871,37.5135],[24.8976,37.496],[24.8918,37.4726],[24.8951,37.4449],[24.8604,37.4157],[24.8782,37.3976],[24.884,37.3649],[24.9324,37.3857],[24.9468,37.3812],[24.9682,37.4146],[24.9401,37.4399],[24.9499,37.4465],[24.9474,37.486],[24.9307,37.5015],[24.8871,37.5135]]],[[[25.3499,37.4996],[25.3115,37.4921],[25.3137,37.4682],[25.3285,37.4635],[25.3274,37.4396],[25.2999,37.4315],[25.3126,37.4149],[25.3635,37.4057],[25.4085,37.4343],[25.4596,37.4465],[25.4613,37.4757],[25.4118,37.484],[25.4035,37.4963],[25.3785,37.4907],[25.3499,37.4996]]],[[[23.4843,37.5585],[23.4737,37.5357],[23.4276,37.5218],[23.4451,37.5074],[23.4918,37.5004],[23.5224,37.5171],[23.486,37.5385],[23.4843,37.5585]]],[[[23.1188,37.2815],[23.1085,37.276],[23.1151,37.2479],[23.1354,37.2343],[23.1549,37.2357],[23.1688,37.2632],[23.1188,37.2815]]],[[[26.7251,37.3271],[26.7099,37.3182],[26.7162,37.3018],[26.7632,37.279],[26.7896,37.284],[26.7874,37.3082],[26.7579,37.3054],[26.7251,37.3271]]],[[[26.5701,37.3785],[26.5621,37.3696],[26.5329,37.3788],[26.5271,37.2879],[26.5415,37.276],[26.5729,37.2696],[26.5482,37.3201],[26.566,37.3457],[26.5999,37.3468],[26.5701,37.3785]]],[[[23.5621,37.3688],[23.5076,37.3665],[23.4696,37.354],[23.3807,37.3115],[23.3965,37.2926],[23.4474,37.3168],[23.5029,37.3176],[23.514,37.3449],[23.5729,37.3585],[23.5621,37.3688]]],[[[24.4387,37.4815],[24.4257,37.4807],[24.3721,37.4371],[24.3629,37.421],[24.3885,37.4096],[24.3965,37.3726],[24.3685,37.3329],[24.3651,37.3046],[24.3968,37.3101],[24.4318,37.3343],[24.4315,37.3465],[24.4596,37.3776],[24.4801,37.391],[24.4849,37.4074],[24.4693,37.4276],[24.4326,37.4426],[24.4387,37.4815]]],[[[25.4724,36.8688],[25.4368,36.8518],[25.4224,36.8218],[25.4554,36.8185],[25.4757,36.8257],[25.4824,36.8446],[25.4724,36.8688]]],[[[27.0374,36.7676],[27.0576,36.7679],[27.1001,36.7562],[27.141,36.7779],[27.1668,36.8065],[27.2315,36.8262],[27.2646,36.8299],[27.3254,36.8454],[27.3521,36.8587],[27.3446,36.8862],[27.3085,36.8862],[27.2862,36.9001],[27.2793,36.9154],[27.244,36.8974],[27.1996,36.8899],[27.1696,36.8904],[27.1054,36.8579],[27.0765,36.8504],[27.0296,36.8132],[27.0004,36.7757],[26.9615,36.7754],[26.929,36.7671],[26.9174,36.7487],[26.9237,36.7043],[26.954,36.676],[26.9674,36.6826],[26.9674,36.7057],[26.9846,36.7212],[26.9715,36.7351],[26.9837,36.7521],[27.0374,36.7676]]],[[[26.0093,36.936],[25.9713,36.9274],[25.9549,36.909],[25.9779,36.9024],[25.9088,36.8665],[25.8857,36.8651],[25.8435,36.8518],[25.844,36.8124],[25.7832,36.8149],[25.756,36.7932],[25.7579,36.7729],[25.8043,36.7671],[25.8201,36.7818],[25.8649,36.7863],[25.9335,36.8513],[25.9493,36.8537],[25.9757,36.879],[26.0068,36.8932],[26.0507,36.9004],[26.0863,36.8963],[26.0093,36.936]]],[[[25.5268,36.8926],[25.4985,36.8768],[25.5196,36.8549],[25.5315,36.8568],[25.5268,36.8926]]],[[[25.6521,36.9079],[25.6135,36.8963],[25.6338,36.8838],[25.6826,36.8737],[25.6754,36.8965],[25.6521,36.9079]]],[[[25.616,36.9521],[25.5943,36.9493],[25.5896,36.9343],[25.6251,36.9357],[25.616,36.9521]]],[[[24.6421,37.0401],[24.6404,37.0232],[24.6685,36.9968],[24.6599,36.9779],[24.6763,36.954],[24.6829,36.9257],[24.7001,36.9018],[24.7321,36.9324],[24.7654,36.9488],[24.7371,36.9893],[24.7187,37.0004],[24.7088,37.0201],[24.6421,37.0401]]],[[[26.8921,37.0788],[26.8829,37.069],[26.9465,37.0401],[26.9246,36.9824],[26.9279,36.9671],[26.9135,36.9482],[26.9404,36.9257],[26.9863,36.9251],[26.9868,36.9512],[27.0349,36.9501],[27.0462,37.0015],[27.0371,37.014],[26.9949,37.0201],[26.9768,37.0346],[26.9732,37.054],[26.8921,37.0788]]],[[[25.539,37.2018],[25.4938,37.1888],[25.476,37.164],[25.4499,37.1404],[25.4129,37.1357],[25.3785,37.1087],[25.3696,37.0865],[25.3399,37.0896],[25.3529,37.0643],[25.3788,37.0374],[25.3679,37.021],[25.3824,37.0115],[25.3863,36.9837],[25.4243,36.9674],[25.4232,36.9315],[25.4479,36.9157],[25.509,36.9546],[25.5496,36.9568],[25.5632,36.9963],[25.5788,37.0229],[25.5907,37.0996],[25.5985,37.1079],[25.5882,37.146],[25.5721,37.1704],[25.5482,37.1826],[25.539,37.2018]]],[[[26.4429,37.6004],[26.4171,37.5793],[26.4593,37.5788],[26.4429,37.6004]]],[[[26.5165,37.6557],[26.4979,37.6446],[26.516,37.6201],[26.5134,37.5943],[26.5021,37.5843],[26.4732,37.5838],[26.5024,37.5265],[26.5154,37.5524],[26.4988,37.566],[26.5226,37.5863],[26.5443,37.621],[26.5362,37.6396],[26.5165,37.6557]]],[[[24.3501,37.6849],[24.3251,37.6821],[24.2943,37.6596],[24.271,37.6176],[24.2663,37.5868],[24.2801,37.5707],[24.2726,37.5563],[24.2749,37.5218],[24.294,37.5224],[24.3557,37.5718],[24.3876,37.6057],[24.4124,37.6515],[24.3954,37.676],[24.3501,37.6849]]],[[[26.019,37.5168],[26.0576,37.5143],[26.0757,37.5207],[26.1101,37.554],[26.1979,37.5621],[26.2221,37.5701],[26.2696,37.601],[26.2915,37.6087],[26.3396,37.6546],[26.3365,37.6832],[26.296,37.6796],[26.2196,37.6349],[26.1974,37.6263],[26.1515,37.6385],[26.099,37.6304],[26.0888,37.6365],[26.0585,37.6235],[25.9993,37.5643],[25.9779,37.536],[25.974,37.5201],[25.9907,37.5079],[26.019,37.5168]]],[[[25.0293,37.6776],[25.006,37.6776],[24.9749,37.6607],[25.0154,37.6243],[25.0432,37.6149],[25.0557,37.5968],[25.1043,37.5749],[25.1143,37.5493],[25.1443,37.5513],[25.1835,37.5254],[25.2104,37.5285],[25.2538,37.5832],[25.2538,37.611],[25.2363,37.6135],[25.2071,37.6329],[25.1363,37.6429],[25.1182,37.6532],[25.0585,37.6471],[25.0551,37.6743],[25.0293,37.6776]]],[[[21.422228975780552,38.32540297636417],[21.4499,38.3218],[21.4801,38.2993],[21.4999,38.3021],[21.549,38.3224],[21.5785,38.3282],[21.5893,38.3443],[21.6187,38.3418],[21.639,38.3576],[21.6885,38.3457],[21.7143,38.3474],[21.7321,38.3349],[21.7715,38.334],[21.7868,38.3743],[21.8024,38.3749],[21.8365,38.3918],[21.8504,38.3754],[21.8785,38.3676],[21.9124,38.3824],[21.9349,38.4068],[21.9946,38.399],[22.0046,38.3893],[22.0513,38.3949],[22.1015,38.3668],[22.1271,38.366],[22.1429,38.344],[22.1579,38.349],[22.1835,38.3204],[22.1921,38.3354],[22.234,38.3587],[22.2535,38.3615],[22.2865,38.3376],[22.2974,38.3499],[22.3238,38.3435],[22.3476,38.3493],[22.3785,38.3321],[22.3838,38.364],[22.3985,38.3757],[22.3729,38.3915],[22.3843,38.4049],[22.411,38.4093],[22.401,38.439],[22.4321,38.426],[22.4557,38.4268],[22.4646,38.4118],[22.5035,38.3821],[22.5126,38.3599],[22.5376,38.3435],[22.521,38.3343],[22.5543,38.2821],[22.5701,38.2796],[22.6015,38.3118],[22.5863,38.3279],[22.6024,38.3585],[22.6376,38.3496],[22.6576,38.386],[22.679,38.374],[22.6893,38.3485],[22.6799,38.3329],[22.7093,38.3079],[22.7504,38.2971],[22.7538,38.2863],[22.7862,38.2821],[22.7835,38.2651],[22.7621,38.246],[22.7782,38.2329],[22.8071,38.2254],[22.8415,38.2246],[22.8593,38.2324],[22.894,38.2188],[22.9032,38.1862],[22.9399,38.1829],[22.9604,38.2018],[23.0235,38.214],[23.0515,38.1935],[23.031,38.181],[23.0718,38.1704],[23.1071,38.206],[23.1251,38.1999],[23.1354,38.1743],[23.1979,38.1635],[23.2232,38.1451],[23.1824,38.141],[23.1796,38.1254],[23.2107,38.1224],[23.2154,38.0996],[23.184,38.0904],[23.1699,38.074],[23.1162,38.0599],[23.0754,38.059],[23.0579,38.0524],[23.0415,38.0629],[23.0015,38.061],[22.9899,38.074],[22.9568,38.0799],[22.9196,38.0674],[22.8487,38.0279],[22.9126,38.0163],[22.9268,38.0038],[22.9765,37.9763],[22.944,37.9404],[22.8726,37.9332],[22.8338,37.9543],[22.7971,37.9668],[22.7776,37.9946],[22.7162,38.0376],[22.6612,38.0612],[22.6388,38.0785],[22.5454,38.1049],[22.4915,38.1362],[22.4518,38.1301],[22.3901,38.136],[22.3524,38.151],[22.3343,38.1774],[22.2763,38.1712],[22.2165,38.1799],[22.1876,38.204],[22.1546,38.2137],[22.1493,38.2285],[22.1085,38.2663],[22.0793,38.2535],[22.0668,38.2713],[22.0424,38.2754],[22.0099,38.3138],[21.9868,38.3118],[21.9607,38.3265],[21.8899,38.3246],[21.849,38.3393],[21.8257,38.3168],[21.8149,38.3199],[21.7779,38.3071],[21.7393,38.2715],[21.7151,38.2118],[21.6787,38.1854],[21.6735,38.1696],[21.601,38.1426],[21.5465,38.1587],[21.5329,38.1546],[21.4632,38.1946],[21.4382,38.1985],[21.4099,38.191],[21.3918,38.2099],[21.3635,38.1801],[21.3682,38.1271],[21.3421,38.1001],[21.3304,38.066],[21.3035,38.024],[21.2574,37.9754],[21.1943,37.9321],[21.1749,37.9265],[21.1315,37.9379],[21.1099,37.8871],[21.1099,37.8421],[21.144,37.8301],[21.1874,37.8246],[21.2529,37.7985],[21.2904,37.7729],[21.3043,37.7574],[21.3085,37.7257],[21.3201,37.7043],[21.3071,37.6757],[21.3096,37.6574],[21.3329,37.6635],[21.3679,37.661],[21.4032,37.6465],[21.4499,37.6126],[21.5232,37.5751],[21.5674,37.5412],[21.6063,37.5007],[21.6521,37.441],[21.6904,37.361],[21.6999,37.3107],[21.6707,37.2571],[21.6499,37.251],[21.6313,37.2318],[21.5965,37.2154],[21.5779,37.1951],[21.5654,37.1601],[21.5782,37.0879],[21.5768,37.0565],[21.6032,37.0393],[21.6099,37.0246],[21.6365,37.0088],[21.6588,36.9732],[21.6568,36.9504],[21.6818,36.9568],[21.7101,36.9432],[21.7071,36.9229],[21.689,36.9138],[21.679,36.8874],[21.704,36.811],[21.7574,36.7935],[21.8143,36.8068],[21.831,36.7726],[21.864,36.7476],[21.8746,36.7201],[21.906,36.7454],[21.9357,36.7618],[21.9365,36.781],[21.9585,36.7929],[21.9393,36.8071],[21.9218,36.864],[21.9254,36.9057],[21.9354,36.9307],[21.9304,36.9821],[21.9849,37.0107],[22.0496,37.0274],[22.0846,37.0279],[22.1449,37.0196],[22.1551,36.9951],[22.1407,36.9663],[22.1465,36.9454],[22.1251,36.9143],[22.1626,36.8915],[22.1813,36.889],[22.1935,36.9024],[22.2254,36.894],[22.2451,36.8587],[22.2962,36.814],[22.3151,36.7604],[22.3304,36.7388],[22.3487,36.6968],[22.3699,36.6924],[22.3626,36.6749],[22.3643,36.5999],[22.3829,36.5471],[22.3449,36.5199],[22.364,36.4818],[22.3757,36.4729],[22.4146,36.4676],[22.4585,36.4521],[22.469,36.4032],[22.4885,36.3929],[22.5021,36.4429],[22.5026,36.4974],[22.4735,36.5332],[22.4826,36.554],[22.4726,36.5907],[22.4771,36.6149],[22.4988,36.6188],[22.5107,36.6021],[22.5293,36.6165],[22.5004,36.6618],[22.5121,36.669],[22.5471,36.6579],[22.5474,36.6732],[22.5215,36.6815],[22.5224,36.709],[22.5346,36.7212],[22.5738,36.7385],[22.5649,36.7751],[22.6235,36.8057],[22.739,36.8057],[22.7854,36.7971],[22.8026,36.7426],[22.8182,36.7232],[22.8057,36.6724],[22.8276,36.6676],[22.8379,36.6876],[22.8807,36.6526],[22.8726,36.629],[22.9371,36.5835],[22.9463,36.5574],[22.9679,36.5196],[23.0324,36.5268],[23.0649,36.5049],[23.0624,36.474],[23.0885,36.4415],[23.1104,36.4399],[23.1296,36.4276],[23.1449,36.4413],[23.1985,36.4349],[23.1957,36.4604],[23.1676,36.4665],[23.1601,36.4871],[23.1296,36.4987],[23.1426,36.5113],[23.1424,36.5393],[23.1265,36.5601],[23.1093,36.5599],[23.0674,36.5857],[23.0579,36.6074],[23.0321,36.6263],[23.026,36.6554],[23.0385,36.6746],[23.0254,36.7093],[23.0257,36.7271],[23.0474,36.7432],[23.0865,36.7287],[23.0846,36.7599],[23.0996,36.7779],[23.0843,36.806],[23.0901,36.8193],[23.0624,36.8329],[23.0449,36.8507],[23.0518,36.861],[23.0379,36.8826],[23.0335,36.9063],[22.9918,36.9732],[23.0074,36.9849],[23.001,37.0313],[22.9779,37.0579],[22.9851,37.0743],[22.9632,37.0957],[22.9593,37.1143],[22.9268,37.1165],[22.909,37.1107],[22.8932,37.1287],[22.906,37.1882],[22.894,37.2188],[22.839,37.2788],[22.8213,37.3179],[22.774,37.3871],[22.7524,37.394],[22.7701,37.4146],[22.7485,37.4404],[22.7493,37.4604],[22.7279,37.4946],[22.7374,37.5215],[22.7229,37.5415],[22.7182,37.5649],[22.7499,37.586],[22.7768,37.5907],[22.8199,37.5276],[22.8568,37.5129],[22.8679,37.5274],[22.896,37.5326],[22.9382,37.5279],[22.9735,37.5174],[22.9932,37.4824],[23.0165,37.471],[23.0429,37.4813],[23.0568,37.4504],[23.1213,37.451],[23.1321,37.4393],[23.1329,37.4096],[23.074,37.3771],[23.066,37.3524],[23.1115,37.3504],[23.1115,37.3296],[23.1476,37.2954],[23.1835,37.2949],[23.2018,37.3046],[23.1807,37.321],[23.1904,37.3396],[23.2499,37.3532],[23.2251,37.3793],[23.2613,37.389],[23.2682,37.4063],[23.2968,37.3935],[23.3382,37.414],[23.384,37.411],[23.411,37.4038],[23.4265,37.4129],[23.4554,37.4138],[23.4985,37.4232],[23.5196,37.4346],[23.5204,37.4538],[23.4979,37.4732],[23.4079,37.5174],[23.4182,37.531],[23.3724,37.5524],[23.4154,37.6124],[23.4035,37.6346],[23.3832,37.641],[23.3238,37.6312],[23.3176,37.6196],[23.3674,37.5535],[23.3326,37.5324],[23.2676,37.5596],[23.264,37.5732],[23.2207,37.5885],[23.1665,37.6129],[23.1682,37.6538],[23.1521,37.6715],[23.1724,37.7012],[23.1343,37.7268],[23.1185,37.746],[23.1796,37.7768],[23.1796,37.8029],[23.1251,37.8429],[23.0949,37.8476],[23.0651,37.8393],[23.0374,37.8485],[23.004,37.8496],[22.9921,37.8804],[23.0179,37.8999],[23.0085,37.9143],[23.0515,37.9221],[23.0568,37.9121],[23.1351,37.9201],[23.1663,37.9488],[23.1982,37.954],[23.2421,37.976],[23.2787,37.9779],[23.3054,37.969],[23.3504,37.9779],[23.3815,37.9704],[23.4507,38.0235],[23.4871,38.024],[23.5199,38.0438],[23.5401,38.034],[23.5818,38.0415],[23.6029,38.0243],[23.5879,37.9987],[23.5701,37.9999],[23.5518,37.9799],[23.5585,37.9604],[23.5871,37.9579],[23.6429,37.9274],[23.6671,37.941],[23.7188,37.9035],[23.7176,37.8926],[23.7599,37.8387],[23.7685,37.8176],[23.7974,37.7996],[23.806,37.8199],[23.8285,37.8093],[23.8682,37.8007],[23.9013,37.7738],[23.9032,37.7315],[23.9099,37.7193],[23.934,37.7193],[23.9413,37.681],[23.9501,37.6696],[24.0049,37.6554],[24.0515,37.6696],[24.0629,37.7126],[24.0532,37.7282],[24.0771,37.7621],[24.0854,37.7976],[24.0493,37.819],[24.0557,37.8565],[24.0374,37.8751],[24.0432,37.8937],[24.0324,37.9224],[24.0071,37.9649],[24.0254,38.0096],[24.0001,38.0332],[23.9976,38.0687],[23.9843,38.0854],[23.9857,38.1143],[24.0204,38.1368],[24.0557,38.1413],[24.0701,38.1629],[24.0579,38.1821],[24.0735,38.1996],[24.0499,38.2074],[24.0179,38.2368],[23.9732,38.2663],[23.9543,38.2854],[23.9212,38.2951],[23.8804,38.299],[23.869,38.3082],[23.8321,38.3124],[23.8074,38.3285],[23.7768,38.3349],[23.7321,38.334],[23.6776,38.3396],[23.631,38.3779],[23.6299,38.4099],[23.6018,38.424],[23.5982,38.4429],[23.5685,38.4515],[23.5926,38.4729],[23.5515,38.5071],[23.5251,38.4951],[23.5149,38.4801],[23.4793,38.4857],[23.4646,38.4996],[23.411,38.499],[23.4051,38.5096],[23.3693,38.511],[23.341,38.4979],[23.3385,38.5165],[23.3746,38.5215],[23.3643,38.5354],[23.3368,38.5324],[23.3154,38.564],[23.2982,38.5701],[23.3063,38.589],[23.341,38.6046],[23.321,38.6385],[23.2838,38.6496],[23.2549,38.6435],[23.2288,38.6554],[23.1946,38.6804],[23.1646,38.6749],[23.1899,38.649],[23.1407,38.6465],[23.1129,38.6254],[23.0893,38.6393],[23.0646,38.6796],[23.064,38.7232],[23.0335,38.7557],[23.019,38.7485],[22.9687,38.744],[22.9354,38.7543],[22.924,38.7696],[22.8996,38.7765],[22.8676,38.754],[22.8401,38.7713],[22.8246,38.7901],[22.8093,38.7801],[22.7749,38.7771],[22.7407,38.809],[22.6901,38.8438],[22.6618,38.8321],[22.6299,38.8379],[22.6038,38.8215],[22.5771,38.8243],[22.5674,38.8615],[22.5482,38.8812],[22.584,38.8929],[22.6207,38.9115],[22.6479,38.9032],[22.6679,38.8835],[22.7535,38.869],[22.774,38.8804],[22.8412,38.894],[22.8385,38.9107],[22.8604,38.9271],[22.9024,38.9196],[22.9332,38.9246],[22.9549,38.9465],[22.9915,38.9446],[22.9965,38.9696],[23.0096,38.9754],[23.0263,39.0149],[23.0529,39.0182],[23.0654,39.0365],[23.0335,39.0374],[22.9963,39.0165],[22.9726,39.0129],[22.9624,39.0329],[22.9926,39.0343],[22.9876,39.054],[23.0004,39.066],[22.9768,39.0871],[22.9832,39.0985],[22.9351,39.1271],[22.9165,39.121],[22.9124,39.159],[22.8893,39.1679],[22.8624,39.1532],[22.8343,39.1849],[22.8149,39.2379],[22.8179,39.2721],[22.8412,39.2846],[22.8774,39.2926],[22.9374,39.2946],[22.9263,39.3235],[22.9496,39.3576],[23.0112,39.3393],[23.0204,39.3154],[23.0732,39.3151],[23.1199,39.3054],[23.1638,39.2726],[23.1815,39.2487],[23.1768,39.2279],[23.1893,39.2076],[23.2213,39.1807],[23.201,39.1443],[23.1732,39.1471],[23.1093,39.1004],[23.0993,39.1143],[23.1162,39.1279],[23.1046,39.156],[23.0668,39.1363],[23.0588,39.0946],[23.0732,39.0846],[23.1124,39.0854],[23.1882,39.104],[23.2121,39.1032],[23.2107,39.1265],[23.249,39.126],[23.2721,39.1404],[23.3004,39.1385],[23.3354,39.1593],[23.3518,39.186],[23.3163,39.2363],[23.3107,39.2549],[23.2868,39.2701],[23.2765,39.314],[23.2604,39.3315],[23.2221,39.3515],[23.2046,39.369],[23.1821,39.4074],[23.1699,39.4082],[23.1526,39.4318],[23.1207,39.4551],[23.0963,39.5001],[23.0543,39.5221],[23.0204,39.5288],[23.004,39.5513],[22.9782,39.5574],[22.9332,39.5812],[22.9154,39.6037],[22.8943,39.6646],[22.8679,39.7246],[22.8532,39.8001],[22.8062,39.8213],[22.7707,39.8551],[22.7357,39.869],[22.7121,39.9121],[22.7185,39.936],[22.7096,39.9524],[22.6796,39.9687],[22.6368,39.9837],[22.5932,40.0135],[22.5876,40.0379],[22.5671,40.0696],[22.5688,40.0982],[22.5482,40.1418],[22.5596,40.1799],[22.5907,40.2088],[22.5854,40.2293],[22.6035,40.2826],[22.6246,40.3168],[22.659,40.3546],[22.6554,40.3679],[22.6199,40.3868],[22.606,40.4263],[22.6068,40.4424],[22.5863,40.4613],[22.6132,40.4718],[22.6537,40.4768],[22.6524,40.5082],[22.6621,40.5254],[22.6812,40.5299],[22.7279,40.5015],[22.7437,40.5204],[22.7415,40.5582],[22.774,40.5696],[22.786,40.5629],[22.8335,40.5785],[22.8554,40.5913],[22.8579,40.6143],[22.896,40.6443],[22.9335,40.634],[22.9518,40.6215],[22.9482,40.596],[22.9357,40.584],[22.9818,40.549],[22.9768,40.5363],[22.9357,40.5124],[22.8974,40.5026],[22.8221,40.5057],[22.8174,40.4754],[22.8538,40.4676],[22.8657,40.4321],[22.8821,40.4263],[22.9107,40.3804],[22.9379,40.3821],[22.9904,40.364],[23.0121,40.3468],[23.0196,40.3243],[23.1229,40.2907],[23.1399,40.2746],[23.1793,40.2696],[23.1957,40.2568],[23.2224,40.256],[23.2929,40.2365],[23.3171,40.2176],[23.3268,40.1821],[23.3168,40.1415],[23.3226,40.1279],[23.3101,40.1063],[23.314,40.0782],[23.3324,40.0732],[23.3801,40.0068],[23.3765,39.9837],[23.361,39.9632],[23.4174,39.9596],[23.4393,39.9696],[23.4915,39.9624],[23.5926,39.9207],[23.6504,39.9151],[23.691,39.9154],[23.7138,39.9076],[23.751,39.9154],[23.7457,39.9349],[23.7026,39.929],[23.6918,39.9338],[23.6671,39.9818],[23.6385,39.9835],[23.5921,39.9963],[23.514,40.0235],[23.4707,40.051],[23.4179,40.1263],[23.3757,40.1399],[23.3543,40.1568],[23.3479,40.1821],[23.331,40.1987],[23.3429,40.2321],[23.3882,40.2746],[23.4282,40.2768],[23.4604,40.2618],[23.4968,40.259],[23.5296,40.2365],[23.5515,40.2374],[23.584,40.2251],[23.6157,40.2287],[23.651,40.2249],[23.6971,40.1924],[23.7254,40.1646],[23.7324,40.1421],[23.7726,40.1176],[23.7751,40.0993],[23.7921,40.089],[23.7854,40.0671],[23.8129,40.0426],[23.8146,40.0232],[23.8635,40.0135],[23.8662,39.9999],[23.8996,39.9876],[23.9015,39.9599],[23.9499,39.9374],[23.9613,39.9476],[23.9954,39.9515],[23.9865,39.9832],[24.0215,40.0082],[24.0204,40.0296],[23.9865,40.0471],[24.0085,40.0585],[23.979,40.086],[23.9938,40.1132],[23.9349,40.1382],[23.9296,40.1476],[23.8876,40.1668],[23.824,40.1807],[23.816,40.191],[23.7757,40.1915],[23.7471,40.2263],[23.7088,40.2582],[23.6938,40.2868],[23.7079,40.334],[23.7401,40.3532],[23.7832,40.3365],[23.8312,40.3657],[23.866,40.3696],[23.8896,40.3601],[23.9204,40.3646],[23.9635,40.3468],[23.9801,40.3243],[24.0396,40.2926],[24.089,40.2863],[24.1215,40.289],[24.1637,40.2793],[24.1929,40.2407],[24.2218,40.219],[24.2188,40.199],[24.2799,40.1629],[24.2882,40.1282],[24.3018,40.1151],[24.3543,40.1265],[24.3996,40.1415],[24.3957,40.1621],[24.3746,40.1929],[24.3415,40.2057],[24.3388,40.2151],[24.2882,40.2446],[24.2493,40.3088],[24.211,40.3154],[24.1876,40.3276],[24.1926,40.3424],[24.1551,40.359],[24.1024,40.3599],[24.066,40.3676],[24.0474,40.3924],[24.0312,40.4001],[24.0204,40.4346],[23.9974,40.4196],[24.0113,40.3924],[23.9737,40.3768],[23.9301,40.3807],[23.8865,40.3963],[23.8365,40.4418],[23.8207,40.4782],[23.8237,40.5074],[23.8374,40.519],[23.8826,40.5176],[23.9176,40.5288],[23.8682,40.5576],[23.8335,40.5571],[23.8188,40.5793],[23.8032,40.5799],[23.7812,40.5974],[23.7804,40.6157],[23.7485,40.6424],[23.7421,40.6557],[23.6951,40.6676],[23.6993,40.7012],[23.7182,40.7326],[23.741,40.7557],[23.7618,40.7554],[23.784,40.7701],[23.849,40.7857],[23.9054,40.7596],[23.9638,40.7399],[24.0254,40.7274],[24.0454,40.7185],[24.0896,40.7218],[24.1457,40.7393],[24.201,40.7729],[24.2771,40.8074],[24.3037,40.8154],[24.3068,40.8435],[24.3221,40.8832],[24.3496,40.9024],[24.3607,40.8985],[24.3993,40.9349],[24.4304,40.9449],[24.5104,40.9593],[24.5557,40.951],[24.5837,40.9071],[24.6082,40.8901],[24.6279,40.8632],[24.6718,40.8737],[24.7057,40.8646],[24.7174,40.8518],[24.7701,40.8587],[24.8021,40.8457],[24.8246,40.8682],[24.8849,40.9121],[24.9557,40.9332],[24.9835,40.9293],[24.9985,40.9607],[25.0679,41.004],[25.1107,41.0046],[25.136,40.9976],[25.1269,40.9525],[25.1617,40.9465],[25.1721,40.9369],[25.2047,40.9382],[25.2695,40.9298],[25.314,40.9451],[25.361,40.9351],[25.3793,40.9093],[25.4571,40.8971],[25.5021,40.8824],[25.5071,40.8729],[25.5604,40.8568],[25.5874,40.8685],[25.6249,40.8646],[25.699,40.8488],[25.751,40.8462],[25.8165,40.8507],[25.8688,40.841],[25.9099,40.8479],[25.9501,40.8424],[25.9826,40.826],[26.024,40.7949],[26.0362,40.776],[26.0326,40.7529],[26.0641,40.7375],[26.1004,40.7433],[26.1328,40.7619],[26.1355,40.7816],[26.1577,40.8147],[26.2173,40.8367],[26.2014,40.8522],[26.2282,40.8821],[26.2542,40.8944],[26.2559,40.9086],[26.2902,40.8998],[26.3014,40.9102],[26.289,40.9349],[26.3509,40.9498],[26.3438,40.9871],[26.3623,41.0133],[26.3591,41.0276],[26.3311,41.0419],[26.3142,41.0879],[26.3273,41.1115],[26.31,41.1176],[26.3333,41.1445],[26.3064,41.1751],[26.3226,41.1838],[26.3235,41.2348],[26.3314,41.2539],[26.3576,41.2473],[26.4005,41.2505],[26.434,41.2764],[26.4855,41.3035],[26.5005,41.3268],[26.5486,41.3462],[26.5642,41.3457],[26.5922,41.3287],[26.6369,41.3561],[26.6418,41.3909],[26.6339,41.4284],[26.619,41.4391],[26.6199,41.4721],[26.6049,41.491],[26.6099,41.5048],[26.5979,41.5383],[26.6053,41.5526],[26.5941,41.5837],[26.5961,41.6155],[26.551,41.6226],[26.5188,41.6389],[26.497,41.6691],[26.4439,41.6949],[26.4126,41.6924],[26.3702,41.712],[26.3346,41.7176],[26.286,41.7119],[26.2172,41.7312],[26.1713,41.7476],[26.1209,41.7277],[26.115,41.7127],[26.0868,41.7158],[26.059,41.6958],[26.0619,41.6598],[26.0966,41.6244],[26.1206,41.6219],[26.1509,41.6026],[26.145,41.552],[26.174,41.5522],[26.1838,41.5172],[26.1535,41.4714],[26.1865,41.4482],[26.1507,41.4199],[26.1463,41.3866],[26.124,41.3707],[26.1189,41.3495],[26.0788,41.3457],[26.04,41.3478],[25.9985,41.3391],[25.9864,41.323],[25.9626,41.3127],[25.9221,41.3148],[25.8907,41.3004],[25.8548,41.3054],[25.8354,41.3274],[25.8125,41.3368],[25.788,41.3299],[25.771,41.3146],[25.7192,41.316],[25.7015,41.2912],[25.65,41.3104],[25.616,41.3012],[25.5679,41.3152],[25.5378,41.3082],[25.518,41.2769],[25.5005,41.2855],[25.4669,41.2874],[25.377,41.2559],[25.3593,41.2592],[25.328,41.2403],[25.2308,41.2434],[25.2139,41.2774],[25.1811,41.2923],[25.1581,41.3155],[25.1308,41.3205],[25.1033,41.3393],[25.074,41.335],[25.0558,41.3564],[24.9302,41.3854],[24.8927,41.403],[24.8732,41.3869],[24.8103,41.3956],[24.8125,41.3801],[24.7881,41.3569],[24.7443,41.3779],[24.7281,41.4132],[24.6795,41.422],[24.6481,41.4183],[24.647,41.4321],[24.5993,41.4319],[24.5941,41.4636],[24.5631,41.4738],[24.5542,41.4998],[24.5608,41.5136],[24.5473,41.5346],[24.5553,41.5451],[24.5237,41.5666],[24.5082,41.5559],[24.4703,41.5489],[24.435,41.5197],[24.3739,41.5325],[24.3618,41.5211],[24.3282,41.5251],[24.3047,41.5138],[24.2935,41.5355],[24.2664,41.5635],[24.2456,41.5653],[24.2117,41.5501],[24.1737,41.5197],[24.1485,41.5365],[24.1322,41.5315],[24.0992,41.5487],[24.0762,41.5393],[24.0568,41.5168],[24.0565,41.4822],[24.0667,41.4651],[24.0309,41.4492],[24.0142,41.4571],[23.9901,41.4522],[23.9641,41.4366],[23.9157,41.4752],[23.902,41.4515],[23.8535,41.4439],[23.8455,41.4353],[23.7964,41.4322],[23.7579,41.395],[23.7291,41.4059],[23.6876,41.4028],[23.666,41.4086],[23.6375,41.3936],[23.6241,41.3759],[23.6005,41.3764],[23.571,41.3898],[23.5401,41.3864],[23.5191,41.4051],[23.4744,41.3982],[23.4288,41.4061],[23.3518,41.3786],[23.3364,41.3664],[23.3207,41.3982],[23.2704,41.3993],[23.2472,41.3822],[23.2227,41.3764],[23.2115,41.3371],[23.1848,41.3228],[23.0598,41.321],[23.0137,41.3343],[22.9594,41.3333],[22.9244,41.3413],[22.8665,41.3434],[22.8395,41.3386],[22.8098,41.3437],[22.7684,41.3304],[22.7594,41.3064],[22.761,41.2807],[22.7495,41.1826],[22.7366,41.1604],[22.7172,41.1466],[22.6943,41.1576],[22.6681,41.1841],[22.6455,41.1766],[22.6141,41.1326],[22.5927,41.1197],[22.5562,41.1333],[22.4704,41.12],[22.4193,41.1244],[22.4049,41.1391],[22.3383,41.1353],[22.2648,41.1676],[22.229,41.1681],[22.1798,41.1606],[22.1385,41.1285],[22.1136,41.1316],[22.0564,41.1602],[22.0313,41.1339],[21.9619,41.1247],[21.9078,41.0931],[21.9032,41.0587],[21.8708,41.0254],[21.8525,41.0197],[21.8324,40.9905],[21.7991,40.972],[21.7968,40.9433],[21.7853,40.9332],[21.7556,40.9302],[21.7034,40.9398],[21.6715,40.9235],[21.6616,40.8975],[21.6337,40.8952],[21.5948,40.8716],[21.5705,40.8747],[21.5345,40.9114],[21.4664,40.9119],[21.4363,40.9219],[21.3456,40.8766],[21.2951,40.8638],[21.2608,40.8637],[21.2221,40.8852],[21.1639,40.8644],[21.121,40.8581],[20.9997,40.8553],[20.9747,40.8453],[20.9748,40.7829],[20.9534,40.7619],[20.9757,40.747],[20.9749,40.7295],[21.0159,40.7007],[21.0491,40.6586],[21.0322,40.5833],[21.0388,40.5624],[21.0122,40.5522],[20.9911,40.5291],[20.9603,40.5115],[20.9581,40.4806],[20.928,40.46],[20.9051,40.4732],[20.8678,40.4689],[20.8431,40.4769],[20.8142,40.438],[20.7778,40.4164],[20.785,40.3766],[20.7816,40.3545],[20.7059,40.2771],[20.7001,40.2601],[20.7126,40.2476],[20.7159,40.216],[20.6946,40.1903],[20.6705,40.1819],[20.6665,40.1584],[20.6855,40.1448],[20.6677,40.1186],[20.6712,40.1008],[20.6514,40.0888],[20.622,40.0873],[20.6006,40.0705],[20.5426,40.0575],[20.5047,40.0767],[20.4871,40.0621],[20.4618,40.0723],[20.4119,40.0558],[20.3878,39.9923],[20.3676,39.9833],[20.3051,39.9844],[20.3378,39.9383],[20.3304,39.9177],[20.3769,39.8834],[20.3809,39.8639],[20.401,39.8406],[20.4062,39.8097],[20.3841,39.7853],[20.3679,39.7802],[20.3413,39.7984],[20.2971,39.8112],[20.2828,39.7999],[20.2976,39.781],[20.2853,39.762],[20.314,39.7293],[20.2964,39.7116],[20.2597,39.6893],[20.2569,39.6673],[20.224,39.6793],[20.1943,39.6746],[20.1889,39.6535],[20.1707,39.6507],[20.1263,39.6573],[20.0897,39.6789],[20.0277,39.6971],[20.0138,39.6787],[20.0588,39.6802],[20.1,39.6479],[20.1119,39.6569],[20.143,39.6363],[20.1799,39.6209],[20.1823,39.6021],[20.1588,39.5513],[20.1863,39.5187],[20.2457,39.5168],[20.261,39.509],[20.2574,39.484],[20.2274,39.4824],[20.274,39.4457],[20.2326,39.446],[20.2162,39.4396],[20.239,39.4082],[20.2815,39.379],[20.2743,39.366],[20.2862,39.3268],[20.3482,39.2818],[20.4046,39.2829],[20.4701,39.264],[20.4735,39.2196],[20.5046,39.206],[20.5512,39.1724],[20.6049,39.1149],[20.6382,39.0929],[20.656,39.0915],[20.7001,39.0554],[20.7151,39.029],[20.7082,38.979],[20.7265,38.9493],[20.7574,38.9504],[20.7576,38.9721],[20.786,38.9721],[20.8199,38.9543],[20.8279,38.9701],[20.7551,39.0062],[20.7607,39.034],[20.7876,39.0574],[20.8171,39.0585],[20.8282,39.036],[20.8926,39.0332],[20.9257,39.0107],[20.9599,39.0365],[20.986,39.0137],[21.0101,39.0207],[21.0235,39.0093],[21.0468,39.0151],[21.0826,39.054],[21.1018,39.0518],[21.1524,38.9949],[21.1529,38.974],[21.1413,38.9621],[21.139,38.9226],[21.166,38.9054],[21.176,38.8771],[21.1585,38.8735],[21.1379,38.8926],[21.0971,38.9135],[21.091,38.8774],[21.0482,38.8826],[21.019,38.8976],[21.0313,38.914],[21.0201,38.9263],[20.9949,38.9212],[20.989,38.9393],[20.9713,38.9449],[20.9435,38.9326],[20.9257,38.9451],[20.9076,38.9226],[20.8893,38.921],[20.8601,38.9399],[20.8338,38.9201],[20.8115,38.9182],[20.7846,38.9268],[20.7724,38.9518],[20.7479,38.9249],[20.7538,38.9054],[20.791,38.8701],[20.7337,38.8535],[20.7246,38.8451],[20.6865,38.8515],[20.6749,38.8324],[20.6451,38.8315],[20.6249,38.7946],[20.5999,38.7751],[20.5732,38.706],[20.5549,38.6813],[20.5601,38.6518],[20.549,38.5938],[20.5782,38.6004],[20.5951,38.6318],[20.6135,38.6001],[20.6565,38.6099],[20.6843,38.6037],[20.694,38.6229],[20.7221,38.6254],[20.7243,38.6476],[20.7143,38.6632],[20.7254,38.6832],[20.7104,38.7051],[20.7332,38.7296],[20.7237,38.7687],[20.7171,38.8426],[20.7371,38.8449],[20.7276,38.8149],[20.7329,38.8007],[20.7599,38.7776],[20.7735,38.754],[20.8143,38.7671],[20.8354,38.7896],[20.8754,38.7915],[20.8788,38.7632],[20.8924,38.7379],[20.8932,38.709],[20.9229,38.6699],[20.9638,38.6732],[20.9882,38.6696],[20.9879,38.6479],[21.0212,38.6079],[21.0226,38.591],[21.0107,38.5454],[21.0204,38.5171],[21.051,38.5104],[21.0818,38.5337],[21.0965,38.5315],[21.076,38.4818],[21.0929,38.4607],[21.111,38.4526],[21.1218,38.4285],[21.1254,38.3851],[21.1051,38.3729],[21.1057,38.3449],[21.1349,38.3315],[21.1504,38.3007],[21.1779,38.2988],[21.2276,38.3151],[21.269,38.3424],[21.286,38.3454],[21.2907,38.3732],[21.3121,38.3743],[21.3357,38.3882],[21.3432,38.426],[21.3338,38.4565],[21.3007,38.4818],[21.3276,38.489],[21.3554,38.4632],[21.374,38.4162],[21.4107,38.3937],[21.4229,38.374],[21.4624,38.3624],[21.4843,38.3282],[21.486,38.3032],[21.4479,38.3276],[21.422228975780552,38.32540297636417]]]]},"properties":{"GID_0":"GRC","ISO_A2":"GR","ISO_A3":"GRC","NAME_EN":"Greece","NAME_IT":"Grecia"}}
]}