{"type":"FeatureCollection", "features": [
{"type":"Feature","geometry":{"type":"Polygon","coordinates":[[[-59.4743,13.0765],[-59.4535,13.0915],[-59.4199,13.1501],[-59.5226,13.214],[-59.5599,13.2568],[-59.5762,13.3074],[-59.6071,13.3326],[-59.6374,13.3268],[-59.6507,13.3065],[-59.6379,13.1885],[-59.6387,13.1437],[-59.6299,13.1021],[-59.6126,13.0779],[-59.5382,13.059],[-59.519,13.0454],[-59.4743,13.0765]]]},"properties":{"GID_0":"BRB","ISO_A2":"BB","ISO_A3":"BRB","NAME_EN":"Barbados","NAME_IT":"Barbados"}}
]}