{"type":"FeatureCollection", "features": [
{"type":"Feature","geometry":{"type":"MultiPolygon","coordinates":[[[[-170.6806,-14.2825],[-170.6432,-14.2875],[-170.5862,-14.2554],[-170.6622,-14.2467],[-170.7103,-14.2607],[-170.7403,-14.2902],[-170.7986,-14.2896],[-170.8377,-14.3257],[-170.7901,-14.3355],[-170.7856,-14.356],[-170.7428,-14.3655],[-170.7021,-14.3268],[-170.6806,-14.2825]]],[[[-169.4202,-14.2341],[-169.4286,-14.2119],[-169.4971,-14.217],[-169.5144,-14.2355],[-169.485,-14.2718],[-169.4202,-14.2341]]]]},"properties":{"GID_0":"ASM","ISO_A2":"AS","ISO_A3":"ASM","NAME_EN":"American Samoa","NAME_IT":"Samoa Americane"}}
]}