{"type":"FeatureCollection", "features": [
{"type":"Feature","geometry":{"type":"Polygon","coordinates":[[[35.0017,29.6052],[34.9621,29.3587],[36.0728,29.1834],[36.5273,29.5143],[36.7849,29.8679],[37.5055,30.0008],[37.6656,30.3326],[37.9971,30.5007],[37.9328,30.5763],[37.0062,31.5006],[38.0398,31.7635],[39.0063,32.0006],[39.3021,32.2213],[39.2414,32.3203],[39.0395,32.3404],[39.0163,32.4598],[39.0535,32.582],[38.7968,33.3682],[37.5361,32.7026],[36.9562,32.3908],[36.8458,32.3125],[36.4097,32.3822],[36.2007,32.5285],[36.0704,32.5758],[35.9368,32.7241],[35.8014,32.7596],[35.58,32.6329],[35.5755,32.206],[35.5256,32.0722],[35.5557,31.7585],[35.4783,31.5743],[35.4751,31.4198],[35.3949,31.2646],[35.4598,31.1204],[35.333,30.8082],[35.2017,30.5745],[35.152,30.4186],[35.1758,30.1191],[35.0984,30.0226],[35.0017,29.6052]]]},"properties":{"GID_0":"JOR","ISO_A2":"JO","ISO_A3":"JOR","NAME_EN":"Jordan","NAME_IT":"Giordania"}}
]}