{"type":"FeatureCollection", "features": [
{"type":"Feature","geometry":{"type":"Polygon","coordinates":[[[-81.2896,19.2824],[-81.2879,19.2626],[-81.2613,19.2665],[-81.2719,19.2805],[-81.2896,19.2824]]]},"properties":{"NAME_1":"BoddenTown","GID_1":"CYM.1_1"}},
{"type":"Feature","geometry":{"type":"Polygon","coordinates":[[[-81.17,19.3479],[-81.1746,19.3013],[-81.1151,19.2929],[-81.0901,19.3096],[-81.0965,19.3535],[-81.17,19.3479]]]},"properties":{"NAME_1":"EastEnd","GID_1":"CYM.3_1"}},
{"type":"Feature","geometry":{"type":"Polygon","coordinates":[[[-81.3829,19.3267],[-81.381,19.2651],[-81.3463,19.2799],[-81.3105,19.2718],[-81.3167,19.296],[-81.3468,19.2921],[-81.3685,19.3268],[-81.3829,19.3267]]]},"properties":{"NAME_1":"GeorgeTown","GID_1":"CYM.4_1"}},
{"type":"Feature","geometry":{"type":"Polygon","coordinates":[[[-81.2719,19.2805],[-81.2513,19.2754],[-81.2288,19.2921],[-81.1974,19.2938],[-81.1837,19.3001],[-81.1745,19.3015],[-81.17,19.3479],[-81.2329,19.3485],[-81.2579,19.3268],[-81.286,19.3218],[-81.3167,19.296],[-81.3105,19.2718],[-81.2896,19.2824],[-81.2719,19.2805]]]},"properties":{"NAME_1":"NorthSide","GID_1":"CYM.6_1"}},
{"type":"Feature","geometry":{"type":"MultiPolygon","coordinates":[[[[-79.9746,19.7135],[-80.0618,19.6954],[-80.1004,19.6729],[-80.0793,19.6551],[-80.0121,19.6885],[-79.9654,19.6957],[-79.9746,19.7135]]],[[[-79.7382,19.7571],[-79.8115,19.7304],[-79.8063,19.7079],[-79.7546,19.7201],[-79.7271,19.7418],[-79.7382,19.7571]]]]},"properties":{"NAME_1":"SisterIslands","GID_1":"CYM.8_1"}},
{"type":"Feature","geometry":{"type":"Polygon","coordinates":[[[-81.3685,19.3268],[-81.3613,19.3446],[-81.3885,19.3968],[-81.4157,19.3851],[-81.3913,19.3624],[-81.3829,19.3267],[-81.3685,19.3268]]]},"properties":{"NAME_1":"WestBay","GID_1":"CYM.7_1"}}
]}