{"type":"FeatureCollection", "features": [
{"type":"Feature","geometry":{"type":"Polygon","coordinates":[[[-62.7995,17.8963],[-62.796,17.9054],[-62.8174,17.9137],[-62.8215,17.908],[-62.8289,17.9094],[-62.837,17.9029],[-62.8486,17.9173],[-62.8635,17.9199],[-62.8698,17.9159],[-62.8563,17.9083],[-62.8467,17.8886],[-62.8381,17.8784],[-62.8274,17.8803],[-62.8199,17.8879],[-62.8103,17.8833],[-62.8094,17.8912],[-62.7995,17.8963]]]},"properties":{"GID_0":"BLM","ISO_A2":"BL","ISO_A3":"BLM","NAME_EN":"St-Barthélemy","NAME_IT":"Saint-Barthélemy"}}
]}