{"type":"FeatureCollection", "features": [
{"type":"Feature","geometry":{"type":"MultiPolygon","coordinates":[[[[123.7971,24.0704],[123.7768,24.0721],[123.7593,24.0632],[123.7601,24.0479],[123.796,24.0454],[123.8096,24.0646],[123.7971,24.0704]]],[[[123.0143,24.4732],[122.9765,24.4682],[122.9332,24.449],[122.9668,24.4374],[123.0038,24.4401],[123.0437,24.4599],[123.0143,24.4732]]],[[[124.0046,24.2543],[123.9907,24.2399],[124.0035,24.221],[124.0287,24.2313],[124.0299,24.2451],[124.0046,24.2543]]],[[[124.711,24.6768],[124.6826,24.6738],[124.6707,24.6621],[124.6782,24.6404],[124.7093,24.6379],[124.7279,24.6526],[124.7274,24.6668],[124.711,24.6768]]],[[[141.3294,24.8131],[141.3085,24.802],[141.2927,24.7856],[141.2953,24.7536],[141.3472,24.7811],[141.3294,24.8131]]],[[[124.0893,24.339],[124.076,24.3251],[124.0912,24.3118],[124.1024,24.3204],[124.0893,24.339]]],[[[123.9807,24.3538],[123.9632,24.3479],[123.9721,24.3312],[124.0021,24.3268],[123.9932,24.3471],[123.9807,24.3538]]],[[[123.7829,24.4371],[123.774,24.4165],[123.7507,24.4029],[123.7532,24.3529],[123.7401,24.321],[123.7299,24.3415],[123.7085,24.3254],[123.6832,24.3321],[123.6612,24.3076],[123.6807,24.2824],[123.7188,24.2776],[123.7246,24.299],[123.7543,24.2793],[123.8051,24.2693],[123.8351,24.2721],[123.8632,24.2551],[123.8815,24.2557],[123.8846,24.2693],[123.9051,24.2865],[123.8999,24.2985],[123.9135,24.3249],[123.9299,24.3265],[123.9401,24.366],[123.9182,24.3788],[123.881,24.3924],[123.869,24.4049],[123.8293,24.3988],[123.7829,24.4371]]],[[[124.319,24.6099],[124.2971,24.5696],[124.2776,24.5163],[124.256,24.5199],[124.2299,24.4882],[124.2221,24.4551],[124.1871,24.4565],[124.1801,24.4493],[124.1485,24.4504],[124.1338,24.4765],[124.1165,24.4632],[124.1196,24.4488],[124.0815,24.4526],[124.0726,24.4265],[124.0882,24.4235],[124.1199,24.4351],[124.1432,24.4135],[124.1376,24.386],[124.1115,24.3654],[124.1435,24.3513],[124.1493,24.3315],[124.1815,24.3296],[124.1937,24.3346],[124.2015,24.354],[124.2365,24.3443],[124.2493,24.3565],[124.2526,24.3954],[124.2596,24.4121],[124.2501,24.4315],[124.2504,24.454],[124.2632,24.4796],[124.2826,24.4882],[124.284,24.5079],[124.3099,24.5312],[124.304,24.5449],[124.3337,24.569],[124.3407,24.6057],[124.319,24.6099]]],[[[141.289,25.4459],[141.2724,25.4402],[141.2825,25.4178],[141.2942,25.4261],[141.289,25.4459]]],[[[131.2462,25.8725],[131.2192,25.8647],[131.2128,25.8231],[131.2314,25.8122],[131.2553,25.8161],[131.2683,25.83],[131.2742,25.8531],[131.2644,25.8681],[131.2462,25.8725]]],[[[131.2956,25.9583],[131.285,25.9472],[131.2992,25.9297],[131.3217,25.9297],[131.3327,25.952],[131.2956,25.9583]]],[[[125.171,24.8638],[125.1557,24.8571],[125.1596,24.8401],[125.1346,24.8307],[125.1446,24.8065],[125.169,24.8026],[125.1796,24.8115],[125.1971,24.8051],[125.2226,24.8151],[125.2138,24.844],[125.171,24.8638]]],[[[125.2679,24.9143],[125.2718,24.8801],[125.296,24.846],[125.2765,24.8376],[125.2729,24.8063],[125.2582,24.7846],[125.2732,24.7782],[125.2813,24.7504],[125.2521,24.7554],[125.2615,24.7349],[125.3085,24.7115],[125.3421,24.7168],[125.3721,24.729],[125.4257,24.726],[125.4549,24.7363],[125.4335,24.7615],[125.4024,24.7665],[125.3893,24.784],[125.371,24.7926],[125.3549,24.7888],[125.3324,24.8029],[125.336,24.8218],[125.314,24.8371],[125.3057,24.8651],[125.2857,24.8835],[125.2679,24.9143]]],[[[127.2439,26.5967],[127.2285,26.6013],[127.2098,26.5833],[127.2128,26.5744],[127.2414,26.5761],[127.2439,26.5967]]],[[[127.8219,26.7289],[127.8092,26.7389],[127.7907,26.7336],[127.76,26.7375],[127.7489,26.7197],[127.7622,26.7078],[127.8097,26.7053],[127.8292,26.7103],[127.8219,26.7289]]],[[[128.0214,26.6739],[127.9988,26.6746],[128.0053,26.6522],[128.0313,26.6595],[128.0214,26.6739]]],[[[142.1308,26.7081],[142.1308,26.6891],[142.149,26.6659],[142.1456,26.6558],[142.1639,26.6294],[142.1803,26.6521],[142.1659,26.6613],[142.1673,26.6807],[142.1347,26.6997],[142.1308,26.7081]]],[[[126.7819,26.3903],[126.7597,26.39],[126.7364,26.3767],[126.7153,26.375],[126.7081,26.355],[126.7506,26.3436],[126.7694,26.3269],[126.7794,26.3053],[126.8003,26.2928],[126.8072,26.3286],[126.8161,26.3356],[126.805,26.3708],[126.7819,26.3903]]],[[[127.3647,26.2233],[127.3483,26.2111],[127.3481,26.1871],[127.3594,26.1803],[127.375,26.2033],[127.3647,26.2233]]],[[[127.3172,26.2468],[127.29,26.2278],[127.3033,26.2197],[127.3269,26.2319],[127.3172,26.2468]]],[[[127.9447,26.9522],[127.9192,26.9483],[127.9225,26.9181],[127.9386,26.9106],[127.9506,26.9228],[127.9567,26.9444],[127.9447,26.9522]]],[[[128.0179,27.0894],[127.9958,27.0897],[127.9506,27.0447],[127.9457,27.0183],[127.9667,27.0244],[127.9703,27.0388],[127.9911,27.0436],[128.0028,27.0769],[128.0179,27.0894]]],[[[128.4375,27.0664],[128.42,27.0656],[128.4139,27.0489],[128.3953,27.0467],[128.4241,27.0222],[128.4567,27.0236],[128.4544,27.05],[128.4375,27.0664]]],[[[128.6133,27.3497],[128.6544,27.3851],[128.6764,27.4142],[128.6944,27.4186],[128.7142,27.4344],[128.6961,27.4419],[128.6799,27.4306],[128.6547,27.4239],[128.6353,27.409],[128.6122,27.4086],[128.5956,27.3975],[128.5775,27.4019],[128.5594,27.3956],[128.5283,27.4011],[128.52,27.3764],[128.5314,27.3483],[128.5581,27.3286],[128.5786,27.3303],[128.6133,27.3497]]],[[[128.9772,27.6666],[129.0005,27.6823],[129.0063,27.7091],[129.0171,27.7137],[129.0383,27.7615],[128.9969,27.8055],[128.9684,27.8178],[128.9665,27.8429],[128.9752,27.8734],[128.9695,27.889],[128.9264,27.8876],[128.9,27.8939],[128.8897,27.8815],[128.8927,27.8609],[128.8812,27.8503],[128.8787,27.8276],[128.8912,27.8192],[128.8887,27.7875],[128.9063,27.7633],[128.899,27.7367],[128.8802,27.7228],[128.8921,27.7079],[128.9161,27.6938],[128.92,27.6744],[128.9371,27.6609],[128.9772,27.6666]]],[[[129.2286,28.0406],[129.2167,28.0543],[129.2042,28.035],[129.2147,28.0202],[129.2328,28.0239],[129.2522,28.0147],[129.2697,28.0167],[129.2697,28.0328],[129.2386,28.0308],[129.2286,28.0406]]],[[[130.0267,28.3756],[130.0092,28.3764],[129.975,28.3446],[129.9536,28.3328],[129.9215,28.3237],[129.9153,28.2959],[129.937,28.2784],[129.955,28.2753],[129.9736,28.2841],[129.9892,28.3084],[130.0161,28.3358],[130.0361,28.3625],[130.0267,28.3756]]],[[[129.2109,29.1574],[129.1864,29.1531],[129.2028,29.1367],[129.2109,29.1574]]],[[[129.4261,28.1919],[129.4542,28.2006],[129.47,28.2222],[129.4442,28.2461],[129.4564,28.2661],[129.4565,28.2934],[129.4797,28.2892],[129.52,28.3006],[129.545,28.3119],[129.5378,28.3315],[129.5647,28.3342],[129.5764,28.3539],[129.6131,28.4008],[129.6303,28.4075],[129.6647,28.3969],[129.6683,28.4056],[129.7039,28.4233],[129.7203,28.4403],[129.7195,28.4744],[129.7047,28.4775],[129.69,28.5017],[129.6897,28.5301],[129.6758,28.5261],[129.6544,28.4992],[129.6564,28.4822],[129.6736,28.4606],[129.6483,28.45],[129.6536,28.4244],[129.6247,28.4156],[129.6067,28.4356],[129.6056,28.4533],[129.6228,28.4761],[129.578,28.4678],[129.5692,28.4575],[129.5433,28.4614],[129.5242,28.4478],[129.5042,28.3978],[129.4914,28.4117],[129.4783,28.4],[129.4631,28.4139],[129.4458,28.3806],[129.4121,28.3874],[129.4019,28.3572],[129.3872,28.3739],[129.3672,28.3544],[129.3403,28.3692],[129.3272,28.3506],[129.3142,28.3481],[129.3036,28.3294],[129.2653,28.3278],[129.2575,28.3186],[129.2163,28.3025],[129.22,28.2939],[129.2592,28.2729],[129.245,28.2659],[129.2264,28.2736],[129.2114,28.2531],[129.1992,28.2625],[129.1714,28.2644],[129.1439,28.2581],[129.1518,28.2374],[129.1731,28.2367],[129.2053,28.2186],[129.2397,28.2189],[129.2664,28.2314],[129.2772,28.215],[129.2622,28.1839],[129.2892,28.1886],[129.3033,28.1494],[129.3214,28.1356],[129.3456,28.1375],[129.3783,28.1252],[129.3514,28.1736],[129.3825,28.1653],[129.4003,28.1519],[129.4089,28.1833],[129.4261,28.1919]]],[[[129.1733,28.055],[129.1631,28.0603],[129.1447,28.0331],[129.1472,28.0147],[129.1658,28.0217],[129.1733,28.055]]],[[[129.2094,28.1958],[129.1958,28.1972],[129.185,28.1733],[129.1878,28.1572],[129.2147,28.1414],[129.2153,28.114],[129.2244,28.0992],[129.2508,28.1111],[129.2653,28.0889],[129.3047,28.0861],[129.315,28.0708],[129.3405,28.0771],[129.3483,28.0989],[129.3408,28.1136],[129.3183,28.1075],[129.2828,28.1236],[129.2528,28.1236],[129.2433,28.1333],[129.2747,28.1511],[129.27,28.1678],[129.2394,28.1508],[129.2133,28.1636],[129.2094,28.1958]]],[[[129.6018,29.4746],[129.5833,29.46],[129.5975,29.4444],[129.62,29.4489],[129.6018,29.4746]]],[[[129.7439,29.6689],[129.7233,29.6714],[129.683,29.6532],[129.6878,29.6236],[129.6978,29.6025],[129.7397,29.6381],[129.7439,29.6689]]],[[[129.8594,29.8835],[129.8403,29.8767],[129.8336,29.8611],[129.8586,29.8236],[129.8778,29.8158],[129.9137,29.8305],[129.8972,29.8439],[129.8933,29.8672],[129.8594,29.8835]]],[[[129.9236,29.9881],[129.8994,29.9756],[129.9133,29.9569],[129.9436,29.9514],[129.9461,29.9672],[129.9236,29.9881]]],[[[130.8669,30.7433],[130.8564,30.7658],[130.8423,30.7506],[130.838,30.7273],[130.8598,30.7255],[130.8669,30.7433]]],[[[130.3176,30.8002],[130.3024,30.8083],[130.2653,30.779],[130.3147,30.7808],[130.3176,30.8002]]],[[[130.4422,30.8108],[130.4101,30.8188],[130.4062,30.8103],[130.4425,30.7997],[130.4422,30.8108]]],[[[129.9447,30.8447],[129.9253,30.8503],[129.915,30.8397],[129.9158,30.8189],[129.9303,30.8116],[129.953,30.8181],[129.9648,30.8297],[129.9447,30.8447]]],[[[130.4989,30.4547],[130.4706,30.4619],[130.4639,30.4369],[130.4475,30.4306],[130.4344,30.4075],[130.4194,30.3953],[130.3817,30.3942],[130.3764,30.3725],[130.3933,30.3175],[130.4036,30.3153],[130.422,30.2647],[130.4361,30.2406],[130.4486,30.2336],[130.4961,30.2278],[130.5317,30.2336],[130.5461,30.23],[130.6031,30.2497],[130.6064,30.2606],[130.6522,30.2981],[130.6631,30.3178],[130.6711,30.3781],[130.6378,30.4031],[130.6,30.4097],[130.5711,30.4342],[130.5431,30.4472],[130.4989,30.4547]]],[[[130.1555,30.4853],[130.1696,30.4566],[130.1887,30.4524],[130.2033,30.4267],[130.2299,30.4284],[130.2655,30.4472],[130.2358,30.47],[130.2001,30.4827],[130.1555,30.4853]]],[[[130.9608,30.4528],[130.9629,30.4788],[130.9786,30.4975],[130.9792,30.5172],[131.0136,30.5483],[131.0306,30.5584],[131.0322,30.5842],[131.0544,30.6028],[131.0497,30.6489],[131.0686,30.6931],[131.0728,30.7181],[131.0708,30.7667],[131.0828,30.7911],[131.0708,30.797],[131.0569,30.8412],[131.0029,30.7826],[131.0087,30.7661],[130.9931,30.7261],[130.9389,30.6697],[130.9503,30.6328],[130.9533,30.5928],[130.9267,30.5372],[130.8972,30.4947],[130.8814,30.4867],[130.8731,30.4669],[130.8517,30.4608],[130.8533,30.4394],[130.8636,30.4225],[130.8664,30.4006],[130.8578,30.3697],[130.8733,30.3442],[130.9078,30.3664],[130.9417,30.3772],[130.9603,30.3731],[130.9656,30.3939],[130.9789,30.4008],[130.9672,30.4231],[130.9794,30.4378],[130.9608,30.4528]]],[[[127.7192,26.0887],[127.7347,26.0987],[127.7478,26.1183],[127.7756,26.1347],[127.7917,26.1342],[127.8197,26.1572],[127.8311,26.1761],[127.8169,26.1919],[127.7989,26.1874],[127.7906,26.1707],[127.7694,26.2011],[127.7884,26.2315],[127.8,26.2675],[127.8175,26.2842],[127.8362,26.3289],[127.8542,26.3239],[127.8756,26.3286],[127.8972,26.3056],[127.9211,26.2944],[127.9239,26.3103],[127.9063,26.3304],[127.9323,26.3309],[127.9478,26.3397],[127.9594,26.3364],[127.9748,26.3538],[127.9964,26.3617],[127.9928,26.375],[127.9725,26.3758],[127.969,26.3627],[127.9439,26.3571],[127.9464,26.3408],[127.9304,26.3321],[127.9031,26.3317],[127.8739,26.3589],[127.8728,26.3875],[127.8453,26.4053],[127.8411,26.4267],[127.8522,26.4497],[127.8839,26.4569],[127.9416,26.4416],[127.9514,26.4664],[127.99,26.4742],[128.0036,26.4889],[127.9924,26.5042],[128.0089,26.5142],[128.0261,26.5106],[128.0533,26.5206],[128.0361,26.5475],[128.0728,26.5486],[128.0881,26.5361],[128.1081,26.5494],[128.1388,26.5532],[128.1475,26.5686],[128.1351,26.5893],[128.1558,26.6056],[128.146,26.6229],[128.1589,26.6306],[128.184,26.6238],[128.2383,26.6308],[128.251,26.6511],[128.28,26.675],[128.2808,26.6911],[128.3057,26.7285],[128.3178,26.7339],[128.3268,26.7799],[128.3139,26.8211],[128.2631,26.8656],[128.2439,26.8583],[128.253,26.8432],[128.2236,26.7894],[128.1906,26.7622],[128.185,26.7509],[128.1548,26.7403],[128.1595,26.7216],[128.1425,26.7081],[128.1178,26.7036],[128.1008,26.68],[128.0914,26.6542],[128.054,26.6352],[128.0256,26.6283],[127.9908,26.6478],[127.9939,26.6722],[128.0056,26.6883],[127.9492,26.7086],[127.9083,26.6997],[127.88,26.7042],[127.8742,26.6844],[127.8888,26.6733],[127.8796,26.6379],[127.8947,26.6144],[127.9117,26.6003],[127.9289,26.6081],[127.9822,26.585],[127.9792,26.565],[127.9462,26.5372],[127.9344,26.5381],[127.8861,26.5031],[127.8669,26.5133],[127.8439,26.5022],[127.8456,26.4859],[127.8031,26.4544],[127.7972,26.4364],[127.7717,26.4461],[127.7361,26.4228],[127.7167,26.4333],[127.7133,26.4111],[127.7375,26.365],[127.7453,26.3239],[127.7597,26.3086],[127.7575,26.2975],[127.7233,26.2706],[127.7081,26.2739],[127.6849,26.2467],[127.672,26.2214],[127.6518,26.2179],[127.6368,26.1989],[127.644,26.177],[127.657,26.1612],[127.6481,26.1444],[127.6656,26.1247],[127.6579,26.0806],[127.6735,26.0782],[127.7064,26.09],[127.7192,26.0887]]],[[[139.7662,32.4707],[139.7549,32.4525],[139.7707,32.4426],[139.7827,32.4535],[139.7662,32.4707]]],[[[128.6358,32.6708],[128.6153,32.6581],[128.6357,32.6456],[128.6358,32.6708]]],[[[130.5004,32.6081],[130.4737,32.6039],[130.493,32.5764],[130.5114,32.5932],[130.5004,32.6081]]],[[[130.3594,32.3484],[130.3454,32.3497],[130.3221,32.3178],[130.3297,32.3047],[130.3574,32.3214],[130.3753,32.3444],[130.3594,32.3484]]],[[[130.2278,32.2462],[130.2661,32.2625],[130.2656,32.2923],[130.254,32.3016],[130.2295,32.2984],[130.2136,32.2819],[130.2092,32.255],[130.2278,32.2462]]],[[[130.4758,32.5849],[130.4597,32.5733],[130.4715,32.5513],[130.4874,32.5702],[130.4758,32.5849]]],[[[130.4458,32.6208],[130.42,32.6178],[130.3936,32.5894],[130.4189,32.5769],[130.4047,32.5508],[130.4497,32.55],[130.4464,32.5694],[130.4592,32.5883],[130.4585,32.6115],[130.4458,32.6208]]],[[[139.7655,33.1583],[139.7469,33.1569],[139.7381,33.1372],[139.7531,33.1056],[139.7769,33.0978],[139.7825,33.0703],[139.8183,33.0586],[139.8394,33.0749],[139.8554,33.0769],[139.858,33.0997],[139.8467,33.1178],[139.8189,33.1201],[139.7743,33.1586],[139.7655,33.1583]]],[[[129.8653,31.8753],[129.835,31.8822],[129.8172,31.8617],[129.8223,31.8469],[129.8489,31.8417],[129.8734,31.8202],[129.8742,31.8078],[129.9308,31.8256],[129.9294,31.8592],[129.8814,31.8575],[129.8653,31.8753]]],[[[129.7995,31.7853],[129.7762,31.7461],[129.7557,31.7349],[129.7194,31.7286],[129.702,31.7073],[129.6842,31.6753],[129.66,31.6494],[129.6868,31.6226],[129.7004,31.6361],[129.7293,31.6442],[129.7273,31.6743],[129.7434,31.6889],[129.7479,31.7166],[129.771,31.7148],[129.778,31.7436],[129.7983,31.7607],[129.7995,31.7853]]],[[[130.3548,32.4072],[130.3479,32.3923],[130.383,32.3868],[130.4007,32.398],[130.4188,32.4282],[130.4165,32.4475],[130.4369,32.4679],[130.4377,32.4855],[130.452,32.5062],[130.4429,32.5288],[130.417,32.5235],[130.3985,32.5076],[130.3615,32.5293],[130.3176,32.5177],[130.2815,32.4841],[130.2569,32.4774],[130.2343,32.4608],[130.2047,32.452],[130.2086,32.4725],[130.1917,32.4961],[130.1979,32.5041],[130.1923,32.5377],[130.1756,32.5507],[130.1485,32.5499],[130.1038,32.5385],[130.0656,32.5165],[130.0454,32.5135],[130.0249,32.5381],[130.0115,32.5288],[130.04,32.5085],[130.047,32.4917],[130.0361,32.4648],[130.0063,32.4288],[129.9971,32.392],[129.9758,32.3608],[129.9784,32.3301],[130.0099,32.3101],[130.0669,32.305],[130.0674,32.2884],[130.0528,32.2787],[130.0419,32.3036],[130.013,32.3006],[129.9933,32.2846],[129.9664,32.2436],[130.0124,32.235],[129.9906,32.1967],[130.0458,32.1628],[130.0327,32.1966],[130.0783,32.2125],[130.08,32.2406],[130.1033,32.2482],[130.1347,32.2889],[130.1469,32.2839],[130.1667,32.2964],[130.1492,32.3117],[130.1653,32.3289],[130.1828,32.3117],[130.2097,32.3364],[130.2075,32.3463],[130.2257,32.3675],[130.2192,32.3931],[130.1977,32.4037],[130.2172,32.4208],[130.2622,32.4105],[130.3093,32.3951],[130.3548,32.4072]]],[[[128.8097,32.7928],[128.7914,32.7891],[128.7544,32.7701],[128.7404,32.7527],[128.7252,32.7559],[128.697,32.7387],[128.6979,32.7664],[128.6665,32.7807],[128.6509,32.7762],[128.6411,32.7587],[128.653,32.7423],[128.6444,32.7241],[128.6577,32.7058],[128.649,32.6805],[128.667,32.6665],[128.6365,32.6344],[128.6191,32.6397],[128.5979,32.6149],[128.6304,32.6054],[128.6542,32.59],[128.6668,32.6083],[128.6866,32.6025],[128.7354,32.6068],[128.7531,32.5779],[128.7722,32.5725],[128.7942,32.5913],[128.7884,32.608],[128.7658,32.617],[128.7651,32.6341],[128.8076,32.6553],[128.8189,32.6362],[128.8551,32.6421],[128.8924,32.6406],[128.8967,32.6541],[128.8544,32.6881],[128.8394,32.7133],[128.8417,32.7411],[128.8353,32.7608],[128.8092,32.7742],[128.8097,32.7928]]],[[[132.5583,32.7475],[132.5356,32.7281],[132.5696,32.7126],[132.5717,32.7361],[132.5583,32.7475]]],[[[128.9979,32.7878],[128.9792,32.7602],[129.0022,32.7494],[129.0083,32.7716],[128.9979,32.7878]]],[[[128.8712,32.8413],[128.8391,32.8297],[128.835,32.7819],[128.8647,32.7634],[128.8796,32.7633],[128.9013,32.7873],[128.906,32.8134],[128.8712,32.8413]]],[[[129.6196,33.0613],[129.609,33.0651],[129.5914,33.0467],[129.5863,33.0271],[129.6067,33.0233],[129.6249,33.0329],[129.6347,33.0489],[129.6196,33.0613]]],[[[128.9584,32.8696],[128.931,32.8608],[128.8953,32.8783],[128.9007,32.851],[128.9422,32.8287],[128.9543,32.8344],[128.9584,32.8696]]],[[[128.9965,32.9291],[128.9829,32.9035],[128.9611,32.903],[128.9808,32.8713],[129.018,32.8658],[129.0284,32.8896],[129.0165,32.9237],[128.9965,32.9291]]],[[[129.6022,32.9419],[129.5972,32.9242],[129.6164,32.9169],[129.6228,32.9386],[129.6022,32.9419]]],[[[129.1189,33.1608],[129.11,33.1633],[129.0953,33.1189],[129.1094,33.0984],[129.1028,33.0809],[129.0859,33.0761],[129.0777,33.0364],[129.0561,33.0419],[129.0419,33.0275],[129.0477,32.976],[129.0311,32.9699],[129.012,32.9768],[128.9966,32.9651],[129.0217,32.9321],[129.0405,32.932],[129.0516,32.9072],[129.0388,32.899],[129.0491,32.8816],[129.0395,32.8703],[129.0464,32.8197],[129.0645,32.8183],[129.0614,32.8462],[129.0975,32.8748],[129.0902,32.8849],[129.0971,32.915],[129.1097,32.9263],[129.1109,32.943],[129.1364,32.9372],[129.1503,32.9574],[129.1812,32.971],[129.1755,33.0071],[129.1344,33.0003],[129.1119,32.9833],[129.0894,33.016],[129.0917,33.0389],[129.1095,33.0633],[129.1217,33.1075],[129.1031,33.1239],[129.1189,33.1608]]],[[[129.1336,33.2994],[129.112,33.2878],[129.0921,33.2871],[129.0695,33.2709],[129.1161,33.2447],[129.1307,33.2493],[129.1502,33.2696],[129.1336,33.2994]]],[[[129.8066,33.4114],[129.8107,33.3769],[129.8034,33.3621],[129.8141,33.3488],[129.8341,33.3839],[129.8322,33.4055],[129.8066,33.4114]]],[[[129.0545,33.2143],[129.0366,33.2098],[129.0298,33.1958],[129.058,33.1865],[129.0799,33.2107],[129.0545,33.2143]]],[[[129.557,33.4036],[129.5462,33.377],[129.518,33.3802],[129.5034,33.3741],[129.4946,33.3563],[129.4432,33.3511],[129.4427,33.3308],[129.4325,33.314],[129.4365,33.2926],[129.4038,33.2712],[129.4099,33.2516],[129.3846,33.2301],[129.3824,33.2056],[129.4058,33.1973],[129.3994,33.1836],[129.3581,33.1891],[129.3753,33.1683],[129.4384,33.1931],[129.4644,33.2141],[129.4877,33.2502],[129.5018,33.2596],[129.5042,33.3006],[129.5323,33.3104],[129.5163,33.3246],[129.5422,33.3354],[129.5462,33.3484],[129.5673,33.3586],[129.557,33.4036]]],[[[137.0425,37.1654],[137.0236,37.1475],[136.992,37.1401],[136.9737,37.1527],[136.9613,37.1428],[136.9353,37.1387],[136.9067,37.1544],[136.9024,37.1408],[136.9398,37.1151],[136.9463,37.0999],[136.981,37.1071],[136.996,37.1188],[137.0223,37.1111],[137.051,37.123],[137.0412,37.1389],[137.051,37.1492],[137.0425,37.1654]]],[[[141.5687,38.3093],[141.5476,38.3019],[141.5524,38.2878],[141.5726,38.2698],[141.5894,38.3017],[141.5687,38.3093]]],[[[141.4701,38.2831],[141.4574,38.2697],[141.4794,38.2502],[141.4964,38.2511],[141.4818,38.2776],[141.4701,38.2831]]],[[[138.5072,38.3317],[138.4622,38.3239],[138.4418,38.2914],[138.4363,38.2607],[138.3919,38.2406],[138.3658,38.2138],[138.3214,38.1887],[138.3033,38.1644],[138.2907,38.1348],[138.241,38.0846],[138.233,38.0618],[138.2377,38.0486],[138.2336,37.9739],[138.2544,37.9642],[138.2742,38.0019],[138.2981,38.0075],[138.314,38.0024],[138.3402,37.9792],[138.3412,37.96],[138.3065,37.9405],[138.2784,37.9067],[138.2899,37.8856],[138.2725,37.8518],[138.2589,37.8419],[138.2184,37.8372],[138.2062,37.829],[138.2169,37.8101],[138.2651,37.8063],[138.3057,37.8285],[138.325,37.8242],[138.3612,37.8307],[138.427,37.8787],[138.4642,37.8927],[138.4987,37.924],[138.5039,37.9447],[138.522,37.9784],[138.5501,38.0144],[138.5535,38.0306],[138.574,38.0626],[138.5629,38.0855],[138.5354,38.0819],[138.5207,38.0718],[138.4811,38.0625],[138.4458,38.0744],[138.4367,38.0831],[138.4359,38.1172],[138.4601,38.1624],[138.493,38.2047],[138.4923,38.2201],[138.51,38.2659],[138.5079,38.2947],[138.5172,38.325],[138.5072,38.3317]]],[[[133.115,36.1144],[133.094,36.1172],[133.0647,36.0942],[133.08,36.0683],[133.0808,36.0465],[133.1222,36.0742],[133.1325,36.1097],[133.115,36.1144]]],[[[133.0158,36.0315],[132.9992,36.0314],[133.0123,36.002],[133.0667,36.0067],[133.0359,36.0283],[133.0158,36.0315]]],[[[133.2873,36.3392],[133.2536,36.3287],[133.2076,36.3085],[133.2006,36.2886],[133.1772,36.2592],[133.1924,36.245],[133.1848,36.2149],[133.2079,36.209],[133.2105,36.196],[133.2368,36.1788],[133.2379,36.1655],[133.2606,36.1631],[133.2996,36.1759],[133.3267,36.1674],[133.3418,36.1702],[133.3356,36.2031],[133.3693,36.2047],[133.3772,36.23],[133.3732,36.2521],[133.3796,36.2709],[133.3636,36.28],[133.3559,36.2987],[133.3248,36.3088],[133.2873,36.3392]]],[[[133.0833,36.1389],[133.0471,36.1296],[133.0125,36.1367],[133.0069,36.1133],[132.9819,36.1178],[132.9497,36.0803],[132.9542,36.06],[132.9995,36.0444],[132.9763,36.084],[133.006,36.0824],[133.0228,36.0625],[133.0453,36.06],[133.0565,36.0828],[133.0422,36.1109],[133.0704,36.1134],[133.0871,36.1254],[133.0833,36.1389]]],[[[139.56,42.2483],[139.5364,42.2336],[139.4344,42.2164],[139.405,42.1769],[139.4039,42.165],[139.423,42.1361],[139.4211,42.0706],[139.4431,42.0642],[139.4797,42.0706],[139.4961,42.0828],[139.5203,42.1361],[139.5167,42.1756],[139.5447,42.2022],[139.5613,42.229],[139.56,42.2483]]],[[[141.3273,44.4392],[141.2947,44.4223],[141.3138,44.4143],[141.3353,44.4308],[141.3273,44.4392]]],[[[141.4286,44.4432],[141.3953,44.4423],[141.398,44.4308],[141.4246,44.4276],[141.4286,44.4432]]],[[[141.2453,45.0997],[141.2867,45.1108],[141.2932,45.1233],[141.3277,45.149],[141.3244,45.1847],[141.3033,45.2154],[141.2273,45.2438],[141.1932,45.2595],[141.1563,45.236],[141.1328,45.2139],[141.1422,45.1906],[141.1411,45.162],[141.1805,45.1276],[141.2264,45.1015],[141.2453,45.0997]]],[[[140.9803,45.4536],[140.9722,45.4419],[140.9931,45.4267],[140.9822,45.3839],[140.9949,45.3609],[141.0038,45.328],[141.0213,45.3121],[141.0254,45.2737],[141.0464,45.2781],[141.0564,45.3174],[141.0495,45.34],[141.0592,45.3514],[141.0537,45.3892],[141.0619,45.4216],[141.0492,45.4514],[141.0111,45.4332],[140.9803,45.4536]]],[[[139.2639,38.4888],[139.2518,38.4903],[139.2179,38.4474],[139.2234,38.436],[139.2541,38.4611],[139.2639,38.4888]]],[[[141.6318,38.8764],[141.605,38.8775],[141.6044,38.8608],[141.6208,38.8348],[141.6338,38.846],[141.6221,38.8599],[141.6318,38.8764]]],[[[140.0169,39.9306],[140.0465,39.9447],[140.0664,39.9841],[140.0686,40.0404],[140.0556,40.0592],[140.0193,40.0756],[140.0139,40.0823],[139.9993,40.086],[139.9968,40.093],[139.9855,40.0922],[139.9808,40.0658],[139.9642,40.0589],[139.953,40.0369],[139.9322,40.0228],[139.9364,40.0114],[139.9433,40.0086],[139.9446,40.0015],[139.9352,39.9919],[139.9234,39.9585],[139.9515,39.9408],[140.0169,39.9306]]],[[[139.3789,41.52],[139.3421,41.5254],[139.3387,41.4959],[139.3733,41.5015],[139.3789,41.52]]],[[[143.3231,42.1481],[143.3336,42.1739],[143.336,42.2013],[143.3197,42.2111],[143.3081,42.2438],[143.3216,42.2859],[143.3223,42.3068],[143.3439,42.3447],[143.3997,42.4314],[143.4352,42.4784],[143.5253,42.5744],[143.5372,42.5983],[143.5492,42.6017],[143.6198,42.663],[143.6711,42.6967],[143.7911,42.7864],[143.8178,42.8031],[143.8741,42.8461],[143.9289,42.8805],[144,42.9189],[144.0464,42.9406],[144.1028,42.9561],[144.1245,42.9689],[144.1694,42.9844],[144.2168,42.9955],[144.3107,43.0055],[144.3397,42.9936],[144.3592,42.9986],[144.3752,42.9673],[144.4494,42.9434],[144.4858,42.9392],[144.5288,42.9514],[144.5511,42.9464],[144.6311,42.9508],[144.6741,42.9389],[144.7406,42.9325],[144.7842,42.9383],[144.7232,42.9759],[144.7244,42.9911],[144.7446,43.0216],[144.7845,43.0553],[144.8488,43.0569],[144.8713,43.0722],[144.9091,43.0677],[144.95,43.0464],[144.9311,43.0245],[144.9007,43.0164],[144.864,43.0298],[144.8492,43.0455],[144.8329,43.0341],[144.8426,43.0155],[144.8856,42.9847],[144.9736,42.9812],[145.0211,42.9989],[145.032,43.0103],[145.0201,43.0373],[145.0497,43.0303],[145.0809,43.0426],[145.0906,43.0692],[145.1072,43.0797],[145.1136,43.1222],[145.145,43.1444],[145.1694,43.15],[145.2089,43.1367],[145.2428,43.1561],[145.2853,43.17],[145.3189,43.1667],[145.3547,43.1773],[145.4236,43.1869],[145.4856,43.1869],[145.5164,43.1631],[145.5305,43.1867],[145.5347,43.2119],[145.5572,43.2194],[145.5567,43.2567],[145.5819,43.2867],[145.6122,43.2992],[145.6097,43.3103],[145.6342,43.32],[145.6732,43.3162],[145.7064,43.335],[145.7542,43.3364],[145.8109,43.3683],[145.8127,43.3872],[145.788,43.3862],[145.7523,43.3978],[145.7216,43.3837],[145.651,43.3916],[145.6238,43.3633],[145.5972,43.3551],[145.5842,43.3383],[145.531,43.3125],[145.5052,43.2804],[145.5292,43.2447],[145.4886,43.2609],[145.3975,43.2661],[145.3581,43.2783],[145.3025,43.2839],[145.3017,43.3222],[145.2825,43.3239],[145.2481,43.2978],[145.2283,43.3458],[145.2406,43.3594],[145.3175,43.3492],[145.2783,43.4019],[145.2639,43.4333],[145.2597,43.4633],[145.2353,43.5425],[145.2222,43.5581],[145.2117,43.5886],[145.1956,43.5994],[145.1928,43.6283],[145.1389,43.65],[145.1192,43.6889],[145.095,43.7242],[145.0706,43.7453],[145.0594,43.7844],[145.0614,43.8044],[145.0816,43.8186],[145.0989,43.8592],[145.0939,43.8897],[145.1189,43.9228],[145.1294,43.9489],[145.1806,44.0068],[145.2226,44.0372],[145.2457,44.0681],[145.2404,44.0889],[145.2644,44.1382],[145.3061,44.167],[145.3652,44.2551],[145.3661,44.269],[145.3493,44.2942],[145.3418,44.3258],[145.3153,44.3346],[145.306,44.3121],[145.2903,44.3088],[145.2807,44.2896],[145.2256,44.2478],[145.2094,44.2156],[145.1921,44.1949],[145.1264,44.1655],[145.1096,44.1502],[145.08,44.1364],[145.0417,44.1075],[145.0197,44.103],[144.9882,44.0667],[144.9293,44.0323],[144.911,44.0045],[144.8756,43.9825],[144.8469,43.9721],[144.8339,43.9509],[144.7952,43.9312],[144.7487,43.9229],[144.6859,43.917],[144.6026,43.9169],[144.4888,43.9288],[144.4163,43.9416],[144.3834,43.9274],[144.3614,43.9561],[144.2991,43.9816],[144.2822,44.0156],[144.2549,44.0382],[144.258,44.0852],[144.2509,44.1088],[144.1951,44.1004],[144.1978,44.0693],[144.1796,44.0318],[144.151,44.0163],[144.1172,44.0123],[144.0976,44.0299],[144.113,44.0769],[144.1278,44.0939],[144.1711,44.0978],[144.1794,44.1044],[144.1091,44.1189],[143.9924,44.1345],[143.9718,44.1318],[143.9577,44.0977],[143.9444,44.0859],[143.9167,44.0927],[143.9061,44.1054],[143.8827,44.0984],[143.84,44.1079],[143.7904,44.0956],[143.7506,44.1198],[143.7238,44.1139],[143.7066,44.1586],[143.6858,44.1698],[143.6699,44.1913],[143.7136,44.1954],[143.729,44.1864],[143.7611,44.1864],[143.6291,44.2276],[143.5109,44.2696],[143.4289,44.3009],[143.3647,44.3362],[143.3613,44.3552],[143.3372,44.3729],[143.2686,44.4028],[143.2299,44.424],[143.2113,44.4413],[143.0761,44.5098],[142.9987,44.5545],[142.8926,44.6517],[142.8616,44.6753],[142.8299,44.6911],[142.7415,44.7579],[142.7009,44.8073],[142.6737,44.8348],[142.6586,44.8409],[142.6315,44.8879],[142.6095,44.8969],[142.5858,44.9205],[142.5833,44.9614],[142.5391,44.9916],[142.532,45.0284],[142.5071,45.0408],[142.4445,45.0931],[142.4106,45.1173],[142.3201,45.1965],[142.2808,45.2279],[142.1667,45.3414],[142.0518,45.3999],[142.0356,45.4151],[142.0193,45.4529],[141.9942,45.4617],[141.9698,45.4824],[141.9554,45.5156],[141.9357,45.5227],[141.8924,45.512],[141.8787,45.4957],[141.8784,45.4612],[141.8472,45.4273],[141.7958,45.4069],[141.7183,45.3964],[141.6866,45.4026],[141.68,45.4211],[141.648,45.4487],[141.6342,45.4245],[141.6367,45.3914],[141.6563,45.3712],[141.6564,45.3571],[141.6382,45.3286],[141.6163,45.3115],[141.6181,45.2891],[141.6074,45.2706],[141.5719,45.2376],[141.5687,45.1986],[141.5932,45.1429],[141.6642,45.0301],[141.7,44.9659],[141.7285,44.9066],[141.7381,44.8972],[141.7444,44.8655],[141.7755,44.7665],[141.7898,44.684],[141.7925,44.6483],[141.7892,44.6014],[141.7822,44.5711],[141.7668,44.5535],[141.7591,44.4624],[141.738,44.4178],[141.7122,44.395],[141.7029,44.3708],[141.6872,44.3571],[141.6794,44.3329],[141.6481,44.3148],[141.6488,44.2886],[141.658,44.2419],[141.6549,44.2201],[141.6597,44.1622],[141.6536,44.1408],[141.6608,44.102],[141.6629,44.0378],[141.6586,44.0037],[141.6507,43.9973],[141.6423,43.9556],[141.6281,43.9215],[141.5972,43.8848],[141.5571,43.858],[141.5339,43.8516],[141.52,43.8596],[141.494,43.8363],[141.4557,43.8347],[141.3988,43.8122],[141.3721,43.7915],[141.3617,43.7625],[141.3295,43.725],[141.3384,43.6846],[141.3497,43.6667],[141.3521,43.6413],[141.365,43.6176],[141.3827,43.6044],[141.3857,43.5828],[141.3776,43.5595],[141.3606,43.5368],[141.3587,43.5174],[141.3743,43.4915],[141.3938,43.4748],[141.4271,43.421],[141.4317,43.3898],[141.4237,43.3281],[141.3996,43.2989],[141.3476,43.2466],[141.2869,43.1963],[141.2358,43.1695],[141.1618,43.1439],[141.0896,43.1715],[141.0421,43.1791],[141.0188,43.1916],[141.0045,43.2098],[141.0186,43.2195],[141.015,43.2389],[140.9787,43.2395],[140.9512,43.2279],[140.9267,43.2277],[140.9139,43.2109],[140.8504,43.1986],[140.7922,43.1947],[140.7745,43.2056],[140.7746,43.2269],[140.7369,43.2346],[140.7172,43.2495],[140.6947,43.2511],[140.6441,43.2639],[140.6306,43.2972],[140.6084,43.2955],[140.5794,43.3107],[140.5273,43.3536],[140.4986,43.3726],[140.4813,43.3756],[140.4611,43.3456],[140.4297,43.3293],[140.4076,43.3348],[140.355,43.3261],[140.3545,43.2994],[140.3266,43.2328],[140.3608,43.1783],[140.4314,43.1412],[140.459,43.1049],[140.4647,43.084],[140.4857,43.0754],[140.5082,43.0369],[140.53,43.0236],[140.5163,42.9853],[140.476,42.9701],[140.4151,42.9414],[140.376,42.9009],[140.3485,42.8593],[140.3107,42.8333],[140.3036,42.8139],[140.3096,42.7955],[140.3034,42.7765],[140.2771,42.7682],[140.2468,42.7685],[140.228,42.8032],[140.2053,42.8092],[140.1855,42.8242],[140.1607,42.7941],[140.1429,42.7527],[140.114,42.745],[140.0689,42.7216],[140.0653,42.7074],[140.0305,42.6875],[139.9917,42.6925],[139.9281,42.6892],[139.8686,42.6658],[139.8539,42.6417],[139.8219,42.6114],[139.8336,42.5564],[139.8467,42.5278],[139.8408,42.4989],[139.8536,42.4647],[139.8428,42.4542],[139.8452,42.4277],[139.8344,42.4011],[139.8167,42.3889],[139.8142,42.3739],[139.7808,42.3536],[139.7672,42.3022],[139.7853,42.2747],[139.7744,42.2592],[139.7958,42.2303],[139.8633,42.2189],[139.8783,42.21],[139.8806,42.1931],[139.8956,42.1828],[139.9228,42.1331],[139.9589,42.1275],[139.9889,42.1286],[140.0113,42.1209],[140.0419,42.0994],[140.0856,42.0393],[140.0956,42.034],[140.1024,42.0076],[140.1194,42.0038],[140.1263,41.9615],[140.1345,41.9498],[140.1414,41.9145],[140.1266,41.8549],[140.1264,41.8325],[140.1096,41.8049],[140.0709,41.807],[140.0708,41.7669],[140.0581,41.7457],[140.0088,41.6915],[140.0027,41.6519],[139.9822,41.6083],[139.9861,41.5514],[140.0173,41.4986],[140.0158,41.4893],[140.0405,41.45],[140.075,41.4246],[140.1319,41.4304],[140.1541,41.4253],[140.1844,41.4017],[140.2158,41.4096],[140.2617,41.4821],[140.3087,41.4928],[140.3612,41.5153],[140.3829,41.5138],[140.4142,41.522],[140.4392,41.5537],[140.4312,41.5645],[140.4282,41.5979],[140.4359,41.6678],[140.4615,41.6974],[140.5205,41.7015],[140.5815,41.7376],[140.6007,41.7414],[140.6223,41.8048],[140.6609,41.8219],[140.6994,41.8167],[140.7265,41.7911],[140.7162,41.7667],[140.6922,41.7637],[140.7052,41.7398],[140.7367,41.7681],[140.7835,41.7742],[140.8359,41.7596],[140.8584,41.7597],[140.9247,41.7395],[140.9509,41.715],[140.9678,41.7095],[140.9922,41.7175],[141.0228,41.7189],[141.0742,41.7422],[141.1081,41.7842],[141.13,41.7889],[141.1561,41.7842],[141.1862,41.8022],[141.185,41.815],[141.1472,41.83],[141.1453,41.8564],[141.0778,41.8864],[141.0339,41.895],[141.0117,41.8931],[140.9595,41.9158],[140.9372,41.9371],[140.9084,41.9835],[140.8753,42.0072],[140.8567,42.0116],[140.8221,42.033],[140.7954,42.0746],[140.7739,42.0847],[140.7594,42.1168],[140.7079,42.1384],[140.6908,42.1264],[140.6561,42.1285],[140.6164,42.1151],[140.5801,42.1079],[140.5484,42.1136],[140.5194,42.1261],[140.4983,42.1474],[140.4656,42.1641],[140.458,42.1761],[140.4112,42.2007],[140.3844,42.2234],[140.3401,42.2266],[140.309,42.2367],[140.2848,42.2551],[140.2762,42.2804],[140.2772,42.3208],[140.2875,42.358],[140.3133,42.4163],[140.351,42.4762],[140.3868,42.52],[140.4228,42.5532],[140.4723,42.5878],[140.4914,42.5837],[140.5385,42.5871],[140.5671,42.5701],[140.6461,42.5867],[140.7087,42.5831],[140.7594,42.5508],[140.7768,42.5325],[140.7824,42.5039],[140.7984,42.4999],[140.8378,42.4709],[140.8728,42.4589],[140.8969,42.4249],[140.9082,42.377],[140.9345,42.3637],[140.9802,42.3567],[140.9843,42.3269],[140.9563,42.3438],[140.9306,42.3364],[140.9439,42.3187],[140.993,42.3015],[141.0189,42.3287],[141.0521,42.3552],[141.0973,42.3997],[141.1546,42.4397],[141.2072,42.4542],[141.2805,42.5031],[141.3433,42.5397],[141.4489,42.5881],[141.5228,42.6114],[141.6097,42.6272],[141.6457,42.6378],[141.6592,42.6306],[141.7147,42.6278],[141.7637,42.6198],[141.8007,42.6008],[141.8293,42.6022],[141.8899,42.5821],[141.9535,42.539],[141.9819,42.5156],[142.0131,42.5003],[142.0283,42.4841],[142.0714,42.4778],[142.0794,42.4697],[142.1334,42.4674],[142.1908,42.4492],[142.2692,42.3874],[142.2844,42.3719],[142.3344,42.3442],[142.3596,42.335],[142.4053,42.309],[142.4481,42.3027],[142.4646,42.2834],[142.4956,42.2651],[142.5089,42.2672],[142.5532,42.2471],[142.5834,42.2433],[142.6321,42.2205],[142.6704,42.1917],[142.7228,42.184],[142.7646,42.1726],[142.8155,42.1411],[142.8503,42.1394],[142.8739,42.1318],[142.9069,42.133],[142.9642,42.1187],[142.9997,42.0862],[143.0663,42.0628],[143.1356,42.0266],[143.1617,41.9948],[143.1632,41.9827],[143.2208,41.9466],[143.2353,41.9331],[143.2547,41.9969],[143.2664,42.015],[143.3036,42.0444],[143.3231,42.1481]]],[[[131.1406,34.7898],[131.1274,34.7871],[131.1356,34.7592],[131.1608,34.7633],[131.1614,34.7744],[131.1406,34.7898]]],[[[133.1892,35.4876],[133.1788,35.5067],[133.1534,35.5024],[133.1634,35.4833],[133.1892,35.4876]]],[[[139.7772,35.5047],[139.7578,35.505],[139.7004,35.4774],[139.7122,35.4648],[139.7419,35.4791],[139.7772,35.5047]]],[[[139.7609,35.6154],[139.7482,35.5926],[139.7537,35.578],[139.7863,35.5803],[139.7609,35.6154]]],[[[133.9744,34.4734],[133.9769,34.4494],[133.9989,34.4616],[133.9744,34.4734]]],[[[134.0909,34.4921],[134.0841,34.5001],[134.042,34.4796],[134.0812,34.4585],[134.1023,34.4787],[134.0909,34.4921]]],[[[134.3428,34.5639],[134.3122,34.5577],[134.2989,34.5469],[134.2624,34.552],[134.2391,34.5298],[134.209,34.5216],[134.1653,34.5191],[134.1676,34.4934],[134.156,34.4921],[134.1414,34.4708],[134.1685,34.4651],[134.1914,34.4842],[134.2267,34.4802],[134.2422,34.4589],[134.2347,34.4443],[134.2471,34.4279],[134.2694,34.4686],[134.2959,34.4792],[134.3139,34.4761],[134.33,34.4458],[134.3492,34.4601],[134.3541,34.477],[134.3478,34.5022],[134.3601,34.5293],[134.3473,34.5397],[134.3428,34.5639]]],[[[136.9025,34.5308],[136.8987,34.5391],[136.8533,34.5167],[136.8753,34.5088],[136.9025,34.5308]]],[[[139.3741,34.7976],[139.3606,34.7994],[139.3486,34.7786],[139.3566,34.7426],[139.3515,34.7202],[139.3584,34.7034],[139.3954,34.6838],[139.4338,34.6776],[139.45,34.6958],[139.4494,34.7407],[139.4373,34.7669],[139.4122,34.787],[139.3741,34.7976]]],[[[135.222,34.6738],[135.202,34.659],[135.2167,34.65],[135.2442,34.652],[135.222,34.6738]]],[[[135.2889,34.695],[135.2528,34.6914],[135.2567,34.6775],[135.2905,34.6813],[135.2889,34.695]]],[[[134.3055,34.7289],[134.2766,34.7191],[134.2856,34.7059],[134.323,34.7142],[134.3055,34.7289]]],[[[132.8893,34.3231],[132.9299,34.3257],[132.9422,34.3349],[132.9943,34.337],[133.0154,34.3285],[133.0794,34.3453],[133.0903,34.3829],[133.1177,34.383],[133.1869,34.4004],[133.2119,34.4107],[133.2345,34.4112],[133.2695,34.4332],[133.2721,34.407],[133.2903,34.3831],[133.3672,34.369],[133.3841,34.3821],[133.3864,34.42],[133.4393,34.4353],[133.4572,34.46],[133.4894,34.441],[133.5601,34.468],[133.5732,34.4652],[133.6032,34.4951],[133.6895,34.5117],[133.7056,34.5264],[133.7043,34.4848],[133.7156,34.4742],[133.7429,34.4703],[133.7579,34.4867],[133.7717,34.4543],[133.7886,34.4352],[133.8185,34.436],[133.8104,34.4644],[133.8353,34.4739],[133.8671,34.4673],[133.8824,34.4555],[133.9202,34.4498],[133.9436,34.4562],[133.9397,34.4814],[133.9649,34.495],[133.9589,34.5231],[133.9883,34.53],[134.0103,34.55],[134.0317,34.5572],[134.0407,34.5878],[134.03,34.5986],[133.9633,34.59],[133.9479,34.5758],[133.944,34.558],[133.9231,34.5597],[133.9368,34.5892],[133.9771,34.6002],[134.0022,34.6125],[134.0314,34.6063],[134.0636,34.5839],[134.0941,34.5816],[134.1202,34.5888],[134.1499,34.6166],[134.1732,34.6165],[134.1886,34.6507],[134.2211,34.6831],[134.245,34.6978],[134.235,34.7153],[134.2058,34.7108],[134.2115,34.7309],[134.2282,34.7315],[134.2441,34.7151],[134.2939,34.7364],[134.315,34.7321],[134.3728,34.7397],[134.3856,34.7261],[134.4226,34.7366],[134.4307,34.7634],[134.45,34.7683],[134.5016,34.7664],[134.5276,34.7827],[134.5642,34.7608],[134.595,34.7636],[134.6287,34.7741],[134.645,34.7666],[134.6618,34.7768],[134.6915,34.7692],[134.7144,34.7757],[134.7561,34.7653],[134.7683,34.7506],[134.7979,34.7327],[134.8108,34.7159],[134.8406,34.6963],[134.8772,34.6845],[134.89,34.6925],[134.9088,34.6743],[134.9264,34.6728],[134.9653,34.6458],[135.0177,34.6434],[135.042,34.6278],[135.0764,34.631],[135.1242,34.6431],[135.1827,34.6492],[135.1893,34.6786],[135.2197,34.695],[135.2885,34.7036],[135.3242,34.7189],[135.3431,34.7134],[135.369,34.6836],[135.3965,34.6863],[135.4084,34.6963],[135.4234,34.6801],[135.4163,34.6604],[135.4478,34.6455],[135.3978,34.6381],[135.4032,34.6117],[135.4575,34.6096],[135.4442,34.5976],[135.424,34.6047],[135.4019,34.5997],[135.4109,34.5605],[135.4451,34.5562],[135.4343,34.5346],[135.4187,34.5204],[135.3944,34.5324],[135.3847,34.5182],[135.3672,34.5164],[135.3708,34.4907],[135.3479,34.449],[135.294,34.4152],[135.2547,34.4453],[135.2197,34.4228],[135.2288,34.4131],[135.2641,34.4366],[135.2937,34.4138],[135.2929,34.4063],[135.2639,34.3804],[135.2467,34.3756],[135.2229,34.3471],[135.1536,34.3313],[135.1426,34.319],[135.1029,34.3202],[135.0679,34.2918],[135.0739,34.2829],[135.0616,34.2633],[135.0902,34.2614],[135.1175,34.2461],[135.1446,34.2181],[135.1499,34.1947],[135.1784,34.1799],[135.1868,34.1555],[135.1696,34.1337],[135.1326,34.1386],[135.1343,34.1276],[135.1075,34.0973],[135.0956,34.0919],[135.1052,34.0707],[135.1364,34.0641],[135.17,34.0368],[135.1515,34.0094],[135.1264,33.9974],[135.0929,33.9925],[135.0752,33.9792],[135.0853,33.9356],[135.0657,33.9277],[135.0833,33.9105],[135.0646,33.8923],[135.1,33.8881],[135.1146,33.8934],[135.1575,33.8765],[135.1631,33.8451],[135.1746,33.8403],[135.1964,33.8131],[135.2164,33.8137],[135.2358,33.7995],[135.237,33.7801],[135.2713,33.7828],[135.2983,33.7677],[135.3208,33.766],[135.3293,33.7461],[135.3459,33.7446],[135.3938,33.7145],[135.3932,33.7051],[135.3629,33.6795],[135.3308,33.6718],[135.3453,33.6578],[135.3785,33.653],[135.3919,33.6437],[135.3938,33.6082],[135.3878,33.6002],[135.405,33.5786],[135.442,33.5652],[135.4596,33.5529],[135.4882,33.5488],[135.5142,33.525],[135.5492,33.5159],[135.5742,33.516],[135.6562,33.4984],[135.6756,33.4884],[135.7107,33.4876],[135.7228,33.4778],[135.7592,33.4843],[135.7819,33.4639],[135.7984,33.4984],[135.8255,33.5145],[135.8875,33.5355],[135.9166,33.5531],[135.9135,33.57],[135.9588,33.5804],[135.9258,33.6088],[135.9463,33.6174],[135.9406,33.6462],[135.9617,33.6541],[135.972,33.6719],[135.9895,33.6842],[135.9936,33.703],[136.021,33.736],[136.0308,33.7711],[136.0464,33.8061],[136.0706,33.8481],[136.1003,33.8861],[136.1481,33.9028],[136.1507,33.931],[136.1698,33.9137],[136.1969,33.9203],[136.2028,33.944],[136.2283,33.9497],[136.2131,33.9696],[136.2106,33.9981],[136.2461,33.9727],[136.2728,33.9719],[136.2649,33.9932],[136.2817,34.0228],[136.2461,34.0425],[136.2436,34.0597],[136.2056,34.0694],[136.2542,34.1044],[136.2723,34.0862],[136.2978,34.0897],[136.3083,34.1133],[136.2839,34.1186],[136.2769,34.1378],[136.2827,34.1626],[136.305,34.1806],[136.3168,34.1787],[136.3394,34.1928],[136.3639,34.1889],[136.4167,34.2133],[136.4483,34.2194],[136.4636,34.2361],[136.4997,34.2314],[136.5113,34.2711],[136.5308,34.2681],[136.5431,34.2544],[136.5744,34.2825],[136.5822,34.2639],[136.6039,34.2578],[136.6186,34.2733],[136.6369,34.2756],[136.665,34.2997],[136.6617,34.3236],[136.7064,34.3361],[136.6883,34.3061],[136.6981,34.2886],[136.7203,34.3036],[136.7483,34.2933],[136.7725,34.3025],[136.7981,34.2894],[136.8225,34.3042],[136.8336,34.2914],[136.8367,34.27],[136.7655,34.2786],[136.7686,34.2608],[136.8198,34.2503],[136.8406,34.2522],[136.8981,34.2789],[136.8847,34.2981],[136.8922,34.3153],[136.8782,34.3399],[136.9008,34.355],[136.8772,34.3714],[136.8911,34.3878],[136.9261,34.4131],[136.925,34.4444],[136.8964,34.4533],[136.8753,34.4508],[136.8692,34.4747],[136.8494,34.48],[136.8383,34.4942],[136.8192,34.4847],[136.8106,34.5083],[136.7781,34.5083],[136.7228,34.5428],[136.6956,34.5467],[136.6614,34.5633],[136.6483,34.5873],[136.6269,34.5978],[136.5706,34.6022],[136.5539,34.6156],[136.548,34.6664],[136.5211,34.6947],[136.5292,34.7372],[136.5486,34.7797],[136.6147,34.8547],[136.6464,34.9031],[136.6464,34.9303],[136.6579,34.9456],[136.6456,34.955],[136.6517,34.9928],[136.6769,35.0064],[136.6997,35.0064],[136.6978,35.0211],[136.7495,35.0353],[136.7641,35.0206],[136.7944,35.0148],[136.812,35.0253],[136.8395,35.0297],[136.8307,35.0498],[136.8247,35.0861],[136.8492,35.0781],[136.8844,35.0886],[136.8936,35.0667],[136.8667,35.0397],[136.8397,34.9892],[136.8286,34.9614],[136.8214,34.9053],[136.8303,34.8847],[136.8575,34.8619],[136.8668,34.8394],[136.8445,34.7564],[136.8614,34.7378],[136.8883,34.7211],[136.9436,34.7003],[136.9775,34.7044],[136.9664,34.7328],[136.95,34.7392],[136.9144,34.7717],[136.9353,34.857],[136.968,34.8969],[136.968,34.8708],[136.9553,34.855],[136.9578,34.8325],[136.98,34.8297],[137.0146,34.7879],[137.0425,34.775],[137.0666,34.7856],[137.0986,34.7836],[137.1167,34.7902],[137.1757,34.7845],[137.1898,34.8041],[137.2118,34.8042],[137.2231,34.8161],[137.2615,34.8047],[137.2848,34.8123],[137.3107,34.8048],[137.329,34.7868],[137.3222,34.7711],[137.3201,34.7329],[137.3087,34.7246],[137.2847,34.731],[137.2618,34.7158],[137.2229,34.6754],[137.2066,34.6781],[137.1703,34.6567],[137.1197,34.6348],[137.0649,34.6588],[137.0357,34.6113],[137.0251,34.5872],[137.0383,34.5784],[137.096,34.5912],[137.1415,34.5897],[137.2019,34.6103],[137.2233,34.6138],[137.315,34.6414],[137.4403,34.668],[137.5238,34.6782],[137.5773,34.6802],[137.5652,34.7053],[137.5455,34.7188],[137.5371,34.7467],[137.5235,34.7632],[137.5481,34.7697],[137.5472,34.7936],[137.5843,34.7852],[137.6132,34.7894],[137.6255,34.8016],[137.6448,34.7956],[137.6003,34.7539],[137.5828,34.7116],[137.605,34.7129],[137.6065,34.7381],[137.6284,34.7283],[137.6153,34.7115],[137.6068,34.6863],[137.6176,34.6766],[137.7206,34.6635],[137.7817,34.6483],[137.8042,34.646],[137.8359,34.6551],[137.9142,34.6677],[138.0019,34.6622],[138.0773,34.6434],[138.1579,34.6154],[138.1923,34.6008],[138.228,34.5955],[138.1954,34.6347],[138.1947,34.6649],[138.2094,34.6878],[138.2141,34.7105],[138.2367,34.7357],[138.2992,34.7707],[138.3071,34.7912],[138.3342,34.8219],[138.3374,34.841],[138.3252,34.864],[138.3557,34.913],[138.4009,34.9304],[138.4152,34.9427],[138.4651,34.9574],[138.5039,34.976],[138.5215,34.9893],[138.5324,35.0106],[138.5017,35.012],[138.5011,35.0301],[138.5337,35.0556],[138.5551,35.0979],[138.574,35.1097],[138.6488,35.1197],[138.6809,35.1319],[138.7146,35.1361],[138.7662,35.1288],[138.8074,35.1164],[138.8451,35.0946],[138.8533,35.08],[138.883,35.0547],[138.9016,35.0502],[138.8923,35.0322],[138.8453,35.0143],[138.8283,35.0237],[138.8111,35.0195],[138.7834,35.0256],[138.762,34.9707],[138.7884,34.9058],[138.7558,34.8835],[138.7596,34.8426],[138.7523,34.8004],[138.7754,34.7673],[138.7765,34.7557],[138.7465,34.7319],[138.7392,34.705],[138.7758,34.6767],[138.7827,34.6612],[138.7711,34.6493],[138.8095,34.6252],[138.826,34.6062],[138.8518,34.6116],[138.8786,34.6243],[138.9037,34.6292],[138.9168,34.6501],[138.9383,34.6662],[138.9553,34.6554],[138.9771,34.6529],[138.9874,34.6661],[138.9728,34.6879],[138.9795,34.7087],[139.0014,34.7354],[139.0053,34.7525],[139.0539,34.7806],[139.0786,34.82],[139.0772,34.8417],[139.1036,34.87],[139.1303,34.8775],[139.1342,34.9033],[139.1483,34.9303],[139.1472,34.9453],[139.1292,34.9561],[139.1292,34.9683],[139.0943,34.9779],[139.0831,35.0017],[139.0973,35.0166],[139.1011,35.0447],[139.0689,35.0559],[139.0828,35.0861],[139.0763,35.0973],[139.1093,35.1305],[139.1229,35.1501],[139.1458,35.1681],[139.1361,35.1811],[139.1417,35.2245],[139.1506,35.2394],[139.2095,35.278],[139.2499,35.2929],[139.3323,35.3131],[139.4415,35.3195],[139.5262,35.3015],[139.5533,35.3022],[139.5808,35.2537],[139.6061,35.2235],[139.6045,35.2028],[139.6202,35.1739],[139.6158,35.1477],[139.6273,35.1366],[139.6699,35.1394],[139.6559,35.1856],[139.689,35.2085],[139.7248,35.2121],[139.7343,35.2474],[139.731,35.2638],[139.6923,35.2659],[139.6776,35.2794],[139.6722,35.3013],[139.6492,35.2886],[139.6386,35.2999],[139.659,35.3284],[139.657,35.3718],[139.6257,35.4005],[139.6692,35.4022],[139.6805,35.4125],[139.69,35.4389],[139.6647,35.445],[139.6327,35.4647],[139.6517,35.4767],[139.6817,35.4733],[139.6961,35.4845],[139.7649,35.5121],[139.7663,35.5372],[139.7981,35.5367],[139.7812,35.565],[139.7561,35.5689],[139.747,35.5923],[139.7546,35.6377],[139.7644,35.6556],[139.7878,35.6748],[139.7905,35.6525],[139.7764,35.6422],[139.7932,35.6141],[139.8069,35.6377],[139.8216,35.6311],[139.8495,35.6429],[139.8708,35.6391],[139.874,35.625],[139.8974,35.6164],[139.9391,35.6402],[139.919,35.6559],[139.9296,35.6659],[139.9818,35.6814],[139.9872,35.6545],[140.0138,35.6573],[140.0823,35.5974],[140.0858,35.5696],[140.0945,35.5553],[140.0604,35.5432],[140.0061,35.4796],[139.9799,35.4742],[139.9509,35.4561],[139.9487,35.4438],[139.9036,35.4316],[139.896,35.4108],[139.9105,35.3807],[139.8823,35.3617],[139.8463,35.3754],[139.823,35.3438],[139.8277,35.3288],[139.8123,35.307],[139.8402,35.2951],[139.8474,35.2717],[139.8646,35.2541],[139.8706,35.2228],[139.8308,35.2038],[139.8186,35.1888],[139.8185,35.1544],[139.8363,35.1397],[139.8247,35.1068],[139.8426,35.0865],[139.8218,35.0725],[139.835,35.0315],[139.8528,35.0235],[139.8586,34.9967],[139.8494,34.9856],[139.8292,34.9908],[139.8206,34.9786],[139.7858,34.9725],[139.7544,34.9781],[139.7544,34.9628],[139.8067,34.9464],[139.8258,34.9322],[139.8236,34.9106],[139.8436,34.9019],[139.9019,34.9033],[139.9414,34.9167],[139.9642,34.9422],[139.9592,34.9664],[139.9746,35.0024],[140.0003,35.0303],[140.0178,35.0361],[140.055,35.0594],[140.0731,35.0561],[140.0977,35.0842],[140.1102,35.1087],[140.1352,35.1216],[140.1697,35.1236],[140.1934,35.1196],[140.203,35.1092],[140.2255,35.1142],[140.2997,35.1513],[140.3264,35.1391],[140.3331,35.1639],[140.3572,35.1839],[140.3764,35.18],[140.394,35.2024],[140.406,35.2383],[140.3988,35.2617],[140.4137,35.3131],[140.3959,35.3325],[140.3914,35.3572],[140.3944,35.4169],[140.4061,35.4536],[140.4331,35.5044],[140.4628,35.5433],[140.5,35.5822],[140.5625,35.6319],[140.6497,35.6862],[140.6924,35.6999],[140.7156,35.7017],[140.7501,35.6928],[140.8145,35.7128],[140.8382,35.7111],[140.8544,35.6958],[140.8707,35.7191],[140.852,35.7396],[140.8269,35.7572],[140.7906,35.8],[140.7376,35.871],[140.7397,35.879],[140.7068,35.9247],[140.6839,35.9653],[140.6728,35.9665],[140.6231,36.0586],[140.5933,36.1206],[140.5753,36.1719],[140.5653,36.2119],[140.5581,36.2825],[140.5658,36.3025],[140.5853,36.3103],[140.5947,36.3336],[140.6206,36.3606],[140.6272,36.3814],[140.6161,36.3869],[140.6095,36.4092],[140.6078,36.4436],[140.6169,36.4903],[140.6294,36.5008],[140.6386,36.5383],[140.653,36.5733],[140.6631,36.5817],[140.6964,36.6486],[140.7169,36.6622],[140.7167,36.6948],[140.7286,36.7203],[140.7308,36.7431],[140.7481,36.7844],[140.7645,36.8125],[140.7822,36.8281],[140.8054,36.8308],[140.7894,36.8594],[140.7908,36.8772],[140.8127,36.9058],[140.8443,36.9133],[140.8983,36.9436],[140.9203,36.9342],[140.9372,36.9528],[140.9672,36.9703],[140.9831,36.9953],[140.9724,37.0232],[140.9734,37.0506],[140.9972,37.1229],[141.0018,37.1906],[141.0129,37.228],[141.0148,37.2638],[141.0266,37.3042],[141.037,37.3822],[141.0337,37.4039],[141.0359,37.4602],[141.0414,37.4845],[141.0258,37.5694],[141.0253,37.6392],[141.0111,37.6903],[141.0128,37.7319],[141.0085,37.7488],[140.9878,37.7758],[140.9636,37.7894],[140.9711,37.8083],[140.9678,37.8278],[140.9506,37.8403],[140.9311,37.9008],[140.9236,37.9094],[140.9161,37.9567],[140.9156,38.0147],[140.9217,38.035],[140.9253,38.0789],[140.9508,38.1628],[140.995,38.2308],[141.0289,38.2753],[141.0627,38.2824],[141.0899,38.3016],[141.0765,38.3193],[141.0535,38.3135],[141.0375,38.3421],[141.0602,38.3524],[141.0621,38.3691],[141.1062,38.3857],[141.138,38.3711],[141.1323,38.3601],[141.165,38.3277],[141.167,38.372],[141.2218,38.398],[141.3014,38.4161],[141.3146,38.4112],[141.3622,38.4125],[141.3882,38.4369],[141.4066,38.436],[141.4122,38.4181],[141.373,38.4161],[141.3671,38.3905],[141.3869,38.3842],[141.4022,38.3961],[141.4468,38.3761],[141.4194,38.3544],[141.4634,38.3478],[141.4672,38.3056],[141.4844,38.3082],[141.508,38.2967],[141.5399,38.303],[141.5253,38.3254],[141.5339,38.3411],[141.5151,38.3701],[141.4936,38.3705],[141.5164,38.3949],[141.4718,38.4252],[141.5011,38.451],[141.4862,38.4608],[141.5,38.4789],[141.487,38.5019],[141.5126,38.5132],[141.515,38.4925],[141.5369,38.4916],[141.5348,38.5089],[141.5475,38.5203],[141.5158,38.5453],[141.4922,38.5342],[141.4788,38.5616],[141.4573,38.5579],[141.4633,38.581],[141.4877,38.5832],[141.5244,38.6086],[141.5305,38.6356],[141.4637,38.6481],[141.4617,38.6707],[141.5157,38.6881],[141.5387,38.7092],[141.5586,38.7148],[141.5616,38.7305],[141.5389,38.7422],[141.5133,38.7664],[141.5211,38.7884],[141.5784,38.8126],[141.5913,38.8344],[141.5826,38.854],[141.5906,38.8836],[141.6156,38.882],[141.6332,38.8964],[141.6549,38.8659],[141.6677,38.8921],[141.6427,38.928],[141.6439,38.9555],[141.6278,38.978],[141.6239,39.0009],[141.6672,39.0055],[141.679,38.9944],[141.6664,38.9817],[141.7045,38.9446],[141.7276,38.9547],[141.7179,38.9674],[141.712,38.9969],[141.7332,38.9878],[141.7421,38.999],[141.7101,39.0241],[141.733,39.0529],[141.7451,39.0244],[141.768,39.0302],[141.8183,39.0231],[141.8528,39.0283],[141.8422,39.0764],[141.8243,39.0752],[141.8098,39.1026],[141.8564,39.1047],[141.8896,39.0888],[141.9161,39.1067],[141.9003,39.1202],[141.8369,39.1452],[141.845,39.1549],[141.8875,39.1556],[141.9156,39.1723],[141.9223,39.1841],[141.882,39.1858],[141.8939,39.2002],[141.938,39.2234],[141.9523,39.2442],[141.914,39.2405],[141.8936,39.2683],[141.928,39.2662],[141.926,39.2858],[141.905,39.2917],[141.907,39.3091],[141.9697,39.3128],[141.9812,39.3372],[141.9433,39.3291],[141.9156,39.346],[141.9577,39.3559],[141.943,39.3878],[141.9727,39.4195],[141.9803,39.41],[142.0056,39.4097],[142.045,39.4261],[142.0497,39.4572],[142.0614,39.4706],[142.0425,39.4836],[141.9868,39.4486],[141.9612,39.4489],[141.9546,39.473],[141.9903,39.4836],[142.03,39.5086],[142.0339,39.5297],[142.0656,39.5367],[142.0728,39.5467],[142.0578,39.5744],[142.0333,39.5739],[142.0239,39.6292],[142.0155,39.6553],[141.9588,39.5865],[141.9452,39.5985],[141.9635,39.6113],[141.9716,39.6614],[141.9863,39.6831],[141.9697,39.687],[141.9839,39.7093],[141.9884,39.7562],[141.9984,39.7729],[141.9839,39.813],[141.9916,39.8207],[141.9745,39.847],[141.9794,39.866],[141.9714,39.8844],[141.9558,39.8904],[141.9403,39.9202],[141.9435,39.9442],[141.9583,39.95],[141.955,39.9854],[141.9322,40.0119],[141.9158,40.0081],[141.8857,40.0338],[141.8753,40.05],[141.8586,40.0534],[141.8336,40.075],[141.8281,40.1133],[141.8463,40.1341],[141.8714,40.1345],[141.86,40.1646],[141.8309,40.179],[141.8015,40.1843],[141.7948,40.1953],[141.8136,40.2205],[141.8324,40.2345],[141.8166,40.2716],[141.7738,40.3223],[141.7697,40.3478],[141.7544,40.3691],[141.721,40.3982],[141.683,40.4516],[141.6374,40.4802],[141.6293,40.4949],[141.5925,40.5185],[141.582,40.5394],[141.5653,40.5432],[141.5486,40.5299],[141.5253,40.5439],[141.5031,40.5431],[141.4864,40.5603],[141.4472,40.6389],[141.4383,40.6867],[141.4306,40.6903],[141.4125,40.7575],[141.4008,40.84],[141.3972,40.8444],[141.3864,40.9401],[141.3847,41.0139],[141.3964,41.1264],[141.3892,41.1469],[141.3936,41.1903],[141.4417,41.3553],[141.4611,41.38],[141.4614,41.4167],[141.4339,41.4061],[141.3917,41.3769],[141.3425,41.3583],[141.3108,41.3511],[141.2836,41.3519],[141.2133,41.3744],[141.1272,41.4422],[141.1119,41.4631],[141.0669,41.4822],[141.02,41.4828],[140.9771,41.4971],[140.9634,41.5133],[140.9117,41.5458],[140.8984,41.5224],[140.9087,41.4942],[140.8559,41.4342],[140.836,41.4165],[140.8274,41.3709],[140.8158,41.3381],[140.8003,41.3283],[140.8058,41.3132],[140.7955,41.2792],[140.7789,41.2528],[140.7855,41.2328],[140.7639,41.1952],[140.7681,41.1589],[140.7638,41.1456],[140.7825,41.1311],[140.8147,41.1306],[140.8329,41.1495],[140.876,41.1668],[140.8926,41.1635],[140.9187,41.176],[140.9459,41.1739],[140.98,41.1988],[141.0085,41.1977],[141.0347,41.1848],[141.0574,41.1829],[141.073,41.1996],[141.115,41.2139],[141.1594,41.2775],[141.198,41.2723],[141.2372,41.2375],[141.2588,41.2078],[141.2786,41.1571],[141.272,41.1354],[141.2465,41.1059],[141.2427,41.0574],[141.2308,40.9944],[141.2128,40.9542],[141.1778,40.9039],[141.1519,40.8808],[141.1314,40.8722],[141.0992,40.8742],[141.0828,40.8869],[141.0647,40.9133],[141.0358,40.9169],[141.0118,40.9311],[140.9808,40.9306],[140.9902,40.9517],[140.9513,40.9908],[140.9254,40.9911],[140.8984,41.0071],[140.8684,40.982],[140.8633,40.9537],[140.8723,40.9398],[140.8743,40.9059],[140.8485,40.8686],[140.7903,40.8306],[140.7522,40.8267],[140.7352,40.8306],[140.7045,40.8524],[140.6882,40.8764],[140.6513,41.0025],[140.6463,41.0461],[140.6316,41.0994],[140.6335,41.1317],[140.6435,41.1742],[140.6314,41.1921],[140.6037,41.2141],[140.5548,41.2245],[140.5273,41.2209],[140.4978,41.1897],[140.4722,41.182],[140.447,41.189],[140.4045,41.2205],[140.3974,41.2344],[140.3453,41.2608],[140.3328,41.2369],[140.3309,41.2014],[140.3363,41.1897],[140.325,41.1529],[140.3027,41.1312],[140.2842,41.1222],[140.3192,41.0935],[140.3315,41.0496],[140.3509,41.039],[140.4018,41.0394],[140.4064,41.0239],[140.3741,41.0286],[140.3417,41.0034],[140.3228,41.0307],[140.3157,40.9476],[140.2936,40.8687],[140.2638,40.8086],[140.2426,40.7851],[140.2245,40.7782],[140.1953,40.7787],[140.1488,40.7483],[140.1288,40.7401],[140.1087,40.743],[140.0913,40.758],[140.0665,40.7668],[140.0356,40.757],[140.0026,40.7399],[139.9662,40.685],[139.9379,40.6669],[139.9244,40.6447],[139.9018,40.6454],[139.8925,40.6326],[139.8605,40.6158],[139.8682,40.5842],[139.9242,40.5808],[139.9469,40.5297],[139.9496,40.4968],[139.9383,40.4478],[139.9467,40.4126],[139.9792,40.3964],[139.9817,40.3853],[140.0104,40.3745],[140.0252,40.3533],[140.0222,40.2925],[140.0087,40.2365],[140.0101,40.2214],[139.9873,40.2005],[139.9919,40.176],[139.9672,40.1131],[139.9293,40.0486],[139.9075,40.0217],[139.862,39.9813],[139.8325,39.9647],[139.7986,39.9566],[139.7656,39.975],[139.7237,39.9813],[139.7088,40.0015],[139.6939,39.9794],[139.7105,39.9469],[139.7049,39.9288],[139.7167,39.9092],[139.7348,39.9051],[139.7376,39.877],[139.7539,39.8568],[139.7934,39.8677],[139.817,39.8573],[139.861,39.8667],[139.8521,39.8866],[139.8616,39.8963],[139.9068,39.9023],[139.9447,39.8912],[139.9586,39.9048],[139.9488,39.9405],[139.9212,39.9569],[139.9312,39.9878],[139.9433,40.0039],[139.9356,40.0106],[139.9283,40.0231],[139.952,40.0375],[139.9633,40.0628],[139.9794,40.0692],[139.9797,40.0797],[139.9817,40.0878],[139.9881,40.0958],[140,40.0942],[140.0033,40.0889],[140.0327,40.0761],[140.0548,40.07],[140.0738,40.0402],[140.0719,39.9878],[140.0642,39.9594],[140.0437,39.9356],[140.055,39.9053],[140.0389,39.8786],[140.0169,39.9097],[139.9728,39.9204],[139.9491,39.8905],[139.9762,39.8743],[140.0039,39.85],[140.0254,39.8218],[140.0412,39.7863],[140.0461,39.7492],[140.0587,39.7256],[140.0633,39.6702],[140.0606,39.5985],[140.0449,39.498],[140.0174,39.3891],[139.999,39.346],[139.9667,39.2944],[139.9304,39.2897],[139.9106,39.2651],[139.9143,39.2492],[139.8928,39.2131],[139.9057,39.1961],[139.8968,39.1583],[139.8685,39.1129],[139.879,39.0962],[139.8707,39.0627],[139.8378,38.9797],[139.8247,38.9747],[139.8239,38.9535],[139.8086,38.9275],[139.7993,38.8896],[139.7664,38.8089],[139.7462,38.775],[139.7088,38.7519],[139.6989,38.7308],[139.6714,38.7189],[139.6478,38.6931],[139.6268,38.6874],[139.6092,38.6692],[139.5869,38.625],[139.5639,38.5953],[139.5456,38.5632],[139.5492,38.5419],[139.5042,38.4761],[139.4969,38.4572],[139.4559,38.397],[139.4594,38.3795],[139.4509,38.3616],[139.4473,38.2962],[139.4492,38.2773],[139.4411,38.247],[139.4483,38.2325],[139.4287,38.2018],[139.4284,38.1783],[139.3916,38.1289],[139.349,38.081],[139.3154,38.0506],[139.2465,38.0047],[139.2283,38],[139.1905,37.9784],[139.1502,37.9678],[139.0928,37.9582],[139.0611,37.9456],[138.9993,37.9074],[138.8871,37.8508],[138.8421,37.8173],[138.8158,37.7876],[138.7949,37.7332],[138.7703,37.6531],[138.7476,37.6052],[138.7319,37.5912],[138.713,37.5575],[138.6849,37.544],[138.6547,37.5208],[138.6481,37.5062],[138.6172,37.4722],[138.5858,37.418],[138.5505,37.375],[138.5163,37.3568],[138.4935,37.3519],[138.4361,37.3212],[138.3396,37.2421],[138.2762,37.1982],[138.2257,37.1718],[138.1945,37.1699],[138.151,37.1612],[138.1222,37.1705],[138.0947,37.1724],[138.0482,37.1275],[138.0232,37.115],[138.0044,37.1152],[137.9127,37.0611],[137.8436,37.0447],[137.8112,37.0285],[137.7624,37.0163],[137.6998,36.9943],[137.6532,36.9813],[137.5877,36.9754],[137.5723,36.9637],[137.512,36.9597],[137.4893,36.9538],[137.4258,36.9249],[137.4095,36.8984],[137.419,36.8742],[137.4112,36.8489],[137.3922,36.8223],[137.3931,36.8078],[137.3477,36.7813],[137.3335,36.7624],[137.2918,36.758],[137.2351,36.7661],[137.1854,36.7567],[137.1553,36.7628],[137.1369,36.7758],[137.0678,36.7931],[137.047,36.8126],[137.0069,36.8369],[136.9855,36.8644],[137.0335,36.9233],[137.0282,36.9401],[137.0572,36.9674],[137.0492,36.9854],[137.0475,37.0442],[137.0544,37.0744],[137.0505,37.108],[137.0214,37.1011],[137.0012,37.0668],[137.0022,37.0583],[136.973,37.0467],[136.9425,37.0675],[136.9276,37.0862],[136.9073,37.089],[136.8837,37.068],[136.8713,37.0865],[136.8672,37.1112],[136.8897,37.1106],[136.9012,37.1357],[136.8739,37.1449],[136.884,37.1632],[136.9129,37.1939],[136.9371,37.2288],[136.9567,37.2096],[136.9866,37.2014],[137.0056,37.1835],[137.0255,37.1875],[137.032,37.2026],[137.0695,37.2181],[137.0761,37.2448],[137.0857,37.2486],[137.0984,37.2784],[137.1439,37.2985],[137.1767,37.3011],[137.2216,37.2932],[137.2467,37.307],[137.268,37.3361],[137.2489,37.3542],[137.2378,37.3786],[137.244,37.4091],[137.2562,37.4304],[137.2787,37.4407],[137.311,37.4367],[137.3522,37.444],[137.358,37.4651],[137.3398,37.483],[137.3517,37.5019],[137.3422,37.5173],[137.311,37.5265],[137.2631,37.5311],[137.2452,37.5195],[137.2242,37.5172],[137.2088,37.5056],[137.1443,37.4988],[137.0907,37.4757],[137.0704,37.454],[137.0299,37.433],[137.0039,37.4288],[136.9261,37.3958],[136.9067,37.3953],[136.8789,37.4062],[136.8431,37.4005],[136.7716,37.3669],[136.7561,37.364],[136.7542,37.3466],[136.7212,37.3238],[136.7254,37.2953],[136.7358,37.2858],[136.7271,37.2651],[136.7002,37.2372],[136.6833,37.2103],[136.6699,37.1467],[136.6851,37.1357],[136.703,37.1495],[136.7269,37.1358],[136.7296,37.0977],[136.7176,37.0762],[136.7238,37.0526],[136.7463,37.0299],[136.7435,37.0121],[136.7689,37.0009],[136.7711,36.9815],[136.7623,36.9446],[136.7509,36.9339],[136.7663,36.9198],[136.7684,36.9029],[136.7449,36.8284],[136.7007,36.748],[136.6452,36.6676],[136.5711,36.5818],[136.5014,36.5087],[136.4809,36.4917],[136.4425,36.4449],[136.4182,36.4208],[136.3466,36.3652],[136.3,36.3521],[136.2782,36.321],[136.2105,36.2713],[136.1663,36.2499],[136.1234,36.2498],[136.1356,36.2203],[136.0918,36.1619],[136.0939,36.1528],[136.0717,36.1339],[136.0547,36.1283],[136.0483,36.1097],[136.0305,36.0873],[136.0115,36.0466],[136.012,36.0347],[135.985,36.0092],[135.9643,35.9973],[135.9618,35.9716],[135.9983,35.933],[135.9945,35.8942],[135.9994,35.8818],[136.0712,35.8247],[136.1,35.7781],[136.0989,35.7253],[136.0825,35.7039],[136.0814,35.6786],[136.0733,35.6608],[136.0442,35.6578],[136.0258,35.68],[136.0446,35.7051],[136.0378,35.7281],[136.0228,35.7447],[136.0217,35.7622],[135.9684,35.7349],[135.9547,35.7197],[135.9699,35.7118],[135.9771,35.6849],[135.9659,35.6632],[135.9861,35.6424],[135.9746,35.6244],[135.9545,35.6293],[135.9404,35.6148],[135.9128,35.6094],[135.908,35.6241],[135.867,35.6076],[135.8451,35.636],[135.8276,35.6115],[135.8556,35.6004],[135.8556,35.5792],[135.841,35.564],[135.8138,35.5625],[135.8337,35.5354],[135.7964,35.5264],[135.7747,35.5496],[135.7584,35.5427],[135.7511,35.5653],[135.7144,35.5694],[135.688,35.545],[135.7168,35.5403],[135.7164,35.5206],[135.7519,35.5317],[135.7505,35.5178],[135.7345,35.4928],[135.7182,35.4843],[135.6982,35.4913],[135.6318,35.4786],[135.6204,35.4861],[135.6424,35.5075],[135.6433,35.526],[135.6676,35.5284],[135.66,35.5461],[135.6311,35.5367],[135.5767,35.4932],[135.5512,35.4965],[135.534,35.4893],[135.5163,35.4945],[135.502,35.5244],[135.4791,35.5425],[135.4811,35.5591],[135.4666,35.5711],[135.4351,35.5818],[135.3906,35.5565],[135.3794,35.5617],[135.3501,35.5431],[135.3382,35.5244],[135.345,35.5055],[135.3906,35.5082],[135.4008,35.4943],[135.3419,35.4832],[135.3322,35.4947],[135.332,35.5158],[135.2881,35.5161],[135.271,35.5333],[135.245,35.5354],[135.2426,35.5597],[135.2686,35.5671],[135.2419,35.5847],[135.2249,35.5678],[135.187,35.5578],[135.2144,35.598],[135.2448,35.6204],[135.2513,35.6464],[135.2696,35.6677],[135.2944,35.6715],[135.3067,35.6985],[135.2871,35.7112],[135.2882,35.7248],[135.2748,35.7422],[135.2569,35.7444],[135.2257,35.7749],[135.1456,35.7498],[135.0855,35.7396],[135.0852,35.7259],[135.0271,35.6899],[134.9858,35.6925],[134.9636,35.6719],[134.9628,35.6603],[134.9311,35.6472],[134.8917,35.649],[134.8803,35.6608],[134.8211,35.6567],[134.7956,35.6699],[134.7742,35.6589],[134.7436,35.6592],[134.7262,35.6663],[134.7086,35.6544],[134.6561,35.6656],[134.625,35.6392],[134.6004,35.6582],[134.5577,35.6552],[134.5394,35.6708],[134.5133,35.6583],[134.5027,35.6629],[134.4533,35.6286],[134.4322,35.6203],[134.3937,35.6201],[134.3603,35.6006],[134.3442,35.6031],[134.3242,35.5903],[134.2939,35.5892],[134.2667,35.5578],[134.2303,35.5461],[134.1911,35.5406],[134.1631,35.5319],[134.0825,35.525],[134.0714,35.52],[134.0192,35.52],[134.0112,35.5354],[133.9256,35.5101],[133.8021,35.5007],[133.7545,35.5007],[133.6713,35.5063],[133.59,35.5317],[133.5457,35.5215],[133.4968,35.5153],[133.4714,35.4985],[133.4461,35.4941],[133.4317,35.481],[133.4265,35.4614],[133.4011,35.4529],[133.3272,35.465],[133.3212,35.432],[133.3241,35.3991],[133.298,35.4134],[133.2928,35.4262],[133.2566,35.4315],[133.2307,35.4488],[133.2074,35.4478],[133.1783,35.4362],[133.1612,35.4449],[133.1443,35.4353],[133.1141,35.4505],[133.1365,35.4726],[133.1275,35.5113],[133.1542,35.5362],[133.1747,35.5278],[133.2086,35.5415],[133.2655,35.5556],[133.3056,35.5578],[133.3073,35.5761],[133.2677,35.5782],[133.1415,35.5605],[133.1186,35.5803],[133.1124,35.5971],[133.09,35.581],[133.0699,35.584],[133.0478,35.5542],[133.0264,35.5526],[133.0276,35.5383],[132.9953,35.5436],[132.9758,35.5408],[132.9716,35.5161],[132.9206,35.518],[132.9087,35.5116],[132.8692,35.5107],[132.8314,35.5045],[132.7893,35.4806],[132.7267,35.47],[132.757,35.4493],[132.7043,35.443],[132.6868,35.4504],[132.6546,35.4439],[132.6238,35.425],[132.672,35.4016],[132.6749,35.3719],[132.6587,35.3227],[132.6303,35.289],[132.5436,35.2591],[132.5276,35.2424],[132.4675,35.2173],[132.4443,35.1951],[132.4231,35.1884],[132.3905,35.1561],[132.3897,35.1316],[132.337,35.1016],[132.3239,35.0894],[132.3104,35.0573],[132.2634,35.0381],[132.2361,35.0353],[132.1825,34.9889],[132.149,34.9717],[132.1442,34.9619],[132.1064,34.9459],[132.0851,34.9307],[132.0584,34.9],[132.0592,34.8775],[132.0359,34.8815],[131.988,34.8269],[131.9622,34.8211],[131.9479,34.7949],[131.9198,34.7752],[131.8969,34.7751],[131.887,34.7568],[131.8649,34.7556],[131.8716,34.7326],[131.8495,34.7115],[131.8197,34.6932],[131.7428,34.6743],[131.7035,34.6722],[131.6686,34.6764],[131.661,34.6548],[131.6125,34.6672],[131.5915,34.6455],[131.6001,34.6255],[131.5788,34.6257],[131.5564,34.6158],[131.555,34.5798],[131.5338,34.5594],[131.5154,34.5532],[131.5022,34.5324],[131.4649,34.5328],[131.4489,34.5134],[131.4603,34.4998],[131.442,34.4718],[131.3954,34.4187],[131.3554,34.4102],[131.331,34.4142],[131.3295,34.3993],[131.3065,34.383],[131.2706,34.3898],[131.2487,34.3817],[131.2215,34.3859],[131.1985,34.3972],[131.1882,34.3808],[131.1562,34.372],[131.1374,34.3905],[131.1279,34.4122],[131.1125,34.409],[131.0945,34.4208],[131.0703,34.4236],[131.0488,34.4115],[131.0048,34.4153],[131.0008,34.43],[130.9816,34.435],[130.9601,34.4269],[130.9566,34.4099],[130.9794,34.3995],[131.0125,34.4044],[131.0342,34.3849],[131.0323,34.3702],[131.0003,34.3736],[130.9727,34.3596],[130.926,34.348],[130.9019,34.3537],[130.8899,34.3452],[130.8936,34.3228],[130.8823,34.2959],[130.8673,34.2872],[130.8972,34.2649],[130.9214,34.2399],[130.9167,34.2149],[130.9301,34.2117],[130.9277,34.1728],[130.8997,34.1487],[130.8924,34.1344],[130.8672,34.1367],[130.8625,34.1039],[130.8804,34.0868],[130.8824,34.0741],[130.9111,34.061],[130.9148,34.0468],[130.9035,34.0268],[130.9159,34.0092],[130.9082,33.994],[130.9136,33.9636],[130.895,33.9434],[130.9023,33.9143],[130.9236,33.9144],[130.9243,33.9365],[130.9425,33.9554],[130.9965,33.9898],[131.0052,34.016],[131.0305,34.0392],[131.0472,34.0429],[131.0945,34.0364],[131.1219,34.0031],[131.1457,34.0045],[131.162,33.9887],[131.169,33.9637],[131.1586,33.9535],[131.1879,33.9398],[131.2179,33.9505],[131.2301,33.9375],[131.269,33.9228],[131.3197,33.9554],[131.337,33.9548],[131.3479,33.981],[131.3946,34.0277],[131.414,34.0217],[131.4336,34],[131.4636,33.9932],[131.4738,34.0105],[131.467,34.0326],[131.5152,34.0147],[131.5397,33.9972],[131.5611,34.0061],[131.5639,34.0134],[131.5817,34.0219],[131.5899,34.0324],[131.5984,34.0368],[131.6099,34.0208],[131.6354,34.0469],[131.66,34.0401],[131.6759,34.0492],[131.73,34.0625],[131.7458,34.0496],[131.7921,34.0535],[131.824,34.0243],[131.8043,34.0159],[131.7829,33.9941],[131.7895,33.9736],[131.8397,34.0115],[131.8681,34],[131.8813,33.9818],[131.9153,33.9699],[131.9311,33.9495],[131.9575,33.9496],[131.9693,33.933],[132.0262,33.9015],[132.0523,33.9156],[132.0749,33.9043],[132.0762,33.8938],[132.1172,33.8775],[132.1126,33.8608],[132.1233,33.8346],[132.1394,33.8317],[132.1583,33.8454],[132.1474,33.8749],[132.1311,33.8831],[132.1319,33.909],[132.1254,33.927],[132.1289,33.9561],[132.1546,33.9563],[132.1897,33.9653],[132.2132,34.002],[132.2211,34.0478],[132.2092,34.0614],[132.2113,34.0834],[132.2007,34.1083],[132.2023,34.1241],[132.2238,34.1342],[132.2073,34.159],[132.2488,34.1711],[132.2317,34.1885],[132.2458,34.2147],[132.2256,34.2368],[132.2314,34.2549],[132.2802,34.2831],[132.2889,34.298],[132.3191,34.323],[132.32,34.3357],[132.3469,34.3433],[132.3481,34.3556],[132.4078,34.3653],[132.4361,34.3603],[132.4466,34.384],[132.4632,34.3453],[132.4924,34.3535],[132.504,34.3359],[132.4948,34.314],[132.5186,34.2819],[132.5143,34.2669],[132.5499,34.2428],[132.5442,34.2096],[132.5061,34.1883],[132.4944,34.1692],[132.4953,34.1475],[132.5059,34.1358],[132.4481,34.1092],[132.4567,34.0847],[132.5192,34.0928],[132.5336,34.1033],[132.5567,34.0808],[132.5697,34.1142],[132.5444,34.1222],[132.5481,34.1511],[132.5314,34.1469],[132.5472,34.19],[132.5756,34.2029],[132.5965,34.2285],[132.6264,34.2064],[132.6425,34.2012],[132.6821,34.2098],[132.7043,34.2366],[132.7689,34.2498],[132.7541,34.2821],[132.785,34.2755],[132.7972,34.3058],[132.8184,34.3165],[132.8526,34.2932],[132.8893,34.3231]]],[[[131.0177,31.3645],[131.017,31.3848],[131.0292,31.4139],[131.0605,31.4472],[131.0783,31.4591],[131.1194,31.4747],[131.1534,31.4672],[131.1607,31.459],[131.203,31.4544],[131.2258,31.4316],[131.2431,31.426],[131.2356,31.4062],[131.2534,31.3806],[131.2832,31.381],[131.3096,31.3902],[131.3161,31.3714],[131.3362,31.3599],[131.3322,31.3968],[131.3423,31.4107],[131.3718,31.4285],[131.3715,31.4487],[131.3619,31.4702],[131.3896,31.4849],[131.3852,31.503],[131.3826,31.5569],[131.4226,31.6081],[131.4465,31.6168],[131.4697,31.6453],[131.4621,31.6682],[131.4675,31.6865],[131.4583,31.7074],[131.4769,31.7574],[131.4812,31.7863],[131.4534,31.8176],[131.4515,31.8416],[131.4583,31.9115],[131.4693,31.9374],[131.4908,32.0084],[131.5069,32.0473],[131.521,32.0936],[131.5364,32.1219],[131.5395,32.1439],[131.5539,32.1797],[131.555,32.1981],[131.5758,32.24],[131.5766,32.2677],[131.5983,32.3178],[131.6156,32.34],[131.6431,32.4074],[131.6853,32.4175],[131.6806,32.4408],[131.6571,32.4449],[131.6503,32.4617],[131.67,32.48],[131.6878,32.4686],[131.7044,32.4731],[131.7286,32.4967],[131.7039,32.5192],[131.6878,32.5246],[131.6808,32.5422],[131.7089,32.595],[131.739,32.5907],[131.7558,32.6025],[131.7744,32.6414],[131.7631,32.6542],[131.7931,32.6667],[131.7928,32.6775],[131.8189,32.6908],[131.8456,32.69],[131.8461,32.7083],[131.8585,32.7324],[131.8716,32.7349],[131.8792,32.7661],[131.9083,32.7935],[131.9367,32.784],[131.9478,32.8063],[131.9728,32.8059],[132.0114,32.8328],[131.9856,32.8469],[131.9599,32.8462],[131.9991,32.8812],[131.985,32.9125],[132.0036,32.9097],[132.0273,32.9355],[132.0844,32.9339],[132.0708,32.9483],[132.0361,32.9503],[132.0102,32.933],[131.9883,32.9422],[131.9382,32.9525],[131.9257,32.9721],[131.8962,32.9803],[131.9017,33.0103],[131.9224,33.0263],[131.9312,33.053],[131.9808,33.0464],[132.0058,33.0616],[132.0031,33.0728],[131.9699,33.061],[131.9654,33.0728],[131.9427,33.0691],[131.9319,33.0785],[131.9129,33.0661],[131.8855,33.0838],[131.8626,33.0762],[131.8598,33.0908],[131.8803,33.1091],[131.8697,33.1312],[131.8435,33.1141],[131.815,33.1228],[131.8123,33.1402],[131.8281,33.1501],[131.8334,33.181],[131.8563,33.1952],[131.8771,33.229],[131.9041,33.2628],[131.8918,33.2687],[131.8344,33.2468],[131.753,33.2409],[131.7238,33.255],[131.7052,33.2741],[131.6826,33.2796],[131.6145,33.262],[131.588,33.2478],[131.5154,33.2659],[131.4948,33.3408],[131.4996,33.3599],[131.5379,33.3676],[131.543,33.3547],[131.5869,33.3454],[131.5978,33.3706],[131.6434,33.3747],[131.6462,33.3933],[131.6376,33.4058],[131.6603,33.4221],[131.6862,33.4061],[131.702,33.4059],[131.7063,33.4271],[131.7335,33.4704],[131.7392,33.494],[131.7287,33.4988],[131.7415,33.5554],[131.7147,33.6051],[131.7029,33.6094],[131.6932,33.6398],[131.6828,33.6395],[131.6617,33.6704],[131.6523,33.6633],[131.6305,33.6819],[131.5854,33.6928],[131.5226,33.6746],[131.5,33.6716],[131.4948,33.6543],[131.4611,33.6186],[131.4242,33.5925],[131.4326,33.5731],[131.3577,33.5773],[131.3414,33.5709],[131.3215,33.5832],[131.2755,33.5822],[131.2526,33.6017],[131.2322,33.6011],[131.1987,33.6172],[131.1613,33.6166],[131.1319,33.6272],[131.0997,33.6192],[131.0504,33.6888],[131.0289,33.7082],[131.018,33.7382],[131.0015,33.7576],[131.0173,33.7679],[130.9977,33.7973],[130.9675,33.8096],[130.9565,33.8293],[130.9766,33.8344],[130.9937,33.8515],[130.9877,33.8995],[131.0051,33.9039],[131.0104,33.9407],[131.0197,33.9625],[130.9632,33.9618],[130.9633,33.9474],[130.9452,33.9377],[130.9209,33.8976],[130.8947,33.8919],[130.8795,33.9103],[130.8531,33.9293],[130.8236,33.9192],[130.8064,33.9315],[130.7785,33.9346],[130.7703,33.926],[130.7478,33.9322],[130.7347,33.9267],[130.713,33.939],[130.685,33.9324],[130.6625,33.9135],[130.6629,33.8991],[130.6291,33.8828],[130.5764,33.8782],[130.5546,33.8906],[130.5301,33.8828],[130.5189,33.8606],[130.4819,33.8492],[130.4726,33.817],[130.4456,33.7958],[130.4646,33.7864],[130.4707,33.7711],[130.4592,33.7378],[130.4007,33.6884],[130.3763,33.6729],[130.3467,33.6622],[130.3173,33.6618],[130.3042,33.6878],[130.2856,33.6797],[130.2986,33.6602],[130.3247,33.6594],[130.3562,33.6433],[130.3696,33.6654],[130.3951,33.6697],[130.4073,33.6831],[130.4352,33.6622],[130.4086,33.6547],[130.3991,33.6132],[130.3586,33.5959],[130.3131,33.5979],[130.3114,33.5884],[130.2799,33.5803],[130.2589,33.5919],[130.271,33.6129],[130.2367,33.6135],[130.2245,33.6338],[130.2304,33.6559],[130.2072,33.6664],[130.2056,33.6462],[130.1851,33.6326],[130.1563,33.628],[130.1621,33.6117],[130.1454,33.5942],[130.1277,33.5899],[130.1082,33.5966],[130.0882,33.5831],[130.1093,33.5704],[130.1266,33.5719],[130.1537,33.5373],[130.1247,33.5251],[130.1268,33.5103],[130.0993,33.5103],[130.0585,33.4967],[130.0356,33.4661],[130.0381,33.4522],[129.9996,33.4464],[129.9676,33.4551],[129.9635,33.4838],[129.9378,33.4817],[129.9604,33.5148],[129.9473,33.5279],[129.8967,33.5494],[129.8779,33.5361],[129.8589,33.5432],[129.8487,33.515],[129.8297,33.5048],[129.8202,33.4837],[129.7933,33.472],[129.7822,33.4511],[129.8135,33.4322],[129.8231,33.4187],[129.8664,33.4017],[129.8711,33.3941],[129.8497,33.3587],[129.8295,33.295],[129.8029,33.333],[129.7919,33.3379],[129.7915,33.3669],[129.7758,33.3715],[129.7053,33.3461],[129.6936,33.3578],[129.6742,33.3579],[129.6759,33.3853],[129.6427,33.3671],[129.5961,33.3815],[129.5765,33.3624],[129.5748,33.3089],[129.5889,33.2726],[129.5689,33.2665],[129.5563,33.246],[129.5522,33.2181],[129.6225,33.2043],[129.6549,33.1855],[129.6596,33.1711],[129.6868,33.1379],[129.6626,33.1266],[129.6602,33.1129],[129.6967,33.1126],[129.7196,33.1369],[129.7571,33.1254],[129.7426,33.1152],[129.7381,33.0834],[129.7418,33.0615],[129.7648,33.0527],[129.7713,33.0732],[129.7974,33.0815],[129.802,33.0679],[129.8371,33.059],[129.8755,33.0649],[129.9237,33.033],[129.9454,33.0148],[129.9508,32.9867],[129.9311,32.9719],[129.9311,32.9239],[129.955,32.9044],[129.9647,32.8728],[129.9913,32.8573],[129.9942,32.8414],[129.95,32.8612],[129.9339,32.8581],[129.9031,32.8781],[129.8781,32.8753],[129.857,32.8479],[129.8406,32.8429],[129.813,32.8647],[129.7996,32.8639],[129.7906,32.8849],[129.8098,32.8893],[129.7987,32.9101],[129.8162,32.9252],[129.8142,32.9576],[129.8228,32.9823],[129.7999,33.0083],[129.781,33.0078],[129.7643,33.0214],[129.7515,33.0035],[129.7317,33.0075],[129.7461,33.0369],[129.73,33.0751],[129.7106,33.0881],[129.6763,33.0993],[129.6721,33.0715],[129.6608,33.0611],[129.6449,32.9914],[129.6264,32.9781],[129.6245,32.9517],[129.6512,32.9307],[129.6717,32.8869],[129.6767,32.8667],[129.7011,32.8315],[129.7402,32.8075],[129.7468,32.8231],[129.7678,32.8158],[129.7658,32.8],[129.8011,32.7772],[129.8071,32.7532],[129.8255,32.7319],[129.8476,32.7253],[129.8471,32.7055],[129.8161,32.7037],[129.7953,32.6844],[129.8181,32.6645],[129.8022,32.6486],[129.7903,32.6158],[129.7675,32.5949],[129.7744,32.5811],[129.805,32.5906],[129.8319,32.6136],[129.8369,32.6386],[129.8525,32.6386],[129.8961,32.6622],[129.9028,32.6806],[129.9569,32.7436],[129.9489,32.76],[129.9806,32.7628],[129.9919,32.7536],[130.0242,32.7575],[130.0692,32.7881],[130.1028,32.7936],[130.1245,32.7875],[130.1452,32.7961],[130.1803,32.7938],[130.1972,32.7533],[130.2094,32.7378],[130.1989,32.718],[130.1715,32.7027],[130.1547,32.6833],[130.1347,32.6811],[130.1286,32.6414],[130.1694,32.6204],[130.1733,32.6031],[130.219,32.6054],[130.2385,32.6263],[130.2771,32.6538],[130.3047,32.6519],[130.3448,32.672],[130.3581,32.6947],[130.3464,32.7082],[130.3769,32.7407],[130.3717,32.7608],[130.377,32.7901],[130.3511,32.8288],[130.34,32.8576],[130.2932,32.88],[130.2598,32.872],[130.2422,32.8755],[130.2243,32.8608],[130.1809,32.8434],[130.1631,32.8433],[130.1258,32.8714],[130.1389,32.8924],[130.1851,32.914],[130.2033,32.9327],[130.2014,32.9496],[130.225,32.9561],[130.22,32.9772],[130.1939,32.9956],[130.1714,33.0362],[130.1702,33.0512],[130.1456,33.073],[130.1354,33.0969],[130.1681,33.1286],[130.2233,33.1658],[130.2323,33.1942],[130.2511,33.19],[130.2853,33.1612],[130.288,33.147],[130.3258,33.1429],[130.3614,33.1483],[130.3969,33.1075],[130.3872,33.0955],[130.412,33.0815],[130.425,33.0533],[130.422,33.0283],[130.4068,33.0165],[130.4164,32.9934],[130.4302,32.9839],[130.4322,32.9581],[130.4469,32.91],[130.4806,32.9033],[130.5204,32.8819],[130.5271,32.8499],[130.5806,32.8414],[130.6123,32.7975],[130.5981,32.7775],[130.6069,32.7424],[130.5993,32.7125],[130.5671,32.6989],[130.5382,32.6657],[130.5001,32.6543],[130.4504,32.6244],[130.467,32.605],[130.4888,32.6127],[130.5103,32.6112],[130.5433,32.6241],[130.5936,32.622],[130.6135,32.6305],[130.6309,32.601],[130.5988,32.5849],[130.5645,32.5415],[130.5532,32.5424],[130.5367,32.5245],[130.5725,32.5068],[130.5425,32.4969],[130.5458,32.4775],[130.5652,32.4764],[130.5728,32.4411],[130.487,32.3633],[130.4825,32.3447],[130.4656,32.3197],[130.4781,32.2881],[130.4486,32.2872],[130.435,32.2691],[130.4225,32.2383],[130.403,32.2353],[130.3708,32.2011],[130.3799,32.1928],[130.3577,32.1619],[130.3631,32.1522],[130.3359,32.124],[130.3086,32.1087],[130.2847,32.1089],[130.2662,32.1291],[130.227,32.1294],[130.1817,32.1109],[130.1796,32.1331],[130.2059,32.1477],[130.2032,32.1876],[130.2133,32.1958],[130.2133,32.2196],[130.1828,32.2253],[130.1801,32.2516],[130.1484,32.2171],[130.1064,32.2147],[130.1127,32.2014],[130.0981,32.1725],[130.1164,32.1503],[130.1109,32.1257],[130.1287,32.1147],[130.1732,32.076],[130.2011,32.0758],[130.2072,32.0622],[130.1775,32.0022],[130.2006,31.9856],[130.2156,31.9539],[130.2222,31.8969],[130.1667,31.7947],[130.1722,31.78],[130.1994,31.7553],[130.2131,31.7558],[130.2483,31.7317],[130.2631,31.7089],[130.2881,31.6936],[130.2997,31.6697],[130.3164,31.6583],[130.3289,31.6317],[130.3353,31.5756],[130.3292,31.5311],[130.3097,31.4817],[130.2872,31.4453],[130.2722,31.4289],[130.2239,31.4019],[130.1939,31.4083],[130.1703,31.4228],[130.1447,31.4272],[130.1405,31.4056],[130.1525,31.3844],[130.175,31.3658],[130.1899,31.3679],[130.2097,31.3475],[130.1906,31.3161],[130.2139,31.3211],[130.2211,31.2994],[130.1986,31.2961],[130.2017,31.2819],[130.2272,31.2831],[130.2122,31.2572],[130.2272,31.2511],[130.2592,31.2575],[130.2775,31.2461],[130.2864,31.2694],[130.3161,31.2572],[130.3528,31.2506],[130.3956,31.2531],[130.4225,31.2472],[130.4453,31.2531],[130.4817,31.241],[130.5061,31.2181],[130.5159,31.1988],[130.5061,31.1783],[130.5183,31.1658],[130.5422,31.1678],[130.5567,31.1786],[130.5835,31.1629],[130.5945,31.1789],[130.6272,31.1811],[130.6405,31.1897],[130.6555,31.2175],[130.65,31.2444],[130.6667,31.2664],[130.6214,31.2764],[130.6092,31.2908],[130.5694,31.3158],[130.547,31.3706],[130.5583,31.3864],[130.5331,31.3978],[130.5133,31.4583],[130.5214,31.5089],[130.5336,31.5078],[130.5508,31.5461],[130.5597,31.5475],[130.5708,31.58],[130.5614,31.595],[130.5772,31.6172],[130.6025,31.6319],[130.6172,31.6556],[130.6092,31.681],[130.6142,31.6975],[130.66,31.7281],[130.687,31.735],[130.7158,31.7281],[130.7303,31.71],[130.7961,31.7014],[130.8183,31.6736],[130.8178,31.6447],[130.8008,31.6319],[130.7858,31.6027],[130.7871,31.5856],[130.7653,31.5626],[130.7183,31.5606],[130.7108,31.5786],[130.7172,31.6028],[130.6794,31.6294],[130.6264,31.6208],[130.5919,31.5814],[130.6078,31.5744],[130.6361,31.5458],[130.6658,31.5539],[130.6778,31.5439],[130.6989,31.5521],[130.6939,31.4858],[130.6986,31.4628],[130.7328,31.4506],[130.7664,31.4075],[130.7783,31.3719],[130.8039,31.3347],[130.7906,31.3069],[130.795,31.295],[130.7877,31.2577],[130.7543,31.212],[130.7672,31.1805],[130.7447,31.1316],[130.7357,31.1204],[130.7141,31.1147],[130.6824,31.0884],[130.6577,31.0736],[130.6786,31.0628],[130.6798,31.0427],[130.6684,31.0086],[130.6831,31.0075],[130.7169,31.0456],[130.7444,31.0606],[130.7786,31.0664],[130.7938,31.0815],[130.8278,31.0925],[130.8481,31.0892],[130.9161,31.1128],[130.9628,31.1378],[130.9792,31.1514],[130.9733,31.1672],[131.0029,31.1888],[131.0171,31.2274],[131.065,31.227],[131.0801,31.2445],[131.1294,31.2765],[131.0835,31.2751],[131.0737,31.2912],[131.1067,31.3162],[131.0988,31.3328],[131.0228,31.3547],[131.0177,31.3645]]],[[[129.4331,33.434],[129.4212,33.4319],[129.4216,33.4088],[129.3982,33.3585],[129.4169,33.3504],[129.4346,33.3543],[129.4317,33.374],[129.4364,33.4039],[129.4331,33.434]]],[[[135.8211,33.476],[135.8011,33.4722],[135.8313,33.4489],[135.8576,33.4701],[135.8211,33.476]]],[[[129.5561,33.5041],[129.5353,33.5027],[129.4968,33.4713],[129.5339,33.475],[129.5514,33.4689],[129.576,33.4816],[129.5561,33.5041]]],[[[129.7639,33.465],[129.7518,33.4697],[129.7426,33.4307],[129.7186,33.4141],[129.7445,33.4067],[129.7639,33.4287],[129.7832,33.4277],[129.7639,33.465]]],[[[139.6206,33.8897],[139.5912,33.8983],[139.5766,33.8803],[139.578,33.8611],[139.6205,33.8516],[139.6328,33.8694],[139.6206,33.8897]]],[[[131.9746,33.7979],[131.9485,33.777],[131.9643,33.7683],[131.9932,33.7798],[131.9746,33.7979]]],[[[132.2152,33.8149],[132.1912,33.804],[132.2161,33.7812],[132.2656,33.7786],[132.2152,33.8149]]],[[[130.4489,33.9108],[130.4194,33.9131],[130.4094,33.8922],[130.4292,33.8867],[130.4489,33.9108]]],[[[130.8342,33.9459],[130.8083,33.9495],[130.7864,33.9347],[130.8256,33.9317],[130.8342,33.9459]]],[[[131.8691,33.979],[131.8477,33.9698],[131.8426,33.9567],[131.8053,33.94],[131.836,33.9336],[131.86,33.9544],[131.8691,33.979]]],[[[132.5655,33.9938],[132.5354,33.9876],[132.5443,33.9688],[132.5655,33.9938]]],[[[132.0774,33.8496],[132.0786,33.8283],[132.0605,33.8187],[132.075,33.8048],[132.1032,33.8432],[132.0774,33.8496]]],[[[131.025,33.8572],[131.0316,33.8198],[131.0425,33.8213],[131.0355,33.8571],[131.025,33.8572]]],[[[129.7078,33.8591],[129.6766,33.8464],[129.6701,33.8259],[129.6816,33.8103],[129.659,33.8029],[129.6563,33.7798],[129.6428,33.7688],[129.6469,33.7521],[129.6689,33.7564],[129.6851,33.7384],[129.677,33.7277],[129.697,33.7098],[129.7093,33.7099],[129.7384,33.7373],[129.7788,33.7398],[129.7958,33.7537],[129.7783,33.7736],[129.786,33.7854],[129.7667,33.7975],[129.7657,33.8331],[129.7734,33.842],[129.7266,33.8502],[129.7078,33.8591]]],[[[132.2486,33.9544],[132.2111,33.9597],[132.1843,33.9472],[132.1757,33.9024],[132.1899,33.8859],[132.2172,33.8719],[132.2574,33.8779],[132.2868,33.9018],[132.336,33.884],[132.3278,33.8578],[132.3555,33.8665],[132.3766,33.9143],[132.411,33.9131],[132.4436,33.9424],[132.4163,33.953],[132.3994,33.927],[132.3679,33.9273],[132.3573,33.9103],[132.3315,33.9014],[132.3025,33.92],[132.2879,33.942],[132.2486,33.9544]]],[[[133.0086,32.9097],[132.9938,32.9362],[132.9928,32.9517],[133.0085,33.0115],[133.037,33.0377],[133.0953,33.0328],[133.1046,33.0728],[133.1482,33.105],[133.1706,33.1509],[133.1919,33.1674],[133.2203,33.1675],[133.2145,33.1902],[133.2343,33.1986],[133.2382,33.2156],[133.2569,33.2253],[133.2479,33.2424],[133.2641,33.2572],[133.2454,33.292],[133.2465,33.3157],[133.2647,33.3583],[133.259,33.3641],[133.2843,33.3867],[133.3031,33.3778],[133.3241,33.3789],[133.3464,33.4005],[133.3939,33.4019],[133.4528,33.4211],[133.4426,33.4357],[133.5129,33.4747],[133.5571,33.4914],[133.5592,33.5083],[133.5472,33.5233],[133.5647,33.5306],[133.5692,33.5011],[133.5874,33.5154],[133.6298,33.5253],[133.7277,33.5386],[133.756,33.5314],[133.7543,33.521],[133.8307,33.5139],[133.8433,33.5054],[133.8877,33.5013],[133.9341,33.4878],[133.9417,33.4628],[133.9595,33.442],[134.0309,33.413],[134.0338,33.378],[134.0683,33.3558],[134.0811,33.3371],[134.105,33.3222],[134.1089,33.3033],[134.1397,33.2953],[134.1647,33.2657],[134.1856,33.2589],[134.1881,33.2948],[134.1994,33.3273],[134.1993,33.3445],[134.2153,33.3888],[134.2103,33.3958],[134.2405,33.4476],[134.243,33.4642],[134.2721,33.5048],[134.2903,33.5203],[134.2863,33.5308],[134.3206,33.5564],[134.3106,33.5749],[134.3286,33.5819],[134.3527,33.5788],[134.3646,33.6021],[134.383,33.6142],[134.3787,33.639],[134.4113,33.6537],[134.4192,33.6656],[134.448,33.6708],[134.503,33.6935],[134.5443,33.7198],[134.5433,33.7364],[134.5679,33.7417],[134.5812,33.762],[134.6021,33.7635],[134.6205,33.7864],[134.641,33.7851],[134.6694,33.8018],[134.7291,33.823],[134.7005,33.8365],[134.687,33.8525],[134.6534,33.8448],[134.6409,33.8643],[134.6669,33.8786],[134.6992,33.9059],[134.7065,33.9256],[134.6975,33.9499],[134.6703,33.9612],[134.6411,34.0069],[134.6175,33.9868],[134.5931,34.0091],[134.5886,34.0553],[134.6041,34.0841],[134.6019,34.1075],[134.6181,34.145],[134.6417,34.1806],[134.6253,34.1803],[134.5872,34.2008],[134.5871,34.2402],[134.5717,34.2383],[134.5602,34.2219],[134.5083,34.2267],[134.4711,34.2086],[134.4376,34.2071],[134.3935,34.2385],[134.3819,34.2581],[134.3653,34.2492],[134.3473,34.2523],[134.3058,34.2774],[134.2889,34.275],[134.2559,34.2861],[134.2464,34.3051],[134.2636,34.3217],[134.2575,34.3452],[134.2386,34.3381],[134.2128,34.3503],[134.1872,34.34],[134.1763,34.3244],[134.1555,34.3386],[134.1591,34.3899],[134.1361,34.4004],[134.1165,34.3724],[134.0386,34.3521],[134.0028,34.3592],[133.9762,34.3735],[133.9317,34.3888],[133.917,34.3765],[133.8879,34.3746],[133.8923,34.3536],[133.8672,34.3347],[133.8407,34.3598],[133.8248,34.3533],[133.8206,34.3183],[133.7526,34.2788],[133.6995,34.2343],[133.6672,34.2412],[133.647,34.2331],[133.6172,34.2392],[133.6126,34.2507],[133.5901,34.2561],[133.5811,34.244],[133.6055,34.2334],[133.6096,34.2224],[133.6339,34.2105],[133.6479,34.1714],[133.637,34.1116],[133.6375,34.0842],[133.6281,34.0537],[133.5984,34.0433],[133.5797,34.0242],[133.5419,34.0037],[133.5434,33.9852],[133.5117,33.9711],[133.4911,33.9692],[133.4542,33.9831],[133.3947,33.9917],[133.3596,33.9789],[133.346,33.9912],[133.3217,33.9948],[133.3094,33.9839],[133.2826,33.9867],[133.2558,33.9805],[133.2514,33.9628],[133.2357,33.9517],[133.1955,33.9458],[133.128,33.9203],[133.1267,33.9414],[133.0994,33.9414],[133.0699,33.9739],[133.0234,34.0622],[132.9947,34.0825],[132.9787,34.1161],[132.9363,34.1271],[132.9153,34.1207],[132.9316,34.0925],[132.9192,34.0653],[132.8577,34.0546],[132.8532,34.0441],[132.7708,33.9964],[132.7684,33.9467],[132.7549,33.911],[132.7327,33.9028],[132.7113,33.9064],[132.6987,33.8773],[132.7132,33.859],[132.702,33.852],[132.6894,33.8184],[132.6909,33.7883],[132.7006,33.7613],[132.678,33.7446],[132.6592,33.703],[132.5838,33.653],[132.5078,33.6304],[132.4789,33.6155],[132.4335,33.5689],[132.4225,33.5475],[132.3847,33.5306],[132.3536,33.5105],[132.3056,33.4866],[132.2934,33.4859],[132.2653,33.4672],[132.2647,33.4568],[132.2323,33.4618],[132.224,33.4509],[132.1939,33.4421],[132.1814,33.4489],[132.1488,33.4319],[132.1474,33.4161],[132.1219,33.4205],[132.1024,33.4048],[132.1152,33.3908],[132.1244,33.3657],[132.1455,33.3759],[132.1535,33.3891],[132.1818,33.4114],[132.2209,33.4247],[132.2379,33.4256],[132.2549,33.4412],[132.2811,33.4473],[132.2868,33.4626],[132.3057,33.4733],[132.3533,33.4737],[132.3635,33.4795],[132.3877,33.4592],[132.4082,33.457],[132.4045,33.4316],[132.3928,33.4134],[132.3963,33.3979],[132.3792,33.3886],[132.3888,33.3667],[132.4198,33.3576],[132.377,33.3378],[132.3693,33.3247],[132.4231,33.304],[132.5113,33.3183],[132.4836,33.2902],[132.4834,33.2746],[132.5014,33.2694],[132.5227,33.2449],[132.5467,33.2327],[132.5372,33.2147],[132.5069,33.2059],[132.5088,33.1723],[132.4862,33.1644],[132.4848,33.1819],[132.4606,33.1831],[132.4255,33.1551],[132.4431,33.1483],[132.4527,33.132],[132.4999,33.1367],[132.5001,33.1228],[132.4724,33.121],[132.4656,33.1113],[132.4778,33.0941],[132.4784,33.0644],[132.4614,33.0624],[132.4431,33.047],[132.4838,33.0474],[132.4809,33.0299],[132.5058,33.0043],[132.5113,32.9765],[132.4925,32.9404],[132.4711,32.9351],[132.4771,32.91],[132.4894,32.9018],[132.5174,32.9037],[132.5263,32.9205],[132.5053,32.9422],[132.5126,32.9497],[132.5862,32.9416],[132.599,32.9124],[132.6464,32.9275],[132.6717,32.9183],[132.7099,32.9231],[132.7132,32.8858],[132.6688,32.8648],[132.657,32.8239],[132.6294,32.7978],[132.6478,32.7751],[132.6847,32.7844],[132.6986,32.7961],[132.7216,32.7931],[132.7565,32.7531],[132.7707,32.7615],[132.8008,32.7481],[132.8328,32.7644],[132.8403,32.7808],[132.8622,32.7905],[132.9277,32.7814],[132.9529,32.7588],[132.9632,32.7577],[132.9788,32.7302],[133.0042,32.7211],[133.0222,32.7328],[133.0181,32.7617],[133.0033,32.7869],[132.9657,32.7992],[132.9516,32.813],[132.9599,32.8275],[132.9515,32.8604],[132.9942,32.8681],[133.01,32.8814],[133.0086,32.9097]]],[[[132.6452,34.0058],[132.5793,33.9676],[132.6001,33.9426],[132.6451,33.9872],[132.6452,34.0058]]],[[[131.5858,33.9964],[131.6013,34.0144],[131.5838,34.0238],[131.5819,34.0197],[131.5687,34.013],[131.5696,33.989],[131.5858,33.9964]]],[[[139.5297,34.1247],[139.4928,34.1198],[139.4938,34.1037],[139.4725,34.0775],[139.4767,34.0625],[139.5017,34.0444],[139.5314,34.0464],[139.5636,34.0689],[139.5667,34.0933],[139.5594,34.1119],[139.5297,34.1247]]],[[[133.5487,34.3978],[133.5167,34.3823],[133.5446,34.3667],[133.5487,34.3978]]],[[[133.7903,34.3922],[133.7526,34.3884],[133.7636,34.3684],[133.7903,34.3922]]],[[[131.254,34.4362],[131.2172,34.4258],[131.1831,34.4242],[131.1722,34.4081],[131.2039,34.3978],[131.224,34.423],[131.2574,34.4221],[131.254,34.4362]]],[[[133.1203,34.3554],[133.1047,34.3572],[133.0957,34.3237],[133.1116,34.317],[133.1269,34.3369],[133.1203,34.3554]]],[[[133.0829,34.3253],[133.0657,34.3254],[133.0652,34.3045],[133.082,34.3034],[133.0829,34.3253]]],[[[132.9364,34.2816],[132.9075,34.2646],[132.888,34.2615],[132.8471,34.2333],[132.8557,34.2083],[132.8762,34.2052],[132.9146,34.2114],[132.9174,34.2334],[132.9322,34.2513],[132.9364,34.2816]]],[[[133.155,34.2752],[133.1308,34.256],[133.1334,34.2407],[133.1667,34.2562],[133.155,34.2752]]],[[[132.34,34.3042],[132.3298,34.3077],[132.2898,34.2876],[132.2775,34.2631],[132.2627,34.2525],[132.273,34.2337],[132.3032,34.244],[132.3134,34.2568],[132.3481,34.2817],[132.34,34.3042]]],[[[133.2331,34.2858],[133.2125,34.2839],[133.1987,34.2687],[133.2087,34.2571],[133.228,34.2672],[133.2331,34.2858]]],[[[133.139,34.3157],[133.118,34.3103],[133.0892,34.3131],[133.07,34.2783],[133.0695,34.2617],[133.1022,34.2605],[133.1175,34.2752],[133.147,34.2876],[133.139,34.3157]]],[[[133.1611,34.3584],[133.1336,34.3344],[133.1559,34.2985],[133.1995,34.2792],[133.1984,34.3069],[133.2105,34.3131],[133.1961,34.3363],[133.1611,34.3584]]],[[[132.2356,34.1621],[132.2195,34.1479],[132.236,34.1303],[132.2485,34.1574],[132.2356,34.1621]]],[[[132.3954,34.1743],[132.3817,34.1711],[132.3882,34.1498],[132.4134,34.15],[132.4112,34.1672],[132.3954,34.1743]]],[[[132.8552,34.1877],[132.8322,34.19],[132.8069,34.1775],[132.8044,34.1536],[132.8196,34.1509],[132.8477,34.1605],[132.8693,34.1765],[132.8552,34.1877]]],[[[132.7775,34.1611],[132.8002,34.1751],[132.7863,34.1887],[132.7709,34.175],[132.7775,34.1611]]],[[[133.0421,34.1947],[133.0203,34.1794],[133.0344,34.1708],[133.0364,34.1508],[133.015,34.1417],[133.0344,34.1078],[133.0897,34.1581],[133.0674,34.1919],[133.0421,34.1947]]],[[[132.7167,34.2006],[132.6999,34.2045],[132.6914,34.1838],[132.7168,34.1732],[132.7658,34.1778],[132.7519,34.1945],[132.7167,34.2006]]],[[[132.6767,34.1997],[132.6563,34.196],[132.6445,34.1737],[132.6761,34.1744],[132.6767,34.1997]]],[[[139.1475,34.2414],[139.1278,34.2214],[139.1292,34.1853],[139.1732,34.2126],[139.1703,34.2311],[139.1475,34.2414]]],[[[132.4928,34.2786],[132.4822,34.2895],[132.4419,34.2889],[132.4455,34.2662],[132.4793,34.2312],[132.4451,34.2232],[132.4254,34.2549],[132.3892,34.2608],[132.3815,34.2524],[132.3893,34.2225],[132.4199,34.1977],[132.423,34.18],[132.4439,34.169],[132.4371,34.1386],[132.46,34.1336],[132.491,34.15],[132.4722,34.1808],[132.491,34.2041],[132.4992,34.2656],[132.4928,34.2786]]],[[[133.1073,34.2312],[133.0958,34.2389],[133.0587,34.2274],[133.0828,34.1927],[133.0973,34.2042],[133.1097,34.1909],[133.1333,34.2145],[133.1087,34.2203],[133.1073,34.2312]]],[[[134.6099,34.2504],[134.6144,34.2194],[134.595,34.2083],[134.6136,34.1947],[134.6383,34.2238],[134.6189,34.2314],[134.6099,34.2504]]],[[[133.0245,34.2956],[133.0121,34.2993],[132.9811,34.2864],[132.9956,34.2475],[132.99,34.2238],[132.9556,34.2236],[132.9416,34.2037],[132.9597,34.1911],[133.0028,34.2097],[133.034,34.2084],[133.0526,34.2279],[133.0547,34.2538],[133.0245,34.2956]]],[[[139.2913,34.4208],[139.2677,34.4153],[139.2559,34.4013],[139.2442,34.3486],[139.2696,34.3318],[139.2758,34.3436],[139.2759,34.3831],[139.2896,34.4021],[139.2913,34.4208]]],[[[133.3219,34.3661],[133.313,34.3718],[133.2654,34.349],[133.2672,34.3393],[133.3021,34.342],[133.3219,34.3535],[133.3219,34.3661]]],[[[133.7192,34.3963],[133.7,34.3873],[133.6843,34.3614],[133.6996,34.3514],[133.7307,34.3744],[133.7192,34.3963]]],[[[129.4496,34.7049],[129.4143,34.6835],[129.3837,34.6501],[129.319,34.646],[129.3174,34.6257],[129.3043,34.6015],[129.306,34.5893],[129.2871,34.5707],[129.3074,34.5596],[129.3193,34.5376],[129.3032,34.5199],[129.2915,34.4865],[129.2735,34.4657],[129.276,34.4168],[129.2629,34.3685],[129.2276,34.3635],[129.2343,34.3524],[129.2768,34.354],[129.2876,34.3443],[129.3146,34.3404],[129.3257,34.3501],[129.3482,34.331],[129.3124,34.326],[129.3299,34.2979],[129.3082,34.289],[129.289,34.3201],[129.2696,34.3251],[129.2579,34.3082],[129.2226,34.2982],[129.2282,34.324],[129.2215,34.3315],[129.1954,34.3126],[129.1979,34.2824],[129.1851,34.2485],[129.1776,34.1696],[129.1674,34.1299],[129.1765,34.1118],[129.1924,34.1149],[129.2299,34.0949],[129.2768,34.1279],[129.2854,34.1649],[129.2979,34.1685],[129.3013,34.2085],[129.3201,34.2254],[129.3168,34.2499],[129.3288,34.2707],[129.3621,34.274],[129.3837,34.2857],[129.3743,34.3032],[129.3782,34.3251],[129.4068,34.3357],[129.4121,34.3571],[129.3979,34.3599],[129.3776,34.3788],[129.3963,34.401],[129.3763,34.4051],[129.3715,34.4351],[129.376,34.4518],[129.4126,34.4896],[129.436,34.5054],[129.4612,34.5371],[129.4593,34.5521],[129.4812,34.5951],[129.4713,34.601],[129.4774,34.629],[129.491,34.6421],[129.4776,34.6888],[129.4496,34.7049]]],[[[133.2304,34.4069],[133.2122,34.4091],[133.1798,34.3967],[133.1701,34.3871],[133.1741,34.3666],[133.1899,34.3573],[133.2127,34.3626],[133.219,34.3795],[133.2375,34.3964],[133.2304,34.4069]]],[[[134.8559,34.234],[134.8988,34.2519],[134.9462,34.2643],[134.9533,34.2739],[134.9436,34.2978],[134.9186,34.3164],[134.9154,34.3364],[134.8959,34.3492],[134.8952,34.3991],[134.915,34.4436],[134.9433,34.4657],[134.9603,34.4902],[134.9739,34.4977],[134.9942,34.525],[134.9944,34.5442],[135.0251,34.5744],[135.0232,34.5885],[135.0036,34.6088],[134.9748,34.5969],[134.9356,34.5499],[134.9135,34.5363],[134.8778,34.5233],[134.8493,34.4805],[134.8336,34.4662],[134.8183,34.4692],[134.7979,34.4497],[134.7823,34.415],[134.7547,34.385],[134.73,34.3335],[134.7067,34.3211],[134.6733,34.3169],[134.6617,34.2967],[134.6611,34.2708],[134.6807,34.2484],[134.7113,34.24],[134.7014,34.2167],[134.7318,34.2043],[134.731,34.1886],[134.7757,34.2005],[134.7997,34.1986],[134.8304,34.2222],[134.8559,34.234]]]]},"properties":{"GID_0":"JPN","ISO_A2":"JP","ISO_A3":"JPN","NAME_EN":"Japan","NAME_IT":"Giappone"}}
]}