{"type":"FeatureCollection", "features": [
{"type":"Feature","geometry":{"type":"Polygon","coordinates":[[[14.2832,46.4438],[14.3089,46.431],[14.4105,46.4467],[14.4435,46.4234],[14.5229,46.4242],[14.5576,46.3855],[14.5884,46.3963],[14.5873,46.4301],[14.6756,46.451],[14.6841,46.4683],[14.7609,46.5049],[14.8195,46.5097],[14.8354,46.5636],[14.8674,46.6037],[14.9235,46.6114],[14.9803,46.6018],[15.0171,46.6412],[15.0833,46.6455],[15.1084,46.66],[15.1832,46.6565],[15.2369,46.6397],[15.295,46.6528],[15.4151,46.6559],[15.4578,46.6393],[15.4631,46.6156],[15.5128,46.6169],[15.5545,46.6518],[15.5482,46.6696],[15.651,46.7061],[15.7226,46.6962],[15.8017,46.7155],[15.8715,46.7214],[15.948,46.6895],[16.0436,46.6862],[15.9858,46.7523],[15.9992,46.8098],[16.134,46.876],[16.1945,46.9361],[16.2231,46.936],[16.3045,46.9986],[16.4137,47.0051],[16.4803,46.9942],[16.4648,47.0326],[16.5216,47.0619],[16.472,47.0786],[16.4657,47.0993],[16.5305,47.1276],[16.5179,47.1497],[16.4655,47.1686],[16.4362,47.216],[16.4429,47.249],[16.4906,47.2807],[16.4657,47.3343],[16.4466,47.4076],[16.5111,47.3969],[16.5769,47.4068],[16.6717,47.4747],[16.6535,47.5007],[16.7067,47.5233],[16.6533,47.6233],[16.5737,47.6203],[16.5156,47.6466],[16.4227,47.6657],[16.4876,47.6979],[16.5423,47.7126],[16.5492,47.752],[16.6355,47.7595],[16.6572,47.7421],[16.7222,47.7358],[16.7502,47.6819],[16.9138,47.6881],[17.0943,47.7087],[17.0715,47.7286],[17.0731,47.8086],[17.0528,47.8383],[17.0112,47.8588],[17.0791,47.878],[17.1054,47.8997],[17.1183,47.9613],[17.1621,48.0071],[17.1113,48.0317],[17.0687,48.0319],[17.0787,48.1064],[17.0585,48.1442],[17.029,48.1415],[16.9775,48.1723],[16.9583,48.2643],[16.9273,48.2718],[16.8959,48.3107],[16.9101,48.3265],[16.8453,48.351],[16.8649,48.4199],[16.8515,48.45],[16.9552,48.5435],[16.92,48.6232],[16.9243,48.6708],[16.9073,48.7155],[16.7771,48.7125],[16.726,48.7386],[16.6899,48.7298],[16.665,48.7816],[16.5949,48.7832],[16.5262,48.8013],[16.4632,48.8052],[16.4108,48.7449],[16.3677,48.7286],[16.1552,48.7494],[16.0954,48.7472],[15.9956,48.7799],[15.8988,48.8489],[15.8288,48.8716],[15.7807,48.8755],[15.7548,48.8528],[15.6876,48.8576],[15.6207,48.8962],[15.5145,48.9147],[15.5032,48.9366],[15.4259,48.9522],[15.3681,48.9825],[15.2921,48.9849],[15.2702,48.9589],[15.1914,48.9439],[15.1574,48.9939],[15.0659,49.0002],[15.0216,49.0212],[14.9795,48.9811],[14.994,48.9043],[14.974,48.8753],[14.9568,48.7587],[14.8823,48.7807],[14.8125,48.7621],[14.7751,48.7123],[14.7376,48.6995],[14.7134,48.6507],[14.707,48.5915],[14.6645,48.5826],[14.6188,48.6225],[14.565,48.609],[14.5043,48.618],[14.4696,48.6468],[14.4324,48.5897],[14.3872,48.5933],[14.3436,48.5554],[14.1827,48.5945],[14.0732,48.6005],[14.0115,48.6403],[14.0398,48.6767],[14.0043,48.7092],[13.9568,48.7151],[13.8964,48.7577],[13.8405,48.7723],[13.82,48.7325],[13.815,48.6503],[13.8281,48.6287],[13.8018,48.5742],[13.7445,48.5447],[13.728,48.5136],[13.6655,48.5346],[13.6006,48.57],[13.5704,48.5619],[13.5284,48.5879],[13.4762,48.5567],[13.4279,48.4575],[13.44,48.4313],[13.407,48.3719],[13.3302,48.3239],[13.2574,48.2943],[13.1801,48.2954],[13.0817,48.2778],[13.023,48.2586],[12.9663,48.2145],[12.8708,48.2019],[12.8479,48.1676],[12.7691,48.1293],[12.7499,48.1091],[12.7709,48.0667],[12.858,48.0082],[12.8693,47.9716],[12.933,47.9405],[13.0021,47.855],[12.9402,47.7788],[12.9339,47.7101],[13.0467,47.7132],[13.0815,47.6876],[13.0966,47.6285],[13.0444,47.5839],[13.0564,47.5579],[13.0483,47.4927],[13.0044,47.4639],[12.9094,47.4975],[12.8835,47.5212],[12.795,47.5576],[12.7798,47.5797],[12.8139,47.6125],[12.7329,47.6802],[12.6667,47.6816],[12.5976,47.6667],[12.5757,47.6329],[12.5129,47.6259],[12.4657,47.6503],[12.4297,47.6969],[12.3642,47.6844],[12.3386,47.6976],[12.1841,47.7011],[12.1691,47.6809],[12.2088,47.614],[12.1404,47.6059],[12,47.6221],[11.9143,47.6144],[11.8479,47.5829],[11.7816,47.5918],[11.6063,47.5816],[11.5729,47.5151],[11.5061,47.5053],[11.4426,47.5185],[11.3913,47.4827],[11.4159,47.4476],[11.339,47.4505],[11.2915,47.4276],[11.2494,47.4331],[11.1584,47.4222],[11.1153,47.396],[10.9708,47.4008],[10.984,47.4306],[10.9103,47.4861],[10.8907,47.5379],[10.7779,47.5145],[10.7589,47.5351],[10.677,47.5596],[10.5983,47.5703],[10.5737,47.5346],[10.4893,47.541],[10.4548,47.5564],[10.4317,47.5044],[10.464,47.481],[10.4763,47.4334],[10.4389,47.4141],[10.4312,47.3845],[10.3951,47.3762],[10.349,47.3178],[10.282,47.2883],[10.1743,47.2708],[10.1799,47.2966],[10.2375,47.3742],[10.1876,47.3906],[10.1662,47.3695],[10.1196,47.3762],[10.0694,47.4108],[10.1059,47.4293],[10.0377,47.4898],[9.8894,47.5446],[9.816,47.5483],[9.8277,47.5793],[9.7773,47.5961],[9.7359,47.5348],[9.5621,47.5052],[9.5962,47.4634],[9.6446,47.4364],[9.6627,47.3717],[9.6247,47.3668],[9.5882,47.3179],[9.531,47.2712],[9.5674,47.2425],[9.5851,47.2059],[9.5797,47.1717],[9.6219,47.1519],[9.6338,47.084],[9.7483,47.0375],[9.7852,47.0391],[9.8926,46.9909],[9.871,46.9638],[9.8847,46.9336],[9.9464,46.9129],[10.0181,46.9022],[10.0522,46.8773],[10.1234,46.849],[10.233,46.8668],[10.2409,46.9319],[10.3164,46.9257],[10.3097,46.9507],[10.3553,46.9929],[10.399,46.9974],[10.4223,46.9613],[10.4897,46.9383],[10.465,46.8848],[10.4944,46.8492],[10.5585,46.8416],[10.5958,46.8578],[10.6908,46.8682],[10.6944,46.8527],[10.7639,46.824],[10.7307,46.7889],[10.7963,46.7918],[10.8689,46.7663],[10.9441,46.7759],[11.0226,46.7659],[11.0396,46.8055],[11.0837,46.8228],[11.0718,46.8538],[11.1153,46.9319],[11.1555,46.9346],[11.1648,46.9663],[11.2421,46.9702],[11.3208,46.9929],[11.3591,46.9911],[11.4179,46.9669],[11.5025,47.0102],[11.539,46.9846],[11.6277,47.0138],[11.6652,46.9923],[11.7119,46.9937],[11.7282,46.9729],[11.8455,47.0022],[11.9799,47.0505],[12.0218,47.0478],[12.1865,47.0927],[12.2275,47.0826],[12.2053,47.0274],[12.1219,47.0075],[12.1385,46.957],[12.1692,46.9378],[12.216,46.8745],[12.2667,46.8879],[12.3065,46.8337],[12.2835,46.8154],[12.3098,46.7854],[12.3597,46.7738],[12.3797,46.7209],[12.4818,46.6775],[12.5166,46.679],[12.5706,46.6519],[12.6316,46.6618],[12.6912,46.6574],[12.732,46.6347],[12.7765,46.6471],[12.8343,46.6103],[12.9337,46.6104],[13.0473,46.5957],[13.093,46.6008],[13.1939,46.5728],[13.3212,46.5516],[13.3729,46.5797],[13.4467,46.5569],[13.5049,46.5667],[13.6287,46.5417],[13.6918,46.5214],[13.7952,46.5057],[13.8827,46.5232],[13.9437,46.5119],[14.0073,46.4817],[14.0413,46.4934],[14.1223,46.477],[14.1605,46.4345],[14.2832,46.4438]]]},"properties":{"GID_0":"AUT","ISO_A2":"AT","ISO_A3":"AUT","NAME_EN":"Austria","NAME_IT":"Austria"}}
]}