{"type":"FeatureCollection", "features": [
{"type":"Feature","geometry":{"type":"MultiPolygon","coordinates":[[[[16.8616,42.7768],[16.8215,42.7713],[16.8246,42.7318],[16.8724,42.7368],[16.9037,42.726],[16.9254,42.7365],[16.9374,42.7699],[16.9071,42.7741],[16.881,42.7701],[16.8616,42.7768]]],[[[16.9588,42.9743],[16.9103,42.9715],[16.9007,42.9637],[16.8524,42.9576],[16.7343,42.9807],[16.7254,42.9899],[16.676,42.9935],[16.6646,42.9757],[16.6957,42.966],[16.6379,42.9368],[16.6563,42.9171],[16.6721,42.9243],[16.7226,42.9193],[16.7479,42.9082],[16.8449,42.9032],[16.866,42.8932],[16.906,42.9001],[16.9621,42.9238],[17.0333,42.9224],[17.1199,42.9065],[17.1771,42.9118],[17.151,42.9535],[17.0468,42.9726],[17.0429,42.9807],[16.9588,42.9743]]],[[[17.5754,42.9419],[17.7129,42.9631],[17.7289,42.9805],[17.6911,43.0303],[17.6665,43.0771],[17.6235,43.1097],[17.5593,43.1419],[17.5323,43.1485],[17.4809,43.1845],[17.437,43.1982],[17.444,43.2184],[17.3895,43.2506],[17.3465,43.2673],[17.3335,43.2856],[17.2707,43.3985],[17.2727,43.4353],[17.2839,43.4572],[17.3062,43.4725],[17.2188,43.5095],[17.1807,43.5121],[17.1183,43.5291],[17.0981,43.5499],[17.0368,43.5713],[16.9387,43.6561],[16.8991,43.7025],[16.8719,43.7117],[16.8607,43.7362],[16.8196,43.7691],[16.7625,43.7819],[16.7548,43.8032],[16.7293,43.8152],[16.7279,43.853],[16.7139,43.8743],[16.6791,43.8872],[16.6111,43.9314],[16.5919,43.9567],[16.5539,43.9713],[16.5381,44.0011],[16.5051,44.0165],[16.4643,44.0233],[16.3747,44.0847],[16.3478,44.0962],[16.3411,44.1218],[16.3196,44.1262],[16.3086,44.1604],[16.2447,44.198],[16.2355,44.2526],[16.2045,44.2767],[16.1969,44.3027],[16.2142,44.359],[16.1688,44.3848],[16.1338,44.3958],[16.1607,44.4166],[16.1246,44.4315],[16.1377,44.4609],[16.1331,44.5],[16.0967,44.5401],[16.0767,44.5427],[16.0098,44.5646],[16.014,44.5882],[16.0346,44.592],[16.0572,44.6114],[16.0617,44.6379],[16.0491,44.6521],[15.9761,44.6942],[15.9651,44.7187],[15.9435,44.7209],[15.9303,44.7549],[15.8677,44.7554],[15.8403,44.7507],[15.8192,44.7385],[15.7603,44.7643],[15.7371,44.8113],[15.7429,44.8217],[15.7844,44.841],[15.7877,44.8597],[15.7577,44.8863],[15.7439,44.9097],[15.7414,44.943],[15.7279,44.9636],[15.7603,44.9818],[15.7743,45.0081],[15.759,45.025],[15.7459,45.0631],[15.7339,45.0738],[15.7613,45.1022],[15.7669,45.1205],[15.758,45.1673],[15.7693,45.1827],[15.8284,45.2233],[15.844,45.2171],[15.8725,45.224],[15.9319,45.2259],[15.9613,45.24],[15.9835,45.2211],[16.0248,45.2198],[16.0273,45.1842],[16.0699,45.1556],[16.0851,45.1073],[16.112,45.0888],[16.1555,45.0813],[16.1915,45.0609],[16.2029,45.0423],[16.2499,45.0163],[16.3276,45.0133],[16.3551,45.0583],[16.3846,45.0683],[16.3948,45.1133],[16.4104,45.1274],[16.4708,45.1602],[16.4862,45.1994],[16.5018,45.2183],[16.5291,45.2268],[16.5589,45.224],[16.5939,45.2298],[16.6533,45.2071],[16.6982,45.2037],[16.7248,45.2087],[16.8011,45.1889],[16.8378,45.1986],[16.8462,45.2269],[16.8936,45.2425],[16.9267,45.2747],[16.9391,45.265],[16.9284,45.2313],[16.9724,45.2269],[17.0391,45.2111],[17.0755,45.1891],[17.1783,45.1521],[17.2471,45.1483],[17.2705,45.1853],[17.3014,45.1765],[17.3035,45.166],[17.3346,45.1473],[17.3651,45.1383],[17.4176,45.1362],[17.4728,45.1234],[17.4783,45.1107],[17.5155,45.1058],[17.5504,45.1159],[17.6097,45.1117],[17.6429,45.1323],[17.6679,45.1345],[17.7447,45.089],[17.7646,45.0897],[17.8182,45.0586],[17.8556,45.0553],[17.9173,45.0876],[17.9284,45.1213],[17.9571,45.1335],[17.9708,45.1547],[18.0033,45.1603],[18.0272,45.1396],[18.0534,45.1534],[18.0969,45.0979],[18.1432,45.0974],[18.1689,45.0884],[18.189,45.0918],[18.213,45.1125],[18.2076,45.1399],[18.2222,45.1502],[18.2547,45.1526],[18.2717,45.1292],[18.3029,45.1272],[18.3394,45.1176],[18.4049,45.1237],[18.4675,45.0749],[18.5085,45.0723],[18.5255,45.0602],[18.539,45.0886],[18.558,45.0838],[18.5818,45.0969],[18.6009,45.0949],[18.6041,45.072],[18.6467,45.071],[18.6407,45.0925],[18.6583,45.106],[18.6763,45.0928],[18.6593,45.077],[18.6812,45.055],[18.7008,45.0504],[18.7267,45.0315],[18.719,45.0123],[18.7924,45.0023],[18.7748,44.9844],[18.7959,44.9508],[18.7596,44.9352],[18.7617,44.9164],[18.8621,44.8653],[18.9897,44.8614],[19.0332,44.8701],[18.9903,44.9064],[19.0257,44.9231],[19.0594,44.9072],[19.1498,44.9502],[19.1355,44.9861],[19.1044,44.9765],[19.0563,44.9789],[19.1043,45.0191],[19.1011,45.0445],[19.0869,45.0598],[19.0817,45.0987],[19.0701,45.1379],[19.0758,45.1565],[19.128,45.1487],[19.1678,45.1793],[19.1841,45.2193],[19.2206,45.1921],[19.2784,45.1877],[19.2716,45.2154],[19.3172,45.2027],[19.3353,45.1735],[19.3622,45.184],[19.4028,45.1796],[19.4192,45.1854],[19.4352,45.2073],[19.4166,45.2184],[19.4021,45.2398],[19.3399,45.2411],[19.2715,45.247],[19.1611,45.2801],[19.0914,45.3093],[19.0765,45.3477],[19.0164,45.3577],[18.9667,45.3907],[18.9793,45.4113],[19.0117,45.4195],[19.006,45.4386],[18.9817,45.4594],[18.988,45.494],[18.9972,45.5044],[19.0308,45.4935],[19.0657,45.4968],[19.0857,45.5212],[19.0825,45.533],[19.0116,45.5525],[18.9927,45.5745],[18.9655,45.5498],[18.92,45.5493],[18.8851,45.5799],[18.8955,45.6102],[18.8867,45.6282],[18.9135,45.6409],[18.9372,45.6631],[18.9438,45.6909],[18.8905,45.7172],[18.8769,45.774],[18.8344,45.8225],[18.8445,45.8508],[18.8349,45.8729],[18.8036,45.887],[18.7921,45.8807],[18.7486,45.9019],[18.7043,45.9106],[18.6588,45.9014],[18.6357,45.8733],[18.6233,45.8773],[18.5946,45.8248],[18.5561,45.8071],[18.5462,45.7916],[18.5218,45.7826],[18.4855,45.7906],[18.463,45.7591],[18.4216,45.7478],[18.4024,45.7492],[18.3821,45.7678],[18.3597,45.7698],[18.3322,45.7539],[18.2953,45.7607],[18.2334,45.7649],[18.2085,45.7904],[18.1597,45.7869],[18.1365,45.7961],[18.0807,45.7719],[18.0345,45.7754],[18.0051,45.784],[17.9888,45.8019],[17.9605,45.7954],[17.8944,45.795],[17.8585,45.7741],[17.8173,45.812],[17.7526,45.8224],[17.7288,45.8365],[17.6664,45.8425],[17.6493,45.8525],[17.6131,45.9031],[17.5602,45.9381],[17.4482,45.9504],[17.3995,45.9361],[17.3763,45.9517],[17.3344,45.9498],[17.3465,45.9745],[17.3294,45.9918],[17.2936,45.9817],[17.2872,46.0234],[17.2559,46.0478],[17.1999,46.114],[17.1748,46.114],[17.1843,46.1352],[17.1596,46.1712],[17.1278,46.1739],[17.0831,46.189],[17.0126,46.2205],[16.9726,46.2245],[16.9719,46.242],[16.9487,46.2433],[16.8878,46.2824],[16.8765,46.3114],[16.881,46.3344],[16.8027,46.387],[16.7234,46.3911],[16.7071,46.4047],[16.6625,46.4601],[16.627,46.4649],[16.6051,46.4781],[16.5615,46.4798],[16.5188,46.49],[16.5031,46.5103],[16.4503,46.5306],[16.421,46.5325],[16.3918,46.548],[16.3717,46.5395],[16.3424,46.5505],[16.2796,46.5352],[16.2544,46.515],[16.2561,46.4571],[16.2676,46.4314],[16.2941,46.4043],[16.2955,46.3882],[16.2754,46.3836],[16.2507,46.3951],[16.2256,46.3927],[16.1772,46.399],[16.1474,46.4103],[16.1082,46.4089],[16.0513,46.3943],[16.0434,46.3862],[16.0529,46.3559],[16.0164,46.3392],[15.996,46.3182],[15.9421,46.3023],[15.8577,46.2838],[15.8279,46.2642],[15.7847,46.2628],[15.7725,46.2181],[15.7447,46.2059],[15.6992,46.2089],[15.689,46.2165],[15.6513,46.2135],[15.627,46.1858],[15.5979,46.1645],[15.5904,46.147],[15.5954,46.1168],[15.6129,46.0943],[15.6828,46.0682],[15.71,46.0472],[15.692,46.0065],[15.7016,45.976],[15.6938,45.9464],[15.6648,45.9089],[15.6798,45.8692],[15.6997,45.8631],[15.6426,45.8296],[15.6037,45.8494],[15.5489,45.8608],[15.5227,45.839],[15.4933,45.8309],[15.4717,45.8416],[15.4538,45.8224],[15.4545,45.8036],[15.4422,45.7852],[15.4187,45.7902],[15.3709,45.7802],[15.2562,45.7401],[15.2377,45.7301],[15.2401,45.714],[15.2728,45.708],[15.2902,45.6887],[15.3266,45.7181],[15.3438,45.7135],[15.3601,45.6873],[15.3906,45.6663],[15.3804,45.6527],[15.3375,45.6564],[15.3013,45.634],[15.2792,45.6047],[15.2979,45.5819],[15.2986,45.5484],[15.3382,45.5118],[15.3696,45.505],[15.3779,45.492],[15.3568,45.4743],[15.3116,45.4594],[15.2625,45.4642],[15.2307,45.4587],[15.2125,45.4393],[15.1591,45.4326],[15.1373,45.4515],[15.0859,45.4735],[15.0775,45.4916],[15.0391,45.5047],[15.0205,45.4989],[14.9811,45.5065],[14.9316,45.5371],[14.8988,45.5341],[14.8996,45.5076],[14.8876,45.4876],[14.8157,45.4741],[14.7949,45.5143],[14.7315,45.5179],[14.7113,45.5311],[14.6895,45.5272],[14.6803,45.5692],[14.6643,45.5865],[14.6292,45.5965],[14.6292,45.6094],[14.5971,45.623],[14.6203,45.6581],[14.5903,45.6689],[14.5553,45.6719],[14.5465,45.6384],[14.5325,45.6229],[14.4931,45.6095],[14.4845,45.5469],[14.4581,45.5282],[14.4022,45.5188],[14.2226,45.4816],[14.1249,45.4803],[14.0807,45.4847],[14.0193,45.5025],[14,45.4719],[13.9768,45.464],[13.9352,45.4641],[13.8775,45.4283],[13.8643,45.4483],[13.8077,45.4721],[13.7579,45.4701],[13.7357,45.4787],[13.6545,45.447],[13.5954,45.4631],[13.5585,45.4899],[13.511,45.5057],[13.4904,45.4857],[13.5104,45.4732],[13.5193,45.4327],[13.5154,45.4151],[13.5293,45.4029],[13.5443,45.341],[13.5393,45.3282],[13.5729,45.3135],[13.5963,45.2771],[13.5801,45.2596],[13.5999,45.2438],[13.5849,45.191],[13.6035,45.1799],[13.6088,45.1593],[13.5963,45.1407],[13.6176,45.1329],[13.6135,45.1057],[13.6404,45.0868],[13.636,45.0696],[13.6838,45.0507],[13.6899,45.0232],[13.7446,44.9854],[13.7615,44.9857],[13.8093,44.9118],[13.8043,44.8838],[13.8321,44.8779],[13.8168,44.8605],[13.8663,44.8085],[13.901,44.8082],[13.9196,44.8251],[13.9485,44.8029],[14.0012,44.8018],[13.9793,44.8404],[13.9918,44.8743],[14.0124,44.8996],[14.0385,44.9171],[14.0546,44.951],[14.069,44.949],[14.1171,44.9702],[14.1438,44.9562],[14.1701,44.9796],[14.1643,45.0201],[14.1557,45.0279],[14.1604,45.0737],[14.1757,45.079],[14.2076,45.116],[14.2446,45.1838],[14.2426,45.1985],[14.2873,45.3121],[14.3254,45.3507],[14.4601,45.3207],[14.4963,45.2949],[14.5515,45.2774],[14.5729,45.2482],[14.6115,45.2326],[14.6099,45.2187],[14.6488,45.2046],[14.7026,45.1685],[14.7399,45.1382],[14.8076,45.1215],[14.8401,45.1079],[14.846,45.0879],[14.8707,45.0563],[14.8751,45.0396],[14.9271,44.9524],[14.8921,44.879],[14.8921,44.8571],[14.8807,44.8357],[14.879,44.791],[14.8985,44.7393],[14.8885,44.7174],[14.8963,44.6957],[14.9271,44.6693],[14.9315,44.6493],[14.9626,44.6243],[14.9663,44.6032],[14.9879,44.574],[15.0413,44.5518],[15.0726,44.524],[15.0993,44.5121],[15.1443,44.4649],[15.1737,44.4518],[15.1913,44.4351],[15.2135,44.4271],[15.2774,44.3657],[15.3065,44.3563],[15.361,44.3307],[15.3985,44.3213],[15.4265,44.3055],[15.4535,44.2796],[15.4785,44.2685],[15.5049,44.2738],[15.5266,44.2688],[15.5285,44.2268],[15.5721,44.209],[15.6051,44.1865],[15.5976,44.1732],[15.5615,44.1924],[15.524,44.1763],[15.496,44.189],[15.4723,44.2099],[15.5079,44.2135],[15.5257,44.2262],[15.5118,44.2493],[15.4782,44.2526],[15.4435,44.2632],[15.4179,44.2546],[15.4007,44.2585],[15.3393,44.2899],[15.3215,44.3079],[15.2654,44.3288],[15.2596,44.3235],[15.3071,44.2865],[15.2815,44.2796],[15.3007,44.2565],[15.284,44.2468],[15.2157,44.2907],[15.191,44.2826],[15.2135,44.2574],[15.1837,44.2463],[15.1399,44.2801],[15.1279,44.2551],[15.1663,44.2271],[15.1579,44.2001],[15.1457,44.1918],[15.2107,44.1454],[15.2032,44.1312],[15.2424,44.0979],[15.276,44.0846],[15.2832,44.0607],[15.3087,44.0501],[15.3096,44.0368],[15.3424,44.0313],[15.3685,43.999],[15.3857,43.9912],[15.4051,43.9676],[15.4418,43.949],[15.4557,43.9224],[15.5157,43.904],[15.529,43.8854],[15.5596,43.8593],[15.5879,43.8482],[15.6221,43.844],[15.6549,43.8249],[15.6277,43.8082],[15.6071,43.8268],[15.5751,43.8313],[15.5729,43.8171],[15.6204,43.7768],[15.6488,43.7829],[15.6593,43.7993],[15.701,43.7685],[15.7482,43.7504],[15.7818,43.7574],[15.7982,43.7443],[15.8488,43.7212],[15.881,43.6946],[15.8943,43.699],[15.949,43.6524],[15.9187,43.606],[15.9307,43.5832],[15.9176,43.5701],[15.9346,43.5449],[15.9807,43.5363],[15.9824,43.5141],[16.0021,43.4871],[16.0435,43.4893],[16.0926,43.4724],[16.1207,43.4715],[16.1457,43.4835],[16.1715,43.4854],[16.1738,43.5007],[16.2207,43.5174],[16.2576,43.5079],[16.256,43.4932],[16.314,43.4821],[16.3815,43.4837],[16.3026,43.5137],[16.3118,43.5396],[16.359,43.5515],[16.4613,43.5376],[16.4015,43.5157],[16.4035,43.5038],[16.5193,43.5001],[16.5807,43.4646],[16.666,43.4385],[16.694,43.4421],[16.7104,43.4201],[16.7504,43.4071],[16.8082,43.4046],[16.8682,43.3971],[16.8879,43.4001],[16.9001,43.3851],[16.9443,43.3605],[16.9582,43.3421],[17.0193,43.2863],[17.0543,43.2691],[17.0771,43.2335],[17.1071,43.2266],[17.1126,43.2071],[17.1526,43.1929],[17.1674,43.1765],[17.2029,43.1696],[17.2412,43.1532],[17.2607,43.151],[17.2857,43.1296],[17.3393,43.109],[17.3557,43.084],[17.4235,43.0307],[17.4632,43.0213],[17.4726,42.9882],[17.4888,42.9804],[17.5127,42.9543],[17.5368,42.941],[17.5754,42.9419]]],[[[17.4147,42.911],[17.4343,42.8987],[17.4415,42.8696],[17.5101,42.8488],[17.5923,42.8329],[17.6437,42.8151],[17.7051,42.8021],[17.7286,42.7915],[17.749,42.8018],[17.7843,42.7871],[17.8062,42.8063],[17.8387,42.8041],[17.8487,42.7865],[17.8724,42.7757],[17.8785,42.7613],[17.931,42.7354],[17.9679,42.7121],[18.0074,42.6943],[18.051,42.6832],[18.061,42.6488],[18.1243,42.6395],[18.1804,42.6146],[18.2079,42.6213],[18.2285,42.604],[18.2251,42.5735],[18.2335,42.5585],[18.2885,42.5229],[18.3218,42.5129],[18.4101,42.4676],[18.4168,42.4518],[18.4676,42.441],[18.5035,42.4096],[18.5296,42.4262],[18.4809,42.4709],[18.4599,42.5373],[18.4589,42.5653],[18.411,42.5977],[18.3943,42.6167],[18.3287,42.6241],[18.2701,42.6207],[18.2283,42.6471],[18.1853,42.6673],[18.1677,42.6889],[18.1153,42.7079],[18.1191,42.7225],[18.0775,42.7395],[18.0627,42.7585],[18.0237,42.7657],[18.0203,42.7773],[17.9633,42.8093],[17.9099,42.8251],[17.9031,42.8413],[17.8669,42.8599],[17.8683,42.8937],[17.8315,42.9201],[17.8017,42.8925],[17.7599,42.9149],[17.6977,42.9201],[17.6485,42.8883],[17.6087,42.8963],[17.5218,42.9232],[17.5188,42.9091],[17.4899,42.9101],[17.4501,42.9276],[17.4432,42.9527],[17.3904,42.9676],[17.3629,42.9816],[17.2687,43.0113],[17.1396,43.0254],[17.0751,43.0218],[17.0207,43.0471],[17.0165,43.0032],[17.0385,43.0021],[17.0662,42.984],[17.096,42.9846],[17.1324,42.9749],[17.1879,42.9743],[17.2182,42.981],[17.266,42.9515],[17.3418,42.9282],[17.3629,42.9129],[17.4147,42.911]]],[[[16.6649,43.2013],[16.6676,43.2124],[16.6238,43.2118],[16.6085,43.2188],[16.5824,43.211],[16.5543,43.2349],[16.519,43.2249],[16.5557,43.211],[16.586,43.1854],[16.5668,43.1785],[16.5257,43.2035],[16.474,43.2099],[16.4493,43.2054],[16.4207,43.1779],[16.4685,43.1568],[16.4804,43.1624],[16.5438,43.1387],[16.6838,43.1207],[16.7315,43.1268],[16.7818,43.1271],[16.891,43.1143],[17.1149,43.1132],[17.1968,43.1249],[17.1449,43.1396],[17.1065,43.1346],[17.0415,43.1396],[16.9596,43.1521],[16.886,43.1507],[16.8782,43.1618],[16.8432,43.1574],[16.759,43.1618],[16.7237,43.1565],[16.6846,43.1735],[16.6815,43.1912],[16.6649,43.2013]]],[[[16.751,43.2634],[16.7837,43.2615],[16.8554,43.271],[16.8738,43.2804],[16.8996,43.314],[16.8432,43.3418],[16.8121,43.3521],[16.7207,43.3626],[16.6815,43.3713],[16.6085,43.3813],[16.4807,43.386],[16.4349,43.3927],[16.4446,43.3649],[16.434,43.331],[16.4082,43.3187],[16.4368,43.3049],[16.4862,43.2921],[16.5296,43.2696],[16.6141,43.2623],[16.6951,43.2579],[16.751,43.2634]]],[[[17.949,42.6976],[17.939,42.6746],[17.9754,42.6782],[17.949,42.6976]]],[[[17.8365,42.7553],[17.8624,42.7274],[17.8976,42.7021],[17.919,42.7179],[17.8526,42.7551],[17.8365,42.7553]]],[[[17.371,42.8042],[17.3382,42.7863],[17.3371,42.7735],[17.3838,42.756],[17.476,42.7477],[17.5101,42.7326],[17.5309,42.7343],[17.5626,42.7226],[17.6218,42.7201],[17.6737,42.7091],[17.7035,42.6971],[17.7451,42.6974],[17.7226,42.7146],[17.6685,42.7369],[17.5982,42.7379],[17.5813,42.7543],[17.5124,42.766],[17.4994,42.7718],[17.4329,42.7846],[17.386,42.7882],[17.371,42.8042]]],[[[16.1496,43.0138],[16.2224,43.0226],[16.2526,43.0496],[16.2546,43.0701],[16.2287,43.0755],[16.1932,43.0735],[16.1854,43.0815],[16.1157,43.0774],[16.0805,43.071],[16.049,43.0543],[16.0624,43.0404],[16.0849,43.0476],[16.1021,43.0054],[16.1496,43.0138]]],[[[16.3518,43.1751],[16.3891,43.1524],[16.401,43.1626],[16.3518,43.1751]]],[[[16.2115,43.4138],[16.2057,43.3857],[16.2618,43.3763],[16.3071,43.3607],[16.3349,43.3449],[16.3863,43.3246],[16.3999,43.3307],[16.3607,43.3729],[16.3337,43.3921],[16.2957,43.3996],[16.2546,43.4143],[16.2115,43.4138]]],[[[16.1418,43.4579],[16.1243,43.4512],[16.1082,43.4299],[16.1629,43.4321],[16.1671,43.4565],[16.1418,43.4579]]],[[[15.2385,43.8807],[15.2204,43.8693],[15.2421,43.8547],[15.2613,43.8279],[15.3301,43.7865],[15.3599,43.7893],[15.3415,43.8088],[15.2563,43.8582],[15.2632,43.8699],[15.2385,43.8807]]],[[[15.606,43.6779],[15.6051,43.6657],[15.6758,43.6343],[15.6688,43.6629],[15.606,43.6779]]],[[[15.6757,43.7196],[15.696,43.6815],[15.7243,43.6805],[15.7085,43.7021],[15.6757,43.7196]]],[[[15.2713,43.8929],[15.2785,43.8765],[15.3101,43.8521],[15.3163,43.8724],[15.2951,43.8751],[15.2713,43.8929]]],[[[15.4057,43.9301],[15.3901,43.9382],[15.3893,43.9568],[15.3246,43.9949],[15.2957,44.0018],[15.2882,44.0127],[15.2601,44.0211],[15.2424,44.0471],[15.2026,44.066],[15.1865,44.0926],[15.1466,44.111],[15.1268,44.1263],[15.0821,44.146],[15.0776,44.1268],[15.0979,44.1085],[15.1151,44.1068],[15.1276,44.0887],[15.2004,44.0321],[15.2215,44.0415],[15.2424,44.0099],[15.299,43.9713],[15.3076,43.9543],[15.3588,43.9296],[15.3729,43.9065],[15.396,43.9096],[15.4343,43.8887],[15.456,43.8968],[15.4057,43.9301]]],[[[14.8593,44.1758],[14.8674,44.1543],[14.8282,44.1421],[14.8877,44.1277],[14.9194,44.106],[14.9354,44.0868],[14.9699,44.0687],[15.0201,44.0243],[15.0729,43.9554],[15.1288,43.9068],[15.161,43.8857],[15.1901,43.8993],[15.2168,43.8846],[15.2204,43.9076],[15.1765,43.9279],[15.1185,43.9707],[15.1199,43.9799],[15.0782,43.991],[15.0482,44.0113],[15.0296,44.036],[15.024,44.0635],[15.0004,44.0882],[14.9713,44.0887],[14.9221,44.1224],[14.9121,44.1423],[14.8593,44.1758]]],[[[15.076,44.0818],[15.0771,44.0521],[15.1313,44.0324],[15.1063,44.0651],[15.076,44.0818]]],[[[14.9457,44.2001],[14.9429,44.1899],[14.9843,44.1485],[15.0246,44.1249],[15.0351,44.1379],[15.0054,44.1615],[14.9457,44.2001]]],[[[14.8054,44.2649],[14.7899,44.2571],[14.8285,44.2004],[14.8468,44.2163],[14.8921,44.1974],[14.9068,44.2132],[14.8365,44.239],[14.8054,44.2649]]],[[[14.7596,44.2932],[14.7351,44.2801],[14.7612,44.256],[14.7974,44.2724],[14.7596,44.2932]]],[[[14.6879,44.4124],[14.659,44.4012],[14.7032,44.3724],[14.7063,44.3993],[14.6879,44.4124]]],[[[14.7899,44.4212],[14.766,44.4104],[14.7762,44.379],[14.746,44.366],[14.796,44.3404],[14.8223,44.3537],[14.7996,44.3799],[14.8115,44.3999],[14.7899,44.4212]]],[[[14.8973,44.4562],[14.8854,44.4496],[14.9429,44.4074],[14.949,44.4193],[14.9199,44.4329],[14.8973,44.4562]]],[[[14.9162,44.546],[14.953,44.5368],[14.9615,44.5257],[15.0063,44.5115],[15.049,44.4876],[15.054,44.5101],[15.0385,44.5215],[15.0015,44.5282],[14.9657,44.5576],[14.9096,44.6127],[14.8526,44.6037],[14.8041,44.6401],[14.7649,44.6819],[14.7515,44.6671],[14.8337,44.5871],[14.8807,44.5577],[14.8699,44.5485],[14.9143,44.5151],[14.9205,44.5007],[14.9001,44.4927],[14.9343,44.466],[14.9629,44.4646],[15.0226,44.4255],[15.0476,44.3893],[15.0829,44.3976],[15.113,44.3813],[15.0885,44.3601],[15.1065,44.3474],[15.1026,44.3246],[15.1338,44.3235],[15.2143,44.3099],[15.2554,44.3249],[15.2474,44.3496],[15.2021,44.3779],[15.1865,44.3768],[15.1751,44.3974],[15.1415,44.4162],[15.116,44.4418],[15.0974,44.446],[15.0435,44.479],[15.0282,44.4593],[14.9721,44.5071],[14.9474,44.5193],[14.9162,44.546]]],[[[14.4499,44.7929],[14.4704,44.7905],[14.4643,44.8295],[14.446,44.8743],[14.4615,44.9101],[14.4563,44.9215],[14.4838,44.9618],[14.469,44.9829],[14.4435,44.9776],[14.4235,44.9851],[14.3968,45.0163],[14.3727,45.0718],[14.3599,45.0885],[14.3565,45.1301],[14.3721,45.1437],[14.3621,45.1637],[14.3104,45.1718],[14.3007,45.1501],[14.2724,45.121],[14.276,45.1049],[14.2962,45.094],[14.3046,45.0707],[14.3385,45.0599],[14.3549,45.0466],[14.3599,45.0215],[14.3513,45.0024],[14.3807,44.9877],[14.3931,44.9671],[14.3851,44.9407],[14.4013,44.9113],[14.3924,44.9029],[14.3457,44.9143],[14.3346,44.934],[14.3026,44.9379],[14.3037,44.9125],[14.3212,44.8851],[14.3329,44.8535],[14.3299,44.8262],[14.3604,44.8143],[14.3682,44.8032],[14.371,44.7551],[14.3976,44.7368],[14.3988,44.7104],[14.3376,44.6924],[14.351,44.6468],[14.381,44.6263],[14.3924,44.6029],[14.3726,44.5893],[14.3679,44.5626],[14.4243,44.5607],[14.4415,44.5537],[14.4493,44.5237],[14.481,44.511],[14.4926,44.494],[14.5212,44.4732],[14.5426,44.4888],[14.5132,44.5215],[14.4768,44.5332],[14.4332,44.5685],[14.3929,44.6285],[14.4015,44.6543],[14.4187,44.6707],[14.4382,44.6535],[14.4518,44.6296],[14.4835,44.6074],[14.4993,44.6071],[14.5454,44.6304],[14.5238,44.6376],[14.5049,44.674],[14.4788,44.6982],[14.4649,44.7263],[14.4799,44.7457],[14.4499,44.7929]]],[[[14.2815,44.6885],[14.2635,44.6829],[14.2379,44.6596],[14.231,44.6282],[14.2646,44.6138],[14.2585,44.6376],[14.2657,44.6557],[14.289,44.6682],[14.2815,44.6885]]],[[[14.726,44.8515],[14.694,44.8254],[14.7096,44.821],[14.7071,44.7896],[14.6635,44.8005],[14.6546,44.7896],[14.6951,44.7576],[14.7243,44.7557],[14.7515,44.7626],[14.8074,44.7324],[14.8388,44.7007],[14.8696,44.7046],[14.8654,44.7229],[14.7954,44.7796],[14.7388,44.8187],[14.7604,44.8404],[14.726,44.8515]]],[[[14.7497,44.884],[14.7351,44.8757],[14.7465,44.859],[14.7815,44.8624],[14.7497,44.884]]],[[[14.7738,44.9335],[14.7699,44.9113],[14.8365,44.8865],[14.8307,44.9051],[14.7935,44.9279],[14.7738,44.9335]]],[[[15.031,44.3265],[15.0254,44.3035],[15.0499,44.2843],[15.0782,44.2857],[15.0821,44.3101],[15.031,44.3265]]],[[[14.5237,44.9865],[14.5046,44.9796],[14.519,44.9613],[14.5551,44.9574],[14.5237,44.9865]]],[[[14.6204,45.0393],[14.6271,44.9893],[14.6111,44.9833],[14.6529,44.9632],[14.6774,44.9649],[14.6868,44.9499],[14.7346,44.9343],[14.7632,44.9401],[14.7471,44.959],[14.7746,44.9685],[14.8079,44.9629],[14.8199,44.9801],[14.811,44.9913],[14.7701,45.0113],[14.7415,45.0363],[14.736,45.0699],[14.6926,45.0685],[14.664,45.091],[14.6757,45.1368],[14.6307,45.1669],[14.6146,45.1946],[14.5774,45.2418],[14.551,45.2424],[14.551,45.2252],[14.5293,45.216],[14.5349,45.1815],[14.5457,45.1682],[14.5138,45.1168],[14.4751,45.1285],[14.4643,45.1182],[14.4687,45.0985],[14.4443,45.0969],[14.4304,45.0826],[14.4385,45.064],[14.4604,45.0457],[14.5046,45.0199],[14.5621,45.0126],[14.5796,45.0249],[14.6215,45.014],[14.6204,45.0393]]]]},"properties":{"GID_0":"HRV","ISO_A2":"HR","ISO_A3":"HRV","NAME_EN":"Croatia","NAME_IT":"Croazia"}}
]}