{"type":"FeatureCollection", "features": [
{"type":"Feature","geometry":{"type":"MultiPolygon","coordinates":[[[[97.8922,9.4605],[97.8547,9.4553],[97.8605,9.4355],[97.8922,9.4605]]],[[[98.0221,9.8458],[98.0038,9.827],[98.0082,9.7997],[98.0334,9.7853],[98.0646,9.8029],[98.0533,9.8353],[98.0221,9.8458]]],[[[98.0238,10.5913],[97.9881,10.5635],[97.9711,10.5742],[97.95,10.5581],[97.9706,10.5389],[97.9997,10.5397],[98.0238,10.5913]]],[[[98.2708,10.0646],[98.2292,10.0519],[98.2186,10.0336],[98.1701,10.0117],[98.1633,9.9809],[98.1323,9.9623],[98.1164,9.9064],[98.1282,9.8939],[98.1239,9.856],[98.1511,9.8576],[98.1692,9.8903],[98.177,9.923],[98.2268,9.9399],[98.2611,10.0133],[98.3033,10.0189],[98.2808,10.0625],[98.2708,10.0646]]],[[[98.2084,10.1906],[98.1833,10.1764],[98.1803,10.1509],[98.1921,10.1198],[98.2295,10.1337],[98.2336,10.1718],[98.2084,10.1906]]],[[[98.2367,10.5317],[98.2038,10.5294],[98.1911,10.5125],[98.1961,10.4897],[98.2129,10.4811],[98.2304,10.5013],[98.2367,10.5317]]],[[[98.2769,10.1403],[98.2806,10.0956],[98.3067,10.0919],[98.3114,10.1128],[98.2894,10.1208],[98.2769,10.1403]]],[[[97.9106,10.4967],[97.8925,10.4883],[97.9003,10.4306],[97.9131,10.3997],[97.9458,10.4403],[97.9308,10.4736],[97.9058,10.4684],[97.9106,10.4967]]],[[[98.0739,10.881],[98.0311,10.8647],[98.0887,10.8438],[98.0739,10.881]]],[[[98.1386,11.4131],[98.1117,11.4139],[98.12,11.3681],[98.1397,11.3657],[98.1386,11.4131]]],[[[97.9217,10.9317],[97.8897,10.9077],[97.9,10.8714],[97.9297,10.8719],[97.9489,10.9017],[97.9375,10.9308],[97.9217,10.9317]]],[[[98.0108,11.8573],[98.0025,11.8242],[98.0128,11.7831],[98.0294,11.7576],[98.0136,11.7475],[98.0105,11.6927],[98.0237,11.679],[98.0614,11.6631],[98.0752,11.6771],[98.0758,11.7025],[98.0463,11.7595],[98.0651,11.7747],[98.0178,11.805],[98.005,11.832],[98.0108,11.8573]]],[[[98.0792,11.8311],[98.0579,11.8294],[98.0456,11.8032],[98.0712,11.7965],[98.0792,11.8311]]],[[[98.1819,10.9858],[98.1533,10.975],[98.1211,10.9276],[98.0789,10.8856],[98.1075,10.8831],[98.1481,10.9247],[98.1958,10.8881],[98.2086,10.8864],[98.2336,10.8375],[98.2503,10.8408],[98.2392,10.7581],[98.2372,10.6953],[98.2623,10.691],[98.2897,10.7144],[98.2886,10.7442],[98.2772,10.7689],[98.2758,10.8358],[98.252,10.8592],[98.2317,10.8958],[98.2289,10.9272],[98.2156,10.9583],[98.1819,10.9858]]],[[[98.2633,11.2586],[98.2253,11.2428],[98.2418,11.2073],[98.2853,11.2062],[98.2824,11.232],[98.2633,11.2586]]],[[[98.2731,11.3305],[98.2537,11.3039],[98.2311,11.3028],[98.2104,11.2805],[98.2386,11.2589],[98.2606,11.2999],[98.2847,11.3176],[98.2731,11.3305]]],[[[98.2954,11.8035],[98.2742,11.8064],[98.2575,11.7908],[98.2728,11.7639],[98.2672,11.7347],[98.2331,11.6833],[98.2425,11.6342],[98.2141,11.6201],[98.2121,11.6009],[98.1914,11.5759],[98.2161,11.5589],[98.1942,11.5444],[98.1969,11.5183],[98.1849,11.4497],[98.216,11.4569],[98.2224,11.4859],[98.27,11.4788],[98.2731,11.5467],[98.2825,11.5844],[98.275,11.5975],[98.2884,11.6709],[98.3005,11.7057],[98.3197,11.7238],[98.2929,11.7818],[98.2954,11.8035]]],[[[98.4933,10.5361],[98.4831,10.5087],[98.4905,10.4535],[98.5318,10.3675],[98.5189,10.3056],[98.5072,10.2791],[98.5172,10.2556],[98.5086,10.2331],[98.4794,10.2003],[98.4894,10.1761],[98.5161,10.1578],[98.5117,10.124],[98.5225,10.0743],[98.5261,10.0119],[98.5481,9.9755],[98.5858,10.0414],[98.6033,10.0636],[98.62,10.1208],[98.6392,10.1389],[98.6544,10.1806],[98.6897,10.2097],[98.7117,10.2619],[98.7544,10.3942],[98.77,10.42],[98.812,10.467],[98.8224,10.5048],[98.8203,10.5437],[98.8065,10.5567],[98.8043,10.5979],[98.7762,10.6141],[98.7872,10.6494],[98.7826,10.6769],[98.8202,10.7154],[98.843,10.7513],[98.8727,10.7795],[98.8893,10.774],[98.9238,10.8266],[98.9591,10.8117],[98.9732,10.8313],[99.0111,10.856],[98.9996,10.9229],[99.02,10.965],[99.0802,10.9543],[99.0939,10.9716],[99.1031,11.0126],[99.1573,11.0318],[99.1899,11.083],[99.2276,11.1122],[99.232,11.1431],[99.2532,11.1686],[99.2635,11.2004],[99.2866,11.1895],[99.3079,11.2165],[99.3071,11.2554],[99.3269,11.2866],[99.3125,11.3167],[99.3423,11.3371],[99.3654,11.3709],[99.4024,11.3884],[99.4033,11.4239],[99.3948,11.4609],[99.4588,11.4946],[99.457,11.5118],[99.4741,11.5327],[99.4582,11.5826],[99.468,11.6142],[99.5174,11.6356],[99.5297,11.6209],[99.5663,11.6258],[99.5876,11.6584],[99.5834,11.6771],[99.603,11.707],[99.6368,11.7265],[99.6379,11.7554],[99.6583,11.8288],[99.6222,11.8323],[99.6101,11.8679],[99.5886,11.8721],[99.5797,11.9044],[99.5803,11.9422],[99.5921,11.9507],[99.5925,11.9922],[99.5748,12.0072],[99.5393,12.0133],[99.5343,12.0653],[99.5562,12.0925],[99.5556,12.1127],[99.5714,12.1447],[99.5501,12.1502],[99.501,12.1432],[99.4734,12.1318],[99.4734,12.1568],[99.4952,12.1889],[99.4872,12.218],[99.4719,12.2349],[99.4848,12.2727],[99.4617,12.2856],[99.4344,12.3419],[99.4425,12.4004],[99.4263,12.425],[99.4254,12.4482],[99.4025,12.4586],[99.4065,12.4798],[99.4263,12.4904],[99.4186,12.5245],[99.4244,12.5561],[99.4398,12.5824],[99.4127,12.615],[99.3664,12.6244],[99.339,12.6611],[99.2961,12.6771],[99.2906,12.7148],[99.2705,12.7283],[99.2486,12.7186],[99.2284,12.7432],[99.2354,12.7769],[99.223,12.8227],[99.1867,12.8492],[99.1835,12.9098],[99.166,12.9238],[99.1958,12.9593],[99.1713,13.014],[99.1346,13.0324],[99.1043,13.0626],[99.0998,13.0771],[99.1282,13.1026],[99.1365,13.1275],[99.1346,13.1638],[99.1171,13.1756],[99.1323,13.2019],[99.1578,13.2078],[99.1832,13.1915],[99.2111,13.2063],[99.1975,13.2562],[99.1916,13.3157],[99.2095,13.3362],[99.2042,13.3693],[99.2132,13.4117],[99.2018,13.4491],[99.2103,13.4565],[99.1909,13.4937],[99.1953,13.5405],[99.1672,13.5711],[99.1804,13.5809],[99.1694,13.6067],[99.1742,13.6898],[99.1718,13.72],[99.1564,13.7532],[99.1277,13.7667],[99.1242,13.8109],[99.1063,13.8314],[99.1137,13.8649],[99.1102,13.8912],[99.0829,13.8906],[99.0639,13.9261],[99.0236,13.9459],[99.0017,14.0175],[98.9745,14.0309],[98.9708,14.0798],[98.9225,14.11],[98.8791,14.1235],[98.8714,14.1442],[98.8307,14.1742],[98.7606,14.2142],[98.7075,14.2528],[98.6977,14.2743],[98.6016,14.3238],[98.5994,14.3665],[98.5791,14.369],[98.5597,14.4016],[98.552,14.4326],[98.5143,14.4751],[98.4927,14.5391],[98.463,14.5294],[98.4606,14.5772],[98.4348,14.6122],[98.3696,14.6643],[98.3667,14.6855],[98.3304,14.7053],[98.3001,14.7484],[98.2785,14.7949],[98.2504,14.8286],[98.2642,14.854],[98.2338,14.8882],[98.2533,14.9129],[98.2322,14.9442],[98.233,14.9656],[98.2099,14.9811],[98.2143,15.0201],[98.2338,15.043],[98.1863,15.095],[98.1917,15.1489],[98.2138,15.1822],[98.1994,15.2297],[98.2369,15.2186],[98.2611,15.2341],[98.3061,15.2786],[98.3089,15.311],[98.3534,15.2918],[98.4094,15.2528],[98.4225,15.2702],[98.406,15.3035],[98.4228,15.3274],[98.4174,15.3483],[98.4736,15.3743],[98.4872,15.3861],[98.5359,15.3687],[98.5625,15.3368],[98.5813,15.3636],[98.5898,15.4384],[98.5874,15.489],[98.5791,15.5359],[98.5648,15.5633],[98.5574,15.5996],[98.56,15.6504],[98.5477,15.6817],[98.5735,15.7822],[98.6111,15.8754],[98.5966,15.8747],[98.5853,15.9171],[98.5949,15.9581],[98.6094,15.9746],[98.5925,16.012],[98.5629,16.0312],[98.582,16.0617],[98.626,16.041],[98.6376,16.0613],[98.6617,16.0719],[98.7,16.1337],[98.719,16.1222],[98.7702,16.1191],[98.8049,16.1028],[98.8489,16.1264],[98.8632,16.1691],[98.8538,16.2119],[98.8665,16.2313],[98.9039,16.2521],[98.9165,16.3039],[98.9326,16.3272],[98.9173,16.3889],[98.8809,16.4231],[98.8317,16.4214],[98.8175,16.3848],[98.7829,16.3636],[98.7739,16.3438],[98.7469,16.3438],[98.7289,16.3297],[98.7052,16.2733],[98.6695,16.2826],[98.6652,16.3637],[98.6391,16.425],[98.6585,16.4558],[98.5855,16.5461],[98.574,16.5691],[98.5872,16.5854],[98.5751,16.619],[98.5265,16.6401],[98.5163,16.6562],[98.5174,16.6912],[98.4637,16.7281],[98.4639,16.7451],[98.5174,16.8044],[98.5415,16.8254],[98.4941,16.8402],[98.5136,16.8678],[98.5218,16.9158],[98.4975,16.9482],[98.4732,16.9947],[98.4387,17.0338],[98.4124,17.0513],[98.3709,17.0542],[98.3386,17.0492],[98.3045,17.0923],[98.3217,17.1101],[98.281,17.1199],[98.2853,17.1417],[98.251,17.1799],[98.2368,17.2269],[98.2114,17.2279],[98.2072,17.2446],[98.173,17.2584],[98.1055,17.3441],[98.1112,17.384],[98.0837,17.3885],[98.0616,17.4186],[98.0561,17.4408],[98.0368,17.4519],[97.9937,17.5086],[97.9727,17.5071],[97.9624,17.5269],[97.9251,17.5375],[97.9075,17.5818],[97.8521,17.6233],[97.7948,17.6783],[97.7643,17.7229],[97.7675,17.756],[97.7578,17.7706],[97.7042,17.8136],[97.6763,17.8683],[97.6937,17.9243],[97.7374,17.9519],[97.7411,17.9725],[97.727,18.0175],[97.6993,18.064],[97.6797,18.1114],[97.6769,18.1595],[97.6517,18.1771],[97.6163,18.2214],[97.6097,18.2411],[97.6411,18.279],[97.6207,18.3167],[97.5765,18.3368],[97.5511,18.3306],[97.5372,18.2847],[97.5077,18.2648],[97.4619,18.3093],[97.4453,18.338],[97.4534,18.3881],[97.4278,18.4067],[97.4049,18.4473],[97.3861,18.5062],[97.3488,18.5424],[97.3637,18.5581],[97.4013,18.5617],[97.4228,18.5447],[97.4359,18.5034],[97.4563,18.4902],[97.4919,18.5053],[97.5088,18.4886],[97.5394,18.4876],[97.5515,18.526],[97.6086,18.5336],[97.6183,18.5576],[97.6438,18.5585],[97.6589,18.5745],[97.7036,18.5662],[97.7332,18.5805],[97.7719,18.575],[97.7758,18.6929],[97.7574,18.7219],[97.7661,18.7599],[97.7428,18.8273],[97.7471,18.8474],[97.7388,18.8848],[97.7194,18.8879],[97.6724,18.9302],[97.7111,18.9631],[97.7357,18.971],[97.7388,19.0386],[97.7729,19.0423],[97.768,19.0643],[97.8373,19.0922],[97.8444,19.1439],[97.8457,19.2203],[97.8137,19.2509],[97.7862,19.2652],[97.8338,19.3001],[97.8256,19.3264],[97.8032,19.3493],[97.8073,19.4024],[97.8305,19.4375],[97.8891,19.4981],[97.857,19.5306],[97.8638,19.5732],[97.9042,19.5756],[97.9791,19.6003],[97.9869,19.6379],[98.0416,19.6391],[98.0467,19.6623],[98.032,19.6848],[98.0291,19.7195],[98.0416,19.7626],[98.037,19.7839],[98.0854,19.8075],[98.1016,19.7702],[98.1379,19.7842],[98.1714,19.767],[98.1936,19.7361],[98.2252,19.7214],[98.2502,19.6737],[98.2993,19.6793],[98.326,19.6948],[98.3665,19.6906],[98.3953,19.7009],[98.4169,19.6893],[98.4759,19.6933],[98.5205,19.7129],[98.5619,19.6731],[98.5748,19.7014],[98.6156,19.7085],[98.676,19.7486],[98.7141,19.7616],[98.7411,19.7515],[98.7819,19.751],[98.7983,19.7731],[98.8502,19.8057],[98.9158,19.7528],[98.9461,19.7658],[98.9651,19.7392],[98.9825,19.7319],[98.9936,19.7805],[99.0188,19.8037],[99.036,19.8527],[99.0257,19.8621],[99.031,19.9235],[99.0462,19.9469],[99.0321,19.9692],[99.0529,19.9967],[99.0457,20.0341],[99.0693,20.0663],[99.0785,20.0986],[99.1101,20.0954],[99.1288,20.1147],[99.1635,20.1297],[99.214,20.1277],[99.2655,20.1029],[99.318,20.0679],[99.3527,20.0726],[99.3835,20.0865],[99.4439,20.0888],[99.5021,20.1148],[99.4993,20.1302],[99.5445,20.1696],[99.5626,20.2019],[99.5349,20.2304],[99.5071,20.2921],[99.5115,20.3121],[99.4984,20.3391],[99.4592,20.3603],[99.4595,20.3907],[99.498,20.3834],[99.5167,20.3639],[99.56,20.3558],[99.6142,20.3298],[99.6375,20.3401],[99.6837,20.3146],[99.7132,20.3221],[99.7327,20.3479],[99.7782,20.3326],[99.8128,20.3341],[99.8429,20.3706],[99.8427,20.4003],[99.8718,20.443],[99.9234,20.4439],[99.9612,20.4632],[99.9869,20.4279],[100.0422,20.3914],[100.0619,20.3944],[100.0826,20.3557],[100.0931,20.3557],[100.1296,20.4032],[100.1271,20.4279],[100.138,20.4583],[100.1465,20.5129],[100.1659,20.5684],[100.1778,20.6205],[100.2167,20.6937],[100.2454,20.7211],[100.2595,20.747],[100.3036,20.7782],[100.3304,20.7817],[100.3565,20.8019],[100.3689,20.8237],[100.4013,20.832],[100.4597,20.8239],[100.5035,20.8099],[100.569,20.8201],[100.6099,20.8382],[100.6474,20.8756],[100.6421,20.8927],[100.5822,20.8805],[100.5599,20.8678],[100.5332,20.8685],[100.5158,20.8813],[100.5278,20.9575],[100.555,20.9922],[100.5504,21.0261],[100.5954,21.0323],[100.637,21.0643],[100.6578,21.1131],[100.6751,21.1274],[100.6855,21.1653],[100.7017,21.1818],[100.7058,21.2279],[100.7198,21.2588],[100.7271,21.3121],[100.7915,21.2962],[100.8294,21.2949],[100.8488,21.3026],[100.9126,21.359],[100.978,21.3863],[101.0054,21.3922],[101.046,21.4352],[101.0931,21.458],[101.1258,21.4867],[101.1592,21.5259],[101.1652,21.5446],[101.1488,21.5724],[101.1761,21.5964],[101.1681,21.6442],[101.1212,21.6546],[101.1294,21.7057],[101.1265,21.7754],[101.0994,21.7721],[101.018,21.7122],[100.947,21.6969],[100.9143,21.6822],[100.8918,21.6849],[100.8599,21.6563],[100.8281,21.6434],[100.8008,21.5851],[100.7807,21.5721],[100.7187,21.5084],[100.6906,21.5041],[100.6786,21.4831],[100.6402,21.4795],[100.5778,21.4503],[100.5137,21.4673],[100.4921,21.4579],[100.4714,21.4731],[100.4374,21.5291],[100.4043,21.5284],[100.3923,21.5395],[100.3616,21.5366],[100.308,21.4805],[100.2499,21.4651],[100.2219,21.437],[100.2026,21.4394],[100.169,21.4677],[100.1703,21.4806],[100.1356,21.5021],[100.1279,21.5553],[100.1148,21.5866],[100.1413,21.614],[100.145,21.6337],[100.1772,21.6435],[100.1725,21.6599],[100.14,21.694],[100.0957,21.6888],[100.0268,21.6929],[99.9862,21.7187],[99.9727,21.77],[99.9478,21.8217],[99.9497,21.866],[99.965,21.8792],[99.9619,21.9009],[99.9853,21.9231],[100,21.9756],[99.9665,22.0207],[99.9706,22.052],[99.8914,22.0671],[99.8718,22.0618],[99.8785,22.0339],[99.8566,22.0237],[99.8135,22.0534],[99.7743,22.0622],[99.7579,22.0779],[99.7295,22.0659],[99.7215,22.0468],[99.6916,22.054],[99.6925,22.0735],[99.6526,22.1049],[99.6162,22.0971],[99.5978,22.1131],[99.5607,22.1163],[99.5195,22.105],[99.4764,22.1375],[99.4235,22.1192],[99.4021,22.1031],[99.338,22.0998],[99.2917,22.1128],[99.2189,22.1187],[99.1988,22.1421],[99.169,22.1552],[99.1879,22.1981],[99.2368,22.2534],[99.2375,22.2851],[99.2573,22.3313],[99.2766,22.3484],[99.2535,22.3844],[99.3075,22.4165],[99.3702,22.475],[99.3895,22.4994],[99.3642,22.527],[99.3883,22.5761],[99.3679,22.6261],[99.3597,22.6675],[99.3421,22.7101],[99.3228,22.7303],[99.3255,22.7511],[99.3857,22.7706],[99.3925,22.8063],[99.451,22.858],[99.4381,22.911],[99.4458,22.9469],[99.4689,22.9269],[99.5091,22.9083],[99.538,22.9073],[99.5642,22.9258],[99.5587,22.9548],[99.5186,23.004],[99.5201,23.0783],[99.4866,23.0904],[99.433,23.0974],[99.3859,23.1097],[99.3609,23.1338],[99.3006,23.1117],[99.2555,23.1151],[99.2122,23.0931],[99.1513,23.112],[99.1098,23.0937],[99.0574,23.1239],[99.0406,23.1657],[98.968,23.1717],[98.9242,23.1919],[98.8898,23.1831],[98.8974,23.2197],[98.9307,23.2742],[98.9416,23.3122],[98.9315,23.3266],[98.8851,23.3314],[98.9254,23.3646],[98.923,23.4231],[98.8968,23.4701],[98.879,23.4871],[98.829,23.4736],[98.8095,23.5228],[98.8111,23.5512],[98.8829,23.5909],[98.8916,23.618],[98.8549,23.6381],[98.8487,23.6781],[98.824,23.7057],[98.8342,23.7468],[98.8036,23.7752],[98.7636,23.7786],[98.7478,23.7889],[98.7045,23.7898],[98.6822,23.8123],[98.7062,23.8315],[98.6928,23.9204],[98.7096,23.9391],[98.6785,23.96],[98.6988,23.9769],[98.7449,23.9789],[98.7669,24.003],[98.7689,24.0236],[98.8038,24.0443],[98.8397,24.0506],[98.8757,24.0859],[98.8897,24.113],[98.885,24.1489],[98.8465,24.1343],[98.7879,24.1331],[98.7117,24.1243],[98.6754,24.1093],[98.6367,24.1109],[98.6082,24.0947],[98.5839,24.1012],[98.5359,24.1296],[98.4271,24.1262],[98.3882,24.119],[98.3459,24.1022],[98.2309,24.1169],[98.1892,24.0999],[98.138,24.1018],[98.0298,24.0712],[97.9468,24.0251],[97.8853,24.0102],[97.8833,23.9813],[97.8578,23.9591],[97.7951,23.9476],[97.7655,23.9149],[97.7369,23.9094],[97.7159,23.8743],[97.6943,23.8793],[97.6731,23.8621],[97.628,23.8914],[97.567,23.9187],[97.5341,23.9426],[97.5735,23.9716],[97.5822,23.9903],[97.6326,24],[97.6326,24.0183],[97.6619,24.0604],[97.6856,24.0718],[97.7343,24.117],[97.7551,24.1803],[97.7282,24.1935],[97.7415,24.2345],[97.7587,24.2502],[97.7615,24.2788],[97.7154,24.2963],[97.6843,24.2947],[97.6694,24.3072],[97.6627,24.3417],[97.7021,24.3429],[97.7138,24.3713],[97.6821,24.4064],[97.6883,24.4237],[97.6736,24.4532],[97.5964,24.4335],[97.5366,24.4359],[97.5576,24.496],[97.5725,24.626],[97.574,24.7065],[97.5545,24.7413],[97.5759,24.7633],[97.602,24.7614],[97.6422,24.7768],[97.6868,24.8252],[97.7157,24.8372],[97.7315,24.8229],[97.7677,24.8235],[97.7832,24.8387],[97.7835,24.8692],[97.7508,24.8879],[97.7356,24.9153],[97.7174,24.9808],[97.7284,25.0256],[97.7299,25.0652],[97.7561,25.0833],[97.7821,25.1233],[97.8051,25.1731],[97.8238,25.2291],[97.845,25.2679],[97.8907,25.2483],[97.9104,25.2148],[97.949,25.2237],[98.001,25.2764],[98.0146,25.3032],[98.0626,25.3094],[98.0967,25.3552],[98.1135,25.3944],[98.1419,25.4041],[98.1423,25.4874],[98.1267,25.505],[98.1624,25.5312],[98.1805,25.5533],[98.1644,25.6145],[98.1827,25.6253],[98.2145,25.6052],[98.2543,25.593],[98.3202,25.5463],[98.3692,25.573],[98.3932,25.6185],[98.3925,25.647],[98.4058,25.674],[98.4394,25.6931],[98.4427,25.726],[98.4587,25.758],[98.4729,25.7642],[98.4758,25.7977],[98.519,25.8376],[98.552,25.8484],[98.5964,25.8153],[98.6376,25.8042],[98.6561,25.8258],[98.6943,25.8437],[98.708,25.8663],[98.7127,25.8981],[98.6853,25.9085],[98.6752,25.9449],[98.6254,25.9743],[98.6107,25.9899],[98.5994,26.0474],[98.5796,26.0769],[98.5729,26.1191],[98.5886,26.1414],[98.6156,26.1344],[98.6403,26.148],[98.6609,26.1263],[98.6907,26.1192],[98.7179,26.1343],[98.7102,26.1616],[98.7328,26.1879],[98.7039,26.2433],[98.6728,26.25],[98.6766,26.3158],[98.7119,26.3414],[98.7372,26.3845],[98.7563,26.5641],[98.7811,26.6199],[98.7788,26.6776],[98.7618,26.7314],[98.7674,26.81],[98.7391,26.8621],[98.7544,26.8961],[98.75,26.9463],[98.7336,27.0052],[98.76,27.0391],[98.7609,27.0646],[98.7424,27.0853],[98.712,27.0981],[98.7004,27.1182],[98.706,27.1753],[98.6869,27.2137],[98.706,27.2465],[98.7322,27.3172],[98.7298,27.3653],[98.6964,27.3911],[98.6984,27.4326],[98.6871,27.4605],[98.6946,27.4904],[98.6858,27.5111],[98.7041,27.5569],[98.6929,27.5897],[98.656,27.6169],[98.6415,27.6026],[98.5974,27.6006],[98.5809,27.6098],[98.5615,27.6528],[98.5461,27.6622],[98.5287,27.6351],[98.4977,27.6578],[98.4676,27.6902],[98.4283,27.689],[98.43,27.6329],[98.4247,27.5887],[98.3866,27.5433],[98.3644,27.526],[98.3399,27.5252],[98.3188,27.5428],[98.3026,27.585],[98.2954,27.6396],[98.2426,27.7014],[98.2214,27.7322],[98.2337,27.7643],[98.211,27.7888],[98.229,27.8278],[98.1802,27.8474],[98.1641,27.8618],[98.1662,27.8854],[98.2074,27.9051],[98.1842,27.942],[98.1384,27.9688],[98.1422,28.0411],[98.1509,28.1139],[98.1299,28.1567],[98.0971,28.1687],[98.0771,28.2037],[98.0335,28.2017],[98.0033,28.2155],[98.0214,28.2647],[97.964,28.3069],[97.9545,28.3301],[97.9051,28.3721],[97.8461,28.3605],[97.8368,28.3341],[97.8081,28.3311],[97.7906,28.3441],[97.7416,28.4152],[97.718,28.5039],[97.6885,28.5107],[97.6506,28.4809],[97.6209,28.4801],[97.5893,28.535],[97.5524,28.5346],[97.5485,28.4958],[97.5267,28.4662],[97.5201,28.4381],[97.4771,28.3695],[97.4876,28.3239],[97.4609,28.2681],[97.4337,28.2937],[97.4121,28.2814],[97.4048,28.2474],[97.3747,28.2256],[97.372,28.2004],[97.3308,28.163],[97.3247,28.1482],[97.339,28.1195],[97.3102,28.0933],[97.3118,28.07],[97.366,28.0681],[97.3771,28.0391],[97.3986,28.0341],[97.3781,27.9862],[97.3786,27.918],[97.389,27.8964],[97.3648,27.8851],[97.3435,27.8941],[97.3087,27.93],[97.2565,27.9095],[97.2026,27.8644],[97.1603,27.8226],[97.1243,27.7985],[97.1025,27.7934],[97.0964,27.7499],[97.0675,27.7597],[97.0157,27.7406],[96.9783,27.6719],[96.9587,27.6743],[96.929,27.656],[96.9194,27.6315],[96.8976,27.6208],[96.914,27.5884],[96.9158,27.5583],[96.9377,27.5301],[96.9139,27.4884],[96.9118,27.4627],[96.9333,27.4505],[96.9414,27.427],[96.9655,27.4154],[96.969,27.3863],[96.9975,27.3551],[97.0033,27.3299],[97.0403,27.3079],[97.0436,27.2898],[97.0941,27.2479],[97.0951,27.2214],[97.1167,27.2092],[97.1273,27.1852],[97.1499,27.1783],[97.1717,27.1368],[97.1464,27.1028],[97.1086,27.1213],[97.0627,27.1112],[97.0302,27.1417],[96.9637,27.1726],[96.9184,27.1755],[96.8662,27.1997],[96.8634,27.2192],[96.8927,27.2476],[96.8851,27.268],[96.8557,27.2803],[96.8497,27.3063],[96.8171,27.3295],[96.8024,27.3544],[96.773,27.365],[96.7407,27.3645],[96.7125,27.3807],[96.6937,27.3655],[96.6702,27.3723],[96.6205,27.3728],[96.6008,27.3446],[96.5618,27.3253],[96.5307,27.298],[96.5,27.3094],[96.4335,27.3099],[96.3916,27.2946],[96.3641,27.3002],[96.3477,27.2884],[96.3108,27.302],[96.2787,27.2794],[96.2343,27.2849],[96.2181,27.2696],[96.1637,27.2545],[96.0364,27.1961],[96.0169,27.1548],[95.9792,27.1107],[95.9571,27.0682],[95.8771,27.0205],[95.838,27.0153],[95.8153,27.0222],[95.7796,26.99],[95.7609,26.964],[95.755,26.9079],[95.7308,26.8875],[95.7035,26.8872],[95.6734,26.9102],[95.6341,26.8733],[95.6322,26.8495],[95.6115,26.8212],[95.5457,26.8379],[95.5148,26.8132],[95.4835,26.755],[95.4657,26.7504],[95.4233,26.6967],[95.3659,26.6776],[95.3466,26.6779],[95.3026,26.656],[95.272,26.6628],[95.26,26.6864],[95.2404,26.6916],[95.2062,26.6491],[95.182,26.6433],[95.1547,26.6195],[95.1545,26.5808],[95.1148,26.548],[95.1208,26.5298],[95.0688,26.4667],[95.1087,26.4237],[95.1048,26.4013],[95.1357,26.3878],[95.1283,26.3547],[95.1311,26.2925],[95.1207,26.2749],[95.1212,26.2387],[95.1425,26.2142],[95.1283,26.2031],[95.1168,26.163],[95.1279,26.137],[95.1267,26.101],[95.1659,26.099],[95.1854,26.0847],[95.1656,26.0534],[95.1647,26.035],[95.1175,25.9877],[95.1065,25.9682],[95.0574,25.947],[95.028,25.9198],[95.0154,25.872],[95.0332,25.8465],[95.0515,25.7991],[95.0525,25.7627],[95.0337,25.7414],[95.0094,25.7385],[94.989,25.7091],[94.9429,25.6753],[94.9197,25.6111],[94.8877,25.5876],[94.905,25.5671],[94.853,25.5633],[94.8339,25.5467],[94.8125,25.4954],[94.7727,25.4813],[94.6886,25.4655],[94.671,25.4125],[94.6312,25.3873],[94.6221,25.3368],[94.5987,25.2891],[94.5993,25.2669],[94.5854,25.2157],[94.6017,25.1952],[94.6309,25.1904],[94.6478,25.1744],[94.7457,25.1366],[94.7507,25.0635],[94.7422,25.0252],[94.7132,24.9937],[94.7019,24.9684],[94.7059,24.9343],[94.6921,24.8999],[94.6568,24.8736],[94.6412,24.8487],[94.6254,24.7848],[94.6333,24.765],[94.6108,24.7221],[94.591,24.7109],[94.551,24.7165],[94.5507,24.6749],[94.5208,24.6168],[94.4853,24.5822],[94.4595,24.5668],[94.4296,24.4933],[94.4115,24.4697],[94.3992,24.4131],[94.3653,24.3997],[94.3861,24.3846],[94.3518,24.342],[94.3263,24.3389],[94.328,24.2924],[94.3132,24.2541],[94.2951,24.2399],[94.2837,24.1799],[94.2627,24.1677],[94.2597,24.0896],[94.2453,24.0442],[94.1945,23.965],[94.196,23.9377],[94.1708,23.9351],[94.1615,23.8528],[94.1226,23.8427],[94.101,23.889],[94.0511,23.9004],[94.0177,23.934],[93.9694,23.9339],[93.9538,23.9502],[93.8961,23.9548],[93.8662,23.9379],[93.8081,23.9331],[93.7935,23.9675],[93.7622,24.0041],[93.74,23.9992],[93.6524,24.0135],[93.6163,24.0107],[93.6093,23.9734],[93.5305,23.9608],[93.5151,23.9472],[93.4722,23.9707],[93.467,23.9993],[93.444,24.0278],[93.4329,24.0617],[93.4042,24.0843],[93.3538,24.0977],[93.334,24.0901],[93.342,24.0674],[93.3374,23.9828],[93.3516,23.978],[93.371,23.9405],[93.3987,23.9303],[93.3956,23.8873],[93.3992,23.8242],[93.411,23.8077],[93.4053,23.7616],[93.4169,23.7121],[93.4447,23.6824],[93.4283,23.6535],[93.4347,23.5888],[93.424,23.5694],[93.4276,23.5344],[93.4076,23.5085],[93.3983,23.4113],[93.4142,23.388],[93.3658,23.3545],[93.3778,23.3375],[93.3784,23.2561],[93.3947,23.2243],[93.3739,23.1503],[93.3936,23.1386],[93.365,23.1167],[93.3582,23.0779],[93.3326,23.0357],[93.302,23.0083],[93.2532,23.0065],[93.2062,23.0569],[93.1329,23.0475],[93.1292,23.0008],[93.1476,22.9806],[93.1425,22.9644],[93.1628,22.9135],[93.1383,22.8934],[93.1217,22.8628],[93.1162,22.8163],[93.0993,22.8104],[93.1127,22.7442],[93.0918,22.7093],[93.1148,22.6392],[93.1364,22.6229],[93.1456,22.5861],[93.1155,22.5547],[93.1309,22.5261],[93.1345,22.4748],[93.1567,22.4521],[93.1754,22.4513],[93.1908,22.4273],[93.1974,22.38],[93.2019,22.2809],[93.2086,22.2611],[93.1904,22.2497],[93.1471,22.2465],[93.163,22.1823],[93.1307,22.1791],[93.1172,22.2013],[93.077,22.2101],[93.0445,22.1937],[93.0549,22.1654],[93.0469,22.1387],[93.0656,22.1021],[93.016,22.1055],[93.0008,22.0556],[93.0104,22.0112],[93.0092,21.9839],[92.988,21.9829],[92.9666,22.0271],[92.9421,22.0183],[92.9158,21.965],[92.8943,22.012],[92.8747,22.0301],[92.8702,22.0608],[92.849,22.0624],[92.8171,22.0956],[92.7378,22.139],[92.7034,22.1538],[92.6971,22.0993],[92.6838,22.1053],[92.69,22.041],[92.6808,22.0142],[92.6592,22.0147],[92.6379,21.9887],[92.6123,21.9803],[92.6105,21.947],[92.6215,21.9209],[92.6263,21.8699],[92.6139,21.8519],[92.6119,21.781],[92.6012,21.7026],[92.6018,21.6547],[92.6194,21.4961],[92.6397,21.4108],[92.6482,21.3581],[92.6737,21.2913],[92.6295,21.2686],[92.5969,21.2436],[92.5622,21.3637],[92.5611,21.3801],[92.5085,21.3773],[92.4991,21.3611],[92.4596,21.3691],[92.4388,21.3652],[92.4281,21.4236],[92.381,21.4799],[92.3435,21.4669],[92.322,21.4196],[92.2691,21.4282],[92.2558,21.3892],[92.2588,21.3622],[92.2115,21.3398],[92.1979,21.3198],[92.2197,21.2576],[92.2181,21.2319],[92.1725,21.1812],[92.1758,21.16],[92.1993,21.1613],[92.2364,21.0958],[92.26,21.0783],[92.275,20.9558],[92.3022,20.9308],[92.3206,20.8801],[92.3575,20.8028],[92.3603,20.7753],[92.3878,20.7283],[92.3861,20.7019],[92.4589,20.6586],[92.5142,20.6075],[92.5299,20.5489],[92.5658,20.5192],[92.6156,20.4672],[92.6467,20.4222],[92.6814,20.345],[92.7264,20.2664],[92.7456,20.2698],[92.7312,20.3175],[92.7343,20.389],[92.7477,20.4088],[92.7461,20.4342],[92.7236,20.4881],[92.7244,20.5396],[92.7331,20.5581],[92.6941,20.5897],[92.7115,20.6095],[92.7436,20.5467],[92.7356,20.5178],[92.7595,20.4536],[92.7675,20.4047],[92.7644,20.3325],[92.7725,20.2906],[92.7919,20.28],[92.8317,20.2894],[92.8664,20.3186],[92.8625,20.3367],[92.8303,20.3867],[92.8403,20.3987],[92.9135,20.3812],[92.9303,20.3953],[92.9489,20.3483],[92.946,20.3413],[92.929,20.3323],[92.9204,20.3114],[92.9065,20.3146],[92.8905,20.2992],[92.8636,20.3009],[92.8349,20.2762],[92.7925,20.2617],[92.7612,20.202],[92.8436,20.1358],[92.8706,20.1208],[92.8962,20.1302],[92.9297,20.204],[92.9797,20.2553],[93.0086,20.2964],[93.0189,20.3422],[93.0192,20.4225],[93.0522,20.4772],[93.0736,20.5294],[93.0969,20.5072],[93.1142,20.4203],[93.0822,20.4128],[93.0904,20.3783],[93.0769,20.3572],[93.0348,20.3297],[93.0311,20.2894],[93.0153,20.2711],[92.9968,20.2153],[92.9923,20.1399],[93.0136,20.1353],[93.06,20.1642],[93.0558,20.1325],[93.0667,20.1272],[93.0817,20.1089],[93.0906,20.0839],[93.1114,20.0633],[93.1258,20.0781],[93.1547,20.0442],[93.1739,20.0406],[93.1975,20.0693],[93.2144,20.0289],[93.2692,20.0317],[93.2861,20.0461],[93.3072,20.0419],[93.3537,20.0681],[93.3636,20.0208],[93.3981,20.0328],[93.4192,19.9733],[93.4511,19.9495],[93.4719,19.9847],[93.4965,19.9842],[93.5211,19.9233],[93.5328,19.9269],[93.5486,19.8892],[93.5617,19.8875],[93.6022,19.9081],[93.6803,19.9219],[93.7078,19.9322],[93.7011,19.9636],[93.7242,19.9603],[93.7242,19.9311],[93.7111,19.9094],[93.7464,19.8758],[93.7547,19.8536],[93.7147,19.8553],[93.6989,19.8358],[93.6731,19.8197],[93.6878,19.8036],[93.6506,19.7756],[93.6345,19.7514],[93.6322,19.7211],[93.6842,19.7131],[93.7319,19.6717],[93.7719,19.6644],[93.7286,19.6369],[93.7228,19.6189],[93.7739,19.5897],[93.82,19.5447],[93.8669,19.5161],[93.9175,19.455],[93.9556,19.4461],[93.9772,19.4628],[93.9881,19.4364],[93.975,19.4247],[93.9877,19.4003],[94.0135,19.3801],[94.0271,19.3994],[94.0451,19.4025],[94.0493,19.3857],[94.0716,19.3911],[94.0708,19.3792],[94.0825,19.3688],[94.0681,19.3642],[94.0373,19.3097],[94.0409,19.2637],[94.0524,19.2371],[94.0296,19.1426],[94.0358,19.1212],[94.0271,19.0804],[94.0538,19.0755],[94.0729,19.0488],[94.0851,19.0411],[94.1019,19.0541],[94.1203,19.0331],[94.12,19.0223],[94.1305,19.0079],[94.116,19.0116],[94.1104,19.0083],[94.1173,18.9863],[94.1062,18.9424],[94.1231,18.9253],[94.0909,18.8823],[94.072,18.8725],[94.0683,18.8728],[94.0639,18.8764],[94.0539,18.8931],[94.0369,18.8847],[94.0308,18.8497],[94.09,18.8231],[94.125,18.8164],[94.1349,18.8247],[94.1886,18.7764],[94.1993,18.7428],[94.1653,18.7331],[94.2394,18.6733],[94.2436,18.6514],[94.2347,18.6417],[94.2509,18.5826],[94.255,18.5105],[94.2963,18.4583],[94.3178,18.4416],[94.3366,18.3985],[94.3325,18.3698],[94.3686,18.3628],[94.3959,18.349],[94.3834,18.2826],[94.3478,18.2961],[94.3173,18.2992],[94.3211,18.2517],[94.3961,18.2517],[94.4245,18.2217],[94.4137,18.2032],[94.4361,18.1711],[94.4376,18.1423],[94.4688,18.0933],[94.4814,18.0511],[94.4725,18.0125],[94.4382,17.9762],[94.4786,17.9066],[94.4894,17.8247],[94.482,17.7879],[94.5431,17.7347],[94.5278,17.7069],[94.5333,17.6883],[94.5822,17.6203],[94.5736,17.5894],[94.5566,17.5984],[94.5365,17.5544],[94.5615,17.4994],[94.555,17.4289],[94.5697,17.3947],[94.5622,17.33],[94.5345,17.2847],[94.5008,17.3083],[94.4986,17.2178],[94.5225,17.2061],[94.5336,17.1875],[94.5125,17.1711],[94.4897,17.1803],[94.4443,17.1809],[94.4577,17.1418],[94.479,17.1413],[94.4883,17.1178],[94.4744,17.0903],[94.4511,17.069],[94.4556,17],[94.4504,16.969],[94.4346,16.9544],[94.4338,16.9252],[94.4045,16.8961],[94.381,16.9021],[94.3752,16.8717],[94.3886,16.8538],[94.4017,16.7967],[94.3711,16.7569],[94.3549,16.7231],[94.3578,16.6461],[94.3287,16.6081],[94.3461,16.5833],[94.3296,16.5428],[94.2997,16.526],[94.2842,16.5448],[94.2549,16.5359],[94.27,16.4958],[94.2641,16.4501],[94.2415,16.3818],[94.241,16.3552],[94.2269,16.315],[94.2402,16.2757],[94.2252,16.2204],[94.2113,16.2037],[94.2222,16.1747],[94.2038,16.1455],[94.2088,16.1265],[94.2015,16.0396],[94.245,15.9533],[94.2772,15.9968],[94.3019,16.0112],[94.3256,16.0194],[94.3261,16.0233],[94.3346,16.0194],[94.3428,16.0193],[94.3583,16.0497],[94.3978,16.0575],[94.4356,16.0842],[94.4589,16.124],[94.5067,16.1789],[94.5159,16.2038],[94.5483,16.2081],[94.5585,16.2528],[94.5698,16.2693],[94.5981,16.2817],[94.6028,16.3372],[94.6166,16.3509],[94.6367,16.3954],[94.6507,16.3991],[94.676,16.3893],[94.681,16.4456],[94.6697,16.4986],[94.6992,16.4709],[94.707,16.4383],[94.7073,16.3736],[94.6874,16.349],[94.6819,16.3078],[94.6552,16.2491],[94.6817,16.1944],[94.6717,16.1275],[94.6488,16.0778],[94.6221,16.0378],[94.5992,16.015],[94.5792,15.9819],[94.5508,15.9644],[94.5522,15.9469],[94.5786,15.9336],[94.5919,15.9467],[94.6334,15.9607],[94.6881,16],[94.67,15.9597],[94.6064,15.9315],[94.6106,15.9061],[94.6387,15.8797],[94.6419,15.8642],[94.6808,15.8422],[94.7183,15.8542],[94.7636,15.9286],[94.8058,15.9708],[94.7967,15.9892],[94.7992,15.9997],[94.8472,16.0767],[94.8358,16.1158],[94.8714,16.1944],[94.9064,16.2108],[94.9428,16.2133],[94.982,16.2491],[95.0072,16.2508],[94.9525,16.2022],[94.8822,16.1896],[94.8553,16.1239],[94.8743,16.0598],[94.8739,16.0276],[94.8886,16.0113],[94.9119,16.035],[94.8933,16.0762],[94.8978,16.0879],[94.9251,16.0953],[94.9494,16.1472],[94.9533,16.1192],[94.9489,16.1013],[94.9503,16.0942],[94.9425,16.0869],[94.9458,16.0475],[94.9519,16.0305],[94.9458,15.999],[94.9219,15.9803],[94.9514,15.9456],[94.9767,15.9564],[95.0397,15.9706],[95.0678,15.9658],[95.05,16.035],[95.0583,16.062],[95.0861,16.0969],[95.1168,16.1224],[95.1697,16.1249],[95.1911,16.1156],[95.2171,16.1184],[95.1997,16.0928],[95.1814,16.0781],[95.1881,16.0461],[95.1736,16.0239],[95.1272,16.0356],[95.1153,16.0272],[95.1272,15.9844],[95.1183,15.9214],[95.11,15.9],[95.1111,15.8089],[95.1428,15.7819],[95.1817,15.7719],[95.2247,15.7992],[95.2126,15.8603],[95.2348,15.9382],[95.2658,15.9923],[95.2736,15.9567],[95.2303,15.8719],[95.2467,15.8497],[95.2639,15.8613],[95.3128,15.9453],[95.3344,15.9656],[95.3431,15.9997],[95.3597,16],[95.3535,15.9533],[95.3345,15.9231],[95.307,15.9011],[95.2922,15.855],[95.2758,15.8461],[95.2675,15.8044],[95.2889,15.7547],[95.2834,15.7203],[95.3275,15.7084],[95.3986,15.7142],[95.4461,15.7325],[95.4864,15.7617],[95.5078,15.7944],[95.5556,15.8367],[95.5756,15.8615],[95.6511,15.935],[95.6739,15.9686],[95.7058,16.0297],[95.7053,16.0708],[95.7208,16.0817],[95.7422,16.1292],[95.7742,16.1328],[95.8419,16.1864],[95.8708,16.1886],[95.9119,16.2231],[95.9286,16.2128],[96.0081,16.24],[96.0736,16.3114],[96.0894,16.3383],[96.1088,16.3214],[96.1305,16.3222],[96.2128,16.3489],[96.2564,16.3594],[96.31,16.3908],[96.3281,16.4322],[96.329,16.4563],[96.2842,16.4875],[96.2567,16.5286],[96.2411,16.5679],[96.2335,16.6089],[96.2425,16.6542],[96.2089,16.6792],[96.1914,16.7356],[96.2069,16.7818],[96.2482,16.8081],[96.2664,16.81],[96.3028,16.8359],[96.3047,16.8803],[96.3176,16.8787],[96.3061,16.8258],[96.2539,16.7884],[96.2244,16.78],[96.2161,16.7514],[96.2262,16.7377],[96.2283,16.6945],[96.2597,16.6562],[96.2586,16.6128],[96.265,16.5889],[96.2889,16.5575],[96.3434,16.5296],[96.3914,16.4864],[96.4792,16.4811],[96.5061,16.4881],[96.575,16.5169],[96.6442,16.5603],[96.6519,16.5533],[96.7022,16.6236],[96.7222,16.6706],[96.7306,16.7242],[96.7753,16.7783],[96.7564,16.8461],[96.7783,16.8669],[96.7964,16.8611],[96.8133,16.8769],[96.8267,16.9425],[96.8458,16.9631],[96.8514,17.0186],[96.8603,17.0478],[96.8572,17.0728],[96.8864,17.0792],[96.8647,17.1575],[96.8861,17.2206],[96.9372,17.2458],[96.9905,17.2533],[97.0044,17.2756],[96.9786,17.2986],[96.9308,17.2882],[96.9439,17.3178],[96.97,17.3203],[97.0052,17.3021],[97.0238,17.2814],[97.0189,17.2333],[96.9882,17.2076],[96.9445,17.2029],[96.935,17.1892],[96.9853,17.14],[97.0114,17.0839],[97.0156,17.0264],[97.0264,17],[97.0728,16.9642],[97.0972,16.9767],[97.1269,17.0433],[97.1211,17.0719],[97.1312,17.0997],[97.1731,17.0661],[97.1714,16.9328],[97.19,16.9278],[97.1964,16.8886],[97.2114,16.8661],[97.2325,16.7883],[97.2325,16.7278],[97.2786,16.6533],[97.3225,16.6353],[97.3236,16.59],[97.3433,16.5692],[97.3494,16.5228],[97.3703,16.5036],[97.4303,16.5367],[97.5,16.5383],[97.5103,16.5467],[97.5472,16.5331],[97.5697,16.5372],[97.6197,16.5171],[97.6233,16.4547],[97.6109,16.4366],[97.6278,16.3958],[97.6097,16.36],[97.6367,16.3094],[97.6358,16.2162],[97.6275,16.1854],[97.6022,16.1269],[97.5578,16.0825],[97.585,16.0094],[97.5875,15.985],[97.6211,15.9478],[97.6914,15.8908],[97.7125,15.8317],[97.7161,15.7758],[97.697,15.7589],[97.7142,15.7208],[97.7078,15.7092],[97.7294,15.6553],[97.7267,15.6086],[97.7586,15.5325],[97.7378,15.4962],[97.7761,15.4235],[97.7767,15.4063],[97.7422,15.3864],[97.7278,15.3242],[97.7394,15.2925],[97.7289,15.2647],[97.77,15.1989],[97.7915,15.1944],[97.8013,15.2325],[97.8258,15.2189],[97.785,15.179],[97.803,15.1506],[97.805,15.1061],[97.7883,15.0633],[97.7956,15.0289],[97.7811,15.0158],[97.8095,14.9605],[97.7892,14.913],[97.7916,14.883],[97.8093,14.8097],[97.8194,14.7981],[97.8214,14.7547],[97.8403,14.7139],[97.8631,14.707],[97.8986,14.7361],[97.8856,14.7886],[97.9066,14.8191],[97.8914,14.8446],[97.9025,14.8597],[97.9313,14.8424],[97.9508,14.7439],[97.9755,14.6899],[97.9297,14.7256],[97.8972,14.715],[97.8719,14.6706],[97.8953,14.6364],[97.9033,14.5773],[97.9542,14.4958],[97.954,14.4537],[97.9746,14.4417],[97.9684,14.3635],[97.9956,14.3144],[97.9977,14.2928],[98.0278,14.2578],[98.0772,14.1803],[98.0976,14.1267],[98.0906,14.0906],[98.0755,14.0781],[98.0758,14.0492],[98.0556,14.0313],[98.0592,13.9803],[98.0769,13.9417],[98.0769,13.9122],[98.0981,13.8903],[98.0875,13.85],[98.0925,13.8211],[98.0669,13.7906],[98.0686,13.7717],[98.0936,13.7225],[98.0986,13.6961],[98.145,13.689],[98.1511,13.6525],[98.1329,13.625],[98.1378,13.6023],[98.1847,13.6506],[98.1711,13.7594],[98.1783,13.815],[98.2153,13.8847],[98.2167,13.9067],[98.2011,13.9636],[98.2308,13.9606],[98.2314,13.9258],[98.2419,13.9075],[98.2369,13.8836],[98.245,13.8028],[98.2408,13.7628],[98.2308,13.7378],[98.2464,13.7056],[98.2786,13.71],[98.2825,13.6736],[98.3414,13.6289],[98.3747,13.5817],[98.3653,13.5626],[98.4256,13.4767],[98.4111,13.4617],[98.428,13.4364],[98.4642,13.3406],[98.4689,13.3003],[98.4922,13.2931],[98.4919,13.2469],[98.5058,13.2464],[98.5242,13.2358],[98.5408,13.2036],[98.5761,13.1847],[98.5811,13.1664],[98.5708,13.1131],[98.5866,13.0956],[98.5967,13.0511],[98.5814,13.0247],[98.5983,13.0058],[98.5906,12.9692],[98.5914,12.9272],[98.6233,12.9014],[98.6336,12.8553],[98.6447,12.7708],[98.6911,12.7936],[98.6981,12.7794],[98.6753,12.7519],[98.6933,12.7156],[98.6639,12.6894],[98.6525,12.6378],[98.6364,12.6097],[98.6381,12.5925],[98.6153,12.5567],[98.6294,12.5369],[98.675,12.5289],[98.7022,12.5083],[98.7306,12.5122],[98.7558,12.4786],[98.7186,12.485],[98.6747,12.51],[98.6453,12.5047],[98.5975,12.4792],[98.5928,12.4358],[98.6119,12.4106],[98.6361,12.4353],[98.6528,12.4197],[98.6625,12.3797],[98.7364,12.3439],[98.72,12.3322],[98.6942,12.3444],[98.6756,12.3225],[98.6875,12.3106],[98.7472,12.2922],[98.7536,12.2694],[98.7625,12.2733],[98.7675,12.2703],[98.7747,12.2486],[98.7592,12.2114],[98.7706,12.2061],[98.765,12.1939],[98.7711,12.19],[98.7711,12.1814],[98.7956,12.1628],[98.7761,12.1367],[98.765,12.1356],[98.7297,12.1931],[98.7042,12.2042],[98.6533,12.1764],[98.6467,12.1564],[98.6192,12.1397],[98.6172,12.1022],[98.6592,12.0497],[98.6933,12.0442],[98.6964,12.0186],[98.7447,11.9944],[98.7483,11.9283],[98.7578,11.8856],[98.7772,11.8867],[98.8153,11.8458],[98.8202,11.8227],[98.809,11.786],[98.7836,11.7617],[98.7886,11.7295],[98.8053,11.7338],[98.8457,11.7263],[98.8489,11.705],[98.8475,11.6975],[98.8383,11.6828],[98.7797,11.6853],[98.7368,11.6724],[98.7375,11.64],[98.7226,11.6119],[98.7329,11.595],[98.7114,11.5202],[98.7535,11.5263],[98.7502,11.5005],[98.7608,11.4625],[98.7185,11.4581],[98.6947,11.4147],[98.7028,11.3822],[98.7272,11.3367],[98.7225,11.3142],[98.7486,11.2761],[98.75,11.2469],[98.7314,11.2092],[98.7392,11.1881],[98.6631,11.1198],[98.6725,11.0997],[98.6929,11.096],[98.71,11.0597],[98.7131,11.0334],[98.6843,11.0097],[98.7125,10.9897],[98.7158,10.9647],[98.6922,10.9292],[98.6642,10.9172],[98.6278,10.9214],[98.6256,10.9044],[98.5731,10.8769],[98.59,10.8614],[98.5983,10.8011],[98.5706,10.775],[98.5617,10.7331],[98.4956,10.7297],[98.4614,10.7167],[98.4483,10.6883],[98.4594,10.6225],[98.4822,10.5989],[98.4692,10.5872],[98.4933,10.5361]]],[[[98.4974,10.8897],[98.5033,10.8314],[98.5158,10.8183],[98.4919,10.7936],[98.5053,10.7828],[98.5361,10.7833],[98.5567,10.81],[98.5497,10.8308],[98.5622,10.8556],[98.5111,10.8905],[98.4974,10.8897]]],[[[98.4647,11.0008],[98.4347,11.0022],[98.45,10.9669],[98.4647,11.0008]]],[[[98.6769,11.0589],[98.6529,11.0609],[98.6358,11.0306],[98.6547,11.015],[98.6828,11.0167],[98.6769,11.0589]]],[[[98.5374,11.0729],[98.5189,11.0803],[98.5186,11.0451],[98.4687,10.9915],[98.4775,10.9578],[98.51,10.9561],[98.5469,10.9831],[98.5497,11.0126],[98.5374,11.0729]]],[[[98.6375,11.7814],[98.627,11.7902],[98.5908,11.7616],[98.6019,11.7225],[98.6506,11.6897],[98.6867,11.6754],[98.7108,11.709],[98.6976,11.7216],[98.7015,11.7433],[98.6886,11.7506],[98.6877,11.7617],[98.6761,11.7575],[98.6701,11.7589],[98.6646,11.7724],[98.6494,11.7743],[98.6375,11.7814]]],[[[98.5199,11.8097],[98.4486,11.7831],[98.3799,11.7894],[98.3814,11.7642],[98.365,11.7373],[98.3807,11.7149],[98.3691,11.686],[98.3765,11.6542],[98.4081,11.6431],[98.4221,11.6238],[98.4094,11.5969],[98.4353,11.5622],[98.4853,11.5644],[98.4919,11.5453],[98.5269,11.5168],[98.5211,11.5531],[98.5233,11.5933],[98.5482,11.6107],[98.5341,11.6369],[98.5464,11.6958],[98.5436,11.7767],[98.5199,11.8097]]],[[[98.2902,11.8475],[98.2758,11.8522],[98.2532,11.8313],[98.2676,11.8058],[98.2901,11.8189],[98.2902,11.8475]]],[[[98.2703,11.9176],[98.2513,11.9138],[98.2525,11.8556],[98.2748,11.8529],[98.279,11.8859],[98.2703,11.9176]]],[[[98.2526,11.9867],[98.2265,11.9606],[98.243,11.9367],[98.2639,11.9392],[98.2526,11.9867]]],[[[98.8347,11.7144],[98.8044,11.6983],[98.8278,11.6833],[98.8461,11.6986],[98.8467,11.7069],[98.8347,11.7144]]],[[[98.7539,11.885],[98.7047,11.8656],[98.6855,11.8811],[98.6444,11.8525],[98.6063,11.8505],[98.6292,11.795],[98.6494,11.7772],[98.6683,11.7722],[98.6722,11.7589],[98.6856,11.7636],[98.6886,11.7622],[98.6925,11.7503],[98.7008,11.7469],[98.7033,11.7378],[98.7,11.7236],[98.7132,11.7251],[98.7242,11.7492],[98.7592,11.7639],[98.8014,11.8075],[98.8125,11.8358],[98.7928,11.8614],[98.7694,11.8653],[98.7539,11.885]]],[[[98.6992,11.9628],[98.6681,11.9237],[98.6497,11.9147],[98.63,11.9147],[98.5936,11.9036],[98.5572,11.9083],[98.54,11.8936],[98.5469,11.8697],[98.6106,11.875],[98.6472,11.8643],[98.6825,11.8897],[98.7158,11.8714],[98.7469,11.9011],[98.7472,11.9272],[98.7339,11.9531],[98.6992,11.9628]]],[[[98.6225,11.9931],[98.6208,11.9667],[98.6858,11.9486],[98.6803,11.9769],[98.6225,11.9931]]],[[[98.4436,12.0989],[98.4289,12.1017],[98.4383,12.0522],[98.4314,12.0292],[98.4392,11.9892],[98.4631,11.9928],[98.4667,11.9719],[98.4511,11.9302],[98.4597,11.8918],[98.4758,11.8748],[98.5042,11.8772],[98.5467,11.9153],[98.595,11.9119],[98.6256,11.92],[98.656,11.92],[98.6686,11.95],[98.6242,11.9583],[98.5594,11.9967],[98.5097,12.0028],[98.4633,12.0878],[98.4436,12.0989]]],[[[98.7294,11.9994],[98.7005,11.9947],[98.7125,11.9669],[98.735,11.9578],[98.7447,11.9808],[98.7294,11.9994]]],[[[98.7675,12.1906],[98.7516,12.1892],[98.7467,12.1777],[98.7506,12.1611],[98.7764,12.14],[98.7944,12.1622],[98.7697,12.1811],[98.7675,12.1906]]],[[[98.6897,12.2308],[98.6439,12.2222],[98.6342,12.19],[98.6861,12.21],[98.6897,12.2308]]],[[[98.6769,12.3142],[98.5956,12.3011],[98.5636,12.3017],[98.5244,12.2606],[98.5378,12.2192],[98.5543,12.2005],[98.5942,12.1956],[98.6511,12.2433],[98.6861,12.2422],[98.7311,12.1994],[98.7439,12.1786],[98.7514,12.19],[98.7639,12.195],[98.7581,12.2111],[98.7733,12.2486],[98.7656,12.26],[98.7614,12.2714],[98.7514,12.2681],[98.7467,12.2883],[98.7364,12.2953],[98.6972,12.3022],[98.6769,12.3142]]],[[[98.5631,12.4186],[98.5467,12.3944],[98.5358,12.35],[98.5566,12.3301],[98.64,12.3189],[98.6669,12.3244],[98.6925,12.3472],[98.6436,12.3769],[98.6108,12.3678],[98.6097,12.3925],[98.5631,12.4186]]],[[[98.4883,12.3792],[98.4664,12.395],[98.4381,12.3558],[98.4319,12.3356],[98.4717,12.3283],[98.4903,12.35],[98.4883,12.3792]]],[[[98.5061,12.5131],[98.4761,12.4975],[98.4675,12.4058],[98.4875,12.39],[98.5144,12.4106],[98.4994,12.4403],[98.5178,12.495],[98.5061,12.5131]]],[[[98.6244,12.7522],[98.6267,12.7258],[98.6481,12.73],[98.6786,12.7208],[98.6714,12.7497],[98.6347,12.7436],[98.6244,12.7522]]],[[[98.3958,12.3175],[98.3689,12.3142],[98.3729,12.2903],[98.3958,12.2997],[98.3958,12.3175]]],[[[98.2595,12.5647],[98.2286,12.5464],[98.22,12.515],[98.2389,12.4892],[98.2664,12.4897],[98.2903,12.5097],[98.2595,12.5647]]],[[[98.3114,12.6808],[98.2978,12.6386],[98.2983,12.5869],[98.3114,12.5347],[98.314,12.4957],[98.3322,12.4544],[98.3303,12.4358],[98.3078,12.3711],[98.3056,12.3303],[98.3389,12.3119],[98.3625,12.3219],[98.3989,12.3692],[98.4342,12.4358],[98.4569,12.4497],[98.4636,12.4758],[98.4653,12.5553],[98.4789,12.5758],[98.4575,12.6081],[98.4326,12.5892],[98.4411,12.5631],[98.4164,12.5544],[98.3897,12.5714],[98.3917,12.6128],[98.4069,12.6264],[98.3819,12.6625],[98.3217,12.6703],[98.3114,12.6808]]],[[[98.5538,13.1943],[98.5331,13.1758],[98.5514,13.1531],[98.5686,13.1511],[98.5733,13.1837],[98.5538,13.1943]]],[[[98.5103,13.2417],[98.4872,13.2139],[98.4947,13.1714],[98.5183,13.1747],[98.5367,13.2043],[98.5247,13.2306],[98.5103,13.2417]]],[[[97.6752,11.8965],[97.6435,11.8828],[97.6387,11.8528],[97.6654,11.8557],[97.682,11.8728],[97.6752,11.8965]]],[[[97.6847,12.0573],[97.6526,12.0439],[97.6654,12.0248],[97.687,12.0416],[97.6847,12.0573]]],[[[98.0835,12.2953],[98.0689,12.2933],[98.0414,12.2197],[98.0797,12.1631],[98.1064,12.1706],[98.1357,12.1627],[98.1386,12.1836],[98.1192,12.2153],[98.1289,12.2328],[98.1378,12.2825],[98.0835,12.2953]]],[[[98.0944,12.4326],[98.055,12.3908],[98.0506,12.3672],[98.0347,12.355],[98.0022,12.3781],[97.9645,12.3936],[97.9368,12.3479],[97.9788,12.317],[97.9961,12.2905],[98.0483,12.3244],[98.0608,12.3586],[98.0861,12.3572],[98.1072,12.3747],[98.1147,12.4003],[98.0944,12.4326]]],[[[98.1369,12.3714],[98.1072,12.3453],[98.1239,12.3286],[98.1517,12.3294],[98.1506,12.3536],[98.1369,12.3714]]],[[[97.8591,12.6128],[97.8245,12.5874],[97.8376,12.5541],[97.8699,12.5643],[97.8532,12.5907],[97.8591,12.6128]]],[[[97.9158,13.8675],[97.9003,13.8169],[97.9258,13.8211],[97.9267,13.8531],[97.9158,13.8675]]],[[[97.8514,12.8214],[97.8309,12.7998],[97.8356,12.7784],[97.8741,12.7737],[97.8514,12.8214]]],[[[97.8198,14.1824],[97.7887,14.1834],[97.7768,14.1508],[97.809,14.156],[97.8198,14.1824]]],[[[97.9211,14.8219],[97.8994,14.7892],[97.8986,14.7639],[97.9197,14.7392],[97.9378,14.7622],[97.9211,14.8219]]],[[[98.2574,13.2146],[98.2437,13.1885],[98.2375,13.1486],[98.2481,13.1233],[98.2533,13.0772],[98.2828,13.0119],[98.2969,13.0514],[98.3233,13.0661],[98.3219,13.0908],[98.2894,13.0944],[98.2903,13.1106],[98.2574,13.2146]]],[[[98.2231,13.8411],[98.2072,13.8481],[98.1858,13.7897],[98.2008,13.7544],[98.2231,13.8411]]],[[[97.4453,11.8003],[97.4411,11.7822],[97.465,11.7708],[97.4825,11.7875],[97.4453,11.8003]]],[[[97.4889,11.815],[97.4844,11.7874],[97.5192,11.7822],[97.5169,11.8172],[97.4889,11.815]]],[[[94.9919,15.8494],[94.9817,15.8403],[94.9822,15.7825],[94.9958,15.7747],[95.0333,15.8056],[95.0419,15.8336],[95.0233,15.8489],[95.0028,15.8436],[94.9919,15.8494]]],[[[94.8889,15.8631],[94.8808,15.8639],[94.8883,15.83],[94.8989,15.8244],[94.9136,15.8433],[94.8889,15.8631]]],[[[94.9961,15.9586],[94.9628,15.9422],[94.9058,15.9233],[94.8697,15.8944],[94.881,15.8654],[94.8882,15.8644],[94.9006,15.8587],[94.9106,15.8514],[94.9147,15.8411],[94.9,15.8211],[94.8361,15.8028],[94.8394,15.7814],[94.8675,15.7592],[94.9494,15.7428],[94.9853,15.7644],[94.9783,15.7828],[94.9805,15.8537],[94.9587,15.8636],[94.9581,15.8766],[94.9705,15.8908],[94.9876,15.8965],[95.0228,15.9297],[95.0481,15.9337],[95.0631,15.9314],[95.0664,15.9583],[95.0395,15.9689],[94.9961,15.9586]]],[[[94.8427,15.8711],[94.8253,15.9015],[94.8171,15.9357],[94.7987,15.9305],[94.775,15.8901],[94.7729,15.8658],[94.7459,15.8354],[94.7409,15.8011],[94.8069,15.7891],[94.8103,15.8157],[94.8427,15.8711]]],[[[95.06,15.9314],[95.0242,15.9292],[94.9885,15.8959],[94.9706,15.8899],[94.9591,15.8652],[95.0061,15.845],[95.0242,15.8511],[95.0428,15.8386],[95.053,15.859],[95.0633,15.9236],[95.06,15.9314]]],[[[94.9158,16.0658],[94.9164,16.0289],[94.8958,16.0064],[94.8679,16.0017],[94.8231,15.9503],[94.8208,15.9381],[94.8489,15.8925],[94.8502,15.8664],[94.8358,15.8481],[94.8436,15.8317],[94.8725,15.8258],[94.8744,15.8617],[94.8658,15.9017],[94.9439,15.9544],[94.9181,15.9806],[94.9469,16.0098],[94.9441,16.0611],[94.932,16.0598],[94.9158,16.0658]]],[[[94.8346,15.9989],[94.8502,16.0173],[94.8562,16.0528],[94.8238,16.0389],[94.801,15.9899],[94.8106,15.98],[94.8346,15.9989]]],[[[95.1739,16.1153],[95.1172,16.0883],[95.0909,16.0494],[95.0967,15.9897],[95.1111,15.9961],[95.1125,16.0303],[95.13,16.0417],[95.1714,16.0294],[95.1819,16.0381],[95.1764,16.0803],[95.1997,16.0972],[95.1739,16.1153]]],[[[94.945,16.0917],[94.9522,16.1192],[94.9428,16.1153],[94.9339,16.0945],[94.9195,16.0843],[94.9019,16.0847],[94.9231,16.0642],[94.9428,16.0756],[94.9408,16.0858],[94.945,16.0917]]],[[[97.5935,16.3369],[97.5793,16.3268],[97.5707,16.2757],[97.5977,16.2544],[97.6085,16.2849],[97.5935,16.3369]]],[[[97.5056,16.5019],[97.4797,16.5067],[97.4447,16.4892],[97.4333,16.4514],[97.4608,16.3981],[97.4727,16.3525],[97.4556,16.3169],[97.47,16.2933],[97.4836,16.2433],[97.5239,16.1983],[97.5606,16.2133],[97.5664,16.2489],[97.5564,16.2911],[97.5686,16.3331],[97.5878,16.3681],[97.5778,16.4008],[97.6081,16.4639],[97.6006,16.4931],[97.5578,16.4912],[97.5056,16.5019]]],[[[96.9114,16.8789],[96.8775,16.8356],[96.89,16.8231],[96.9092,16.855],[96.9114,16.8789]]],[[[94.3466,16.0167],[94.3279,16.0208],[94.3172,16.0103],[94.3025,16.0072],[94.28,15.9867],[94.3255,15.9786],[94.3466,16.0167]]],[[[94.6492,16.2476],[94.6089,16.2308],[94.5681,16.1897],[94.5347,16.1408],[94.5164,16.1283],[94.4947,16.08],[94.4585,16.0318],[94.3858,16.0054],[94.3806,15.9806],[94.3964,15.9],[94.4076,15.8767],[94.4303,15.8806],[94.4438,15.9191],[94.4656,15.9242],[94.4806,15.9664],[94.4994,15.9833],[94.5771,16.0086],[94.6007,16.0579],[94.6307,16.0892],[94.6456,16.1208],[94.6669,16.2075],[94.6492,16.2476]]],[[[94.6806,16.3803],[94.6658,16.3739],[94.6469,16.3358],[94.6078,16.33],[94.6117,16.2989],[94.5974,16.2722],[94.5667,16.2472],[94.5739,16.2317],[94.6064,16.2444],[94.638,16.2867],[94.6747,16.3539],[94.6806,16.3803]]],[[[94.6531,16.3961],[94.6386,16.3953],[94.6161,16.3425],[94.6472,16.3419],[94.6581,16.3728],[94.6531,16.3961]]],[[[93.7925,18.6486],[93.7714,18.6215],[93.7986,18.6097],[93.7925,18.6486]]],[[[94.2394,18.6617],[94.2373,18.6733],[94.1828,18.7169],[94.1634,18.7093],[94.2243,18.6632],[94.2394,18.6617]]],[[[93.9708,18.8319],[93.9436,18.8289],[93.9392,18.7981],[93.9581,18.7806],[93.9914,18.7897],[93.9708,18.8319]]],[[[94.0892,18.9975],[94.0556,18.9982],[94.0398,18.9697],[94.0465,18.9406],[94.0294,18.8983],[94.0583,18.8939],[94.0656,18.8828],[94.0656,18.8775],[94.0681,18.874],[94.0725,18.8743],[94.0816,18.8791],[94.0927,18.8939],[94.0989,18.9325],[94.1169,18.9875],[94.0892,18.9975]]],[[[94.1157,19.0353],[94.0984,19.0509],[94.0927,19.0391],[94.0843,19.0399],[94.0703,19.0466],[94.057,19.0059],[94.0975,18.9954],[94.1067,18.9978],[94.1114,19.0131],[94.1199,19.0128],[94.1157,19.0353]]],[[[93.8145,19.2258],[93.7836,19.2306],[93.7267,19.2681],[93.7169,19.2978],[93.6892,19.3025],[93.6638,19.2951],[93.6619,19.3193],[93.6378,19.3281],[93.6319,19.3689],[93.6172,19.375],[93.6078,19.4072],[93.5813,19.404],[93.5453,19.4378],[93.5133,19.4331],[93.4763,19.3989],[93.4746,19.3535],[93.5672,19.2219],[93.5995,19.156],[93.6285,19.15],[93.6469,19.1216],[93.6617,19.0298],[93.6817,19.0042],[93.7031,19.0102],[93.7362,18.9707],[93.7641,18.9747],[93.8356,18.93],[93.8677,18.8983],[93.9133,18.8794],[93.9254,18.8539],[93.9462,18.8664],[93.945,18.8958],[93.9736,18.9303],[93.9869,18.9692],[93.9747,18.9859],[93.9544,19.0492],[93.9556,19.1059],[93.9679,19.1256],[93.9386,19.1442],[93.9178,19.1931],[93.9347,19.2258],[93.9092,19.2436],[93.8541,19.2508],[93.8145,19.2258]]],[[[93.6206,18.9164],[93.5956,18.9006],[93.5409,18.8795],[93.4839,18.8789],[93.5,18.8339],[93.5442,18.7678],[93.5975,18.7331],[93.6638,18.6708],[93.6896,18.6681],[93.7244,18.6796],[93.7508,18.7325],[93.7511,18.7603],[93.7369,18.7778],[93.7422,18.8889],[93.6875,18.8694],[93.6333,18.8903],[93.6206,18.9164]]],[[[93.6556,19.3753],[93.6408,19.3533],[93.6583,19.3328],[93.6872,19.3644],[93.6556,19.3753]]],[[[94.0275,19.2721],[93.9897,19.2546],[93.9942,19.1975],[94.0125,19.1814],[94.0298,19.2003],[94.0332,19.2299],[94.0275,19.2721]]],[[[94.0314,19.3278],[94.0058,19.3201],[93.9764,19.3228],[93.9753,19.3028],[93.9363,19.3056],[93.8892,19.2616],[93.9097,19.2454],[93.927,19.2593],[93.9511,19.2333],[93.9286,19.2125],[93.9409,19.1549],[93.9755,19.1384],[94.0088,19.159],[93.9925,19.1939],[93.9839,19.2503],[94.0199,19.277],[94.0314,19.3278]]],[[[93.8025,19.3044],[93.7711,19.2964],[93.7917,19.2694],[93.8447,19.2759],[93.8433,19.2933],[93.8025,19.3044]]],[[[94.04,19.3466],[94.0571,19.3548],[94.0701,19.3699],[94.0512,19.3831],[94.0453,19.3878],[94.0411,19.3999],[94.0267,19.3941],[94.0224,19.3719],[93.9941,19.3863],[93.9733,19.3811],[93.9729,19.3571],[93.9503,19.3417],[93.941,19.3129],[93.9743,19.3056],[93.9744,19.3231],[93.9872,19.3308],[94.04,19.3466]]],[[[93.9806,19.4075],[93.9144,19.3792],[93.9153,19.3342],[93.8781,19.3097],[93.89,19.2914],[93.9208,19.3153],[93.94,19.345],[93.9689,19.3611],[93.9686,19.3875],[93.9806,19.4075]]],[[[93.8747,19.4728],[93.8556,19.4597],[93.8589,19.4289],[93.8472,19.3969],[93.8842,19.3581],[93.8892,19.3256],[93.9131,19.3417],[93.9111,19.3789],[93.9728,19.4103],[93.9692,19.4297],[93.9422,19.4478],[93.9133,19.4478],[93.8747,19.4728]]],[[[93.6904,19.5628],[93.6682,19.5576],[93.6636,19.5372],[93.6419,19.5114],[93.6345,19.4811],[93.6486,19.4622],[93.6478,19.4447],[93.6869,19.4078],[93.7072,19.4078],[93.7244,19.3814],[93.7405,19.3283],[93.7664,19.3031],[93.8022,19.3094],[93.84,19.2958],[93.8647,19.3044],[93.8845,19.3497],[93.8394,19.3869],[93.8569,19.4292],[93.8525,19.4558],[93.8619,19.4864],[93.8217,19.4806],[93.7722,19.5072],[93.7486,19.5272],[93.7411,19.5508],[93.7034,19.5529],[93.6904,19.5628]]],[[[93.7767,19.5347],[93.7673,19.5258],[93.8183,19.4847],[93.8417,19.4856],[93.8547,19.507],[93.8052,19.5289],[93.7767,19.5347]]],[[[93.6222,19.4936],[93.594,19.4751],[93.6228,19.4489],[93.6458,19.4642],[93.6222,19.4936]]],[[[93.6538,19.5704],[93.6257,19.5446],[93.6478,19.5253],[93.6631,19.5433],[93.6538,19.5704]]],[[[93.4486,19.7428],[93.4081,19.7425],[93.4167,19.7239],[93.4489,19.7011],[93.4981,19.6772],[93.4983,19.7114],[93.4486,19.7428]]],[[[93.5884,19.7482],[93.5425,19.7472],[93.5261,19.7203],[93.5092,19.7178],[93.5249,19.6778],[93.5418,19.6989],[93.573,19.7135],[93.5884,19.7482]]],[[[93.6936,19.8975],[93.6589,19.8836],[93.6411,19.8629],[93.6272,19.8174],[93.5893,19.781],[93.5981,19.7563],[93.5919,19.7371],[93.6108,19.7103],[93.6212,19.7466],[93.6418,19.7772],[93.6847,19.8045],[93.6719,19.8162],[93.6739,19.8308],[93.7431,19.8747],[93.6936,19.8975]]],[[[93.4081,19.9622],[93.394,19.9568],[93.4294,19.8668],[93.4312,19.8238],[93.443,19.7863],[93.4997,19.755],[93.5218,19.7555],[93.5014,19.8003],[93.5136,19.8658],[93.5311,19.8783],[93.5333,19.9186],[93.4852,19.9039],[93.4636,19.9119],[93.4312,19.9572],[93.4081,19.9622]]],[[[93.5781,19.8386],[93.5433,19.8173],[93.5749,19.8032],[93.5938,19.8319],[93.5781,19.8386]]],[[[93.6605,19.9061],[93.6131,19.9025],[93.5839,19.8739],[93.5506,19.8703],[93.5622,19.8428],[93.5952,19.8364],[93.6067,19.8582],[93.6525,19.8886],[93.6605,19.9061]]],[[[93.1286,20.0697],[93.1272,20.0406],[93.1422,19.9912],[93.1561,19.9793],[93.1767,19.9204],[93.2091,19.8987],[93.1709,19.9693],[93.1536,20.0242],[93.1286,20.0697]]],[[[93.5028,19.9661],[93.4674,19.9682],[93.4678,19.9328],[93.4986,19.9353],[93.5028,19.9661]]],[[[92.9214,20.0842],[92.9352,20.0174],[92.9756,19.9492],[93.0118,19.9024],[93.0151,19.9369],[92.9603,20.045],[92.955,20.075],[92.9214,20.0842]]],[[[92.9791,20.1301],[92.9831,20.0903],[92.9747,20.0803],[93.0275,20.0295],[93.0466,19.9992],[93.0507,19.9587],[93.0626,19.9488],[93.1103,19.8672],[93.136,19.8648],[93.1049,19.939],[93.1061,19.9703],[93.1372,20.0058],[93.1233,20.04],[93.0894,20.0803],[93.0772,20.1117],[93.0686,20.1222],[93.0481,20.1278],[93.0197,20.1289],[92.9961,20.1231],[92.9791,20.1301]]],[[[92.9786,20.2335],[92.9442,20.2014],[92.9519,20.1797],[92.9717,20.1761],[92.9786,20.2335]]],[[[92.85,20.3947],[92.835,20.3878],[92.8664,20.3481],[92.8725,20.3108],[92.8856,20.3028],[92.9031,20.3172],[92.9203,20.3211],[92.9272,20.3336],[92.945,20.3428],[92.9369,20.366],[92.9172,20.38],[92.85,20.3947]]],[[[93.0931,20.5089],[93.0628,20.4814],[93.0362,20.4264],[93.0314,20.3583],[93.065,20.3589],[93.0808,20.3714],[93.0744,20.4106],[93.0853,20.4195],[93.1097,20.4194],[93.0931,20.5089]]]]},"properties":{"GID_0":"MMR","ISO_A2":"MM","ISO_A3":"MMR","NAME_EN":"Myanmar","NAME_IT":"Birmania"}}
]}