{"type":"FeatureCollection", "features": [
{"type":"Feature","geometry":{"type":"MultiPolygon","coordinates":[[[[22.3225,59.8262],[22.3081,59.8004],[22.3425,59.8071],[22.3225,59.8262]]],[[[22.3208,59.864],[22.3164,59.8524],[22.3386,59.8451],[22.348,59.8535],[22.3208,59.864]]],[[[22.3858,59.9235],[22.3742,59.9251],[22.3542,59.9129],[22.3664,59.9074],[22.3997,59.9051],[22.3858,59.9235]]],[[[21.7897,59.9315],[21.7553,59.916],[21.7614,59.9046],[21.7836,59.9118],[21.7953,59.9238],[21.7897,59.9315]]],[[[22.4508,59.9851],[22.4169,59.9746],[22.3925,59.9479],[22.4042,59.9235],[22.4236,59.9254],[22.4264,59.9518],[22.4364,59.9526],[22.4681,59.9768],[22.4508,59.9851]]],[[[22.3808,59.9449],[22.3736,59.9376],[22.3442,59.9276],[22.3608,59.919],[22.3825,59.936],[22.3808,59.9449]]],[[[22.3753,59.9965],[22.3475,59.9918],[22.3297,59.9493],[22.3408,59.9326],[22.3736,59.949],[22.3636,59.9882],[22.3753,59.9965]]],[[[22.4347,59.9952],[22.4158,60],[22.4103,59.9807],[22.4231,59.9807],[22.4347,59.9952]]],[[[21.6425,59.8346],[21.6247,59.8299],[21.6053,59.8338],[21.5836,59.8299],[21.5819,59.8157],[21.6097,59.8263],[21.6242,59.8238],[21.6425,59.8346]]],[[[21.5958,60.1854],[21.5661,60.1776],[21.5109,60.1516],[21.5005,60.1276],[21.5396,60.1083],[21.6,60.1104],[21.6333,60.0979],[21.6604,60.0938],[21.6818,60.0995],[21.6646,60.1083],[21.6703,60.1193],[21.662,60.1349],[21.6458,60.1458],[21.675,60.1479],[21.6911,60.1568],[21.6854,60.1792],[21.6437,60.1771],[21.6375,60.1813],[21.5958,60.1854]]],[[[21.6578,60.1974],[21.6375,60.2021],[21.6042,60.2021],[21.6193,60.188],[21.6354,60.1833],[21.6641,60.1859],[21.6578,60.1974]]],[[[21.6141,60.2589],[21.6057,60.2724],[21.5818,60.2724],[21.5786,60.2547],[21.5651,60.2474],[21.5589,60.2172],[21.5771,60.2229],[21.6036,60.2214],[21.6047,60.237],[21.6396,60.2542],[21.6141,60.2589]]],[[[21.4354,60.2375],[21.4172,60.237],[21.4063,60.2104],[21.4641,60.213],[21.4547,60.2234],[21.4589,60.2328],[21.4354,60.2375]]],[[[21.4245,60.2568],[21.4203,60.2641],[21.3625,60.2625],[21.35,60.25],[21.3167,60.25],[21.2979,60.2271],[21.2505,60.2224],[21.25,60.2125],[21.2734,60.212],[21.3312,60.1875],[21.362,60.187],[21.3979,60.1792],[21.4557,60.1943],[21.4682,60.2099],[21.4375,60.2062],[21.3896,60.2062],[21.3995,60.2245],[21.3714,60.2255],[21.3604,60.2396],[21.4042,60.2396],[21.4245,60.2568]]],[[[21.528,60.2354],[21.5536,60.2495],[21.5333,60.2542],[21.5125,60.2396],[21.528,60.2354]]],[[[21.4453,60.2755],[21.4516,60.2849],[21.3922,60.2849],[21.3896,60.2687],[21.4458,60.2708],[21.4453,60.2755]]],[[[21.5812,60.2938],[21.5542,60.3042],[21.5339,60.2995],[21.5214,60.288],[21.5547,60.2828],[21.5812,60.2938]]],[[[21.675,60.2917],[21.6542,60.2938],[21.6432,60.2818],[21.6828,60.2839],[21.675,60.2917]]],[[[21.6813,60.3604],[21.6396,60.3625],[21.6526,60.3464],[21.7161,60.3401],[21.712,60.3495],[21.6839,60.3547],[21.6813,60.3604]]],[[[21.3375,60.3875],[21.3146,60.3937],[21.2964,60.3693],[21.3234,60.3651],[21.3396,60.3521],[21.3672,60.3547],[21.3375,60.3875]]],[[[21.3505,60.4078],[21.3651,60.3839],[21.4036,60.3714],[21.4005,60.387],[21.4099,60.3953],[21.3625,60.4083],[21.3505,60.4078]]],[[[21.262,60.5807],[21.2313,60.5729],[21.2578,60.5641],[21.2443,60.5536],[21.275,60.55],[21.275,60.5271],[21.2526,60.5328],[21.238,60.512],[21.2891,60.5016],[21.2854,60.4896],[21.3396,60.4896],[21.3505,60.4974],[21.3193,60.5193],[21.3224,60.5391],[21.2995,60.562],[21.263,60.5734],[21.262,60.5807]]],[[[21.3859,60.5026],[21.3792,60.5146],[21.3625,60.5187],[21.35,60.5104],[21.3688,60.4958],[21.3859,60.5026]]],[[[21.4984,60.4943],[21.5099,60.5068],[21.5026,60.5161],[21.5349,60.5255],[21.5182,60.5453],[21.4813,60.5583],[21.4339,60.5568],[21.4214,60.563],[21.4229,60.5812],[21.4036,60.5911],[21.3526,60.6027],[21.3578,60.6245],[21.3417,60.6354],[21.3208,60.6333],[21.3089,60.6443],[21.3021,60.6667],[21.2646,60.65],[21.2521,60.6542],[21.2313,60.6437],[21.2349,60.6318],[21.2151,60.6266],[21.2255,60.6089],[21.2651,60.6047],[21.2938,60.5833],[21.3125,60.5833],[21.3193,60.5974],[21.3375,60.6021],[21.3661,60.5797],[21.3422,60.5724],[21.288,60.5755],[21.3172,60.5547],[21.3432,60.5516],[21.3339,60.5422],[21.3708,60.5292],[21.388,60.5151],[21.4349,60.4974],[21.4339,60.4859],[21.4771,60.4792],[21.4984,60.4943]]],[[[21.2146,60.6083],[21.2089,60.588],[21.2276,60.5859],[21.2286,60.6016],[21.2146,60.6083]]],[[[21.3078,60.7714],[21.2771,60.775],[21.2583,60.7667],[21.2833,60.7583],[21.3078,60.7714]]],[[[21.3599,60.762],[21.3375,60.7687],[21.3276,60.7609],[21.3521,60.7438],[21.3766,60.7484],[21.3599,60.762]]],[[[21.3167,60.8021],[21.2984,60.7943],[21.3375,60.7875],[21.3568,60.7953],[21.3396,60.8042],[21.3167,60.8021]]],[[[22.3819,59.8301],[22.3703,59.8263],[22.3769,59.8074],[22.3986,59.801],[22.4108,59.8229],[22.3819,59.8301]]],[[[22.5319,59.8996],[22.5142,59.9004],[22.4769,59.8901],[22.4675,59.8696],[22.4481,59.8737],[22.4342,59.8668],[22.3814,59.8601],[22.3736,59.846],[22.3958,59.8435],[22.4264,59.8513],[22.4603,59.8449],[22.4964,59.8513],[22.5092,59.866],[22.4969,59.8832],[22.5153,59.8832],[22.5331,59.8904],[22.5319,59.8996]]],[[[23.3924,59.8879],[23.3481,59.8804],[23.357,59.8665],[23.3997,59.8635],[23.4397,59.8818],[23.428,59.8868],[23.3924,59.8879]]],[[[23.3153,59.8932],[23.2908,59.8929],[23.2897,59.8821],[23.3142,59.8832],[23.3153,59.8932]]],[[[23.3597,59.9101],[23.3425,59.9093],[23.3436,59.8971],[23.3586,59.8896],[23.3953,59.8929],[23.4014,59.9004],[23.3642,59.9057],[23.3597,59.9101]]],[[[23.1158,59.9307],[23.0919,59.9321],[23.1025,59.9212],[23.1008,59.9137],[23.1103,59.8979],[23.1314,59.8974],[23.1269,59.9137],[23.1003,59.9254],[23.1158,59.9307]]],[[[22.9803,59.8996],[22.9536,59.8949],[22.9681,59.8865],[22.9803,59.8996]]],[[[22.5031,59.9538],[22.4936,59.9493],[22.5036,59.9229],[22.5219,59.9365],[22.5031,59.9538]]],[[[22.4636,59.9601],[22.4497,59.9549],[22.4597,59.9304],[22.4592,59.9163],[22.4892,59.9282],[22.4808,59.9407],[22.463,59.9451],[22.4636,59.9601]]],[[[23.8125,59.9435],[23.7475,59.9399],[23.7453,59.9263],[23.7869,59.9351],[23.8125,59.9435]]],[[[24.6042,60.0563],[24.6005,60.0682],[24.6516,60.1026],[24.6432,60.1203],[24.6172,60.1286],[24.638,60.1401],[24.6958,60.1271],[24.6859,60.1141],[24.7021,60.1063],[24.7266,60.113],[24.7396,60.125],[24.7026,60.1318],[24.7083,60.1417],[24.7292,60.15],[24.7479,60.1437],[24.7667,60.1542],[24.8016,60.1589],[24.8161,60.1714],[24.8411,60.1755],[24.825,60.1896],[24.8339,60.2057],[24.8443,60.2078],[24.8839,60.188],[24.9089,60.1818],[24.9141,60.1703],[24.9083,60.1521],[24.9562,60.1542],[24.9583,60.1771],[24.9964,60.187],[25.0141,60.1797],[25.0141,60.1672],[25.0521,60.1583],[25.0974,60.162],[25.0646,60.1729],[25.087,60.1859],[25.077,60.1979],[25.1167,60.1937],[25.1542,60.2021],[25.1766,60.1943],[25.1953,60.2172],[25.1839,60.2307],[25.2078,60.2339],[25.2188,60.2458],[25.237,60.2516],[25.3146,60.2542],[25.3234,60.2599],[25.375,60.2708],[25.3797,60.2557],[25.4104,60.2542],[25.4172,60.2318],[25.4354,60.225],[25.4974,60.2505],[25.5099,60.2609],[25.5151,60.2786],[25.537,60.2859],[25.5516,60.3026],[25.5484,60.3161],[25.5276,60.3255],[25.5333,60.3333],[25.5807,60.3359],[25.5786,60.3182],[25.5953,60.3214],[25.6047,60.3318],[25.6203,60.3318],[25.6214,60.3453],[25.6542,60.3688],[25.6599,60.3568],[25.6401,60.3505],[25.65,60.3312],[25.638,60.3068],[25.6557,60.2995],[25.6729,60.2771],[25.7141,60.2766],[25.7151,60.2651],[25.75,60.2479],[25.7938,60.2479],[25.7901,60.2641],[25.8292,60.2625],[25.8474,60.2672],[25.8417,60.2813],[25.8161,60.2776],[25.7818,60.2839],[25.762,60.3099],[25.7891,60.3016],[25.8021,60.2875],[25.8208,60.2854],[25.8578,60.2891],[25.8568,60.2734],[25.8708,60.2542],[25.8937,60.2438],[25.9224,60.2505],[25.9099,60.2786],[25.8859,60.2839],[25.8995,60.2964],[25.8974,60.3057],[25.8797,60.313],[25.8734,60.3286],[25.9161,60.3443],[25.9161,60.3557],[25.9042,60.3688],[25.8901,60.3734],[25.8729,60.3958],[25.8932,60.3974],[25.8984,60.3797],[25.9307,60.3682],[25.9583,60.3521],[25.9979,60.3458],[26.0224,60.3307],[26.0234,60.3161],[25.9943,60.3255],[25.9974,60.337],[25.9339,60.3557],[25.9255,60.3401],[25.9536,60.3182],[25.9417,60.3104],[25.9333,60.2813],[25.938,60.2693],[25.9693,60.2672],[25.9995,60.2693],[26.0229,60.2792],[26.0104,60.3021],[26.0458,60.3021],[26.0974,60.313],[26.112,60.3255],[26.1167,60.3396],[26.1307,60.3453],[26.1089,60.3578],[26.0979,60.3458],[26.0734,60.3464],[26.0411,60.3807],[26.0182,60.3932],[26.0432,60.413],[26.0214,60.4214],[26.0682,60.4297],[26.0849,60.4245],[26.088,60.4151],[26.1188,60.4042],[26.1547,60.3839],[26.1651,60.3714],[26.1875,60.3646],[26.2099,60.3693],[26.2047,60.3786],[26.2203,60.3932],[26.1734,60.4026],[26.1833,60.4104],[26.2438,60.3917],[26.2563,60.3979],[26.2521,60.4271],[26.2401,60.4432],[26.2516,60.4495],[26.2818,60.4214],[26.2974,60.4161],[26.2922,60.4026],[26.3151,60.3734],[26.3349,60.3734],[26.3391,60.3953],[26.3479,60.4021],[26.3813,60.4125],[26.4245,60.3911],[26.4188,60.375],[26.4,60.3833],[26.3839,60.3797],[26.3859,60.363],[26.4042,60.3563],[26.4396,60.3708],[26.4479,60.3583],[26.4917,60.3604],[26.5057,60.3557],[26.5125,60.3438],[26.5375,60.3438],[26.5411,60.3536],[26.5328,60.3682],[26.5021,60.3688],[26.463,60.3797],[26.438,60.3943],[26.4349,60.4036],[26.4141,60.4141],[26.4516,60.4193],[26.462,60.4401],[26.4474,60.4599],[26.4703,60.4828],[26.5026,60.4526],[26.5229,60.4458],[26.5391,60.4495],[26.5484,60.438],[26.5745,60.4245],[26.5557,60.4172],[26.5521,60.4083],[26.5078,60.4151],[26.5099,60.4036],[26.5255,60.388],[26.5443,60.3974],[26.5854,60.4104],[26.6563,60.4167],[26.6833,60.4354],[26.7078,60.4318],[26.7234,60.4516],[26.7432,60.4505],[26.7432,60.4755],[26.7729,60.4562],[26.7979,60.4562],[26.8104,60.4625],[26.8458,60.4625],[26.8484,60.4734],[26.8771,60.4708],[26.8917,60.4833],[26.913,60.4693],[26.9328,60.4693],[26.9474,60.4828],[26.9172,60.4901],[26.9349,60.4964],[26.9536,60.4891],[26.9849,60.4922],[26.9755,60.5099],[27.0083,60.5104],[27.0255,60.5297],[27.0604,60.5292],[27.0901,60.5359],[27.0943,60.5453],[27.1286,60.5286],[27.1339,60.5214],[27.1625,60.5187],[27.1745,60.537],[27.1714,60.5505],[27.1792,60.5604],[27.2057,60.5328],[27.1984,60.5172],[27.2578,60.5245],[27.2682,60.5182],[27.3026,60.5151],[27.3271,60.5062],[27.3521,60.5083],[27.3995,60.4911],[27.4224,60.4703],[27.4521,60.4729],[27.4771,60.4604],[27.4932,60.463],[27.4849,60.4745],[27.4568,60.4891],[27.4828,60.5005],[27.4938,60.5104],[27.5109,60.4922],[27.5354,60.4917],[27.5438,60.4958],[27.5917,60.4708],[27.588,60.4839],[27.6078,60.4891],[27.6188,60.4813],[27.6396,60.4938],[27.6729,60.4854],[27.6938,60.4938],[27.7167,60.4938],[27.7411,60.4859],[27.7432,60.5036],[27.7297,60.5109],[27.7313,60.5313],[27.7151,60.5422],[27.738,60.5807],[27.7703,60.5786],[27.7672,60.5693],[27.7776,60.5505],[27.8018,60.5494],[27.8402,60.553],[27.8483,60.5715],[27.8774,60.6017],[28.0087,60.6749],[28.1119,60.7332],[28.1456,60.742],[28.1746,60.7758],[28.1873,60.782],[28.2409,60.7868],[28.2493,60.7989],[28.3141,60.839],[28.3415,60.8629],[28.3599,60.8656],[28.4682,60.9249],[28.4821,60.9257],[28.5375,60.9584],[28.6018,60.9543],[28.6174,60.9579],[28.6568,60.9508],[28.6929,60.9802],[28.7076,61.0336],[28.7293,61.0551],[28.8195,61.0988],[28.8259,61.1219],[28.8404,61.1315],[28.8855,61.1443],[28.936,61.1456],[28.9541,61.1517],[28.9844,61.1771],[29.0146,61.1902],[29.1005,61.2162],[29.204,61.2581],[29.2456,61.2734],[29.2489,61.2849],[29.302,61.325],[29.3207,61.3328],[29.3262,61.3466],[29.3713,61.3753],[29.3937,61.3867],[29.5016,61.4533],[29.5058,61.4586],[29.5028,61.4885],[29.629,61.4977],[29.6507,61.5218],[29.7247,61.5636],[29.7473,61.5724],[29.7554,61.6018],[29.8106,61.6363],[29.8204,61.6521],[29.8465,61.6694],[29.8637,61.6715],[29.8679,61.6846],[29.9297,61.712],[29.9985,61.7458],[30.0507,61.7693],[30.0582,61.8015],[30.0798,61.8192],[30.15,61.8517],[30.2011,61.8838],[30.2023,61.8923],[30.2495,61.9157],[30.2733,61.9305],[30.3104,61.9385],[30.322,61.9513],[30.3143,61.9656],[30.3512,61.98],[30.4203,62.0244],[30.4616,62.0471],[30.472,62.0491],[30.5022,62.0791],[30.5414,62.109],[30.6119,62.1431],[30.6342,62.1701],[30.6406,62.1944],[30.6582,62.2059],[30.6853,62.2128],[30.7188,62.2129],[30.7768,62.2442],[30.7892,62.2569],[30.8109,62.2633],[30.8149,62.2748],[30.8423,62.2816],[30.891,62.3072],[30.9136,62.3122],[30.9398,62.3094],[30.9579,62.3166],[30.9644,62.3343],[30.9437,62.3389],[31.1011,62.4304],[31.1341,62.4455],[31.1627,62.4528],[31.1918,62.4953],[31.2298,62.5071],[31.3454,62.6385],[31.3746,62.6627],[31.3835,62.6877],[31.43,62.7722],[31.4394,62.7821],[31.4635,62.7879],[31.4588,62.8011],[31.5618,62.8905],[31.5775,62.9004],[31.5828,62.9137],[31.5542,62.9417],[31.5045,62.9986],[31.4561,63.0155],[31.4593,63.033],[31.415,63.0485],[31.3876,63.0549],[31.3658,63.077],[31.3188,63.0889],[31.279,63.113],[31.2586,63.1356],[31.259,63.1781],[31.2369,63.2088],[31.2395,63.219],[31.2193,63.2316],[31.1601,63.2475],[31.119,63.2739],[31.084,63.2882],[31.0365,63.3015],[31.0005,63.3084],[30.9677,63.3212],[30.9456,63.3509],[30.8515,63.3697],[30.8272,63.3871],[30.7844,63.4085],[30.7646,63.41],[30.5052,63.4619],[30.3927,63.5431],[30.2698,63.5839],[30.2455,63.6066],[30.113,63.6788],[30.0416,63.7113],[30.0027,63.7416],[29.981,63.7545],[30.029,63.767],[30.2332,63.8166],[30.2464,63.8248],[30.311,63.8889],[30.3211,63.9019],[30.4144,63.9631],[30.4532,63.9902],[30.476,63.9997],[30.5262,64.0491],[30.5511,64.1126],[30.5503,64.1259],[30.5086,64.1583],[30.4736,64.1966],[30.5132,64.2194],[30.485,64.2549],[30.3695,64.2772],[30.3637,64.2941],[30.3003,64.3148],[30.2631,64.3337],[30.1851,64.3499],[30.12,64.3592],[30.053,64.4043],[30.0677,64.4598],[30.035,64.4827],[30.0306,64.4986],[30.0144,64.5159],[30.0084,64.5571],[30.0216,64.593],[30.0748,64.6146],[30.1237,64.6276],[30.143,64.6528],[30.0571,64.7108],[30.0433,64.7279],[30.0498,64.7429],[30.0935,64.768],[30.0457,64.7922],[29.9358,64.7946],[29.8223,64.785],[29.7509,64.7896],[29.6841,64.8195],[29.6971,64.8352],[29.6649,64.855],[29.6421,64.8755],[29.6308,64.8948],[29.608,64.951],[29.5963,64.9899],[29.6265,65.0183],[29.6221,65.0374],[29.6257,65.0599],[29.7212,65.0856],[29.7338,65.0906],[29.7776,65.0924],[29.8408,65.0883],[29.8668,65.1002],[29.8901,65.1049],[29.8269,65.1383],[29.8295,65.1454],[29.8956,65.1946],[29.8776,65.2133],[29.7834,65.2248],[29.7109,65.2299],[29.6577,65.2277],[29.6095,65.2511],[29.6186,65.2734],[29.679,65.2957],[29.7686,65.3341],[29.7554,65.3513],[29.7445,65.3849],[29.742,65.4339],[29.748,65.4532],[29.742,65.4661],[29.7546,65.471],[29.7691,65.4974],[29.8761,65.5611],[29.8777,65.5652],[29.816,65.5854],[29.7821,65.5991],[29.7344,65.6279],[30.0066,65.6899],[30.0988,65.672],[30.1238,65.6749],[30.1278,65.7349],[30.1016,65.831],[30.0647,65.9134],[30.0417,65.941],[30.0325,65.9672],[30.0201,65.9727],[29.9841,66.0161],[29.9879,66.0228],[29.9728,66.0429],[29.9168,66.1293],[29.7059,66.265],[29.6699,66.292],[29.662,66.3096],[29.6085,66.3982],[29.4807,66.5376],[29.4135,66.5872],[29.3772,66.6062],[29.3546,66.6358],[29.3076,66.6703],[29.1626,66.7703],[29.0863,66.8243],[29.0827,66.8384],[29.0495,66.8727],[29.0297,66.9166],[29.031,66.9441],[29.0536,66.978],[29.1043,67.0106],[29.1374,67.036],[29.3685,67.1804],[29.5402,67.2877],[29.5399,67.3031],[29.5903,67.3151],[29.5981,67.331],[29.6459,67.3328],[29.6426,67.354],[29.7047,67.3912],[29.7877,67.4362],[29.9592,67.5173],[29.9901,67.594],[30.0181,67.632],[30.0359,67.6741],[30.0273,67.6824],[29.9558,67.7026],[29.6945,67.7937],[29.6116,67.8581],[29.5737,67.8777],[29.492,67.9467],[29.4633,67.9647],[29.418,68.0062],[29.3361,68.0735],[29.1877,68.1027],[28.6598,68.1951],[28.5648,68.355],[28.4504,68.5477],[28.568,68.6255],[28.7161,68.7377],[28.8035,68.8749],[28.7664,68.8807],[28.6759,68.8871],[28.5816,68.8897],[28.5208,68.8836],[28.4916,68.885],[28.4347,68.9084],[28.5949,68.9569],[28.9248,69.0567],[28.9151,69.0643],[28.846,69.0814],[28.8247,69.0915],[28.8283,69.1004],[28.8052,69.1061],[28.8374,69.1864],[28.8249,69.187],[28.8429,69.2316],[28.8858,69.2431],[28.8894,69.252],[28.9217,69.2686],[28.9486,69.2719],[28.9685,69.2891],[28.9954,69.2923],[28.9991,69.3012],[29.0315,69.3178],[29.0585,69.321],[29.0785,69.3382],[29.1055,69.3414],[29.1418,69.3668],[29.1688,69.37],[29.189,69.3872],[29.216,69.3904],[29.2217,69.4038],[29.2766,69.4419],[29.2893,69.4413],[29.326,69.4667],[29.3356,69.489],[29.3123,69.4947],[29.3161,69.5037],[29.2808,69.5419],[29.2574,69.5476],[29.222,69.5859],[29.2169,69.6043],[29.1934,69.6101],[29.1972,69.619],[29.1705,69.6476],[29.1634,69.6616],[29.1418,69.6718],[29.1385,69.6947],[29.042,69.7132],[28.9909,69.7157],[28.9563,69.7265],[28.9051,69.729],[28.8832,69.7391],[28.7735,69.758],[28.735,69.7599],[28.6617,69.7724],[28.6635,69.7769],[28.4431,69.8144],[28.4045,69.8162],[28.349,69.8414],[28.325,69.847],[28.3414,69.8554],[28.3519,69.8822],[28.3038,69.8934],[28.2651,69.8952],[28.2427,69.9053],[28.1945,69.9165],[28.1687,69.9176],[28.0901,69.9529],[28.0806,69.9624],[28.0243,69.9875],[28.0277,69.9965],[27.9809,70.0121],[27.9764,70.035],[27.9848,70.0574],[27.969,70.0853],[27.9576,70.0903],[27.9021,70.0836],[27.863,70.0853],[27.8336,70.0774],[27.7945,70.079],[27.7374,70.0678],[27.7113,70.0689],[27.7016,70.0784],[27.6739,70.075],[27.6217,70.0771],[27.5761,70.0608],[27.5485,70.0574],[27.5356,70.0216],[27.4836,70.0237],[27.43,70.0213],[27.4008,70.0133],[27.3815,69.996],[27.3524,69.988],[27.3005,69.9901],[27.2813,69.9727],[27.3011,69.9538],[27.2202,69.9478],[27.2041,69.9394],[27.1785,69.9404],[27.1622,69.9319],[27.1233,69.9334],[27.1044,69.916],[27.0525,69.918],[27.0237,69.91],[27.0152,69.9239],[26.9807,69.9388],[26.9288,69.9408],[26.9129,69.9323],[26.874,69.9337],[26.851,69.9437],[26.8568,69.9616],[26.8294,69.958],[26.7774,69.96],[26.7616,69.9515],[26.7068,69.9444],[26.6865,69.9632],[26.6202,69.9611],[26.5654,69.9539],[26.5497,69.9454],[26.4977,69.9473],[26.4547,69.9352],[26.4479,69.9127],[26.4192,69.9047],[26.4084,69.8688],[26.3914,69.8558],[26.2916,69.8275],[26.276,69.819],[26.2502,69.8199],[26.2423,69.7929],[26.2268,69.7844],[26.1855,69.7767],[26.1804,69.7588],[26.1533,69.7552],[26.1494,69.7417],[26.1224,69.7381],[26.1199,69.7291],[26.0813,69.7304],[26.0659,69.7218],[26.0016,69.724],[25.9837,69.7064],[25.9568,69.7028],[25.9377,69.6807],[25.8968,69.673],[25.8931,69.6596],[25.9431,69.6534],[25.965,69.6391],[25.9477,69.5763],[25.9324,69.5678],[25.8765,69.5515],[25.8498,69.5478],[25.8831,69.5286],[25.868,69.5201],[25.8631,69.5021],[25.8468,69.4891],[25.871,69.4838],[25.8686,69.4748],[25.8419,69.4711],[25.8244,69.4536],[25.8196,69.4356],[25.8033,69.4226],[25.8378,69.4079],[25.8306,69.381],[25.8131,69.3634],[25.7854,69.3553],[25.7819,69.3418],[25.7645,69.3243],[25.7381,69.3206],[25.7472,69.3067],[25.7389,69.2753],[25.7091,69.2582],[25.7009,69.2268],[25.7135,69.2264],[25.703,69.186],[25.7121,69.1721],[25.7348,69.1624],[25.7439,69.1485],[25.7253,69.0767],[25.7378,69.0763],[25.7581,69.0576],[25.7511,69.0307],[25.776,69.0299],[25.7691,69.003],[25.7147,68.9866],[25.7066,68.9552],[25.6896,68.9377],[25.6614,68.925],[25.6568,68.9071],[25.6309,68.9034],[25.6275,68.8899],[25.5769,68.887],[25.5273,68.8885],[25.5171,68.8979],[25.4687,68.9039],[25.4541,68.8953],[25.4034,68.8923],[25.2969,68.8639],[25.2947,68.8549],[25.2421,68.8429],[25.2379,68.8249],[25.2121,68.8212],[25.2101,68.8122],[25.1576,68.8002],[25.1432,68.7916],[25.1238,68.7063],[25.1115,68.7066],[25.1044,68.6752],[25.1167,68.6748],[25.1116,68.6524],[25.08,68.6217],[25.0188,68.6234],[25.0168,68.6144],[24.9555,68.6162],[24.9169,68.6083],[24.9052,68.5544],[24.8573,68.5602],[24.8592,68.5692],[24.8386,68.5878],[24.8264,68.5882],[24.8057,68.6068],[24.8085,68.6203],[24.7878,68.6389],[24.7397,68.6447],[24.7293,68.654],[24.6812,68.6598],[24.6707,68.6691],[24.6225,68.6749],[24.6121,68.6842],[24.4189,68.7072],[24.3574,68.7087],[24.309,68.7144],[24.2491,68.7249],[24.2385,68.7342],[24.2041,68.7486],[24.1556,68.7542],[24.1622,68.7902],[24.1111,68.7823],[24.0617,68.7835],[24.0518,68.7972],[24.0048,68.8118],[24.0064,68.8208],[23.9708,68.8307],[23.8966,68.8323],[23.8602,68.8376],[23.8463,68.8289],[23.8215,68.8294],[23.7697,68.817],[23.7652,68.79],[23.7529,68.7903],[23.7491,68.7678],[23.7368,68.768],[23.7331,68.7456],[23.7069,68.7371],[23.7047,68.7236],[23.6772,68.7061],[23.6518,68.7021],[23.5903,68.7034],[23.5396,68.6954],[23.478,68.6966],[23.4151,68.6888],[23.4015,68.6801],[23.3503,68.6675],[23.3257,68.668],[23.3121,68.6592],[23.2875,68.6597],[23.261,68.6466],[23.2364,68.6471],[23.2229,68.6383],[23.1983,68.6387],[23.1848,68.63],[23.1369,68.6399],[23.1258,68.6491],[23.0908,68.6632],[23.0687,68.6816],[23.0453,68.6911],[23.02,68.687],[22.8354,68.69],[22.7979,68.6861],[22.7744,68.6955],[22.7257,68.7008],[22.7144,68.71],[22.6662,68.7197],[22.6415,68.7201],[22.6179,68.7295],[22.5454,68.744],[22.4704,68.7361],[22.457,68.7272],[22.4067,68.7189],[22.3697,68.7194],[22.3726,68.7464],[22.3602,68.7466],[22.3635,68.7781],[22.3512,68.7783],[22.3544,68.8098],[22.3439,68.8279],[22.3201,68.8373],[22.321,68.8463],[22.2967,68.8511],[22.2976,68.8601],[22.2732,68.8649],[22.2741,68.8739],[22.2498,68.8787],[22.2507,68.8877],[22.2263,68.8926],[22.2156,68.9107],[22.1912,68.9155],[22.1805,68.9337],[22.1827,68.9562],[22.1466,68.9702],[22.1474,68.9792],[22.1229,68.984],[22.1238,68.993],[22.0992,68.9978],[22.0884,69.0159],[22.0639,69.0207],[22.0647,69.0297],[22.0401,69.0345],[22.0409,69.0435],[22.0163,69.0483],[22.0171,69.0573],[21.9925,69.0621],[21.9933,69.0711],[21.9686,69.0759],[21.9694,69.0849],[21.9447,69.0897],[21.9455,69.0987],[21.8725,69.1265],[21.8733,69.1355],[21.8364,69.1449],[21.8371,69.1539],[21.8123,69.1587],[21.8131,69.1677],[21.7883,69.1724],[21.789,69.1814],[21.7642,69.1862],[21.7649,69.1952],[21.74,69.1999],[21.7407,69.2089],[21.7159,69.2137],[21.7166,69.2227],[21.6927,69.2409],[21.6678,69.2457],[21.6565,69.2638],[21.6316,69.2685],[21.6323,69.2775],[21.5444,69.2873],[21.3934,69.3021],[21.3427,69.3025],[21.2672,69.312],[21.2156,69.2943],[21.19,69.29],[21.1513,69.2767],[21.1001,69.2635],[21.061,69.2412],[20.9971,69.2236],[20.9953,69.183],[21.0072,69.1694],[21.032,69.1603],[21.0314,69.1468],[21.0561,69.1376],[21.0552,69.1196],[21.1048,69.1058],[21.0914,69.0878],[21.0905,69.0698],[21.0639,69.0384],[21.014,69.0432],[21.0019,69.0523],[20.9769,69.0524],[20.9648,69.0615],[20.9397,69.0617],[20.9275,69.0707],[20.9025,69.0709],[20.8903,69.0799],[20.8652,69.0801],[20.853,69.0891],[20.828,69.0892],[20.8157,69.0983],[20.7906,69.0984],[20.7784,69.1075],[20.7533,69.1076],[20.7286,69.1212],[20.6907,69.1124],[20.6273,69.09],[20.6145,69.0811],[20.564,69.0677],[20.5636,69.0542],[20.5887,69.0541],[20.6133,69.0405],[20.6382,69.0359],[20.7384,69.0356],[20.7757,69.0309],[20.8129,69.0217],[20.8126,69.0127],[20.8374,69.0081],[20.8493,68.99],[20.8865,68.9853],[20.9233,68.9671],[20.9223,68.9446],[20.9095,68.9357],[20.8721,68.9358],[20.8714,68.9178],[20.9082,68.9041],[20.9077,68.8906],[20.9576,68.8949],[20.9943,68.8811],[21.0442,68.8854],[21.0558,68.8673],[21.0806,68.8671],[21.1538,68.8396],[21.1657,68.8305],[21.2265,68.8076],[21.2512,68.8074],[21.2871,68.7846],[21.2863,68.7711],[21.3226,68.7573],[21.3968,68.7568],[21.4089,68.7522],[21.4074,68.7297],[21.4198,68.7296],[21.4178,68.698],[21.4293,68.6844],[21.4539,68.6842],[21.49,68.6704],[21.5885,68.6696],[21.6001,68.6605],[21.6247,68.6602],[21.673,68.6463],[21.6723,68.6373],[21.6965,68.6325],[21.7075,68.6144],[21.7055,68.5874],[21.7296,68.5826],[21.8768,68.5811],[21.9009,68.5764],[21.9958,68.5393],[22.0179,68.512],[22.0281,68.4893],[22.0635,68.4754],[22.1367,68.4745],[22.1481,68.4654],[22.1847,68.4649],[22.1977,68.4738],[22.2217,68.469],[22.2587,68.473],[22.3075,68.4724],[22.3446,68.4764],[22.3685,68.4715],[22.3653,68.44],[22.4159,68.4574],[22.4403,68.457],[22.4871,68.4384],[22.5231,68.4333],[22.5465,68.424],[22.583,68.4234],[22.582,68.4144],[22.6565,68.4269],[22.655,68.4134],[22.7015,68.3946],[22.7375,68.3895],[22.7485,68.3804],[22.7971,68.3797],[22.8341,68.3835],[22.8578,68.3786],[22.855,68.3561],[22.8898,68.342],[22.9256,68.3369],[22.9244,68.3279],[22.9844,68.3224],[23.0311,68.3081],[23.042,68.2989],[23.0783,68.2982],[23.0892,68.289],[23.0856,68.262],[23.1092,68.2571],[23.1195,68.2434],[23.1671,68.238],[23.1549,68.1481],[23.1645,68.1299],[23.1999,68.1247],[23.2258,68.1378],[23.2498,68.1373],[23.2631,68.1461],[23.3112,68.1452],[23.3333,68.1312],[23.3314,68.1177],[23.3541,68.1083],[23.3641,68.0945],[23.3622,68.081],[23.3823,68.0536],[23.4055,68.0486],[23.4042,68.0397],[23.4853,68.02],[23.484,68.011],[23.5437,68.0098],[23.555,68.0051],[23.5516,67.9826],[23.5747,67.9776],[23.5846,67.9639],[23.6323,67.9629],[23.6667,67.9531],[23.6765,67.9394],[23.6737,67.9214],[23.6478,67.9084],[23.61,67.8957],[23.6087,67.8867],[23.5611,67.8877],[23.536,67.8792],[23.5096,67.8617],[23.5056,67.8347],[23.4937,67.835],[23.4877,67.7945],[23.5101,67.785],[23.4955,67.6862],[23.5073,67.6859],[23.5027,67.6545],[23.536,67.6403],[23.5568,67.6218],[23.5488,67.5679],[23.5234,67.5549],[23.4765,67.5558],[23.4862,67.5421],[23.483,67.5197],[23.4589,67.5156],[23.4446,67.4979],[23.4076,67.4851],[23.4057,67.4716],[23.4265,67.4532],[23.4719,67.4433],[23.5186,67.4423],[23.5433,67.4508],[23.5776,67.4455],[23.6243,67.4445],[23.6579,67.4348],[23.7395,67.433],[23.7731,67.4232],[23.7696,67.4008],[23.7442,67.3878],[23.7407,67.3654],[23.7524,67.3651],[23.7489,67.3426],[23.783,67.3374],[23.7795,67.3149],[23.7549,67.3064],[23.7515,67.284],[23.7378,67.2708],[23.6799,67.272],[23.6554,67.2636],[23.6206,67.2643],[23.5717,67.2474],[23.5664,67.2114],[23.5895,67.2109],[23.5997,67.2017],[23.5964,67.1792],[23.572,67.1707],[23.5694,67.1528],[23.5796,67.1435],[23.6128,67.1338],[23.6115,67.1248],[23.6447,67.1151],[23.6535,67.0968],[23.6759,67.0919],[23.6732,67.0739],[23.6921,67.0464],[23.7252,67.0367],[23.7339,67.0184],[23.7561,67.0134],[23.7649,66.9952],[23.7985,66.9899],[23.8079,66.9762],[23.8301,66.9712],[23.8387,66.9529],[23.8716,66.9432],[23.8809,66.9294],[23.8774,66.907],[23.8995,66.9019],[23.8981,66.893],[23.9522,66.8736],[23.9501,66.8602],[23.9799,66.8324],[23.9913,66.8321],[24.0111,66.8136],[23.9969,66.7959],[23.9933,66.7735],[23.9592,66.7743],[23.9493,66.7836],[23.9266,66.7841],[23.9223,66.7572],[23.8997,66.7577],[23.8947,66.7263],[23.916,66.7168],[23.9125,66.6943],[23.9011,66.6946],[23.8955,66.6586],[23.8842,66.6589],[23.8794,66.6275],[23.8906,66.6272],[23.8795,66.5554],[23.8318,66.5385],[23.8086,66.5345],[23.8045,66.5076],[23.7695,66.4994],[23.7338,66.4867],[23.7193,66.4645],[23.685,66.4608],[23.6613,66.4523],[23.6548,66.4074],[23.666,66.4071],[23.6857,66.3887],[23.6811,66.3572],[23.67,66.3575],[23.6596,66.2856],[23.6767,66.2492],[23.6976,66.2397],[23.7048,66.2125],[23.7368,66.2028],[23.7348,66.1893],[23.8001,66.1788],[23.8417,66.1598],[23.8742,66.1545],[23.9296,66.1531],[23.94,66.1484],[23.9345,66.1125],[23.9455,66.1122],[23.94,66.0763],[23.9711,66.062],[23.969,66.0485],[24,66.0342],[24.0082,66.016],[24.0501,66.0014],[24.0424,65.952],[24.0835,65.933],[24.0821,65.924],[24.1143,65.9187],[24.1107,65.8962],[24.1319,65.8912],[24.1298,65.8777],[24.1386,65.864],[24.159,65.8544],[24.154,65.823],[24.1599,65.8047],[24.1396,65.7854],[24.1536,65.7599],[24.1771,65.7625],[24.1938,65.775],[24.2104,65.7688],[24.2349,65.7714],[24.2234,65.7839],[24.2354,65.7958],[24.2651,65.7963],[24.3104,65.7917],[24.3437,65.7917],[24.4083,65.7729],[24.4604,65.7729],[24.4917,65.7792],[24.5516,65.7984],[24.5484,65.8057],[24.5766,65.8297],[24.5693,65.8453],[24.6047,65.8536],[24.5859,65.8307],[24.5911,65.8193],[24.5828,65.8047],[24.563,65.7995],[24.5411,65.7839],[24.5146,65.7813],[24.4917,65.7688],[24.4568,65.7682],[24.4547,65.7505],[24.4917,65.7438],[24.5542,65.7417],[24.5964,65.713],[24.6229,65.7125],[24.6557,65.6911],[24.6089,65.6922],[24.6443,65.6776],[24.6745,65.6578],[24.6589,65.6401],[24.7021,65.6292],[24.7182,65.6339],[24.7464,65.6641],[24.7703,65.6641],[24.7938,65.65],[24.8104,65.6667],[24.8271,65.6604],[24.8729,65.6667],[24.9016,65.6578],[24.9005,65.6443],[24.9417,65.6312],[24.9771,65.6333],[25.0146,65.6188],[25.0083,65.6125],[25.0391,65.6057],[25.0667,65.6062],[25.0849,65.5943],[25.0839,65.5714],[25.1063,65.5729],[25.1182,65.562],[25.175,65.5667],[25.2047,65.5578],[25.2089,65.5443],[25.2578,65.5245],[25.2609,65.5109],[25.2849,65.5016],[25.2818,65.4901],[25.3193,65.4776],[25.3495,65.4589],[25.3234,65.4505],[25.3589,65.4297],[25.3271,65.4271],[25.3286,65.4109],[25.3021,65.4],[25.2875,65.4083],[25.2609,65.4078],[25.2609,65.3922],[25.275,65.3688],[25.2953,65.362],[25.2526,65.3505],[25.2792,65.3375],[25.2417,65.3354],[25.2526,65.3151],[25.2766,65.3099],[25.3125,65.2854],[25.2958,65.2854],[25.2651,65.2724],[25.3167,65.2667],[25.3005,65.2443],[25.3411,65.237],[25.3396,65.2312],[25.2958,65.2333],[25.2849,65.2193],[25.3104,65.1917],[25.263,65.1974],[25.2807,65.1839],[25.2687,65.1729],[25.2292,65.1708],[25.237,65.1339],[25.3063,65.1208],[25.3307,65.112],[25.3375,65.1],[25.2922,65.0974],[25.2964,65.0859],[25.3266,65.0828],[25.3474,65.0922],[25.3625,65.1062],[25.3807,65.0974],[25.3891,65.0849],[25.3922,65.0568],[25.4141,65.0453],[25.4141,65.0234],[25.3943,65.0068],[25.4203,65.0036],[25.4151,64.9922],[25.487,64.9703],[25.4828,64.9547],[25.4604,64.9479],[25.4151,64.9505],[25.4036,64.962],[25.3568,64.9714],[25.3333,64.9875],[25.3063,64.9896],[25.225,65.0021],[25.1938,64.9812],[25.2089,64.9568],[25.2234,64.9443],[25.2724,64.9307],[25.2797,64.9213],[25.3224,64.912],[25.3333,64.9042],[25.3583,64.9104],[25.387,64.8974],[25.3661,64.8734],[25.3266,64.838],[25.3083,64.8292],[25.2901,64.8453],[25.2974,64.8599],[25.2521,64.8729],[25.2208,64.8729],[25.2005,64.8797],[25.2078,64.8953],[25.1854,64.9042],[25.1437,64.9],[25.1266,64.9182],[25.0875,64.9208],[25.0646,64.9104],[25.0208,64.9104],[25.0021,64.9146],[24.9526,64.9026],[24.962,64.8922],[24.9354,64.8812],[24.9125,64.8854],[24.812,64.8839],[24.7917,64.875],[24.7458,64.875],[24.7146,64.8646],[24.6938,64.8625],[24.6932,64.8505],[24.6714,64.8391],[24.6724,64.813],[24.6443,64.8089],[24.6495,64.8307],[24.6146,64.8333],[24.5583,64.8187],[24.5464,64.8026],[24.5661,64.7995],[24.5807,64.7828],[24.5641,64.7641],[24.5609,64.7443],[24.5682,64.7359],[24.5557,64.7234],[24.5005,64.7099],[24.4932,64.6964],[24.4729,64.7],[24.4557,64.6922],[24.462,64.6839],[24.4458,64.6729],[24.4151,64.6703],[24.4109,64.663],[24.4292,64.6542],[24.4286,64.6359],[24.3943,64.6245],[24.3745,64.5974],[24.3786,64.5797],[24.3589,64.5745],[24.375,64.5542],[24.3661,64.5443],[24.3312,64.5292],[24.2896,64.525],[24.2766,64.5359],[24.2464,64.5349],[24.2755,64.5068],[24.2297,64.4995],[24.2193,64.4891],[24.1943,64.4807],[24.1932,64.4693],[24.1708,64.4563],[24.1562,64.4583],[24.1203,64.4422],[24.0891,64.4391],[24.0995,64.4245],[24.0932,64.4172],[24.0667,64.4104],[24.0349,64.4109],[23.9839,64.3682],[23.9786,64.3526],[23.9438,64.3396],[23.9297,64.3391],[23.913,64.3266],[23.9161,64.2901],[23.8875,64.2854],[23.8474,64.2839],[23.8245,64.2672],[23.8328,64.2547],[23.8141,64.2401],[23.7854,64.2333],[23.7542,64.2208],[23.7083,64.225],[23.6839,64.2161],[23.7182,64.1953],[23.7161,64.1818],[23.6755,64.162],[23.662,64.1443],[23.6437,64.1375],[23.6271,64.1167],[23.5938,64.125],[23.5839,64.1151],[23.5974,64.0964],[23.6328,64.0724],[23.612,64.0463],[23.5875,64.0563],[23.5687,64.0417],[23.5021,64.0563],[23.4875,64.0542],[23.4589,64.063],[23.4599,64.0703],[23.4375,64.0813],[23.4125,64.0854],[23.3974,64.0693],[23.3755,64.0557],[23.3755,64.0318],[23.3911,64.0224],[23.3849,64.0047],[23.3953,63.9818],[23.3729,63.9688],[23.4016,63.9495],[23.4036,63.9401],[23.3693,63.9286],[23.3563,63.9146],[23.3161,63.9391],[23.2859,63.9359],[23.3161,63.9224],[23.2917,63.9104],[23.2667,63.9167],[23.2396,63.9104],[23.2026,63.9099],[23.1589,63.9141],[23.1313,63.8875],[23.1167,63.8583],[23.1005,63.8599],[23.0896,63.8792],[23.0771,63.8812],[23.0297,63.8661],[23.0391,63.8609],[23.0151,63.8484],[23.0432,63.8359],[23.0182,63.812],[22.9958,63.8021],[22.9854,63.8167],[22.9542,63.825],[22.9661,63.8474],[22.9578,63.8724],[22.9401,63.8776],[22.9411,63.887],[22.9021,63.9],[22.8708,63.8979],[22.8411,63.9036],[22.8193,63.8984],[22.8328,63.8693],[22.8604,63.8667],[22.8833,63.8583],[22.8859,63.8464],[22.8484,63.8401],[22.8333,63.8563],[22.8125,63.8521],[22.7958,63.8583],[22.8021,63.8375],[22.7292,63.8458],[22.6958,63.8354],[22.687,63.8172],[22.6354,63.8083],[22.5911,63.8099],[22.5953,63.7797],[22.5797,63.7589],[22.6172,63.7464],[22.6307,63.7536],[22.6193,63.762],[22.6375,63.7729],[22.6526,63.7734],[22.6974,63.7495],[22.7062,63.725],[22.7474,63.7182],[22.7432,63.7109],[22.6979,63.7188],[22.6849,63.6995],[22.6693,63.7047],[22.6276,63.7005],[22.6453,63.7141],[22.6167,63.7229],[22.6141,63.7026],[22.5943,63.6724],[22.5646,63.675],[22.5464,63.6703],[22.5234,63.6536],[22.513,63.6339],[22.5224,63.6245],[22.5026,63.6203],[22.4854,63.6063],[22.4276,63.6036],[22.4396,63.5896],[22.4562,63.5958],[22.4688,63.5812],[22.487,63.5839],[22.4984,63.5974],[22.5167,63.5979],[22.4974,63.5734],[22.4755,63.5745],[22.463,63.5661],[22.4828,63.5495],[22.4682,63.5234],[22.4505,63.5078],[22.4474,63.4922],[22.4182,63.4849],[22.4068,63.4922],[22.3974,63.5141],[22.3818,63.5214],[22.3828,63.5349],[22.3953,63.5391],[22.3672,63.5505],[22.3807,63.5609],[22.3766,63.5766],[22.3417,63.5792],[22.3255,63.5641],[22.3328,63.5547],[22.313,63.5474],[22.3078,63.5339],[22.2896,63.5229],[22.2984,63.5026],[22.3203,63.4911],[22.2583,63.4792],[22.2125,63.4813],[22.2047,63.4547],[22.2328,63.4391],[22.2359,63.4297],[22.2875,63.4083],[22.2964,63.3922],[22.3208,63.3812],[22.3354,63.3812],[22.3641,63.3641],[22.3807,63.3495],[22.3911,63.3297],[22.3708,63.3271],[22.3599,63.3161],[22.3703,63.2922],[22.3375,63.2938],[22.3057,63.312],[22.2589,63.2974],[22.2359,63.2974],[22.2536,63.3151],[22.2359,63.3224],[22.2391,63.3328],[22.2188,63.3417],[22.212,63.3214],[22.1688,63.3229],[22.1083,63.3354],[22.0849,63.3255],[22.0609,63.3234],[22.0797,63.3047],[22.0932,63.2995],[22.0708,63.2896],[22.0557,63.312],[22.0307,63.3286],[21.9979,63.3312],[21.9734,63.3016],[21.9672,63.2859],[22.0062,63.2667],[22.0292,63.2813],[22.0521,63.2854],[22.0724,63.2807],[22.0792,63.2646],[22.1146,63.2562],[22.1542,63.2562],[22.1672,63.2734],[22.2083,63.2729],[22.2016,63.2609],[22.1839,63.2557],[22.1771,63.2438],[22.1375,63.2458],[22.1307,63.2401],[22.0995,63.2411],[22.0932,63.2536],[22.0234,63.2505],[21.9901,63.2547],[21.9771,63.2667],[21.9604,63.2542],[21.9214,63.2557],[21.9328,63.2651],[21.9083,63.2792],[21.8859,63.2703],[21.8813,63.2604],[21.8521,63.2667],[21.8312,63.2562],[21.8047,63.2651],[21.788,63.263],[21.7724,63.2505],[21.7526,63.2474],[21.7318,63.2255],[21.7,63.2375],[21.6792,63.2125],[21.6458,63.2229],[21.6146,63.2271],[21.5797,63.2568],[21.5828,63.2682],[21.5688,63.2771],[21.5484,63.2724],[21.5484,63.2526],[21.5578,63.2464],[21.5286,63.2318],[21.5167,63.2042],[21.5375,63.1979],[21.5313,63.1875],[21.5083,63.1771],[21.5203,63.1661],[21.5286,63.1401],[21.5208,63.1354],[21.5568,63.1276],[21.5901,63.1161],[21.5839,63.1068],[21.6208,63.0812],[21.6536,63.0724],[21.6437,63.0583],[21.5964,63.0568],[21.5797,63.0693],[21.5521,63.0812],[21.5193,63.0703],[21.5167,63.0563],[21.4922,63.0589],[21.475,63.0729],[21.4672,63.0557],[21.4661,63.0234],[21.4313,63.0292],[21.4458,63.0458],[21.438,63.0526],[21.4536,63.0693],[21.4375,63.0833],[21.3818,63.0849],[21.3854,63.075],[21.4125,63.0667],[21.3984,63.0568],[21.412,63.0505],[21.4,63.0417],[21.3312,63.0396],[21.3896,63.0167],[21.3703,63.0078],[21.3255,63.012],[21.325,63],[21.3391,63.0016],[21.3625,62.9917],[21.4313,62.9875],[21.4141,63.0036],[21.4297,63.0182],[21.4542,63.0167],[21.4953,63.0005],[21.4708,62.9938],[21.4734,62.9818],[21.487,62.9714],[21.4359,62.9578],[21.4271,62.9458],[21.4328,62.9339],[21.4172,62.912],[21.3891,62.8953],[21.363,62.8891],[21.3786,62.8797],[21.3583,62.8729],[21.2896,62.8937],[21.2521,62.8875],[21.2641,62.8776],[21.2599,62.8672],[21.2417,62.8542],[21.2479,62.85],[21.237,62.8297],[21.2047,62.8141],[21.1938,62.8042],[21.1708,62.8146],[21.1359,62.8078],[21.125,62.7875],[21.1276,62.7714],[21.15,62.7479],[21.1786,62.7495],[21.1641,62.7214],[21.1464,62.7161],[21.1474,62.7047],[21.1104,62.6937],[21.0922,62.7016],[21.0818,62.6891],[21.1021,62.6833],[21.0646,62.6646],[21.087,62.6578],[21.087,62.638],[21.063,62.6172],[21.1,62.6063],[21.1109,62.6266],[21.1411,62.6391],[21.1422,62.6203],[21.2036,62.612],[21.2005,62.6016],[21.1682,62.5755],[21.1526,62.5724],[21.1505,62.5484],[21.1167,62.55],[21.1,62.5417],[21.0818,62.5411],[21.1016,62.5641],[21.087,62.5745],[21.0646,62.5792],[21.0547,62.5557],[21.0547,62.5401],[21.0714,62.5318],[21.1083,62.5333],[21.1125,62.525],[21.1536,62.5286],[21.1292,62.4896],[21.1396,62.4729],[21.1932,62.4661],[21.1672,62.4255],[21.1938,62.4271],[21.2224,62.4401],[21.2432,62.438],[21.2234,62.4161],[21.2339,62.3984],[21.2667,62.3854],[21.2833,62.3875],[21.3036,62.3786],[21.2964,62.3682],[21.3104,62.35],[21.3276,62.3682],[21.3479,62.375],[21.3641,62.3693],[21.3542,62.3479],[21.3557,62.3318],[21.3458,62.325],[21.3125,62.3312],[21.3026,62.3203],[21.3089,62.3089],[21.3333,62.2958],[21.3391,62.263],[21.3234,62.2599],[21.3234,62.2464],[21.362,62.2536],[21.3609,62.2641],[21.3828,62.2641],[21.3849,62.2464],[21.3771,62.2292],[21.4141,62.2193],[21.4005,62.2026],[21.3776,62.1974],[21.3583,62.1708],[21.363,62.138],[21.3182,62.1411],[21.313,62.1255],[21.3229,62.1146],[21.325,62.0854],[21.3109,62.063],[21.3161,62.0547],[21.2958,62.025],[21.3016,62.0193],[21.287,61.9943],[21.3188,61.9958],[21.3271,61.9896],[21.3182,61.9672],[21.3521,61.9417],[21.4109,61.9495],[21.4005,61.9401],[21.4349,61.9266],[21.437,61.9172],[21.4214,61.9078],[21.4641,61.887],[21.4724,61.8724],[21.463,61.8568],[21.4849,61.8474],[21.4703,61.8391],[21.5036,61.8224],[21.4932,61.8089],[21.4771,61.8042],[21.4562,61.8104],[21.4411,61.8036],[21.4547,61.7839],[21.475,61.7708],[21.5,61.7667],[21.5536,61.7516],[21.5724,61.7391],[21.5359,61.7109],[21.5318,61.6901],[21.5484,61.6776],[21.5604,61.6604],[21.5932,61.6495],[21.5901,61.6422],[21.6109,61.6172],[21.6557,61.5828],[21.6313,61.5771],[21.5875,61.5729],[21.5443,61.5839],[21.5349,61.5974],[21.5,61.6021],[21.4901,61.5828],[21.4901,61.5672],[21.5161,61.5703],[21.5234,61.5464],[21.5396,61.5292],[21.5859,61.5297],[21.6208,61.5146],[21.6083,61.5062],[21.5729,61.4958],[21.5042,61.5104],[21.4771,61.5104],[21.4833,61.4938],[21.5172,61.4797],[21.5354,61.4813],[21.5578,61.4724],[21.5974,61.4422],[21.5849,61.4297],[21.5625,61.425],[21.5333,61.4271],[21.4917,61.4375],[21.4646,61.4375],[21.4583,61.425],[21.5063,61.4125],[21.5313,61.4021],[21.5354,61.3771],[21.5146,61.3708],[21.5396,61.3542],[21.5661,61.3474],[21.5422,61.3286],[21.5474,61.3234],[21.4943,61.3036],[21.5141,61.2953],[21.5208,61.2833],[21.4896,61.2813],[21.4943,61.263],[21.5234,61.2505],[21.5417,61.25],[21.5938,61.2313],[21.5734,61.2214],[21.5417,61.2333],[21.4917,61.2479],[21.4417,61.25],[21.4234,61.2422],[21.4297,61.2339],[21.4583,61.2354],[21.4911,61.2245],[21.4771,61.2125],[21.4557,61.2224],[21.4318,61.2109],[21.4026,61.2078],[21.4391,61.1932],[21.4557,61.1724],[21.4422,61.163],[21.462,61.1557],[21.4688,61.1354],[21.4557,61.1266],[21.4484,61.1005],[21.4703,61.0911],[21.4167,61.0833],[21.4307,61.0661],[21.4208,61.0458],[21.4026,61.0547],[21.3063,61.0875],[21.3005,61.0734],[21.3068,61.0589],[21.3359,61.0453],[21.3214,61.0359],[21.3479,61.0271],[21.3651,60.9984],[21.4057,60.9766],[21.4026,60.9651],[21.4286,60.9599],[21.4411,60.9474],[21.4318,60.9318],[21.4453,60.9193],[21.4354,60.9146],[21.4016,60.9391],[21.3891,60.9536],[21.3724,60.9536],[21.3516,60.9661],[21.3224,60.9932],[21.3021,61.0042],[21.2807,60.9943],[21.263,60.9932],[21.2547,60.9755],[21.2875,60.9708],[21.3203,60.9578],[21.3026,60.9453],[21.3182,60.9297],[21.2479,60.925],[21.2229,60.9146],[21.2109,60.9099],[21.2276,60.8943],[21.1797,60.8891],[21.1771,60.8688],[21.188,60.8547],[21.2104,60.8438],[21.225,60.8438],[21.2474,60.8172],[21.25,60.8063],[21.2708,60.8021],[21.3453,60.8151],[21.3354,60.8271],[21.3109,60.8214],[21.3167,60.8396],[21.2979,60.8396],[21.262,60.8505],[21.2479,60.8458],[21.2255,60.862],[21.2568,60.8693],[21.2667,60.8646],[21.2708,60.8646],[21.2609,60.8797],[21.2687,60.8896],[21.2979,60.8875],[21.3083,60.8979],[21.3979,60.8979],[21.4214,60.8911],[21.4125,60.8812],[21.3896,60.8875],[21.3604,60.8875],[21.3083,60.8667],[21.3417,60.8646],[21.3464,60.8557],[21.3359,60.8443],[21.3578,60.8411],[21.3505,60.8234],[21.375,60.8271],[21.3901,60.8172],[21.3755,60.8036],[21.3818,60.7859],[21.3958,60.7813],[21.3693,60.7682],[21.3786,60.7599],[21.3891,60.7359],[21.3453,60.7068],[21.3401,60.6859],[21.3583,60.675],[21.4245,60.6495],[21.4229,60.6417],[21.3964,60.6339],[21.4109,60.6193],[21.4505,60.5901],[21.5,60.5771],[21.5151,60.5839],[21.5333,60.5625],[21.5224,60.5578],[21.5318,60.5401],[21.5464,60.5297],[21.5464,60.5182],[21.5833,60.4938],[21.6063,60.4938],[21.6411,60.5068],[21.6536,60.5151],[21.6693,60.5432],[21.6828,60.5578],[21.6734,60.5682],[21.6854,60.5854],[21.7208,60.5917],[21.7375,60.5896],[21.7703,60.5984],[21.7776,60.6099],[21.8016,60.6193],[21.8109,60.6286],[21.8396,60.6333],[21.8411,60.6172],[21.8276,60.6078],[21.813,60.5734],[21.813,60.5589],[21.8224,60.5505],[21.8109,60.5391],[21.812,60.5276],[21.8005,60.5182],[21.8036,60.5089],[21.7734,60.5005],[21.8036,60.5411],[21.7563,60.5563],[21.7354,60.5292],[21.7234,60.5286],[21.7026,60.5109],[21.7042,60.4875],[21.6922,60.4745],[21.6964,60.463],[21.7245,60.463],[21.7375,60.4854],[21.7604,60.4729],[21.7813,60.4938],[21.8104,60.4896],[21.8214,60.4995],[21.8661,60.4911],[21.8214,60.487],[21.7984,60.463],[21.8167,60.4479],[21.788,60.4474],[21.7896,60.4313],[21.8292,60.4167],[21.7984,60.4141],[21.8083,60.3896],[21.8229,60.375],[21.8354,60.3667],[21.8333,60.3563],[21.8688,60.3542],[21.9292,60.3458],[21.9646,60.3458],[21.9792,60.3396],[22.0271,60.3417],[22.0495,60.3547],[22.0349,60.3661],[22.0089,60.3755],[21.9953,60.3995],[21.9745,60.4068],[21.9557,60.4286],[21.9443,60.4297],[21.913,60.463],[21.9182,60.4682],[21.8911,60.5036],[21.8755,60.5161],[21.8693,60.5318],[21.8734,60.5443],[21.9068,60.5422],[21.913,60.5276],[21.9255,60.5203],[21.9542,60.5167],[21.9526,60.5089],[21.9771,60.5042],[21.9859,60.4901],[22.0187,60.4896],[22.0333,60.475],[21.9995,60.4682],[21.9625,60.4792],[21.9286,60.4818],[21.9276,60.4609],[21.9401,60.4484],[21.9786,60.4391],[21.9938,60.4229],[22.0625,60.425],[22.0745,60.4422],[22.037,60.4495],[22.025,60.4604],[22.0661,60.4557],[22.0896,60.4458],[22.1078,60.4484],[22.1396,60.4396],[22.0901,60.4266],[22.1099,60.413],[22.1542,60.425],[22.1464,60.4047],[22.175,60.3854],[22.2292,60.3854],[22.2479,60.3771],[22.2807,60.3849],[22.3125,60.3854],[22.3141,60.3714],[22.35,60.3646],[22.3896,60.375],[22.4542,60.3812],[22.4708,60.3896],[22.5042,60.3833],[22.5583,60.3833],[22.5938,60.3771],[22.5932,60.3547],[22.563,60.3536],[22.5536,60.3276],[22.5276,60.3161],[22.4693,60.2807],[22.4708,60.2583],[22.5057,60.2547],[22.5187,60.2625],[22.5578,60.2693],[22.5682,60.2589],[22.5464,60.2484],[22.5583,60.2375],[22.5318,60.2286],[22.5271,60.2125],[22.5625,60.2146],[22.6208,60.2354],[22.6917,60.2438],[22.7208,60.2438],[22.7604,60.2542],[22.7917,60.2562],[22.8661,60.288],[22.863,60.2953],[22.8792,60.3063],[22.9396,60.3167],[22.9625,60.3229],[23.0063,60.3271],[23.0057,60.3141],[22.9943,60.3036],[23.0021,60.2875],[22.9797,60.287],[22.9766,60.2714],[22.9609,60.2724],[22.9464,60.2599],[22.9474,60.2485],[22.9182,60.2318],[22.8839,60.2057],[22.8625,60.2104],[22.8953,60.2234],[22.9047,60.2516],[22.9313,60.2562],[22.9505,60.2766],[22.9682,60.2839],[22.9849,60.3005],[22.9786,60.312],[22.95,60.3146],[22.913,60.3057],[22.9026,60.2932],[22.9057,60.2839],[22.8724,60.2672],[22.8641,60.2422],[22.8458,60.2375],[22.7813,60.2354],[22.7042,60.2354],[22.6458,60.2292],[22.6125,60.2292],[22.5625,60.2083],[22.5104,60.2062],[22.4953,60.213],[22.5057,60.2276],[22.4932,60.237],[22.4693,60.237],[22.4547,60.2224],[22.462,60.2026],[22.413,60.1786],[22.4229,60.1583],[22.4417,60.1646],[22.5104,60.1583],[22.5208,60.1625],[22.5458,60.1563],[22.525,60.1479],[22.4937,60.1479],[22.4703,60.1401],[22.4396,60.1375],[22.4297,60.1234],[22.4708,60.1042],[22.4417,60.1],[22.4229,60.1104],[22.4047,60.1057],[22.3974,60.0943],[22.3651,60.0911],[22.3703,60.0734],[22.363,60.0609],[22.3776,60.038],[22.3797,60.0109],[22.3917,60.0021],[22.4328,60.0193],[22.45,60],[22.462,60.012],[22.4953,60.0141],[22.5521,60.0313],[22.5917,60.0208],[22.6125,60.0292],[22.6255,60.0078],[22.6505,60.0141],[22.6608,59.9935],[22.6786,59.991],[22.6938,60.0062],[22.725,60.0167],[22.7411,60.0141],[22.7589,60.0234],[22.7786,60.0172],[22.7891,60.0276],[22.7745,60.0432],[22.7807,60.0505],[22.7708,60.0667],[22.7797,60.0786],[22.8391,60.0943],[22.8625,60.1292],[22.8688,60.1292],[22.8568,60.1401],[22.8724,60.1495],[22.8547,60.1568],[22.8495,60.1703],[22.8714,60.1703],[22.8755,60.1568],[22.9036,60.1495],[22.9026,60.1422],[22.9417,60.1333],[22.9661,60.1328],[22.9771,60.1167],[23.0057,60.1151],[23.0318,60.1182],[23.0307,60.1057],[23.0167,60.0979],[23.0182,60.0859],[22.9859,60.0807],[22.9901,60.0693],[23.0042,60.0625],[23.0375,60.0687],[23.0625,60.0438],[23.1036,60.0401],[23.1109,60.0578],[23.1313,60.0667],[23.1526,60.0641],[23.1536,60.0526],[23.1193,60.0453],[23.1146,60.0146],[23.0958,60.0167],[23.1021,60.0375],[23.0521,60.0417],[23.0229,60.0479],[22.9896,60.0333],[23.0078,60.0182],[23.0109,60.0026],[23.0264,59.9954],[22.9742,59.9771],[22.9519,59.9924],[22.9119,59.9926],[22.9108,59.9771],[22.8781,59.9801],[22.8497,59.9743],[22.8347,59.9946],[22.8354,60.0187],[22.8109,60.0161],[22.8198,60],[22.8131,59.9807],[22.8303,59.9649],[22.8592,59.9599],[22.8692,59.9496],[22.8575,59.9421],[22.8875,59.9151],[22.9258,59.9135],[22.9597,59.9021],[22.9992,59.9243],[23.0253,59.9221],[23.0231,59.9118],[23.0686,59.9232],[23.0703,59.9401],[23.0886,59.9507],[23.0942,59.9621],[23.0742,59.9649],[23.0708,59.9754],[23.0553,59.9843],[23.1021,60.0062],[23.1188,60.0021],[23.1064,59.9835],[23.0964,59.9562],[23.0981,59.9443],[23.1231,59.941],[23.1364,59.9504],[23.1358,59.9637],[23.1536,59.9668],[23.1647,59.9579],[23.1553,59.946],[23.1814,59.9465],[23.1814,59.974],[23.1981,59.9746],[23.2153,59.9551],[23.1747,59.9407],[23.1431,59.9388],[23.1492,59.9193],[23.1625,59.9124],[23.1686,59.8915],[23.1547,59.8863],[23.1019,59.8874],[23.0792,59.8935],[23.0642,59.8899],[23.0669,59.8713],[23.0475,59.8654],[23.0253,59.8662],[22.9814,59.846],[22.9353,59.846],[22.9014,59.8213],[22.9297,59.8238],[22.9636,59.8179],[22.9875,59.8201],[22.9908,59.8274],[23.0392,59.8213],[23.0886,59.8282],[23.1247,59.8262],[23.1686,59.8363],[23.1892,59.8332],[23.2314,59.8482],[23.2236,59.8913],[23.2964,59.9082],[23.3153,59.9218],[23.3469,59.9321],[23.3697,59.9354],[23.3831,59.9432],[23.4042,59.9799],[23.4242,59.9829],[23.4481,59.9949],[23.4724,60.0255],[23.4651,60.0495],[23.4875,60.0479],[23.4984,60.062],[23.5125,60.0667],[23.5266,60.0839],[23.5443,60.0849],[23.5333,60.0646],[23.5432,60.0453],[23.5187,60.0354],[23.4943,60.0328],[23.4776,60.0161],[23.4891,60.0026],[23.4603,59.999],[23.4592,59.9888],[23.4414,59.9868],[23.4225,59.9674],[23.4497,59.9643],[23.4714,59.9693],[23.4775,59.9801],[23.5108,59.9835],[23.5008,59.9721],[23.4608,59.9646],[23.4497,59.9535],[23.4303,59.9482],[23.4181,59.9546],[23.3603,59.931],[23.3542,59.9171],[23.4353,59.9162],[23.4613,59.9236],[23.5027,59.9281],[23.5142,59.9349],[23.5897,59.9343],[23.6164,59.941],[23.6375,59.9343],[23.7369,59.9404],[23.7458,59.9574],[23.7792,59.9663],[23.8053,59.9674],[23.8392,59.9738],[23.8181,59.9515],[23.8397,59.9426],[23.8803,59.9432],[23.8903,59.9504],[23.9169,59.9501],[23.9303,59.9551],[23.9469,59.9707],[23.9708,59.9738],[23.9747,59.9876],[23.9419,59.986],[23.9303,59.9926],[23.9516,60.0026],[23.9667,60.0187],[23.9938,60.0292],[24.0146,60.0458],[24.0318,60.0255],[24.0917,60.0229],[24.1146,60.0271],[24.1193,60.0391],[24.1391,60.0432],[24.1563,60.0271],[24.1979,60.0271],[24.1958,60.0396],[24.1792,60.0417],[24.163,60.0516],[24.1714,60.0578],[24.2062,60.0583],[24.25,60.0417],[24.2745,60.0443],[24.2693,60.0557],[24.3063,60.0563],[24.3229,60.0604],[24.2943,60.0766],[24.3312,60.0771],[24.3458,60.0896],[24.3688,60.0833],[24.3786,60.0609],[24.3609,60.0495],[24.3641,60.0359],[24.3443,60.0307],[24.3255,60.0182],[24.3214,60.0057],[24.3474,60.0089],[24.3484,60.0266],[24.3667,60.0271],[24.3854,60.0167],[24.4078,60.0214],[24.4276,60.037],[24.4568,60.0266],[24.437,60.0109],[24.4172,60.0016],[24.4142,59.9896],[24.3897,59.9779],[24.3936,59.9685],[24.4147,59.9604],[24.4447,59.9846],[24.4653,59.9901],[24.5003,59.9879],[24.4958,59.9991],[24.5141,60.0068],[24.5109,60.0203],[24.5474,60.0297],[24.538,60.0411],[24.575,60.05],[24.5875,60.0458],[24.6042,60.0563]]],[[[25.0797,60.1484],[25.0536,60.1557],[25.0318,60.1474],[25.0297,60.138],[25.0521,60.1375],[25.0797,60.1484]]],[[[24.3714,59.9971],[24.3425,60],[24.3503,59.9882],[24.3714,59.9971]]],[[[25.8901,60.2214],[25.8755,60.2276],[25.8396,60.2313],[25.812,60.2026],[25.8312,60.1958],[25.8417,60.2021],[25.9005,60.213],[25.8901,60.2214]]],[[[25.6849,60.212],[25.6729,60.2313],[25.6583,60.2167],[25.6849,60.212]]],[[[25.2516,60.2318],[25.2234,60.2328],[25.2172,60.2234],[25.25,60.2188],[25.2516,60.2318]]],[[[25.6109,60.2995],[25.6042,60.3146],[25.5776,60.3036],[25.5734,60.2828],[25.5771,60.2667],[25.5964,60.2422],[25.6187,60.2313],[25.5964,60.2266],[25.6125,60.2125],[25.6297,60.2151],[25.638,60.2266],[25.6641,60.2318],[25.6703,60.2578],[25.6516,60.2724],[25.6109,60.288],[25.6109,60.2995]]],[[[26.1333,60.2917],[26.125,60.3104],[26.0984,60.3078],[26.0943,60.2964],[26.1068,60.2818],[26.1328,60.2776],[26.1333,60.2917]]],[[[26.7849,60.3578],[26.7604,60.3708],[26.7443,60.3641],[26.7505,60.3547],[26.775,60.3458],[26.7849,60.3578]]],[[[26.2026,60.3443],[26.1807,60.3391],[26.1979,60.3187],[26.2313,60.3187],[26.238,60.3297],[26.2026,60.3443]]],[[[27.0542,60.4021],[27.0187,60.4083],[27.0172,60.3964],[27.038,60.3755],[27.0661,60.3755],[27.0661,60.387],[27.0542,60.4021]]],[[[27.0474,60.4403],[27.0109,60.4516],[27.0057,60.4401],[26.988,60.4339],[27.0089,60.4172],[27.0349,60.4255],[27.0474,60.4403]]],[[[26.9063,60.4583],[26.8729,60.4667],[26.8568,60.4568],[26.862,60.4505],[26.85,60.4354],[26.9083,60.4313],[26.9182,60.4422],[26.9063,60.4583]]],[[[26.9417,60.4479],[26.9641,60.4682],[26.9458,60.4729],[26.9214,60.4599],[26.9417,60.4479]]],[[[27.4042,60.4625],[27.3672,60.4724],[27.3807,60.4557],[27.3958,60.4479],[27.412,60.4505],[27.4042,60.4625]]],[[[27.375,60.4875],[27.3521,60.4979],[27.3417,60.4896],[27.375,60.4875]]],[[[21.7953,59.979],[21.7775,59.9712],[21.7447,59.966],[21.7408,59.949],[21.7481,59.9415],[21.7792,59.9535],[21.7953,59.979]]],[[[22.0062,60.1333],[22.0021,60.1458],[21.9604,60.1354],[21.9458,60.1354],[21.9068,60.1172],[21.9854,60.1104],[22.012,60.1172],[22.0062,60.1333]]],[[[22.1036,60.212],[22.0932,60.2203],[22.0484,60.2161],[22.0146,60.2],[21.9708,60.1979],[21.9562,60.1854],[21.9151,60.1724],[21.9401,60.1672],[21.962,60.1578],[21.9839,60.1568],[22.0021,60.1479],[22.0438,60.1542],[22.0667,60.1646],[22.0641,60.1786],[22.0521,60.1833],[22.1036,60.1984],[22.1036,60.212]]],[[[22.2807,60.1443],[22.2828,60.1599],[22.2547,60.1557],[22.2474,60.1401],[22.2583,60.1333],[22.2807,60.1443]]],[[[22.1161,60.1359],[22.1349,60.1443],[22.1349,60.1578],[22.113,60.1557],[22.1,60.1417],[22.1161,60.1359]]],[[[22.1479,60.1896],[22.1297,60.1932],[22.113,60.1797],[22.0688,60.1833],[22.0714,60.1755],[22.1021,60.1667],[22.1479,60.1896]]],[[[22.2271,60.3771],[22.2166,60.3813],[22.1354,60.3812],[22.1167,60.3729],[22.1208,60.3583],[22.1495,60.3589],[22.1661,60.3536],[22.1729,60.3417],[22.2042,60.3417],[22.2375,60.35],[22.2917,60.3542],[22.3057,60.3589],[22.3016,60.3745],[22.2271,60.3771]]],[[[21.9958,60.2083],[21.9896,60.2146],[21.9375,60.2125],[21.9557,60.2026],[21.9958,60.2083]]],[[[22.0729,60.2313],[22.087,60.2495],[22.0484,60.2474],[22.0547,60.2318],[22.0729,60.2313]]],[[[21.8839,60.2068],[21.8813,60.2208],[21.8438,60.2188],[21.8271,60.2146],[21.7813,60.2146],[21.7786,60.2078],[21.7505,60.2099],[21.7266,60.1984],[21.712,60.1599],[21.7182,60.1495],[21.7021,60.1312],[21.7604,60.125],[21.7813,60.1271],[21.8042,60.1208],[21.8208,60.1229],[21.8417,60.1146],[21.8813,60.125],[21.8849,60.1339],[21.9229,60.1542],[21.8974,60.1589],[21.8917,60.1688],[21.8443,60.1495],[21.8582,60.1687],[21.8917,60.1708],[21.9057,60.1786],[21.9313,60.1813],[21.9307,60.1932],[21.9089,60.1943],[21.8839,60.2068]]],[[[21.9667,60.3104],[21.9188,60.3146],[21.9083,60.3083],[21.8813,60.3083],[21.8797,60.2901],[21.9208,60.2771],[21.95,60.2771],[21.9708,60.2833],[21.9917,60.2833],[21.9828,60.3078],[21.9667,60.3104]]],[[[22.0208,60.3312],[21.9979,60.3354],[21.9646,60.3333],[21.9542,60.3187],[22.0042,60.3083],[22.0271,60.3104],[22.0365,60.3247],[22.0208,60.3312]]],[[[21.7099,60.4401],[21.6938,60.45],[21.6818,60.4401],[21.6922,60.4172],[21.7109,60.4068],[21.7245,60.412],[21.7099,60.4401]]],[[[22.0641,60.4099],[22.0276,60.4099],[22.0255,60.4005],[22.0625,60.4],[22.0641,60.4099]]],[[[21.6396,60.425],[21.6453,60.4453],[21.6224,60.4484],[21.6047,60.4266],[21.6172,60.4141],[21.6396,60.425]]],[[[21.6734,60.4682],[21.6703,60.4766],[21.65,60.4792],[21.6422,60.463],[21.6568,60.4599],[21.6734,60.4682]]],[[[21.4,60.425],[21.3807,60.4339],[21.3589,60.4203],[21.3589,60.4109],[21.3911,60.4172],[21.4,60.425]]],[[[21.437,60.4161],[21.412,60.4172],[21.4151,60.4005],[21.4333,60.4],[21.437,60.4161]]],[[[21.5458,60.5062],[21.5234,60.5089],[21.5193,60.4943],[21.5583,60.4854],[21.5766,60.4922],[21.5458,60.5062]]],[[[21.7542,60.575],[21.737,60.5755],[21.7255,60.5547],[21.7453,60.5547],[21.7542,60.575]]],[[[21.4984,61.6432],[21.4792,61.6458],[21.4646,61.6375],[21.475,61.6208],[21.512,61.6193],[21.513,61.6266],[21.55,61.6271],[21.5458,61.6354],[21.5208,61.6354],[21.4984,61.6432]]],[[[21.3958,61.2062],[21.3854,61.2167],[21.3646,61.2146],[21.3703,61.2047],[21.3599,61.1964],[21.3359,61.1922],[21.3563,61.1729],[21.3813,61.1813],[21.412,61.1839],[21.3958,61.1937],[21.3958,61.2062]]],[[[21.2484,62.3766],[21.237,62.3932],[21.2255,62.3932],[21.2172,62.3766],[21.2151,62.3484],[21.2453,62.3526],[21.2521,62.3625],[21.2484,62.3766]]],[[[21.2078,62.4036],[21.2141,62.412],[21.1922,62.4245],[21.188,62.4057],[21.1953,62.3964],[21.1724,62.3839],[21.1953,62.3776],[21.2161,62.3828],[21.2078,62.4036]]],[[[21.5896,63.0875],[21.5734,63.0995],[21.5563,63.0896],[21.5667,63.0812],[21.5896,63.0875]]],[[[21.5208,63.1354],[21.5021,63.1396],[21.4922,63.1286],[21.5099,63.1203],[21.5208,63.1354]]],[[[22.3953,63.6182],[22.3651,63.6266],[22.3526,63.6089],[22.3974,63.5964],[22.4057,63.6047],[22.3953,63.6182]]],[[[22.0245,63.3859],[22.0109,63.3922],[21.9672,63.3661],[21.9464,63.3359],[21.9604,63.3333],[21.9979,63.35],[22.0276,63.3401],[22.0568,63.3536],[22.0932,63.3651],[22.0995,63.3797],[22.0875,63.3875],[22.0542,63.3917],[22.0245,63.3859]]],[[[21.7099,63.3193],[21.6609,63.3224],[21.6391,63.2943],[21.6339,63.2672],[21.65,63.2562],[21.6745,63.2609],[21.6693,63.2849],[21.6896,63.2958],[21.713,63.2984],[21.7339,63.2776],[21.7563,63.2729],[21.7771,63.275],[21.7786,63.2891],[21.7521,63.3104],[21.7167,63.3125],[21.7099,63.3193]]],[[[21.7505,63.4464],[21.725,63.4521],[21.7109,63.4443],[21.7479,63.4375],[21.7505,63.4464]]],[[[21.8167,63.45],[21.7974,63.4432],[21.7901,63.4297],[21.8146,63.4313],[21.8167,63.45]]],[[[21.4125,62.9604],[21.3896,62.9688],[21.3646,62.9562],[21.3505,62.9401],[21.3609,62.9297],[21.4016,62.9234],[21.4182,62.9339],[21.4057,62.9432],[21.4125,62.9604]]],[[[21.0828,62.7411],[21.0604,62.7458],[21.0484,62.7172],[21.075,62.7062],[21.0932,62.7245],[21.0828,62.7411]]],[[[21.2417,62.8542],[21.2328,62.862],[21.2083,62.8625],[21.1896,62.8688],[21.1297,62.862],[21.1286,62.8505],[21.1063,62.8458],[21.1042,62.8292],[21.1479,62.8292],[21.2188,62.8375],[21.2417,62.8542]]],[[[21.2016,62.9203],[21.1854,62.9313],[21.1672,62.9151],[21.2057,62.8891],[21.2047,62.8776],[21.2266,62.8724],[21.2411,62.8849],[21.2318,62.8974],[21.2411,62.9047],[21.2167,62.9104],[21.2016,62.9203]]],[[[21.1669,63.0033],[21.1422,63.0078],[21.1271,63.0042],[21.1401,62.9776],[21.1411,62.9568],[21.1625,62.9437],[21.1786,62.9443],[21.1833,62.9562],[21.2151,62.9547],[21.2089,62.9786],[21.1958,62.9896],[21.1669,63.0033]]],[[[21.2568,63.0005],[21.2318,62.9995],[21.2214,62.9901],[21.2417,62.9833],[21.2568,63.0005]]],[[[21.213,63.0099],[21.1911,63.0172],[21.1646,63.0167],[21.2,62.9938],[21.2286,63.0005],[21.213,63.0099]]],[[[21.3896,63.0542],[21.3729,63.0625],[21.3557,63.0557],[21.3667,63.0479],[21.3896,63.0542]]],[[[21.0839,63.4339],[21.0568,63.4349],[21.0604,63.4167],[21.0891,63.4224],[21.0839,63.4339]]],[[[21.2339,63.3589],[21.262,63.3859],[21.2542,63.3979],[21.2229,63.3937],[21.188,63.3786],[21.2109,63.3589],[21.1792,63.3542],[21.1578,63.3349],[21.1193,63.3182],[21.1286,63.3109],[21.0859,63.3036],[21.0995,63.2911],[21.0859,63.2839],[21.0818,63.2714],[21.1026,63.2568],[21.1307,63.2474],[21.1401,63.2318],[21.1422,63.2089],[21.1688,63.1854],[21.2255,63.1901],[21.2297,63.1714],[21.2687,63.1583],[21.3,63.1583],[21.3214,63.1641],[21.3328,63.1745],[21.338,63.1932],[21.3786,63.2057],[21.3729,63.1875],[21.413,63.2016],[21.45,63.2042],[21.4578,63.2109],[21.4422,63.2214],[21.4453,63.2516],[21.4214,63.2672],[21.3854,63.2813],[21.3682,63.2714],[21.338,63.2682],[21.3188,63.2562],[21.2807,63.2609],[21.2724,63.2422],[21.2563,63.2354],[21.2328,63.2391],[21.2193,63.2641],[21.2484,63.2849],[21.2766,63.2984],[21.2703,63.3099],[21.2438,63.3208],[21.2208,63.3229],[21.1797,63.2995],[21.1813,63.2833],[21.1375,63.2813],[21.1188,63.2896],[21.1703,63.3005],[21.1729,63.3104],[21.1995,63.3266],[21.1922,63.3349],[21.2307,63.3443],[21.2339,63.3589]]],[[[21.3604,63.3688],[21.3167,63.3708],[21.2974,63.3589],[21.2516,63.3526],[21.2438,63.3312],[21.2807,63.3307],[21.2776,63.3109],[21.2938,63.3083],[21.3312,63.3208],[21.3453,63.3182],[21.3339,63.2922],[21.3563,63.2896],[21.3714,63.3078],[21.3974,63.3172],[21.3922,63.3276],[21.4172,63.3495],[21.4125,63.3646],[21.3604,63.3688]]],[[[22.6153,59.9954],[22.5986,59.9951],[22.6003,59.9712],[22.5869,59.9571],[22.6347,59.9362],[22.6575,59.9471],[22.6486,59.9546],[22.6403,59.9763],[22.6153,59.9954]]],[[[22.5358,59.9885],[22.5003,59.9888],[22.5008,59.9629],[22.5297,59.946],[22.5419,59.9543],[22.5692,59.9571],[22.5864,59.979],[22.5569,59.9912],[22.5358,59.9885]]],[[[22.7454,60.0007],[22.7208,60.0104],[22.7164,59.9968],[22.7336,59.9921],[22.7454,60.0007]]],[[[23.6264,59.9371],[23.6108,59.931],[23.5442,59.9321],[23.4692,59.9212],[23.4608,59.9129],[23.3953,59.9132],[23.4114,59.8999],[23.4764,59.8904],[23.5197,59.8901],[23.5419,59.9007],[23.5458,59.9165],[23.5636,59.9221],[23.5858,59.9115],[23.6064,59.9182],[23.6281,59.9188],[23.6497,59.906],[23.6642,59.9093],[23.6731,59.9207],[23.7081,59.9271],[23.7208,59.9357],[23.6436,59.9324],[23.6264,59.9371]]],[[[22.9745,60.037],[22.9479,60.05],[22.9255,60.0411],[22.9286,60.0245],[22.9245,60.0078],[22.9745,60.037]]],[[[22.9313,60.0646],[22.9068,60.0703],[22.8813,60.0687],[22.8526,60.0578],[22.8891,60.0453],[22.8792,60.0375],[22.8583,60.0458],[22.8589,60.0068],[22.8745,60.0047],[22.8859,60.0328],[22.9161,60.0401],[22.9313,60.0646]]],[[[22.9557,60.1224],[22.9083,60.1229],[22.8922,60.1203],[22.8672,60.1036],[22.8651,60.088],[22.8937,60.0771],[22.9318,60.0859],[22.9578,60.0839],[22.9682,60.0922],[22.9661,60.1078],[22.9557,60.1224]]],[[[22.25,60.1688],[22.2313,60.1792],[22.2026,60.1766],[22.1958,60.1667],[22.225,60.1625],[22.25,60.1688]]],[[[22.387,60.2026],[22.3708,60.2062],[22.3375,60.2021],[22.3089,60.1911],[22.2917,60.1667],[22.2896,60.1458],[22.3042,60.1312],[22.3349,60.1443],[22.3396,60.1688],[22.3661,60.1714],[22.3766,60.1797],[22.387,60.2026]]],[[[22.3724,60.2266],[22.3542,60.2313],[22.3234,60.2266],[22.3068,60.2141],[22.3104,60.2042],[22.3333,60.2062],[22.3724,60.2266]]],[[[22.4333,60.3625],[22.4188,60.375],[22.3854,60.3667],[22.3359,60.362],[22.3391,60.3526],[22.3193,60.3495],[22.312,60.3339],[22.3208,60.325],[22.2984,60.3182],[22.263,60.3318],[22.2313,60.3271],[22.1792,60.3333],[22.1646,60.3292],[22.1083,60.3271],[22.088,60.2859],[22.1026,60.2776],[22.1729,60.2687],[22.1479,60.2625],[22.1146,60.2646],[22.1099,60.2516],[22.1375,60.2458],[22.1563,60.2292],[22.1786,60.2411],[22.187,60.2339],[22.1734,60.2193],[22.2021,60.2188],[22.1974,60.2036],[22.2167,60.1875],[22.2646,60.2],[22.2807,60.2005],[22.288,60.212],[22.3036,60.2151],[22.3276,60.237],[22.3833,60.2438],[22.4203,60.2505],[22.4266,60.2651],[22.4453,60.2755],[22.4516,60.2911],[22.4682,60.2964],[22.463,60.3141],[22.4964,60.3307],[22.5161,60.3359],[22.5224,60.3443],[22.4625,60.3438],[22.4109,60.3589],[22.4333,60.3625]]],[[[22.5328,60.3786],[22.5104,60.3792],[22.4562,60.375],[22.4422,60.3682],[22.4396,60.3542],[22.4979,60.3542],[22.5026,60.3641],[22.5328,60.3786]]],[[[24.9464,65.0349],[24.9708,65.0312],[25.0208,65.0312],[25.062,65.0432],[25.0292,65.0583],[24.9792,65.0563],[24.9542,65.0625],[24.9,65.0625],[24.8839,65.0682],[24.8932,65.0787],[24.8563,65.0938],[24.8229,65.0958],[24.7625,65.0833],[24.6938,65.0833],[24.638,65.0807],[24.5859,65.0557],[24.5807,65.0443],[24.5583,65.0417],[24.563,65.0255],[24.5745,65.0224],[24.5734,65.0047],[24.6161,64.987],[24.6234,64.9714],[24.65,64.9604],[24.7042,64.9604],[24.7333,64.975],[24.738,64.9589],[24.762,64.9537],[24.7583,64.9354],[24.7792,64.9354],[24.7943,64.9453],[24.8125,64.9458],[24.85,64.9625],[24.8807,64.9693],[24.8693,64.9891],[24.8828,64.9995],[24.8661,65.0182],[24.8474,65.0307],[24.8172,65.038],[24.8375,65.0542],[24.8542,65.0479],[24.8958,65.0479],[24.9188,65.0333],[24.9464,65.0349]]],[[[25.2271,65.1062],[25.2021,65.1104],[25.1979,65.0938],[25.2411,65.0859],[25.2271,65.1062]]],[[[25.0203,65.4141],[24.9958,65.4229],[24.9901,65.4068],[25.0307,65.4026],[25.0203,65.4141]]],[[[24.8521,65.3854],[24.8172,65.3891],[24.8214,65.3755],[24.8521,65.3854]]],[[[24.9686,65.6125],[24.9318,65.6088],[24.9562,65.5979],[24.9686,65.6125]]],[[[24.6005,65.6734],[24.5766,65.6818],[24.5438,65.675],[24.5151,65.6745],[24.5193,65.663],[24.5396,65.6563],[24.5667,65.6583],[24.6005,65.6734]]],[[[24.5359,65.7182],[24.4964,65.6922],[24.5141,65.6901],[24.5359,65.7182]]],[[[22.4536,63.5714],[22.4349,63.5849],[22.4193,63.5797],[22.4432,63.5526],[22.4172,63.5234],[22.4464,63.5255],[22.4536,63.5714]]],[[[22.7953,63.8797],[22.7917,63.8917],[22.7651,63.8891],[22.7771,63.8792],[22.7953,63.8797]]],[[[23.6526,64.2005],[23.6411,64.2047],[23.6005,64.1911],[23.6146,64.1813],[23.6542,64.1896],[23.6526,64.2005]]]]},"properties":{"GID_0":"FIN","ISO_A2":"FI","ISO_A3":"FIN","NAME_EN":"Finland","NAME_IT":"Finlandia"}}
]}