{"type":"FeatureCollection", "features": [
{"type":"Feature","geometry":{"type":"MultiPolygon","coordinates":[[[[-79.8329,-2.6059],[-79.8165,-2.5508],[-79.8412,-2.4795],[-79.8534,-2.4772],[-79.8635,-2.5398],[-79.8807,-2.5979],[-79.8884,-2.6512],[-79.8542,-2.6651],[-79.8354,-2.6506],[-79.8329,-2.6059]]],[[[-79.8119,-2.4319],[-79.8424,-2.4507],[-79.8137,-2.5135],[-79.8023,-2.4902],[-79.8119,-2.4319]]],[[[-80.0125,-2.6799],[-80.0367,-2.675],[-80.1114,-2.6929],[-80.1238,-2.7069],[-80.2179,-2.7386],[-80.2181,-2.7645],[-80.2574,-2.8313],[-80.263,-2.862],[-80.2621,-2.956],[-80.2745,-3.004],[-80.2565,-3.0275],[-80.1934,-3.0413],[-80.1707,-3.0276],[-80.1231,-3.0202],[-80.0976,-2.9714],[-80.0939,-2.9335],[-80.0654,-2.9278],[-80.0021,-2.8166],[-79.9679,-2.7943],[-79.9313,-2.7926],[-79.8999,-2.745],[-79.9679,-2.7117],[-80.0125,-2.6799]]],[[[-89.6657,-1.345],[-89.7333,-1.3597],[-89.7331,-1.3813],[-89.6856,-1.404],[-89.6267,-1.4061],[-89.6329,-1.3664],[-89.6657,-1.345]]],[[[-90.3616,-1.2928],[-90.3583,-1.2636],[-90.434,-1.2252],[-90.4784,-1.2333],[-90.4941,-1.2958],[-90.5111,-1.3155],[-90.4895,-1.3451],[-90.4538,-1.3606],[-90.4246,-1.3568],[-90.3871,-1.3323],[-90.3616,-1.2928]]],[[[-91.4562,-0.2624],[-91.4871,-0.2646],[-91.5089,-0.282],[-91.5593,-0.2966],[-91.6186,-0.296],[-91.6563,-0.3042],[-91.6523,-0.3893],[-91.6252,-0.4523],[-91.6004,-0.4865],[-91.5577,-0.4899],[-91.5137,-0.5055],[-91.4311,-0.4958],[-91.3901,-0.4547],[-91.3915,-0.4243],[-91.3768,-0.3943],[-91.3805,-0.3491],[-91.4068,-0.2942],[-91.4562,-0.2624]]],[[[-80.241,-2.7067],[-80.2552,-2.6533],[-80.2137,-2.6082],[-80.1731,-2.5965],[-80.1009,-2.5211],[-80.067,-2.4618],[-80.0526,-2.4177],[-80.0343,-2.3924],[-80.004,-2.3858],[-80.0259,-2.4352],[-80.0358,-2.4999],[-80.0164,-2.5073],[-80.0227,-2.5442],[-80.066,-2.5681],[-80.0625,-2.608],[-80.0305,-2.6139],[-79.9895,-2.6515],[-79.944,-2.6579],[-79.9271,-2.5896],[-79.8983,-2.5723],[-79.8558,-2.4316],[-79.8599,-2.3966],[-79.8333,-2.3954],[-79.7971,-2.4466],[-79.7961,-2.4838],[-79.769,-2.5334],[-79.7837,-2.5419],[-79.8034,-2.6152],[-79.7944,-2.6683],[-79.7931,-2.7355],[-79.8159,-2.845],[-79.8531,-2.8791],[-79.8535,-2.9739],[-79.8478,-2.9995],[-79.8778,-3.0753],[-79.9023,-3.1024],[-79.9076,-3.1605],[-79.9264,-3.1629],[-79.9999,-3.2329],[-80.0309,-3.2098],[-80.0649,-3.2837],[-80.1196,-3.3334],[-80.1621,-3.3407],[-80.2361,-3.3372],[-80.2711,-3.3263],[-80.3137,-3.3921],[-80.2772,-3.4153],[-80.2291,-3.4284],[-80.2422,-3.4668],[-80.2185,-3.4992],[-80.2047,-3.5498],[-80.2185,-3.5741],[-80.1886,-3.5998],[-80.1871,-3.6704],[-80.1996,-3.6883],[-80.1793,-3.7256],[-80.19,-3.7561],[-80.1606,-3.8025],[-80.1574,-3.8677],[-80.1268,-3.8951],[-80.1402,-3.9128],[-80.1852,-3.9281],[-80.2365,-3.9626],[-80.2727,-4.008],[-80.3003,-4.0171],[-80.3986,-3.9812],[-80.4465,-3.9969],[-80.468,-4.0341],[-80.4818,-4.0944],[-80.4491,-4.1291],[-80.4491,-4.2089],[-80.4316,-4.1956],[-80.4087,-4.2172],[-80.3721,-4.1975],[-80.3293,-4.223],[-80.3841,-4.2925],[-80.4113,-4.3186],[-80.4517,-4.3816],[-80.4542,-4.4079],[-80.4383,-4.4564],[-80.3631,-4.4799],[-80.3128,-4.4524],[-80.285,-4.4081],[-80.2366,-4.3869],[-80.2161,-4.3539],[-80.1951,-4.3503],[-80.1792,-4.3001],[-80.1438,-4.2864],[-80.0616,-4.3104],[-80.0344,-4.3489],[-79.9622,-4.3955],[-79.9194,-4.3859],[-79.8703,-4.4141],[-79.8531,-4.4519],[-79.8151,-4.4889],[-79.7459,-4.4816],[-79.6554,-4.4342],[-79.6002,-4.4564],[-79.5704,-4.5018],[-79.5438,-4.5259],[-79.5105,-4.5181],[-79.4878,-4.5275],[-79.4769,-4.5684],[-79.4944,-4.581],[-79.4861,-4.6281],[-79.4633,-4.652],[-79.4575,-4.7014],[-79.4276,-4.7474],[-79.3948,-4.8309],[-79.3612,-4.8441],[-79.352,-4.8804],[-79.3059,-4.9028],[-79.2652,-4.9671],[-79.1818,-4.955],[-79.1479,-4.9581],[-79.1139,-4.9747],[-79.0744,-4.9663],[-79.0347,-5.0132],[-79.0152,-5.0158],[-79.0049,-4.9768],[-78.984,-4.9423],[-78.9721,-4.8914],[-78.8942,-4.8857],[-78.9116,-4.8426],[-78.8961,-4.812],[-78.9149,-4.7805],[-78.891,-4.7569],[-78.8907,-4.7197],[-78.8409,-4.6536],[-78.8039,-4.6369],[-78.7695,-4.6401],[-78.7061,-4.6241],[-78.6562,-4.5634],[-78.6607,-4.5277],[-78.6384,-4.4972],[-78.6354,-4.4652],[-78.6038,-4.41],[-78.6332,-4.4151],[-78.6489,-4.3395],[-78.638,-4.3036],[-78.6156,-4.2859],[-78.6012,-4.2527],[-78.5986,-4.2092],[-78.5777,-4.1966],[-78.5826,-4.136],[-78.5405,-4.0673],[-78.5704,-4.0379],[-78.5666,-3.9933],[-78.524,-3.9373],[-78.4902,-3.9362],[-78.4735,-3.8537],[-78.4325,-3.8163],[-78.409,-3.7818],[-78.4061,-3.7441],[-78.4236,-3.6929],[-78.3997,-3.6885],[-78.3871,-3.6412],[-78.3984,-3.6215],[-78.3882,-3.5553],[-78.3653,-3.5314],[-78.35,-3.458],[-78.3557,-3.4033],[-78.3294,-3.3864],[-78.3017,-3.3999],[-78.2469,-3.4022],[-78.2345,-3.4695],[-78.2164,-3.5094],[-78.1508,-3.4776],[-78.1551,-3.421],[-78.1796,-3.41],[-78.1928,-3.3617],[-78.1434,-3.327],[-78.1133,-3.2865],[-78.092,-3.2355],[-78.0649,-3.2255],[-77.9726,-3.1189],[-77.9404,-3.0656],[-77.8878,-3.0355],[-77.8456,-2.9986],[-77.4133,-2.8535],[-77.3675,-2.8356],[-77.1815,-2.7753],[-76.6921,-2.61],[-76.623,-2.5818],[-76.5374,-2.5143],[-76.5429,-2.5054],[-76.2103,-2.2547],[-76.0433,-2.1246],[-75.5852,-1.5494],[-75.5544,-1.5439],[-75.3867,-0.9301],[-75.3454,-0.9483],[-75.3323,-0.9728],[-75.2934,-0.9875],[-75.2678,-0.971],[-75.2022,-0.9796],[-75.199,-0.9595],[-75.2338,-0.9325],[-75.2215,-0.8731],[-75.2518,-0.8318],[-75.2418,-0.7987],[-75.2687,-0.7869],[-75.2784,-0.7124],[-75.2569,-0.699],[-75.2748,-0.6711],[-75.2352,-0.6287],[-75.2403,-0.5934],[-75.2284,-0.5756],[-75.2495,-0.5195],[-75.2974,-0.4966],[-75.3271,-0.4603],[-75.3882,-0.434],[-75.4157,-0.3964],[-75.4661,-0.3114],[-75.4823,-0.2369],[-75.5377,-0.1761],[-75.6102,-0.193],[-75.6105,-0.1135],[-75.5688,-0.1318],[-75.516,-0.115],[-75.4602,-0.1525],[-75.4171,-0.1649],[-75.3737,-0.1649],[-75.3645,-0.1466],[-75.3227,-0.1601],[-75.2707,-0.1307],[-75.2988,-0.106],[-75.3558,-0.0909],[-75.3812,-0.0968],[-75.4273,-0.0861],[-75.4694,-0.0495],[-75.4973,-0.0513],[-75.5309,-0.0181],[-75.5664,-0.0261],[-75.5794,0.005],[-75.6639,0.0429],[-75.7388,0.0329],[-75.7724,0.0515],[-75.8073,0.0502],[-75.8181,0.083],[-75.852,0.1301],[-75.9046,0.1451],[-75.9586,0.2362],[-75.9873,0.2533],[-76.007,0.2991],[-76.0425,0.3046],[-76.0507,0.3297],[-76.0866,0.3345],[-76.1043,0.3137],[-76.1305,0.3706],[-76.159,0.3895],[-76.1775,0.3721],[-76.2378,0.405],[-76.2761,0.437],[-76.314,0.4342],[-76.3461,0.3803],[-76.3754,0.3938],[-76.412,0.3807],[-76.4121,0.2416],[-76.5031,0.2369],[-76.5341,0.2593],[-76.605,0.2314],[-76.6198,0.2571],[-76.6565,0.2714],[-76.7326,0.2891],[-76.7661,0.2641],[-76.8202,0.2565],[-76.8449,0.2394],[-76.8806,0.2522],[-76.9076,0.2467],[-76.9445,0.2692],[-76.9846,0.267],[-76.9986,0.2885],[-77.0273,0.2778],[-77.0449,0.2909],[-77.0782,0.2863],[-77.0816,0.3176],[-77.1056,0.3421],[-77.1122,0.3717],[-77.1847,0.3873],[-77.2,0.3683],[-77.2451,0.3619],[-77.2968,0.3655],[-77.312,0.3805],[-77.3721,0.4009],[-77.461,0.3882],[-77.4847,0.3715],[-77.5231,0.3848],[-77.5295,0.4091],[-77.5141,0.4495],[-77.521,0.5298],[-77.4794,0.6102],[-77.4921,0.6625],[-77.5604,0.6499],[-77.6051,0.6851],[-77.6612,0.7085],[-77.6682,0.7353],[-77.6973,0.744],[-77.6709,0.7793],[-77.6727,0.8239],[-77.7183,0.8505],[-77.807,0.8269],[-77.8411,0.7972],[-77.926,0.8133],[-77.9612,0.7962],[-77.9895,0.8316],[-78.0189,0.842],[-78.0386,0.8753],[-78.1099,0.9318],[-78.1667,0.9971],[-78.1869,0.9954],[-78.2391,1.0189],[-78.2831,1.0577],[-78.2543,1.0953],[-78.2891,1.126],[-78.2956,1.1655],[-78.3195,1.1945],[-78.4188,1.1603],[-78.4303,1.1867],[-78.4561,1.1758],[-78.4795,1.1934],[-78.5188,1.177],[-78.5824,1.2233],[-78.605,1.2469],[-78.6419,1.2649],[-78.6621,1.3121],[-78.7027,1.3377],[-78.7208,1.3687],[-78.7534,1.3899],[-78.7795,1.3921],[-78.8031,1.4283],[-78.8687,1.4696],[-78.8828,1.4464],[-78.886,1.3831],[-78.9105,1.3754],[-78.9765,1.2971],[-79.0469,1.2375],[-79.0877,1.1731],[-79.1294,1.1229],[-79.1603,1.0988],[-79.2459,1.0731],[-79.2595,1.0872],[-79.2926,1.0777],[-79.3687,1.0693],[-79.3959,1.0826],[-79.4189,1.0752],[-79.5532,0.9939],[-79.6081,0.985],[-79.6521,0.9941],[-79.7486,0.957],[-79.8087,0.895],[-79.8672,0.8645],[-79.8816,0.8715],[-79.9523,0.8259],[-79.9932,0.8165],[-80.0606,0.8154],[-80.0921,0.7755],[-80.1022,0.6963],[-80.0931,0.6596],[-80.0681,0.656],[-80.0447,0.6318],[-80.0029,0.5663],[-80.0189,0.5121],[-80.0557,0.4671],[-80.0261,0.3789],[-80.0426,0.3611],[-80.0366,0.3215],[-80.0305,0.2052],[-80.0377,0.1406],[-80.0597,0.0664],[-80.0887,0.0488],[-80.0959,0.0122],[-80.1416,-0.0488],[-80.1777,-0.0762],[-80.2373,-0.1413],[-80.2908,-0.1842],[-80.3385,-0.2014],[-80.3837,-0.2418],[-80.4033,-0.3066],[-80.427,-0.3334],[-80.4769,-0.3689],[-80.4932,-0.399],[-80.478,-0.4414],[-80.459,-0.458],[-80.4362,-0.5636],[-80.4219,-0.5947],[-80.4523,-0.6109],[-80.4703,-0.6399],[-80.5061,-0.7363],[-80.5275,-0.8282],[-80.5461,-0.8818],[-80.5854,-0.9284],[-80.631,-0.9471],[-80.664,-0.9287],[-80.6836,-0.9437],[-80.764,-0.9435],[-80.7878,-0.9583],[-80.8294,-0.9557],[-80.8737,-1.0184],[-80.9125,-1.0587],[-80.8782,-1.1549],[-80.8501,-1.2054],[-80.7616,-1.3118],[-80.7392,-1.3662],[-80.759,-1.392],[-80.7516,-1.4201],[-80.7633,-1.4585],[-80.7921,-1.4786],[-80.8177,-1.5145],[-80.8136,-1.5585],[-80.842,-1.5668],[-80.8466,-1.6174],[-80.8232,-1.6543],[-80.8055,-1.709],[-80.7687,-1.7628],[-80.7264,-1.9258],[-80.7332,-1.9606],[-80.763,-1.976],[-80.7353,-2.0285],[-80.748,-2.1031],[-80.7895,-2.1514],[-80.8173,-2.1562],[-80.8549,-2.1967],[-80.9073,-2.22],[-80.9748,-2.2206],[-80.9227,-2.2748],[-80.8957,-2.3149],[-80.8494,-2.3374],[-80.8018,-2.3785],[-80.7751,-2.3893],[-80.7182,-2.3914],[-80.6815,-2.4039],[-80.6263,-2.4476],[-80.497,-2.5711],[-80.4354,-2.6414],[-80.3921,-2.6393],[-80.3645,-2.674],[-80.3139,-2.7155],[-80.2512,-2.7418],[-80.241,-2.7067]]],[[[-90.9609,-0.9626],[-90.9061,-0.9541],[-90.8831,-0.9149],[-90.8465,-0.91],[-90.8518,-0.8832],[-90.8295,-0.8293],[-90.8247,-0.7908],[-90.7947,-0.7816],[-90.7806,-0.758],[-90.8056,-0.7249],[-90.8465,-0.7086],[-90.8548,-0.6605],[-90.9023,-0.6133],[-90.9332,-0.6267],[-90.9604,-0.6024],[-90.942,-0.4822],[-90.9552,-0.4354],[-91.0185,-0.3647],[-91.1099,-0.3069],[-91.1099,-0.2829],[-91.1764,-0.2205],[-91.1935,-0.1502],[-91.1859,-0.0816],[-91.1983,-0.0216],[-91.2735,0.0438],[-91.2934,0.0752],[-91.311,0.1338],[-91.3467,0.1625],[-91.3911,0.1244],[-91.4907,0.0987],[-91.4991,0.0654],[-91.5219,0.0364],[-91.5869,0.007],[-91.5944,-0.0115],[-91.5682,-0.0478],[-91.5159,-0.0385],[-91.4705,-0.0146],[-91.4188,-0.0306],[-91.4028,-0.1175],[-91.4047,-0.1631],[-91.388,-0.2534],[-91.366,-0.2735],[-91.3465,-0.3192],[-91.3227,-0.3414],[-91.2847,-0.3523],[-91.2721,-0.374],[-91.2235,-0.3992],[-91.228,-0.4534],[-91.2131,-0.4877],[-91.1302,-0.5574],[-91.1013,-0.571],[-91.0728,-0.6111],[-91.0902,-0.6364],[-91.1425,-0.6544],[-91.1523,-0.676],[-91.1821,-0.6875],[-91.2115,-0.6695],[-91.2498,-0.6878],[-91.3008,-0.6945],[-91.3672,-0.7413],[-91.3703,-0.7533],[-91.4328,-0.7869],[-91.4542,-0.8204],[-91.4997,-0.8625],[-91.5107,-0.9092],[-91.4853,-0.9398],[-91.4469,-0.9567],[-91.4411,-0.9993],[-91.3798,-1.0224],[-91.3484,-1.0146],[-91.2286,-1.029],[-91.2156,-1.0449],[-91.1706,-1.0546],[-91.1224,-1.0179],[-91.0212,-0.988],[-90.9949,-0.9594],[-90.9609,-0.9626]]],[[[-90.7883,-0.1469],[-90.8383,-0.1784],[-90.8285,-0.2],[-90.8709,-0.2687],[-90.8331,-0.2982],[-90.8334,-0.3303],[-90.772,-0.3344],[-90.7413,-0.3604],[-90.6577,-0.3556],[-90.599,-0.3752],[-90.5786,-0.3635],[-90.5674,-0.3285],[-90.5484,-0.3214],[-90.5829,-0.2404],[-90.6039,-0.2183],[-90.6466,-0.1949],[-90.6926,-0.1895],[-90.7044,-0.1715],[-90.7497,-0.1501],[-90.7883,-0.1469]]],[[[-90.49777407407407,0.3838],[-90.5425,0.3457],[-90.5378,0.313],[-90.4716,0.2774],[-90.4265,0.2904],[-90.4006,0.3226],[-90.4618,0.3855],[-90.49774,0.38384],[-90.49777407407407,0.3838]]],[[[-90.6695,-0.5879],[-90.6877,-0.6088],[-90.6575,-0.6346],[-90.6477,-0.6027],[-90.6695,-0.5879]]],[[[-90.7187,0.5565],[-90.7297,0.599],[-90.7613,0.6383],[-90.7905,0.6059],[-90.78,0.5524],[-90.7416,0.5413],[-90.7187,0.5565]]],[[[-90.0835,-0.7988],[-90.0909,-0.8258],[-90.047,-0.8398],[-90.0448,-0.7994],[-90.0835,-0.7988]]],[[[-90.3101,-0.7502],[-90.2379,-0.7443],[-90.2229,-0.6959],[-90.1781,-0.6697],[-90.1841,-0.608],[-90.1692,-0.5723],[-90.2363,-0.523],[-90.2659,-0.4893],[-90.3364,-0.491],[-90.3726,-0.5089],[-90.4018,-0.5045],[-90.4552,-0.5116],[-90.5134,-0.5327],[-90.5173,-0.5558],[-90.5494,-0.6241],[-90.5358,-0.6959],[-90.4671,-0.724],[-90.4338,-0.7539],[-90.3973,-0.7734],[-90.3775,-0.7648],[-90.3135,-0.7676],[-90.3101,-0.7502]]],[[[-89.6168,-0.9231],[-89.5606,-0.9517],[-89.5241,-0.9556],[-89.4948,-0.9401],[-89.4319,-0.9328],[-89.3983,-0.9128],[-89.3591,-0.8266],[-89.3304,-0.819],[-89.2835,-0.7783],[-89.275,-0.754],[-89.2434,-0.7246],[-89.2597,-0.6925],[-89.2795,-0.7044],[-89.3053,-0.689],[-89.3529,-0.6877],[-89.3617,-0.7015],[-89.4217,-0.7268],[-89.4554,-0.7565],[-89.4676,-0.8012],[-89.4843,-0.8176],[-89.5315,-0.8175],[-89.5429,-0.8467],[-89.6113,-0.8876],[-89.6168,-0.9231]]],[[[-90.2734,-0.4182],[-90.2985,-0.4614],[-90.2941,-0.4845],[-90.2478,-0.4646],[-90.2734,-0.4182]]]]},"properties":{"GID_0":"ECU","ISO_A2":"EC","ISO_A3":"ECU","NAME_EN":"Ecuador","NAME_IT":"Ecuador"}}
]}