{"type":"FeatureCollection", "features": [
{"type":"Feature","geometry":{"type":"MultiPolygon","coordinates":[[[[-87.8613,17.2451],[-87.8685,17.2432],[-87.8754,17.216],[-87.8654,17.2143],[-87.8613,17.2451]]],[[[-87.8101,17.2874],[-87.8215,17.2835],[-87.821,17.2726],[-87.8265,17.2638],[-87.8599,17.2654],[-87.8524,17.2512],[-87.8357,17.2621],[-87.8265,17.2629],[-87.8215,17.2651],[-87.8101,17.2874]]],[[[-87.8479,17.2988],[-87.8493,17.2829],[-87.8429,17.2715],[-87.8288,17.2974],[-87.8479,17.2988]]],[[[-87.9243,17.289],[-87.9449,17.2735],[-87.9463,17.2596],[-87.9376,17.219],[-87.9315,17.2237],[-87.936,17.251],[-87.9418,17.2632],[-87.9343,17.274],[-87.9201,17.2724],[-87.9243,17.289]]],[[[-87.8207,17.4257],[-87.8301,17.4168],[-87.8129,17.3824],[-87.8129,17.366],[-87.8196,17.3565],[-87.824,17.334],[-87.8204,17.3232],[-87.7971,17.3157],[-87.7929,17.3318],[-87.8057,17.3662],[-87.8207,17.4257]]],[[[-87.501,17.4543],[-87.5174,17.4413],[-87.4954,17.4357],[-87.4912,17.4479],[-87.501,17.4543]]],[[[-87.8099,17.5465],[-87.8135,17.5279],[-87.7979,17.5254],[-87.8043,17.4982],[-87.8224,17.4824],[-87.8174,17.4718],[-87.849,17.4551],[-87.8679,17.4529],[-87.8793,17.4585],[-87.8932,17.4376],[-87.8965,17.4232],[-87.9099,17.4082],[-87.9235,17.3846],[-87.9174,17.3443],[-87.9204,17.3307],[-87.9365,17.3101],[-87.9238,17.3035],[-87.9218,17.3226],[-87.914,17.3368],[-87.904,17.3374],[-87.8957,17.3632],[-87.9013,17.3926],[-87.8938,17.4229],[-87.8707,17.4221],[-87.8615,17.4396],[-87.8518,17.4376],[-87.846,17.4232],[-87.8326,17.4215],[-87.811,17.4451],[-87.8043,17.4676],[-87.784,17.496],[-87.7621,17.504],[-87.764,17.5107],[-87.7899,17.5115],[-87.7862,17.5276],[-87.8004,17.5271],[-87.8099,17.5465]]],[[[-88.1057,17.5276],[-88.1182,17.514],[-88.1079,17.5004],[-88.0893,17.491],[-88.0857,17.4601],[-88.0735,17.4696],[-88.0615,17.4938],[-88.0768,17.5026],[-88.094,17.5213],[-88.1057,17.5276]]],[[[-88.0965,17.6271],[-88.0926,17.6068],[-88.0804,17.619],[-88.0965,17.6271]]],[[[-87.9604,18.0963],[-87.9818,18.0854],[-87.9699,18.0765],[-87.9604,18.0963]]],[[[-87.9371,18.1246],[-87.956,18.1085],[-87.9385,18.1029],[-87.9371,18.1246]]],[[[-87.8449,18.1907],[-87.8671,18.1893],[-87.8846,18.1657],[-87.8976,18.141],[-87.9004,18.1185],[-87.9118,18.1007],[-87.9215,18.0965],[-87.921,18.081],[-87.9368,18.0626],[-87.9526,18.0637],[-87.9499,18.0479],[-87.9299,18.0588],[-87.9324,18.0401],[-87.9532,18.0168],[-87.9676,17.9876],[-87.9737,17.9671],[-87.984,17.9557],[-87.9921,17.9185],[-87.9718,17.9363],[-87.9676,17.9171],[-88.0024,17.8974],[-87.9854,17.8843],[-87.9749,17.9043],[-87.9321,17.9604],[-87.9051,18.021],[-87.8949,18.0357],[-87.8821,18.0771],[-87.8568,18.1082],[-87.8276,18.1265],[-87.846,18.184],[-87.8449,18.1907]]],[[[-88.3035,17.1385],[-88.3051,17.1796],[-88.3029,17.2529],[-88.2937,17.3007],[-88.2801,17.3426],[-88.2696,17.394],[-88.2604,17.4196],[-88.2551,17.4571],[-88.239,17.486],[-88.224,17.489],[-88.2143,17.4815],[-88.1879,17.4849],[-88.1824,17.499],[-88.196,17.5168],[-88.2121,17.514],[-88.231,17.5196],[-88.2521,17.5449],[-88.2676,17.5485],[-88.2885,17.564],[-88.2921,17.5899],[-88.2924,17.6243],[-88.289,17.6415],[-88.2696,17.646],[-88.2782,17.6585],[-88.2796,17.6774],[-88.2635,17.6682],[-88.251,17.6782],[-88.2307,17.7179],[-88.2226,17.7574],[-88.2162,17.8235],[-88.2087,17.871],[-88.1937,17.9221],[-88.1782,17.9376],[-88.1732,17.9546],[-88.1596,17.9618],[-88.1515,18.0024],[-88.1318,18.024],[-88.1257,18.0557],[-88.1168,18.0751],[-88.1135,18.0943],[-88.1054,18.0993],[-88.0968,18.1526],[-88.0949,18.1821],[-88.0893,18.2085],[-88.0951,18.2282],[-88.0943,18.2643],[-88.089,18.274],[-88.1021,18.2974],[-88.096,18.3263],[-88.1021,18.3474],[-88.0968,18.3707],[-88.1254,18.3671],[-88.1726,18.3401],[-88.2007,18.3385],[-88.2118,18.3496],[-88.2346,18.3396],[-88.2404,18.3601],[-88.2529,18.3532],[-88.2935,18.3474],[-88.3329,18.3276],[-88.3435,18.3418],[-88.3174,18.3626],[-88.3326,18.366],[-88.3685,18.349],[-88.3849,18.346],[-88.3982,18.3607],[-88.3979,18.3796],[-88.3835,18.3924],[-88.3243,18.4243],[-88.3168,18.4426],[-88.2965,18.4574],[-88.3032,18.4724],[-88.3266,18.4906],[-88.3511,18.4845],[-88.3658,18.4864],[-88.387,18.4816],[-88.4024,18.4967],[-88.4425,18.4814],[-88.4651,18.487],[-88.4764,18.4947],[-88.5176,18.4635],[-88.5283,18.4341],[-88.532,18.4082],[-88.5516,18.3761],[-88.5445,18.3599],[-88.5645,18.3341],[-88.5984,18.297],[-88.6066,18.2641],[-88.6044,18.2415],[-88.616,18.2231],[-88.6416,18.2164],[-88.6735,18.1942],[-88.6867,18.1947],[-88.6802,18.16],[-88.6892,18.1558],[-88.7186,18.1088],[-88.7121,18.1036],[-88.7197,18.0834],[-88.7168,18.0605],[-88.7315,18.0496],[-88.7667,18.0343],[-88.7669,18.016],[-88.7831,18.0002],[-88.7847,17.9829],[-88.796,17.9743],[-88.8152,17.9503],[-88.8338,17.9452],[-88.8522,17.9335],[-88.8543,17.9076],[-88.8598,17.8945],[-88.8776,17.8944],[-88.9066,17.9159],[-88.9206,17.9186],[-88.9476,17.9589],[-88.9599,17.9518],[-88.993,17.9597],[-89.0034,17.9755],[-89.0006,17.9844],[-89.0216,17.9927],[-89.0285,18.0026],[-89.0523,18.0002],[-89.0586,17.9903],[-89.0764,17.9938],[-89.102,17.981],[-89.1116,17.9698],[-89.134,17.9712],[-89.1367,17.9546],[-89.1458,17.9489],[-89.1478,17.8098],[-89.1462,17.0498],[-89.171,16.6786],[-89.1674,16.6786],[-89.1788,16.5116],[-89.1822,16.5115],[-89.2163,16.0029],[-89.2242,15.9286],[-89.2228,15.9028],[-89.213,15.8952],[-89.1731,15.9118],[-89.1502,15.8972],[-89.1341,15.9068],[-89.1269,15.9006],[-89.1084,15.9031],[-89.102,15.9119],[-89.0883,15.9099],[-89.0814,15.8973],[-89.0659,15.9013],[-89.0569,15.9192],[-89.0338,15.915],[-89.0122,15.8985],[-88.9975,15.9049],[-88.985,15.8985],[-88.9498,15.8927],[-88.9143,15.9029],[-88.9351,15.9635],[-88.9346,15.979],[-88.9151,16.0015],[-88.8899,16.011],[-88.8585,16.0296],[-88.8529,16.0585],[-88.8354,16.0699],[-88.8304,16.0793],[-88.8104,16.0801],[-88.7951,16.1196],[-88.7507,16.1374],[-88.7543,16.1524],[-88.7371,16.174],[-88.7487,16.2051],[-88.7479,16.219],[-88.7346,16.2224],[-88.729,16.2363],[-88.6993,16.2371],[-88.6701,16.2546],[-88.6604,16.2496],[-88.6529,16.2824],[-88.6365,16.2832],[-88.6188,16.2682],[-88.6018,16.2665],[-88.5835,16.2568],[-88.5646,16.2718],[-88.5443,16.2724],[-88.5413,16.3026],[-88.5274,16.3096],[-88.519,16.3229],[-88.4918,16.3432],[-88.4754,16.4004],[-88.4535,16.4126],[-88.4443,16.4229],[-88.4446,16.4382],[-88.4221,16.4446],[-88.421,16.4679],[-88.3968,16.501],[-88.3993,16.5376],[-88.3804,16.5438],[-88.3676,16.5851],[-88.3721,16.5912],[-88.3721,16.6154],[-88.346,16.6485],[-88.3296,16.6599],[-88.3176,16.6479],[-88.351,16.6301],[-88.3574,16.6188],[-88.3571,16.6004],[-88.3671,16.5963],[-88.366,16.5849],[-88.3701,16.5626],[-88.3662,16.5546],[-88.3688,16.5304],[-88.3807,16.5154],[-88.3635,16.514],[-88.3549,16.5421],[-88.3649,16.5738],[-88.3551,16.5896],[-88.3518,16.6226],[-88.3174,16.646],[-88.3085,16.6676],[-88.3115,16.6963],[-88.3001,16.7226],[-88.3204,16.7657],[-88.3112,16.7796],[-88.2937,16.7815],[-88.274,16.8057],[-88.2532,16.8096],[-88.266,16.824],[-88.2868,16.8724],[-88.289,16.8882],[-88.2815,16.8957],[-88.2793,16.9163],[-88.2551,16.931],[-88.2301,16.936],[-88.2187,16.9568],[-88.2182,16.9676],[-88.2304,16.9888],[-88.2418,17.0326],[-88.2454,17.0651],[-88.2663,17.0663],[-88.2793,17.0721],[-88.2862,17.0851],[-88.2893,17.1071],[-88.3004,17.1185],[-88.3035,17.1385]]]]},"properties":{"GID_0":"BLZ","ISO_A2":"BZ","ISO_A3":"BLZ","NAME_EN":"Belize","NAME_IT":"Belize"}}
]}