{"type":"FeatureCollection", "features": [
{"type":"Feature","geometry":{"type":"MultiPolygon","coordinates":[[[[11.8221,-16.6618],[11.8028,-16.8069],[11.7641,-16.9369],[11.7524,-17.2471],[11.7925,-17.2684],[11.9474,-17.182],[12.083,-17.1441],[12.1675,-17.1586],[12.2556,-17.2373],[12.4129,-17.2061],[12.4405,-17.2611],[12.5656,-17.2421],[12.719,-17.1574],[12.88,-17.0428],[12.9925,-16.9815],[13.1424,-16.9599],[13.2704,-16.9958],[13.3786,-16.9753],[13.4609,-17.0131],[13.5206,-17.0858],[13.5107,-17.1351],[13.6775,-17.2464],[13.8805,-17.351],[13.9569,-17.4334],[14.0942,-17.4425],[14.2143,-17.3841],[14.7311,-17.3905],[15.4837,-17.39],[16.3299,-17.3902],[17.2747,-17.39],[17.9991,-17.39],[18.4227,-17.3944],[18.6185,-17.6373],[18.8036,-17.7753],[18.899,-17.8193],[19.1077,-17.84],[19.1405,-17.812],[19.3306,-17.8387],[19.4043,-17.8707],[19.6619,-17.8527],[19.7494,-17.9137],[19.7961,-17.8778],[20.2483,-17.8935],[20.3266,-17.8683],[20.4533,-17.9167],[20.5476,-17.9826],[20.6463,-17.9785],[20.812,-18.0407],[20.9443,-17.9674],[21.2198,-17.9321],[21.4335,-18.0241],[22.9293,-17.7394],[23.4408,-17.6359],[23.3491,-17.5557],[23.2489,-17.5348],[23.1039,-17.4137],[22.9985,-17.2721],[22.8286,-17.1637],[22.6869,-17.0124],[22.49,-16.8377],[22.2561,-16.5815],[22.1428,-16.4807],[22.1221,-16.3582],[22.0821,-16.2799],[22.0013,-16.2119],[21.98,-14.5139],[22.0029,-12.9973],[23.0893,-12.9928],[24.0659,-12.9984],[23.9537,-12.8836],[23.9001,-12.7833],[23.9269,-12.7166],[23.9517,-12.5346],[24.0579,-12.4263],[24.0679,-12.2952],[23.9754,-12.1248],[23.9901,-11.8869],[24.0174,-11.8252],[23.9671,-11.6619],[24.0288,-11.5104],[24.0299,-11.4294],[24.0769,-11.3809],[24.0236,-11.2477],[24.0296,-11.1557],[23.9857,-10.9215],[23.8155,-11.0279],[23.7634,-10.9974],[23.672,-11.008],[23.4355,-10.9382],[23.203,-11.102],[23.073,-11.123],[22.8591,-11.0616],[22.787,-11.113],[22.723,-11.11],[22.585,-11.036],[22.5083,-11.0434],[22.4872,-11.1322],[22.426,-11.179],[22.347,-11.179],[22.2997,-11.244],[22.227,-11.117],[22.181,-10.852],[22.3344,-10.7559],[22.3159,-10.5421],[22.278,-10.516],[22.3228,-10.4202],[22.3125,-10.3402],[22.223,-10.159],[22.2183,-10.0228],[22.185,-9.9169],[22.0245,-9.8338],[21.969,-9.731],[21.8802,-9.6508],[21.8294,-9.4571],[21.798,-9.4303],[21.859,-9.2372],[21.8437,-9.1205],[21.8589,-8.9083],[21.903,-8.7669],[21.9226,-8.6],[21.9577,-8.503],[21.8792,-8.1976],[21.7712,-8.0004],[21.768,-7.7774],[21.8477,-7.6049],[21.8567,-7.4702],[21.8203,-7.3289],[21.7797,-7.2747],[21.4871,-7.2872],[21.3775,-7.2791],[20.8217,-7.2933],[20.5435,-7.2815],[20.5446,-7.141],[20.6213,-6.9317],[20.3152,-6.928],[20.3017,-6.998],[19.5439,-6.9998],[19.5636,-7.0573],[19.4965,-7.176],[19.4876,-7.3151],[19.5294,-7.447],[19.462,-7.571],[19.3687,-7.5831],[19.409,-7.701],[19.3616,-7.812],[19.3574,-7.9282],[19.4357,-7.9985],[18.8002,-8],[18.7776,-7.9221],[18.5582,-7.9336],[18.527,-8],[18.3911,-8],[18.3757,-8.0273],[18.2265,-7.9892],[18.0983,-8.0402],[18.1004,-8.0991],[17.885,-8.079],[17.7837,-8.1128],[17.7287,-8.0965],[17.5603,-8.1274],[17.4909,-7.9585],[17.4424,-7.9273],[17.3787,-7.786],[17.2923,-7.6937],[17.3063,-7.6369],[17.2375,-7.5959],[17.1084,-7.4176],[17.1164,-7.3576],[17.0055,-7.3],[16.928,-7.0842],[16.9827,-7.0233],[16.9371,-6.9578],[16.9404,-6.8748],[16.801,-6.6991],[16.7621,-6.5383],[16.69,-6.4006],[16.7216,-6.1663],[16.6116,-6.0917],[16.5997,-5.9186],[16.5121,-5.8787],[16.4546,-5.8963],[16.3659,-5.8647],[15.7811,-5.8785],[14.9622,-5.8734],[14.7003,-5.881],[14.6108,-5.9097],[14.4586,-5.9012],[14.1773,-5.8616],[14.0381,-5.8842],[13.9878,-5.8429],[13.8387,-5.8756],[13.5917,-5.8763],[13.531,-5.8951],[13.4262,-5.862],[13.349,-5.901],[13.2478,-5.8651],[13.1151,-5.9005],[13.0187,-5.8766],[12.8939,-5.9468],[12.621,-6.0176],[12.4297,-6.1032],[12.2761,-6.148],[12.3944,-6.323],[12.5021,-6.5515],[12.5824,-6.6903],[12.7111,-6.8242],[12.8144,-6.968],[12.8498,-7.1115],[12.8535,-7.2688],[12.9126,-7.3336],[12.998,-7.5983],[13.0997,-7.8439],[13.2664,-8.1757],[13.365,-8.3254],[13.3966,-8.4068],[13.3458,-8.4715],[13.4115,-8.6364],[13.3963,-8.7492],[13.2982,-8.7578],[13.1037,-8.9609],[12.9992,-9.1033],[13.1528,-9.3443],[13.1721,-9.4678],[13.2056,-9.525],[13.2279,-9.6591],[13.1963,-9.687],[13.286,-9.8158],[13.342,-9.9487],[13.3133,-9.9829],[13.4383,-10.1212],[13.4695,-10.2107],[13.528,-10.2766],[13.5309,-10.3887],[13.7618,-10.6502],[13.7829,-10.694],[13.7198,-10.7575],[13.8258,-10.8987],[13.865,-11.0178],[13.8297,-11.3015],[13.7701,-11.5827],[13.7981,-11.7725],[13.7619,-11.9585],[13.6554,-12.2342],[13.5788,-12.3434],[13.5174,-12.3712],[13.4691,-12.5158],[13.3441,-12.6124],[13.1507,-12.6362],[13.1381,-12.6708],[12.9401,-12.8346],[12.9772,-12.9589],[12.8767,-13.1035],[12.7846,-13.1517],[12.7415,-13.226],[12.6554,-13.2468],[12.6521,-13.3354],[12.5443,-13.4218],[12.5517,-13.5558],[12.5145,-13.8787],[12.4215,-13.8783],[12.3911,-14.0335],[12.3531,-14.1021],[12.335,-14.2158],[12.3684,-14.2854],[12.3538,-14.4101],[12.2737,-14.705],[12.2878,-14.7517],[12.1714,-14.96],[12.1688,-15.0205],[12.1125,-15.1333],[12.1268,-15.1873],[12.0581,-15.2286],[12.0297,-15.3996],[12.0192,-15.5686],[11.9282,-15.6764],[11.8805,-15.7858],[11.7637,-15.7975],[11.7315,-15.8959],[11.805,-16.0258],[11.7896,-16.0933],[11.8261,-16.4531],[11.8221,-16.6618]]],[[[12.5351,-5.7339],[12.5092,-5.6641],[12.5089,-5.4701],[12.5372,-5.4612],[12.5375,-5.1389],[12.469,-5.0888],[12.6295,-5.0206],[12.6396,-4.9509],[12.7238,-4.9431],[12.8152,-4.7858],[13.1057,-4.6509],[13.0133,-4.5922],[12.9061,-4.4675],[12.903,-4.4093],[12.8131,-4.4194],[12.7344,-4.386],[12.7362,-4.4904],[12.6628,-4.4874],[12.6161,-4.5643],[12.4624,-4.5961],[12.3586,-4.7571],[12.3016,-4.8136],[12.2022,-4.7804],[12.1732,-4.898],[12.0127,-5.0283],[12.1031,-5.1608],[12.1783,-5.3151],[12.2325,-5.5155],[12.1462,-5.6376],[12.1999,-5.7698],[12.2657,-5.7433],[12.5351,-5.7339]]]]},"properties":{"GID_0":"AGO","ISO_A2":"AO","ISO_A3":"AGO","NAME_EN":"Angola","NAME_IT":"Angola"}}
]}