{"type":"FeatureCollection", "features": [
{"type":"Feature","geometry":{"type":"Polygon","coordinates":[[[20.8125,21.1391],[21.0821,21.0074],[21.3608,20.865],[21.6809,20.7051],[22.0883,20.4938],[22.5179,20.2715],[22.8029,20.1259],[23.1515,19.9461],[23.4059,19.8131],[23.7575,19.6327],[23.9351,19.5377],[24,19.5082],[24,20],[25,20],[24.9994,29.2502],[24.957,29.3458],[24.883,29.4811],[24.8577,29.5483],[24.8958,29.6314],[24.8194,29.789],[24.8132,29.9189],[24.7533,30.0957],[24.6981,30.1488],[24.7596,30.2648],[24.7831,30.3313],[24.8344,30.3689],[24.8902,30.4484],[24.9265,30.4811],[24.9551,30.5986],[24.9786,30.6444],[24.9923,30.7129],[25.0183,30.778],[24.9806,30.9131],[24.963,30.937],[24.9188,31.0662],[24.8831,31.134],[24.8777,31.1671],[24.8869,31.3039],[24.8672,31.343],[24.8611,31.4059],[24.9636,31.4802],[25.0625,31.5418],[25.0901,31.6196],[25.1315,31.6666],[25.1304,31.7204],[25.029,31.8532],[25.0388,31.916],[24.9982,31.9613],[24.8057,31.9976],[24.7638,32.0187],[24.664,32.0218],[24.5451,31.9826],[24.5185,31.9899],[24.2399,32.0074],[24.199,31.9979],[24.0879,32.0121],[24.0196,32.0524],[23.9804,32.1035],[23.8829,32.1188],[23.7704,32.1662],[23.6749,32.1824],[23.6093,32.1707],[23.4599,32.1787],[23.421,32.1743],[23.3671,32.2046],[23.3163,32.2137],[23.2535,32.2035],[23.2093,32.2804],[23.089,32.3288],[23.0821,32.3654],[23.1018,32.3974],[23.0946,32.4318],[23.1463,32.4279],[23.1593,32.4565],[23.1096,32.5015],[23.0987,32.5713],[23.126,32.6157],[23.1054,32.636],[23.0293,32.6557],[22.9918,32.6532],[22.9138,32.6718],[22.8179,32.7154],[22.6571,32.7571],[22.4926,32.8115],[22.3729,32.8726],[22.216,32.8757],[22.1137,32.9349],[22.071,32.9101],[21.9229,32.8937],[21.8013,32.9129],[21.7165,32.941],[21.6446,32.9293],[21.4385,32.7971],[21.3701,32.7774],[21.2246,32.7696],[21.1118,32.7715],[21.0615,32.7612],[20.946,32.7149],[20.8813,32.6735],[20.7479,32.6162],[20.6701,32.5913],[20.5776,32.5479],[20.4024,32.4374],[20.2057,32.2818],[20.0499,32.1162],[20.0299,32.0568],[19.9585,31.9921],[19.9532,31.9363],[19.9257,31.8315],[19.921,31.7593],[19.9529,31.6787],[19.9693,31.5732],[19.9846,31.5399],[19.9918,31.4726],[20.0546,31.3579],[20.0851,31.3424],[20.1474,31.2412],[20.1752,31.1518],[20.1521,31.0343],[20.0752,30.8976],[20.0544,30.8474],[19.908,30.6649],[19.8199,30.5851],[19.7755,30.531],[19.6146,30.4151],[19.5791,30.4212],[19.381,30.3176],[19.2727,30.2826],[19.1855,30.2671],[19.0544,30.2679],[18.9421,30.2874],[18.8838,30.3296],[18.8015,30.3582],[18.7949,30.3835],[18.6865,30.4046],[18.6554,30.4204],[18.5779,30.4926],[18.4737,30.5621],[18.4099,30.5957],[18.3013,30.6785],[18.2815,30.7112],[18.1754,30.7896],[18.1176,30.7982],[17.9122,30.8554],[17.8524,30.9251],[17.7204,30.9438],[17.5963,30.9885],[17.5115,31.0093],[17.4507,31.034],[17.3932,31.0768],[17.3051,31.0832],[17.2379,31.1065],[17.1393,31.1229],[17.0063,31.1635],[16.8343,31.1901],[16.764,31.2121],[16.6993,31.2193],[16.6029,31.2107],[16.3962,31.2174],[16.2232,31.2343],[16.1243,31.2518],[15.9749,31.2926],[15.8074,31.3626],[15.6604,31.449],[15.6004,31.5129],[15.5674,31.5646],[15.5212,31.6132],[15.484,31.6765],[15.4015,31.846],[15.3529,31.9974],[15.3482,32.0749],[15.3576,32.1665],[15.3157,32.2165],[15.2721,32.3187],[15.184,32.3887],[15.0979,32.4118],[14.9674,32.4185],[14.8679,32.4424],[14.7555,32.4388],[14.6997,32.4549],[14.606,32.4979],[14.5024,32.504],[14.4466,32.5265],[14.4341,32.5532],[14.3699,32.5821],[14.3255,32.629],[14.281,32.6424],[14.2341,32.6921],[14.1502,32.7113],[14.0063,32.7307],[13.9482,32.7715],[13.8468,32.784],[13.8007,32.8007],[13.7043,32.7915],[13.5976,32.791],[13.4176,32.8682],[13.3871,32.8976],[13.3254,32.8974],[13.2326,32.9118],[13.0114,32.8385],[12.8733,32.8063],[12.7426,32.7932],[12.5582,32.7965],[12.4682,32.8143],[12.3413,32.8229],[12.2143,32.8682],[12.071,32.9457],[11.9104,33.0449],[11.8515,33.0693],[11.7357,33.079],[11.6532,33.0937],[11.5712,33.1629],[11.5321,33.0861],[11.5169,32.9769],[11.4892,32.8928],[11.5077,32.8432],[11.4888,32.7659],[11.4986,32.7189],[11.4888,32.6677],[11.5085,32.6134],[11.5771,32.5563],[11.5983,32.5236],[11.5273,32.4028],[11.4499,32.3561],[11.3664,32.3224],[11.2042,32.2767],[11.0745,32.2284],[10.9821,32.1867],[10.858,32.1104],[10.8377,32.0621],[10.7947,32],[10.718,31.9781],[10.6707,31.9876],[10.6391,31.9679],[10.6255,31.9191],[10.6353,31.8651],[10.582,31.8241],[10.562,31.7731],[10.5298,31.7473],[10.441,31.7273],[10.374,31.7381],[10.2912,31.6901],[10.2108,31.5729],[10.1406,31.4933],[10.1475,31.407],[10.2422,31.1987],[10.2876,31.0826],[10.2752,31.0268],[10.3078,30.909],[10.2778,30.8246],[10.2132,30.7131],[10.1813,30.6936],[10.1002,30.5861],[10.0199,30.5055],[9.9473,30.3936],[9.8889,30.3492],[9.8258,30.3439],[9.7443,30.316],[9.6162,30.2503],[9.4928,30.2115],[9.3917,30.1667],[9.4155,30.0421],[9.5393,29.9006],[9.7806,29.4241],[9.8723,29.027],[9.9028,28.7598],[9.8335,28.2853],[9.9622,27.8866],[9.9434,27.8355],[9.943,27.7317],[9.8883,27.6073],[9.8625,27.5033],[9.8141,27.4621],[9.7951,27.3944],[9.7826,27.2652],[9.7984,27.1751],[9.8185,27.1477],[9.8629,26.9416],[9.9245,26.861],[9.9027,26.7425],[9.9139,26.6461],[9.8639,26.5191],[9.513,26.3843],[9.4567,26.253],[9.3996,26.1948],[9.5382,26.0019],[10.0327,25.3587],[10.0376,24.9624],[10.0947,24.8879],[10.1064,24.845],[10.1374,24.8111],[10.2169,24.6497],[10.3031,24.5982],[10.3574,24.5369],[10.4146,24.531],[10.4851,24.5426],[10.5443,24.533],[10.6153,24.5727],[10.7066,24.5721],[10.7285,24.563],[10.7675,24.5096],[10.7996,24.5262],[10.8174,24.5639],[10.8478,24.568],[10.9538,24.529],[11.0403,24.4333],[11.1376,24.391],[11.423,24.1996],[11.6034,24.2638],[11.8465,23.8048],[11.9874,23.5321],[12,23.5152],[12.4348,23.4221],[12.7897,23.3471],[13.3103,23.2343],[13.398,23.2175],[13.5447,23.157],[13.6804,23.0722],[14.0017,22.8012],[14.1893,22.6445],[14.6055,22.828],[14.7033,22.8741],[14.9959,23.0019],[15.4414,23.2061],[15.7282,23.3303],[15.9982,23.4504],[16.2633,23.328],[16.3784,23.2782],[16.8471,23.0585],[17.0953,22.9407],[17.2284,22.8803],[17.5573,22.7225],[17.9896,22.5176],[18.2439,22.3959],[18.7261,22.1677],[20.3507,21.3735],[20.4856,21.3023],[20.8125,21.1391]]]},"properties":{"GID_0":"LBY","ISO_A2":"LY","ISO_A3":"LBY","NAME_EN":"Libya","NAME_IT":"Libia"}}
]}