{"type":"FeatureCollection", "features": [
{"type":"Feature","geometry":{"type":"Polygon","coordinates":[[[14.7157,48.6499],[14.7366,48.6988],[14.7751,48.7123],[14.8125,48.7621],[14.8107,48.7799],[14.8823,48.7807],[14.9568,48.7587],[14.974,48.8753],[14.994,48.9043],[14.9795,48.9811],[15.0217,49.0212],[15.0659,49.0002],[15.1574,48.9939],[15.1914,48.9439],[15.2256,48.9608],[15.2702,48.9589],[15.2921,48.9849],[15.3681,48.9825],[15.4259,48.9522],[15.5032,48.9366],[15.5145,48.9147],[15.5791,48.8965],[15.6207,48.8962],[15.6876,48.8576],[15.7548,48.8528],[15.7807,48.8755],[15.8288,48.8716],[15.8988,48.8489],[15.9956,48.7799],[16.0817,48.7503],[16.1552,48.7494],[16.3677,48.7286],[16.4108,48.7449],[16.4632,48.8052],[16.5262,48.8013],[16.5949,48.7832],[16.665,48.7816],[16.6899,48.7298],[16.726,48.7386],[16.7771,48.7125],[16.8989,48.7165],[16.9199,48.694],[16.922,48.6457],[16.9603,48.6446],[16.9722,48.687],[17.0013,48.7005],[17.0168,48.7429],[17.0475,48.7747],[17.0929,48.7964],[17.1133,48.8399],[17.1995,48.8812],[17.2742,48.8653],[17.3629,48.8287],[17.4752,48.8395],[17.5152,48.8097],[17.5812,48.8326],[17.6096,48.8542],[17.6969,48.8603],[17.7756,48.9196],[17.8683,48.9273],[17.8908,48.9892],[17.9238,49.0193],[18.0441,49.0315],[18.1065,49.081],[18.1077,49.1392],[18.158,49.2722],[18.2075,49.2942],[18.3113,49.3121],[18.3959,49.3571],[18.399,49.3919],[18.434,49.397],[18.5097,49.4389],[18.558,49.5128],[18.7498,49.4958],[18.8426,49.5261],[18.8553,49.5592],[18.8268,49.5969],[18.8258,49.6356],[18.7969,49.6849],[18.7171,49.6835],[18.6252,49.7224],[18.6289,49.755],[18.571,49.8354],[18.5828,49.9032],[18.4851,49.9064],[18.4633,49.9223],[18.3375,49.946],[18.2829,49.9362],[18.2763,49.9646],[18.2154,49.9757],[18.1828,50.0052],[18.1558,49.9827],[18.0991,50.0082],[18.0859,50.046],[18.0444,50.0366],[18.0353,50.011],[17.9874,50.0152],[17.9228,49.9788],[17.8685,49.9725],[17.7781,50.0201],[17.762,50.0647],[17.7051,50.1144],[17.6503,50.1108],[17.6117,50.1398],[17.6012,50.1696],[17.7075,50.1808],[17.7575,50.2106],[17.765,50.2364],[17.7318,50.2538],[17.7511,50.29],[17.7215,50.3188],[17.6508,50.2778],[17.6121,50.266],[17.4956,50.2751],[17.4382,50.2517],[17.4207,50.2774],[17.3661,50.2821],[17.3278,50.3271],[17.2804,50.3195],[17.2011,50.364],[17.1433,50.3804],[17.1108,50.405],[17.0525,50.407],[16.9983,50.4277],[16.964,50.4257],[16.9079,50.4494],[16.8662,50.4151],[16.9104,50.386],[16.9286,50.3234],[17.0077,50.2941],[17.0165,50.2673],[16.9562,50.2249],[16.8991,50.2229],[16.8625,50.1996],[16.8156,50.1922],[16.7833,50.1456],[16.745,50.1347],[16.7026,50.0964],[16.6413,50.1122],[16.5611,50.1639],[16.5574,50.2204],[16.4819,50.2714],[16.43,50.3251],[16.3993,50.3192],[16.3653,50.3466],[16.3607,50.3795],[16.2992,50.3808],[16.2529,50.4056],[16.2145,50.4091],[16.205,50.4487],[16.2941,50.4792],[16.3176,50.5023],[16.3602,50.4993],[16.4018,50.5299],[16.4225,50.6067],[16.3431,50.6615],[16.2348,50.6716],[16.215,50.6341],[16.1278,50.6625],[16.0676,50.6398],[16.0248,50.5986],[15.9914,50.6846],[15.8609,50.675],[15.8319,50.7427],[15.6939,50.7406],[15.5787,50.781],[15.5227,50.7787],[15.4481,50.8074],[15.3726,50.7813],[15.3662,50.8442],[15.3072,50.8642],[15.2746,50.9034],[15.2898,50.9627],[15.2283,50.9961],[15.1772,50.9935],[15.135,51.01],[15.0118,51.0269],[15.0143,50.9398],[14.9895,50.9216],[15.0004,50.8728],[14.9003,50.8771],[14.8386,50.8696],[14.8,50.8228],[14.7664,50.8193],[14.7087,50.8409],[14.6189,50.8577],[14.6502,50.9315],[14.5832,50.9143],[14.5607,50.9254],[14.5961,50.9628],[14.5787,51.0003],[14.4538,51.0359],[14.4218,51.0196],[14.2922,51.0465],[14.2586,50.9875],[14.3117,50.9538],[14.3873,50.9418],[14.3876,50.8991],[14.3048,50.884],[14.2675,50.8953],[14.201,50.8513],[14.1615,50.8475],[14.0307,50.8042],[13.9903,50.82],[13.9392,50.79],[13.904,50.794],[13.9028,50.7529],[13.8552,50.7271],[13.6643,50.7319],[13.6023,50.7101],[13.5563,50.7145],[13.5444,50.6774],[13.4648,50.6019],[13.3667,50.6184],[13.3194,50.6022],[13.2909,50.575],[13.2484,50.5921],[13.2291,50.5497],[13.1947,50.5153],[13.056,50.5013],[13.0225,50.4869],[13.0199,50.4467],[12.9835,50.4197],[12.9364,50.4116],[12.8194,50.4598],[12.7346,50.4322],[12.7076,50.4078],[12.617,50.4156],[12.512,50.3973],[12.4371,50.3276],[12.4034,50.324],[12.3327,50.2343],[12.3192,50.1719],[12.2747,50.1967],[12.2939,50.2213],[12.2015,50.2728],[12.1845,50.3223],[12.1247,50.3154],[12.1399,50.2777],[12.0975,50.2624],[12.1089,50.2379],[12.1576,50.2271],[12.216,50.1682],[12.1996,50.1117],[12.3109,50.0555],[12.3675,50.0174],[12.4607,49.9949],[12.4939,49.9698],[12.4784,49.9357],[12.5385,49.9248],[12.498,49.8376],[12.4729,49.8336],[12.4683,49.7867],[12.4032,49.7619],[12.4429,49.7037],[12.5216,49.6868],[12.5175,49.6445],[12.5771,49.5863],[12.5885,49.5385],[12.6442,49.523],[12.6372,49.4758],[12.6559,49.4345],[12.7087,49.4247],[12.7576,49.3948],[12.7581,49.3752],[12.8025,49.3416],[12.8802,49.3505],[12.95,49.3429],[13.0291,49.3043],[13.0339,49.2639],[13.0808,49.2474],[13.1293,49.1969],[13.1769,49.1642],[13.1703,49.144],[13.2364,49.1136],[13.2892,49.1186],[13.3923,49.0543],[13.4029,48.9873],[13.4956,48.9413],[13.5071,48.9691],[13.5855,48.9685],[13.638,48.9257],[13.6716,48.8801],[13.7305,48.8871],[13.7739,48.8306],[13.8153,48.7969],[13.8132,48.774],[13.8729,48.7689],[13.9567,48.7151],[14.0042,48.7092],[14.0398,48.6767],[14.0115,48.6403],[14.0732,48.6005],[14.1827,48.5945],[14.3436,48.5554],[14.3872,48.5933],[14.4324,48.5897],[14.4696,48.6468],[14.5043,48.618],[14.565,48.609],[14.6188,48.6225],[14.6645,48.5826],[14.7221,48.603],[14.7157,48.6499]]]},"properties":{"GID_0":"CZE","ISO_A2":"CZ","ISO_A3":"CZE","NAME_EN":"Czechia","NAME_IT":"Repubblica Ceca"}}
]}