{"type":"FeatureCollection", "features": [
{"type":"Feature","geometry":{"type":"Polygon","coordinates":[[[26.9825,55.7993],[27.032,55.8213],[27.1128,55.8231],[27.1621,55.8422],[27.2529,55.7941],[27.3124,55.7904],[27.3731,55.8138],[27.4182,55.7974],[27.592,55.7818],[27.6289,55.8421],[27.6322,55.897],[27.6642,55.9308],[27.763,55.975],[27.8007,55.9752],[27.8834,56.0463],[27.9314,56.0531],[28.0056,56.1158],[28.0389,56.1145],[28.1732,56.1683],[28.1977,56.2436],[28.2405,56.2904],[28.1686,56.3722],[28.1905,56.3979],[28.1842,56.4436],[28.1274,56.4836],[28.141,56.546],[28.1164,56.5838],[28.0516,56.5882],[28.0126,56.636],[28.0122,56.6722],[27.9118,56.7421],[27.9506,56.8074],[27.857,56.8723],[27.7998,56.876],[27.668,56.8392],[27.6756,56.9155],[27.7294,56.9347],[27.7525,57.1231],[27.8168,57.1507],[27.8568,57.2204],[27.8684,57.2739],[27.844,57.3162],[27.7681,57.3526],[27.6662,57.3862],[27.6304,57.4155],[27.5107,57.4455],[27.5606,57.4831],[27.5468,57.5381],[27.4184,57.5278],[27.3462,57.5457],[27.2662,57.5443],[27.1221,57.5619],[27.021,57.6053],[26.8927,57.6395],[26.8617,57.592],[26.7821,57.5726],[26.6759,57.5667],[26.6146,57.5293],[26.4999,57.5245],[26.4695,57.5756],[26.4016,57.5722],[26.2551,57.614],[26.2453,57.6513],[26.1885,57.6945],[26.2057,57.715],[26.136,57.751],[26.0247,57.7833],[26.047,57.8505],[25.8907,57.8535],[25.8417,57.8648],[25.7656,57.9179],[25.6954,57.9037],[25.5828,57.9436],[25.5805,57.972],[25.4848,57.9756],[25.4669,58.0052],[25.3667,58.0305],[25.2957,58.0815],[25.3014,57.9931],[25.2459,58.003],[25.1912,58.076],[25.1187,58.0812],[25.077,58.0664],[25.0198,58.0177],[24.9489,58.0094],[24.8471,57.9755],[24.5957,57.9574],[24.4623,57.925],[24.4599,57.8801],[24.3542,57.876],[24.3325,57.8271],[24.3475,57.7924],[24.3442,57.6976],[24.3875,57.6171],[24.3614,57.5412],[24.3981,57.406],[24.4053,57.2529],[24.3675,57.2137],[24.1864,57.111],[24.0997,57.0782],[24.0314,57.0649],[23.9292,57.0057],[23.7592,56.9699],[23.6169,56.9651],[23.5297,56.991],[23.4903,57.034],[23.4136,57.0376],[23.3103,57.0621],[23.2369,57.109],[23.2325,57.1657],[23.1764,57.2401],[23.1325,57.3601],[23.0281,57.3807],[22.9431,57.4149],[22.8475,57.4915],[22.6964,57.5488],[22.6275,57.591],[22.5931,57.6287],[22.5753,57.7038],[22.6058,57.759],[22.4725,57.7343],[22.0192,57.6076],[21.8464,57.5982],[21.7397,57.5801],[21.6858,57.5546],[21.6614,57.5065],[21.5914,57.4285],[21.5308,57.3915],[21.4119,57.2696],[21.4058,57.1757],[21.4169,57.1121],[21.4108,57.0529],[21.3719,56.9993],[21.2469,56.9188],[21.0658,56.8426],[21.0536,56.8215],[21.0608,56.7432],[21.0525,56.6724],[20.9847,56.5179],[21.0031,56.4549],[20.9719,56.3696],[20.9842,56.3112],[20.9836,56.216],[21.0436,56.1199],[21.0664,56.0645],[21.1263,56.0819],[21.1985,56.0767],[21.2739,56.1658],[21.3567,56.2279],[21.4627,56.2536],[21.4803,56.2893],[21.5288,56.2887],[21.5948,56.3193],[21.7241,56.313],[21.84,56.3653],[21.9291,56.3639],[21.9956,56.3943],[21.9968,56.4167],[22.0865,56.4242],[22.2161,56.4174],[22.2396,56.4035],[22.4023,56.4093],[22.5879,56.392],[22.6347,56.364],[22.7244,56.371],[22.854,56.368],[22.9114,56.3756],[22.9469,56.4152],[23.003,56.4048],[23.037,56.323],[23.0925,56.3081],[23.1763,56.3419],[23.1782,56.3644],[23.3016,56.3835],[23.3745,56.3815],[23.5004,56.3374],[23.5731,56.3353],[23.6656,56.3685],[23.7632,56.37],[23.8009,56.3418],[24.0188,56.3302],[24.1327,56.2588],[24.1891,56.2569],[24.2991,56.298],[24.3395,56.2965],[24.4402,56.2568],[24.5564,56.2795],[24.586,56.3234],[24.64,56.3664],[24.715,56.3815],[24.7502,56.4026],[24.9063,56.4143],[24.9646,56.3624],[24.9662,56.3128],[25.0726,56.2588],[25.0951,56.1857],[25.256,56.1788],[25.3011,56.1543],[25.4069,56.1585],[25.6546,56.1381],[25.7008,56.1223],[25.6961,56.091],[25.8123,56.0583],[25.8601,56.0019],[25.9321,55.9983],[26.0165,55.9715],[26.1162,55.8898],[26.2075,55.858],[26.2451,55.7928],[26.3093,55.7443],[26.349,55.7422],[26.3748,55.7047],[26.4621,55.7],[26.5368,55.6688],[26.6168,55.6688],[26.6644,55.6982],[26.7253,55.696],[26.7495,55.6757],[26.8711,55.7059],[26.9382,55.7826],[26.9825,55.7993]]]},"properties":{"GID_0":"LVA","ISO_A2":"LV","ISO_A3":"LVA","NAME_EN":"Latvia","NAME_IT":"Lettonia"}}
]}