{"type":"FeatureCollection", "features": [
{"type":"Feature","geometry":{"type":"Polygon","coordinates":[[[67.7539,37.2211],[67.8208,37.2348],[67.8284,37.4633],[67.9388,37.6403],[68.0427,37.7366],[68.1288,37.8773],[68.2703,37.9094],[68.2846,37.984],[68.3699,38.0785],[68.4026,38.195],[68.3203,38.2925],[68.2336,38.3286],[68.1967,38.4061],[68.0685,38.5407],[68.1277,38.7412],[68.073,38.8035],[68.197,38.8513],[68.1991,38.9261],[68.1153,39.01],[67.9757,39.0333],[67.7007,39.0046],[67.6779,39.144],[67.4621,39.2032],[67.3923,39.2998],[67.519,39.3387],[67.4255,39.497],[67.4987,39.5719],[67.6282,39.6],[67.705,39.6566],[67.7968,39.6544],[68.0334,39.5766],[68.5149,39.5341],[68.6266,39.6507],[68.5919,39.7243],[68.7162,39.8693],[68.9129,39.9043],[68.8124,40],[68.9774,40.1517],[68.6084,40.0918],[68.5383,40.1406],[68.7753,40.1977],[69.2593,40.2482],[69.339,40.3479],[69.2739,40.4954],[69.3634,40.6155],[69.3484,40.7121],[69.401,40.782],[69.5479,40.7535],[69.6677,40.6299],[69.7676,40.6888],[69.9227,40.7039],[70.3655,40.8912],[70.3897,41.0009],[70.4486,41.0422],[70.5683,40.9722],[70.7847,40.7323],[70.7355,40.6576],[70.6303,40.6209],[70.4948,40.5114],[70.3327,40.4492],[70.3852,40.3765],[70.5505,40.3459],[70.571,40.2447],[70.6456,40.165],[70.7779,40.1839],[71.1182,40.3193],[71.2773,40.3267],[71.4869,40.2624],[71.5846,40.2028],[71.6543,40.2531],[71.7162,40.1508],[71.9395,40.2246],[71.9971,40.3324],[72.1814,40.4939],[72.3753,40.4015],[72.5165,40.5577],[72.6146,40.5075],[72.7667,40.6734],[73.1231,40.7975],[73.1095,40.8585],[72.9092,40.8171],[72.8348,40.8695],[72.6808,40.8556],[72.5755,40.8904],[72.4976,41.0306],[72.3436,41.0632],[72.2284,41.0524],[72.2037,41.1412],[71.8904,41.1722],[71.9352,41.3083],[71.8891,41.3703],[71.7313,41.4568],[71.591,41.3034],[71.4877,41.316],[71.4351,41.1236],[71.2025,41.1929],[71.133,41.1478],[70.9705,41.1676],[70.7773,41.2881],[70.7807,41.3826],[70.7132,41.4647],[70.4919,41.3994],[70.3573,41.5009],[70.1998,41.5125],[70.1866,41.5616],[70.5094,41.7319],[70.7049,41.9181],[70.8245,41.9224],[70.8745,42.0464],[70.9662,42.0263],[71.2665,42.1998],[71.1294,42.279],[70.9402,42.2592],[70.801,42.2099],[70.6936,42.1268],[70.627,42.0008],[70.4333,42.1301],[70.3226,42.0344],[70.1597,41.8443],[69.9846,41.7808],[69.9521,41.7188],[69.8435,41.7191],[69.6211,41.658],[69.3074,41.4509],[69.2315,41.4617],[69.0332,41.3422],[68.9882,41.2532],[68.8626,41.1493],[68.7448,40.9875],[68.6453,40.9363],[68.5158,40.9815],[68.5191,40.7802],[68.6849,40.5957],[68.5221,40.5517],[68.4168,40.5752],[68.0982,40.7575],[67.8894,40.8575],[67.9931,40.8974],[67.9935,41.0637],[67.9016,41.0868],[67.7363,41.2028],[67.3112,41.2118],[66.6061,41.2514],[66.5308,41.8963],[66.0085,41.9435],[66.0134,42.2463],[66.1057,42.3473],[66.0992,42.9622],[65.8272,42.8681],[65.6511,43.3035],[65.2941,43.5453],[65.1702,43.7435],[65.0103,43.7669],[64.5365,43.6033],[63.9119,43.6281],[63.3814,43.6734],[62.0287,43.4865],[61.9756,43.5123],[61.2754,44.1368],[61.0361,44.1371],[60.1083,44.7159],[59.7927,44.923],[59.4576,45.1136],[58.5697,45.5711],[57.0636,45.2478],[55.9981,45],[56.0006,41.318],[57.0424,41.2632],[57.0889,41.3347],[57.0316,41.4459],[57.0199,41.5864],[56.9722,41.6724],[56.984,41.8673],[57.1675,41.975],[57.2141,42.0684],[57.3128,42.1378],[57.5217,42.1741],[57.6756,42.152],[57.8355,42.1729],[57.9285,42.2451],[57.9473,42.3716],[57.9151,42.4572],[58.0468,42.5047],[58.1347,42.4425],[58.3234,42.4481],[58.3065,42.5483],[58.1548,42.6097],[58.2972,42.6894],[58.4727,42.6503],[58.5954,42.6659],[58.7025,42.7265],[58.9347,42.5436],[59.0478,42.5107],[59.1695,42.528],[59.2706,42.3929],[59.4192,42.2766],[59.7176,42.286],[59.828,42.3063],[60.0391,42.1959],[59.9702,42.1282],[60.0836,41.8093],[60.0686,41.7285],[60.1638,41.6095],[60.1119,41.5481],[60.1312,41.3948],[60.5056,41.2165],[61.046,41.2347],[61.2998,41.1452],[61.3799,41.1649],[61.4215,41.2859],[61.6269,41.265],[61.8804,41.1094],[61.9709,41.0191],[62.0001,40.8203],[62.1443,40.5565],[62.3495,40.4383],[62.3915,40.3179],[62.4006,40.093],[62.4879,39.9514],[63.1704,39.5741],[63.5391,39.3836],[63.7454,39.2067],[64.1771,38.9592],[64.3311,38.9858],[64.5228,38.8382],[64.8266,38.6795],[65.025,38.6125],[65.3005,38.4085],[65.4814,38.319],[65.7974,38.2359],[65.8515,38.2741],[66.2455,38.154],[66.4,38.0325],[66.5512,38.0382],[66.6766,37.962],[66.5482,37.7918],[66.5383,37.5795],[66.6371,37.4839],[66.5547,37.3554],[66.873,37.3616],[66.9965,37.3899],[67.1058,37.336],[67.2774,37.1772],[67.5049,37.2725],[67.7539,37.2211]]]},"properties":{"GID_0":"UZB","ISO_A2":"UZ","ISO_A3":"UZB","NAME_EN":"Uzbekistan","NAME_IT":"Uzbekistan"}}
]}