{"type":"FeatureCollection", "features": [
{"type":"Feature","geometry":{"type":"Polygon","coordinates":[[[29.7957,4.3843],[29.9023,4.3436],[30.0572,4.1394],[30.1481,4.1035],[30.264,3.9563],[30.5557,3.8274],[30.5919,3.5943],[30.667,3.636],[30.857,3.569],[30.9729,3.6965],[31.1651,3.7971],[31.2901,3.7965],[31.5457,3.6567],[31.7074,3.7243],[31.8245,3.8207],[31.9604,3.6486],[32.089,3.538],[32.4153,3.746],[32.7202,3.7682],[32.9012,3.816],[33.0278,3.894],[33.1788,3.7791],[33.5145,3.7553],[33.9877,4.2345],[33.9921,4.256],[34.3715,4.6243],[34.9289,4.8573],[35.3507,5.01],[35.42,4.9438],[35.5374,4.9588],[35.487,4.7774],[35.5836,4.6239],[35.6903,4.6251],[35.7863,4.7315],[35.8142,5.1037],[35.8543,5.3146],[35.5787,5.4144],[35.4687,5.4058],[35.3001,5.3325],[35.3002,5.4963],[35.1262,5.6152],[35.1211,5.6908],[34.9909,5.8954],[35.002,6.0026],[34.9511,6.2678],[35.0138,6.445],[34.8562,6.6078],[34.7885,6.5836],[34.6811,6.7023],[34.5359,6.7527],[34.4843,6.9043],[34.1932,7.0549],[34.1924,7.1376],[34.0118,7.2597],[34.0288,7.3696],[33.9476,7.5023],[33.8713,7.5179],[33.6723,7.6922],[33.5802,7.6866],[33.4316,7.7514],[33.3202,7.7062],[33.1654,7.7954],[33.0501,7.7873],[33.0021,7.9401],[33.1658,8.1946],[33.1927,8.4069],[33.3052,8.4554],[33.3954,8.4235],[33.62,8.4686],[33.7725,8.3696],[33.8983,8.4806],[34.015,8.4869],[34.1421,8.6109],[34.1447,8.9622],[34.1042,9.4877],[33.8918,9.4848],[33.8829,9.6407],[33.9879,9.9294],[33.9518,10.1662],[33.8802,10.1667],[33.7849,10.3326],[33.6643,10.4165],[33.4787,10.6351],[33.2469,10.7104],[33.3061,10.8156],[33.1384,11.5833],[33.1974,11.7423],[33.2552,12.2012],[32.724,12.219],[32.7497,12.0342],[32.724,11.906],[32.1744,11.9054],[32.3931,11.6935],[32.3963,11.1967],[32.4727,11.0279],[32.1609,10.7313],[31.9968,10.6299],[31.8026,10.3073],[31.5479,10.0232],[31.3487,9.7731],[31.2687,9.7434],[30.9043,9.7436],[30.8313,9.7113],[30.6024,9.9239],[29.9968,10.2888],[29.8783,10.2547],[29.5204,10.0696],[29.522,9.7381],[29.0678,9.7291],[28.7933,9.4693],[28.7591,9.3371],[28.034,9.3346],[27.9,9.6033],[27.2885,9.6177],[27.0263,9.5898],[26.7197,9.4823],[26.3693,9.5709],[26.2923,9.6628],[26.2145,9.91],[26.0433,10.116],[25.9281,10.1723],[25.931,10.373],[25.853,10.423],[25.327,10.316],[25.079,10.292],[25.014,10.173],[25.027,10.085],[24.925,9.899],[24.795,9.824],[24.7429,9.7284],[24.7661,9.5274],[24.6159,9.3837],[24.5549,9.0653],[24.5799,8.9354],[24.4981,8.838],[24.2578,8.6791],[24.2559,8.5789],[24.1712,8.4815],[24.2036,8.304],[24.3715,8.2514],[24.4788,8.2723],[24.8647,8.1805],[24.9095,8.0472],[25.1004,7.8844],[25.1801,7.9029],[25.2868,7.7815],[25.2878,7.6389],[25.174,7.5696],[25.3611,7.3445],[25.69,7.1968],[26.0541,6.9853],[26.1147,6.8153],[26.4151,6.6374],[26.2972,6.4939],[26.2979,6.3877],[26.4725,6.2371],[26.5602,6.0333],[26.7518,6.0132],[26.833,5.9039],[27.0027,5.8567],[27.1883,5.7275],[27.2834,5.587],[27.2332,5.4268],[27.3238,5.1993],[27.3966,5.1526],[27.5803,4.8854],[27.6575,4.8913],[27.7769,4.6662],[27.8683,4.5479],[28.0263,4.5381],[28.0389,4.467],[28.2386,4.3296],[28.4145,4.2828],[28.5239,4.3716],[28.6622,4.4196],[28.7166,4.534],[28.9027,4.471],[29.0281,4.4907],[29.199,4.3562],[29.306,4.3783],[29.4087,4.4833],[29.5026,4.6853],[29.8203,4.5587],[29.7957,4.3843]]]},"properties":{"GID_0":"SSD","ISO_A2":"SS","ISO_A3":"SSD","NAME_EN":"S. Sudan","NAME_IT":"Sudan del Sud"}}
]}