{"type":"FeatureCollection", "features": [
{"type":"Feature","geometry":{"type":"Polygon","coordinates":[[[35.3583,33.0577],[35.4301,33.0655],[35.445,33.0907],[35.5028,33.0933],[35.5187,33.1162],[35.5458,33.2379],[35.5675,33.2908],[35.5972,33.2774],[35.6231,33.2427],[35.6634,33.2479],[35.697,33.2693],[35.7355,33.3125],[35.8145,33.357],[35.826,33.3973],[35.8997,33.4353],[35.9531,33.4797],[35.9437,33.5242],[36.0263,33.5415],[36.0639,33.5762],[36.0315,33.6089],[35.9334,33.6507],[35.9663,33.6764],[35.9707,33.7203],[36.0174,33.7696],[36.0469,33.7841],[36.0701,33.822],[36.1106,33.8201],[36.1702,33.8333],[36.237,33.8346],[36.2521,33.8576],[36.2989,33.8338],[36.3931,33.8327],[36.391,33.8534],[36.2767,33.9037],[36.3121,33.9549],[36.3624,33.9831],[36.4011,34.0416],[36.4249,34.0547],[36.4802,34.0386],[36.514,34.0748],[36.506,34.0903],[36.5409,34.1267],[36.5657,34.1338],[36.5863,34.1773],[36.6171,34.2078],[36.5815,34.232],[36.5621,34.3259],[36.5281,34.3693],[36.5605,34.3967],[36.549,34.4244],[36.4639,34.4628],[36.4381,34.502],[36.4166,34.4935],[36.347,34.5102],[36.414,34.5637],[36.4026,34.6075],[36.451,34.5923],[36.4602,34.6261],[36.3822,34.6326],[36.3199,34.6897],[36.2962,34.6349],[36.2767,34.6283],[36.1884,34.6373],[36.1711,34.6285],[36.1218,34.6419],[36.0912,34.6291],[36.0336,34.6276],[35.9747,34.6434],[35.9909,34.5532],[35.9016,34.4667],[35.818,34.4516],[35.8115,34.4048],[35.736,34.3767],[35.7186,34.3148],[35.6863,34.3142],[35.6526,34.2808],[35.6595,34.2464],[35.6307,34.192],[35.6276,34.1417],[35.6499,34.1007],[35.624,34.038],[35.6419,34.0119],[35.6308,33.9846],[35.6005,33.9716],[35.5707,33.9043],[35.5358,33.9089],[35.4674,33.9],[35.4832,33.8415],[35.4776,33.7924],[35.4476,33.7463],[35.4425,33.7109],[35.4218,33.6957],[35.4153,33.6571],[35.3537,33.5157],[35.3134,33.4731],[35.2864,33.4617],[35.2505,33.3824],[35.2401,33.3279],[35.2171,33.2875],[35.2025,33.2004],[35.166,33.1641],[35.1441,33.1266],[35.1026,33.0947],[35.2065,33.089],[35.3193,33.1014],[35.3583,33.0577]]]},"properties":{"GID_0":"LBN","ISO_A2":"LB","ISO_A3":"LBN","NAME_EN":"Lebanon","NAME_IT":"Libano"}}
]}