{"type":"FeatureCollection", "features": [
{"type":"Feature","geometry":{"type":"MultiPolygon","coordinates":[[[[-17.9632,27.6904],[-17.9562,27.721],[-17.9299,27.7288],[-17.9021,27.786],[-17.8826,27.8029],[-17.9013,27.8421],[-17.936,27.849],[-17.9737,27.8268],[-17.9979,27.7918],[-18.0362,27.7632],[-18.0701,27.7535],[-18.114,27.7601],[-18.1301,27.7724],[-18.1521,27.7588],[-18.1604,27.7143],[-18.0513,27.6926],[-18.0368,27.6857],[-18.0104,27.6499],[-17.9785,27.6385],[-17.9632,27.6904]]],[[[-13.7035,28.9157],[-13.6421,28.919],[-13.5751,28.9543],[-13.5474,28.9543],[-13.5318,28.9726],[-13.4854,28.996],[-13.4629,29.0246],[-13.4657,29.0557],[-13.4482,29.101],[-13.4643,29.1282],[-13.4282,29.1537],[-13.4182,29.2021],[-13.439,29.2235],[-13.4657,29.2268],[-13.4971,29.219],[-13.5232,29.169],[-13.5251,29.141],[-13.5513,29.1171],[-13.5846,29.1346],[-13.6585,29.1254],[-13.6651,29.111],[-13.7068,29.0832],[-13.7524,29.0796],[-13.7946,29.0515],[-13.8307,29.0071],[-13.8346,28.9371],[-13.8585,28.8974],[-13.8818,28.8874],[-13.8774,28.8593],[-13.8296,28.8621],[-13.7993,28.8576],[-13.7887,28.8449],[-13.7476,28.8779],[-13.741,28.9021],[-13.7035,28.9157]]],[[[-15.5632,27.7601],[-15.4951,27.7896],[-15.4268,27.8046],[-15.4121,27.8479],[-15.3849,27.8571],[-15.3899,27.881],[-15.384,27.9271],[-15.3687,27.9404],[-15.381,27.9576],[-15.3662,27.9918],[-15.3863,28.0304],[-15.4154,28.0474],[-15.4201,28.0607],[-15.4107,28.1035],[-15.4243,28.1354],[-15.4012,28.166],[-15.4193,28.1821],[-15.4429,28.1621],[-15.4312,28.1451],[-15.4438,28.1318],[-15.4771,28.1371],[-15.5299,28.156],[-15.5432,28.1476],[-15.6126,28.1474],[-15.6268,28.1657],[-15.6693,28.1596],[-15.6835,28.1712],[-15.7065,28.1568],[-15.6993,28.1349],[-15.7121,28.1068],[-15.7074,28.0935],[-15.7382,28.0551],[-15.7865,28.0218],[-15.8135,28.0182],[-15.834,27.9707],[-15.8282,27.949],[-15.8318,27.9093],[-15.8179,27.8926],[-15.7874,27.8335],[-15.754,27.8143],[-15.7257,27.7879],[-15.6901,27.771],[-15.674,27.7485],[-15.6593,27.7565],[-15.6001,27.734],[-15.5679,27.7388],[-15.5632,27.7601]]],[[[-17.2093,28.0246],[-17.1663,28.0365],[-17.1432,28.0626],[-17.1221,28.0724],[-17.104,28.1038],[-17.1024,28.1285],[-17.1187,28.1529],[-17.1829,28.1796],[-17.1932,28.1976],[-17.2318,28.2015],[-17.2599,28.214],[-17.3182,28.2046],[-17.3457,28.1524],[-17.3421,28.1307],[-17.349,28.0976],[-17.3254,28.0799],[-17.3107,28.0515],[-17.2918,28.0465],[-17.2701,28.0246],[-17.2093,28.0246]]],[[[-16.5993,28.0274],[-16.5429,28.0385],[-16.5065,28.0671],[-16.4385,28.1437],[-16.4257,28.1699],[-16.4243,28.2038],[-16.3618,28.3054],[-16.369,28.3557],[-16.3599,28.3799],[-16.3204,28.4001],[-16.254,28.451],[-16.2354,28.4857],[-16.1304,28.5351],[-16.1196,28.5565],[-16.1349,28.5818],[-16.1593,28.589],[-16.2224,28.5663],[-16.2685,28.5746],[-16.334,28.5721],[-16.3351,28.5574],[-16.3862,28.5468],[-16.4215,28.5176],[-16.4271,28.4912],[-16.4668,28.4601],[-16.4749,28.4418],[-16.5035,28.4246],[-16.5549,28.4193],[-16.604,28.3943],[-16.6754,28.4015],[-16.6807,28.3913],[-16.7249,28.3774],[-16.8101,28.3768],[-16.8332,28.3935],[-16.8946,28.3629],[-16.9051,28.3385],[-16.8601,28.2765],[-16.8404,28.2651],[-16.8376,28.2076],[-16.8057,28.1718],[-16.804,28.1574],[-16.7735,28.1132],[-16.7371,28.0863],[-16.7368,28.0557],[-16.7115,28.0476],[-16.7062,28.0079],[-16.6782,27.9979],[-16.6468,28.0037],[-16.5993,28.0274]]],[[[-17.7951,28.5226],[-17.7874,28.5429],[-17.7599,28.569],[-17.7515,28.616],[-17.7546,28.6476],[-17.7685,28.6774],[-17.7518,28.7065],[-17.7235,28.7382],[-17.7529,28.7787],[-17.7774,28.839],[-17.8035,28.8418],[-17.8526,28.8335],[-17.8957,28.8429],[-17.906,28.8554],[-17.9454,28.8426],[-17.9779,28.8043],[-18.0074,28.7829],[-18.0099,28.749],[-17.9821,28.7293],[-17.9649,28.6679],[-17.939,28.6404],[-17.9115,28.5862],[-17.8849,28.5488],[-17.8754,28.5218],[-17.8682,28.4724],[-17.8329,28.4565],[-17.8174,28.494],[-17.7951,28.5226]]],[[[-13.9218,28.2507],[-13.8962,28.2876],[-13.9026,28.2974],[-13.8857,28.3246],[-13.8629,28.3843],[-13.8485,28.4085],[-13.8621,28.494],[-13.8421,28.5032],[-13.8221,28.5938],[-13.8285,28.6293],[-13.8299,28.6946],[-13.8404,28.7276],[-13.8643,28.7368],[-13.8868,28.7576],[-13.9246,28.7529],[-13.9637,28.734],[-13.9776,28.7363],[-14.021,28.7015],[-14.0099,28.6782],[-14.0393,28.6151],[-14.0337,28.5929],[-14.0668,28.5518],[-14.0718,28.5299],[-14.0985,28.479],[-14.1521,28.4301],[-14.164,28.3674],[-14.2051,28.3282],[-14.2126,28.2951],[-14.209,28.2599],[-14.2154,28.226],[-14.2282,28.2101],[-14.3101,28.1474],[-14.3693,28.1171],[-14.4499,28.101],[-14.4915,28.1113],[-14.4932,28.084],[-14.4087,28.0579],[-14.3624,28.0474],[-14.3257,28.0476],[-14.2735,28.0974],[-14.2257,28.1601],[-14.2015,28.1726],[-14.1576,28.1765],[-14.1237,28.1912],[-14.0751,28.2013],[-14.0121,28.2071],[-13.9876,28.2274],[-13.9482,28.2271],[-13.9218,28.2507]]],[[[-13.5035,29.4149],[-13.5237,29.4121],[-13.5304,29.3851],[-13.5063,29.3838],[-13.4887,29.4024],[-13.5035,29.4149]]],[[[-5.3818,35.9135],[-5.3774,35.8836],[-5.3412,35.8746],[-5.336,35.8943],[-5.3649,35.9179],[-5.3818,35.9135]]],[[[-13.5046,29.2893],[-13.5249,29.2676],[-13.5274,29.2415],[-13.504,29.2243],[-13.4718,29.2693],[-13.5046,29.2893]]],[[[4.3007,39.8404],[4.311,39.8804],[4.2749,39.9332],[4.2507,40.0026],[4.2096,40.0032],[4.2026,40.0224],[4.164,40.0371],[4.1549,40.0682],[4.1007,40.0546],[4.0226,40.0601],[3.9688,40.0532],[3.9379,40.0621],[3.8279,40.054],[3.7915,40.0193],[3.7949,39.9993],[3.8251,39.9965],[3.834,39.9604],[3.8199,39.9287],[3.8993,39.9218],[3.9576,39.9349],[4.0263,39.9204],[4.0776,39.8971],[4.0985,39.8771],[4.1304,39.8671],[4.1962,39.8318],[4.2732,39.809],[4.2965,39.8226],[4.3007,39.8404]]],[[[3.2401,39.3749],[3.2543,39.4007],[3.2751,39.4157],[3.2832,39.4682],[3.301,39.5035],[3.341,39.5404],[3.3754,39.5596],[3.3921,39.6188],[3.4032,39.6357],[3.4343,39.6321],[3.4551,39.6549],[3.4579,39.7438],[3.4326,39.7449],[3.4046,39.764],[3.3799,39.7654],[3.3476,39.7896],[3.3299,39.7601],[3.2674,39.734],[3.2376,39.731],[3.1529,39.7674],[3.1265,39.7915],[3.1204,39.8335],[3.1688,39.8368],[3.196,39.8585],[3.1851,39.8838],[3.1032,39.8574],[3.079,39.8885],[3.0887,39.9107],[3.1093,39.9074],[3.2015,39.9429],[3.1804,39.9613],[3.1468,39.9543],[3.1221,39.9318],[3.079,39.924],[3.0279,39.9349],[2.9865,39.9093],[2.9465,39.9179],[2.9349,39.9035],[2.9032,39.8982],[2.8751,39.8787],[2.7987,39.8535],[2.7757,39.8399],[2.7407,39.8329],[2.6679,39.7918],[2.664,39.7749],[2.5557,39.7001],[2.5268,39.7015],[2.4974,39.6843],[2.4624,39.6521],[2.421,39.6365],[2.3471,39.5954],[2.3526,39.5726],[2.3749,39.539],[2.4049,39.5262],[2.4668,39.5185],[2.4623,39.4987],[2.4774,39.4771],[2.5213,39.4562],[2.5396,39.524],[2.6199,39.5443],[2.6446,39.5649],[2.6896,39.5526],[2.7418,39.519],[2.7513,39.5049],[2.7218,39.4754],[2.7476,39.4374],[2.7393,39.4174],[2.7524,39.3932],[2.7871,39.3626],[2.8296,39.3557],[2.8438,39.3654],[2.8818,39.3657],[2.9079,39.3565],[2.9574,39.3635],[2.9915,39.3365],[2.986,39.3157],[3.014,39.3101],[3.0174,39.2951],[3.0732,39.2682],[3.1049,39.3001],[3.1485,39.3265],[3.1693,39.3257],[3.1924,39.3462],[3.2299,39.359],[3.2401,39.3749]]],[[[2.9574,39.1638],[2.9207,39.1515],[2.9249,39.1315],[2.9593,39.1357],[2.9574,39.1638]]],[[[1.4621,38.9165],[1.4821,38.9182],[1.5293,38.9454],[1.5312,38.9796],[1.5515,38.9921],[1.5821,38.989],[1.5843,39.0157],[1.6207,39.0363],[1.5943,39.0529],[1.5826,39.0982],[1.5587,39.0929],[1.5424,39.1162],[1.5138,39.1165],[1.4985,39.0996],[1.4524,39.0968],[1.4401,39.0812],[1.3882,39.0796],[1.3763,39.0629],[1.311,39.0443],[1.2899,39.0282],[1.2921,38.9726],[1.2399,38.9679],[1.2146,38.9585],[1.2346,38.9351],[1.2132,38.8971],[1.2224,38.8782],[1.2557,38.8651],[1.2718,38.8788],[1.3218,38.8618],[1.3585,38.8626],[1.3765,38.8318],[1.4024,38.8488],[1.4099,38.8904],[1.4379,38.914],[1.4621,38.9165]]],[[[1.4207,38.7935],[1.4346,38.756],[1.4218,38.7335],[1.3865,38.7243],[1.3879,38.6662],[1.4101,38.6499],[1.4371,38.6796],[1.4654,38.6843],[1.5076,38.6671],[1.5229,38.6532],[1.571,38.6499],[1.5854,38.6621],[1.5707,38.6918],[1.5301,38.6735],[1.506,38.6832],[1.4793,38.7129],[1.4468,38.7337],[1.4318,38.7849],[1.4207,38.7935]]],[[[-8.8735,41.8699],[-8.851,41.8771],[-8.8184,41.9113],[-8.7859,41.9173],[-8.7563,41.9331],[-8.7441,41.9659],[-8.6786,41.9913],[-8.6413,42.0443],[-8.5953,42.0569],[-8.546,42.0542],[-8.5281,42.0747],[-8.443,42.0824],[-8.4289,42.0723],[-8.371,42.0883],[-8.3319,42.0838],[-8.2736,42.1241],[-8.2591,42.1213],[-8.1954,42.1482],[-8.1859,42.0982],[-8.1881,42.0739],[-8.1704,42.0673],[-8.1214,42.0828],[-8.0966,42.0723],[-8.0844,42.0473],[-8.086,42.0165],[-8.1278,42.0056],[-8.1979,41.9395],[-8.2168,41.9135],[-8.2,41.8737],[-8.1717,41.8791],[-8.1617,41.861],[-8.165,41.8181],[-8.1309,41.8089],[-8.0576,41.8157],[-8.0387,41.83],[-8.014,41.829],[-7.9877,41.8692],[-7.9488,41.871],[-7.9213,41.8818],[-7.9063,41.9271],[-7.8879,41.9268],[-7.8844,41.8891],[-7.8922,41.8595],[-7.8415,41.8665],[-7.8452,41.8813],[-7.7783,41.8869],[-7.7635,41.899],[-7.7333,41.8923],[-7.7008,41.9077],[-7.6538,41.8812],[-7.5915,41.8807],[-7.6147,41.8326],[-7.5739,41.8297],[-7.5385,41.8366],[-7.4852,41.8613],[-7.4525,41.8651],[-7.4437,41.8394],[-7.4088,41.8167],[-7.3862,41.8413],[-7.3153,41.8425],[-7.2578,41.8659],[-7.1967,41.88],[-7.1735,41.9191],[-7.1869,41.9663],[-7.1414,41.9907],[-7.0875,41.9735],[-7.0769,41.9519],[-7.0062,41.9506],[-6.9793,41.9738],[-6.9578,41.9689],[-6.9443,41.9446],[-6.8932,41.9398],[-6.8695,41.9484],[-6.8216,41.946],[-6.8113,41.9925],[-6.7687,41.9841],[-6.7506,41.9436],[-6.7,41.9333],[-6.5994,41.9483],[-6.5883,41.9675],[-6.5494,41.9445],[-6.5459,41.9308],[-6.5712,41.8835],[-6.5176,41.8751],[-6.5438,41.7839],[-6.5647,41.7515],[-6.5538,41.6933],[-6.5125,41.6612],[-6.4887,41.6575],[-6.4573,41.6666],[-6.445,41.6848],[-6.3745,41.6737],[-6.3546,41.6764],[-6.3023,41.6618],[-6.2544,41.633],[-6.2358,41.607],[-6.2087,41.5991],[-6.1891,41.5748],[-6.2173,41.5505],[-6.2369,41.5213],[-6.2577,41.5141],[-6.2686,41.4871],[-6.3053,41.4497],[-6.2949,41.4352],[-6.3324,41.4052],[-6.3154,41.3901],[-6.3525,41.3783],[-6.3713,41.392],[-6.4153,41.3479],[-6.4493,41.2988],[-6.4688,41.3013],[-6.5115,41.2644],[-6.5226,41.2756],[-6.5713,41.239],[-6.5866,41.2524],[-6.6484,41.2475],[-6.6529,41.2353],[-6.6914,41.2096],[-6.7004,41.181],[-6.7413,41.1483],[-6.7679,41.1348],[-6.7542,41.104],[-6.8089,41.0365],[-6.8338,41.0285],[-6.8799,41.0282],[-6.9161,41.0384],[-6.9313,41.0294],[-6.9088,40.9989],[-6.8591,40.9497],[-6.8385,40.8905],[-6.809,40.8824],[-6.8019,40.8456],[-6.8241,40.8401],[-6.8169,40.7971],[-6.8257,40.7849],[-6.8286,40.7385],[-6.794,40.6613],[-6.8454,40.5659],[-6.8009,40.5503],[-6.7953,40.5114],[-6.8108,40.5052],[-6.8497,40.4515],[-6.8387,40.4147],[-6.8092,40.3837],[-6.781,40.3645],[-6.7903,40.3342],[-6.8614,40.2996],[-6.868,40.2643],[-6.9073,40.2539],[-6.9514,40.2576],[-6.9659,40.2369],[-6.9983,40.2353],[-7.0107,40.2229],[-7.0213,40.1805],[-7.0152,40.1357],[-6.9998,40.1191],[-6.9542,40.1156],[-6.9208,40.0871],[-6.9173,40.0661],[-6.8972,40.0521],[-6.8667,40.0152],[-6.8867,39.9793],[-6.885,39.9407],[-6.8995,39.9107],[-6.9036,39.8707],[-6.9301,39.8536],[-6.9401,39.8341],[-6.9709,39.825],[-6.9895,39.7947],[-6.9768,39.7723],[-6.9939,39.7403],[-6.9873,39.7276],[-7.0054,39.7018],[-7.0155,39.6704],[-7.065,39.658],[-7.1228,39.6638],[-7.1514,39.6531],[-7.2515,39.6668],[-7.2865,39.6607],[-7.3337,39.6408],[-7.3752,39.6508],[-7.403,39.6463],[-7.4555,39.6624],[-7.5317,39.6673],[-7.5274,39.6349],[-7.5101,39.6188],[-7.4994,39.5896],[-7.4669,39.577],[-7.4267,39.5327],[-7.3885,39.524],[-7.3819,39.4912],[-7.3478,39.488],[-7.2943,39.4568],[-7.3014,39.4227],[-7.3228,39.3813],[-7.3105,39.369],[-7.3103,39.341],[-7.267,39.301],[-7.2315,39.2783],[-7.248,39.2534],[-7.2415,39.2083],[-7.2207,39.1925],[-7.1347,39.1712],[-7.144,39.1086],[-7.1053,39.0992],[-7.0535,39.1177],[-7.0326,39.1173],[-6.9809,39.0878],[-6.9594,39.0545],[-6.9511,39.0236],[-6.9866,38.9763],[-7.0522,38.907],[-7.0329,38.8773],[-7.0686,38.8542],[-7.0964,38.816],[-7.1286,38.8138],[-7.1638,38.7798],[-7.1903,38.7701],[-7.2026,38.7522],[-7.2594,38.7242],[-7.2672,38.6993],[-7.2725,38.6384],[-7.2601,38.6109],[-7.2639,38.5879],[-7.2844,38.5755],[-7.3146,38.5139],[-7.3303,38.4445],[-7.2881,38.4251],[-7.2713,38.3948],[-7.2023,38.329],[-7.1755,38.2885],[-7.143,38.2617],[-7.1429,38.2406],[-7.1178,38.2114],[-7.1078,38.1878],[-7.0854,38.1693],[-7.0435,38.1873],[-7.0295,38.1825],[-6.9805,38.2113],[-6.9357,38.2193],[-6.9348,38.2005],[-6.9614,38.1768],[-6.9583,38.1455],[-6.9878,38.102],[-6.9898,38.0556],[-7.002,38.0224],[-7.0429,38.0165],[-7.0987,38.0438],[-7.1283,38.0295],[-7.1291,38.0108],[-7.1562,37.994],[-7.2023,38.0034],[-7.2267,37.9881],[-7.2457,37.9922],[-7.2582,37.9221],[-7.3013,37.8416],[-7.3244,37.8158],[-7.3686,37.7874],[-7.4187,37.7438],[-7.4478,37.6975],[-7.4531,37.6485],[-7.471,37.6349],[-7.5227,37.5531],[-7.5117,37.5249],[-7.4954,37.5234],[-7.4567,37.4524],[-7.4613,37.4131],[-7.4405,37.391],[-7.4363,37.3614],[-7.4448,37.3465],[-7.4422,37.3113],[-7.4217,37.2738],[-7.432,37.2594],[-7.4196,37.2381],[-7.4073,37.1834],[-7.3801,37.1718],[-7.3507,37.1774],[-7.3379,37.196],[-7.3163,37.1932],[-7.2749,37.2026],[-7.2096,37.2046],[-7.1704,37.2157],[-7.0843,37.2149],[-7.0174,37.2004],[-6.9707,37.1782],[-6.9779,37.2068],[-6.9963,37.209],[-7.0126,37.2365],[-6.988,37.2551],[-6.9566,37.2468],[-6.936,37.2179],[-6.9318,37.186],[-6.8715,37.1488],[-6.8076,37.126],[-6.7468,37.0996],[-6.5982,37.0238],[-6.5201,36.9768],[-6.4615,36.9232],[-6.4268,36.8701],[-6.3971,36.8099],[-6.3465,36.7912],[-6.4196,36.7457],[-6.4418,36.7393],[-6.4393,36.7201],[-6.3937,36.634],[-6.3549,36.6151],[-6.3424,36.6265],[-6.2976,36.6168],[-6.2696,36.5829],[-6.2274,36.5812],[-6.2243,36.5524],[-6.2329,36.5035],[-6.1921,36.5249],[-6.1737,36.5213],[-6.2157,36.4671],[-6.2582,36.4663],[-6.2332,36.4362],[-6.2074,36.3846],[-6.1838,36.3704],[-6.1437,36.2968],[-6.1149,36.2943],[-6.0871,36.2707],[-6.079,36.2449],[-6.054,36.2029],[-6.0271,36.1862],[-5.9854,36.1768],[-5.9454,36.1871],[-5.9093,36.1829],[-5.8424,36.1312],[-5.8246,36.1021],[-5.7993,36.0788],[-5.7682,36.0857],[-5.7507,36.0713],[-5.7107,36.0582],[-5.6885,36.0687],[-5.6238,36.0354],[-5.6085,36.0112],[-5.5813,36.0126],[-5.5168,36.0368],[-5.4863,36.054],[-5.4643,36.0499],[-5.4307,36.0704],[-5.4446,36.0938],[-5.4343,36.1437],[-5.4357,36.1688],[-5.4115,36.1815],[-5.386,36.1804],[-5.3535,36.1572],[-5.336,36.1776],[-5.3204,36.2229],[-5.2971,36.2451],[-5.2696,36.2993],[-5.2463,36.311],[-5.2218,36.3737],[-5.1776,36.414],[-5.1101,36.4326],[-5.0813,36.451],[-5.0335,36.4615],[-5.006,36.4593],[-4.9385,36.4985],[-4.9124,36.5057],[-4.8571,36.5074],[-4.7412,36.4846],[-4.694,36.4904],[-4.6771,36.5037],[-4.639,36.5062],[-4.6093,36.5579],[-4.5879,36.5729],[-4.539,36.5785],[-4.5096,36.6001],[-4.4879,36.6326],[-4.4532,36.6676],[-4.431,36.7068],[-4.3965,36.7227],[-4.3457,36.7135],[-4.2854,36.7149],[-4.2501,36.7104],[-4.1787,36.7154],[-4.1093,36.7249],[-4.0649,36.7487],[-3.9968,36.7393],[-3.9563,36.7262],[-3.921,36.741],[-3.8843,36.7407],[-3.8335,36.7537],[-3.7904,36.7457],[-3.7665,36.7304],[-3.7032,36.7337],[-3.6754,36.7296],[-3.6579,36.7463],[-3.6007,36.7438],[-3.5796,36.7235],[-3.554,36.7146],[-3.5149,36.7238],[-3.4821,36.6968],[-3.426,36.6954],[-3.3651,36.7137],[-3.339,36.7382],[-3.3048,36.7379],[-3.261,36.7532],[-3.2112,36.7449],[-3.1129,36.751],[-3.0724,36.7454],[-3.0212,36.7471],[-2.9762,36.7382],[-2.9265,36.7521],[-2.8988,36.739],[-2.859,36.7001],[-2.8187,36.7062],[-2.7721,36.6815],[-2.6996,36.6824],[-2.6437,36.7046],[-2.6146,36.7335],[-2.5985,36.7774],[-2.5651,36.814],[-2.4615,36.8326],[-2.4257,36.8104],[-2.3674,36.8415],[-2.3182,36.8335],[-2.2921,36.821],[-2.254,36.7893],[-2.194,36.721],[-2.1226,36.7429],[-2.0951,36.7643],[-2.0649,36.7746],[-2.061,36.8085],[-1.9957,36.8501],[-2.0035,36.8818],[-1.9676,36.8982],[-1.9338,36.9388],[-1.9065,36.936],[-1.8985,36.9543],[-1.9012,36.9876],[-1.8779,37.0146],[-1.8493,37.0693],[-1.8504,37.0926],[-1.8326,37.1207],[-1.824,37.1718],[-1.7954,37.2329],[-1.776,37.2382],[-1.7576,37.2646],[-1.7071,37.3051],[-1.6743,37.3554],[-1.6537,37.3537],[-1.6049,37.3954],[-1.5482,37.4113],[-1.5179,37.4319],[-1.4901,37.421],[-1.4724,37.4696],[-1.4535,37.4915],[-1.416,37.5071],[-1.3635,37.5451],[-1.3257,37.5627],[-1.2621,37.5571],[-1.2463,37.5763],[-1.2024,37.5735],[-1.1682,37.5571],[-1.1668,37.5421],[-1.1271,37.5485],[-1.1107,37.5677],[-1.0715,37.5838],[-1.0124,37.5749],[-0.9885,37.5879],[-0.9524,37.5574],[-0.9151,37.5591],[-0.8662,37.5796],[-0.8218,37.5746],[-0.7829,37.594],[-0.7179,37.6065],[-0.7015,37.6304],[-0.7224,37.6429],[-0.7424,37.6327],[-0.7868,37.6507],[-0.8235,37.6738],[-0.8565,37.7126],[-0.8401,37.7526],[-0.8001,37.7826],[-0.794,37.8124],[-0.7662,37.8268],[-0.7615,37.8649],[-0.7407,37.9093],[-0.719,37.9115],[-0.6932,37.9721],[-0.6776,37.9726],[-0.6529,37.9965],[-0.6513,38.0615],[-0.6385,38.1368],[-0.6146,38.174],[-0.5951,38.189],[-0.5288,38.1896],[-0.5104,38.201],[-0.521,38.2899],[-0.5118,38.324],[-0.4449,38.3632],[-0.4124,38.3515],[-0.4013,38.4121],[-0.3751,38.4426],[-0.2896,38.4874],[-0.2235,38.5085],[-0.1732,38.5154],[-0.1476,38.5368],[-0.1115,38.5346],[-0.0965,38.5235],[-0.0487,38.5632],[-0.0624,38.581],[-0.0157,38.6265],[0.0268,38.6282],[0.0676,38.6404],[0.1018,38.6738],[0.1557,38.6871],[0.1826,38.7212],[0.2335,38.7463],[0.184,38.7854],[0.1901,38.8093],[0.1488,38.8318],[0.0924,38.8543],[0.0546,38.8635],[0.0346,38.8599],[-0.0149,38.8713],[-0.0649,38.9051],[-0.1071,38.9415],[-0.1488,38.9849],[-0.1874,39.0363],[-0.2082,39.0724],[-0.2396,39.146],[-0.2401,39.1743],[-0.2199,39.1807],[-0.2926,39.3065],[-0.3165,39.3618],[-0.3343,39.4235],[-0.3238,39.446],[-0.3251,39.4876],[-0.3162,39.5235],[-0.2812,39.5624],[-0.266,39.6046],[-0.2374,39.6365],[-0.214,39.6468],[-0.1974,39.704],[-0.1821,39.7335],[-0.0879,39.8554],[-0.0549,39.8751],[-0.006,39.9146],[0.0085,39.9663],[0.0196,39.9676],[0.0343,40.0115],[0.0493,40.0351],[0.0837,40.0571],[0.1068,40.056],[0.1351,40.0737],[0.1837,40.1632],[0.2243,40.1946],[0.264,40.2079],[0.2796,40.2446],[0.3257,40.2754],[0.3657,40.3246],[0.4024,40.3529],[0.4179,40.4012],[0.5135,40.5157],[0.5382,40.5671],[0.601,40.6221],[0.6635,40.6263],[0.7262,40.6393],[0.7396,40.626],[0.7112,40.5926],[0.6599,40.5854],[0.6035,40.5612],[0.6343,40.5532],[0.6704,40.5604],[0.704,40.581],[0.736,40.621],[0.769,40.6474],[0.846,40.6785],[0.8696,40.696],[0.8743,40.7318],[0.8304,40.7335],[0.7826,40.7724],[0.7707,40.764],[0.7301,40.7696],[0.6996,40.8015],[0.7418,40.8229],[0.7451,40.8385],[0.7932,40.8674],[0.8571,40.9374],[0.9162,40.9893],[0.9876,41.0412],[1.0507,41.0649],[1.0846,41.064],[1.1232,41.0749],[1.1724,41.0546],[1.1904,41.0874],[1.224,41.091],[1.3007,41.129],[1.344,41.1246],[1.4018,41.1321],[1.4374,41.156],[1.5379,41.1829],[1.6735,41.1974],[1.6965,41.2079],[1.7843,41.2232],[1.814,41.236],[1.8549,41.2337],[1.9037,41.254],[1.9515,41.2649],[2.0274,41.2668],[2.1079,41.2874],[2.1388,41.3074],[2.1732,41.3638],[2.201,41.384],[2.266,41.4593],[2.3063,41.4757],[2.381,41.4951],[2.4629,41.5435],[2.5074,41.5563],[2.5521,41.5788],[2.7182,41.6287],[2.7774,41.6493],[2.7929,41.6738],[2.8487,41.6987],[2.9129,41.7074],[2.946,41.7254],[2.9776,41.7576],[3.0487,41.7818],[3.071,41.8193],[3.1051,41.8465],[3.146,41.8504],[3.1724,41.8629],[3.1829,41.8874],[3.2026,41.8913],[3.2318,41.9688],[3.2132,41.9749],[3.1971,42.0015],[3.196,42.0462],[3.2063,42.0743],[3.1712,42.1149],[3.1401,42.1146],[3.1143,42.149],[3.1096,42.1937],[3.119,42.229],[3.1468,42.2585],[3.1707,42.2649],[3.1829,42.2451],[3.2179,42.2321],[3.2437,42.2496],[3.2763,42.2524],[3.2921,42.2924],[3.3168,42.3238],[3.2304,42.3521],[3.1879,42.3518],[3.1554,42.3812],[3.171,42.434],[3.1081,42.4336],[3.0858,42.4258],[3.0474,42.4568],[2.9868,42.4731],[2.9675,42.4655],[2.9471,42.4818],[2.9184,42.4562],[2.8399,42.459],[2.7993,42.4183],[2.7712,42.4122],[2.7519,42.4254],[2.724,42.4227],[2.6739,42.4045],[2.66,42.3408],[2.6118,42.3461],[2.5822,42.3571],[2.5552,42.3527],[2.542,42.3339],[2.4832,42.3399],[2.4669,42.3595],[2.4355,42.3753],[2.4333,42.392],[2.3608,42.4029],[2.3106,42.4284],[2.2912,42.4229],[2.2571,42.4385],[2.207,42.4187],[2.1569,42.4234],[2.1332,42.4143],[2.1164,42.3834],[2.0859,42.3637],[2.0235,42.3552],[1.9858,42.3622],[1.9644,42.3826],[1.9338,42.4542],[1.9157,42.4462],[1.8473,42.4683],[1.8052,42.4887],[1.7676,42.4868],[1.7263,42.5049],[1.7036,42.4898],[1.6626,42.4936],[1.6559,42.4682],[1.567,42.459],[1.5526,42.4335],[1.5123,42.4296],[1.4516,42.4375],[1.441,42.4755],[1.4192,42.4838],[1.4692,42.5108],[1.4262,42.5587],[1.442,42.5993],[1.4209,42.6249],[1.413,42.6526],[1.3879,42.6873],[1.3518,42.7029],[1.3574,42.7194],[1.2519,42.7148],[1.2293,42.7277],[1.165,42.7095],[1.1332,42.7283],[1.1292,42.7527],[1.107,42.7715],[1.0732,42.7824],[1.0441,42.7808],[1.0071,42.7902],[0.9845,42.7862],[0.9604,42.8052],[0.9258,42.7897],[0.8583,42.8257],[0.8015,42.8405],[0.7788,42.8361],[0.7082,42.8613],[0.6626,42.8411],[0.6701,42.8244],[0.66,42.7984],[0.6599,42.7522],[0.682,42.7091],[0.6646,42.6911],[0.5259,42.7021],[0.5162,42.6917],[0.4681,42.6949],[0.4353,42.6896],[0.3961,42.6939],[0.3923,42.7119],[0.3604,42.7237],[0.3277,42.7053],[0.327,42.6909],[0.2932,42.6762],[0.2635,42.6938],[0.2596,42.7158],[0.227,42.7174],[0.176,42.7356],[0.1563,42.7235],[0.1071,42.71],[0.087,42.7164],[0.0495,42.6957],[0.0153,42.7008],[0.0007,42.6852],[-0.0616,42.6947],[-0.0688,42.7161],[-0.1031,42.7216],[-0.1477,42.7739],[-0.2374,42.8077],[-0.2388,42.8178],[-0.3064,42.8413],[-0.3508,42.8334],[-0.3842,42.8039],[-0.4146,42.8054],[-0.4449,42.796],[-0.4929,42.8167],[-0.5241,42.8113],[-0.5297,42.7915],[-0.5677,42.7809],[-0.5736,42.8074],[-0.6004,42.8025],[-0.6023,42.8301],[-0.6487,42.8551],[-0.6794,42.8829],[-0.6984,42.879],[-0.733,42.898],[-0.7333,42.9462],[-0.7528,42.967],[-0.7844,42.9643],[-0.8088,42.9515],[-0.8975,42.9558],[-0.9451,42.9535],[-0.9963,42.9749],[-1.0147,42.9928],[-1.072,42.9979],[-1.1133,43.0212],[-1.1811,43.0322],[-1.2124,43.0514],[-1.2475,43.0424],[-1.3085,43.0692],[-1.2995,43.0923],[-1.3196,43.1128],[-1.3452,43.093],[-1.3441,43.0559],[-1.3537,43.028],[-1.4414,43.0462],[-1.4722,43.0816],[-1.463,43.0984],[-1.4157,43.1285],[-1.4019,43.1785],[-1.3849,43.1883],[-1.3842,43.2532],[-1.4132,43.2734],[-1.4383,43.2667],[-1.494,43.2824],[-1.5059,43.2933],[-1.5617,43.2884],[-1.5669,43.2592],[-1.608,43.2523],[-1.6302,43.2849],[-1.6239,43.304],[-1.6694,43.3142],[-1.7289,43.2961],[-1.7388,43.329],[-1.753,43.3407],[-1.7982,43.3507],[-1.7979,43.3801],[-1.8338,43.3838],[-1.871,43.3688],[-1.8835,43.3493],[-1.9274,43.3354],[-1.9624,43.3376],[-1.9904,43.3149],[-2.0226,43.3221],[-2.1332,43.2915],[-2.1779,43.2876],[-2.2287,43.3112],[-2.2843,43.2949],[-2.3568,43.304],[-2.4279,43.3324],[-2.4601,43.336],[-2.5057,43.3746],[-2.5507,43.3743],[-2.5637,43.3913],[-2.6196,43.3921],[-2.636,43.4121],[-2.6815,43.4101],[-2.7385,43.4296],[-2.7521,43.4568],[-2.7965,43.4399],[-2.8657,43.4304],[-2.8813,43.4365],[-2.9471,43.436],[-2.9921,43.3904],[-3.0301,43.3782],[-3.0326,43.3462],[-3.0665,43.3476],[-3.0926,43.3629],[-3.1126,43.3501],[-3.1626,43.3532],[-3.2082,43.3768],[-3.2229,43.3968],[-3.2829,43.4032],[-3.3257,43.4162],[-3.4407,43.419],[-3.4665,43.4012],[-3.4882,43.4279],[-3.4885,43.4479],[-3.4376,43.4362],[-3.4335,43.464],[-3.4618,43.4615],[-3.511,43.4738],[-3.5143,43.4932],[-3.5451,43.5082],[-3.5971,43.5135],[-3.6196,43.4965],[-3.6443,43.4993],[-3.6868,43.4751],[-3.7235,43.4732],[-3.7451,43.4485],[-3.7712,43.4487],[-3.7799,43.4215],[-3.8274,43.4324],[-3.7876,43.4765],[-3.8124,43.4946],[-3.8601,43.4774],[-3.9449,43.4688],[-3.9835,43.4335],[-4.0238,43.4415],[-4.0943,43.4276],[-4.1174,43.4174],[-4.221,43.3937],[-4.2324,43.4015],[-4.3271,43.3904],[-4.3474,43.4065],[-4.3813,43.3901],[-4.4124,43.3988],[-4.4721,43.3918],[-4.5374,43.4004],[-4.5568,43.3937],[-4.6243,43.3979],[-4.7407,43.4179],[-4.7707,43.4307],[-4.839,43.4465],[-4.8829,43.4485],[-4.9457,43.4615],[-4.9801,43.459],[-5.0735,43.466],[-5.0854,43.4762],[-5.1293,43.484],[-5.2151,43.4735],[-5.2651,43.5176],[-5.2988,43.5357],[-5.3854,43.5326],[-5.396,43.5501],[-5.516,43.5521],[-5.6093,43.5499],[-5.6199,43.5579],[-5.6924,43.5432],[-5.7168,43.5685],[-5.7543,43.5838],[-5.7879,43.619],[-5.8288,43.6404],[-5.9151,43.6243],[-5.9129,43.6079],[-5.9429,43.5857],[-6.0115,43.5796],[-6.1162,43.5549],[-6.1707,43.5696],[-6.1824,43.564],[-6.2407,43.5927],[-6.3035,43.5635],[-6.3465,43.5526],[-6.3962,43.5601],[-6.4299,43.5526],[-6.4701,43.5707],[-6.4815,43.5526],[-6.5226,43.551],[-6.6337,43.569],[-6.6776,43.5593],[-6.7196,43.5588],[-6.9421,43.5746],[-6.9568,43.5638],[-7.0351,43.5507],[-7.061,43.5599],[-7.0918,43.5557],[-7.1704,43.556],[-7.1801,43.5624],[-7.2454,43.5651],[-7.246,43.5765],[-7.2954,43.594],[-7.3093,43.6174],[-7.3432,43.6404],[-7.3554,43.6701],[-7.3957,43.6799],[-7.479,43.7088],[-7.4668,43.7238],[-7.5504,43.7299],[-7.5768,43.6926],[-7.6118,43.6724],[-7.6149,43.7021],[-7.6304,43.7224],[-7.6296,43.7457],[-7.6682,43.7485],[-7.7149,43.766],[-7.7287,43.7507],[-7.8126,43.7268],[-7.8285,43.7132],[-7.8718,43.7324],[-7.8596,43.764],[-7.9085,43.7615],[-7.9635,43.7212],[-8.006,43.7043],[-8.0399,43.714],[-8.0624,43.7054],[-8.0818,43.6526],[-8.1388,43.6354],[-8.1604,43.6143],[-8.1987,43.6124],[-8.2174,43.5821],[-8.2626,43.5563],[-8.326,43.5599],[-8.2937,43.5335],[-8.3232,43.5257],[-8.3251,43.4837],[-8.3099,43.4543],[-8.2579,43.4193],[-8.2371,43.4285],[-8.204,43.4201],[-8.2215,43.3921],[-8.2082,43.3379],[-8.241,43.3429],[-8.2721,43.3865],[-8.3287,43.4029],[-8.3476,43.3479],[-8.3626,43.341],[-8.3918,43.3585],[-8.3996,43.3904],[-8.4385,43.3824],[-8.4596,43.3626],[-8.4951,43.3499],[-8.5087,43.3262],[-8.556,43.3112],[-8.591,43.3218],[-8.6207,43.3171],[-8.6968,43.2915],[-8.7749,43.3001],[-8.8068,43.3271],[-8.914,43.3193],[-8.9071,43.2951],[-8.9524,43.2949],[-8.9865,43.2768],[-8.9563,43.2643],[-8.9479,43.241],[-9.034,43.2143],[-9.0601,43.1835],[-9.0982,43.194],[-9.1374,43.1935],[-9.179,43.1829],[-9.1896,43.1607],[-9.2151,43.1515],[-9.2051,43.129],[-9.1832,43.1232],[-9.2207,43.0904],[-9.2568,43.0921],[-9.2599,43.0515],[-9.2879,43.0435],[-9.2793,43.0124],[-9.2582,43.0029],[-9.2607,42.9721],[-9.2849,42.9551],[-9.2982,42.9218],[-9.2085,42.9271],[-9.174,42.944],[-9.1624,42.9118],[-9.1279,42.9071],[-9.1485,42.8835],[-9.1362,42.8457],[-9.1093,42.839],[-9.1121,42.8124],[-9.1515,42.8063],[-9.0935,42.7499],[-9.0582,42.759],[-9.0526,42.7762],[-8.9746,42.7915],[-8.9288,42.7837],[-8.9568,42.7454],[-8.9896,42.7415],[-9.0343,42.6949],[-9.0404,42.6413],[-9.081,42.5968],[-9.0824,42.566],[-9.0518,42.5749],[-9.0324,42.5446],[-9.0454,42.5251],[-9.0232,42.5165],[-8.9832,42.5435],[-8.9821,42.5685],[-8.9535,42.5849],[-8.8993,42.6407],[-8.8879,42.6201],[-8.8601,42.6113],[-8.861,42.6463],[-8.8415,42.664],[-8.7999,42.6365],[-8.7638,42.6518],[-8.7535,42.6415],[-8.7779,42.6137],[-8.766,42.6024],[-8.8365,42.554],[-8.8124,42.4946],[-8.8213,42.4676],[-8.8685,42.4471],[-8.8562,42.4774],[-8.8676,42.499],[-8.8899,42.4963],[-8.9082,42.4746],[-8.8821,42.4554],[-8.8821,42.424],[-8.8479,42.3976],[-8.8149,42.4012],[-8.7607,42.3949],[-8.7046,42.4343],[-8.6815,42.4071],[-8.7257,42.3854],[-8.7446,42.3682],[-8.7521,42.3424],[-8.7921,42.3271],[-8.7999,42.339],[-8.8374,42.3404],[-8.8185,42.3068],[-8.8315,42.2832],[-8.8576,42.3093],[-8.8629,42.2682],[-8.8271,42.2507],[-8.7876,42.2476],[-8.7354,42.2729],[-8.6899,42.2799],[-8.6518,42.2979],[-8.6621,42.3107],[-8.6363,42.3262],[-8.6112,42.3282],[-8.6285,42.2851],[-8.6468,42.2907],[-8.676,42.2649],[-8.7035,42.2596],[-8.7149,42.2407],[-8.7782,42.219],[-8.7804,42.2032],[-8.8124,42.1915],[-8.8168,42.1351],[-8.8363,42.1124],[-8.8632,42.1215],[-8.9004,42.1126],[-8.8854,42.0507],[-8.8882,41.9715],[-8.8849,41.916],[-8.8735,41.8699]]]]},"properties":{"GID_0":"ESP","ISO_A2":"ES","ISO_A3":"ESP","NAME_EN":"Spain","NAME_IT":"Spagna"}}
]}