{"type":"FeatureCollection", "features": [
{"type":"Feature","geometry":{"type":"Polygon","coordinates":[[[1.3983,9.4539],[1.3654,9.4856],[1.3425,9.5458],[1.3666,9.6115],[1.3641,10.0121],[1,10.22],[0.7743,10.3851],[0.7835,10.5126],[0.8065,10.5812],[0.8127,10.6914],[0.8368,10.7548],[0.8737,10.8064],[0.9008,10.8869],[0.8902,10.9202],[0.9123,10.9965],[0.6391,10.9996],[0.5092,10.9526],[0.5039,11.0127],[0.3593,11.0447],[0.2915,11.0504],[0.0355,11.1113],[-0.1317,11.138],[-0.0949,11.0859],[-0.0049,11.1078],[0.0243,11.0629],[0.0248,10.9725],[-0.0058,10.9636],[-0.0076,10.9146],[-0.0299,10.8559],[-0.0222,10.8197],[-0.0746,10.7569],[-0.0784,10.6906],[-0.0603,10.6337],[0.0413,10.6016],[0.0604,10.5616],[0.1426,10.5266],[0.1754,10.424],[0.2018,10.4069],[0.286,10.4211],[0.348,10.3076],[0.3611,10.2586],[0.351,10.1919],[0.3645,10.0853],[0.4149,10.0632],[0.4104,10.0217],[0.3602,10.0294],[0.3581,9.8485],[0.3187,9.7282],[0.3458,9.7145],[0.382,9.6449],[0.3518,9.5727],[0.2434,9.5763],[0.243,9.524],[0.3079,9.5017],[0.2287,9.4631],[0.2847,9.4298],[0.3376,9.4519],[0.3596,9.4992],[0.4464,9.5014],[0.4891,9.4868],[0.4958,9.4458],[0.5666,9.4056],[0.5637,9.3173],[0.508,9.2546],[0.5391,9.2135],[0.4555,9.0356],[0.5147,8.9354],[0.5276,8.8778],[0.5002,8.8143],[0.4412,8.7891],[0.3796,8.791],[0.3835,8.7406],[0.4717,8.5997],[0.591,8.5167],[0.6453,8.4938],[0.6518,8.422],[0.686,8.4112],[0.7282,8.3436],[0.731,8.2887],[0.6389,8.2606],[0.6191,8.2151],[0.59,8.2077],[0.6113,8.1541],[0.585,8.0933],[0.6126,8.0057],[0.6274,7.8682],[0.6114,7.7528],[0.5907,7.703],[0.586,7.6239],[0.5366,7.6046],[0.5214,7.5201],[0.5359,7.4263],[0.5617,7.3986],[0.6196,7.4133],[0.6447,7.3979],[0.6589,7.3166],[0.6313,7.1964],[0.5944,7.1189],[0.6027,7.0232],[0.5225,6.9725],[0.5259,6.9416],[0.5661,6.9208],[0.5341,6.8753],[0.573,6.81],[0.5817,6.7615],[0.6504,6.7376],[0.6352,6.6406],[0.6917,6.5917],[0.7424,6.589],[0.719,6.5349],[0.7492,6.4482],[0.7875,6.4134],[0.8619,6.3792],[0.8926,6.3355],[1.0036,6.3353],[1.0079,6.2938],[1.0548,6.2333],[1.0857,6.1686],[1.2002,6.1676],[1.1995,6.1135],[1.2873,6.1321],[1.2929,6.1476],[1.4824,6.204],[1.5882,6.224],[1.6789,6.2575],[1.7972,6.2789],[1.7984,6.3135],[1.7508,6.4641],[1.7024,6.513],[1.6963,6.5534],[1.6124,6.6109],[1.5902,6.6842],[1.6259,6.7598],[1.5986,6.8006],[1.6052,6.906],[1.5767,6.9221],[1.5576,6.998],[1.6416,6.994],[1.6375,7.1255],[1.6357,7.4166],[1.644,7.4857],[1.6755,7.4944],[1.6495,7.5482],[1.6508,7.6134],[1.6309,7.6766],[1.6296,7.8266],[1.636,7.9915],[1.6413,8.3004],[1.6253,8.3516],[1.6492,8.4908],[1.6375,8.5089],[1.6286,8.6476],[1.6327,8.8603],[1.6221,8.9552],[1.63,8.999],[1.6177,9.0716],[1.5594,9.1699],[1.462,9.2547],[1.4079,9.335],[1.3983,9.4539]]]},"properties":{"GID_0":"TGO","ISO_A2":"TG","ISO_A3":"TGO","NAME_EN":"Togo","NAME_IT":"Togo"}}
]}