{"type":"FeatureCollection", "features": [
{"type":"Feature","geometry":{"type":"MultiPolygon","coordinates":[[[[-56.5775,1.9107],[-56.4803,1.9415],[-56.5555,2.0098],[-56.6549,2.0147],[-56.707,2.034],[-56.7865,2.1419],[-56.8196,2.2047],[-56.8256,2.2707],[-56.8838,2.3009],[-56.8811,2.3552],[-56.9262,2.3818],[-56.9309,2.4283],[-56.9948,2.5035],[-56.996,2.5539],[-57.0599,2.6443],[-57.1098,2.7705],[-57.2076,2.8418],[-57.2258,2.902],[-57.2137,3.0684],[-57.2946,3.1292],[-57.3051,3.3735],[-57.4126,3.3569],[-57.478,3.3335],[-57.6106,3.3854],[-57.6557,3.3678],[-57.6924,3.4022],[-57.6969,3.4547],[-57.6742,3.5065],[-57.7409,3.6041],[-57.8282,3.652],[-57.8573,3.7775],[-57.9286,3.8896],[-58,3.8936],[-58.0507,3.982],[-58.0572,4.0748],[-58.0864,4.1312],[-58.0365,4.229],[-58.0018,4.2686],[-58,4.3264],[-57.9246,4.4614],[-57.8835,4.568],[-57.8458,4.631],[-57.8832,4.7606],[-57.9192,4.7693],[-57.9286,4.833],[-57.8736,4.9047],[-57.8182,4.9451],[-57.762,4.937],[-57.7513,4.9752],[-57.6905,5.0179],[-57.6138,5.0068],[-57.5394,5.028],[-57.4157,5.0055],[-57.3298,5.0416],[-57.34,5.071],[-57.2952,5.2209],[-57.2976,5.2922],[-57.3308,5.3487],[-57.2775,5.4121],[-57.2793,5.4571],[-57.1807,5.6135],[-57.1719,5.6752],[-57.1884,5.7184],[-57.1465,5.9949],[-57.1771,6.1101],[-57.2768,6.2218],[-57.3996,6.3079],[-57.4801,6.3426],[-57.5632,6.3274],[-57.574,6.3721],[-57.6271,6.449],[-57.741,6.5451],[-57.8101,6.6185],[-58.021,6.7987],[-58.1215,6.8268],[-58.1932,6.8176],[-58.2818,6.8746],[-58.3512,6.8826],[-58.4243,6.8635],[-58.4657,6.8271],[-58.559,6.6821],[-58.584,6.549],[-58.5757,6.5079],[-58.616,6.4696],[-58.6215,6.6235],[-58.6012,6.709],[-58.6026,6.7882],[-58.5732,6.8821],[-58.536,6.9554],[-58.4857,7.016],[-58.4746,7.1376],[-58.4885,7.1899],[-58.4768,7.2635],[-58.4835,7.3424],[-58.6376,7.5351],[-58.6771,7.601],[-58.7671,7.6268],[-58.8282,7.729],[-58.9374,7.8185],[-59.0185,7.9207],[-59.1282,8.0329],[-59.2224,8.0957],[-59.4799,8.2493],[-59.6043,8.311],[-59.7404,8.3946],[-59.8213,8.3121],[-59.833,8.2407],[-59.9465,8.2229],[-59.9933,8.1602],[-60.0062,8.0629],[-60.0649,8.0274],[-60.2169,7.9605],[-60.2769,7.8886],[-60.3603,7.8285],[-60.5026,7.8411],[-60.5647,7.7662],[-60.5906,7.6457],[-60.6381,7.6014],[-60.6265,7.5227],[-60.6361,7.4366],[-60.5886,7.3234],[-60.6327,7.27],[-60.6286,7.2292],[-60.548,7.1407],[-60.4766,7.1992],[-60.3827,7.1833],[-60.3542,7.1384],[-60.3428,7.0356],[-60.3979,6.9476],[-60.4435,6.9369],[-60.5458,6.8566],[-60.6518,6.818],[-60.6816,6.767],[-60.7206,6.7479],[-60.8116,6.7973],[-60.9018,6.822],[-60.8915,6.761],[-60.9337,6.7215],[-60.9952,6.7291],[-61.0789,6.706],[-61.1293,6.7246],[-61.1728,6.6789],[-61.2161,6.562],[-61.1692,6.5212],[-61.182,6.4754],[-61.1452,6.421],[-61.1737,6.33],[-61.1311,6.2534],[-61.1346,6.1772],[-61.1763,6.1867],[-61.2031,6.117],[-61.2514,6.1124],[-61.3048,6.0526],[-61.3247,5.999],[-61.3869,5.9475],[-61.2452,5.7833],[-61.1328,5.663],[-60.7732,5.2542],[-60.7363,5.1975],[-60.6617,5.2217],[-60.5718,5.1894],[-60.5165,5.1988],[-60.438,5.1769],[-60.3966,5.2118],[-60.3292,5.1991],[-60.3034,5.2259],[-60.2123,5.2645],[-60.1826,5.2298],[-60.1219,5.2439],[-60.0854,5.1487],[-59.9694,5.0687],[-60.0333,4.7904],[-60.0284,4.7098],[-60.0735,4.6628],[-60.0917,4.5952],[-60.1585,4.5709],[-60.1596,4.5196],[-60.0629,4.5136],[-59.9776,4.4873],[-59.9245,4.5077],[-59.9013,4.4689],[-59.7856,4.4446],[-59.7353,4.4175],[-59.6774,4.3467],[-59.718,4.296],[-59.7288,4.2373],[-59.713,4.1716],[-59.6278,4.1391],[-59.655,4.0791],[-59.6169,4.0594],[-59.5157,3.9414],[-59.5774,3.8927],[-59.5756,3.8251],[-59.6659,3.7768],[-59.6613,3.7132],[-59.7582,3.6455],[-59.7668,3.6232],[-59.8492,3.6005],[-59.8649,3.5616],[-59.8038,3.4973],[-59.8349,3.4407],[-59.7981,3.3564],[-59.8699,3.2701],[-59.9106,3.1837],[-59.8974,3.16],[-59.959,3.0629],[-59.9548,2.9918],[-59.9816,2.9292],[-59.9912,2.8267],[-59.9878,2.6791],[-59.9326,2.5684],[-59.9077,2.4711],[-59.9087,2.3924],[-59.7875,2.2859],[-59.7345,2.2847],[-59.7219,2.2382],[-59.7399,2.1775],[-59.7228,2.1146],[-59.742,2.062],[-59.7202,2.0302],[-59.7523,1.9102],[-59.7443,1.847],[-59.7042,1.8541],[-59.6411,1.8247],[-59.6796,1.7853],[-59.6178,1.731],[-59.5481,1.7302],[-59.4759,1.6281],[-59.4424,1.6109],[-59.3826,1.5213],[-59.3369,1.5174],[-59.2527,1.3974],[-59.1557,1.3483],[-58.9138,1.2985],[-58.9036,1.2338],[-58.7955,1.177],[-58.7461,1.1999],[-58.692,1.2885],[-58.5889,1.2709],[-58.5476,1.2867],[-58.5071,1.2644],[-58.4733,1.2994],[-58.4727,1.3728],[-58.5026,1.4445],[-58.4815,1.4634],[-58.3821,1.4706],[-58.3758,1.5461],[-58.3186,1.5936],[-58.2347,1.5533],[-58.1661,1.5595],[-58.1292,1.5031],[-58.0013,1.5051],[-57.9994,1.667],[-57.9324,1.6466],[-57.8167,1.6802],[-57.7698,1.7199],[-57.6391,1.6913],[-57.5441,1.7023],[-57.453,1.8393],[-57.4231,1.9061],[-57.3563,1.9637],[-57.3024,1.9901],[-57.2538,1.9451],[-57.1224,2.0141],[-57.0813,2.0193],[-57.0601,1.9579],[-56.9862,1.9107],[-56.9145,1.9179],[-56.8002,1.8639],[-56.7235,1.9196],[-56.676,1.9133],[-56.629,1.9398],[-56.5775,1.9107]]],[[[-58.4871,6.9346],[-58.4007,6.9921],[-58.4332,7.021],[-58.4871,6.9346]]]]},"properties":{"GID_0":"GUY","ISO_A2":"GY","ISO_A3":"GUY","NAME_EN":"Guyana","NAME_IT":"Guyana"}}
]}