{"type":"FeatureCollection", "features": [
{"type":"Feature","geometry":{"type":"Polygon","coordinates":[[[-64.1069,-22.3579],[-64.0654,-22.2462],[-63.9969,-22.142],[-63.9865,-22.0936],[-63.9308,-21.9993],[-63.6671,-22.0035],[-62.8077,-22.0039],[-62.7963,-22.059],[-62.8121,-22.1338],[-62.7761,-22.173],[-62.7363,-22.17],[-62.6439,-22.2466],[-62.2607,-21.0585],[-62.2666,-20.5627],[-61.9224,-20.0892],[-61.7355,-19.6342],[-61.1222,-19.5391],[-60.601,-19.4559],[-59.9769,-19.2952],[-59.6457,-19.3125],[-59.2497,-19.3408],[-59.1145,-19.344],[-58.8235,-19.4969],[-58.6406,-19.5864],[-58.2354,-19.7755],[-58.1648,-19.8271],[-58.2019,-19.8648],[-58.1959,-19.9282],[-58.1649,-20.0651],[-58.118,-20.1395],[-58.0503,-20.1004],[-58.0252,-20.0586],[-57.978,-20.0535],[-57.9569,-20.0226],[-57.909,-20.0194],[-57.8767,-19.9659],[-57.9873,-19.888],[-58.1268,-19.7747],[-58.1334,-19.7578],[-57.8931,-19.2618],[-57.7842,-19.0335],[-57.7105,-19.0326],[-57.7198,-18.8991],[-57.7672,-18.9005],[-57.5902,-18.3373],[-57.5578,-18.2404],[-57.5076,-18.1992],[-57.5748,-18.1319],[-57.6007,-18.0452],[-57.7229,-17.8302],[-57.7148,-17.7337],[-57.785,-17.6455],[-57.7856,-17.5555],[-57.8878,-17.4528],[-57.9695,-17.5145],[-58.0442,-17.4923],[-58.051,-17.4626],[-58.1203,-17.4502],[-58.1199,-17.4246],[-58.1813,-17.3921],[-58.2029,-17.3543],[-58.2552,-17.354],[-58.2766,-17.305],[-58.3666,-17.2014],[-58.3974,-17.1864],[-58.3995,-17.0838],[-58.4313,-17.0656],[-58.4312,-16.9917],[-58.4765,-16.9381],[-58.4605,-16.902],[-58.4787,-16.8228],[-58.4593,-16.6528],[-58.4219,-16.5752],[-58.3381,-16.5163],[-58.3548,-16.4404],[-58.3096,-16.3614],[-58.3037,-16.3097],[-58.3289,-16.2712],[-58.389,-16.2628],[-58.4311,-16.3224],[-59.0013,-16.2994],[-59.4956,-16.2793],[-60.1735,-16.263],[-60.1799,-15.9977],[-60.2376,-15.4735],[-60.5749,-15.096],[-60.2444,-15.0953],[-60.2722,-14.6228],[-60.3217,-14.6095],[-60.3395,-14.5095],[-60.3995,-14.412],[-60.3825,-14.3676],[-60.4433,-14.3163],[-60.4813,-14.1845],[-60.4666,-14.0964],[-60.4115,-14.027],[-60.4073,-13.9896],[-60.4421,-13.9343],[-60.4593,-13.8041],[-60.5183,-13.7737],[-60.5708,-13.7686],[-60.6094,-13.7271],[-60.6563,-13.7353],[-60.6864,-13.71],[-60.8165,-13.637],[-60.8803,-13.617],[-60.9722,-13.5348],[-60.9948,-13.4891],[-61.0414,-13.4759],[-61.0657,-13.5002],[-61.1501,-13.531],[-61.1723,-13.5107],[-61.2252,-13.5302],[-61.261,-13.4941],[-61.3913,-13.5199],[-61.4695,-13.5546],[-61.5875,-13.5023],[-61.6684,-13.5051],[-61.7824,-13.5369],[-61.8563,-13.5376],[-61.8836,-13.4945],[-61.8969,-13.4272],[-61.9689,-13.4077],[-61.9747,-13.3681],[-62.0584,-13.3102],[-62.1149,-13.2565],[-62.1202,-13.1523],[-62.209,-13.1134],[-62.2442,-13.143],[-62.3373,-13.1488],[-62.4108,-13.1268],[-62.4725,-13.0767],[-62.5386,-13.0736],[-62.6087,-13.0431],[-62.6615,-12.9688],[-62.7326,-13.022],[-62.7804,-13.0082],[-62.8067,-12.9404],[-62.8731,-12.9082],[-62.8946,-12.8567],[-62.9326,-12.8402],[-62.9726,-12.8594],[-63.0132,-12.8316],[-63.0499,-12.7343],[-63.0809,-12.7239],[-63.0914,-12.6666],[-63.1525,-12.6328],[-63.2459,-12.6652],[-63.3259,-12.6725],[-63.39,-12.6476],[-63.4369,-12.5645],[-63.5086,-12.5623],[-63.5513,-12.5085],[-63.6265,-12.4718],[-63.785,-12.4289],[-63.8349,-12.4641],[-63.8872,-12.4457],[-63.8969,-12.5],[-63.9629,-12.5293],[-63.9907,-12.5045],[-64.058,-12.4906],[-64.1739,-12.5046],[-64.1726,-12.4764],[-64.2306,-12.4539],[-64.2838,-12.5031],[-64.2949,-12.4579],[-64.4058,-12.4465],[-64.4631,-12.3839],[-64.5087,-12.3608],[-64.4955,-12.2678],[-64.547,-12.2396],[-64.6988,-12.1872],[-64.7642,-12.153],[-64.7598,-12.1136],[-64.8252,-12.0257],[-65.0226,-11.9991],[-65.0413,-11.9593],[-65.0173,-11.9084],[-65.0736,-11.8576],[-65.0629,-11.7749],[-65.0882,-11.7094],[-65.1285,-11.7219],[-65.1444,-11.7752],[-65.2178,-11.744],[-65.2596,-11.6989],[-65.2245,-11.6647],[-65.2328,-11.6112],[-65.2257,-11.5157],[-65.3046,-11.5014],[-65.3355,-11.3138],[-65.3597,-11.2612],[-65.3512,-11.1222],[-65.2864,-11.0922],[-65.2971,-11.0247],[-65.2509,-10.9846],[-65.2753,-10.8727],[-65.3482,-10.7785],[-65.3488,-10.6727],[-65.4168,-10.6187],[-65.3979,-10.5892],[-65.4296,-10.4867],[-65.3816,-10.4291],[-65.3908,-10.3717],[-65.3267,-10.3048],[-65.2918,-10.2237],[-65.3062,-10.1803],[-65.3027,-10.1064],[-65.3304,-10.0637],[-65.3207,-10.0037],[-65.3351,-9.9359],[-65.2913,-9.8716],[-65.3509,-9.7332],[-65.395,-9.6882],[-65.4388,-9.6963],[-65.4996,-9.7382],[-65.5131,-9.7973],[-65.553,-9.8354],[-65.6252,-9.8389],[-65.6709,-9.7829],[-65.798,-9.7952],[-65.8741,-9.7571],[-65.9726,-9.7769],[-65.9742,-9.7979],[-66.1502,-9.7894],[-66.2831,-9.8452],[-66.3466,-9.8402],[-66.397,-9.8658],[-66.6251,-9.8977],[-66.676,-9.9696],[-66.7327,-9.9856],[-66.8747,-10.0815],[-66.8897,-10.1156],[-66.999,-10.2123],[-67.0107,-10.2532],[-67.0794,-10.2904],[-67.1255,-10.2914],[-67.1694,-10.3371],[-67.2345,-10.3145],[-67.266,-10.3328],[-67.3234,-10.3236],[-67.3199,-10.3825],[-67.4074,-10.3765],[-67.411,-10.4197],[-67.4588,-10.4625],[-67.57,-10.5027],[-67.6613,-10.617],[-67.7092,-10.7099],[-67.8279,-10.65],[-67.9097,-10.6402],[-68.0025,-10.6501],[-68.1058,-10.7166],[-68.1073,-10.7819],[-68.1958,-10.8597],[-68.2367,-10.961],[-68.2775,-10.9907],[-68.3852,-11.0202],[-68.5017,-11.0637],[-68.5435,-11.1104],[-68.7156,-11.1475],[-68.7661,-11.0665],[-68.7489,-11.0109],[-68.7903,-11.0011],[-68.9102,-11.0228],[-68.9637,-10.995],[-68.9918,-11.0121],[-69.0375,-10.983],[-69.1594,-10.963],[-69.3121,-10.9564],[-69.4027,-10.93],[-69.5333,-10.9597],[-69.5652,-10.9555],[-69.3232,-11.3555],[-69.2556,-11.4575],[-69.1485,-11.6364],[-68.97,-11.9125],[-68.6522,-12.4977],[-68.7142,-12.6052],[-68.7417,-12.6341],[-68.747,-12.7306],[-68.7844,-12.7403],[-68.8646,-12.8674],[-68.8782,-12.9563],[-68.855,-13.0652],[-68.8734,-13.1319],[-68.8522,-13.2107],[-68.8622,-13.3199],[-68.8977,-13.4115],[-68.8916,-13.4311],[-68.9381,-13.5197],[-68.9474,-13.5712],[-68.992,-13.6185],[-68.9941,-13.6521],[-69.0635,-13.6585],[-69.067,-13.6879],[-69.0267,-13.7385],[-68.9774,-13.7583],[-68.995,-13.8448],[-68.9789,-13.8804],[-68.9795,-13.9758],[-68.8906,-14.047],[-68.872,-14.1105],[-68.8449,-14.141],[-68.8318,-14.2055],[-68.8467,-14.2374],[-68.9852,-14.2374],[-68.9846,-14.335],[-69.0486,-14.4481],[-69.1159,-14.5045],[-69.1493,-14.5127],[-69.1492,-14.5763],[-69.2255,-14.5809],[-69.2265,-14.6276],[-69.258,-14.6855],[-69.2262,-14.7366],[-69.2423,-14.7595],[-69.3163,-14.7748],[-69.3575,-14.8128],[-69.3435,-14.8828],[-69.3644,-14.9298],[-69.2855,-15.0969],[-69.2171,-15.1366],[-69.1526,-15.1993],[-69.1365,-15.255],[-69.176,-15.2615],[-69.2475,-15.371],[-69.2534,-15.4696],[-69.2905,-15.437],[-69.3269,-15.5335],[-69.4018,-15.6061],[-69.1977,-16.1645],[-69.1021,-16.2272],[-69.0555,-16.1982],[-69.0276,-16.2098],[-68.963,-16.1922],[-68.8189,-16.3219],[-68.8188,-16.3515],[-68.9997,-16.4481],[-69.0402,-16.5726],[-68.9989,-16.6515],[-69.0438,-16.6885],[-69.1698,-16.7273],[-69.1877,-16.7966],[-69.3044,-16.9166],[-69.34,-16.9875],[-69.3946,-17.0222],[-69.374,-17.0724],[-69.4325,-17.1103],[-69.4511,-17.094],[-69.5155,-17.1497],[-69.558,-17.1656],[-69.6168,-17.2617],[-69.4692,-17.3735],[-69.4679,-17.6049],[-69.3379,-17.7292],[-69.3008,-17.8494],[-69.3129,-17.9089],[-69.2813,-17.9692],[-69.2221,-17.9797],[-69.0795,-18.0469],[-69.0812,-18.0914],[-69.1423,-18.1632],[-69.0653,-18.2399],[-69.0749,-18.2917],[-69.0116,-18.5372],[-69.0331,-18.6294],[-68.9854,-18.6774],[-68.9124,-18.8924],[-68.9502,-18.9368],[-68.8896,-19.0434],[-68.8059,-19.0834],[-68.6283,-19.251],[-68.6197,-19.2765],[-68.5428,-19.2967],[-68.4049,-19.4162],[-68.4406,-19.4404],[-68.5569,-19.5964],[-68.5988,-19.6407],[-68.6232,-19.7006],[-68.6835,-19.7194],[-68.6889,-19.7484],[-68.6208,-19.7891],[-68.5993,-19.828],[-68.5282,-19.8453],[-68.5423,-19.89],[-68.5216,-19.9243],[-68.5662,-20.0501],[-68.6404,-20.0489],[-68.7635,-20.0787],[-68.7739,-20.1297],[-68.7021,-20.1435],[-68.715,-20.2468],[-68.6594,-20.3355],[-68.7418,-20.3694],[-68.7387,-20.4568],[-68.6662,-20.5166],[-68.52,-20.5873],[-68.4391,-20.641],[-68.5032,-20.676],[-68.555,-20.7367],[-68.5411,-20.8014],[-68.5691,-20.8945],[-68.5035,-20.9429],[-68.4157,-20.9414],[-68.2951,-21.0978],[-68.1784,-21.3035],[-68.1806,-21.6041],[-68.1179,-21.6786],[-68.0599,-21.7779],[-68.072,-21.9802],[-67.9652,-22.0541],[-67.9392,-22.1086],[-67.9541,-22.149],[-67.9222,-22.2423],[-67.9514,-22.3304],[-67.8986,-22.4239],[-67.8926,-22.4991],[-67.8534,-22.5573],[-67.8909,-22.7191],[-67.8832,-22.8344],[-67.799,-22.8812],[-67.588,-22.9066],[-67.1805,-22.814],[-67.1278,-22.7221],[-67.0141,-22.6548],[-67.0273,-22.5409],[-66.973,-22.5407],[-66.9286,-22.4922],[-66.7825,-22.4381],[-66.7393,-22.2385],[-66.6862,-22.2095],[-66.357,-22.1322],[-66.2895,-22.087],[-66.2747,-21.951],[-66.2354,-21.8508],[-66.2428,-21.7937],[-66.1942,-21.796],[-66.0763,-21.835],[-66.0433,-21.8719],[-66.0482,-21.919],[-65.9248,-21.9336],[-65.8048,-22.0753],[-65.748,-22.1092],[-65.6762,-22.1117],[-65.5823,-22.094],[-65.5749,-22.0755],[-65.4735,-22.0887],[-64.9943,-22.084],[-64.924,-22.1211],[-64.8787,-22.1174],[-64.7779,-22.1779],[-64.6509,-22.1897],[-64.5376,-22.2832],[-64.5668,-22.368],[-64.4899,-22.4418],[-64.483,-22.4805],[-64.4129,-22.5382],[-64.4312,-22.651],[-64.3948,-22.7186],[-64.3525,-22.7309],[-64.3286,-22.8625],[-64.2981,-22.8622],[-64.2676,-22.7701],[-64.2645,-22.65],[-64.2379,-22.6087],[-64.2398,-22.5554],[-64.1618,-22.4673],[-64.1069,-22.3579]]]},"properties":{"GID_0":"BOL","ISO_A2":"BO","ISO_A3":"BOL","NAME_EN":"Bolivia","NAME_IT":"Bolivia"}}
]}