{"type":"FeatureCollection", "features": [
{"type":"Feature","geometry":{"type":"Polygon","coordinates":[[[34.2305,31.3305],[34.3575,31.2856],[34.489,31.5944],[34.2305,31.3305]]]},"properties":{"NAME_1":"Gaza","GID_1":"PSE.1_1"}},
{"type":"Feature","geometry":{"type":"Polygon","coordinates":[[[35.2679,31.4004],[35.4783,31.5743],[35.5557,31.7585],[35.5256,32.0722],[35.5755,32.206],[35.5597,32.3904],[35.4443,32.4098],[35.3906,32.5171],[35.2167,32.5481],[35.098,32.4788],[34.969,32.2142],[34.992,31.9425],[35.0825,31.8444],[35.2324,31.7878],[34.9537,31.583],[34.9139,31.3498],[35.1247,31.3521],[35.2679,31.4004]]]},"properties":{"NAME_1":"WestBank","GID_1":"PSE.2_1"}}
]}