{"type":"FeatureCollection", "features": [
{"type":"Feature","geometry":{"type":"Polygon","coordinates":[[[40.9991,-0.112],[41.0014,-0.2436],[40.9988,-0.6615],[41.0043,-0.8236],[41.1152,-0.9781],[41.3653,-1.3003],[41.4939,-1.4816],[41.5774,-1.5848],[41.6435,-1.5504],[41.7496,-1.3765],[41.8301,-1.2643],[41.8396,-1.2238],[41.9285,-1.1368],[41.9885,-1.011],[42.0832,-0.9001],[42.1087,-0.8446],[42.1782,-0.8096],[42.3771,-0.5457],[42.4488,-0.4713],[42.5082,-0.3907],[42.5549,-0.3671],[42.611,-0.2732],[42.7765,-0.1182],[42.8737,-0.0196],[42.9854,0.1054],[43.374,0.5301],[43.4699,0.6285],[43.6312,0.7801],[43.7557,0.8793],[43.7785,0.9107],[43.9149,1.0121],[44.1293,1.1987],[44.3299,1.3832],[44.5938,1.5868],[44.8829,1.7846],[45.0851,1.9071],[45.3926,2.0521],[45.5865,2.1751],[45.6729,2.2204],[45.8512,2.3279],[45.9018,2.3521],[46.0054,2.4246],[46.1065,2.5176],[46.129,2.556],[46.2224,2.6596],[46.3035,2.7221],[46.3095,2.7471],[46.4499,2.8785],[46.5724,2.9757],[46.6815,3.0776],[46.8557,3.269],[46.9282,3.3624],[47.0863,3.5213],[47.1907,3.6432],[47.4065,3.8515],[47.4935,3.9443],[47.6307,4.1174],[47.7463,4.2349],[47.8718,4.3829],[47.9379,4.4479],[48.0799,4.6682],[48.1512,4.7929],[48.196,4.8901],[48.2885,5.0282],[48.4343,5.2213],[48.5321,5.3396],[48.5412,5.3651],[48.6299,5.474],[48.7304,5.6421],[48.9124,5.921],[48.9815,6.0529],[49.0607,6.2296],[49.0812,6.3085],[49.0849,6.4132],[49.1449,6.581],[49.2165,6.7524],[49.2857,6.8746],[49.4157,7.0701],[49.4721,7.1685],[49.5882,7.3176],[49.6668,7.4338],[49.7599,7.6174],[49.7693,7.6676],[49.826,7.7454],[49.806,7.8201],[49.8182,7.9201],[49.8501,7.9679],[49.8985,8.004],[49.9707,8.0821],[50.0701,8.141],[50.1301,8.1965],[50.1576,8.306],[50.2537,8.4521],[50.2979,8.4907],[50.331,8.5457],[50.3363,8.6413],[50.3854,8.7037],[50.4199,8.8549],[50.4463,8.8988],[50.6193,9.0518],[50.6476,9.0915],[50.6446,9.1793],[50.7062,9.2718],[50.7482,9.2949],[50.8446,9.4526],[50.8051,9.5162],[50.809,9.6196],[50.8376,9.741],[50.8512,9.8574],[50.8704,9.8813],[50.9021,9.9954],[50.8857,10.0957],[50.9032,10.176],[50.899,10.3129],[50.9324,10.3407],[51.0493,10.3962],[51.1349,10.4154],[51.2479,10.4243],[51.2929,10.3721],[51.3715,10.3696],[51.4157,10.4446],[51.3926,10.4782],[51.3268,10.4715],[51.204,10.5151],[51.1971,10.4799],[51.2349,10.4324],[51.1396,10.4321],[51.0246,10.4154],[51.0246,10.4424],[51.0793,10.4949],[51.124,10.5607],[51.1696,10.5679],[51.129,10.7132],[51.1321,10.7787],[51.1196,10.9315],[51.1332,11.0346],[51.1835,11.1443],[51.1193,11.1468],[51.0804,11.2168],[51.0832,11.3274],[51.1279,11.4543],[51.1246,11.5004],[51.1957,11.6057],[51.2568,11.679],[51.2471,11.7163],[51.2857,11.809],[51.1454,11.8729],[51.0488,11.8749],[50.9751,11.9199],[50.8493,11.9496],[50.8021,11.9846],[50.6782,11.9357],[50.6301,11.9435],[50.5451,11.8701],[50.5351,11.8104],[50.4854,11.7215],[50.4446,11.6818],[50.264,11.5846],[50.1512,11.5518],[50.0713,11.5054],[49.9463,11.5157],[49.8276,11.4601],[49.7537,11.4587],[49.694,11.4801],[49.6613,11.4621],[49.5521,11.4465],[49.5085,11.3818],[49.4215,11.336],[49.3024,11.3371],[49.2518,11.3035],[49.1079,11.2774],[48.9551,11.2404],[48.9065,11.2415],[48.7762,11.2915],[48.6582,11.3257],[48.5974,11.3085],[48.526,11.3104],[48.4757,11.2851],[48.3546,11.2701],[48.3054,11.2226],[48.2388,11.2057],[48.1565,11.1324],[47.9482,11.116],[47.7924,11.1193],[47.6985,11.0899],[47.6296,11.1151],[47.5485,11.1774],[47.4179,11.1782],[47.2621,11.1171],[47.149,11.064],[47.1029,10.991],[47.0157,10.964],[46.9904,10.9293],[46.931,10.9163],[46.8124,10.8243],[46.6526,10.7401],[46.5285,10.7154],[46.409,10.681],[46.331,10.699],[46.2343,10.7832],[46.1179,10.7649],[45.9779,10.7776],[45.9235,10.8135],[45.8582,10.8301],[45.801,10.8629],[45.7615,10.8512],[45.6796,10.7868],[45.594,10.7621],[45.574,10.7224],[45.4657,10.6657],[45.316,10.6568],[45.2363,10.5624],[45.1413,10.5165],[45.086,10.5076],[44.951,10.4101],[44.8843,10.4035],[44.7482,10.4182],[44.6099,10.3804],[44.5601,10.3793],[44.4487,10.4007],[44.3607,10.4004],[44.284,10.4338],[44.1521,10.5424],[44.0976,10.5679],[44.0685,10.6079],[43.9062,10.7204],[43.8221,10.7987],[43.6796,10.9571],[43.5999,11.0793],[43.5496,11.1812],[43.5229,11.1874],[43.4951,11.2438],[43.4921,11.2915],[43.4599,11.3485],[43.3315,11.4243],[43.3129,11.4607],[43.2581,11.461],[42.9616,10.9844],[42.897,10.9242],[42.7965,10.792],[42.7069,10.619],[42.7047,10.5746],[42.8045,10.3148],[42.8837,10.1864],[42.9939,10.0805],[43.052,10.0033],[43.081,9.9388],[43.2134,9.872],[43.2514,9.8282],[43.2496,9.791],[43.307,9.6377],[43.3564,9.5771],[43.4155,9.4769],[43.5814,9.3783],[43.8429,9.1567],[44.0612,8.9859],[44.1564,8.938],[45.6208,8.4429],[46.7358,8.0703],[46.9993,7.9851],[47.9582,8.0126],[46.8036,6.8033],[46.1772,6.1534],[46.1218,6.09],[45.8984,5.8569],[45.6682,5.6223],[45.0801,5.0111],[45.0017,4.9322],[44.9032,4.9127],[44.547,4.9212],[44.3833,4.9364],[44.2012,4.9385],[44.1501,4.9457],[44.029,4.9397],[43.8063,4.8988],[43.5518,4.8313],[43.5106,4.8105],[43.3975,4.7841],[43.3247,4.7391],[43.1626,4.6582],[43.033,4.5546],[43.0076,4.488],[42.948,4.3952],[42.8023,4.2758],[42.692,4.2245],[42.3962,4.1633],[42.2039,4.1614],[42.0782,4.1312],[42.0137,4.0978],[41.9825,4.0491],[41.8991,3.9755],[41.8602,3.9127],[41.6106,3.5641],[41.3281,3.1586],[41.1335,2.9708],[40.9866,2.8194],[40.9869,2.2289],[40.9785,2.1804],[40.9905,1.9547],[40.9907,1.2308],[40.9905,0.8233],[40.9943,0.6712],[40.9887,0.4485],[40.999,0.4058],[40.9899,0.2347],[40.9886,0.014],[41.0005,0],[40.9991,-0.112]]]},"properties":{"GID_0":"SOM","ISO_A2":"SO","ISO_A3":"SOM","NAME_EN":"Somalia","NAME_IT":"Somalia"}}
]}