{"type":"FeatureCollection", "features": [
{"type":"Feature","geometry":{"type":"Polygon","coordinates":[[[104.1632,41.8343],[104.5437,41.8838],[104.534,41.6626],[104.9449,41.6453],[105.0345,41.5677],[105.3059,41.7346],[105.8019,41.9576],[106.0092,42.0183],[106.6836,42.2594],[107.2665,42.3567],[107.4528,42.4619],[107.5542,42.427],[107.9124,42.412],[108.2385,42.462],[108.5254,42.4553],[108.7823,42.4097],[108.9683,42.4565],[109.2386,42.4296],[109.5475,42.4717],[109.8347,42.625],[110.1436,42.6368],[110.4165,42.7689],[110.4524,42.8586],[110.622,42.93],[110.7035,43.0571],[111.0471,43.3435],[111.4383,43.4734],[111.5745,43.4895],[111.7539,43.6907],[111.9891,43.753],[111.9955,43.8293],[111.8522,43.9928],[111.6704,44.0345],[111.394,44.3216],[111.3878,44.3929],[111.5599,44.7231],[111.8331,45.0485],[111.9761,45.0901],[112.4155,45.0615],[112.7581,44.8705],[113.1209,44.7997],[113.4617,44.7918],[113.6238,44.744],[114.0075,44.9327],[114.3793,45.1653],[114.5487,45.3985],[114.7519,45.4531],[115.0001,45.3652],[115.3393,45.3831],[115.7212,45.4384],[115.7653,45.5029],[116.0651,45.6755],[116.2735,45.7611],[116.2621,45.9503],[116.6363,46.3047],[116.9389,46.3513],[117.3715,46.3548],[117.433,46.575],[117.6155,46.5804],[117.7011,46.5079],[118.0411,46.6303],[118.2701,46.7876],[118.5626,46.7691],[118.9359,46.8195],[119.212,46.7344],[119.4037,46.6336],[119.4028,46.4549],[119.7745,46.6221],[119.9207,46.7435],[119.8039,46.9233],[119.8507,47.1017],[119.7015,47.1931],[119.7161,47.321],[119.4997,47.3355],[119.1879,47.5185],[119.1241,47.7033],[118.7758,47.8065],[118.4787,48.0001],[118.0672,48.0394],[117.7597,47.9902],[117.3745,47.6381],[117.1083,47.8099],[116.8268,47.8984],[116.4499,47.8428],[116.2563,47.8767],[116.1377,47.8355],[115.9494,47.6791],[115.5538,47.9483],[115.5149,48.1839],[115.8125,48.2615],[115.8215,48.5317],[116.111,48.7928],[116.0531,48.8771],[116.7003,49.8399],[116.6067,49.9403],[116.2051,50.0317],[115.7209,49.8846],[115.3746,49.9078],[115.2379,49.9794],[115.0041,50.1774],[114.6723,50.2563],[114.3401,50.2823],[113.7957,50.0941],[113.2303,49.8349],[113.0875,49.6083],[112.7163,49.4918],[112.5132,49.5465],[111.9345,49.3955],[111.3923,49.3731],[110.9923,49.1999],[110.7663,49.1451],[110.5963,49.1621],[110.3995,49.2585],[110.2341,49.1651],[109.7015,49.2316],[109.5711,49.2226],[109.3291,49.3415],[108.9655,49.3595],[108.5556,49.3343],[108.2843,49.5287],[107.9589,49.667],[107.947,49.8555],[107.7045,49.9561],[107.2547,49.9926],[107.1307,50.0269],[106.9879,50.2052],[106.7579,50.3215],[106.5673,50.3471],[106.2793,50.2957],[106.0801,50.3938],[105.6118,50.4324],[105.3877,50.4793],[105.1519,50.4001],[104.9119,50.3885],[104.5885,50.3137],[104.4051,50.305],[104.251,50.2019],[104.0611,50.1545],[103.8548,50.2029],[103.6905,50.1372],[103.2872,50.2192],[103.2046,50.3127],[102.9807,50.3043],[102.6421,50.4294],[102.5052,50.5409],[102.3206,50.5841],[102.354,50.7267],[102.2219,50.8651],[102.2669,50.9655],[102.0688,51.3971],[101.642,51.4566],[101.5413,51.5032],[101.3479,51.4705],[100.9434,51.6263],[100.5156,51.7504],[99.9935,51.7533],[99.7706,51.8818],[99.2948,51.9752],[98.9537,52.1479],[98.6963,51.8204],[98.3153,51.7179],[98.2343,51.4623],[98.0482,51.4379],[97.9449,51.3229],[97.8673,50.9498],[98.0129,50.8741],[97.955,50.7819],[98.1327,50.5964],[98.3245,50.539],[98.278,50.3121],[98.1162,50.1039],[97.8627,49.9479],[97.7655,49.9843],[97.3162,49.7574],[97.1937,49.7747],[97.003,49.9145],[96.6977,49.9035],[96.6117,49.9821],[96.4083,49.9023],[96.3021,49.9871],[96.0958,50.0195],[95.4778,49.9223],[95.1296,49.9489],[94.9642,50.0617],[94.6088,50.0387],[94.3989,50.2341],[94.3487,50.4648],[94.2237,50.5827],[93.4029,50.5855],[93.1507,50.5615],[93.0034,50.6019],[93.033,50.763],[92.8439,50.7941],[92.6071,50.716],[92.3253,50.8864],[92.3051,50.7441],[92.1958,50.6848],[91.8839,50.7304],[91.6629,50.6669],[91.6579,50.5838],[91.4464,50.5496],[91.4443,50.4654],[91.1393,50.4579],[90.7377,50.4879],[90.668,50.3368],[90.775,50.2885],[90.6474,50.1645],[90.3683,50.1445],[90.2875,50.0323],[89.6207,49.974],[89.6818,49.7097],[89.4449,49.6589],[89.0995,49.4999],[88.8151,49.4662],[88.65,49.5201],[88.4453,49.4801],[88.2233,49.4899],[87.9943,49.1863],[87.8332,49.0599],[87.9145,48.9859],[87.75,48.8905],[88.0733,48.6917],[88.0043,48.566],[88.3496,48.4706],[88.6011,48.3441],[88.6742,48.1746],[88.8991,48.1199],[89.193,47.9502],[89.3184,48.0284],[89.5659,48.0487],[89.6173,47.9458],[89.7964,47.8181],[89.9303,47.8165],[90.3235,47.667],[90.4569,47.4871],[90.5178,47.2442],[90.7343,47.0015],[90.8812,46.9764],[91.0517,46.726],[91.0776,46.564],[90.9559,46.3365],[90.9348,46.2056],[91.0215,46.1131],[91.0115,46.0005],[90.8481,45.8833],[90.6999,45.6907],[90.6637,45.5169],[90.7679,45.4215],[90.8132,45.2864],[90.9383,45.1824],[91.1581,45.1941],[91.3743,45.1047],[91.4821,45.1357],[91.652,45.0567],[92.0165,45.0693],[92.1722,45.0305],[92.3411,45.0507],[92.5146,45.01],[93.0698,45.0184],[93.5083,44.9653],[94.1974,44.6625],[94.334,44.5231],[94.576,44.4483],[94.6955,44.3477],[94.9905,44.2546],[95.4237,44.2893],[95.3706,44.2097],[95.3748,44.0211],[95.5508,43.9887],[95.6765,43.7064],[95.8811,43.4021],[95.9165,43.2335],[96.074,43.1254],[96.3244,42.8824],[96.3614,42.7212],[96.6919,42.7423],[96.9328,42.7122],[97.1515,42.7739],[98.0198,42.6833],[98.2479,42.6379],[99.4963,42.5701],[99.995,42.6476],[100.2827,42.6308],[100.3265,42.6833],[100.9161,42.6445],[101.8227,42.4703],[102.0633,42.2187],[102.4146,42.1405],[102.739,42.1342],[102.976,42.026],[103.3221,41.9075],[103.8624,41.8079],[104.1632,41.8343]]]},"properties":{"GID_0":"MNG","ISO_A2":"MN","ISO_A3":"MNG","NAME_EN":"Mongolia","NAME_IT":"Mongolia"}}
]}