{"type":"FeatureCollection", "features": [
{"type":"Feature","geometry":{"type":"MultiPolygon","coordinates":[[[[21.2919,55.2982],[21.2631,55.2804],[21.2765,55.2457],[21.3475,55.2819],[21.4105,55.2785],[21.4555,55.2197],[21.5017,55.1921],[21.5491,55.2007],[21.6509,55.1857],[21.7505,55.1257],[21.8215,55.1201],[21.8511,55.0985],[21.9407,55.0779],[22.0387,55.0851],[22.0368,55.0472],[22.0711,55.0263],[22.1141,55.0267],[22.1549,55.0561],[22.2574,55.0676],[22.3513,55.0657],[22.4787,55.0496],[22.5637,55.0748],[22.6447,54.9965],[22.7363,54.9629],[22.7953,54.912],[22.8571,54.9015],[22.8548,54.87],[22.8901,54.8197],[22.8879,54.7882],[22.8474,54.7667],[22.7762,54.7504],[22.7396,54.7233],[22.7392,54.6658],[22.7529,54.6385],[22.6961,54.6016],[22.7087,54.5586],[22.6909,54.5245],[22.702,54.4597],[22.7266,54.4501],[22.7691,54.3771],[22.8114,54.371],[22.8363,54.4065],[23.0102,54.3828],[23.0031,54.3532],[23.0477,54.3492],[23.0421,54.316],[23.1066,54.2965],[23.1307,54.3093],[23.1983,54.2891],[23.2339,54.2609],[23.3375,54.2517],[23.449,54.1606],[23.4858,54.1532],[23.5124,54.095],[23.5139,54.0242],[23.4807,53.998],[23.4969,53.9683],[23.5407,53.9407],[23.6413,53.9232],[23.7249,53.9337],[23.7763,53.9207],[23.8541,53.9508],[23.8994,53.9352],[23.9178,53.9608],[23.9729,53.949],[23.9973,53.9164],[24.1232,53.9326],[24.1356,53.9498],[24.2249,53.9588],[24.3661,53.8928],[24.4483,53.9014],[24.5383,53.9596],[24.6148,53.9899],[24.6292,54.0068],[24.7214,54.0043],[24.8241,53.9928],[24.8542,54.0329],[24.81,54.103],[24.862,54.1327],[24.9785,54.1741],[25.0274,54.1388],[25.0788,54.1341],[25.173,54.2039],[25.2097,54.2184],[25.2266,54.2592],[25.2643,54.255],[25.4083,54.2781],[25.4448,54.301],[25.4918,54.3004],[25.584,54.2641],[25.5761,54.2013],[25.5283,54.1877],[25.537,54.16],[25.6515,54.133],[25.7262,54.1767],[25.777,54.1685],[25.7909,54.2104],[25.7659,54.2312],[25.7612,54.283],[25.6923,54.3327],[25.6243,54.3192],[25.5602,54.3392],[25.5763,54.3713],[25.6371,54.4218],[25.6253,54.4678],[25.6476,54.4744],[25.6894,54.5373],[25.761,54.5906],[25.7433,54.6776],[25.7555,54.7148],[25.7467,54.7904],[25.7859,54.8182],[25.7919,54.8505],[25.8538,54.8929],[25.8563,54.9247],[25.9156,54.9302],[25.9808,54.9535],[26.0338,54.9426],[26.0925,54.9548],[26.155,54.9857],[26.2225,54.9981],[26.2654,55.0686],[26.2518,55.0998],[26.3865,55.1495],[26.4765,55.1305],[26.5319,55.1616],[26.556,55.146],[26.6358,55.1506],[26.7017,55.1702],[26.6908,55.1979],[26.7434,55.2165],[26.7422,55.2466],[26.8425,55.2783],[26.8264,55.3169],[26.7337,55.323],[26.6785,55.3426],[26.6137,55.3239],[26.561,55.3249],[26.4514,55.3482],[26.4821,55.3718],[26.5577,55.3931],[26.5366,55.4493],[26.5427,55.486],[26.5262,55.5303],[26.588,55.5443],[26.6305,55.5739],[26.6384,55.6637],[26.5368,55.6688],[26.4621,55.7],[26.3748,55.7047],[26.349,55.7422],[26.3093,55.7443],[26.2451,55.7928],[26.2357,55.8339],[26.2075,55.858],[26.1162,55.8898],[26.0165,55.9715],[25.9321,55.9983],[25.8601,56.0019],[25.8123,56.0583],[25.6961,56.091],[25.7008,56.1223],[25.6546,56.1381],[25.5583,56.1426],[25.4069,56.1585],[25.3011,56.1543],[25.256,56.1788],[25.0951,56.1857],[25.0684,56.2274],[25.0726,56.2588],[24.9662,56.3128],[24.9646,56.3624],[24.9063,56.4143],[24.7988,56.4007],[24.7502,56.4026],[24.715,56.3815],[24.64,56.3664],[24.586,56.3234],[24.5564,56.2795],[24.4402,56.2568],[24.3395,56.2965],[24.2991,56.298],[24.1891,56.2569],[24.1327,56.2588],[24.0188,56.3302],[23.8009,56.3418],[23.7632,56.37],[23.6656,56.3685],[23.5731,56.3353],[23.5004,56.3374],[23.3745,56.3815],[23.3016,56.3835],[23.1782,56.3644],[23.1763,56.3419],[23.0925,56.3081],[23.037,56.323],[23.003,56.4048],[22.9469,56.4152],[22.9114,56.3756],[22.854,56.368],[22.7244,56.371],[22.7072,56.3579],[22.6347,56.364],[22.5879,56.392],[22.4023,56.4093],[22.3609,56.3966],[22.3212,56.4109],[22.2396,56.4035],[22.2161,56.4174],[22.0865,56.4242],[21.9968,56.4167],[21.9956,56.3943],[21.9291,56.3639],[21.84,56.3653],[21.7241,56.313],[21.5948,56.3193],[21.5288,56.2887],[21.4803,56.2893],[21.4627,56.2536],[21.3567,56.2279],[21.2739,56.1658],[21.2251,56.1529],[21.2405,56.1302],[21.1985,56.0767],[21.1263,56.0819],[21.0731,56.0376],[21.0697,55.9637],[21.0497,55.9204],[21.0586,55.839],[21.0858,55.734],[21.1408,55.6851],[21.1442,55.6432],[21.1975,55.554],[21.2036,55.5218],[21.2431,55.4882],[21.2481,55.414],[21.1892,55.3413],[21.2392,55.3496],[21.2919,55.2982]]],[[[20.9519,55.2779],[20.9831,55.2729],[21.0608,55.3504],[21.0558,55.366],[21.1108,55.4205],[21.0914,55.4371],[21.1281,55.5579],[21.1369,55.6129],[21.1081,55.6318],[21.0909,55.5049],[21.0625,55.4307],[21.0014,55.3349],[20.9519,55.2779]]]]},"properties":{"GID_0":"LTU","ISO_A2":"LT","ISO_A3":"LTU","NAME_EN":"Lithuania","NAME_IT":"Lituania"}}
]}