{"type":"FeatureCollection", "features": [
{"type":"Feature","geometry":{"type":"MultiPolygon","coordinates":[[[[36.1701,35.8169],[36.1831,35.8356],[36.1891,35.8844],[36.1809,35.9017],[36.2127,35.9515],[36.2634,35.9617],[36.3172,36.0041],[36.3684,35.9948],[36.3925,36.0398],[36.3978,36.0838],[36.3812,36.1188],[36.392,36.1426],[36.3767,36.1694],[36.4031,36.1996],[36.4353,36.2113],[36.4817,36.2055],[36.4924,36.2328],[36.5426,36.2381],[36.5839,36.2321],[36.6093,36.2175],[36.6749,36.2293],[36.706,36.2552],[36.6711,36.3024],[36.6692,36.3262],[36.6394,36.3356],[36.6235,36.388],[36.5932,36.3942],[36.5685,36.445],[36.553,36.5011],[36.5913,36.5375],[36.6042,36.5791],[36.5879,36.6305],[36.5919,36.6501],[36.6387,36.7116],[36.6252,36.7425],[36.6328,36.7663],[36.6782,36.8112],[36.6684,36.8363],[36.739,36.8242],[36.8042,36.7986],[36.9027,36.7777],[36.9444,36.7812],[36.9888,36.762],[37.0566,36.7127],[37.0332,36.6784],[37.0485,36.6532],[37.091,36.6236],[37.1268,36.6617],[37.1962,36.6543],[37.2664,36.6649],[37.3727,36.6535],[37.4611,36.6381],[37.502,36.6493],[37.5343,36.6763],[37.6551,36.7314],[37.7337,36.7495],[37.7912,36.7486],[37.908,36.7857],[37.9765,36.8182],[38.0409,36.8286],[38.0705,36.8586],[38.2005,36.908],[38.2528,36.9135],[38.3425,36.9004],[38.3985,36.8972],[38.5634,36.8388],[38.6389,36.7738],[38.7315,36.7075],[38.7774,36.6993],[38.8471,36.6967],[38.9697,36.6989],[39.0202,36.7033],[39.0855,36.6971],[39.2273,36.665],[39.3448,36.6896],[39.4392,36.6953],[39.5457,36.7078],[39.5966,36.7196],[39.6648,36.7258],[39.7227,36.7438],[39.8418,36.7553],[39.8905,36.7771],[39.9632,36.7984],[40.0519,36.8361],[40.087,36.8607],[40.1809,36.8787],[40.2383,36.9032],[40.3259,36.952],[40.3975,36.9813],[40.4191,36.9992],[40.4618,37.0149],[40.5463,37.0267],[40.6022,37.0541],[40.6748,37.0784],[40.7078,37.0977],[40.7527,37.1059],[40.7817,37.1206],[40.8225,37.1197],[40.8581,37.1084],[40.8859,37.1243],[40.9211,37.1271],[41.1145,37.0951],[41.1697,37.0922],[41.2184,37.0636],[41.2711,37.0792],[41.5009,37.0795],[41.5581,37.0852],[41.6574,37.1124],[41.7586,37.1175],[41.9751,37.1596],[42.0573,37.1889],[42.1061,37.2129],[42.1224,37.2354],[42.1939,37.2822],[42.2188,37.284],[42.3073,37.2613],[42.3574,37.2275],[42.3371,37.1749],[42.3752,37.1178],[42.3959,37.1121],[42.472,37.1365],[42.5122,37.134],[42.5363,37.1488],[42.5916,37.1473],[42.596,37.1702],[42.627,37.214],[42.6525,37.2316],[42.6646,37.262],[42.6856,37.2705],[42.7046,37.3076],[42.7433,37.318],[42.7343,37.3479],[42.7742,37.3564],[42.8033,37.378],[42.8313,37.3716],[42.8421,37.3513],[42.9603,37.3179],[43.02,37.333],[43.0381,37.3555],[43.1674,37.374],[43.1819,37.3573],[43.2535,37.344],[43.2886,37.3166],[43.3255,37.3036],[43.3462,37.3265],[43.37,37.3286],[43.3938,37.3087],[43.5209,37.2608],[43.6666,37.2309],[43.7366,37.2341],[43.8464,37.2292],[43.8962,37.2346],[43.9513,37.2554],[43.9786,37.2924],[44.0079,37.3018],[44.0298,37.3247],[44.112,37.3125],[44.1418,37.3157],[44.1683,37.3007],[44.2374,37.2791],[44.2821,37.2267],[44.2903,37.1844],[44.2817,37.1622],[44.2423,37.1567],[44.2027,37.1048],[44.2149,37.0733],[44.2482,37.046],[44.2435,37.0267],[44.2688,36.983],[44.3235,36.9825],[44.3613,37.0203],[44.3486,37.0434],[44.3709,37.0566],[44.4058,37.0558],[44.4566,37.07],[44.5114,37.0935],[44.554,37.1231],[44.5862,37.1604],[44.6377,37.1867],[44.6785,37.1752],[44.7185,37.1744],[44.7547,37.1632],[44.7877,37.1836],[44.7782,37.224],[44.8338,37.2745],[44.8233,37.3076],[44.7566,37.3482],[44.7403,37.3733],[44.6893,37.385],[44.6624,37.4275],[44.6026,37.4443],[44.6245,37.4817],[44.6116,37.5117],[44.6178,37.5559],[44.6388,37.5756],[44.6385,37.6036],[44.5809,37.6465],[44.6383,37.7163],[44.5971,37.7638],[44.5327,37.7766],[44.4767,37.7655],[44.4593,37.774],[44.4137,37.8216],[44.4164,37.8541],[44.339,37.8741],[44.3143,37.8636],[44.2763,37.8663],[44.2389,37.8871],[44.266,37.9385],[44.2564,37.9554],[44.2815,38.0033],[44.3135,38.0299],[44.3211,38.0661],[44.3526,38.0992],[44.3641,38.1271],[44.4013,38.141],[44.4171,38.2103],[44.4082,38.2512],[44.4269,38.2782],[44.4616,38.2877],[44.5054,38.3184],[44.5011,38.3537],[44.4799,38.358],[44.4468,38.3856],[44.3993,38.3649],[44.3705,38.3775],[44.323,38.3825],[44.3167,38.4359],[44.3395,38.5028],[44.3269,38.5501],[44.3347,38.5835],[44.3325,38.629],[44.2882,38.6443],[44.2984,38.679],[44.2772,38.716],[44.2955,38.7444],[44.3,38.7813],[44.3186,38.8003],[44.3161,38.8339],[44.2903,38.8553],[44.256,38.8551],[44.222,38.8959],[44.1935,38.9579],[44.1874,39.0125],[44.2188,39.0288],[44.2005,39.069],[44.1545,39.0882],[44.1869,39.1163],[44.2323,39.1094],[44.2184,39.1386],[44.1764,39.1724],[44.1266,39.1894],[44.1073,39.2145],[44.1151,39.2387],[44.0981,39.2583],[44.1117,39.2864],[44.087,39.3011],[44.091,39.3216],[44.0473,39.3668],[44.0698,39.4053],[44.1579,39.393],[44.2243,39.4103],[44.3137,39.374],[44.3963,39.4066],[44.4237,39.4098],[44.4411,39.4359],[44.4334,39.4731],[44.453,39.4968],[44.4362,39.5607],[44.4896,39.6301],[44.487,39.6866],[44.6066,39.7734],[44.6314,39.776],[44.6691,39.7235],[44.7219,39.7073],[44.7778,39.6609],[44.8138,39.6391],[44.8127,39.677],[44.7222,39.762],[44.5985,39.8288],[44.5969,39.8504],[44.5642,39.8774],[44.5575,39.9038],[44.523,39.9264],[44.4887,39.9651],[44.4656,39.9702],[44.4192,40],[44.3798,40.0053],[44.3193,40.0392],[44.2628,40.05],[44.2229,40.0366],[44.1283,40.0281],[44.0761,40.0353],[44.0029,40.031],[43.9694,40.0188],[43.9055,40.0185],[43.8056,40.0587],[43.7699,40.0795],[43.7188,40.0797],[43.6555,40.1108],[43.6465,40.1298],[43.6635,40.156],[43.714,40.1725],[43.6592,40.2218],[43.682,40.2299],[43.6817,40.2585],[43.6399,40.2823],[43.5937,40.3373],[43.5964,40.3665],[43.621,40.3993],[43.6085,40.4339],[43.5467,40.4681],[43.5562,40.4907],[43.6152,40.5237],[43.648,40.5315],[43.642,40.559],[43.6865,40.593],[43.7264,40.6647],[43.7501,40.6806],[43.7363,40.7079],[43.7487,40.7359],[43.713,40.8119],[43.6761,40.8444],[43.6805,40.9034],[43.6718,40.9334],[43.5994,40.9856],[43.5515,40.996],[43.4722,41.028],[43.4706,41.0598],[43.4498,41.0922],[43.4713,41.1298],[43.4372,41.1794],[43.3654,41.2024],[43.2744,41.1816],[43.2318,41.1927],[43.1981,41.2475],[43.1533,41.2456],[43.2023,41.3004],[43.1296,41.3179],[43.1015,41.3546],[43.0248,41.3783],[42.9935,41.4071],[42.9696,41.4515],[42.9045,41.4808],[42.8954,41.5037],[42.8662,41.4991],[42.8471,41.4726],[42.7944,41.5123],[42.8208,41.5359],[42.8293,41.5879],[42.7836,41.5782],[42.74,41.5942],[42.6779,41.5973],[42.5841,41.5702],[42.5652,41.5253],[42.5101,41.4686],[42.5233,41.4469],[42.4471,41.4404],[42.4077,41.4666],[42.334,41.471],[42.2888,41.4941],[42.2094,41.4957],[42.1839,41.5145],[42.1204,41.5058],[42.0872,41.5118],[42.0481,41.4945],[41.9926,41.5067],[41.9552,41.5246],[41.9075,41.5004],[41.8786,41.461],[41.8231,41.4346],[41.811,41.4487],[41.754,41.4737],[41.7157,41.4751],[41.7088,41.4977],[41.655,41.4836],[41.5787,41.52],[41.5482,41.5263],[41.5218,41.4826],[41.4915,41.4707],[41.4518,41.4385],[41.4012,41.3807],[41.344,41.3735],[41.2788,41.3474],[41.241,41.3176],[41.1785,41.2871],[41.151,41.2815],[41.1268,41.2574],[41.064,41.2185],[40.931,41.1757],[40.899,41.1843],[40.8385,41.1754],[40.8032,41.1626],[40.766,41.1362],[40.7396,41.1029],[40.691,41.0771],[40.6437,41.0676],[40.6032,41.0479],[40.5743,41.046],[40.546,41.0276],[40.4979,41.0412],[40.4254,41.0257],[40.3885,41.0265],[40.359,41.0146],[40.3118,40.9726],[40.2532,40.9385],[40.1854,40.9149],[40.094,40.9174],[40.0351,40.9596],[39.9915,40.9649],[39.9321,40.9546],[39.8735,40.954],[39.7801,41.0026],[39.7207,41.0121],[39.6649,40.9949],[39.566,41.026],[39.556,41.0401],[39.4863,41.0921],[39.4182,41.1076],[39.3321,41.0638],[39.2518,41.0474],[39.2054,41.0746],[39.1626,41.0793],[39.1162,41.051],[39.0529,41.0368],[38.9185,41.0396],[38.8715,41.0112],[38.8165,41.0115],[38.7149,40.9507],[38.6613,40.9554],[38.6246,40.9735],[38.5871,40.9443],[38.5415,40.9204],[38.4071,40.9143],[38.3599,40.9087],[38.3229,40.9199],[38.2832,40.9451],[38.1888,40.9388],[38.0976,40.9632],[38.0007,40.9807],[37.8763,40.9885],[37.864,41.0149],[37.8099,41.0249],[37.7724,41.0715],[37.789,41.1113],[37.7513,41.1199],[37.7046,41.114],[37.6613,41.1224],[37.6246,41.079],[37.6096,41.0488],[37.5376,41.021],[37.4899,41.0396],[37.4796,41.0624],[37.4218,41.0796],[37.3865,41.1076],[37.359,41.1076],[37.2935,41.124],[37.2929,41.1457],[37.2093,41.1435],[37.139,41.1488],[37.0501,41.1754],[37.0271,41.1937],[37.0257,41.2507],[37.0082,41.2771],[36.8757,41.3368],[36.8074,41.3532],[36.699,41.364],[36.6518,41.3835],[36.6207,41.3674],[36.6074,41.3351],[36.5679,41.2885],[36.5015,41.2543],[36.4688,41.246],[36.4165,41.2465],[36.3376,41.2935],[36.3329,41.3229],[36.3035,41.3276],[36.2415,41.3535],[36.1307,41.4626],[36.1185,41.5038],[36.1315,41.5579],[36.1154,41.6249],[36.056,41.6874],[35.9538,41.7351],[35.8451,41.6932],[35.7693,41.6693],[35.6688,41.6443],[35.5654,41.631],[35.5115,41.6362],[35.4571,41.6518],[35.4151,41.6835],[35.2776,41.7151],[35.2649,41.7382],[35.2082,41.7674],[35.1738,41.8196],[35.1335,41.8543],[35.1263,41.8785],[35.0901,41.9218],[35.0957,41.9657],[35.1287,42.0238],[35.0776,42.0268],[35.0438,42.0418],[35.0518,42.0599],[35.011,42.0904],[34.9454,42.0979],[34.9493,42.076],[34.9085,42.0249],[34.8271,41.9674],[34.8015,41.9554],[34.724,41.944],[34.6582,41.941],[34.546,41.9493],[34.4768,41.966],[34.4343,41.9665],[34.3571,41.9457],[34.2904,41.9418],[34.2285,41.9554],[34.1751,41.9593],[34.0957,41.9793],[33.9821,41.9793],[33.9029,41.9721],[33.7632,41.9799],[33.6785,41.9804],[33.5818,41.9888],[33.516,42.004],[33.4132,42.0088],[33.3382,42.0204],[33.2637,41.9896],[33.2129,41.9801],[33.169,41.9554],[33.0274,41.9274],[32.971,41.8904],[32.8607,41.861],[32.7835,41.8601],[32.7163,41.8485],[32.6768,41.8301],[32.5996,41.8304],[32.5729,41.811],[32.4987,41.8015],[32.4851,41.781],[32.454,41.776],[32.3918,41.7421],[32.2799,41.7179],[32.2296,41.6724],[32.1951,41.6543],[32.1757,41.6276],[32.1218,41.5954],[32.0288,41.5746],[32.0018,41.5493],[31.9296,41.5321],[31.8768,41.5132],[31.801,41.474],[31.7779,41.4543],[31.6043,41.3768],[31.5601,41.3726],[31.4874,41.3496],[31.466,41.3276],[31.436,41.3279],[31.396,41.3132],[31.4101,41.2876],[31.4071,41.2093],[31.3835,41.1807],[31.3449,41.1535],[31.3418,41.1387],[31.2824,41.1124],[31.2171,41.0979],[31.1082,41.0899],[31.0701,41.0782],[31.0129,41.0726],[30.9132,41.0724],[30.7557,41.0863],[30.6526,41.129],[30.5304,41.141],[30.4088,41.166],[30.324,41.2015],[30.2629,41.2076],[30.2343,41.189],[30.226,41.1618],[30.1526,41.1376],[30.1171,41.1435],[30.0735,41.1338],[30.0274,41.1401],[29.8612,41.1437],[29.8463,41.1379],[29.7804,41.1585],[29.7315,41.1546],[29.6746,41.1615],[29.6096,41.1824],[29.5882,41.1699],[29.5054,41.1843],[29.3899,41.2151],[29.3554,41.211],[29.2557,41.234],[29.2118,41.2201],[29.1654,41.2246],[29.1296,41.2085],[29.1126,41.1838],[29.0876,41.179],[29.0715,41.1454],[29.0963,41.1179],[29.066,41.1029],[29.0515,41.0482],[29.0088,41.026],[29.0218,40.9782],[29.0971,40.9501],[29.1446,40.9007],[29.1818,40.8846],[29.2476,40.8721],[29.2849,40.8551],[29.2757,40.8213],[29.3465,40.8046],[29.359,40.7574],[29.3918,40.7529],[29.439,40.7713],[29.4893,40.7801],[29.5179,40.7665],[29.5707,40.766],[29.6151,40.7826],[29.6871,40.7782],[29.7451,40.7671],[29.7699,40.7429],[29.8804,40.7596],[29.9401,40.7557],[29.9368,40.7199],[29.8754,40.7163],[29.8665,40.7274],[29.7126,40.7118],[29.6418,40.6949],[29.5565,40.6865],[29.5321,40.7143],[29.5004,40.7254],[29.4618,40.696],[29.4271,40.6882],[29.3949,40.7021],[29.3437,40.6738],[29.2821,40.6601],[29.1668,40.6549],[29.1049,40.6432],[29.0549,40.6485],[28.996,40.646],[28.9524,40.6135],[28.8882,40.5821],[28.816,40.5651],[28.7801,40.5363],[28.7812,40.5179],[28.8554,40.5054],[28.8832,40.4787],[28.9701,40.4604],[29.0251,40.4787],[29.0824,40.4776],[29.1513,40.436],[29.1526,40.4238],[29.0937,40.4193],[29.0532,40.3629],[28.9279,40.3557],[28.8799,40.3821],[28.8493,40.381],[28.7704,40.3946],[28.7118,40.3763],[28.6782,40.3757],[28.6612,40.3599],[28.606,40.3674],[28.516,40.3949],[28.4121,40.3932],[28.3446,40.4018],[28.2954,40.396],[28.2632,40.4018],[28.1865,40.399],[28.0607,40.3824],[27.9868,40.3662],[27.9546,40.3529],[27.9279,40.3632],[27.9054,40.394],[27.9263,40.4115],[27.9713,40.4226],[28.0243,40.4529],[28.0318,40.4813],[27.901,40.5065],[27.8707,40.5171],[27.8168,40.5196],[27.7751,40.5115],[27.7085,40.5182],[27.6821,40.4938],[27.7454,40.4304],[27.7971,40.3896],[27.8243,40.3996],[27.879,40.3785],[27.8243,40.3468],[27.7824,40.3126],[27.761,40.3063],[27.7049,40.3151],[27.6815,40.3079],[27.6329,40.3268],[27.5321,40.301],[27.4301,40.3246],[27.3143,40.3785],[27.324,40.4087],[27.316,40.4451],[27.286,40.4701],[27.1901,40.4326],[27.1551,40.4521],[27.0899,40.4421],[27.0332,40.3896],[26.9532,40.3838],[26.9132,40.4065],[26.8851,40.3963],[26.8176,40.3957],[26.7874,40.4051],[26.7476,40.4012],[26.6899,40.3657],[26.6932,40.3529],[26.6526,40.329],[26.6065,40.2813],[26.5726,40.2801],[26.5246,40.2176],[26.4826,40.2001],[26.4079,40.194],[26.3974,40.1457],[26.409,40.1174],[26.361,40.0932],[26.356,40.0574],[26.3213,40.0174],[26.2715,40.001],[26.2368,39.999],[26.1982,40.0099],[26.1774,39.989],[26.1504,39.9079],[26.1612,39.8954],[26.144,39.8468],[26.1638,39.8179],[26.1557,39.771],[26.1399,39.7571],[26.1588,39.7185],[26.1635,39.6593],[26.1424,39.6126],[26.1051,39.5843],[26.0838,39.511],[26.0626,39.4793],[26.1313,39.4529],[26.2046,39.461],[26.2668,39.4835],[26.3254,39.4807],[26.3935,39.4974],[26.4407,39.5165],[26.521,39.5321],[26.5493,39.531],[26.6318,39.5549],[26.691,39.5551],[26.7274,39.5674],[26.8665,39.5654],[26.8793,39.5851],[26.9226,39.5838],[26.9535,39.5518],[26.9274,39.4851],[26.8585,39.4774],[26.8549,39.4399],[26.7971,39.4324],[26.8113,39.4001],[26.7657,39.3688],[26.7021,39.3351],[26.689,39.3132],[26.6504,39.3235],[26.6226,39.3057],[26.6199,39.2746],[26.6396,39.266],[26.6963,39.2663],[26.7337,39.2404],[26.7354,39.2054],[26.7674,39.1662],[26.8357,39.1421],[26.8751,39.1007],[26.8865,39.0682],[26.799,39.0324],[26.7976,38.956],[26.8654,38.9143],[26.9196,38.9399],[26.9571,38.9376],[27.006,38.9129],[27.0379,38.9407],[27.0571,38.9132],[27.0374,38.8935],[27.0663,38.8799],[27.0346,38.856],[26.991,38.8568],[26.9624,38.831],[26.9251,38.8293],[26.9037,38.8074],[26.9171,38.7857],[26.8946,38.7337],[26.8312,38.7613],[26.7279,38.7263],[26.7321,38.6493],[26.7621,38.6146],[26.8015,38.6087],[26.8182,38.586],[26.8479,38.5757],[26.8482,38.5429],[26.876,38.534],[26.8838,38.5037],[26.9085,38.4868],[26.9235,38.4546],[26.9518,38.4435],[27.0338,38.4674],[27.0793,38.4671],[27.1118,38.4487],[27.159,38.4668],[27.1187,38.4104],[27.0868,38.3985],[27.0596,38.4154],[27.0174,38.4151],[26.9343,38.3838],[26.8351,38.3707],[26.8085,38.3554],[26.7665,38.3668],[26.7349,38.4185],[26.7112,38.4332],[26.6824,38.4087],[26.6751,38.3479],[26.7001,38.3324],[26.6807,38.3104],[26.6443,38.3399],[26.6454,38.3707],[26.6162,38.4154],[26.5999,38.4162],[26.6046,38.4704],[26.6404,38.4765],[26.6332,38.5115],[26.5693,38.5596],[26.5235,38.6501],[26.4743,38.6751],[26.3607,38.6599],[26.3529,38.6387],[26.3599,38.5671],[26.3807,38.544],[26.4199,38.4763],[26.4946,38.4485],[26.516,38.4282],[26.5029,38.4063],[26.4757,38.4015],[26.4615,38.3587],[26.4243,38.3335],[26.4021,38.3326],[26.3637,38.3079],[26.3188,38.3301],[26.3149,38.3699],[26.2824,38.3513],[26.2965,38.3235],[26.2718,38.2901],[26.3068,38.2401],[26.3388,38.226],[26.4196,38.2212],[26.4618,38.2043],[26.5054,38.1751],[26.5435,38.1196],[26.584,38.1254],[26.6149,38.111],[26.6338,38.1674],[26.631,38.1963],[26.6612,38.2099],[26.7329,38.2068],[26.7693,38.2137],[26.7674,38.1754],[26.8243,38.1582],[26.8513,38.1021],[26.8449,38.0726],[26.8668,38.029],[26.8979,38.0615],[26.941,38.0746],[26.981,38.0749],[27.014,38.0557],[27.0482,38.0501],[27.0743,38.0171],[27.099,38.0154],[27.1207,37.9943],[27.1676,37.981],[27.2054,37.9921],[27.2485,37.9813],[27.2721,37.9512],[27.2774,37.9265],[27.2604,37.8626],[27.2354,37.8404],[27.2696,37.8088],[27.2529,37.7465],[27.2068,37.7082],[27.0993,37.6804],[27.0149,37.6849],[27.0063,37.6546],[27.0574,37.6404],[27.0982,37.6379],[27.1893,37.6096],[27.2174,37.5907],[27.1929,37.5738],[27.1818,37.5465],[27.2232,37.484],[27.2193,37.4135],[27.2268,37.401],[27.2029,37.3713],[27.2032,37.3507],[27.2538,37.3357],[27.3207,37.3682],[27.354,37.3701],[27.3688,37.3996],[27.4165,37.416],[27.4304,37.4021],[27.4037,37.3674],[27.3832,37.3571],[27.3888,37.3229],[27.4324,37.3018],[27.4776,37.3288],[27.4982,37.3201],[27.4757,37.2885],[27.5093,37.2799],[27.521,37.2399],[27.5568,37.2776],[27.6115,37.2579],[27.5874,37.2229],[27.5401,37.1729],[27.5563,37.1368],[27.5462,37.1251],[27.4574,37.0826],[27.4351,37.1232],[27.3762,37.1293],[27.3779,37.151],[27.2876,37.1032],[27.2546,37.0946],[27.2254,37.0585],[27.2501,37.0313],[27.2635,36.964],[27.296,36.966],[27.3321,36.9885],[27.3279,37.011],[27.3735,37.0268],[27.4224,37.0318],[27.4643,36.9979],[27.5082,36.9854],[27.6049,36.9915],[27.634,36.9779],[27.6851,37.0035],[27.7657,36.9915],[27.7996,36.9949],[27.8207,37.0118],[27.926,37.031],[27.9485,37.016],[27.9782,37.0318],[28.026,37.0215],[28.0788,37.0215],[28.101,37.0346],[28.1637,37.0285],[28.1976,37.0399],[28.2412,37.0385],[28.2743,37.0493],[28.3265,37.0493],[28.3304,37.0324],[28.2682,37.0165],[28.201,36.9693],[28.2065,36.959],[28.1726,36.9265],[28.0743,36.9424],[28.0443,36.921],[28.0326,36.8974],[28.0435,36.8632],[28.016,36.8571],[28.029,36.8282],[28.0643,36.8243],[28.0549,36.7996],[28.0318,36.7932],[27.9693,36.7949],[27.8954,36.8079],[27.8571,36.8037],[27.8154,36.8129],[27.7718,36.7885],[27.686,36.7888],[27.6765,36.8018],[27.6276,36.801],[27.6182,36.7693],[27.5599,36.7637],[27.4996,36.7501],[27.4551,36.7574],[27.4282,36.7485],[27.4071,36.704],[27.3713,36.6876],[27.4399,36.6618],[27.4843,36.6543],[27.514,36.6774],[27.5957,36.6821],[27.6721,36.6601],[27.676,36.7004],[27.7151,36.7554],[27.7535,36.7649],[27.8163,36.7632],[27.8487,36.7479],[27.911,36.7554],[27.9304,36.7421],[27.9729,36.7562],[28.0624,36.764],[28.0821,36.7962],[28.1201,36.8032],[28.1204,36.7351],[28.0821,36.7279],[28.0268,36.7046],[28.0015,36.7043],[27.9635,36.6843],[28.024,36.6679],[28.0685,36.6732],[28.0951,36.6401],[28.0688,36.6132],[28.0263,36.6026],[27.9632,36.6071],[27.9804,36.5679],[28.0296,36.5632],[28.0663,36.5951],[28.1063,36.5921],[28.1763,36.679],[28.2165,36.6913],[28.2474,36.7157],[28.2693,36.7471],[28.2337,36.8074],[28.2451,36.8324],[28.284,36.8482],[28.2935,36.8193],[28.3537,36.8068],[28.4076,36.7882],[28.4274,36.8288],[28.4204,36.8557],[28.4557,36.8793],[28.4679,36.8662],[28.4504,36.8371],[28.4621,36.8112],[28.4982,36.8179],[28.5324,36.8101],[28.5876,36.8154],[28.6301,36.7815],[28.6129,36.7593],[28.6235,36.7174],[28.666,36.7163],[28.6901,36.6971],[28.7104,36.7057],[28.7901,36.686],[28.8512,36.6376],[28.8243,36.6257],[28.8304,36.604],[28.8676,36.6018],[28.894,36.6443],[28.8629,36.651],[28.8685,36.6932],[28.9093,36.7054],[28.9299,36.7343],[28.971,36.731],[29.0543,36.6815],[29.0921,36.6787],[29.1218,36.6479],[29.0276,36.6021],[29.024,36.581],[29.0513,36.5563],[29.079,36.559],[29.1274,36.5299],[29.1113,36.4854],[29.131,36.4396],[29.1315,36.4157],[29.1029,36.4046],[29.1188,36.3754],[29.1454,36.3782],[29.1649,36.341],[29.2493,36.3176],[29.2629,36.2915],[29.3149,36.2515],[29.3585,36.2304],[29.3751,36.2521],[29.401,36.2576],[29.4118,36.2243],[29.4496,36.2285],[29.4988,36.2088],[29.5663,36.2093],[29.5799,36.201],[29.6449,36.1963],[29.6304,36.1696],[29.6563,36.1521],[29.7101,36.1482],[29.7476,36.161],[29.7776,36.1365],[29.8037,36.1488],[29.846,36.1963],[29.8868,36.1937],[29.9096,36.2251],[29.9301,36.2329],[29.9671,36.2185],[30.0107,36.2321],[30.0615,36.2596],[30.0993,36.2463],[30.1518,36.2721],[30.1496,36.301],[30.2004,36.3154],[30.2813,36.3146],[30.3282,36.2968],[30.3662,36.2729],[30.3935,36.2785],[30.4135,36.264],[30.4024,36.2099],[30.4354,36.2321],[30.4512,36.2576],[30.4876,36.279],[30.4671,36.3143],[30.5187,36.329],[30.4768,36.3974],[30.4832,36.4368],[30.5096,36.4399],[30.5168,36.479],[30.5415,36.5224],[30.5885,36.579],[30.5579,36.6154],[30.5546,36.6479],[30.5713,36.6749],[30.5637,36.7254],[30.5749,36.7949],[30.6224,36.8507],[30.6793,36.8838],[30.7001,36.8846],[30.756,36.8471],[30.8232,36.8474],[30.8946,36.8543],[31.0065,36.8582],[31.1004,36.8401],[31.2946,36.8168],[31.3624,36.7976],[31.3932,36.766],[31.4968,36.7368],[31.5826,36.7018],[31.6646,36.6493],[31.746,36.6382],[31.7976,36.6004],[31.8549,36.5896],[31.9182,36.5632],[31.9688,36.556],[31.9879,36.5421],[32.0296,36.5382],[32.1162,36.4687],[32.1343,36.4374],[32.166,36.4171],[32.211,36.3418],[32.2749,36.289],[32.2949,36.2349],[32.3607,36.2004],[32.389,36.1629],[32.4615,36.1335],[32.5171,36.0965],[32.5662,36.0999],[32.6668,36.044],[32.8051,36.0232],[32.8688,36.0707],[32.9215,36.0849],[32.9501,36.1037],[33.0868,36.0821],[33.1346,36.1357],[33.1951,36.1274],[33.304,36.131],[33.3357,36.1507],[33.4057,36.1324],[33.4637,36.1596],[33.5632,36.1276],[33.5929,36.1765],[33.6479,36.1937],[33.6829,36.1335],[33.6985,36.1738],[33.7412,36.2057],[33.8021,36.2354],[33.866,36.3149],[33.9021,36.3143],[33.9451,36.2768],[33.9626,36.2318],[33.9801,36.2854],[33.9971,36.304],[34.0504,36.2982],[34.0768,36.324],[34.0774,36.399],[34.1324,36.4543],[34.1685,36.4668],[34.1835,36.4957],[34.2168,36.5193],[34.2601,36.5715],[34.3196,36.6029],[34.3665,36.6401],[34.4299,36.6637],[34.4726,36.7085],[34.5451,36.7429],[34.5607,36.7685],[34.6182,36.7835],[34.6437,36.8026],[34.7274,36.8118],[34.7693,36.8088],[34.834,36.7901],[34.8793,36.7632],[34.9076,36.7238],[34.9574,36.724],[35.0418,36.6937],[35.1082,36.6593],[35.2054,36.6168],[35.3246,36.5588],[35.2263,36.6415],[35.1704,36.6657],[35.1807,36.6929],[35.2535,36.6768],[35.2815,36.6307],[35.3112,36.6251],[35.339,36.6001],[35.3257,36.5579],[35.3543,36.5443],[35.4393,36.5918],[35.5021,36.5854],[35.5679,36.5657],[35.5818,36.5907],[35.6218,36.6043],[35.6365,36.6257],[35.6379,36.6576],[35.661,36.6799],[35.7146,36.7051],[35.7043,36.7232],[35.6454,36.7076],[35.6357,36.734],[35.6443,36.7582],[35.6668,36.7671],[35.7057,36.759],[35.7585,36.7704],[35.7946,36.7657],[35.8449,36.7974],[35.9376,36.8865],[35.9849,36.9188],[36.0171,36.9301],[36.0576,36.916],[36.1465,36.8571],[36.2057,36.7835],[36.1918,36.7532],[36.2021,36.727],[36.1926,36.7051],[36.2124,36.6724],[36.1968,36.6049],[36.1621,36.5951],[36.0971,36.5585],[36.0368,36.5337],[35.9826,36.4743],[35.9015,36.4376],[35.8604,36.3957],[35.8535,36.369],[35.8174,36.3593],[35.7796,36.3176],[35.7804,36.2988],[35.8576,36.2012],[35.8968,36.1579],[35.9338,36.1024],[35.9813,36.0104],[35.9232,35.9565],[35.9358,35.9187],[35.9937,35.9393],[36.0229,35.9245],[36.0187,35.8811],[36.1164,35.8655],[36.1701,35.8169]]],[[[27.4324,36.9963],[27.4599,36.9635],[27.484,36.9776],[27.4324,36.9963]]],[[[26.7007,38.5457],[26.6943,38.4796],[26.7279,38.4699],[26.7276,38.5324],[26.7007,38.5457]]],[[[28.8846,40.9768],[28.9368,41.0013],[28.9854,41.0054],[28.9988,41.0385],[29.0274,41.0465],[29.0574,41.0824],[29.0724,41.1221],[29.0374,41.156],[29.0715,41.1738],[29.1054,41.2057],[29.1162,41.2343],[29.0782,41.2546],[29.0296,41.2451],[28.966,41.2532],[28.9229,41.2721],[28.8954,41.2707],[28.8388,41.2868],[28.8113,41.3054],[28.6388,41.3482],[28.5621,41.384],[28.409,41.4393],[28.2729,41.4957],[28.2193,41.5232],[28.1826,41.5718],[28.1507,41.5788],[28.0912,41.6385],[28.1051,41.6676],[28.0413,41.731],[28.0421,41.7526],[28.0174,41.7713],[27.9846,41.8176],[27.9787,41.8657],[28.014,41.8946],[28.0579,41.8832],[28.0429,41.934],[28.0432,41.9626],[28.0154,41.9787],[27.9399,41.9724],[27.8563,41.9961],[27.813,41.9798],[27.7947,41.9439],[27.7291,41.9727],[27.6926,41.973],[27.6081,41.9376],[27.5969,41.9442],[27.5514,41.8996],[27.5053,41.9532],[27.4414,41.9699],[27.3943,42.0133],[27.3769,42.0495],[27.3396,42.0622],[27.3294,42.0841],[27.2719,42.1063],[27.2298,42.1011],[27.1716,42.0701],[27.0777,42.0943],[27.0281,42.0812],[27.0145,42.0462],[26.9831,42.0332],[26.9681,42.0021],[26.865,41.9874],[26.8385,41.9694],[26.7812,41.978],[26.7511,41.9545],[26.6644,41.9656],[26.6195,41.9639],[26.5692,41.9275],[26.5858,41.9052],[26.5815,41.8781],[26.5509,41.8451],[26.5284,41.8364],[26.3839,41.8362],[26.3484,41.7832],[26.3414,41.7481],[26.3688,41.7142],[26.4126,41.6924],[26.4439,41.6949],[26.497,41.6691],[26.5188,41.6389],[26.551,41.6226],[26.5961,41.6155],[26.5979,41.5383],[26.6199,41.4721],[26.619,41.4391],[26.6339,41.4284],[26.6418,41.3909],[26.6369,41.3561],[26.5922,41.3287],[26.5486,41.3462],[26.5005,41.3268],[26.4855,41.3035],[26.4005,41.2505],[26.3235,41.2348],[26.3226,41.1838],[26.3064,41.1751],[26.3333,41.1445],[26.31,41.1176],[26.3311,41.0419],[26.3623,41.0133],[26.3438,40.9871],[26.3509,40.9498],[26.289,40.9349],[26.3014,40.9102],[26.2282,40.8821],[26.2014,40.8522],[26.2173,40.8367],[26.1577,40.8147],[26.1328,40.7619],[26.1004,40.7433],[26.0383,40.7366],[26.0651,40.671],[26.0604,40.639],[26.1071,40.5988],[26.1507,40.5893],[26.2343,40.5985],[26.304,40.5904],[26.3743,40.6082],[26.4307,40.6024],[26.4593,40.6168],[26.5338,40.5913],[26.5907,40.631],[26.7432,40.6435],[26.7718,40.6563],[26.804,40.6546],[26.8243,40.6374],[26.839,40.5868],[26.799,40.5568],[26.7188,40.5385],[26.7038,40.5104],[26.636,40.5104],[26.5504,40.4807],[26.4912,40.4468],[26.4557,40.4415],[26.3618,40.3843],[26.2626,40.3462],[26.2185,40.3196],[26.2468,40.3071],[26.234,40.2851],[26.276,40.2576],[26.2701,40.1935],[26.2351,40.1549],[26.2096,40.1037],[26.1657,40.0524],[26.2171,40.0474],[26.2504,40.0685],[26.3096,40.0926],[26.3554,40.1315],[26.381,40.1432],[26.3604,40.1838],[26.3749,40.2032],[26.4246,40.2207],[26.4893,40.2629],[26.519,40.2929],[26.5674,40.3071],[26.6196,40.3482],[26.6413,40.4032],[26.7001,40.4199],[26.6935,40.4493],[26.7407,40.4774],[26.8543,40.5104],[26.9001,40.5363],[26.9768,40.5554],[27.0424,40.5982],[27.146,40.6149],[27.3093,40.7024],[27.3354,40.7565],[27.3924,40.8071],[27.4554,40.8454],[27.4626,40.8957],[27.4943,40.9562],[27.5112,40.9743],[27.5863,40.9824],[27.6779,41.0046],[27.7635,41.014],[27.8407,40.9924],[27.8649,40.9696],[27.9557,40.9637],[27.9762,40.9821],[27.9865,41.014],[28.0251,41.0396],[28.074,41.0568],[28.1699,41.0732],[28.2335,41.0776],[28.281,41.0635],[28.3793,41.0518],[28.4679,41.0235],[28.5443,40.9857],[28.5721,41.019],[28.5993,41.009],[28.5987,40.9685],[28.6201,40.9604],[28.7399,40.9707],[28.7643,40.9815],[28.8101,40.9557],[28.8493,40.974],[28.8846,40.9768]]],[[[26.6162,39.3937],[26.6226,39.3265],[26.6646,39.3393],[26.631,39.3638],[26.6162,39.3937]]],[[[26.0576,39.8457],[25.9726,39.839],[25.9904,39.8215],[26.0515,39.7865],[26.0838,39.8013],[26.0576,39.8457]]],[[[25.7582,40.0957],[25.8001,40.1046],[25.8388,40.0996],[25.9429,40.1293],[25.9626,40.1235],[25.9757,40.1882],[25.9707,40.2229],[25.9301,40.241],[25.8729,40.2285],[25.8429,40.2113],[25.7874,40.2113],[25.6707,40.1538],[25.6651,40.1243],[25.7068,40.116],[25.7313,40.0926],[25.7582,40.0957]]],[[[27.6201,40.5093],[27.6087,40.4857],[27.5779,40.4626],[27.6376,40.4607],[27.6501,40.4879],[27.6201,40.5093]]],[[[27.5187,40.5357],[27.4782,40.494],[27.5038,40.4796],[27.5462,40.5201],[27.5187,40.5357]]],[[[27.6374,40.6662],[27.5263,40.6418],[27.5293,40.5968],[27.574,40.5754],[27.6635,40.5915],[27.6651,40.604],[27.7271,40.6193],[27.7357,40.6413],[27.6843,40.649],[27.6374,40.6662]]]]},"properties":{"GID_0":"TUR","ISO_A2":"TR","ISO_A3":"TUR","NAME_EN":"Turkey","NAME_IT":"Turchia"}}
]}