{"type":"FeatureCollection", "features": [
{"type":"Feature","geometry":{"type":"MultiPolygon","coordinates":[[[[88.983,26.2886],[88.9608,26.2951],[88.9384,26.335],[88.9181,26.3257],[88.9545,26.2747],[88.983,26.2886]]],[[[91.4042,22.6489],[91.3992,22.6664],[91.3586,22.7072],[91.3297,22.7236],[91.2956,22.7094],[91.2978,22.6833],[91.335,22.6308],[91.3839,22.6075],[91.4042,22.6489]]],[[[89.2339,21.695],[89.211,21.6527],[89.2587,21.6583],[89.2926,21.6804],[89.2775,21.6959],[89.2339,21.695]]],[[[91.8522,21.7576],[91.8955,21.8665],[91.8801,21.9206],[91.8466,21.8999],[91.8411,21.8576],[91.8518,21.8283],[91.8422,21.8046],[91.8522,21.7576]]],[[[89.0545,21.9218],[89.0331,21.8959],[89.0602,21.8538],[89.044,21.787],[89.0703,21.7697],[89.1131,21.7178],[89.1477,21.7342],[89.1327,21.7693],[89.0855,21.7958],[89.0762,21.8198],[89.0841,21.857],[89.0574,21.897],[89.0545,21.9218]]],[[[89.2713,21.757],[89.2204,21.7474],[89.2242,21.704],[89.2375,21.6954],[89.2767,21.7025],[89.2893,21.7303],[89.2713,21.757]]],[[[89.534,21.7701],[89.5546,21.7244],[89.5933,21.7143],[89.5886,21.7672],[89.6036,21.8022],[89.5404,21.8506],[89.5302,21.8229],[89.5495,21.7924],[89.534,21.7701]]],[[[90.5157,21.8518],[90.4819,21.8447],[90.4793,21.8134],[90.5244,21.8288],[90.5157,21.8518]]],[[[89.0869,22.1764],[89.1011,22.1561],[89.0472,22.0975],[89.054,22.0664],[89.0897,22.0189],[89.0931,21.9536],[89.0793,21.9042],[89.0934,21.8868],[89.1043,21.8439],[89.099,21.8134],[89.1474,21.7944],[89.1685,21.8034],[89.185,21.8358],[89.1855,21.8758],[89.2005,21.9075],[89.1534,21.914],[89.1306,21.9486],[89.138,21.973],[89.1625,21.9941],[89.1467,22.0327],[89.1467,22.0769],[89.1158,22.1189],[89.1289,22.1368],[89.0869,22.1764]]],[[[89.3301,21.7941],[89.3507,21.8326],[89.3605,21.883],[89.3145,21.8572],[89.3096,21.8392],[89.3301,21.7941]]],[[[89.6122,21.9472],[89.5743,21.9355],[89.5471,21.8759],[89.5618,21.8445],[89.6078,21.8106],[89.6177,21.7833],[89.6094,21.7645],[89.6699,21.7551],[89.6989,21.7728],[89.6781,21.8074],[89.6265,21.8627],[89.6259,21.8833],[89.6464,21.9109],[89.6122,21.9472]]],[[[89.1816,22.0211],[89.1413,21.9603],[89.16,21.9243],[89.2055,21.9217],[89.1991,21.8479],[89.1821,21.8126],[89.1903,21.7825],[89.2288,21.7552],[89.2851,21.765],[89.2835,21.7969],[89.2636,21.8356],[89.274,21.8488],[89.27,21.8846],[89.2853,21.9058],[89.2463,21.9141],[89.2017,21.9501],[89.2246,21.9942],[89.1959,22.0017],[89.1816,22.0211]]],[[[90.2652,21.8658],[90.2976,21.9382],[90.3043,21.9734],[90.2729,21.979],[90.2559,21.9509],[90.2389,21.9606],[90.1984,21.9456],[90.1961,21.934],[90.1816,21.9264],[90.1741,21.9081],[90.1598,21.9095],[90.15,21.8997],[90.149,21.8918],[90.1387,21.896],[90.0865,21.8594],[90.1021,21.8218],[90.1395,21.8065],[90.1956,21.8003],[90.2572,21.8397],[90.2652,21.8658]]],[[[90.7536,21.9229],[90.728,21.9141],[90.7143,21.8817],[90.7343,21.8604],[90.7612,21.9101],[90.7536,21.9229]]],[[[89.4404,22.1614],[89.4075,22.15],[89.405,22.1242],[89.3831,22.1167],[89.3917,22.0892],[89.354,22.033],[89.3622,21.9607],[89.3812,21.9294],[89.3788,21.8711],[89.3476,21.8062],[89.3577,21.7573],[89.3958,21.7216],[89.4253,21.7343],[89.4745,21.7925],[89.4562,21.8415],[89.46,21.8906],[89.4186,21.965],[89.433,21.9903],[89.4275,22.0531],[89.4489,22.0756],[89.4847,22.0892],[89.4581,22.12],[89.4622,22.1431],[89.4404,22.1614]]],[[[89.2404,22.0975],[89.2472,22.0446],[89.2182,22.0079],[89.2505,21.9823],[89.2153,21.9586],[89.2608,21.9159],[89.2961,21.9039],[89.2767,21.8747],[89.302,21.845],[89.3222,21.8781],[89.3612,21.9009],[89.3483,21.9434],[89.3049,21.9978],[89.2772,22.0627],[89.2404,22.0975]]],[[[90.6941,21.9756],[90.6537,21.9739],[90.6115,21.8942],[90.6223,21.8908],[90.6947,21.9531],[90.6941,21.9756]]],[[[90.2174,21.9822],[90.1732,21.9749],[90.1373,21.9561],[90.1428,21.9247],[90.1187,21.904],[90.1277,21.899],[90.1465,21.8952],[90.1571,21.911],[90.1717,21.9098],[90.1798,21.9275],[90.1927,21.9328],[90.1951,21.9444],[90.2087,21.9535],[90.2174,21.9822]]],[[[90.3943,21.9868],[90.3603,21.9851],[90.3253,21.9112],[90.3061,21.8824],[90.311,21.8577],[90.3341,21.8455],[90.3747,21.8731],[90.3561,21.9081],[90.3585,21.925],[90.3848,21.9611],[90.3878,21.9759],[90.3943,21.9868]]],[[[90.5833,21.9833],[90.5678,21.9653],[90.5348,21.9608],[90.5089,21.9288],[90.5164,21.8908],[90.5764,21.8867],[90.6043,21.971],[90.5833,21.9833]]],[[[89.5049,21.9088],[89.5118,21.953],[89.473,22.0306],[89.4711,22.0473],[89.5123,22.0767],[89.4884,22.0894],[89.4318,22.0519],[89.439,21.9909],[89.4218,21.9702],[89.46,21.94],[89.4608,21.9083],[89.5049,21.9088]]],[[[89.8483,22.042],[89.835,21.9707],[89.8445,21.9597],[89.8433,21.9529],[89.8138,21.936],[89.8129,21.9159],[89.8462,21.8959],[89.8755,21.8977],[89.8607,21.9655],[89.8578,22.0232],[89.8483,22.042]]],[[[90.3849,21.878],[90.4067,21.8948],[90.4617,21.9189],[90.4932,21.9624],[90.4783,22.03],[90.4647,22.0545],[90.4139,22.0271],[90.4203,22.0178],[90.4217,22.0103],[90.416,21.9882],[90.4108,21.9753],[90.4111,21.96],[90.401,21.9436],[90.3599,21.9173],[90.3849,21.878]]],[[[90.4085,21.9577],[90.4103,21.9774],[90.4165,21.9931],[90.4209,22.0122],[90.4131,22.0261],[90.4,22.0139],[90.4019,21.9931],[90.3924,21.9825],[90.3868,21.9608],[90.375,21.9471],[90.3768,21.9371],[90.401,21.9455],[90.4085,21.9577]]],[[[90.5867,22.0263],[90.5669,21.9925],[90.6057,21.9781],[90.6202,21.9952],[90.5867,22.0263]]],[[[89.3308,22.1811],[89.2896,22.1522],[89.268,22.0903],[89.3026,22.0953],[89.2887,22.0611],[89.3239,21.9942],[89.3459,22.039],[89.3815,22.083],[89.3343,22.1238],[89.3308,22.1811]]],[[[89.5178,22.0725],[89.4793,22.0511],[89.4959,22.0292],[89.5178,22.0725]]],[[[91.0058,22.0883],[90.9917,22.0864],[90.9742,22.0511],[90.989,22.023],[91.0275,22.0533],[91.0306,22.0706],[91.0058,22.0883]]],[[[90.5889,22.1856],[90.5503,22.1603],[90.5378,22.1372],[90.4928,22.0919],[90.4813,22.0515],[90.4864,22.0144],[90.5094,21.9603],[90.533,21.9961],[90.5919,22.0633],[90.5939,22.1031],[90.6056,22.1269],[90.6022,22.1883],[90.5889,22.1856]]],[[[89.2511,22.2139],[89.2276,22.1936],[89.2455,22.1612],[89.2122,22.1432],[89.2169,22.0986],[89.2466,22.1003],[89.2811,22.162],[89.3128,22.1883],[89.3017,22.2142],[89.2511,22.2139]]],[[[89.4555,22.2124],[89.4572,22.2461],[89.4189,22.2308],[89.4026,22.2056],[89.4337,22.1655],[89.4716,22.163],[89.4555,22.2124]]],[[[91.166,22.1796],[91.1907,22.2452],[91.1852,22.2984],[91.1669,22.3233],[91.1528,22.3656],[91.1297,22.4022],[91.0672,22.42],[91.0714,22.3661],[91.0647,22.3292],[91.0683,22.2472],[91.0533,22.1917],[91.0147,22.1078],[91.0578,22.0792],[91.1649,22.1686],[91.166,22.1796]]],[[[90.8963,22.1035],[90.9286,22.1031],[90.9725,22.1661],[90.9922,22.2114],[91.0011,22.2869],[90.9861,22.3512],[90.9681,22.3472],[90.9678,22.285],[90.9303,22.1889],[90.9072,22.1433],[90.8963,22.1035]]],[[[90.5789,22.1919],[90.6167,22.1958],[90.6372,22.2194],[90.6325,22.2456],[90.6017,22.2436],[90.5789,22.1919]]],[[[90.6163,22.3265],[90.6299,22.3798],[90.5878,22.4272],[90.6055,22.4772],[90.5767,22.5425],[90.5154,22.5822],[90.4546,22.575],[90.4577,22.5479],[90.4653,22.5322],[90.4611,22.5211],[90.4324,22.5048],[90.4158,22.4783],[90.3753,22.4856],[90.3432,22.464],[90.3097,22.4652],[90.2977,22.4256],[90.2742,22.4083],[90.2589,22.3414],[90.2075,22.3225],[90.2203,22.2625],[90.2192,22.2275],[90.2397,22.1898],[90.2134,22.117],[90.1939,22.107],[90.1587,22.1148],[90.1408,22.0852],[90.0918,22.0444],[90.0748,22.0043],[90.0764,21.981],[90.0238,21.9266],[90.0268,21.8799],[90.0733,21.8607],[90.1006,21.8846],[90.1328,21.9541],[90.1519,21.9809],[90.2136,21.9858],[90.2555,21.954],[90.2652,21.9775],[90.287,21.9942],[90.3103,21.9868],[90.3389,22.017],[90.3535,22.0144],[90.3681,22.0494],[90.3929,22.0481],[90.4378,22.0806],[90.4655,22.1093],[90.5031,22.1656],[90.5208,22.1772],[90.5361,22.2131],[90.593,22.2652],[90.6163,22.3265]]],[[[91.477,22.4023],[91.5102,22.3872],[91.5684,22.4094],[91.5706,22.45],[91.5474,22.4975],[91.5036,22.5611],[91.4597,22.6108],[91.4142,22.5978],[91.4061,22.5756],[91.4236,22.4994],[91.4417,22.455],[91.477,22.4023]]],[[[91.1644,22.4761],[91.1942,22.4998],[91.1764,22.5122],[91.1486,22.5],[91.1644,22.4761]]],[[[91.0981,22.4714],[91.1492,22.5119],[91.1542,22.5303],[91.1172,22.5386],[91.0917,22.5178],[91.0822,22.4908],[91.0981,22.4714]]],[[[90.6425,22.5497],[90.6114,22.5481],[90.6047,22.5194],[90.6275,22.4936],[90.6506,22.4942],[90.6425,22.5497]]],[[[91.0278,22.4083],[91.0456,22.4142],[91.0472,22.4425],[91.0194,22.4594],[90.9911,22.4544],[90.9919,22.4142],[91.0025,22.3728],[91.0225,22.3656],[91.0278,22.4083]]],[[[90.9831,22.3811],[90.9736,22.4208],[90.9533,22.41],[90.9539,22.3808],[90.9831,22.3811]]],[[[90.6261,22.3978],[90.6414,22.4117],[90.6489,22.4831],[90.6156,22.4781],[90.5942,22.445],[90.6261,22.3978]]],[[[90.5839,22.5703],[90.5867,22.5817],[90.5447,22.6119],[90.5581,22.5653],[90.5839,22.5703]]],[[[91.2744,22.6267],[91.2634,22.629],[91.2472,22.6139],[91.2475,22.6031],[91.265,22.5758],[91.2839,22.6036],[91.2744,22.6267]]],[[[90.4467,22.6122],[90.4423,22.6026],[90.4066,22.5764],[90.3642,22.5953],[90.3636,22.5786],[90.3611,22.5719],[90.3456,22.5614],[90.3531,22.5458],[90.3514,22.5033],[90.3817,22.4886],[90.4356,22.5125],[90.46,22.5317],[90.4447,22.5703],[90.4751,22.5856],[90.5033,22.5861],[90.5114,22.6078],[90.4953,22.6933],[90.4724,22.6504],[90.443,22.6436],[90.4494,22.6318],[90.4467,22.6122]]],[[[91.3139,22.5611],[91.2875,22.5533],[91.2684,22.5165],[91.2836,22.5031],[91.3122,22.5381],[91.3139,22.5611]]],[[[90.9794,22.5189],[90.9572,22.5444],[90.9142,22.575],[90.89,22.5733],[90.8544,22.5894],[90.8381,22.575],[90.8719,22.5325],[90.9275,22.4906],[90.9856,22.5042],[90.9794,22.5189]]],[[[90.6088,22.657],[90.5951,22.69],[90.5711,22.6491],[90.5378,22.6284],[90.5728,22.6018],[90.6003,22.5703],[90.6154,22.6384],[90.6088,22.657]]],[[[90.68562627737225,22.978882481751825],[90.68551277013754,22.9789047151277],[90.6656,22.9644],[90.72,22.8803],[90.7331,22.8919],[90.7136,22.9408],[90.68562627737225,22.978882481751825]]],[[[90.68551277013754,22.9789047151277],[90.68562627737225,22.978882481751825],[90.7149,22.9438],[90.7392,22.8931],[90.7775,22.8439],[90.7769,22.7806],[90.7983,22.7358],[90.8428,22.6717],[90.8906,22.6583],[90.9014,22.6397],[90.9664,22.6017],[91.0531,22.5261],[91.0742,22.4992],[91.09,22.5203],[91.1133,22.5394],[91.1428,22.5347],[91.1583,22.5375],[91.155,22.5242],[91.1651,22.5211],[91.2633,22.5753],[91.2483,22.5975],[91.2436,22.6117],[91.2722,22.6442],[91.2467,22.6803],[91.2989,22.7411],[91.3267,22.7506],[91.375,22.7483],[91.3869,22.7664],[91.4497,22.7775],[91.4656,22.72],[91.5244,22.6892],[91.5742,22.6469],[91.5931,22.6161],[91.6683,22.5436],[91.7122,22.4786],[91.7292,22.4244],[91.7403,22.4117],[91.7686,22.298],[91.7656,22.2723],[91.8123,22.2082],[91.8392,22.12],[91.8636,22.1075],[91.8642,22.08],[91.8792,22.0464],[91.8738,22.0029],[91.8871,21.9571],[91.909,21.9286],[91.9168,21.8626],[91.91,21.8169],[91.8882,21.7727],[91.8745,21.7174],[91.8556,21.685],[91.8773,21.6461],[91.8819,21.5933],[91.8725,21.5606],[91.8515,21.5289],[91.8918,21.4806],[91.9309,21.5046],[91.9756,21.5095],[91.9885,21.6305],[92.0086,21.6011],[91.9933,21.5759],[91.9996,21.5092],[91.9572,21.4425],[92.0188,21.366],[92.0478,21.2992],[92.0494,21.1792],[92.1158,21.0972],[92.1292,21.0872],[92.1875,21.0147],[92.2023,20.9607],[92.2278,20.9099],[92.2767,20.8397],[92.3025,20.7783],[92.3403,20.7469],[92.3417,20.798],[92.3152,20.8873],[92.2703,20.942],[92.2714,20.9802],[92.2539,21.0229],[92.265,21.0622],[92.207,21.1189],[92.1993,21.1613],[92.1725,21.1812],[92.2181,21.2319],[92.2197,21.2576],[92.1979,21.3198],[92.2115,21.3398],[92.2588,21.3622],[92.2558,21.3892],[92.2691,21.4282],[92.322,21.4196],[92.3435,21.4669],[92.381,21.4799],[92.4281,21.4236],[92.4388,21.3652],[92.4991,21.3611],[92.5085,21.3773],[92.5611,21.3801],[92.5622,21.3637],[92.5969,21.2436],[92.6295,21.2686],[92.6737,21.2913],[92.6482,21.3581],[92.6194,21.4961],[92.6018,21.6547],[92.6012,21.7026],[92.6119,21.781],[92.6141,21.8523],[92.6263,21.8699],[92.6215,21.9209],[92.6035,21.9829],[92.5898,22.0708],[92.5752,22.1162],[92.6066,22.1661],[92.588,22.216],[92.5918,22.2393],[92.571,22.3568],[92.5547,22.4056],[92.5439,22.4948],[92.5512,22.5137],[92.5218,22.5603],[92.5384,22.586],[92.5245,22.6407],[92.526,22.6731],[92.5079,22.7361],[92.477,22.7543],[92.4722,22.7958],[92.4552,22.8258],[92.4643,22.8547],[92.3978,22.9294],[92.3765,22.9288],[92.3743,22.9701],[92.3923,23.0565],[92.3579,23.1035],[92.3624,23.1651],[92.3507,23.2343],[92.3996,23.2419],[92.3857,23.3063],[92.3682,23.3256],[92.3757,23.3655],[92.3561,23.3727],[92.3463,23.4334],[92.327,23.4486],[92.3132,23.5567],[92.2889,23.5983],[92.2897,23.6284],[92.275,23.6501],[92.2893,23.702],[92.2747,23.7204],[92.2468,23.7227],[92.2471,23.6947],[92.2227,23.653],[92.2028,23.7059],[92.1777,23.7077],[92.1667,23.7403],[92.1442,23.7332],[92.1059,23.6765],[92.0875,23.6807],[92.0793,23.6487],[92.042,23.6481],[92,23.6713],[91.9773,23.7315],[91.9567,23.7191],[91.9423,23.6818],[91.9567,23.6179],[91.9538,23.5932],[91.9657,23.5541],[91.9562,23.5258],[91.9761,23.496],[91.9184,23.4397],[91.8764,23.4224],[91.8407,23.399],[91.8376,23.3709],[91.8083,23.3387],[91.7748,23.2781],[91.7763,23.2442],[91.7921,23.2292],[91.7939,23.2015],[91.8209,23.1225],[91.8355,23.0955],[91.794,23.0624],[91.7851,23.0317],[91.7256,22.9893],[91.6817,22.9774],[91.6457,22.9768],[91.6169,22.9442],[91.5904,22.9771],[91.575,22.9688],[91.5424,22.9997],[91.5304,23.0384],[91.5353,23.0635],[91.5112,23.1043],[91.5126,23.1372],[91.4909,23.1578],[91.5067,23.1801],[91.4824,23.1986],[91.4539,23.2564],[91.4187,23.2584],[91.3877,23.208],[91.3818,23.1752],[91.4012,23.1352],[91.416,23.0767],[91.3958,23.0562],[91.3697,23.0705],[91.3469,23.1025],[91.3247,23.1688],[91.3236,23.2376],[91.2898,23.3187],[91.2961,23.341],[91.2797,23.3768],[91.2764,23.4148],[91.2515,23.4538],[91.2522,23.4811],[91.2179,23.4996],[91.2007,23.5202],[91.2081,23.5432],[91.158,23.6219],[91.1605,23.6674],[91.1929,23.6546],[91.1938,23.69],[91.1542,23.6885],[91.1491,23.7117],[91.1724,23.752],[91.2143,23.7501],[91.2306,23.7651],[91.2264,23.7911],[91.254,23.8381],[91.2295,23.8807],[91.2448,23.9071],[91.2365,23.9297],[91.2639,23.9444],[91.2837,23.9831],[91.3051,23.9954],[91.3406,23.9822],[91.3733,24.0028],[91.3965,24.0498],[91.3771,24.08],[91.3745,24.1079],[91.4125,24.1101],[91.4441,24.098],[91.4758,24.1007],[91.4976,24.0874],[91.5442,24.0761],[91.5925,24.0791],[91.6341,24.1026],[91.6344,24.1382],[91.6597,24.1897],[91.6802,24.1915],[91.6921,24.1598],[91.7283,24.1434],[91.7595,24.142],[91.7454,24.2469],[91.8236,24.2102],[91.8523,24.1817],[91.8739,24.1746],[91.8778,24.1479],[91.9022,24.1371],[91.9407,24.2682],[91.9199,24.3375],[91.9567,24.3568],[91.9749,24.3316],[91.9963,24.3381],[91.9699,24.3749],[91.9965,24.3939],[92.0101,24.382],[92.089,24.3734],[92.1191,24.3887],[92.1367,24.4251],[92.1673,24.4347],[92.1504,24.4954],[92.1549,24.5231],[92.1734,24.534],[92.2125,24.5038],[92.2308,24.5302],[92.2323,24.5711],[92.2596,24.6874],[92.2959,24.7366],[92.279,24.7457],[92.2878,24.7793],[92.2692,24.83],[92.2424,24.8406],[92.2452,24.9102],[92.296,24.9162],[92.3397,24.8783],[92.3694,24.8742],[92.4028,24.8549],[92.4596,24.8746],[92.4919,24.878],[92.4968,24.9022],[92.4878,24.9442],[92.4684,24.9623],[92.4194,24.9676],[92.4252,25.0297],[92.3381,25.0516],[92.3105,25.0692],[92.2543,25.0869],[92.2003,25.1201],[92.1358,25.1389],[92.1396,25.1547],[92.1044,25.1747],[92.0618,25.1871],[92.0034,25.1862],[91.9805,25.1718],[91.9145,25.1814],[91.8555,25.1726],[91.8272,25.1779],[91.7436,25.1512],[91.7049,25.1501],[91.6379,25.1227],[91.6214,25.1435],[91.5802,25.1725],[91.5589,25.1493],[91.5026,25.1355],[91.3986,25.1646],[91.3371,25.1737],[91.271,25.204],[91.2515,25.1946],[91.1946,25.2019],[91.1722,25.1943],[91.0696,25.1985],[90.9279,25.1623],[90.8857,25.1643],[90.8535,25.1558],[90.8144,25.1625],[90.7949,25.1813],[90.7697,25.1769],[90.7393,25.1544],[90.6985,25.1569],[90.6511,25.1821],[90.6369,25.1722],[90.5066,25.17],[90.4596,25.1523],[90.4186,25.1509],[90.3705,25.1629],[90.3301,25.1939],[90.3104,25.1889],[90.1959,25.2111],[90.1714,25.2232],[90.1123,25.2255],[90.0545,25.2615],[90.0042,25.2806],[89.9807,25.281],[89.9091,25.3081],[89.8765,25.2854],[89.8416,25.3083],[89.8226,25.3501],[89.8196,25.3808],[89.8327,25.4389],[89.8523,25.4664],[89.8824,25.6173],[89.8729,25.6569],[89.835,25.7159],[89.829,25.7425],[89.8413,25.7591],[89.8264,25.8103],[89.8325,25.8707],[89.8785,25.9243],[89.8859,25.9436],[89.8319,25.9415],[89.831,25.9552],[89.8718,25.9742],[89.8476,26.0008],[89.8174,25.9915],[89.8192,26.0259],[89.7476,26.1574],[89.6972,26.1586],[89.6734,26.2058],[89.6606,26.1768],[89.6148,26.1787],[89.5965,26.1353],[89.6398,26.0989],[89.6483,26.0685],[89.5837,26.0335],[89.5918,25.994],[89.5804,25.9682],[89.5409,25.9696],[89.5213,26.0083],[89.4783,25.9967],[89.431,26.0111],[89.4295,26.0435],[89.4074,26.0416],[89.392,26.0093],[89.3631,26.0076],[89.3046,26.0471],[89.2543,26.0642],[89.2517,26.1013],[89.2197,26.1266],[89.1929,26.1239],[89.1553,26.1387],[89.1355,26.1874],[89.1493,26.209],[89.1252,26.2636],[89.1049,26.2756],[89.0936,26.3259],[89.0934,26.3928],[89.0462,26.3999],[89.0034,26.42],[88.9832,26.4466],[88.9461,26.448],[88.9447,26.4257],[88.9172,26.4033],[88.9137,26.378],[88.9797,26.3466],[89.0008,26.3295],[89.0102,26.3019],[89.0673,26.274],[89.0697,26.2553],[89.046,26.2408],[88.9531,26.2421],[88.9262,26.2839],[88.8767,26.2867],[88.8597,26.2315],[88.8135,26.2547],[88.8131,26.2972],[88.7935,26.3101],[88.7408,26.2957],[88.7219,26.2829],[88.6676,26.272],[88.6761,26.3165],[88.7465,26.3225],[88.7439,26.3488],[88.6951,26.3442],[88.6853,26.3748],[88.6498,26.4297],[88.6282,26.4411],[88.56,26.4571],[88.5279,26.4862],[88.4835,26.5411],[88.4312,26.5502],[88.4151,26.6333],[88.3759,26.5943],[88.3526,26.512],[88.3312,26.4846],[88.366,26.4709],[88.4049,26.4859],[88.4167,26.4693],[88.4581,26.4667],[88.4981,26.4344],[88.5248,26.3598],[88.4922,26.3515],[88.4632,26.3574],[88.415,26.3152],[88.3715,26.306],[88.3496,26.2823],[88.3592,26.2429],[88.3478,26.222],[88.2763,26.1886],[88.2494,26.19],[88.2294,26.1673],[88.1804,26.1457],[88.1643,26.0857],[88.176,26.0581],[88.1768,26.0186],[88.1537,26.0178],[88.1299,25.9866],[88.1108,25.9324],[88.0937,25.9296],[88.0939,25.8744],[88.1153,25.8524],[88.1013,25.8296],[88.1144,25.798],[88.1442,25.7937],[88.1521,25.7758],[88.1934,25.8016],[88.2283,25.7967],[88.2699,25.8081],[88.2685,25.7808],[88.3163,25.7532],[88.3209,25.7376],[88.3786,25.7116],[88.4243,25.6705],[88.4538,25.665],[88.4582,25.6279],[88.4506,25.6025],[88.4704,25.5846],[88.4999,25.5841],[88.5007,25.5511],[88.5331,25.5422],[88.548,25.5182],[88.6231,25.4971],[88.6397,25.4996],[88.663,25.4738],[88.7101,25.4807],[88.7075,25.4999],[88.7421,25.5051],[88.7592,25.524],[88.808,25.5128],[88.8297,25.4904],[88.8456,25.3622],[88.8714,25.34],[88.9064,25.338],[88.9151,25.3126],[89.0089,25.3031],[88.9931,25.2703],[88.952,25.2475],[88.9589,25.2196],[88.9496,25.1813],[88.9242,25.172],[88.8649,25.2007],[88.8304,25.2055],[88.8133,25.1744],[88.793,25.1727],[88.7333,25.2],[88.68,25.209],[88.6727,25.1985],[88.6202,25.2053],[88.5796,25.1769],[88.5599,25.191],[88.4777,25.2133],[88.4448,25.1768],[88.4592,25.1351],[88.4414,25.1276],[88.4529,25.0794],[88.4365,25.0502],[88.4472,25.0327],[88.4366,25.0066],[88.4146,24.9953],[88.4174,24.974],[88.3934,24.9604],[88.3845,24.9378],[88.3402,24.9403],[88.3263,24.9159],[88.3468,24.8925],[88.3331,24.8704],[88.3043,24.8704],[88.2968,24.8883],[88.2649,24.8928],[88.2631,24.9191],[88.2262,24.9598],[88.2034,24.9577],[88.1406,24.9173],[88.1656,24.8901],[88.1509,24.8493],[88.0657,24.7508],[88.0599,24.715],[88.0106,24.6667],[88.0412,24.6434],[88.1038,24.5489],[88.1484,24.5053],[88.1734,24.4931],[88.1937,24.4662],[88.2633,24.446],[88.333,24.3832],[88.3894,24.3719],[88.4303,24.3838],[88.5072,24.3447],[88.5287,24.3442],[88.555,24.2965],[88.5676,24.3267],[88.588,24.312],[88.6965,24.3154],[88.7247,24.2979],[88.7409,24.254],[88.7315,24.1717],[88.7464,24.1472],[88.7095,24.1208],[88.7277,24.1009],[88.7372,24.0626],[88.7378,24.0138],[88.7587,24.0082],[88.7696,23.9819],[88.7374,23.9827],[88.7354,23.9147],[88.7015,23.9123],[88.6827,23.8888],[88.6331,23.8614],[88.5848,23.8679],[88.5809,23.8521],[88.6009,23.8206],[88.5714,23.7833],[88.5806,23.7652],[88.5647,23.7132],[88.5738,23.6668],[88.5937,23.6409],[88.6015,23.607],[88.6392,23.5928],[88.6555,23.5576],[88.6957,23.5175],[88.7444,23.4831],[88.7833,23.5025],[88.7933,23.4443],[88.7644,23.4421],[88.7511,23.4029],[88.7655,23.3677],[88.7192,23.2979],[88.7188,23.2563],[88.778,23.2234],[88.8042,23.2188],[88.8136,23.2522],[88.9422,23.2064],[88.9847,23.2216],[88.9853,23.2],[88.9353,23.1725],[88.9314,23.1386],[88.8858,23.1056],[88.861,23.0774],[88.8841,23.0406],[88.8656,23.0004],[88.8552,22.9576],[88.8941,22.9525],[88.9098,22.8798],[88.9497,22.8731],[88.9685,22.8441],[88.9584,22.7942],[88.911,22.7579],[88.9279,22.7182],[88.9623,22.6951],[88.9319,22.6456],[88.9385,22.5604],[88.9614,22.55],[88.9804,22.4862],[88.9971,22.4697],[89.0022,22.4289],[88.9735,22.4088],[88.9908,22.3908],[88.9855,22.3261],[89.0241,22.2991],[88.9983,22.2825],[89.0346,22.258],[89.048,22.2232],[89.1083,22.1581],[89.1253,22.155],[89.1389,22.1242],[89.1297,22.1028],[89.1733,22.0722],[89.1631,22.0272],[89.1869,22.0244],[89.2083,22.0042],[89.2453,22.0569],[89.2156,22.0875],[89.2063,22.1159],[89.2116,22.1483],[89.2413,22.1612],[89.2222,22.2008],[89.2575,22.2211],[89.308,22.2168],[89.3361,22.1806],[89.3428,22.1353],[89.3694,22.0992],[89.4047,22.1481],[89.4281,22.1681],[89.3914,22.2027],[89.4204,22.2356],[89.46,22.2517],[89.478,22.2697],[89.4575,22.3123],[89.4192,22.3536],[89.4383,22.3847],[89.4267,22.3997],[89.4164,22.4931],[89.4272,22.4978],[89.4353,22.4197],[89.4483,22.3842],[89.4333,22.3567],[89.465,22.32],[89.4936,22.2642],[89.4753,22.2303],[89.5108,22.1311],[89.5321,22.088],[89.5307,22.0516],[89.5091,22.0161],[89.5323,21.9931],[89.5831,22.1238],[89.6044,22.1257],[89.5957,22.0874],[89.5761,22.0585],[89.5509,21.9864],[89.5476,21.9615],[89.5686,21.9417],[89.5878,21.95],[89.626,21.9489],[89.6686,21.8715],[89.6659,21.8484],[89.7277,21.8336],[89.7543,21.8518],[89.7705,21.8393],[89.831,21.8491],[89.844,21.8927],[89.8085,21.9158],[89.8084,21.9338],[89.8427,21.9571],[89.8313,21.9705],[89.8117,21.9815],[89.8379,22.0031],[89.8218,22.0651],[89.8452,22.0636],[89.8767,22.0972],[89.8849,22.1358],[89.8749,22.1913],[89.8414,22.2172],[89.8401,22.2688],[89.8594,22.3153],[89.8844,22.35],[89.894,22.39],[89.952,22.44],[89.9633,22.4228],[89.9221,22.3954],[89.9007,22.3392],[89.8717,22.2883],[89.8694,22.2635],[89.9114,22.1304],[89.9006,22.0708],[89.917,22.0222],[89.9319,22.0003],[89.9314,21.9688],[89.9567,21.9467],[89.9885,21.9658],[89.9728,22.0331],[90.0189,22.0747],[90.013,22.11],[90.0367,22.1497],[90.025,22.1953],[90.0625,22.1775],[90.0631,22.1475],[90.0344,22.1289],[90.035,22.0689],[90.0156,22.0428],[89.9868,22.0351],[89.9991,21.9959],[90.0147,21.9837],[90.0564,21.9778],[90.0656,22.025],[90.0811,22.0532],[90.1252,22.088],[90.1553,22.125],[90.2053,22.1272],[90.2139,22.1654],[90.23,22.1919],[90.2084,22.2289],[90.2086,22.2683],[90.1972,22.3203],[90.2061,22.3397],[90.2563,22.3516],[90.2616,22.397],[90.2985,22.442],[90.3022,22.4689],[90.3514,22.4747],[90.3479,22.5239],[90.3353,22.5467],[90.3454,22.5655],[90.3608,22.5758],[90.357,22.5914],[90.339,22.5983],[90.3514,22.6127],[90.3647,22.5972],[90.403,22.5801],[90.4149,22.5831],[90.4304,22.6204],[90.4471,22.6315],[90.441,22.6428],[90.4472,22.648],[90.4722,22.6532],[90.5029,22.713],[90.4632,22.7518],[90.4357,22.756],[90.4281,22.7892],[90.4575,22.7937],[90.4903,22.7672],[90.4914,22.7463],[90.5186,22.7095],[90.5664,22.7028],[90.5962,22.6903],[90.6169,22.6396],[90.6098,22.6016],[90.6233,22.5659],[90.6602,22.553],[90.6694,22.5314],[90.6741,22.4637],[90.6742,22.3708],[90.6842,22.3333],[90.6774,22.277],[90.6503,22.2156],[90.6251,22.187],[90.6192,22.1093],[90.5981,22.0478],[90.6,22.0303],[90.6321,21.9933],[90.6967,22.0065],[90.7403,22.0519],[90.7856,22.0857],[90.8239,22.1517],[90.8311,22.2217],[90.8444,22.2922],[90.8408,22.3678],[90.8619,22.4029],[90.8674,22.43],[90.8456,22.4644],[90.8075,22.4983],[90.7711,22.5456],[90.7542,22.6081],[90.7058,22.6439],[90.6992,22.6744],[90.6742,22.7228],[90.6592,22.7842],[90.6453,22.8067],[90.6808,22.8197],[90.6419,22.8683],[90.5347,22.89],[90.5867,22.9181],[90.593,22.9349],[90.5877,22.9814],[90.558,23.0118],[90.5586,23.0361],[90.5047,23.0175],[90.5071,23.0673],[90.5285,23.0959],[90.5676,23.0928],[90.5933,23.1889],[90.6144,23.221],[90.6377,23.2208],[90.6389,23.1692],[90.6533,23.1236],[90.6394,23.0942],[90.6358,23.0222],[90.6619,22.9675],[90.68551277013754,22.9789047151277]]]]},"properties":{"GID_0":"BGD","ISO_A2":"BD","ISO_A3":"BGD","NAME_EN":"Bangladesh","NAME_IT":"Bangladesh"}}
]}