{"type":"FeatureCollection", "features": [
{"type":"Feature","geometry":{"type":"Polygon","coordinates":[[[13.6076,45.4618],[13.6545,45.447],[13.7357,45.4787],[13.8077,45.4721],[13.8775,45.4283],[13.9352,45.4641],[14.0807,45.4847],[14.2226,45.4816],[14.4581,45.5282],[14.4931,45.6095],[14.5971,45.623],[14.6803,45.5692],[14.6895,45.5272],[14.7949,45.5143],[14.8157,45.4741],[14.8876,45.4876],[14.8988,45.5341],[15.0391,45.5047],[15.1591,45.4326],[15.2307,45.4587],[15.3116,45.4594],[15.3779,45.492],[15.2986,45.5484],[15.2792,45.6047],[15.3375,45.6564],[15.3266,45.7181],[15.3709,45.7802],[15.5489,45.8608],[15.6426,45.8296],[15.6798,45.8692],[15.71,46.0472],[15.6129,46.0943],[15.5979,46.1645],[15.6513,46.2135],[15.7447,46.2059],[15.7847,46.2628],[15.996,46.3182],[16.1082,46.4089],[16.2507,46.3951],[16.2544,46.515],[16.3424,46.5505],[16.5031,46.5103],[16.5126,46.563],[16.3894,46.6351],[16.4233,46.6934],[16.3531,46.7144],[16.312,46.7959],[16.3454,46.8426],[16.2939,46.8737],[16.1725,46.8597],[16.1125,46.8696],[15.9992,46.8101],[15.9858,46.7525],[16.0436,46.6862],[15.948,46.6895],[15.8715,46.7214],[15.7226,46.6962],[15.651,46.7061],[15.5482,46.6696],[15.5128,46.6169],[15.4151,46.6559],[15.2369,46.6397],[15.1084,46.66],[15.0171,46.6412],[14.9803,46.6018],[14.8674,46.6037],[14.8195,46.5097],[14.7609,46.5049],[14.6756,46.451],[14.5873,46.4301],[14.4435,46.4234],[14.4105,46.4467],[14.1554,46.436],[14.1223,46.477],[14.0073,46.4817],[13.8827,46.5232],[13.7548,46.5184],[13.6668,46.4557],[13.5768,46.441],[13.5449,46.4007],[13.4594,46.3639],[13.3821,46.2933],[13.5553,46.1962],[13.6524,46.1827],[13.6604,46.1516],[13.5706,46.0877],[13.4986,46.0601],[13.4792,45.993],[13.6533,45.9837],[13.5933,45.8618],[13.6099,45.8167],[13.7508,45.7727],[13.8919,45.6689],[13.9061,45.6265],[13.8307,45.5794],[13.7504,45.5923],[13.7204,45.5429],[13.594,45.504],[13.6076,45.4618]]]},"properties":{"GID_0":"SVN","ISO_A2":"SI","ISO_A3":"SVN","NAME_EN":"Slovenia","NAME_IT":"Slovenia"}}
]}