{"type":"FeatureCollection", "features": [
{"type":"Feature","geometry":{"type":"MultiPolygon","coordinates":[[[[54.1935,17.0135],[54.3462,17.0329],[54.5085,17.034],[54.6301,17.0279],[54.6754,17.016],[54.6821,16.979],[54.7385,16.9549],[54.816,16.9549],[54.9051,16.9651],[54.9779,16.9926],[54.9929,17.0201],[55.0307,17.0157],[55.0893,17.0501],[55.1293,17.1093],[55.1935,17.1618],[55.216,17.1949],[55.2524,17.221],[55.2574,17.2457],[55.2415,17.2676],[55.2818,17.3318],[55.3001,17.3782],[55.2974,17.4068],[55.2726,17.4493],[55.2351,17.4632],[55.2243,17.5176],[55.2332,17.5488],[55.2657,17.6051],[55.3032,17.6276],[55.319,17.6499],[55.3779,17.6799],[55.381,17.7282],[55.4154,17.7604],[55.4251,17.8165],[55.5382,17.8657],[55.5879,17.8782],[55.7504,17.9026],[55.9196,17.8982],[55.9793,17.9301],[56.039,17.9301],[56.1049,17.9204],[56.1476,17.9271],[56.171,17.9424],[56.2782,17.9337],[56.3454,17.9168],[56.3549,17.9607],[56.4257,18.0115],[56.4476,18.0607],[56.5049,18.0907],[56.5513,18.1257],[56.5504,18.1829],[56.5576,18.226],[56.599,18.2988],[56.6082,18.3418],[56.6093,18.3976],[56.634,18.4493],[56.6265,18.5285],[56.6354,18.5718],[56.679,18.6157],[56.7832,18.7362],[56.8701,18.7921],[56.9404,18.8165],[56.9924,18.8412],[57.0693,18.8654],[57.3096,18.9243],[57.439,18.9376],[57.5176,18.9396],[57.6815,18.9371],[57.706,18.9404],[57.7426,18.9643],[57.8049,18.969],[57.8338,18.991],[57.8126,19.0596],[57.7965,19.0726],[57.804,19.1565],[57.7649,19.1793],[57.7457,19.2321],[57.7451,19.3265],[57.7601,19.3624],[57.7621,19.3985],[57.7482,19.4463],[57.6965,19.5254],[57.7157,19.6035],[57.724,19.661],[57.689,19.6718],[57.6771,19.7062],[57.6896,19.749],[57.7307,19.7929],[57.7551,19.839],[57.7696,19.8996],[57.8115,19.9837],[57.8185,20.0601],[57.8329,20.104],[57.8154,20.171],[57.8499,20.2412],[57.9035,20.2849],[57.9579,20.3132],[57.9426,20.3832],[57.9543,20.4051],[57.9926,20.4321],[58.0474,20.4482],[58.0687,20.4718],[58.0751,20.5438],[58.129,20.5721],[58.1679,20.6043],[58.2157,20.6093],[58.2693,20.5879],[58.2438,20.5051],[58.2229,20.4735],[58.1974,20.4132],[58.286,20.3688],[58.3524,20.3801],[58.4029,20.3529],[58.4446,20.3479],[58.4771,20.3907],[58.5282,20.4263],[58.5451,20.5118],[58.5882,20.6029],[58.5901,20.636],[58.6285,20.6779],[58.681,20.7079],[58.7113,20.7418],[58.6732,20.759],[58.6935,20.8151],[58.7385,20.8388],[58.7521,20.8843],[58.8024,20.9374],[58.7993,20.9857],[58.8537,21.0649],[58.9182,21.1362],[58.9665,21.1746],[58.9993,21.2157],[59.0687,21.2774],[59.1862,21.3657],[59.3115,21.4146],[59.3482,21.4343],[59.3465,21.4735],[59.3737,21.5065],[59.4601,21.6462],[59.4865,21.7057],[59.4943,21.7582],[59.576,21.8393],[59.5704,21.8585],[59.606,21.9043],[59.6463,21.9351],[59.6463,21.971],[59.6763,22.0351],[59.6782,22.0713],[59.7071,22.1021],[59.7713,22.1968],[59.8101,22.226],[59.8243,22.2926],[59.8165,22.3821],[59.8393,22.4251],[59.8268,22.4749],[59.8043,22.5049],[59.7471,22.5335],[59.7513,22.4971],[59.7143,22.5076],[59.7296,22.5371],[59.6488,22.5593],[59.5465,22.5682],[59.4888,22.5974],[59.4249,22.6549],[59.3846,22.679],[59.3346,22.7524],[59.2907,22.7651],[59.264,22.8268],[59.2396,22.8485],[59.2065,22.9446],[59.1874,22.9685],[59.121,23.001],[59.0718,23.044],[59.059,23.0835],[59.0193,23.1121],[58.9907,23.1696],[58.9951,23.196],[58.9287,23.2565],[58.9115,23.3221],[58.8954,23.3263],[58.8449,23.3726],[58.806,23.3921],[58.7843,23.4226],[58.7729,23.4904],[58.7215,23.5329],[58.6829,23.5321],[58.6665,23.5485],[58.614,23.5696],[58.599,23.6171],[58.5238,23.6304],[58.5018,23.6457],[58.481,23.6249],[58.4279,23.6054],[58.3418,23.6046],[58.2851,23.6196],[58.1776,23.689],[58.0935,23.7129],[58.0468,23.7146],[57.9538,23.7079],[57.8779,23.7124],[57.8071,23.7493],[57.7924,23.7712],[57.7082,23.7696],[57.5876,23.7971],[57.4704,23.844],[57.3807,23.8662],[57.2301,23.9146],[57.1393,23.9574],[57.0782,24.011],[56.9535,24.1015],[56.9068,24.1504],[56.8737,24.2021],[56.8224,24.2618],[56.7196,24.4079],[56.6901,24.4268],[56.6237,24.489],[56.5493,24.594],[56.4729,24.7351],[56.4562,24.7962],[56.4299,24.8363],[56.3918,24.9235],[56.3749,24.9779],[56.3236,24.9724],[56.3501,24.9339],[56.3261,24.8982],[56.2591,24.8599],[56.2059,24.8503],[56.2012,24.7844],[56.1127,24.7382],[56.0811,24.7433],[56.025,24.8309],[55.978,24.8777],[55.9798,24.895],[56.051,24.8765],[56.0407,24.9089],[56.0632,24.9476],[56.0067,24.9945],[55.9603,25.006],[55.9108,24.9653],[55.8514,24.9654],[55.8126,24.9107],[55.815,24.7994],[55.8321,24.7802],[55.829,24.7046],[55.8371,24.6709],[55.7943,24.6369],[55.8168,24.6153],[55.7681,24.5724],[55.7653,24.5296],[55.7858,24.4862],[55.8347,24.41],[55.8344,24.3334],[55.7916,24.2794],[55.7595,24.2611],[55.7768,24.2349],[55.8334,24.2013],[55.8754,24.2159],[55.9552,24.2232],[55.9723,24.1851],[55.9613,24.1703],[56.0149,24.0899],[56.0181,24.066],[55.9599,24.0605],[55.9026,24.0465],[55.8337,24.0138],[55.8019,24.025],[55.7802,24.0553],[55.7324,24.0579],[55.6334,24.0201],[55.5746,23.9874],[55.4948,23.9532],[55.4849,23.94],[55.5246,23.8772],[55.5352,23.8433],[55.5335,23.7558],[55.5697,23.7185],[55.5722,23.628],[55.5234,23.5548],[55.4983,23.5334],[55.4472,23.4559],[55.4369,23.4117],[55.4017,23.3923],[55.3434,23.2846],[55.2804,23.177],[55.2325,23.1104],[55.2185,23.0333],[55.2136,22.9356],[55.2256,22.8849],[55.2182,22.851],[55.2281,22.7915],[55.2135,22.7022],[55.4816,22.2872],[55.6667,22],[55.5502,21.6546],[55.4793,21.4382],[55.4059,21.2246],[55.3354,21.007],[55.221,20.6644],[55.1494,20.4531],[55,20],[52,19],[52.7822,17.3497],[52.7458,17.2944],[52.8123,17.2855],[52.8277,17.2525],[52.7356,17.2445],[52.7126,17.0803],[52.9479,16.8007],[52.9704,16.7948],[53.0379,16.8028],[53.107,16.6544],[53.1504,16.6662],[53.1929,16.691],[53.3321,16.7282],[53.4421,16.7457],[53.5124,16.7618],[53.5779,16.7515],[53.6726,16.7804],[53.6926,16.8154],[53.7732,16.8782],[53.8635,16.8935],[53.9012,16.8935],[53.9765,16.9129],[53.9938,16.929],[54.0015,16.9674],[54.0446,16.9904],[54.1935,17.0135]]],[[[56.0526,17.5532],[56.0137,17.5299],[55.9718,17.5193],[55.9637,17.4943],[56.0121,17.479],[56.0893,17.4982],[56.0612,17.516],[56.0526,17.5532]]],[[[56.3478,25.2894],[56.276,25.3373],[56.244,25.3171],[56.2586,25.2965],[56.2234,25.2622],[56.2475,25.2406],[56.2843,25.2411],[56.3449,25.2744],[56.3478,25.2894]]],[[[56.394,25.9182],[56.4246,25.9471],[56.4271,26.0012],[56.3851,26.0368],[56.4382,26.0435],[56.4407,26.0718],[56.3474,26.1087],[56.3326,26.1649],[56.3851,26.201],[56.409,26.1863],[56.431,26.1307],[56.474,26.1521],[56.441,26.1674],[56.4535,26.2143],[56.4225,26.2469],[56.4007,26.2904],[56.4407,26.3271],[56.4285,26.3496],[56.3807,26.3743],[56.3515,26.3201],[56.3235,26.3021],[56.3754,26.2563],[56.3465,26.2526],[56.3187,26.2854],[56.3035,26.2304],[56.334,26.2046],[56.3647,26.2351],[56.389,26.2418],[56.4154,26.2104],[56.3513,26.2013],[56.344,26.1801],[56.2774,26.2149],[56.2539,26.2051],[56.2243,26.2162],[56.219,26.2538],[56.1871,26.2307],[56.169,26.1615],[56.1437,26.1493],[56.1113,26.1026],[56.086,26.0505],[56.1166,26.0506],[56.1531,26.0693],[56.1913,25.972],[56.168,25.9356],[56.1781,25.8924],[56.1416,25.8278],[56.1549,25.798],[56.1676,25.7258],[56.1557,25.6868],[56.1797,25.621],[56.2533,25.6023],[56.284,25.6818],[56.2757,25.7124],[56.3001,25.7429],[56.3329,25.7521],[56.3707,25.8074],[56.4101,25.8951],[56.394,25.9182]]],[[[58.9012,20.6963],[58.8746,20.6843],[58.8649,20.6171],[58.8182,20.5738],[58.7854,20.5193],[58.7746,20.4415],[58.7507,20.4221],[58.7157,20.4329],[58.6596,20.3793],[58.634,20.344],[58.6237,20.2676],[58.6368,20.1654],[58.7246,20.2146],[58.739,20.2457],[58.7832,20.2771],[58.7774,20.2985],[58.7979,20.3226],[58.799,20.3613],[58.8226,20.3954],[58.8265,20.4224],[58.8485,20.4451],[58.9471,20.4943],[58.9629,20.516],[58.9396,20.5379],[58.9388,20.5738],[58.9129,20.5882],[58.9015,20.6254],[58.9168,20.686],[58.9012,20.6963]]]]},"properties":{"GID_0":"OMN","ISO_A2":"OM","ISO_A3":"OMN","NAME_EN":"Oman","NAME_IT":"Oman"}}
]}