{"type":"FeatureCollection", "features": [
{"type":"Feature","geometry":{"type":"Polygon","coordinates":[[[28.3718,-30.1697],[28.3998,-30.1437],[28.4515,-30.1578],[28.4998,-30.151],[28.5469,-30.1231],[28.6662,-30.1408],[28.6903,-30.1241],[28.7498,-30.1065],[28.7912,-30.1094],[28.8564,-30.0897],[28.941,-30.0364],[28.9856,-30.0312],[29.0042,-30.005],[29.0674,-29.9721],[29.109,-29.937],[29.1697,-29.9158],[29.1388,-29.861],[29.1311,-29.7732],[29.1516,-29.7336],[29.1452,-29.7164],[29.1828,-29.6681],[29.235,-29.6397],[29.2823,-29.6427],[29.2924,-29.6163],[29.2852,-29.5845],[29.3056,-29.5543],[29.2933,-29.49],[29.3459,-29.4652],[29.3631,-29.4702],[29.4,-29.4451],[29.4195,-29.3968],[29.4489,-29.3684],[29.4556,-29.3412],[29.4209,-29.2601],[29.4083,-29.2123],[29.357,-29.202],[29.3446,-29.1875],[29.3494,-29.1187],[29.3078,-29.0766],[29.2548,-29.0895],[29.2119,-29.0461],[29.2153,-29.0261],[29.1517,-28.9878],[29.0711,-28.9185],[29.0413,-28.9151],[29.0291,-28.888],[28.9802,-28.9147],[28.951,-28.8492],[28.9438,-28.7827],[28.8881,-28.775],[28.8415,-28.7586],[28.809,-28.772],[28.8117,-28.7207],[28.7935,-28.699],[28.7047,-28.6714],[28.7036,-28.6181],[28.6519,-28.5733],[28.622,-28.5806],[28.5907,-28.6084],[28.5557,-28.6024],[28.506,-28.615],[28.4763,-28.6058],[28.4019,-28.6243],[28.3494,-28.6991],[28.2943,-28.7051],[28.167,-28.7055],[28.1001,-28.7685],[28.0749,-28.815],[28.0048,-28.8716],[27.9701,-28.8743],[27.9298,-28.8529],[27.8963,-28.9086],[27.8483,-28.9092],[27.8163,-28.9211],[27.7667,-28.917],[27.7296,-28.9466],[27.7136,-29.0101],[27.6824,-29.0066],[27.6749,-29.0651],[27.6142,-29.1642],[27.5514,-29.1962],[27.5247,-29.241],[27.5145,-29.2819],[27.4546,-29.2977],[27.4723,-29.3203],[27.4363,-29.3342],[27.4246,-29.4041],[27.3566,-29.4527],[27.3613,-29.4856],[27.3294,-29.4807],[27.3064,-29.4968],[27.3065,-29.5307],[27.2768,-29.5263],[27.2439,-29.5545],[27.2217,-29.5495],[27.185,-29.5659],[27.1542,-29.561],[27.1194,-29.5777],[27.0572,-29.6371],[27.0339,-29.6134],[27.0139,-29.6618],[27.0966,-29.7299],[27.2229,-29.9968],[27.2965,-30.0561],[27.3269,-30.1481],[27.4073,-30.1445],[27.3862,-30.1933],[27.3654,-30.218],[27.3669,-30.2738],[27.3934,-30.3036],[27.3937,-30.3396],[27.4536,-30.3136],[27.4758,-30.323],[27.4747,-30.3561],[27.5069,-30.3876],[27.5334,-30.3841],[27.5714,-30.4286],[27.6043,-30.4499],[27.6246,-30.507],[27.6934,-30.5448],[27.7411,-30.6031],[27.7817,-30.6173],[27.8812,-30.6137],[27.9155,-30.6013],[27.9405,-30.6441],[28.0037,-30.659],[28.0846,-30.654],[28.1232,-30.6634],[28.1131,-30.5999],[28.1512,-30.584],[28.157,-30.544],[28.1772,-30.5218],[28.1779,-30.4884],[28.1549,-30.4712],[28.1796,-30.4389],[28.2283,-30.4305],[28.2586,-30.4023],[28.2708,-30.3708],[28.2479,-30.3233],[28.2069,-30.2907],[28.2597,-30.2565],[28.3032,-30.2562],[28.3403,-30.2346],[28.3718,-30.1697]]]},"properties":{"GID_0":"LSO","ISO_A2":"LS","ISO_A3":"LSO","NAME_EN":"Lesotho","NAME_IT":"Lesotho"}}
]}