{"type":"FeatureCollection", "features": [
{"type":"Feature","geometry":{"type":"MultiPolygon","coordinates":[[[[167.572825,-47.2366],[167.57284,-47.23648],[167.603,-47.2284],[167.606,-47.2101],[167.6315,-47.2126],[167.6754,-47.1931],[167.6694,-47.1799],[167.705,-47.1584],[167.7271,-47.1832],[167.7617,-47.1759],[167.791,-47.1792],[167.8129,-47.192],[167.8266,-47.1915],[167.8465,-47.1787],[167.8658,-47.1813],[167.8981,-47.169],[167.9102,-47.1547],[167.9302,-47.1501],[167.9338,-47.1378],[167.9498,-47.1282],[167.961,-47.1396],[167.9818,-47.1345],[168.0022,-47.1196],[168.043,-47.1288],[168.0836,-47.1119],[168.1097,-47.1158],[168.1565,-47.1042],[168.1425,-47.092],[168.1725,-47.079],[168.2028,-47.0971],[168.2128,-47.0897],[168.1717,-47.0737],[168.1643,-47.0608],[168.1763,-47.0531],[168.2002,-47.0578],[168.2081,-47.039],[168.2029,-47.0082],[168.216,-46.9956],[168.1775,-46.9729],[168.174,-46.953],[168.1875,-46.9293],[168.1725,-46.9293],[168.168,-46.9735],[168.1442,-46.9713],[168.1417,-46.9843],[168.1251,-46.9927],[168.0749,-46.9913],[168.0934,-46.9736],[168.124,-46.9662],[168.1262,-46.9594],[168.0714,-46.955],[168.0601,-46.9488],[168.0227,-46.944],[168.0237,-46.934],[168.0052,-46.9242],[167.9639,-46.9539],[167.9418,-46.9592],[167.9114,-46.9756],[167.8864067590988,-46.982600173310225],[167.9148,-46.9717],[167.9502,-46.9383],[167.9738,-46.9338],[167.978,-46.9174],[167.9714,-46.9015],[167.95404,-46.89672],[167.9784,-46.8984],[168.0129,-46.8865],[168.0291,-46.8956],[168.0218,-46.9076],[168.0465,-46.9196],[168.0609,-46.9045],[168.1027,-46.9076],[168.1224,-46.9031],[168.1491,-46.8777],[168.1427,-46.8629],[168.1241,-46.8628],[168.1026,-46.8541],[168.0806,-46.8529],[168.082,-46.8381],[168.0717,-46.8246],[168.0393,-46.818],[168.0329,-46.8033],[168.0192,-46.8015],[168.0012,-46.7858],[168.0046,-46.7758],[167.9845,-46.7604],[167.9727,-46.7229],[167.9254,-46.7001],[167.9069,-46.7003],[167.8624,-46.6858],[167.855,-46.6971],[167.8356,-46.703],[167.808,-46.692],[167.7846,-46.688],[167.7546,-46.6947],[167.739,-46.7118],[167.7196,-46.7144],[167.7251,-46.7281],[167.719,-46.7427],[167.7039,-46.7545],[167.7171,-46.7789],[167.7002,-46.7956],[167.7257,-46.8145],[167.7389,-46.8431],[167.7509,-46.8483],[167.7662,-46.8863],[167.7685,-46.9044],[167.759,-46.9374],[167.7216,-46.9626],[167.679,-46.9647],[167.6919,-47.0012],[167.6865,-47.0145],[167.7104,-47.0368],[167.7061,-47.049],[167.6498,-47.0365],[167.6349,-47.0385],[167.6004,-47.0582],[167.5983,-47.0698],[167.5793,-47.0853],[167.5594,-47.0913],[167.5786,-47.1099],[167.5732,-47.1289],[167.5756,-47.1541],[167.5675,-47.1771],[167.5446,-47.1767],[167.5282,-47.1934],[167.4938,-47.2028],[167.4666,-47.2163],[167.4601,-47.2551],[167.4485,-47.2582],[167.4553,-47.2767],[167.4661,-47.2829],[167.4856,-47.2704],[167.501,-47.2843],[167.5354,-47.2871],[167.5595,-47.2774],[167.5957,-47.2478],[167.6123,-47.2655],[167.6459,-47.2638],[167.6598,-47.2305],[167.6511,-47.2214],[167.616,-47.2388],[167.572825,-47.2366]]],[[[174.7868,-41.2647],[174.8436,-41.2292],[174.8576,-41.2248],[174.8857,-41.2308],[174.901,-41.2418],[174.912,-41.2598],[174.9063,-41.2819],[174.8712,-41.3253],[174.8589,-41.3368],[174.8479,-41.3594],[174.8746,-41.384],[174.8685,-41.4096],[174.9014,-41.418],[174.9193,-41.4367],[174.9569,-41.4128],[174.9827,-41.4026],[174.9934,-41.3908],[175.0147,-41.3898],[175.0455,-41.3733],[175.1207,-41.3893],[175.1983,-41.4198],[175.2165,-41.4312],[175.2213,-41.453],[175.2077,-41.4749],[175.2086,-41.4999],[175.1949,-41.5267],[175.2175,-41.5402],[175.2222,-41.5708],[175.2419,-41.6034],[175.2557,-41.6029],[175.2909,-41.6135],[175.3248,-41.6064],[175.3491,-41.5922],[175.3661,-41.5716],[175.4075,-41.5659],[175.4415,-41.5663],[175.4648,-41.5519],[175.4799,-41.5367],[175.4976,-41.5279],[175.5075,-41.5106],[175.544,-41.4975],[175.5852,-41.4874],[175.6132,-41.4621],[175.6343,-41.4533],[175.6744,-41.4143],[175.7102,-41.4054],[175.7234,-41.3954],[175.7443,-41.3913],[175.767,-41.3788],[175.7704,-41.3702],[175.8108,-41.3605],[175.8484,-41.3246],[175.8629,-41.317],[175.8689,-41.2872],[175.8827,-41.2742],[175.9145,-41.2565],[175.9629,-41.2448],[175.9718,-41.2272],[175.9924,-41.2018],[175.9947,-41.1824],[176.0179,-41.1589],[176.0632,-41.13],[176.0767,-41.0839],[176.1045,-41.0383],[176.1069,-41.0153],[176.1285,-40.9983],[176.1333,-40.9781],[176.1459,-40.9572],[176.2071,-40.9126],[176.2196,-40.8961],[176.2249,-40.8715],[176.2405,-40.8603],[176.2574,-40.824],[176.2583,-40.806],[176.2672,-40.7849],[176.2887,-40.7618],[176.2879,-40.7485],[176.303,-40.7328],[176.3098,-40.7163],[176.3426,-40.6919],[176.354,-40.6779],[176.3763,-40.6681],[176.3778,-40.6553],[176.3988,-40.6295],[176.4151,-40.6223],[176.4221,-40.6046],[176.4519,-40.5876],[176.4703,-40.5712],[176.4792,-40.5442],[176.4931,-40.5307],[176.5595,-40.496],[176.6227,-40.4904],[176.633,-40.4529],[176.623,-40.4435],[176.6227,-40.4274],[176.6355,-40.4078],[176.6361,-40.3888],[176.6499,-40.3667],[176.6529,-40.3519],[176.6729,-40.3221],[176.6669,-40.3011],[176.686,-40.2703],[176.687,-40.2564],[176.7238,-40.2347],[176.7677,-40.2181],[176.787,-40.2183],[176.7945,-40.2053],[176.8226,-40.1833],[176.8274,-40.1681],[176.8453,-40.1547],[176.8457,-40.143],[176.8694,-40.1309],[176.8705,-40.0984],[176.8947,-40.0773],[176.8809,-40.065],[176.8793,-40.0498],[176.8882,-40.0255],[176.9042,-40.0028],[176.9077,-39.9821],[176.9271,-39.9585],[176.9321,-39.9353],[176.9499,-39.9214],[176.9629,-39.9039],[176.9668,-39.882],[177.0051,-39.8359],[176.9935,-39.8107],[176.998,-39.7861],[177.0148,-39.7322],[177.0399,-39.7006],[177.0755,-39.6733],[177.0929,-39.6449],[177.0764,-39.6355],[177.0633,-39.6432],[177.0318,-39.6498],[176.9791,-39.6318],[176.9533,-39.6093],[176.9232,-39.5535],[176.9191,-39.5141],[176.9209,-39.4861],[176.9103,-39.4776],[176.8893,-39.48],[176.8769,-39.4661],[176.8724,-39.4433],[176.8775,-39.4188],[176.9,-39.3667],[176.92,-39.3393],[176.9408,-39.3359],[176.9587,-39.3151],[176.9894,-39.2941],[176.9974,-39.2784],[177.0187,-39.261],[177.0218,-39.246],[177.036,-39.2322],[177.0389,-39.2026],[177.0461,-39.1939],[177.088,-39.1683],[177.143,-39.1427],[177.2592,-39.1007],[177.3325,-39.0812],[177.4186,-39.063],[177.4734,-39.0564],[177.5626,-39.0546],[177.6368,-39.0504],[177.71,-39.0534],[177.756,-39.0587],[177.8275,-39.0709],[177.8339,-39.0597],[177.8593,-39.0656],[177.8718,-39.0787],[177.8675,-39.0984],[177.8392,-39.1524],[177.8255,-39.1632],[177.8434,-39.1849],[177.8512,-39.2098],[177.852,-39.2298],[177.8634,-39.2462],[177.877,-39.251],[177.9062,-39.2263],[177.9246,-39.1878],[177.9252,-39.169],[177.9456,-39.1546],[177.9544,-39.1381],[177.997,-39.1163],[178.0017,-39.1049],[177.9588,-39.0886],[177.9445,-39.0955],[177.9142,-39.0848],[177.9018,-39.073],[177.8871,-39.0317],[177.9043,-38.9485],[177.9097,-38.9052],[177.9028,-38.8905],[177.9205,-38.8669],[177.9109,-38.8499],[177.9118,-38.8279],[177.9292,-38.7871],[177.9391,-38.7834],[177.9511,-38.7636],[177.9399,-38.7455],[177.9368,-38.7171],[177.9677,-38.6843],[178.0054,-38.6708],[178.0201,-38.672],[178.0381,-38.6852],[178.0499,-38.7014],[178.0689,-38.7016],[178.0805,-38.6783],[178.1051,-38.6662],[178.1245,-38.6507],[178.1425,-38.6537],[178.1588,-38.629],[178.1724,-38.629],[178.1855,-38.6082],[178.1992,-38.6052],[178.1998,-38.5921],[178.2484,-38.5523],[178.2811,-38.5401],[178.2931,-38.5224],[178.2831,-38.5109],[178.2867,-38.4929],[178.2799,-38.475],[178.2884,-38.4692],[178.3006,-38.4446],[178.3196,-38.4284],[178.3468,-38.4158],[178.3365,-38.4051],[178.3367,-38.3777],[178.3176,-38.3825],[178.3057,-38.3627],[178.3297,-38.3524],[178.3231,-38.316],[178.3334,-38.298],[178.353,-38.2966],[178.3301,-38.2734],[178.3331,-38.26],[178.3108,-38.239],[178.3121,-38.2283],[178.3328,-38.2157],[178.3384,-38.1916],[178.3597,-38.1788],[178.3234,-38.1507],[178.318,-38.1301],[178.3273,-38.1182],[178.3594,-38.1099],[178.3739,-38.0936],[178.3727,-38.0721],[178.3616,-38.0686],[178.3682,-38.052],[178.3368,-38.0372],[178.3372,-38.0093],[178.3523,-37.9897],[178.3685,-37.9853],[178.378,-37.9658],[178.387,-37.9647],[178.3993,-37.9409],[178.3886,-37.9185],[178.4009,-37.9036],[178.4056,-37.8743],[178.4137,-37.8594],[178.4517,-37.8332],[178.4458,-37.8234],[178.4789,-37.7746],[178.5239,-37.7336],[178.524,-37.7207],[178.544,-37.7024],[178.5497,-37.6873],[178.5385,-37.6735],[178.5189,-37.6705],[178.49,-37.6512],[178.4807,-37.6401],[178.4496,-37.6409],[178.4179,-37.6297],[178.3907,-37.6285],[178.3716,-37.633],[178.3408,-37.6217],[178.3186,-37.6021],[178.3014,-37.5962],[178.2939,-37.57],[178.3155,-37.5671],[178.3145,-37.5561],[178.2164,-37.5469],[178.2094,-37.5352],[178.1755,-37.5342],[178.1596,-37.5504],[178.111,-37.5486],[178.0868,-37.5422],[178.0495,-37.5416],[178.0081,-37.5533],[177.9835,-37.5364],[177.9808,-37.5541],[177.9923,-37.5739],[177.9654,-37.5943],[177.9541,-37.6154],[177.9195,-37.6203],[177.8952,-37.6122],[177.8856,-37.6357],[177.87,-37.6525],[177.8394,-37.6639],[177.8157,-37.6582],[177.801,-37.6731],[177.7276,-37.6802],[177.7179,-37.7095],[177.7079,-37.7224],[177.6742,-37.7355],[177.6842,-37.7605],[177.6526,-37.7859],[177.6507,-37.8054],[177.6153,-37.8151],[177.6065,-37.8381],[177.5891,-37.8395],[177.586,-37.8642],[177.5544,-37.8833],[177.5482,-37.906],[177.5301,-37.9203],[177.4859,-37.9351],[177.4875,-37.9496],[177.4187,-37.9769],[177.3827,-37.9837],[177.3388,-37.9883],[177.2641,-37.9924],[177.2067,-37.9919],[177.1574,-37.9866],[177.1591,-38.0101],[177.1425,-38.0085],[177.1305,-38.0327],[177.1092,-38.0018],[177.0926,-38.0045],[177.069,-37.9968],[177.0701,-37.9817],[177.0584,-37.971],[177.0233,-37.9565],[177.0014,-37.9427],[176.9317,-37.9169],[176.8801,-37.9088],[176.8186,-37.8936],[176.753,-37.8841],[176.6625,-37.8547],[176.6021,-37.8296],[176.5707,-37.8134],[176.5074,-37.7765],[176.4791,-37.7774],[176.4693,-37.7687],[176.4774,-37.7536],[176.4626,-37.751],[176.4312,-37.7625],[176.4178,-37.7493],[176.3485,-37.7177],[176.2913,-37.6982],[176.2503,-37.6802],[176.2083,-37.6537],[176.1815,-37.6399],[176.1796,-37.6686],[176.2047,-37.6882],[176.1812,-37.6917],[176.1917,-37.7054],[176.2127,-37.6958],[176.2372,-37.6965],[176.2257,-37.715],[176.2083,-37.7118],[176.1908,-37.7251],[176.1651,-37.7157],[176.1706,-37.6886],[176.1642,-37.6711],[176.1245,-37.6598],[176.1021,-37.6773],[176.093,-37.6632],[176.0638,-37.657],[176.046,-37.676],[176.0374,-37.656],[176.0368,-37.6382],[176.0164,-37.6391],[175.987,-37.6271],[175.9651,-37.6285],[175.9789,-37.6068],[175.9576,-37.6066],[175.9789,-37.5863],[175.9453,-37.5828],[175.9225,-37.5757],[175.9533,-37.554],[175.9348,-37.5368],[175.9596,-37.5198],[175.9781,-37.5146],[175.9675,-37.4957],[175.9476,-37.4967],[175.936,-37.4774],[175.9383,-37.4654],[175.9676,-37.4457],[175.9385,-37.3941],[175.9373,-37.3623],[175.9433,-37.3452],[175.924,-37.3208],[175.9133,-37.292],[175.9031,-37.2831],[175.8915,-37.2528],[175.8785,-37.1995],[175.8928,-37.1956],[175.8819,-37.1742],[175.886,-37.1375],[175.8785,-37.1054],[175.891,-37.0652],[175.8883,-37.0394],[175.8734,-37.0281],[175.8559,-36.9884],[175.8555,-36.9764],[175.8432,-36.9645],[175.8422,-36.9475],[175.8573,-36.9417],[175.856,-36.9229],[175.8374,-36.9065],[175.8354,-36.8916],[175.8243,-36.8885],[175.8165,-36.8723],[175.8204,-36.8573],[175.8148,-36.8429],[175.7849,-36.8234],[175.7642,-36.8209],[175.7545,-36.8428],[175.7325,-36.8315],[175.7181,-36.8312],[175.697,-36.8636],[175.7096,-36.8786],[175.7023,-36.8929],[175.6743,-36.8814],[175.6666,-36.8719],[175.685,-36.8617],[175.6733,-36.8539],[175.6733,-36.835],[175.6917,-36.8452],[175.7086,-36.8326],[175.7016,-36.8071],[175.7248,-36.8061],[175.7298,-36.7912],[175.7476,-36.7906],[175.7493,-36.765],[175.7914,-36.7412],[175.8271,-36.7396],[175.8227,-36.7243],[175.7928,-36.7121],[175.7884,-36.6947],[175.7623,-36.7081],[175.7402,-36.7065],[175.7269,-36.7216],[175.6787,-36.7298],[175.6435,-36.7252],[175.6467,-36.7364],[175.625,-36.7526],[175.6072,-36.7572],[175.6149,-36.7253],[175.6081,-36.688],[175.5783,-36.6802],[175.5597,-36.687],[175.5575,-36.6678],[175.5768,-36.6712],[175.5711,-36.6453],[175.5836,-36.6275],[175.5602,-36.5982],[175.5281,-36.6002],[175.5285,-36.5815],[175.5197,-36.555],[175.5332,-36.5482],[175.5104,-36.532],[175.4945,-36.5109],[175.4696,-36.51],[175.4652,-36.5263],[175.4371,-36.5033],[175.4131,-36.4899],[175.4121,-36.471],[175.3933,-36.4742],[175.3641,-36.4716],[175.3262,-36.49],[175.3303,-36.4957],[175.3281,-36.5258],[175.3453,-36.5538],[175.3643,-36.5652],[175.4055,-36.5803],[175.4278,-36.6064],[175.4422,-36.6086],[175.4722,-36.6224],[175.4544,-36.6296],[175.4375,-36.6264],[175.4471,-36.6604],[175.432,-36.6874],[175.4305,-36.7168],[175.4429,-36.7302],[175.4563,-36.7243],[175.4729,-36.7367],[175.4754,-36.7501],[175.4951,-36.7608],[175.4967,-36.7806],[175.5056,-36.794],[175.4903,-36.8083],[175.4539,-36.8079],[175.4314,-36.8153],[175.4316,-36.824],[175.4555,-36.8234],[175.439,-36.8403],[175.4357,-36.8544],[175.4197,-36.8494],[175.4123,-36.8596],[175.4359,-36.9085],[175.4673,-36.9366],[175.4905,-36.9616],[175.5093,-37.0032],[175.5197,-37.0341],[175.5245,-37.0613],[175.5153,-37.0842],[175.5185,-37.1138],[175.5312,-37.124],[175.5451,-37.1586],[175.5245,-37.1712],[175.5014,-37.1945],[175.4871,-37.1965],[175.4402,-37.2179],[175.4033,-37.222],[175.3692,-37.218],[175.3438,-37.2095],[175.3286,-37.1976],[175.3226,-37.1772],[175.3015,-37.1391],[175.2949,-37.1208],[175.3057,-37.0899],[175.2974,-37.0783],[175.3033,-37.0538],[175.2838,-37.0011],[175.2832,-36.9884],[175.269,-36.9831],[175.2337,-36.9561],[175.1933,-36.9337],[175.1761,-36.938],[175.1589,-36.951],[175.1376,-36.9324],[175.1163,-36.9386],[175.1121,-36.9497],[175.0866,-36.9369],[175.0806,-36.911],[175.064,-36.9008],[175.0559,-36.8826],[175.0381,-36.8743],[174.9995,-36.8765],[174.9866,-36.8992],[174.9632,-36.9136],[174.9502,-36.8943],[174.9153,-36.8745],[174.8966,-36.8799],[174.8696,-36.908],[174.8681,-36.8878],[174.8855,-36.8696],[174.8754,-36.8465],[174.8477,-36.8507],[174.8242,-36.8436],[174.8006,-36.8531],[174.788,-36.8416],[174.752,-36.8438],[174.7317,-36.841],[174.6963,-36.869],[174.6738,-36.8697],[174.6566,-36.8629],[174.6603,-36.8307],[174.6457,-36.8179],[174.6472,-36.804],[174.6669,-36.8073],[174.6736,-36.789],[174.6534,-36.7909],[174.6384,-36.7747],[174.6598,-36.7705],[174.6798,-36.7859],[174.697,-36.8231],[174.71,-36.8263],[174.7469,-36.8206],[174.7687,-36.8],[174.7863,-36.8141],[174.7807,-36.8267],[174.7961,-36.8331],[174.8074,-36.8149],[174.7753,-36.7879],[174.776,-36.7737],[174.7664,-36.7643],[174.7655,-36.7484],[174.7512,-36.7211],[174.7526,-36.6889],[174.7409,-36.648],[174.7595,-36.6417],[174.7703,-36.6268],[174.807,-36.6212],[174.8408,-36.6018],[174.827,-36.5926],[174.8136,-36.6013],[174.7746,-36.6066],[174.7584,-36.6283],[174.735,-36.623],[174.7148,-36.6103],[174.7009,-36.5951],[174.6913,-36.5739],[174.708,-36.5473],[174.7236,-36.5136],[174.7186,-36.4957],[174.691,-36.4798],[174.6953,-36.4647],[174.7106,-36.452],[174.705,-36.4352],[174.7244,-36.4352],[174.7437,-36.4604],[174.7496,-36.4826],[174.7668,-36.4455],[174.7497,-36.4374],[174.7296,-36.4109],[174.7376,-36.3989],[174.7169,-36.3884],[174.7294,-36.3788],[174.7429,-36.3973],[174.7652,-36.3867],[174.8045,-36.3831],[174.8388,-36.3695],[174.8197,-36.3617],[174.8045,-36.3486],[174.7662,-36.3557],[174.7599,-36.3435],[174.7591,-36.3133],[174.8001,-36.3206],[174.7946,-36.3034],[174.822,-36.2774],[174.7989,-36.2687],[174.7791,-36.2699],[174.7686,-36.2611],[174.7471,-36.2577],[174.7104,-36.2298],[174.6577,-36.1779],[174.6465,-36.1586],[174.6016,-36.0942],[174.5897,-36.0481],[174.5556,-36.0453],[174.5397,-36.0486],[174.5086,-36.0295],[174.4949,-36.0127],[174.4717,-35.9712],[174.4642,-35.9496],[174.4601,-35.9142],[174.4673,-35.883],[174.4795,-35.8611],[174.4995,-35.8437],[174.4834,-35.8315],[174.4734,-35.8393],[174.4543,-35.8182],[174.4431,-35.8275],[174.4048,-35.831],[174.3854,-35.8194],[174.3604,-35.8224],[174.3358,-35.8406],[174.3292,-35.8311],[174.3352,-35.8172],[174.3277,-35.7804],[174.3144,-35.7744],[174.3225,-35.7613],[174.3512,-35.7584],[174.3638,-35.7764],[174.3778,-35.757],[174.4044,-35.7786],[174.4302,-35.7813],[174.457,-35.7697],[174.4688,-35.7693],[174.4677,-35.7907],[174.498,-35.7976],[174.5083,-35.8274],[174.5295,-35.829],[174.5343,-35.8553],[174.5565,-35.861],[174.5758,-35.8595],[174.5863,-35.8498],[174.5618,-35.8204],[174.5501,-35.7877],[174.5566,-35.777],[174.5513,-35.7484],[174.5587,-35.7189],[174.5365,-35.7259],[174.5156,-35.7],[174.5074,-35.6636],[174.5125,-35.656],[174.4974,-35.6431],[174.5141,-35.6271],[174.5241,-35.6355],[174.5418,-35.6353],[174.5281,-35.6086],[174.5428,-35.5989],[174.5335,-35.5805],[174.4776,-35.5579],[174.4526,-35.5152],[174.4668,-35.5078],[174.4476,-35.4659],[174.428,-35.4557],[174.4229,-35.4361],[174.4087,-35.4435],[174.3898,-35.4333],[174.3635,-35.4368],[174.3631,-35.423],[174.3441,-35.3894],[174.3404,-35.3663],[174.3266,-35.3478],[174.3025,-35.3295],[174.3057,-35.3223],[174.3411,-35.35],[174.3604,-35.3553],[174.3572,-35.373],[174.3803,-35.3635],[174.3728,-35.3478],[174.352,-35.3436],[174.3517,-35.332],[174.3367,-35.3253],[174.309,-35.3048],[174.3131,-35.2997],[174.2898,-35.2752],[174.2966,-35.2556],[174.2928,-35.2358],[174.3185,-35.1949],[174.3405,-35.1909],[174.33,-35.178],[174.2985,-35.1839],[174.305,-35.1997],[174.2899,-35.2067],[174.2887,-35.2174],[174.2604,-35.2358],[174.2644,-35.2575],[174.2305,-35.2599],[174.2093,-35.2741],[174.183,-35.2665],[174.1741,-35.2775],[174.1119,-35.2502],[174.1302,-35.2685],[174.1185,-35.3053],[174.1405,-35.3084],[174.173,-35.2973],[174.1965,-35.3069],[174.2297,-35.3359],[174.2159,-35.3392],[174.2095,-35.3217],[174.1518,-35.3144],[174.1492,-35.3231],[174.1161,-35.3302],[174.1166,-35.3093],[174.1023,-35.3011],[174.1006,-35.2888],[174.0714,-35.2657],[174.0764,-35.238],[174.058,-35.2286],[174.0648,-35.2144],[174.0506,-35.2091],[174.0009,-35.2073],[174.0108,-35.1739],[173.9824,-35.1548],[173.9883,-35.1462],[174.0077,-35.1403],[174.0278,-35.1529],[174.0435,-35.1542],[174.0707,-35.1815],[174.0954,-35.1691],[174.1216,-35.1642],[174.0976,-35.1509],[174.0989,-35.1439],[174.0799,-35.1168],[174.0351,-35.1161],[174.0124,-35.1221],[173.9958,-35.116],[173.9791,-35.1218],[173.9633,-35.1189],[173.945,-35.1037],[173.9273,-35.0664],[173.9332,-35.0484],[173.914,-35.0389],[173.9165,-35.0285],[173.8998,-35.0207],[173.8597,-35.0193],[173.8536,-35.004],[173.8405,-34.994],[173.8286,-35.0019],[173.8144,-34.9916],[173.8022,-35.0007],[173.7775,-35.0082],[173.7653,-35.0456],[173.7481,-35.0375],[173.739,-35.0843],[173.7203,-35.0845],[173.7193,-35.07],[173.7032,-35.0549],[173.7152,-35.0409],[173.7417,-35.0351],[173.7489,-35.0135],[173.7245,-35.0071],[173.7097,-34.9896],[173.7054,-34.9548],[173.6818,-34.9479],[173.679,-34.9582],[173.6413,-34.9643],[173.6401,-34.9542],[173.6204,-34.952],[173.5967,-34.9338],[173.5728,-34.9444],[173.571,-34.9304],[173.5382,-34.9357],[173.5269,-34.9451],[173.5303,-34.9645],[173.5469,-34.9745],[173.5622,-34.9862],[173.5429,-35.0058],[173.537,-34.9894],[173.4848,-34.991],[173.4553,-34.9851],[173.4345,-34.9859],[173.3984,-34.9621],[173.3777,-34.9337],[173.3705,-34.9061],[173.373,-34.8816],[173.3841,-34.8769],[173.4136,-34.8809],[173.4347,-34.8633],[173.4623,-34.8601],[173.4579,-34.8446],[173.4406,-34.8356],[173.4175,-34.8351],[173.4142,-34.8193],[173.3948,-34.7916],[173.386,-34.8123],[173.3927,-34.8305],[173.3677,-34.8485],[173.3244,-34.8611],[173.2992,-34.8626],[173.287,-34.8697],[173.3015,-34.8975],[173.3236,-34.915],[173.3392,-34.9536],[173.3234,-34.9953],[173.2935,-35.0089],[173.2424,-35.0021],[173.2338,-35.0132],[173.2186,-34.983],[173.2149,-34.9605],[173.2348,-34.9462],[173.2347,-34.9352],[173.2685,-34.9217],[173.2797,-34.9058],[173.2808,-34.8925],[173.2623,-34.8819],[173.2298,-34.8802],[173.2039,-34.8729],[173.1752,-34.8569],[173.1601,-34.8443],[173.1549,-34.8275],[173.1372,-34.8266],[173.1206,-34.8172],[173.1192,-34.8049],[173.1057,-34.7919],[173.0893,-34.762],[173.1254,-34.7771],[173.1364,-34.8001],[173.1561,-34.8231],[173.1658,-34.791],[173.1514,-34.788],[173.141,-34.7685],[173.1173,-34.7449],[173.1163,-34.737],[173.0775,-34.7182],[173.0589,-34.7028],[173.0251,-34.6535],[173.0042,-34.6014],[172.9941,-34.5609],[172.991,-34.5352],[172.9852,-34.528],[172.9638,-34.5256],[172.9572,-34.533],[172.9624,-34.5491],[172.9887,-34.5721],[172.9878,-34.5982],[172.9685,-34.6205],[172.9584,-34.5752],[172.9733,-34.5711],[172.9524,-34.5539],[172.9384,-34.5743],[172.917,-34.5779],[172.9216,-34.5552],[172.9317,-34.546],[172.8972,-34.5429],[172.8888,-34.5382],[172.923,-34.512],[172.9081,-34.5048],[172.9291,-34.4932],[172.9373,-34.5058],[172.9625,-34.4945],[172.9767,-34.4985],[172.9742,-34.518],[172.9993,-34.5156],[173.0044,-34.4488],[173.0151,-34.4234],[173.0458,-34.4111],[173.0305,-34.3973],[173.0132,-34.3926],[172.9936,-34.4028],[172.9929,-34.4156],[172.9644,-34.4264],[172.9345,-34.4276],[172.9309,-34.4205],[172.8991,-34.4154],[172.8692,-34.4145],[172.8374,-34.4436],[172.8145,-34.4518],[172.7798,-34.452],[172.7639,-34.4429],[172.6788,-34.4239],[172.6728,-34.4601],[172.6575,-34.467],[172.6687,-34.4845],[172.6903,-34.4906],[172.7022,-34.5041],[172.7038,-34.5235],[172.7379,-34.5334],[172.798,-34.5815],[172.8498,-34.6283],[172.8867,-34.6683],[172.8983,-34.6856],[172.9413,-34.7313],[173.0834,-34.8953],[173.1359,-34.9689],[173.1611,-35.0191],[173.1686,-35.0392],[173.1758,-35.0765],[173.1744,-35.1127],[173.1692,-35.1357],[173.1435,-35.1717],[173.1212,-35.1792],[173.0706,-35.1642],[173.0616,-35.1707],[173.0543,-35.1914],[173.0922,-35.2215],[173.1629,-35.2925],[173.1564,-35.3006],[173.1738,-35.3256],[173.1878,-35.3336],[173.1985,-35.3544],[173.2225,-35.3759],[173.2248,-35.3624],[173.2329,-35.3552],[173.2232,-35.3362],[173.2479,-35.3283],[173.2537,-35.3418],[173.2699,-35.3311],[173.2753,-35.3381],[173.2271,-35.3631],[173.2267,-35.3782],[173.2398,-35.3998],[173.2644,-35.4191],[173.2785,-35.4369],[173.354,-35.521],[173.3738,-35.5151],[173.3697,-35.4963],[173.3868,-35.4862],[173.3739,-35.4736],[173.3759,-35.4422],[173.3968,-35.4277],[173.399,-35.4103],[173.4102,-35.3957],[173.4262,-35.3946],[173.4536,-35.4024],[173.4789,-35.3932],[173.4865,-35.3778],[173.5089,-35.3722],[173.519,-35.384],[173.5397,-35.3749],[173.554,-35.3405],[173.5754,-35.342],[173.6059,-35.3225],[173.6135,-35.344],[173.5847,-35.3601],[173.5682,-35.3529],[173.5562,-35.3591],[173.5594,-35.3751],[173.5491,-35.3849],[173.531,-35.3873],[173.5312,-35.4012],[173.4908,-35.4178],[173.4686,-35.4036],[173.4379,-35.4165],[173.4272,-35.425],[173.425,-35.4493],[173.4013,-35.5015],[173.3913,-35.5039],[173.3862,-35.5353],[173.3714,-35.5361],[173.3651,-35.5472],[173.3753,-35.5623],[173.3897,-35.5709],[173.4189,-35.6001],[173.4407,-35.6284],[173.44,-35.6388],[173.4598,-35.6513],[173.547,-35.7419],[173.5562,-35.7613],[173.5732,-35.77],[173.6639,-35.8665],[173.7466,-35.9577],[173.8507,-36.0735],[173.8764,-36.1055],[173.9201,-36.1547],[173.9507,-36.1953],[173.9568,-36.198],[173.9895,-36.2427],[174.0136,-36.2949],[174.0351,-36.3577],[174.0319,-36.3823],[174.0421,-36.3933],[174.0643,-36.3963],[174.1107,-36.3953],[174.1422,-36.3899],[174.1646,-36.379],[174.1813,-36.3647],[174.1809,-36.3359],[174.1691,-36.3149],[174.1589,-36.3074],[174.1554,-36.2761],[174.1327,-36.2606],[174.1034,-36.256],[174.0955,-36.2364],[174.0783,-36.216],[174.0685,-36.2129],[174.0616,-36.1961],[174.039,-36.1903],[174.0208,-36.1623],[173.9845,-36.1317],[173.99,-36.1235],[174.0213,-36.1372],[174.0458,-36.1701],[174.0612,-36.1701],[174.0843,-36.1603],[174.1076,-36.1603],[174.1288,-36.1736],[174.1503,-36.2085],[174.1878,-36.2368],[174.1983,-36.2324],[174.2146,-36.2587],[174.2273,-36.2635],[174.25,-36.259],[174.2735,-36.2339],[174.2611,-36.2006],[174.2461,-36.2003],[174.2256,-36.2055],[174.2187,-36.1761],[174.2213,-36.1661],[174.199,-36.1508],[174.206,-36.1371],[174.2232,-36.1299],[174.2389,-36.1381],[174.2358,-36.1712],[174.2419,-36.1788],[174.269,-36.1772],[174.277,-36.1937],[174.3145,-36.2259],[174.3344,-36.2106],[174.3451,-36.2241],[174.3224,-36.234],[174.3346,-36.2581],[174.3156,-36.2594],[174.3075,-36.2437],[174.2912,-36.2484],[174.2707,-36.262],[174.2752,-36.2856],[174.2959,-36.2892],[174.3127,-36.3136],[174.3392,-36.3169],[174.3547,-36.2943],[174.3737,-36.2756],[174.3977,-36.2881],[174.4158,-36.2725],[174.4287,-36.29],[174.3941,-36.3018],[174.3604,-36.3239],[174.32,-36.3257],[174.2988,-36.309],[174.2811,-36.3055],[174.2663,-36.3112],[174.2576,-36.3258],[174.2574,-36.3808],[174.2745,-36.3912],[174.3103,-36.3893],[174.3122,-36.3743],[174.3329,-36.3874],[174.3571,-36.4113],[174.368,-36.3995],[174.3816,-36.406],[174.3896,-36.3803],[174.4151,-36.3749],[174.3881,-36.3463],[174.3951,-36.3373],[174.4153,-36.3556],[174.4241,-36.3731],[174.4177,-36.3816],[174.3942,-36.389],[174.4136,-36.4028],[174.4297,-36.4314],[174.4104,-36.4507],[174.4096,-36.486],[174.4211,-36.4956],[174.4271,-36.5125],[174.4229,-36.5356],[174.4318,-36.5388],[174.4442,-36.5596],[174.4254,-36.5607],[174.4139,-36.577],[174.4445,-36.5947],[174.4327,-36.6274],[174.4175,-36.6188],[174.3894,-36.617],[174.3733,-36.6298],[174.3492,-36.6206],[174.3588,-36.6075],[174.3612,-36.5838],[174.3782,-36.5746],[174.3774,-36.565],[174.3554,-36.5524],[174.3536,-36.5451],[174.2997,-36.5288],[174.2929,-36.5036],[174.2787,-36.4902],[174.2592,-36.4544],[174.2307,-36.4277],[174.2058,-36.4431],[174.1821,-36.4423],[174.1622,-36.464],[174.168,-36.4935],[174.2712,-36.6079],[174.3506,-36.7147],[174.3842,-36.7619],[174.4247,-36.825],[174.4322,-36.8468],[174.4282,-36.8553],[174.4492,-36.9042],[174.4475,-36.9164],[174.4686,-36.9537],[174.4767,-37.0024],[174.4767,-37.0307],[174.4835,-37.0486],[174.5034,-37.0508],[174.5248,-37.0337],[174.5572,-37.0216],[174.5649,-37.0059],[174.6056,-37.0131],[174.6046,-36.9922],[174.65,-36.9648],[174.6694,-36.9406],[174.6815,-36.9338],[174.7434,-36.9338],[174.7719,-36.9242],[174.7889,-36.9313],[174.8291,-36.9309],[174.8308,-36.9418],[174.7997,-36.9475],[174.7915,-36.9398],[174.7644,-36.9392],[174.7434,-36.9699],[174.7444,-36.9982],[174.7731,-37.0133],[174.8239,-37.0113],[174.8443,-37.0296],[174.8576,-37.0511],[174.8877,-37.0556],[174.9076,-37.0427],[174.9002,-37.0848],[174.9199,-37.0867],[174.9208,-37.1089],[174.9141,-37.1034],[174.9095,-37.0864],[174.897,-37.0856],[174.9014,-37.0737],[174.8969,-37.061],[174.876,-37.0733],[174.8699,-37.0631],[174.8507,-37.0568],[174.8363,-37.0753],[174.81,-37.0851],[174.797,-37.0962],[174.7748,-37.089],[174.7555,-37.1133],[174.7395,-37.1264],[174.7023,-37.1339],[174.7142,-37.1526],[174.72,-37.2034],[174.7332,-37.2342],[174.7211,-37.2378],[174.6975,-37.1944],[174.7,-37.1825],[174.6886,-37.1712],[174.6991,-37.1513],[174.6579,-37.1365],[174.6703,-37.1275],[174.6565,-37.093],[174.6483,-37.0853],[174.6665,-37.0597],[174.6556,-37.0423],[174.6024,-37.0487],[174.5638,-37.0427],[174.5359,-37.0544],[174.5415,-37.0835],[174.5721,-37.1318],[174.655,-37.2827],[174.6916,-37.3572],[174.7093,-37.3663],[174.7197,-37.3795],[174.7402,-37.3727],[174.7459,-37.3591],[174.7407,-37.3418],[174.7754,-37.345],[174.741,-37.3857],[174.7289,-37.3896],[174.706,-37.3811],[174.7029,-37.4028],[174.705,-37.4379],[174.7296,-37.4778],[174.7687,-37.5609],[174.7737,-37.6006],[174.796,-37.6452],[174.8124,-37.6855],[174.8117,-37.6971],[174.8213,-37.7222],[174.8201,-37.7353],[174.8307,-37.7568],[174.8384,-37.7963],[174.8548,-37.7982],[174.8738,-37.7835],[174.9014,-37.7749],[174.9196,-37.7534],[174.9525,-37.7531],[174.9511,-37.7793],[174.9377,-37.7937],[174.9152,-37.8036],[174.8994,-37.8048],[174.8798,-37.7943],[174.8615,-37.8071],[174.8437,-37.8039],[174.8251,-37.8217],[174.7932,-37.8233],[174.7667,-37.8421],[174.7573,-37.8652],[174.7846,-37.9433],[174.7801,-37.9773],[174.7881,-37.9846],[174.7921,-38.0073],[174.8171,-37.9957],[174.821,-37.9847],[174.8143,-37.9646],[174.8464,-37.9471],[174.8752,-37.9528],[174.8672,-37.9841],[174.8517,-38.0024],[174.8529,-38.0122],[174.8378,-38.0207],[174.8207,-38.0063],[174.7982,-38.019],[174.7858,-38.0325],[174.7782,-38.0826],[174.8111,-38.0791],[174.8299,-38.0546],[174.8409,-38.0584],[174.8743,-38.0486],[174.8902,-38.0648],[174.8769,-38.0746],[174.9034,-38.0839],[174.8693,-38.0952],[174.8672,-38.1191],[174.8495,-38.1045],[174.83,-38.1077],[174.8417,-38.1306],[174.8132,-38.1376],[174.7982,-38.1224],[174.7787,-38.1206],[174.7561,-38.1119],[174.7345,-38.124],[174.6921,-38.118],[174.6878,-38.13],[174.7139,-38.2018],[174.7157,-38.2223],[174.7099,-38.2356],[174.7171,-38.2727],[174.7159,-38.306],[174.7102,-38.3237],[174.6972,-38.3284],[174.6801,-38.352],[174.6642,-38.3625],[174.6541,-38.3858],[174.6346,-38.3869],[174.6429,-38.423],[174.6445,-38.4665],[174.6389,-38.4924],[174.631,-38.5041],[174.6362,-38.5317],[174.6273,-38.6086],[174.6248,-38.6125],[174.6152,-38.706],[174.6095,-38.7152],[174.6046,-38.7574],[174.5884,-38.8049],[174.56,-38.8559],[174.5174,-38.892],[174.5077,-38.8903],[174.479,-38.9156],[174.4432,-38.9549],[174.4068,-38.9834],[174.348,-38.994],[174.3258,-38.9912],[174.3123,-38.9829],[174.2668,-38.9868],[174.2419,-38.9817],[174.2277,-38.9879],[174.2003,-38.9885],[174.1794,-38.9963],[174.1581,-39.0147],[174.1377,-39.0184],[174.107,-39.0362],[174.0889,-39.0512],[174.0369,-39.0594],[174.0294,-39.0544],[174.006,-39.0841],[173.991,-39.0894],[173.9479,-39.1155],[173.9118,-39.1198],[173.8457,-39.1539],[173.8167,-39.1818],[173.8029,-39.1866],[173.7778,-39.2167],[173.7722,-39.2499],[173.7515,-39.2794],[173.7599,-39.3195],[173.7695,-39.3386],[173.7717,-39.3656],[173.7863,-39.3997],[173.7983,-39.4183],[173.8202,-39.4295],[173.8318,-39.4464],[173.8666,-39.4658],[173.8828,-39.4899],[173.923,-39.5184],[173.9871,-39.5542],[174.0427,-39.5595],[174.0769,-39.5774],[174.1484,-39.5804],[174.1616,-39.5854],[174.2016,-39.5881],[174.2338,-39.6016],[174.2608,-39.6183],[174.2759,-39.6191],[174.3388,-39.6485],[174.4206,-39.7325],[174.4482,-39.7533],[174.4922,-39.7766],[174.5129,-39.7837],[174.5347,-39.8043],[174.5589,-39.8174],[174.5799,-39.8178],[174.6491,-39.8352],[174.7165,-39.8672],[174.7383,-39.8684],[174.7739,-39.8638],[174.7845,-39.8578],[174.8694,-39.8742],[174.9155,-39.8933],[174.9477,-39.9113],[174.9831,-39.9489],[175.016,-39.9626],[175.0449,-39.985],[175.0841,-40.0226],[175.0995,-40.0406],[175.1436,-40.0828],[175.1628,-40.1074],[175.1907,-40.1584],[175.2066,-40.2062],[175.216,-40.2509],[175.2292,-40.3287],[175.227,-40.3986],[175.2146,-40.461],[175.2141,-40.4806],[175.193,-40.5596],[175.1808,-40.5975],[175.1585,-40.6498],[175.1602,-40.6625],[175.1476,-40.6787],[175.1233,-40.7255],[175.0846,-40.7895],[175.0589,-40.8268],[175.0308,-40.8555],[174.9906,-40.8782],[174.9782,-40.8959],[174.9779,-40.9185],[174.9687,-40.9559],[174.9387,-41.0004],[174.8981,-41.0292],[174.8707,-41.0307],[174.8486,-41.0475],[174.8514,-41.066],[174.8672,-41.0867],[174.8488,-41.0905],[174.7957,-41.1237],[174.7682,-41.1531],[174.7603,-41.1666],[174.7401,-41.1723],[174.7286,-41.1875],[174.7142,-41.2192],[174.6934,-41.2207],[174.6892,-41.2325],[174.6645,-41.2468],[174.647,-41.2383],[174.623,-41.2603],[174.6133,-41.2855],[174.6329,-41.2993],[174.6313,-41.3155],[174.655,-41.3319],[174.6771,-41.34],[174.704,-41.3567],[174.7271,-41.3574],[174.7326,-41.3494],[174.7787,-41.3459],[174.8051,-41.3348],[174.8195,-41.3423],[174.8378,-41.3236],[174.8222,-41.2965],[174.8098,-41.3157],[174.7975,-41.3119],[174.8062,-41.3033],[174.7934,-41.2912],[174.7868,-41.2647]]],[[[169.2188,-52.4691],[169.1891,-52.4766],[169.1574,-52.477],[169.1515,-52.4968],[169.1308,-52.514],[169.1294,-52.5286],[169.1007,-52.5497],[169.0468,-52.532],[169.0156,-52.5444],[169.0399,-52.5642],[169.0638,-52.5616],[169.1111,-52.5872],[169.1283,-52.5908],[169.1559,-52.607],[169.2078,-52.6018],[169.2415,-52.5769],[169.2039,-52.5583],[169.216,-52.5484],[169.2372,-52.564],[169.2621,-52.5637],[169.2673,-52.5492],[169.2412,-52.5466],[169.2327,-52.5343],[169.2432,-52.5209],[169.2189,-52.5019],[169.2188,-52.4691]]],[[[166.3167,-50.4883],[166.2817,-50.4875],[166.2933,-50.5053],[166.3206,-50.5067],[166.3167,-50.4883]]],[[[178.8066,-49.6665],[178.7942,-49.6575],[178.7735,-49.6719],[178.7458,-49.6758],[178.7421,-49.7068],[178.7575,-49.7153],[178.7793,-49.7146],[178.7861,-49.6993],[178.8089,-49.6817],[178.8066,-49.6665]]],[[[165.9278,-50.8461],[165.9127,-50.8478],[165.9153,-50.8871],[165.9405,-50.8914],[165.9564,-50.9042],[165.986,-50.905],[166.0023,-50.9147],[166.0355,-50.9098],[166.0694,-50.925],[166.1027,-50.9274],[166.1228,-50.9142],[166.1379,-50.9161],[166.1806,-50.9013],[166.1714,-50.8951],[166.1917,-50.8728],[166.1511,-50.8614],[166.0972,-50.8556],[166.0761,-50.8483],[166.055,-50.8628],[166.0261,-50.8653],[165.9695,-50.8625],[165.9278,-50.8461]]],[[[166.1856,-50.5164],[166.1639,-50.5226],[166.1489,-50.5117],[166.1272,-50.5133],[166.1022,-50.5267],[166.0589,-50.5275],[166.0678,-50.5411],[166.0917,-50.5522],[166.0607,-50.5624],[166.063,-50.5714],[166.0967,-50.5681],[166.0994,-50.5842],[166.0894,-50.6119],[166.0722,-50.6253],[166.0683,-50.645],[166.0856,-50.6669],[166.0717,-50.6861],[166.0483,-50.6969],[166.0278,-50.7158],[166.005,-50.7183],[165.9699,-50.738],[165.9178,-50.7586],[165.8777,-50.7711],[165.8895,-50.7798],[165.8748,-50.8031],[165.8817,-50.8283],[165.8933,-50.8389],[165.9156,-50.8311],[165.93,-50.8381],[165.9822,-50.8525],[166.01,-50.8536],[166.0206,-50.8475],[166.0072,-50.8325],[166.04,-50.7956],[166.0322,-50.7844],[166.0067,-50.7703],[166.0145,-50.7497],[166.0311,-50.7606],[166.0561,-50.7583],[166.0594,-50.8],[166.0717,-50.8203],[166.0961,-50.8256],[166.1411,-50.8472],[166.1747,-50.8573],[166.2233,-50.8617],[166.2422,-50.8494],[166.2461,-50.8306],[166.2333,-50.8208],[166.2267,-50.7922],[166.2084,-50.7799],[166.2178,-50.7647],[166.1933,-50.7411],[166.16,-50.7294],[166.1683,-50.7125],[166.2006,-50.7161],[166.2083,-50.6986],[166.1628,-50.6878],[166.1917,-50.6758],[166.1728,-50.6683],[166.2022,-50.6519],[166.19,-50.6278],[166.1678,-50.6147],[166.1733,-50.6061],[166.215,-50.6306],[166.2439,-50.6075],[166.2178,-50.5983],[166.2378,-50.5792],[166.2744,-50.5831],[166.2733,-50.5636],[166.2828,-50.5411],[166.2672,-50.5294],[166.2228,-50.5569],[166.2028,-50.5258],[166.1856,-50.5164]]],[[[167.4346,-47.225],[167.3977,-47.2321],[167.3774,-47.2498],[167.4012,-47.2542],[167.4415,-47.2301],[167.4346,-47.225]]],[[[167.7037,-47.1793],[167.6905,-47.1891],[167.703,-47.1977],[167.725,-47.1929],[167.7037,-47.1793]]],[[[167.6542,-46.7877],[167.6605,-46.7651],[167.6441,-46.754],[167.6022,-46.7557],[167.5979,-46.7669],[167.6122,-46.775],[167.6208,-46.795],[167.6542,-46.7877]]],[[[168.5319,-46.7352],[168.5192,-46.7535],[168.4988,-46.7601],[168.4873,-46.7762],[168.5167,-46.7851],[168.5394,-46.7754],[168.5436,-46.7558],[168.5319,-46.7352]]],[[[-176.6251,-43.694],[-176.6396,-43.7143],[-176.6373,-43.7326],[-176.6581,-43.7477],[-176.7249,-43.7636],[-176.7506,-43.7655],[-176.82,-43.7519],[-176.8089,-43.7746],[-176.811,-43.7844],[-176.866,-43.7907],[-176.8776,-43.7992],[-176.8738,-43.8305],[-176.858,-43.8428],[-176.8476,-43.8355],[-176.8177,-43.8415],[-176.7878,-43.8374],[-176.7938,-43.8212],[-176.759,-43.8282],[-176.7175,-43.8297],[-176.7052,-43.8256],[-176.708,-43.808],[-176.6865,-43.8124],[-176.6758,-43.8069],[-176.6411,-43.8072],[-176.6087,-43.8119],[-176.5716,-43.8477],[-176.5464,-43.883],[-176.5455,-43.8989],[-176.5354,-43.9101],[-176.5343,-43.9379],[-176.5463,-43.9503],[-176.5749,-43.9572],[-176.6329,-43.9849],[-176.6498,-43.9967],[-176.6782,-44.0063],[-176.6805,-44.0221],[-176.6602,-44.0415],[-176.6581,-44.0718],[-176.6467,-44.0769],[-176.6461,-44.093],[-176.6327,-44.1114],[-176.6136,-44.1258],[-176.58,-44.1311],[-176.5421,-44.1203],[-176.5352,-44.1053],[-176.4905,-44.0868],[-176.477,-44.0753],[-176.4493,-44.0651],[-176.4184,-44.0617],[-176.3938,-44.0539],[-176.3583,-44.0585],[-176.3258,-44.0493],[-176.3284,-44.0344],[-176.3518,-44.0253],[-176.3757,-44.0247],[-176.395,-44.0095],[-176.4095,-43.9807],[-176.4171,-43.9356],[-176.4312,-43.9416],[-176.4297,-43.9627],[-176.4525,-43.9656],[-176.4851,-43.949],[-176.4751,-43.935],[-176.474,-43.9162],[-176.5015,-43.897],[-176.5237,-43.8677],[-176.524,-43.8533],[-176.4938,-43.8233],[-176.4724,-43.822],[-176.4451,-43.8096],[-176.4634,-43.8015],[-176.4981,-43.7975],[-176.5235,-43.7992],[-176.5411,-43.7932],[-176.5616,-43.7741],[-176.5496,-43.7518],[-176.5504,-43.7389],[-176.5197,-43.7418],[-176.5,-43.7639],[-176.4769,-43.7471],[-176.4359,-43.7509],[-176.3952,-43.7662],[-176.3787,-43.7853],[-176.4085,-43.8409],[-176.4236,-43.8487],[-176.4166,-43.8875],[-176.429,-43.9174],[-176.4194,-43.9186],[-176.3987,-43.8656],[-176.3708,-43.8235],[-176.3382,-43.7906],[-176.3033,-43.7689],[-176.2804,-43.7618],[-176.249,-43.7643],[-176.2235,-43.7409],[-176.2374,-43.7299],[-176.2655,-43.7344],[-176.2981,-43.7481],[-176.3219,-43.7471],[-176.3355,-43.7372],[-176.3777,-43.7456],[-176.3931,-43.7427],[-176.4375,-43.748],[-176.4839,-43.7392],[-176.4975,-43.7238],[-176.5418,-43.721],[-176.575,-43.7068],[-176.6089,-43.7029],[-176.6251,-43.694]]],[[[-176.2206,-44.2246],[-176.2364,-44.2406],[-176.2564,-44.2483],[-176.2385,-44.2647],[-176.2575,-44.2773],[-176.2523,-44.3098],[-176.2632,-44.3246],[-176.2471,-44.3348],[-176.2368,-44.3503],[-176.2024,-44.3176],[-176.1865,-44.2883],[-176.1569,-44.2729],[-176.189,-44.244],[-176.1971,-44.2317],[-176.2206,-44.2246]]],[[[166.6848,-45.6023],[166.6546,-45.6048],[166.6322,-45.6114],[166.6057,-45.603],[166.5829,-45.6115],[166.5597,-45.6322],[166.5461,-45.6245],[166.5209,-45.6464],[166.5199,-45.6618],[166.49,-45.6833],[166.4647,-45.7067],[166.4451,-45.7314],[166.4598,-45.7372],[166.5407,-45.6816],[166.57,-45.6878],[166.5747,-45.7099],[166.5884,-45.7207],[166.5763,-45.7403],[166.59,-45.7542],[166.6261,-45.7487],[166.6439,-45.7405],[166.663,-45.7521],[166.6854,-45.7479],[166.7169,-45.7188],[166.7237,-45.6983],[166.7131,-45.6343],[166.7166,-45.6247],[166.6848,-45.6023]]],[[[166.9638,-45.1492],[166.9234,-45.1741],[166.8999,-45.1998],[166.8985,-45.2107],[166.881,-45.2236],[166.8689,-45.2406],[166.89,-45.2495],[166.9105,-45.2718],[166.9432,-45.2853],[166.9473,-45.2941],[166.9978,-45.2998],[166.988,-45.2753],[166.9867,-45.2557],[166.9743,-45.2468],[166.9493,-45.2031],[166.9521,-45.1851],[166.9657,-45.1762],[166.9712,-45.1584],[166.9638,-45.1492]]],[[[176.4162,-37.603],[176.4173,-37.6166],[176.4075,-37.6257],[176.4107,-37.6425],[176.4242,-37.6412],[176.4381,-37.6208],[176.4162,-37.603]]],[[[176.2669,-37.2681],[176.2476,-37.2695],[176.232,-37.2786],[176.2315,-37.2971],[176.2645,-37.3039],[176.2778,-37.2706],[176.2669,-37.2681]]],[[[176.0264,-37.5031],[176.0133,-37.4856],[175.9946,-37.4743],[175.983,-37.4753],[175.9847,-37.4989],[175.9945,-37.5041],[176.0195,-37.5367],[176.0421,-37.5516],[176.057,-37.5727],[176.0301,-37.5708],[176.0283,-37.5869],[176.0446,-37.6051],[176.0644,-37.6074],[176.0736,-37.622],[176.0853,-37.625],[176.103,-37.6031],[176.1255,-37.617],[176.1279,-37.6281],[176.1511,-37.6442],[176.1579,-37.6342],[176.1472,-37.6213],[176.0953,-37.5808],[176.0556,-37.5391],[176.0264,-37.5031]]],[[[175.1879,-36.8352],[175.1725,-36.8463],[175.1771,-36.861],[175.1618,-36.8664],[175.1759,-36.8949],[175.1946,-36.9017],[175.2067,-36.8789],[175.1947,-36.8557],[175.2013,-36.8404],[175.1879,-36.8352]]],[[[-178.4208,-30.2272],[-178.4408,-30.2319],[-178.4311,-30.2431],[-178.4208,-30.2272]]],[[[-177.9414,-29.2419],[-177.9572,-29.2522],[-177.9422,-29.2705],[-177.9527,-29.2881],[-177.9286,-29.2967],[-177.9077,-29.2773],[-177.8852,-29.2775],[-177.898,-29.2519],[-177.9414,-29.2419]]],[[[172.1547,-34.1436],[172.1374,-34.1523],[172.1297,-34.1642],[172.1408,-34.1711],[172.1547,-34.1436]]],[[[175.1736,-36.739],[175.1511,-36.7504],[175.1497,-36.763],[175.1286,-36.7688],[175.1194,-36.7618],[175.1033,-36.7691],[175.1062,-36.7827],[175.0867,-36.7882],[175.0632,-36.7779],[175.0305,-36.7757],[175.0173,-36.7845],[175.0021,-36.7698],[174.9924,-36.7825],[174.988,-36.8115],[175.0054,-36.8035],[175.0093,-36.7896],[175.0478,-36.8059],[175.0627,-36.8317],[175.0932,-36.8369],[175.1137,-36.8321],[175.1131,-36.8474],[175.136,-36.8418],[175.144,-36.8483],[175.1634,-36.8296],[175.1671,-36.8057],[175.1549,-36.7902],[175.1799,-36.7733],[175.1933,-36.7791],[175.2033,-36.766],[175.1962,-36.7528],[175.1702,-36.7495],[175.1736,-36.739]]],[[[174.9184,-36.7314],[174.9137,-36.7488],[174.8797,-36.77],[174.8674,-36.7627],[174.8376,-36.7687],[174.8283,-36.7863],[174.848,-36.8091],[174.8897,-36.8013],[174.8964,-36.7888],[174.9284,-36.784],[174.9368,-36.7593],[174.9184,-36.7314]]],[[[174.8399,-36.3923],[174.8217,-36.4121],[174.8335,-36.4489],[174.8796,-36.4373],[174.8703,-36.4076],[174.8399,-36.3923]]],[[[175.3398,-36.1642],[175.3161,-36.1716],[175.3125,-36.1813],[175.331,-36.1901],[175.3398,-36.1642]]],[[[175.497,-36.116],[175.4862,-36.1258],[175.4989,-36.1355],[175.5121,-36.1216],[175.497,-36.116]]],[[[175.0923,-36.1666],[175.0683,-36.1777],[175.0477,-36.1947],[175.0525,-36.2151],[175.0788,-36.2304],[175.0999,-36.2316],[175.108,-36.2247],[175.1089,-36.1902],[175.1141,-36.1822],[175.0923,-36.1666]]],[[[175.3981,-36.0502],[175.3788,-36.0526],[175.3672,-36.0662],[175.3413,-36.0702],[175.3419,-36.0946],[175.3508,-36.11],[175.3725,-36.118],[175.3566,-36.1278],[175.3267,-36.1342],[175.3456,-36.1527],[175.3527,-36.1844],[175.3395,-36.2159],[175.3208,-36.1899],[175.312,-36.1917],[175.312,-36.2184],[175.3502,-36.2285],[175.3629,-36.246],[175.3777,-36.2539],[175.3899,-36.2505],[175.4087,-36.2638],[175.4402,-36.2627],[175.4302,-36.282],[175.4333,-36.3093],[175.47,-36.301],[175.4868,-36.3011],[175.495,-36.3131],[175.4766,-36.3241],[175.4828,-36.3339],[175.5017,-36.3411],[175.532,-36.3442],[175.5346,-36.3295],[175.5505,-36.3147],[175.5276,-36.2798],[175.5142,-36.2686],[175.4935,-36.2659],[175.4768,-36.2321],[175.4888,-36.2167],[175.4796,-36.21],[175.4867,-36.1867],[175.5033,-36.1708],[175.4837,-36.168],[175.4471,-36.1533],[175.4351,-36.1408],[175.4248,-36.148],[175.4081,-36.1424],[175.4225,-36.1282],[175.4284,-36.1116],[175.4264,-36.0918],[175.4069,-36.0922],[175.4021,-36.0796],[175.4129,-36.0616],[175.3981,-36.0502]]],[[[174.7062,-35.9559],[174.7067,-35.9698],[174.7257,-35.9723],[174.7286,-35.9579],[174.7062,-35.9559]]],[[[175.7869,-36.5813],[175.7507,-36.5874],[175.7673,-36.6052],[175.7868,-36.6094],[175.7901,-36.6389],[175.8097,-36.6363],[175.8234,-36.6421],[175.8338,-36.6258],[175.8222,-36.6149],[175.7903,-36.6054],[175.7869,-36.5813]]],[[[173.1313,-41.2585],[173.1111,-41.2522],[173.1043,-41.2632],[173.1513,-41.2836],[173.1788,-41.2805],[173.1845,-41.2743],[173.1313,-41.2585]]],[[[174.2395,-41.1594],[174.2281,-41.177],[174.2544,-41.1792],[174.2395,-41.1594]]],[[[174.3826,-41.0881],[174.3804,-41.0987],[174.3247,-41.131],[174.33,-41.1475],[174.3748,-41.1383],[174.3605,-41.1589],[174.3199,-41.165],[174.3027,-41.1625],[174.2879,-41.1827],[174.2697,-41.1798],[174.2549,-41.2036],[174.2318,-41.2088],[174.1949,-41.2092],[174.1656,-41.2288],[174.1609,-41.2419],[174.2093,-41.2363],[174.2506,-41.2371],[174.28,-41.2086],[174.3252,-41.2099],[174.3435,-41.1917],[174.3643,-41.2005],[174.3742,-41.1942],[174.3671,-41.173],[174.3701,-41.1589],[174.3834,-41.1405],[174.3918,-41.1182],[174.3923,-41.0939],[174.3826,-41.0881]]],[[[174.9446,-40.8221],[174.9192,-40.8235],[174.9154,-40.8379],[174.891,-40.8572],[174.8688,-40.8862],[174.8866,-40.8902],[174.9351,-40.8533],[174.9446,-40.8221]]],[[[174.0819,-40.9419],[174.0746,-40.9572],[174.0577,-40.9687],[174.071,-40.9775],[174.0824,-40.9633],[174.0819,-40.9419]]],[[[173.9564,-40.6935],[173.9534,-40.7138],[173.9292,-40.745],[173.9034,-40.7531],[173.8837,-40.7687],[173.8682,-40.7626],[173.8797,-40.7386],[173.8608,-40.7375],[173.8404,-40.7693],[173.8057,-40.8027],[173.8054,-40.8252],[173.8169,-40.8482],[173.7967,-40.8567],[173.7832,-40.8382],[173.7723,-40.8604],[173.7793,-40.8844],[173.7957,-40.9013],[173.7767,-40.9397],[173.7935,-40.9392],[173.8033,-40.9285],[173.8191,-40.9275],[173.838,-40.9031],[173.8663,-40.8905],[173.8722,-40.8725],[173.905,-40.8567],[173.9296,-40.8231],[173.9454,-40.7948],[173.9395,-40.7875],[173.9483,-40.7686],[173.9596,-40.7652],[173.9633,-40.7118],[173.9564,-40.6935]]],[[[169.72024090909093,-46.4859],[169.720195,-46.48589],[169.7194,-46.4792],[169.7524,-46.474],[169.7585,-46.466],[169.8012,-46.4458],[169.7942,-46.4347],[169.7999,-46.4122],[169.7803,-46.3976],[169.7833,-46.3736],[169.7981,-46.3547],[169.8407,-46.3292],[169.9239,-46.2984],[169.9337,-46.2848],[169.9729,-46.2719],[169.9991,-46.2517],[170.0096,-46.238],[170.0401,-46.2252],[170.0776,-46.2027],[170.1222,-46.1861],[170.1709,-46.1531],[170.1853,-46.1302],[170.2003,-46.0919],[170.1994,-46.0556],[170.2124,-46.0516],[170.2447,-46.0088],[170.2598,-45.9989],[170.2947,-45.9641],[170.3355,-45.9494],[170.342,-45.9427],[170.4029,-45.9306],[170.4276,-45.9288],[170.4982,-45.9107],[170.5401,-45.9076],[170.5674,-45.9095],[170.6093,-45.8973],[170.6316,-45.9005],[170.6859,-45.8949],[170.658,-45.8649],[170.6606,-45.851],[170.6868,-45.8623],[170.6814,-45.8774],[170.7479,-45.8729],[170.7428,-45.8493],[170.7203,-45.8469],[170.6949,-45.8545],[170.6955,-45.8381],[170.7323,-45.8451],[170.7338,-45.8231],[170.7439,-45.8123],[170.7415,-45.7792],[170.7231,-45.7829],[170.721,-45.7982],[170.6843,-45.8054],[170.6692,-45.8145],[170.6719,-45.8331],[170.5981,-45.8542],[170.5968,-45.8696],[170.5739,-45.8792],[170.5381,-45.879],[170.525,-45.8716],[170.5677,-45.862],[170.6055,-45.8208],[170.6292,-45.8194],[170.6285,-45.7964],[170.6809,-45.7841],[170.6991,-45.7862],[170.7118,-45.7759],[170.696,-45.7641],[170.6613,-45.7602],[170.6385,-45.7385],[170.6267,-45.7426],[170.5982,-45.733],[170.5805,-45.7468],[170.5681,-45.7404],[170.5755,-45.7161],[170.6009,-45.7108],[170.6149,-45.6947],[170.6528,-45.671],[170.653,-45.631],[170.6838,-45.6119],[170.6962,-45.6188],[170.7253,-45.5959],[170.7268,-45.5693],[170.7445,-45.5519],[170.7545,-45.5338],[170.7783,-45.518],[170.8184,-45.4785],[170.8261,-45.4651],[170.8096,-45.4567],[170.8104,-45.4447],[170.8255,-45.4128],[170.8464,-45.3951],[170.8689,-45.3899],[170.8631,-45.3575],[170.8359,-45.3593],[170.828,-45.3504],[170.8246,-45.327],[170.8312,-45.3061],[170.8608,-45.2698],[170.8643,-45.2382],[170.8832,-45.2208],[170.8866,-45.2047],[170.9077,-45.1833],[170.9045,-45.174],[170.9334,-45.1446],[170.956,-45.1297],[170.976,-45.1258],[170.9729,-45.1085],[170.9797,-45.0923],[171.0603,-45.0385],[171.1047,-44.9985],[171.1401,-44.9491],[171.1602,-44.9037],[171.1735,-44.8397],[171.1742,-44.8103],[171.17,-44.7287],[171.1592,-44.6278],[171.1694,-44.5769],[171.1883,-44.5386],[171.2112,-44.5033],[171.2545,-44.4527],[171.267,-44.4127],[171.2627,-44.3955],[171.2451,-44.3812],[171.2804,-44.3425],[171.3334,-44.2952],[171.4143,-44.2381],[171.439,-44.2234],[171.5027,-44.1916],[171.5775,-44.1507],[171.6401,-44.1199],[171.7903,-44.06],[172.0292,-43.9578],[172.1317,-43.9217],[172.1865,-43.9055],[172.2169,-43.8992],[172.3079,-43.8691],[172.4219,-43.8508],[172.495,-43.8446],[172.5876,-43.8333],[172.6929,-43.8272],[172.7292,-43.827],[172.7466,-43.8531],[172.7758,-43.8576],[172.8005,-43.8719],[172.8242,-43.8691],[172.8366,-43.8898],[172.8658,-43.8889],[172.8811,-43.8953],[172.9082,-43.8902],[172.9304,-43.9017],[172.9493,-43.8954],[172.9423,-43.8825],[172.927,-43.8778],[172.9091,-43.8574],[172.9157,-43.8507],[172.9032,-43.8226],[172.9252,-43.7961],[172.9073,-43.7801],[172.9327,-43.7505],[172.9594,-43.7619],[172.9657,-43.7792],[172.9468,-43.7841],[172.9483,-43.8151],[172.9408,-43.842],[172.9423,-43.8606],[172.9683,-43.8741],[172.9686,-43.8869],[172.9958,-43.8871],[173.0364,-43.8698],[173.0667,-43.8421],[173.098,-43.8317],[173.1065,-43.8161],[173.1117,-43.7875],[173.1302,-43.7638],[173.125,-43.7368],[173.1096,-43.7286],[173.1023,-43.6958],[173.0897,-43.6898],[173.0638,-43.697],[173.0637,-43.6782],[173.0201,-43.654],[172.9993,-43.667],[172.9992,-43.6449],[172.9679,-43.6439],[172.9458,-43.6373],[172.9339,-43.6261],[172.9163,-43.6431],[172.9146,-43.6568],[172.9007,-43.6768],[172.8907,-43.6686],[172.8994,-43.6552],[172.9034,-43.6183],[172.8794,-43.6091],[172.8531,-43.6065],[172.8277,-43.6541],[172.821,-43.6366],[172.8291,-43.6161],[172.8044,-43.6116],[172.775,-43.6157],[172.7565,-43.628],[172.7199,-43.6242],[172.6993,-43.6561],[172.6828,-43.6457],[172.6643,-43.6589],[172.6525,-43.6319],[172.6769,-43.6084],[172.7068,-43.6114],[172.72238,-43.60532],[172.72238421052631,-43.60532105263158],[172.7514,-43.5975],[172.7798,-43.5979],[172.8042,-43.5929],[172.7979,-43.5812],[172.7781,-43.5847],[172.7604,-43.5666],[172.7442,-43.5661],[172.7327,-43.5556],[172.7079,-43.5584],[172.7344,-43.5132],[172.7226,-43.4802],[172.714,-43.4355],[172.701,-43.4186],[172.7112,-43.3904],[172.7087,-43.3588],[172.7125,-43.3223],[172.7337,-43.255],[172.7763,-43.1791],[172.8169,-43.1333],[172.8447,-43.1318],[172.888,-43.0981],[172.9007,-43.0992],[172.9591,-43.0839],[172.9943,-43.0723],[173.0113,-43.0603],[173.044,-43.0466],[173.0806,-43.0507],[173.0981,-43.0283],[173.1397,-42.9896],[173.1677,-42.9778],[173.1963,-42.9744],[173.2395,-42.9543],[173.3036,-42.8913],[173.3133,-42.8519],[173.3328,-42.8294],[173.3684,-42.7988],[173.3759,-42.7729],[173.397,-42.7413],[173.4794,-42.5927],[173.4957,-42.5699],[173.5172,-42.5557],[173.5017,-42.5483],[173.5023,-42.5263],[173.5091,-42.5057],[173.5284,-42.4792],[173.5485,-42.4588],[173.5832,-42.4477],[173.5947,-42.4284],[173.642,-42.4147],[173.6716,-42.413],[173.7016,-42.431],[173.7162,-42.4225],[173.685,-42.4074],[173.6813,-42.3876],[173.6952,-42.3539],[173.7404,-42.3276],[173.7522,-42.3143],[173.7475,-42.3002],[173.7697,-42.2794],[173.8078,-42.2653],[173.8095,-42.2556],[173.8306,-42.2481],[173.8577,-42.2192],[173.8735,-42.2144],[173.8762,-42.2033],[173.8926,-42.1892],[173.9288,-42.1726],[173.94,-42.1584],[173.9251,-42.1382],[173.9251,-42.1227],[173.9371,-42.0846],[173.9542,-42.059],[173.985,-42.0262],[174.0119,-42.0045],[174.0214,-41.9885],[174.0826,-41.9448],[174.1068,-41.913],[174.1612,-41.8716],[174.1615,-41.8626],[174.196,-41.8355],[174.1936,-41.8274],[174.2128,-41.8134],[174.218,-41.7921],[174.2417,-41.7691],[174.275,-41.743],[174.2639,-41.7343],[174.2232,-41.7232],[174.2123,-41.7279],[174.1822,-41.7114],[174.1727,-41.6986],[174.1565,-41.6572],[174.1663,-41.605],[174.1535,-41.5892],[174.1504,-41.5594],[174.1226,-41.5467],[174.1115,-41.5568],[174.0748,-41.5503],[174.058,-41.5444],[174.0721,-41.524],[174.0578,-41.508],[174.0616,-41.5008],[174.0378,-41.4834],[174.0291,-41.4536],[174.0333,-41.4288],[174.0508,-41.389],[174.0656,-41.3854],[174.0798,-41.3577],[174.0981,-41.3437],[174.0978,-41.3348],[174.1163,-41.318],[174.1127,-41.3034],[174.146,-41.283],[174.1901,-41.2931],[174.17,-41.3086],[174.1529,-41.3395],[174.1784,-41.3374],[174.2133,-41.3253],[174.2369,-41.3069],[174.2245,-41.2944],[174.2501,-41.2812],[174.2533,-41.2718],[174.2827,-41.2685],[174.2747,-41.2556],[174.2881,-41.2459],[174.2868,-41.2279],[174.2553,-41.2499],[174.2463,-41.2444],[174.2257,-41.2517],[174.1966,-41.2443],[174.1552,-41.2586],[174.14,-41.2566],[174.1318,-41.2413],[174.1136,-41.2368],[174.0536,-41.2597],[174.0275,-41.2627],[174.0055,-41.2872],[174.0045,-41.2599],[173.9758,-41.2689],[173.938,-41.2689],[173.9723,-41.245],[173.9879,-41.2421],[173.9959,-41.2289],[174.0189,-41.2327],[174.0499,-41.2092],[174.0849,-41.2122],[174.0988,-41.2025],[174.1115,-41.2231],[174.1554,-41.1979],[174.1517,-41.1762],[174.1755,-41.1818],[174.1954,-41.1578],[174.1799,-41.1578],[174.1626,-41.1314],[174.1496,-41.1227],[174.17,-41.1085],[174.1809,-41.114],[174.1881,-41.1329],[174.21,-41.1273],[174.225,-41.1115],[174.2471,-41.1221],[174.2504,-41.0883],[174.2716,-41.0691],[174.2605,-41.0439],[174.2246,-41.0544],[174.217,-41.0713],[174.1691,-41.05],[174.1948,-41.0188],[174.1727,-41.008],[174.1752,-40.9937],[174.1563,-40.9903],[174.1438,-40.9998],[174.1465,-41.0177],[174.1313,-41.0188],[174.115,-41.0038],[174.0976,-41.004],[174.1076,-41.0458],[174.0931,-41.0363],[174.0714,-41.0082],[174.0541,-41.0064],[174.0205,-41.016],[174.0087,-41.0102],[174.0218,-40.978],[174.0198,-40.9698],[173.9955,-40.969],[173.9953,-40.9951],[173.9686,-40.9994],[173.9885,-41.0157],[173.9559,-41.0217],[173.95,-41.0353],[173.9638,-41.0441],[173.9766,-41.0348],[173.9913,-41.0377],[174.009,-41.0174],[174.0494,-41.021],[174.0531,-41.0327],[174.0381,-41.0545],[174.0188,-41.0688],[174.0305,-41.0815],[174.0311,-41.106],[174.0105,-41.0949],[173.9985,-41.0968],[173.9901,-41.1149],[173.9931,-41.137],[173.9655,-41.1357],[173.9502,-41.1146],[173.9708,-41.0872],[173.9596,-41.0796],[173.9379,-41.0835],[173.9268,-41.0968],[173.9291,-41.1146],[173.9086,-41.1093],[173.8951,-41.1363],[173.8764,-41.1361],[173.87,-41.1612],[173.898,-41.1684],[173.8858,-41.1828],[173.8987,-41.1963],[173.9204,-41.1995],[173.9706,-41.1729],[173.9769,-41.1938],[173.9982,-41.186],[174.0132,-41.1672],[174.0624,-41.1788],[174.0877,-41.1711],[174.1053,-41.1819],[174.0841,-41.189],[174.0512,-41.1904],[174.0332,-41.2012],[174.0168,-41.1983],[173.9984,-41.209],[173.9469,-41.211],[173.9085,-41.2076],[173.894,-41.213],[173.8952,-41.236],[173.8717,-41.2549],[173.8378,-41.2591],[173.7944,-41.2714],[173.7464,-41.2719],[173.7345,-41.2644],[173.7807,-41.2533],[173.7967,-41.2589],[173.8138,-41.248],[173.8496,-41.2413],[173.8477,-41.2224],[173.8639,-41.1963],[173.8648,-41.176],[173.8489,-41.1615],[173.7988,-41.1628],[173.785,-41.1765],[173.774,-41.1704],[173.7782,-41.1554],[173.8179,-41.1529],[173.8313,-41.1356],[173.8526,-41.1335],[173.8612,-41.11],[173.8835,-41.1212],[173.8885,-41.1004],[173.8692,-41.0906],[173.8853,-41.0744],[173.9112,-41.0784],[173.9126,-41.055],[173.8826,-41.0618],[173.867,-41.0533],[173.8212,-41.058],[173.8231,-41.067],[173.786,-41.1113],[173.761,-41.0907],[173.7799,-41.0851],[173.779,-41.0669],[173.7702,-41.0562],[173.7902,-41.0274],[173.7775,-41.0238],[173.784,-41.0065],[173.8191,-41.0112],[173.8495,-41.0222],[173.895,-40.999],[173.9065,-40.9654],[173.9582,-40.9579],[173.9494,-40.9472],[173.9659,-40.9365],[173.9698,-40.9134],[173.9899,-40.9104],[173.9952,-40.9302],[174.0138,-40.9371],[174.0123,-40.9072],[173.9952,-40.911],[173.9693,-40.8982],[173.9539,-40.9041],[173.9426,-40.9178],[173.9074,-40.9267],[173.9115,-40.9446],[173.8983,-40.9598],[173.8744,-40.9657],[173.8701,-40.9817],[173.8519,-40.9901],[173.8319,-40.9811],[173.8555,-40.9293],[173.8075,-40.9584],[173.7772,-40.9883],[173.7573,-40.9927],[173.7457,-41.0059],[173.7261,-41.0131],[173.7093,-41.0083],[173.6734,-41.0342],[173.6757,-41.0431],[173.7006,-41.0551],[173.7435,-41.0352],[173.7524,-41.0547],[173.7235,-41.0587],[173.7229,-41.0677],[173.6633,-41.0783],[173.6596,-41.1007],[173.6153,-41.0976],[173.6366,-41.0789],[173.5939,-41.0511],[173.5875,-41.0634],[173.571,-41.064],[173.5565,-41.0777],[173.5472,-41.0966],[173.5215,-41.1021],[173.5077,-41.1153],[173.5064,-41.1348],[173.4827,-41.1568],[173.4636,-41.1664],[173.4263,-41.1661],[173.4399,-41.1528],[173.4309,-41.1395],[173.4125,-41.1491],[173.3637,-41.1841],[173.3219,-41.204],[173.3238,-41.2221],[173.3129,-41.2492],[173.2904,-41.263],[173.2702,-41.2604],[173.2517,-41.2788],[173.2326,-41.2786],[173.2184,-41.2967],[173.2209,-41.3041],[173.2093,-41.3262],[173.1941,-41.3315],[173.1631,-41.3184],[173.1424,-41.2917],[173.0782,-41.2713],[173.1074,-41.2488],[173.0848,-41.2304],[173.0849,-41.2117],[173.0658,-41.1839],[173.0472,-41.1826],[173.018,-41.1577],[173.0088,-41.1421],[173.0296,-41.1127],[173.0275,-41.0873],[173.0132,-41.0772],[173.0008,-41.059],[173.0226,-41.0472],[173.0172,-41.0209],[173.0076,-41.0129],[173.0124,-40.9921],[173.0357,-40.9893],[173.0427,-40.9729],[173.0562,-40.9637],[173.0495,-40.9438],[173.0632,-40.9052],[173.0471,-40.8896],[173.0655,-40.8784],[173.0605,-40.862],[173.0233,-40.8567],[173.0062,-40.8287],[173.0046,-40.8032],[172.9878,-40.7811],[172.9632,-40.784],[172.9517,-40.7991],[172.9559,-40.8123],[172.9446,-40.8271],[172.9305,-40.8084],[172.9101,-40.821],[172.8761,-40.8336],[172.8401,-40.8331],[172.8123,-40.8184],[172.798,-40.8163],[172.7888,-40.8002],[172.7733,-40.7956],[172.7333,-40.7721],[172.7011,-40.7313],[172.6788,-40.7321],[172.6764,-40.7198],[172.6889,-40.7127],[172.687,-40.6793],[172.6641,-40.6758],[172.6541,-40.659],[172.6623,-40.6427],[172.6821,-40.6515],[172.6812,-40.6172],[172.6903,-40.5936],[172.6856,-40.5839],[172.7247,-40.5422],[172.7287,-40.5292],[172.765,-40.5135],[172.8313,-40.515],[172.8929,-40.5195],[172.9407,-40.5274],[172.9775,-40.5373],[172.98,-40.5302],[172.9414,-40.5207],[172.8862,-40.5116],[172.8465,-40.5095],[172.81,-40.5037],[172.7567,-40.5087],[172.6951,-40.5008],[172.66490784313726,-40.50638431372549],[172.66487777777778,-40.50637777777778],[172.643,-40.5077],[172.6232,-40.5251],[172.613,-40.5271],[172.5831,-40.5504],[172.5502,-40.5715],[172.5538,-40.5885],[172.5848,-40.5718],[172.6255,-40.5595],[172.6311,-40.5842],[172.6165,-40.5898],[172.595,-40.5877],[172.5693,-40.5947],[172.563,-40.6058],[172.5155,-40.6276],[172.5052,-40.624],[172.5436,-40.5964],[172.5336,-40.5818],[172.5106,-40.5987],[172.4876,-40.6073],[172.482,-40.6165],[172.4478,-40.6293],[172.3893,-40.6739],[172.3801,-40.6885],[172.3467,-40.7109],[172.3229,-40.7215],[172.2925,-40.7472],[172.2605,-40.7647],[172.2167,-40.7752],[172.2119,-40.7884],[172.1727,-40.81],[172.1588,-40.8306],[172.1339,-40.8503],[172.1309,-40.8722],[172.1103,-40.8823],[172.0969,-40.9218],[172.1009,-40.9714],[172.1106,-41.0098],[172.1113,-41.0367],[172.1025,-41.0722],[172.1002,-41.0967],[172.1057,-41.1402],[172.1029,-41.1996],[172.0981,-41.2399],[172.1065,-41.2537],[172.1077,-41.2758],[172.0927,-41.283],[172.0797,-41.3378],[172.0609,-41.3881],[172.0442,-41.3977],[171.9988,-41.4414],[171.9865,-41.4456],[171.9558,-41.4979],[171.9324,-41.5259],[171.9208,-41.5489],[171.8821,-41.6007],[171.8582,-41.6243],[171.8256,-41.6488],[171.7511,-41.6913],[171.7054,-41.7247],[171.6547,-41.742],[171.6215,-41.7421],[171.5875,-41.7316],[171.5559,-41.7484],[171.5264,-41.7523],[171.5061,-41.7453],[171.4862,-41.7456],[171.4558,-41.7646],[171.4613,-41.8332],[171.4552,-41.8851],[171.4361,-41.8966],[171.4175,-41.9183],[171.3965,-42.0094],[171.3835,-42.0306],[171.3686,-42.0356],[171.3605,-42.0722],[171.338,-42.089],[171.3412,-42.0995],[171.3302,-42.1189],[171.32,-42.1579],[171.3062,-42.26],[171.2923,-42.2803],[171.2805,-42.3131],[171.2665,-42.3242],[171.2577,-42.3466],[171.2397,-42.3742],[171.2186,-42.3796],[171.2047,-42.427],[171.194,-42.4426],[171.1759,-42.491],[171.1639,-42.5142],[171.14,-42.5477],[171.1172,-42.5717],[171.0964,-42.6028],[171.0484,-42.6529],[171.0218,-42.6639],[170.9919,-42.6918],[170.9476,-42.7235],[170.9023,-42.7737],[170.876,-42.8123],[170.8596,-42.8309],[170.8384,-42.8437],[170.791,-42.8863],[170.7644,-42.8989],[170.7208,-42.9302],[170.6618,-42.9539],[170.6163,-42.983],[170.5715,-43.0036],[170.5244,-43.0174],[170.4919,-43.0156],[170.4584,-43.0227],[170.4204,-43.0362],[170.3786,-43.0732],[170.3489,-43.0937],[170.2875,-43.1089],[170.2601,-43.1081],[170.2572,-43.1192],[170.2279,-43.1448],[170.1968,-43.1887],[170.219,-43.1786],[170.2405,-43.1603],[170.2575,-43.1565],[170.2645,-43.1709],[170.2267,-43.1937],[170.2085,-43.2086],[170.2054,-43.2265],[170.19,-43.2283],[170.1668,-43.22],[170.1342,-43.2306],[170.1151,-43.2521],[170.0684,-43.2833],[170.0551,-43.2842],[170.0341,-43.3053],[170.0205,-43.3264],[169.9828,-43.3574],[169.9172,-43.3903],[169.8749,-43.3959],[169.8419,-43.3954],[169.8108,-43.4206],[169.7937,-43.4214],[169.7406,-43.4874],[169.7271,-43.4963],[169.7123,-43.5209],[169.6897,-43.5446],[169.6676,-43.5566],[169.6492,-43.5535],[169.6086,-43.5921],[169.5869,-43.6006],[169.5629,-43.6006],[169.5592,-43.5879],[169.5144,-43.6214],[169.4967,-43.6281],[169.4825,-43.6212],[169.4571,-43.6235],[169.437,-43.6327],[169.4265,-43.6253],[169.3707,-43.643],[169.3462,-43.6701],[169.3231,-43.6739],[169.2789,-43.694],[169.2679,-43.6942],[169.2331,-43.712],[169.2094,-43.7193],[169.1961,-43.7297],[169.1528,-43.7514],[169.1066,-43.7949],[169.0317,-43.8411],[169.0168,-43.8535],[168.9733,-43.8771],[168.9142,-43.8941],[168.8869,-43.9062],[168.8549,-43.9414],[168.8155,-43.9674],[168.7882,-43.9768],[168.7123,-43.9938],[168.6531,-43.9957],[168.6301,-43.9902],[168.6154,-43.9769],[168.5688,-43.9725],[168.5532,-43.9886],[168.5126,-44.0019],[168.4331,-44.0085],[168.3893,-44.0025],[168.3667,-44.0088],[168.3614,-44.0313],[168.3298,-44.0478],[168.3212,-44.0707],[168.3256,-44.0843],[168.2855,-44.1026],[168.2664,-44.1259],[168.2649,-44.1385],[168.2457,-44.158],[168.2255,-44.1603],[168.2177,-44.1706],[168.1533,-44.2024],[168.1458,-44.216],[168.1036,-44.2432],[168.0721,-44.2466],[168.0522,-44.2583],[168.0763,-44.2652],[168.1049,-44.2792],[168.1177,-44.2908],[168.0975,-44.3272],[168.0707,-44.3315],[168.054,-44.3246],[167.9978,-44.3292],[168.0084,-44.3386],[168.0053,-44.3665],[168.0484,-44.4],[168.058,-44.4123],[168.0562,-44.4315],[168.0681,-44.4483],[168.07,-44.4888],[168.0798,-44.51],[168.0555,-44.511],[168.0553,-44.4841],[168.0495,-44.451],[168.0309,-44.4367],[168.0365,-44.4113],[167.999,-44.3593],[167.9871,-44.3779],[167.9733,-44.3866],[167.9569,-44.3817],[167.9313,-44.3901],[167.9189,-44.4056],[167.8915,-44.4217],[167.8585,-44.4534],[167.8439,-44.4847],[167.8156,-44.4957],[167.8285,-44.5086],[167.8308,-44.5282],[167.8194,-44.5654],[167.8172,-44.5991],[167.856,-44.6045],[167.9035,-44.6295],[167.9219,-44.6594],[167.897,-44.6505],[167.8763,-44.637],[167.8725,-44.6256],[167.8515,-44.6127],[167.8062,-44.6031],[167.8029,-44.5912],[167.767,-44.5808],[167.75,-44.581],[167.7381,-44.6034],[167.7077,-44.6063],[167.6693,-44.6329],[167.6487,-44.6415],[167.6506,-44.6572],[167.6665,-44.6763],[167.6527,-44.6859],[167.6411,-44.6721],[167.6134,-44.6599],[167.5872,-44.6686],[167.573,-44.6851],[167.5606,-44.7179],[167.5791,-44.7258],[167.5854,-44.7379],[167.599,-44.7384],[167.6203,-44.7482],[167.6334,-44.7727],[167.6227,-44.7746],[167.5933,-44.7391],[167.588,-44.7408],[167.5697,-44.7355],[167.5544,-44.7386],[167.5321,-44.7311],[167.4998,-44.7488],[167.5073,-44.7711],[167.5458,-44.8074],[167.5103,-44.849],[167.4892,-44.8467],[167.5044,-44.8296],[167.5329,-44.8079],[167.489,-44.7774],[167.4518,-44.7743],[167.4063,-44.7955],[167.3866,-44.8123],[167.3553,-44.8247],[167.3567,-44.8481],[167.3858,-44.8849],[167.3934,-44.9208],[167.383,-44.9319],[167.4102,-44.9488],[167.4244,-44.9657],[167.4039,-44.9696],[167.3933,-44.9499],[167.3768,-44.9513],[167.3665,-44.9298],[167.3764,-44.9099],[167.3664,-44.8906],[167.3466,-44.8753],[167.3396,-44.8445],[167.3016,-44.8619],[167.2713,-44.8698],[167.2488,-44.9022],[167.2247,-44.9132],[167.2186,-44.9235],[167.1761,-44.9643],[167.151,-44.9728],[167.1369,-44.9858],[167.1114,-45.0204],[167.0593,-45.0678],[167.0496,-45.0722],[167.0265,-45.1028],[167.0108,-45.1075],[167.0023,-45.1256],[166.9742,-45.1384],[166.994,-45.166],[166.9672,-45.1925],[166.9921,-45.2376],[167.0015,-45.2415],[167.0054,-45.2733],[167.0268,-45.2859],[167.0454,-45.281],[167.1106,-45.2768],[167.121,-45.2612],[167.164,-45.2622],[167.128,-45.2829],[167.0577,-45.2939],[167.0343,-45.2932],[167.0074,-45.3144],[167.0081,-45.3212],[167.049,-45.3487],[167.0838,-45.3594],[167.1328,-45.4167],[167.1279,-45.4251],[167.1397,-45.4411],[167.1151,-45.4468],[167.1156,-45.4313],[167.0888,-45.3844],[167.0688,-45.3628],[167.0279,-45.352],[166.9834,-45.3332],[166.9694,-45.3211],[166.929,-45.3082],[166.9174,-45.3094],[166.8648,-45.2904],[166.8443,-45.277],[166.8313,-45.2975],[166.8071,-45.3111],[166.7784,-45.3469],[166.7717,-45.3786],[166.746,-45.4153],[166.7219,-45.4687],[166.7109,-45.4857],[166.7298,-45.496],[166.7177,-45.5048],[166.7,-45.5023],[166.6831,-45.5143],[166.6694,-45.5577],[166.6723,-45.5756],[166.6942,-45.5837],[166.7419,-45.5792],[166.7462,-45.5744],[166.8403,-45.5483],[166.8708,-45.5432],[166.8741,-45.5293],[166.8982,-45.5277],[166.9888,-45.497],[166.9916,-45.5013],[166.9466,-45.5245],[166.9073,-45.5307],[166.8852,-45.5393],[166.8848,-45.5514],[166.8564,-45.5595],[166.8365,-45.5591],[166.8176,-45.569],[166.7863,-45.5771],[166.7681,-45.5939],[166.7394,-45.5936],[166.7231,-45.6024],[166.7307,-45.6149],[166.7321,-45.6579],[166.7429,-45.6596],[166.7884,-45.6529],[166.8566,-45.6295],[166.8679,-45.6347],[166.91,-45.6266],[166.9062,-45.6399],[166.8407,-45.648],[166.8164,-45.6569],[166.7514,-45.6679],[166.7405,-45.677],[166.7281,-45.712],[166.7356,-45.7283],[166.7996,-45.7144],[166.8228,-45.7044],[166.8642,-45.7172],[166.8777,-45.715],[166.8995,-45.723],[166.9176,-45.7229],[166.94,-45.7106],[166.9498,-45.731],[166.9288,-45.7362],[166.8833,-45.738],[166.8511,-45.76],[166.8377,-45.7636],[166.8042,-45.7598],[166.754,-45.7654],[166.741,-45.771],[166.6992,-45.7764],[166.6217,-45.7911],[166.6033,-45.8012],[166.5707,-45.7887],[166.5284,-45.7931],[166.4792,-45.8082],[166.4524,-45.8218],[166.4357,-45.8394],[166.43,-45.8579],[166.4331,-45.9076],[166.4515,-45.9423],[166.4499,-45.9935],[166.4916,-46.0018],[166.5533,-45.979],[166.5843,-45.9746],[166.6175,-45.9544],[166.6442,-45.914],[166.6659,-45.903],[166.6754,-45.9134],[166.6582,-45.9231],[166.6473,-45.949],[166.7054,-45.9571],[166.742,-45.9438],[166.7657,-45.9444],[166.7488,-45.9633],[166.7184,-45.9701],[166.6931,-45.9685],[166.6396,-45.978],[166.6189,-45.9875],[166.6085,-46.0104],[166.599,-46.0159],[166.5973,-46.0417],[166.5834,-46.0402],[166.587,-46.0789],[166.6047,-46.0742],[166.6153,-46.0601],[166.6451,-46.0749],[166.6736,-46.0518],[166.6846,-46.0517],[166.7181,-46.021],[166.7242,-46.0263],[166.6986,-46.0506],[166.7068,-46.0713],[166.734,-46.0514],[166.7651,-46.0514],[166.7661,-46.0411],[166.7375,-46.0159],[166.7543,-45.9959],[166.7864,-45.9867],[166.7838,-45.9799],[166.8503,-45.969],[166.8549,-45.9812],[166.8258,-45.9925],[166.7737,-46.0013],[166.7684,-46.0192],[166.7817,-46.0424],[166.7716,-46.0582],[166.7247,-46.0715],[166.7081,-46.0917],[166.7162,-46.1074],[166.708,-46.1154],[166.6861,-46.1138],[166.6426,-46.1346],[166.6167,-46.1538],[166.6402,-46.1723],[166.6406,-46.1837],[166.6587,-46.2019],[166.6922,-46.2123],[166.7021,-46.2066],[166.7296,-46.2131],[166.7988,-46.2192],[166.8197,-46.2122],[166.861,-46.2128],[166.8812,-46.2182],[166.9547,-46.2235],[166.9683,-46.2298],[166.998,-46.2312],[167.0186,-46.2272],[167.0863,-46.247],[167.1122,-46.2567],[167.1241,-46.2505],[167.2169,-46.2626],[167.2562,-46.2469],[167.2868,-46.2453],[167.3207,-46.2543],[167.3416,-46.2505],[167.3599,-46.2376],[167.3619,-46.2116],[167.3523,-46.1951],[167.3922,-46.1783],[167.4029,-46.1521],[167.4516,-46.1485],[167.4894,-46.1519],[167.5207,-46.1585],[167.6113,-46.1913],[167.6484,-46.2122],[167.6591,-46.2222],[167.7082,-46.2544],[167.7326,-46.2833],[167.7299,-46.2988],[167.6877,-46.3148],[167.6908,-46.3299],[167.7197,-46.3303],[167.7393,-46.3431],[167.732,-46.3599],[167.783,-46.3889],[167.8029,-46.3852],[167.8147,-46.3713],[167.8485,-46.3718],[167.8626,-46.387],[167.8837,-46.3916],[167.8776,-46.3724],[167.8935,-46.3604],[167.9142,-46.357],[167.9473,-46.3611],[167.9788,-46.3755],[168.0304,-46.3847],[168.0221,-46.3599],[167.9814,-46.3393],[168.017,-46.3356],[168.0209,-46.3571],[168.0453,-46.3439],[168.0881,-46.3389],[168.141,-46.353],[168.1811,-46.3778],[168.2253,-46.4294],[168.2349,-46.452],[168.2637,-46.4924],[168.2777,-46.4984],[168.3042,-46.4948],[168.2933,-46.4702],[168.3273,-46.4494],[168.3117,-46.4295],[168.3398,-46.418],[168.3494,-46.4319],[168.3548,-46.463],[168.3705,-46.4786],[168.3614,-46.4963],[168.3472,-46.4971],[168.3164,-46.5106],[168.2865,-46.5175],[168.2974,-46.5332],[168.2748,-46.5375],[168.2823,-46.5189],[168.2347,-46.5137],[168.2241,-46.5235],[168.2435,-46.5509],[168.2669,-46.5565],[168.2728,-46.579],[168.2849,-46.5902],[168.31,-46.5939],[168.3303,-46.6251],[168.3516,-46.6219],[168.3602,-46.6122],[168.3443,-46.5973],[168.315,-46.5936],[168.3,-46.5672],[168.3006,-46.5481],[168.3304,-46.5464],[168.3532,-46.5364],[168.3743,-46.5693],[168.4062,-46.5611],[168.4503,-46.5603],[168.5156,-46.5743],[168.5295,-46.5918],[168.5193,-46.5985],[168.483,-46.5911],[168.439,-46.5872],[168.4137,-46.5791],[168.3767,-46.5829],[168.3871,-46.5947],[168.4296,-46.606],[168.4939,-46.6102],[168.5185,-46.6069],[168.592,-46.5864],[168.556,-46.5599],[168.603,-46.5519],[168.6238,-46.561],[168.675,-46.5707],[168.7032,-46.5687],[168.7618,-46.5731],[168.798,-46.5828],[168.8038,-46.5927],[168.8315,-46.6086],[168.8263,-46.6271],[168.8299,-46.6434],[168.847,-46.6608],[168.8955,-46.6548],[168.9387,-46.6572],[168.9633,-46.6697],[168.9956,-46.6679],[169.0179,-46.6722],[169.0372,-46.6608],[169.0565,-46.6717],[169.1037,-46.6603],[169.112,-46.6443],[169.1397,-46.6375],[169.1299,-46.6083],[169.165,-46.624],[169.1501,-46.6336],[169.151,-46.646],[169.1697,-46.6574],[169.1942,-46.6523],[169.2203,-46.6563],[169.2396,-46.636],[169.2498,-46.6405],[169.269,-46.624],[169.3007,-46.6238],[169.3535,-46.6381],[169.3555,-46.6216],[169.3793,-46.607],[169.4048,-46.6124],[169.4309,-46.6001],[169.4434,-46.5819],[169.4677,-46.5807],[169.477,-46.5611],[169.5073,-46.5565],[169.5753,-46.5645],[169.612,-46.558],[169.6169,-46.5403],[169.6524,-46.539],[169.6665,-46.5283],[169.699,-46.519],[169.6928,-46.51],[169.7113,-46.5013],[169.72024090909093,-46.4859]]]]},"properties":{"GID_0":"NZL","ISO_A2":"NZ","ISO_A3":"NZL","NAME_EN":"New Zealand","NAME_IT":"Nuova Zelanda"}}
]}