{"type":"FeatureCollection", "features": [
{"type":"Feature","geometry":{"type":"MultiPolygon","coordinates":[[[[119.4072,4.6825],[119.4211,4.7619],[119.4008,4.7522],[119.4075,4.7281],[119.3933,4.7022],[119.4072,4.6825]]],[[[119.8675,4.8033],[119.8322,4.8225],[119.8078,4.8161],[119.8133,4.7989],[119.8336,4.7908],[119.8658,4.7933],[119.8675,4.8033]]],[[[119.8242,4.8553],[119.8531,4.8647],[119.8503,4.8933],[119.8208,4.9242],[119.7936,4.9242],[119.7919,4.8894],[119.8022,4.8575],[119.8242,4.8553]]],[[[119.4706,4.6539],[119.4883,4.6897],[119.5065,4.7501],[119.4972,4.8267],[119.4789,4.8772],[119.4631,4.9075],[119.445,4.9072],[119.4461,4.8806],[119.4594,4.8317],[119.4658,4.7908],[119.4656,4.744],[119.4556,4.6861],[119.4547,4.6506],[119.4706,4.6539]]],[[[120.186,5.0257],[120.2138,5.016],[120.2289,5.0331],[120.2091,5.0454],[120.186,5.0257]]],[[[119.9897,4.9567],[120.0064,4.9621],[120.0227,5.0068],[120.0051,5.0123],[119.9861,4.9812],[119.9897,4.9567]]],[[[119.7675,5.0114],[119.7583,5.0353],[119.7389,5.0325],[119.7419,5.0069],[119.7675,5.0114]]],[[[120.2693,5.0926],[120.3023,5.0918],[120.3167,5.1074],[120.3086,5.1281],[120.2733,5.1041],[120.2693,5.0926]]],[[[119.7514,5.0347],[119.7839,5.0411],[119.8172,5.0592],[119.8042,5.1192],[119.7644,5.0933],[119.7408,5.0489],[119.7514,5.0347]]],[[[120.3212,5.128],[120.3337,5.1197],[120.3475,5.1429],[120.3404,5.1633],[120.3221,5.1529],[120.3212,5.128]]],[[[125.3822,5.3706],[125.4267,5.3748],[125.4276,5.422],[125.3917,5.4364],[125.3697,5.4292],[125.3461,5.4006],[125.364,5.3667],[125.3822,5.3706]]],[[[120.5913,5.4313],[120.5696,5.4182],[120.5889,5.4006],[120.6073,5.4146],[120.5913,5.4313]]],[[[125.49,5.4289],[125.4997,5.4681],[125.4781,5.4961],[125.4558,5.4506],[125.4642,5.3928],[125.4797,5.3947],[125.49,5.4289]]],[[[120.8248,5.4625],[120.838,5.4851],[120.8152,5.5156],[120.8038,5.4816],[120.8248,5.4625]]],[[[120.7778,5.4869],[120.8011,5.476],[120.8053,5.4966],[120.8007,5.5169],[120.7878,5.5108],[120.7778,5.4869]]],[[[120.2975,5.1837],[120.3139,5.2009],[120.3091,5.2227],[120.2725,5.2571],[120.2617,5.2495],[120.2588,5.2193],[120.2452,5.1919],[120.2975,5.1837]]],[[[120.3439,5.1833],[120.3573,5.2309],[120.3322,5.2267],[120.331,5.1969],[120.3439,5.1833]]],[[[119.8206,5.059],[119.8394,5.0477],[119.8608,5.0471],[119.9228,5.0866],[119.9425,5.0881],[119.9613,5.077],[119.9848,5.1157],[120.0003,5.1314],[120.0028,5.1511],[120.04,5.1814],[120.0586,5.1608],[120.0972,5.1511],[120.1219,5.1981],[120.1536,5.1814],[120.1892,5.1822],[120.1672,5.1536],[120.1731,5.1431],[120.2036,5.1344],[120.2189,5.1472],[120.2258,5.1703],[120.2389,5.1797],[120.2389,5.2078],[120.2305,5.2338],[120.2539,5.2761],[120.2153,5.3019],[120.2214,5.3272],[120.2097,5.3492],[120.1718,5.3432],[120.1176,5.3022],[120.0764,5.2797],[120.0511,5.2531],[120.0161,5.2314],[119.9794,5.2372],[119.9582,5.2228],[119.9415,5.1889],[119.9051,5.1755],[119.8881,5.1581],[119.8571,5.1492],[119.8395,5.1544],[119.8111,5.1251],[119.8251,5.1111],[119.8163,5.0821],[119.8206,5.059]]],[[[117.053,7.8353],[117.0778,7.8714],[117.0686,7.8975],[117.0872,7.9083],[117.0753,7.9908],[117.0807,8.0469],[117.0717,8.0767],[117.0519,8.0758],[117.0035,8.0562],[116.9956,8.0346],[116.9592,8.0126],[116.9667,7.9519],[116.9444,7.9308],[116.9678,7.8947],[116.9883,7.8489],[116.9978,7.8089],[117.0236,7.8044],[117.053,7.8353]]],[[[117.0383,8.128],[117.0248,8.1288],[116.9897,8.0986],[117.0162,8.0713],[117.0618,8.0831],[117.051,8.118],[117.0383,8.128]]],[[[117.0989,8.2472],[117.08,8.2454],[117.082,8.2186],[117.1157,8.2124],[117.1173,8.2391],[117.0989,8.2472]]],[[[117.1484,8.1778],[117.1485,8.1513],[117.2012,8.1511],[117.1883,8.1789],[117.1484,8.1778]]],[[[124.0411,7.3292],[124.0728,7.3578],[124.0658,7.3744],[124.0158,7.3258],[124.0175,7.3008],[124.0458,7.3136],[124.0411,7.3292]]],[[[122.8375,7.2844],[122.8567,7.3111],[122.8911,7.3153],[122.9189,7.3483],[122.9219,7.3631],[122.943,7.3731],[122.9442,7.4122],[122.9294,7.4281],[122.8961,7.4375],[122.8872,7.4275],[122.8856,7.3797],[122.8608,7.3875],[122.8603,7.4117],[122.8255,7.4392],[122.8056,7.4297],[122.7989,7.3806],[122.7878,7.3442],[122.8022,7.3317],[122.8072,7.2917],[122.8375,7.2844]]],[[[125.9561,9.8903],[125.9381,9.8853],[125.925,9.8653],[125.947,9.85],[125.9675,9.8658],[125.9606,9.8739],[125.9561,9.8903]]],[[[123.7688,9.8611],[123.7922,9.8864],[123.7594,9.89],[123.7688,9.8611]]],[[[117.323,8.1908],[117.3463,8.2097],[117.3422,8.2534],[117.3522,8.2897],[117.3435,8.3075],[117.312,8.33],[117.2955,8.3155],[117.27,8.3138],[117.2664,8.2859],[117.2708,8.2446],[117.2629,8.2091],[117.2957,8.1791],[117.323,8.1908]]],[[[117.2367,8.3158],[117.2228,8.3154],[117.1751,8.2842],[117.1758,8.2556],[117.2199,8.2621],[117.2561,8.2881],[117.2587,8.3141],[117.2367,8.3158]]],[[[118.4419,9.2447],[118.4253,9.2132],[118.4542,9.215],[118.4419,9.2447]]],[[[124.7414,9.1033],[124.7589,9.0822],[124.7822,9.0839],[124.8031,9.1038],[124.8066,9.1218],[124.7788,9.2037],[124.7593,9.2153],[124.7294,9.2503],[124.7017,9.2578],[124.6687,9.2502],[124.643,9.2329],[124.6343,9.2168],[124.6352,9.1699],[124.6532,9.1392],[124.6911,9.1114],[124.7414,9.1033]]],[[[126.0281,9.7027],[126.0684,9.7068],[126.0576,9.7321],[126.0304,9.7321],[126.0068,9.7075],[125.9908,9.73],[125.9661,9.7144],[125.9728,9.6925],[126.0281,9.7027]]],[[[123.8678,9.6254],[123.8331,9.6441],[123.8077,9.6279],[123.7733,9.6183],[123.7337,9.5844],[123.7655,9.5456],[123.805,9.5556],[123.8387,9.586],[123.863,9.5946],[123.8678,9.6254]]],[[[125.9684,9.5811],[125.9656,9.6154],[125.988,9.6447],[125.9856,9.6839],[125.962,9.6878],[125.9597,9.7219],[125.9328,9.7606],[125.9181,9.7535],[125.9058,9.72],[125.9269,9.67],[125.9017,9.6381],[125.8983,9.6186],[125.9106,9.6081],[125.9128,9.5822],[125.9351,9.5771],[125.9514,9.5619],[125.9684,9.5811]]],[[[123.4989,9.1503],[123.5262,9.1335],[123.5594,9.1011],[123.5883,9.0946],[123.6227,9.1018],[123.6358,9.1239],[123.6566,9.115],[123.681,9.121],[123.7019,9.1449],[123.6738,9.1609],[123.6562,9.1889],[123.6675,9.2105],[123.6671,9.2309],[123.6488,9.2753],[123.6333,9.2947],[123.6027,9.3009],[123.5974,9.2675],[123.5597,9.2267],[123.5244,9.2258],[123.5108,9.2145],[123.4707,9.2244],[123.4578,9.2111],[123.4531,9.1867],[123.4989,9.1503]]],[[[125.6098,9.7528],[125.5928,9.7512],[125.5919,9.7284],[125.6117,9.7311],[125.6098,9.7528]]],[[[125.725,9.7867],[125.6958,9.7925],[125.7013,9.7638],[125.7258,9.7609],[125.725,9.7867]]],[[[120.7837,5.5043],[120.7858,5.512],[120.7973,5.5171],[120.8051,5.5306],[120.8096,5.5618],[120.7947,5.5696],[120.766,5.5619],[120.7451,5.5181],[120.7721,5.496],[120.7837,5.5043]]],[[[120.8556,5.4902],[120.8798,5.4975],[120.9039,5.5329],[120.8671,5.5848],[120.8303,5.581],[120.8207,5.5714],[120.8148,5.5359],[120.8259,5.5157],[120.8556,5.4902]]],[[[120.9293,5.7481],[120.8993,5.7562],[120.8892,5.7462],[120.8802,5.7076],[120.8895,5.695],[120.9236,5.706],[120.9356,5.7306],[120.9293,5.7481]]],[[[121.1766,5.8421],[121.1462,5.8497],[121.1307,5.8137],[121.1383,5.7887],[121.1619,5.7792],[121.2006,5.7953],[121.2074,5.8126],[121.1766,5.8421]]],[[[120.1164,5.9459],[120.118,5.9804],[120.0999,5.99],[120.0897,5.9749],[120.1013,5.9505],[120.1164,5.9459]]],[[[121.5906,5.9742],[121.5788,5.9794],[121.5584,5.9566],[121.5726,5.9316],[121.597,5.952],[121.5906,5.9742]]],[[[121.6878,6.0564],[121.6734,6.0567],[121.6822,6.0217],[121.6571,6.0045],[121.6686,5.9878],[121.6934,5.9954],[121.7085,6.0228],[121.6878,6.0564]]],[[[121.5568,6.0159],[121.5405,6.0378],[121.521,5.9962],[121.5568,6.0159]]],[[[121.4255,6.0504],[121.3983,6.0542],[121.3798,6.0297],[121.3879,6.0163],[121.4272,6.0158],[121.4338,6.0293],[121.4255,6.0504]]],[[[121.8192,6.1194],[121.8478,6.1175],[121.8556,6.1314],[121.8397,6.1486],[121.8167,6.1358],[121.8192,6.1194]]],[[[120.5433,6.1428],[120.5297,6.1269],[120.5425,6.1119],[120.557,6.1242],[120.5433,6.1428]]],[[[121.805,6.0531],[121.7733,6.0905],[121.7558,6.0781],[121.7761,6.0533],[121.8022,6.0409],[121.8044,6.0294],[121.8556,5.9981],[121.8789,6.0011],[121.911,6.0184],[121.8967,6.03],[121.8632,6.02],[121.8172,6.0408],[121.805,6.0531]]],[[[120.9461,5.8936],[120.9789,5.9036],[121.0248,5.9295],[121.0756,5.8776],[121.0856,5.8917],[121.1622,5.9244],[121.1714,5.9433],[121.1895,5.9475],[121.2314,5.9411],[121.2426,5.9281],[121.2368,5.8924],[121.255,5.8939],[121.2906,5.8638],[121.32,5.8947],[121.3609,5.9171],[121.3792,5.9055],[121.3875,5.9403],[121.4069,5.9408],[121.4269,5.9651],[121.4184,5.9952],[121.3938,6.0104],[121.3312,6.0009],[121.2797,6.0194],[121.248,6.015],[121.219,5.9958],[121.2063,5.9961],[121.1859,6.0208],[121.1817,6.0403],[121.1611,6.0592],[121.1542,6.0778],[121.1219,6.0911],[121.0869,6.0858],[121.0592,6.0912],[121.0139,6.0847],[121.0058,6.061],[120.9781,6.0439],[120.9203,6.0269],[120.8978,6.0056],[120.8878,5.9747],[120.8733,5.9553],[120.8803,5.92],[120.9111,5.9089],[120.9219,5.8917],[120.9461,5.8936]]],[[[121.9542,6.3397],[121.9844,6.3382],[121.9789,6.3597],[121.9542,6.3397]]],[[[120.6625,6.3125],[120.6208,6.2669],[120.6442,6.2536],[120.6633,6.2783],[120.6625,6.3125]]],[[[121.965,6.2881],[121.9892,6.2875],[121.9892,6.3081],[121.9625,6.3131],[121.965,6.2881]]],[[[120.5808,6.2661],[120.5822,6.3108],[120.6028,6.3914],[120.5711,6.3856],[120.5561,6.3733],[120.5356,6.3],[120.5114,6.2603],[120.4861,6.2731],[120.4772,6.2553],[120.5142,6.2492],[120.5353,6.2389],[120.5703,6.2456],[120.5808,6.2661]]],[[[120.8683,6.3408],[120.8464,6.3372],[120.8419,6.3094],[120.8578,6.3078],[120.8761,6.3217],[120.8683,6.3408]]],[[[120.7144,6.4308],[120.7103,6.4381],[120.6667,6.415],[120.6761,6.4022],[120.7117,6.3972],[120.7144,6.4308]]],[[[118.5164,6.9789],[118.5272,7.0283],[118.5017,7.0492],[118.4758,7.0321],[118.4536,7.0364],[118.4242,7.0233],[118.4269,6.9967],[118.4505,6.9808],[118.4853,6.9772],[118.5083,6.9676],[118.5164,6.9789]]],[[[125.7215,6.9151],[125.7086,6.9553],[125.6821,6.9614],[125.6685,6.947],[125.6915,6.9035],[125.7135,6.8974],[125.7215,6.9151]]],[[[125.7603,6.8979],[125.7933,6.9384],[125.7875,6.9943],[125.7767,7.0233],[125.783,7.0878],[125.7973,7.1134],[125.786,7.1391],[125.7608,7.1638],[125.7281,7.1744],[125.721,7.193],[125.6942,7.1884],[125.6807,7.1265],[125.6637,7.1082],[125.6715,7.0711],[125.6955,7.0764],[125.7119,7.0689],[125.7219,7.0431],[125.7282,6.9806],[125.7231,6.9645],[125.7603,6.8979]]],[[[122.2307,6.9636],[122.2657,6.9535],[122.2858,6.9786],[122.2719,6.9991],[122.2156,6.9803],[122.2076,6.938],[122.2327,6.9476],[122.2307,6.9636]]],[[[122.0447,6.4136],[122.0907,6.4331],[122.1492,6.4497],[122.1811,6.4522],[122.1961,6.4667],[122.1994,6.4933],[122.1914,6.5208],[122.2028,6.5328],[122.2083,6.5689],[122.2261,6.5915],[122.2553,6.5883],[122.3156,6.5975],[122.3281,6.6244],[122.3067,6.6453],[122.2589,6.6453],[122.235,6.6661],[122.2236,6.6619],[122.1895,6.67],[122.1711,6.6647],[122.1438,6.67],[122.1364,6.7169],[122.115,6.7225],[122.0969,6.7133],[122.0711,6.7506],[122.0331,6.7411],[122.0137,6.7462],[121.9917,6.7367],[121.9794,6.7144],[121.9525,6.7],[121.9292,6.6689],[121.9079,6.6733],[121.8875,6.6567],[121.8447,6.6828],[121.8138,6.6646],[121.7936,6.6281],[121.7952,6.6017],[121.8244,6.5831],[121.8511,6.5881],[121.8789,6.5539],[121.8651,6.5257],[121.8727,6.5],[121.9061,6.4725],[121.9206,6.4503],[121.9514,6.4272],[121.9564,6.4063],[122.0447,6.4136]]],[[[121.6237,6.5848],[121.6229,6.6121],[121.6076,6.6351],[121.616,6.6593],[121.6043,6.679],[121.5641,6.7042],[121.558,6.6928],[121.5879,6.676],[121.5843,6.6646],[121.6012,6.6409],[121.5993,6.6243],[121.6237,6.5848]]],[[[121.9531,6.7142],[121.9725,6.7131],[121.9814,6.7286],[121.9764,6.7539],[121.9547,6.7453],[121.9406,6.7286],[121.9531,6.7142]]],[[[121.8105,6.1317],[121.8317,6.1492],[121.818,6.1769],[121.7947,6.1517],[121.8105,6.1317]]],[[[120.4292,6.1669],[120.4167,6.15],[120.4511,6.1331],[120.4644,6.1567],[120.4569,6.1733],[120.4292,6.1669]]],[[[120.9742,6.2028],[120.9569,6.1917],[120.9647,6.1722],[120.9858,6.1775],[120.9742,6.2028]]],[[[121.0722,5.6764],[121.069,5.6947],[121.0449,5.6883],[121.019,5.6714],[121.0439,5.6578],[121.0722,5.6764]]],[[[120.8412,5.6645],[120.8614,5.6704],[120.889,5.6919],[120.839,5.7101],[120.8033,5.6932],[120.797,5.6684],[120.8412,5.6645]]],[[[125.3142,5.5725],[125.3392,5.5634],[125.3547,5.5683],[125.3856,5.5589],[125.4134,5.5721],[125.4311,5.6122],[125.4744,5.6669],[125.4841,5.6961],[125.5132,5.7503],[125.5228,5.7542],[125.5481,5.7911],[125.5651,5.8002],[125.6028,5.8603],[125.6253,5.8711],[125.6294,5.8894],[125.6642,5.9472],[125.6864,5.9714],[125.6934,6.0173],[125.702,6.0249],[125.7017,6.0764],[125.7151,6.1028],[125.7034,6.1219],[125.7127,6.1705],[125.6998,6.2174],[125.685,6.2523],[125.6739,6.2571],[125.6542,6.3247],[125.6394,6.3608],[125.6195,6.3875],[125.6206,6.4047],[125.5808,6.428],[125.5898,6.4898],[125.564,6.5061],[125.5662,6.531],[125.5158,6.53],[125.5167,6.5531],[125.4824,6.5714],[125.4789,6.5828],[125.4463,6.6091],[125.4433,6.5781],[125.4306,6.5802],[125.4024,6.6035],[125.3594,6.6006],[125.3811,6.6286],[125.384,6.6725],[125.3729,6.726],[125.3913,6.7547],[125.3836,6.7678],[125.398,6.8121],[125.419,6.8327],[125.4198,6.8483],[125.4523,6.8709],[125.4556,6.8931],[125.4894,6.9201],[125.4867,6.98],[125.5388,7.041],[125.5633,7.0461],[125.5746,7.0379],[125.6091,7.0469],[125.6278,7.0827],[125.6493,7.0956],[125.6642,7.1253],[125.6558,7.1803],[125.6484,7.1994],[125.6484,7.2374],[125.697,7.2925],[125.7336,7.3097],[125.7551,7.332],[125.7894,7.3458],[125.8211,7.3664],[125.8512,7.3614],[125.8475,7.2925],[125.8379,7.253],[125.873,7.205],[125.8739,7.1829],[125.8925,7.1656],[125.884,7.1257],[125.9089,7.0928],[125.9283,7.0877],[125.9571,7.0651],[125.9467,7.057],[125.9807,7.0302],[125.9881,7],[125.9719,6.9514],[125.9767,6.9286],[125.9989,6.896],[126.0383,6.8658],[126.0743,6.8553],[126.0858,6.8047],[126.0754,6.7735],[126.0792,6.7513],[126.0969,6.7375],[126.0858,6.7019],[126.0927,6.6836],[126.0697,6.6617],[126.0689,6.6492],[126.0913,6.5842],[126.0836,6.5311],[126.1003,6.4846],[126.1173,6.4554],[126.1502,6.4187],[126.1433,6.3744],[126.1635,6.3722],[126.1886,6.3316],[126.1994,6.3381],[126.1981,6.3894],[126.2131,6.4245],[126.2281,6.4356],[126.2136,6.4777],[126.2151,6.5172],[126.2293,6.5299],[126.2242,6.5932],[126.2275,6.6169],[126.2198,6.6347],[126.2303,6.6706],[126.2506,6.7031],[126.2454,6.7187],[126.2611,6.754],[126.2299,6.7977],[126.2066,6.8196],[126.1831,6.854],[126.1775,6.8998],[126.1853,6.9333],[126.2102,6.9533],[126.2424,6.9355],[126.269,6.9025],[126.2771,6.8841],[126.3005,6.8627],[126.288,6.822],[126.3006,6.8078],[126.3333,6.7975],[126.3531,6.8075],[126.3459,6.8224],[126.3475,6.8519],[126.323,6.8811],[126.2906,6.9044],[126.2835,6.9299],[126.3097,6.9389],[126.3164,6.9778],[126.34,7.0064],[126.366,6.9923],[126.3986,6.9905],[126.4142,7.0039],[126.4587,6.9945],[126.4457,7.0189],[126.4518,7.0563],[126.4683,7.0603],[126.4668,7.0867],[126.4836,7.1133],[126.5169,7.1243],[126.532,7.1471],[126.5238,7.1695],[126.5364,7.2088],[126.5617,7.2028],[126.6053,7.2896],[126.5666,7.2878],[126.554,7.3201],[126.5675,7.3417],[126.5542,7.3505],[126.5568,7.3998],[126.5486,7.4261],[126.5579,7.4472],[126.595,7.4489],[126.5992,7.5015],[126.5731,7.5747],[126.5578,7.5779],[126.5649,7.618],[126.5525,7.6364],[126.5514,7.6969],[126.5703,7.7183],[126.5342,7.7388],[126.5011,7.7378],[126.4833,7.7542],[126.4497,7.8025],[126.4237,7.811],[126.4163,7.8277],[126.3836,7.8297],[126.3738,7.8522],[126.3831,7.8656],[126.3596,7.8854],[126.3596,7.9089],[126.3739,7.9414],[126.3875,7.9542],[126.4125,7.9597],[126.4336,7.9847],[126.412,7.9966],[126.4211,8.0616],[126.4412,8.0947],[126.4289,8.1128],[126.4398,8.1249],[126.4342,8.1568],[126.4451,8.1653],[126.4445,8.2162],[126.4569,8.2444],[126.4006,8.2167],[126.3908,8.2036],[126.3397,8.1847],[126.315,8.2278],[126.333,8.2463],[126.3613,8.263],[126.385,8.285],[126.3772,8.3089],[126.3308,8.3142],[126.3289,8.345],[126.3572,8.3695],[126.3708,8.3922],[126.3764,8.4286],[126.3497,8.4334],[126.3608,8.4592],[126.3911,8.4694],[126.3839,8.4825],[126.3897,8.5108],[126.3522,8.5189],[126.3636,8.5373],[126.3542,8.5486],[126.3333,8.5356],[126.2958,8.5344],[126.2589,8.5514],[126.2277,8.5508],[126.2122,8.5417],[126.2119,8.5228],[126.16,8.5414],[126.1547,8.5281],[126.1236,8.5436],[126.1147,8.5708],[126.1253,8.5825],[126.0981,8.6019],[126.0958,8.6417],[126.1272,8.6539],[126.1367,8.6703],[126.1719,8.6803],[126.1872,8.6978],[126.2133,8.6908],[126.2179,8.739],[126.2375,8.74],[126.2386,8.7625],[126.3042,8.7875],[126.3067,8.8122],[126.3309,8.8494],[126.3236,8.8703],[126.3222,8.9214],[126.3054,8.9264],[126.3114,8.9475],[126.2853,8.9772],[126.2472,9],[126.2374,9.0211],[126.2123,9.0481],[126.2013,9.0814],[126.1826,9.0778],[126.1619,9.0941],[126.1587,9.1117],[126.1794,9.1608],[126.1799,9.2365],[126.1974,9.2707],[126.2021,9.3087],[126.1683,9.3084],[126.1381,9.2712],[126.0912,9.2441],[126.0556,9.2327],[126.0409,9.2437],[125.9978,9.2981],[125.9797,9.3331],[125.9669,9.3792],[125.9428,9.3706],[125.9302,9.3883],[125.8943,9.4138],[125.9312,9.457],[125.9178,9.4953],[125.8886,9.4906],[125.8606,9.5347],[125.7824,9.553],[125.7408,9.5656],[125.739,9.5818],[125.7099,9.5975],[125.6657,9.6004],[125.6408,9.6094],[125.6061,9.64],[125.6011,9.6783],[125.5918,9.6899],[125.5902,9.7197],[125.5572,9.7536],[125.5605,9.7764],[125.5406,9.7797],[125.5075,9.7669],[125.4966,9.7912],[125.4581,9.8014],[125.4031,9.7697],[125.3944,9.7283],[125.3959,9.6899],[125.3909,9.6561],[125.4094,9.5825],[125.4219,9.5557],[125.4369,9.4846],[125.4536,9.4481],[125.4503,9.4211],[125.4614,9.4164],[125.4614,9.3842],[125.4821,9.3543],[125.5035,9.3016],[125.5089,9.2656],[125.5047,9.2447],[125.5302,9.1941],[125.5208,9.1647],[125.5219,9.1197],[125.535,9.0722],[125.5039,9.0114],[125.4736,8.9942],[125.4275,8.9756],[125.3957,8.984],[125.3404,8.99],[125.2793,8.9921],[125.2214,9.0664],[125.2197,9.087],[125.193,9.0858],[125.1839,9.07],[125.185,9.0283],[125.1726,9.0138],[125.1872,8.9505],[125.1852,8.8956],[125.1685,8.8763],[125.1672,8.8517],[125.0919,8.8275],[125.0703,8.8343],[125.0659,8.8574],[125.0434,8.8762],[125.0246,8.902],[125.0241,8.9191],[124.9913,8.9304],[124.9708,8.9517],[124.9425,8.9692],[124.9061,8.9825],[124.8769,9.0049],[124.8219,9.0057],[124.8019,8.9981],[124.7717,8.9656],[124.7731,8.9425],[124.7844,8.9167],[124.7889,8.8767],[124.7886,8.8186],[124.7656,8.7758],[124.7636,8.7614],[124.7781,8.7339],[124.7445,8.7047],[124.7386,8.6725],[124.7478,8.6422],[124.7619,8.6417],[124.7603,8.6089],[124.7711,8.5944],[124.747,8.567],[124.7407,8.5306],[124.7531,8.5139],[124.745,8.4964],[124.7186,8.4783],[124.6986,8.4731],[124.6667,8.4836],[124.6617,8.5072],[124.6153,8.5208],[124.5778,8.5192],[124.5694,8.5389],[124.5436,8.5411],[124.5114,8.5736],[124.4697,8.5948],[124.4794,8.6189],[124.4547,8.625],[124.4033,8.5964],[124.3853,8.5936],[124.3392,8.5508],[124.3117,8.5361],[124.3067,8.5053],[124.2836,8.4622],[124.2883,8.4428],[124.2828,8.3958],[124.2622,8.3778],[124.2575,8.3411],[124.2464,8.3328],[124.2639,8.2787],[124.2447,8.2578],[124.2294,8.2175],[124.2028,8.211],[124.1897,8.1972],[124.1536,8.185],[124.1003,8.1928],[124.0175,8.1978],[124.0075,8.1861],[123.9599,8.1708],[123.9315,8.153],[123.9137,8.125],[123.8687,8.1038],[123.8481,8.1121],[123.8341,8.0857],[123.8073,8.0732],[123.7801,8.0451],[123.7435,7.9952],[123.6956,7.9806],[123.672,7.9541],[123.6539,7.955],[123.6439,7.9925],[123.6612,8.0279],[123.6935,8.0485],[123.7217,8.0451],[123.7576,8.0575],[123.7852,8.0808],[123.8323,8.1395],[123.8464,8.1379],[123.8661,8.1594],[123.8687,8.1865],[123.8622,8.2347],[123.8489,8.2551],[123.8481,8.3124],[123.8633,8.3217],[123.8468,8.3479],[123.8451,8.3815],[123.8354,8.4047],[123.8369,8.4304],[123.816,8.4544],[123.8171,8.4765],[123.788,8.5012],[123.7833,8.5352],[123.7598,8.5587],[123.7311,8.603],[123.6867,8.6415],[123.6556,8.6364],[123.6237,8.6437],[123.6091,8.6702],[123.5761,8.6175],[123.5272,8.6294],[123.5128,8.6214],[123.4881,8.6431],[123.4858,8.6572],[123.508,8.6819],[123.4954,8.701],[123.475,8.6822],[123.4586,8.6894],[123.4361,8.7158],[123.3793,8.7268],[123.3785,8.7046],[123.406,8.6945],[123.4021,8.6758],[123.4202,8.6633],[123.4157,8.6471],[123.394,8.6275],[123.3706,8.6436],[123.3508,8.6314],[123.3305,8.5629],[123.2995,8.5194],[123.2805,8.5129],[123.1827,8.5331],[123.1431,8.5243],[123.0637,8.5155],[123.0224,8.4719],[123.0084,8.4283],[122.9799,8.4139],[122.9797,8.3772],[122.9897,8.35],[122.9788,8.3219],[122.9364,8.3072],[122.9478,8.2797],[122.9667,8.2608],[122.9947,8.25],[122.9958,8.2142],[122.945,8.1706],[122.9069,8.1442],[122.8561,8.1406],[122.8131,8.1208],[122.7592,8.1133],[122.7197,8.1119],[122.6858,8.1208],[122.6614,8.1622],[122.6372,8.1344],[122.6282,8.1126],[122.5989,8.1017],[122.5836,8.0831],[122.545,8.075],[122.5214,8.0758],[122.5103,8.065],[122.4619,8.0722],[122.3989,8.0472],[122.3594,8.0428],[122.3197,8.0189],[122.2956,8.0139],[122.2508,7.9853],[122.2217,7.9536],[122.2333,7.931],[122.2264,7.9083],[122.2047,7.8844],[122.1602,7.8585],[122.1425,7.8075],[122.1246,7.7982],[122.1197,7.7769],[122.0901,7.7448],[122.0942,7.7296],[122.1165,7.7224],[122.1329,7.6778],[122.1361,7.6525],[122.1216,7.6111],[122.1053,7.5962],[122.139,7.5623],[122.113,7.5513],[122.1024,7.5357],[122.0736,7.5236],[122.0748,7.4884],[122.0589,7.4386],[122.0571,7.4001],[122.0297,7.3583],[122.0371,7.3264],[122.065,7.3133],[122.0599,7.2881],[122.0122,7.2789],[122,7.2583],[121.9736,7.2486],[121.9622,7.2281],[121.9289,7.1994],[121.9017,7.1469],[121.9039,7.1261],[121.8975,7.0769],[121.9178,7.0206],[121.9217,6.9913],[121.9374,6.9646],[121.9644,6.9469],[121.9739,6.9543],[122.0253,6.92],[122.1083,6.8875],[122.1508,6.9067],[122.1606,6.9314],[122.1822,6.9489],[122.1928,7.0038],[122.2125,7.0364],[122.2087,7.071],[122.2349,7.0837],[122.2583,7.1207],[122.2477,7.1354],[122.2602,7.1593],[122.2469,7.1892],[122.2628,7.2039],[122.2784,7.2381],[122.2945,7.3043],[122.2908,7.3211],[122.3409,7.3138],[122.3642,7.3351],[122.3935,7.39],[122.3638,7.3954],[122.3458,7.4225],[122.3469,7.4442],[122.3638,7.4755],[122.3946,7.4888],[122.4485,7.5341],[122.4703,7.5206],[122.4844,7.5371],[122.483,7.5698],[122.4368,7.5693],[122.4303,7.581],[122.4464,7.6072],[122.4739,7.6211],[122.4861,7.6567],[122.51,7.6909],[122.5328,7.7042],[122.5481,7.7356],[122.5678,7.7469],[122.6192,7.7594],[122.6353,7.7783],[122.6597,7.7839],[122.6833,7.7731],[122.6931,7.7882],[122.7237,7.7808],[122.7461,7.7564],[122.7708,7.7686],[122.8112,7.747],[122.8183,7.7292],[122.8014,7.7133],[122.7825,7.6783],[122.7939,7.6292],[122.7885,7.5922],[122.8117,7.58],[122.827,7.5436],[122.7942,7.5225],[122.7812,7.5043],[122.8179,7.4789],[122.8178,7.4598],[122.8397,7.4367],[122.8778,7.4725],[122.8633,7.5036],[122.8848,7.5087],[122.8894,7.5397],[122.9206,7.5369],[122.9322,7.5051],[122.9503,7.4793],[122.965,7.4864],[122.9867,7.4583],[123.0039,7.4792],[122.9964,7.4997],[123.0241,7.5419],[123.0358,7.5867],[123.0297,7.6217],[123.0525,7.6208],[123.0605,7.6606],[123.0868,7.6959],[123.1115,7.7188],[123.1332,7.7119],[123.145,7.6887],[123.1254,7.6694],[123.1321,7.6545],[123.1557,7.6403],[123.1783,7.6372],[123.1962,7.5914],[123.1753,7.5753],[123.1622,7.5822],[123.1367,7.577],[123.1051,7.5592],[123.1022,7.5383],[123.1261,7.5058],[123.1636,7.4917],[123.1769,7.4658],[123.1984,7.485],[123.1824,7.5046],[123.2169,7.5247],[123.2247,7.5389],[123.2472,7.5292],[123.3013,7.5303],[123.2893,7.5089],[123.2847,7.4675],[123.3214,7.4419],[123.3394,7.4092],[123.3755,7.3988],[123.3811,7.3761],[123.4017,7.3597],[123.4231,7.3733],[123.4531,7.3744],[123.4401,7.4224],[123.4508,7.4349],[123.4122,7.4675],[123.4008,7.4584],[123.3805,7.4918],[123.3833,7.5258],[123.3369,7.5536],[123.3394,7.5711],[123.371,7.5752],[123.3919,7.5856],[123.3847,7.6069],[123.4286,7.6147],[123.4675,7.6381],[123.4782,7.669],[123.4824,7.7286],[123.4714,7.7433],[123.444,7.7471],[123.4198,7.7716],[123.4294,7.785],[123.4275,7.8078],[123.446,7.8207],[123.4615,7.8114],[123.5419,7.8475],[123.5691,7.8517],[123.5987,7.8328],[123.6908,7.8133],[123.6967,7.7994],[123.7207,7.7907],[123.7394,7.7602],[123.7362,7.7318],[123.7639,7.7323],[123.7753,7.7142],[123.8316,7.6964],[123.8754,7.7008],[123.9152,7.6927],[123.9731,7.6645],[123.9742,7.6508],[124.0231,7.6372],[124.0458,7.6006],[124.0664,7.5836],[124.1089,7.5253],[124.1331,7.4714],[124.1464,7.4547],[124.1411,7.4361],[124.1961,7.4214],[124.2236,7.4053],[124.2497,7.4064],[124.2483,7.3772],[124.2561,7.3481],[124.2361,7.3428],[124.2114,7.3483],[124.2172,7.3044],[124.2058,7.2544],[124.1939,7.2531],[124.1714,7.2153],[124.1697,7.1956],[124.1558,7.1736],[124.1331,7.1669],[124.1031,7.1472],[124.0664,7.1453],[124.0525,7.1294],[124.0256,7.0825],[124.0142,7.0525],[123.9923,7.0208],[123.9952,7.0015],[123.9694,6.962],[123.97,6.9267],[123.9567,6.8939],[123.9753,6.8675],[123.9578,6.855],[123.9628,6.8339],[123.9539,6.8192],[123.9878,6.7714],[123.9975,6.7939],[124.0317,6.7772],[124.0412,6.7514],[124.0161,6.725],[124.0181,6.7081],[124.0489,6.6394],[124.0553,6.6011],[124.0347,6.5628],[124.0636,6.5436],[124.0425,6.5292],[124.0211,6.5253],[124.0394,6.4858],[124.0436,6.4322],[124.0528,6.3875],[124.0692,6.3958],[124.0992,6.3325],[124.1553,6.2717],[124.1705,6.2511],[124.1853,6.21],[124.215,6.1936],[124.2468,6.1619],[124.2753,6.1578],[124.3251,6.1136],[124.3533,6.1186],[124.393,6.0917],[124.4261,6.0869],[124.4572,6.0594],[124.4761,6.0522],[124.5178,6.0231],[124.5792,6.0147],[124.6103,5.9847],[124.6406,5.9842],[124.6583,5.9658],[124.6942,5.9533],[124.7312,5.9307],[124.7614,5.9256],[124.8022,5.9081],[124.8231,5.8889],[124.8755,5.8808],[124.8923,5.8713],[124.9567,5.8547],[124.9945,5.8603],[125.0396,5.8509],[125.076,5.8599],[125.0823,5.9037],[125.098,5.9137],[125.0936,5.9337],[125.1143,5.9786],[125.1417,6.02],[125.1559,6.0658],[125.1539,6.0907],[125.1661,6.104],[125.2111,6.1039],[125.2706,6.0856],[125.2764,6.0278],[125.2894,6.0097],[125.2908,5.9773],[125.2684,5.9434],[125.2662,5.9277],[125.2203,5.8908],[125.2214,5.8614],[125.2022,5.8256],[125.1806,5.8383],[125.1745,5.7978],[125.1896,5.7782],[125.2202,5.763],[125.2279,5.7298],[125.2467,5.7108],[125.2783,5.7053],[125.293,5.6792],[125.3089,5.6307],[125.2928,5.5955],[125.3142,5.5725]]],[[[124.1524,12.0425],[124.176,12.0306],[124.2169,12.0614],[124.2216,12.0839],[124.1681,12.0767],[124.15,12.0625],[124.1524,12.0425]]],[[[121.9597,12.0417],[121.9617,12.0658],[121.9503,12.0939],[121.9364,12.0972],[121.9153,12.0839],[121.9106,12.0625],[121.92,12.0461],[121.9522,12.0314],[121.9597,12.0417]]],[[[121.9367,11.9575],[121.9208,11.9991],[121.907,11.9819],[121.9367,11.9575]]],[[[124.4305,11.964],[124.4364,11.9775],[124.4144,11.9906],[124.4031,11.9674],[124.4305,11.964]]],[[[124.8744,11.623],[124.8711,11.6748],[124.856,11.6926],[124.8328,11.6928],[124.8258,11.6781],[124.8414,11.6408],[124.8604,11.6195],[124.8744,11.623]]],[[[120.1414,11.7722],[120.1444,11.7558],[120.18,11.7456],[120.1841,11.7555],[120.1414,11.7722]]],[[[124.3206,11.7606],[124.3504,11.7796],[124.3458,11.8101],[124.3184,11.8168],[124.2942,11.7986],[124.294,11.7816],[124.3206,11.7606]]],[[[119.96,11.6917],[119.983,11.6701],[120.0022,11.6768],[120.0558,11.7431],[120.0532,11.7799],[120.0611,11.8022],[120.038,11.8086],[120.0357,11.8323],[120.0621,11.8514],[120.0633,11.8703],[120.02,11.8836],[120.005,11.8982],[120.0231,11.92],[119.9945,11.9331],[119.9553,11.9142],[119.9447,11.9301],[119.9592,11.9461],[119.9219,11.9575],[119.8998,11.9786],[119.8827,11.9576],[119.8938,11.9442],[119.871,11.9283],[119.8692,11.8956],[119.8936,11.8615],[119.9069,11.8534],[119.9015,11.813],[119.9303,11.76],[119.9631,11.7642],[119.9739,11.7903],[119.9903,11.7964],[119.9947,11.7697],[119.973,11.7661],[119.9642,11.7492],[119.9389,11.7317],[119.9397,11.6778],[119.96,11.6917]]],[[[121.5007,11.8278],[121.5163,11.8265],[121.5305,11.8465],[121.5005,11.8606],[121.4511,11.8692],[121.4268,11.8671],[121.4125,11.8383],[121.4353,11.84],[121.4836,11.8253],[121.5007,11.8278]]],[[[120.2767,11.9347],[120.2724,11.9692],[120.2476,11.9791],[120.1936,11.9369],[120.2045,11.9264],[120.2331,11.8742],[120.2356,11.8487],[120.2874,11.8466],[120.2939,11.8844],[120.2767,11.9347]]],[[[124.4495,11.8793],[124.4669,11.8905],[124.4627,11.9119],[124.4436,11.9327],[124.4109,11.8969],[124.4495,11.8793]]],[[[121.5788,11.901],[121.5778,11.935],[121.5547,11.96],[121.5395,11.9083],[121.5532,11.8908],[121.5788,11.901]]],[[[124.2989,11.8977],[124.3341,11.9384],[124.3264,11.9558],[124.3062,11.9511],[124.3,11.9339],[124.2787,11.9214],[124.2793,11.8977],[124.2989,11.8977]]],[[[121.4236,18.9036],[121.3998,18.9057],[121.3612,18.8884],[121.3453,18.8918],[121.3103,18.877],[121.2895,18.8838],[121.2749,18.8632],[121.2826,18.8469],[121.314,18.8395],[121.3735,18.8497],[121.4516,18.8547],[121.4811,18.8741],[121.4236,18.9036]]],[[[121.4747,19.26],[121.5036,19.2514],[121.5422,19.2736],[121.5221,19.3217],[121.5286,19.3475],[121.5253,19.3842],[121.4882,19.3669],[121.4078,19.3941],[121.3928,19.3911],[121.3797,19.3644],[121.3472,19.3633],[121.39,19.3297],[121.39,19.3003],[121.4047,19.2886],[121.4747,19.26]]],[[[121.2244,19.1672],[121.1953,19.1077],[121.1986,19.0603],[121.2126,19.041],[121.2542,19.0275],[121.2514,19.0725],[121.2331,19.1547],[121.2244,19.1672]]],[[[121.9769,19.5692],[121.9539,19.5606],[121.8961,19.5503],[121.9017,19.5144],[121.9561,19.4758],[121.9947,19.5122],[121.9941,19.548],[121.9769,19.5692]]],[[[121.8689,18.9503],[121.8522,18.9186],[121.8706,18.8908],[121.8255,18.8614],[121.8372,18.8204],[121.8554,18.8117],[121.8771,18.8257],[121.8793,18.847],[121.8931,18.8706],[121.9423,18.8933],[121.9574,18.9164],[121.951,18.9263],[121.9888,18.9415],[121.9872,18.9661],[121.9653,18.9732],[121.9386,19.0025],[121.8967,19.0008],[121.8661,18.9725],[121.8689,18.9503]]],[[[121.9526,20.3517],[121.981,20.3825],[121.9631,20.4119],[121.9872,20.4381],[122.0236,20.4528],[122.0267,20.4817],[122.0026,20.4895],[121.975,20.4717],[121.9583,20.4328],[121.9317,20.4075],[121.9125,20.3705],[121.9199,20.35],[121.9526,20.3517]]],[[[121.8884,20.2937],[121.8897,20.3097],[121.8711,20.3408],[121.8442,20.3564],[121.8372,20.3247],[121.8402,20.2872],[121.8497,20.2686],[121.8884,20.2937]]],[[[121.855,20.7267],[121.8575,20.7506],[121.8769,20.7584],[121.8683,20.7825],[121.8811,20.7978],[121.88,20.8208],[121.8604,20.8364],[121.8342,20.8214],[121.8278,20.7897],[121.8142,20.7603],[121.7972,20.7514],[121.7814,20.7197],[121.803,20.6878],[121.8436,20.7111],[121.855,20.7267]]],[[[120.0098,16.2303],[120.0192,16.2522],[119.9982,16.2782],[120.0117,16.3027],[120.0006,16.3383],[119.9728,16.3503],[119.9656,16.3286],[119.9436,16.3261],[119.9205,16.308],[119.9792,16.2506],[119.9931,16.2218],[120.0098,16.2303]]],[[[119.9629,16.37],[119.9617,16.3939],[119.9374,16.4259],[119.9118,16.4188],[119.9089,16.4035],[119.9325,16.3772],[119.9629,16.37]]],[[[122.1402,18.5798],[122.1203,18.5725],[122.1108,18.5486],[122.1256,18.5422],[122.1139,18.5175],[122.1422,18.52],[122.1581,18.555],[122.1544,18.5797],[122.1402,18.5798]]],[[[121.8325,14.2659],[121.8503,14.3009],[121.8153,14.3034],[121.8031,14.2919],[121.8068,14.2714],[121.8325,14.2659]]],[[[122.0261,14.8729],[122.027,14.8445],[122.0629,14.8501],[122.0626,14.8674],[122.0261,14.8729]]],[[[122.3872,14.6805],[122.424,14.6882],[122.4386,14.7016],[122.403,14.7338],[122.3721,14.7172],[122.3409,14.7101],[122.3139,14.6952],[122.3231,14.6739],[122.3502,14.6816],[122.3872,14.6805]]],[[[122.1385,14.797],[122.1905,14.7628],[122.237,14.7442],[122.2579,14.7266],[122.2597,14.7585],[122.2337,14.7865],[122.2045,14.7998],[122.2027,14.8391],[122.1835,14.8452],[122.1488,14.8355],[122.1271,14.8403],[122.096,14.8322],[122.1075,14.8045],[122.1385,14.797]]],[[[121.9294,14.632],[121.9464,14.6273],[121.9744,14.6412],[122.0047,14.6678],[122.0221,14.7032],[122.0279,14.7298],[122.026,14.7899],[122.0186,14.8188],[121.9881,14.8371],[121.9681,14.8683],[121.9679,14.9077],[122.021,14.9205],[122.0117,14.95],[121.9914,14.958],[122.0081,14.9865],[122.0307,14.9926],[122.0217,15.0247],[122,15.0436],[121.9491,15.058],[121.8925,15.0364],[121.8593,15.0281],[121.837,15.0392],[121.8352,15.0138],[121.8188,15.0008],[121.8009,14.9361],[121.8207,14.9362],[121.8507,14.9185],[121.8492,14.9089],[121.8724,14.8747],[121.8781,14.8356],[121.9116,14.7947],[121.9138,14.7774],[121.9363,14.729],[121.9333,14.7057],[121.9031,14.7039],[121.9023,14.6835],[121.9131,14.6428],[121.9294,14.632]]],[[[122.0431,12.7847],[122.0633,12.7858],[122.0897,12.8311],[122.0358,12.8158],[122.0183,12.7975],[122.0431,12.7847]]],[[[121.6852,12.9196],[121.6994,12.9039],[121.7294,12.9111],[121.7367,12.9286],[121.72,12.9467],[121.6953,12.9478],[121.6852,12.9196]]],[[[122.0944,12.9588],[122.0459,12.9608],[122.0388,12.9386],[122.0548,12.9338],[122.0624,12.9053],[122.0856,12.9116],[122.0972,12.9378],[122.0944,12.9588]]],[[[124.2174,13.1767],[124.2063,13.2098],[124.1385,13.2351],[124.084,13.2123],[124.1053,13.1871],[124.1646,13.181],[124.1856,13.1715],[124.2174,13.1767]]],[[[123.824,13.3757],[123.8076,13.3944],[123.776,13.3864],[123.8002,13.3641],[123.8341,13.3431],[123.838,13.3671],[123.824,13.3757]]],[[[124.0067,13.22],[124.0394,13.2184],[124.0555,13.2288],[124.0659,13.2517],[124.0862,13.26],[124.0382,13.2796],[123.9986,13.2854],[123.976,13.2818],[123.9504,13.2909],[123.9148,13.2807],[123.9151,13.2639],[123.951,13.2337],[123.9903,13.2285],[124.0067,13.22]]],[[[123.898,13.2549],[123.8852,13.2809],[123.904,13.303],[123.9236,13.3095],[123.9068,13.3297],[123.8824,13.345],[123.8437,13.352],[123.8401,13.3355],[123.8523,13.3136],[123.8418,13.273],[123.8656,13.2535],[123.8738,13.2306],[123.9007,13.2397],[123.898,13.2549]]],[[[120.0487,13.8936],[120.0217,13.8817],[120.0483,13.8664],[120.0487,13.8936]]],[[[121.7981,13.8897],[121.7897,13.9391],[121.7539,13.9333],[121.74,13.8933],[121.7544,13.8833],[121.7803,13.9078],[121.7981,13.8897]]],[[[120.3897,13.6539],[120.3717,13.6663],[120.3573,13.6513],[120.3875,13.6325],[120.4228,13.6272],[120.4119,13.6547],[120.3897,13.6539]]],[[[120.9184,13.6267],[120.9469,13.6385],[120.9344,13.6553],[120.885,13.655],[120.8558,13.6694],[120.8498,13.6521],[120.8722,13.6347],[120.9036,13.6242],[120.9184,13.6267]]],[[[120.2708,13.7047],[120.2522,13.7178],[120.2672,13.7528],[120.2542,13.7922],[120.2232,13.8214],[120.1628,13.8311],[120.1481,13.8497],[120.1228,13.8606],[120.0914,13.8646],[120.0783,13.8431],[120.0944,13.8353],[120.0908,13.8099],[120.1014,13.7836],[120.1208,13.77],[120.1534,13.7592],[120.157,13.7453],[120.1861,13.7411],[120.2136,13.715],[120.2555,13.7003],[120.2703,13.6697],[120.2864,13.6983],[120.2708,13.7047]]],[[[120.3064,13.8286],[120.2959,13.836],[120.2744,13.8056],[120.2772,13.7878],[120.2964,13.7789],[120.3308,13.7897],[120.3197,13.8222],[120.3064,13.8286]]],[[[122.0991,13.4973],[122.0675,13.5256],[122.066,13.5033],[122.0991,13.4973]]],[[[121.914,13.2656],[121.9509,13.2483],[121.962,13.225],[121.982,13.2075],[122.0294,13.1995],[122.0427,13.2157],[122.0546,13.255],[122.0444,13.2667],[122.0833,13.3127],[122.1244,13.3458],[122.1398,13.37],[122.124,13.3938],[122.118,13.4261],[122.129,13.4483],[122.1073,13.4775],[122.0869,13.4894],[122.0584,13.4867],[122.0461,13.5149],[122.0124,13.5478],[121.9797,13.5216],[121.9671,13.5321],[121.9223,13.5267],[121.9005,13.5326],[121.8655,13.5704],[121.8571,13.5571],[121.8707,13.5352],[121.844,13.5037],[121.8318,13.4761],[121.8104,13.4472],[121.8247,13.4026],[121.819,13.3484],[121.8426,13.3294],[121.8655,13.285],[121.914,13.2656]]],[[[121.055,13.5516],[121.0808,13.5258],[121.0967,13.5381],[121.0861,13.5731],[121.055,13.5516]]],[[[124.3306,13.5617],[124.3462,13.5742],[124.351,13.6065],[124.342,13.6395],[124.3637,13.6583],[124.3976,13.6528],[124.4159,13.6688],[124.4082,13.689],[124.3906,13.6923],[124.3917,13.7307],[124.4086,13.7498],[124.3982,13.7819],[124.4187,13.7824],[124.4152,13.8354],[124.4192,13.846],[124.4082,13.8791],[124.3792,13.8886],[124.3573,13.9057],[124.3487,13.9389],[124.3248,13.9224],[124.2976,13.9438],[124.2853,13.9438],[124.2794,13.9997],[124.2597,14.019],[124.2465,14.0544],[124.2145,14.0813],[124.1908,14.0864],[124.1895,14.0676],[124.1708,14.0513],[124.1452,14.0614],[124.1251,14.0502],[124.1395,14.0147],[124.1278,13.977],[124.1475,13.9243],[124.1324,13.8839],[124.1373,13.8554],[124.1324,13.8169],[124.1358,13.7954],[124.1216,13.7527],[124.0951,13.7046],[124.0631,13.6933],[124.0389,13.6653],[124.0232,13.6627],[124.0565,13.6199],[124.0774,13.6041],[124.1372,13.5742],[124.1463,13.5571],[124.1916,13.5189],[124.2151,13.5234],[124.2061,13.5434],[124.2146,13.5652],[124.2452,13.5891],[124.2722,13.5958],[124.3114,13.589],[124.3142,13.5605],[124.3306,13.5617]]],[[[123.0084,13.0103],[123.0283,12.9975],[123.0636,12.9981],[123.0772,12.9569],[123.1217,12.9119],[123.1383,12.9089],[123.1475,12.8875],[123.1786,12.8753],[123.1992,12.8414],[123.2422,12.8389],[123.2619,12.8322],[123.2672,12.8147],[123.2906,12.8006],[123.3097,12.77],[123.3125,12.7506],[123.3594,12.6961],[123.3836,12.6933],[123.3724,12.7221],[123.3457,12.7464],[123.2878,12.8185],[123.27,12.8953],[123.2303,12.9111],[123.1833,12.9144],[123.1617,12.9422],[123.1578,12.9622],[123.1359,13.0051],[123.0959,13.0612],[123.0655,13.0961],[123.0375,13.1397],[123.0155,13.1362],[122.9952,13.1591],[122.9754,13.1326],[122.9422,13.1219],[122.9317,13.1051],[122.9551,13.095],[122.944,13.0497],[122.9857,13.0061],[123.0084,13.0103]]],[[[124.3435,13.9686],[124.309,13.9789],[124.3264,13.9414],[124.3553,13.951],[124.3435,13.9686]]],[[[123.8353,13.9221],[123.8383,13.9451],[123.8313,13.9764],[123.8189,13.9726],[123.8112,13.9247],[123.8353,13.9221]]],[[[123.6765,13.955],[123.6503,13.9677],[123.6125,13.952],[123.5967,13.9331],[123.6066,13.9131],[123.638,13.9138],[123.6765,13.955]]],[[[122.1748,14.0011],[122.1863,14.0259],[122.1278,14.0876],[122.0737,14.1159],[122.0611,14.1302],[122.021,14.1538],[121.9339,14.2344],[121.9168,14.2073],[121.9446,14.1588],[121.9854,14.1115],[122.0115,14.0951],[122.0377,14.09],[122.0572,14.0635],[122.0908,14.0518],[122.1131,14.0269],[122.1573,14.0026],[122.1748,14.0011]]],[[[119.8865,12.131],[119.9071,12.144],[119.8954,12.1704],[119.8746,12.1424],[119.8865,12.131]]],[[[121.1317,12.1728],[121.1147,12.2],[121.1044,12.2008],[121.1022,12.2408],[121.0742,12.2975],[121.0433,12.2903],[121.0333,12.2667],[121.0375,12.2247],[121.0689,12.2153],[121.0883,12.1889],[121.0858,12.1739],[121.1195,12.1528],[121.1317,12.1728]]],[[[121.3621,12.1126],[121.3458,12.0839],[121.3811,12.065],[121.3655,12.0383],[121.3814,11.9911],[121.3898,11.9872],[121.42,12.0123],[121.4276,12.0302],[121.4103,12.0406],[121.3919,12.0974],[121.3801,12.1156],[121.3621,12.1126]]],[[[120.3347,12.0206],[120.3246,12.0316],[120.3413,12.0556],[120.3358,12.0741],[120.3019,12.1047],[120.3017,12.1192],[120.2677,12.133],[120.2534,12.1294],[120.2425,12.1606],[120.2389,12.1976],[120.2191,12.197],[120.2057,12.1609],[120.2108,12.1311],[120.1881,12.1378],[120.186,12.1175],[120.1633,12.1211],[120.1469,12.1412],[120.1109,12.1632],[120.0912,12.1896],[120.0678,12.1942],[120.0413,12.2352],[120.0203,12.2406],[120.0085,12.2564],[119.9836,12.2597],[119.9733,12.2711],[119.9497,12.2653],[119.9236,12.2975],[119.9264,12.3181],[119.88,12.3278],[119.8675,12.3033],[119.8706,12.2661],[119.8586,12.2336],[119.875,12.2228],[119.8803,12.2028],[119.8961,12.2014],[119.9142,12.1573],[119.9311,12.1364],[119.9331,12.0875],[119.9674,12.0641],[119.9761,12.0125],[120.0103,12.0034],[120.0184,11.9901],[120.0416,11.9914],[120.0582,12.0073],[120.081,12.0012],[120.08,11.9862],[120.1065,11.9836],[120.1375,12.0025],[120.1239,12.0186],[120.1756,12.0253],[120.1778,12.0081],[120.2249,11.9823],[120.2529,12.0063],[120.3001,11.9925],[120.3311,12.0014],[120.3347,12.0206]]],[[[123.3128,12.0522],[123.3331,12.0906],[123.3583,12.1],[123.4289,12.201],[123.4561,12.2108],[123.5003,12.2178],[123.5397,12.2131],[123.5639,12.1814],[123.5669,12.1669],[123.59,12.1456],[123.6114,12.0961],[123.6006,12.0747],[123.6408,12.0661],[123.6497,12.0475],[123.6892,12.0233],[123.7378,11.9856],[123.7158,11.9642],[123.7275,11.9465],[123.7215,11.9317],[123.7458,11.9217],[123.7681,11.9267],[123.8008,11.9214],[123.8603,11.8992],[123.905,11.8626],[123.9194,11.8656],[123.9753,11.8258],[124.0024,11.7974],[124.0296,11.7482],[124.0591,11.7211],[124.0744,11.7449],[124.0559,11.7869],[124.056,11.8051],[124.0699,11.8481],[124.0297,11.9236],[124.0175,11.9852],[124.0389,11.9642],[124.052,11.968],[124.0278,12.0039],[124.0097,12.02],[123.97,12.0928],[123.9503,12.1097],[123.9347,12.1397],[123.9092,12.1672],[123.8978,12.205],[123.8728,12.2222],[123.8692,12.2006],[123.8547,12.1944],[123.8228,12.2364],[123.8,12.2442],[123.7647,12.2175],[123.695,12.3325],[123.6683,12.3447],[123.6511,12.3419],[123.6214,12.3778],[123.5986,12.3561],[123.5861,12.3706],[123.5933,12.3956],[123.5647,12.4261],[123.5525,12.4631],[123.5239,12.4558],[123.5028,12.4758],[123.475,12.4889],[123.4453,12.5169],[123.4047,12.5233],[123.3711,12.5053],[123.3717,12.47],[123.33,12.4483],[123.3292,12.4711],[123.358,12.4856],[123.3528,12.5189],[123.3394,12.5392],[123.3464,12.5508],[123.3153,12.5747],[123.285,12.5733],[123.2478,12.6008],[123.2342,12.5892],[123.2497,12.5236],[123.2506,12.4572],[123.2697,12.4567],[123.2828,12.4378],[123.2781,12.4031],[123.2653,12.3681],[123.2633,12.3297],[123.2553,12.3244],[123.2392,12.2833],[123.2228,12.2681],[123.2183,12.2319],[123.2289,12.2169],[123.252,12.2419],[123.2764,12.2358],[123.3042,12.1986],[123.2689,12.1975],[123.2814,12.1742],[123.2508,12.1492],[123.2314,12.1214],[123.2183,12.1331],[123.2053,12.0847],[123.2056,12.0586],[123.1933,12.0442],[123.1958,12.0194],[123.1694,11.9836],[123.1419,11.9292],[123.1658,11.9039],[123.2106,11.95],[123.2336,11.9589],[123.2767,12.0164],[123.3025,12.0289],[123.3128,12.0522]]],[[[124.4966,12.5783],[124.4881,12.5692],[124.5006,12.54],[124.5203,12.548],[124.4966,12.5783]]],[[[125.0817,12.6203],[125.0694,12.6492],[125.0646,12.6852],[125.0369,12.6828],[125.0267,12.6569],[125.0583,12.6375],[125.0386,12.6139],[125.0583,12.6031],[125.0844,12.6008],[125.0817,12.6203]]],[[[124.2855,12.387],[124.2799,12.414],[124.2535,12.4562],[124.2391,12.4516],[124.2493,12.4044],[124.26,12.377],[124.2786,12.364],[124.2855,12.387]]],[[[124.1569,12.4037],[124.1766,12.3835],[124.1932,12.41],[124.1671,12.4535],[124.1407,12.4826],[124.1331,12.4544],[124.1389,12.4317],[124.1569,12.4037]]],[[[122.5206,12.3714],[122.5506,12.3515],[122.5625,12.3125],[122.5972,12.3042],[122.6345,12.2839],[122.67,12.31],[122.6828,12.3292],[122.6918,12.3636],[122.6855,12.3789],[122.6992,12.4017],[122.67,12.4628],[122.6342,12.4931],[122.59,12.4925],[122.5459,12.5058],[122.5159,12.4945],[122.4613,12.4872],[122.4283,12.4563],[122.4238,12.4365],[122.4496,12.3974],[122.5206,12.3714]]],[[[124.4419,12.5586],[124.4225,12.5739],[124.4134,12.5561],[124.4346,12.5389],[124.4419,12.5586]]],[[[124.4003,12.5898],[124.3804,12.6159],[124.3672,12.6089],[124.3903,12.58],[124.4003,12.5898]]],[[[122.0128,12.1003],[122.0247,12.1253],[122.0172,12.1381],[122.04,12.1742],[122.0669,12.1742],[122.0672,12.1903],[122.0475,12.1992],[122.0469,12.2303],[122.0683,12.2767],[122.0814,12.3197],[122.0983,12.3561],[122.0954,12.3913],[122.1061,12.4086],[122.1067,12.4631],[122.1125,12.4983],[122.1356,12.5466],[122.1397,12.5814],[122.1222,12.6183],[122.1626,12.6317],[122.1584,12.652],[122.1211,12.6675],[122.112,12.6552],[122.0656,12.6197],[122.035,12.6185],[122.002,12.5972],[121.9925,12.5697],[122.009,12.5453],[122.0055,12.5248],[122.0161,12.4934],[121.9914,12.4122],[121.9428,12.3933],[121.9386,12.3347],[121.9217,12.3186],[121.9278,12.2872],[121.9625,12.2631],[121.9806,12.2639],[122.0182,12.2338],[121.998,12.2147],[121.9892,12.1897],[121.9589,12.1889],[121.9694,12.1547],[122.0028,12.1256],[122.0128,12.1003]]],[[[123.7869,12.3714],[123.7931,12.3892],[123.7722,12.4556],[123.7703,12.4928],[123.7405,12.5547],[123.7256,12.6142],[123.6917,12.6386],[123.6619,12.6447],[123.6247,12.6936],[123.5969,12.6742],[123.6089,12.6572],[123.5839,12.6286],[123.6339,12.5431],[123.6497,12.5319],[123.6847,12.4633],[123.7231,12.4228],[123.74,12.3967],[123.7889,12.3383],[123.7869,12.3714]]],[[[124.3923,12.6698],[124.3886,12.6833],[124.3616,12.6804],[124.365,12.6556],[124.3951,12.6417],[124.3923,12.6698]]],[[[122.2881,12.4786],[122.3025,12.4778],[122.3275,12.5039],[122.3275,12.5411],[122.3092,12.5561],[122.2958,12.585],[122.2964,12.6133],[122.2548,12.5789],[122.2513,12.5565],[122.2622,12.5429],[122.2576,12.524],[122.2718,12.4895],[122.2881,12.4786]]],[[[120.9342,12.5921],[120.9355,12.5606],[120.9196,12.5418],[120.9256,12.5056],[120.9475,12.4825],[120.9758,12.4281],[121.0072,12.4117],[121.0336,12.3669],[121.0753,12.3381],[121.0825,12.3553],[121.1147,12.3486],[121.1289,12.2864],[121.1083,12.2938],[121.0964,12.2819],[121.1123,12.266],[121.1125,12.2461],[121.1292,12.2406],[121.1404,12.2596],[121.1611,12.2447],[121.2086,12.2392],[121.2445,12.2072],[121.2635,12.242],[121.2679,12.2741],[121.2861,12.2885],[121.3323,12.2942],[121.3417,12.3214],[121.3642,12.3056],[121.3872,12.3108],[121.3839,12.3617],[121.4083,12.368],[121.4425,12.3667],[121.4153,12.392],[121.4097,12.4439],[121.4225,12.4656],[121.4453,12.4767],[121.4347,12.5089],[121.4422,12.5214],[121.4689,12.5261],[121.5064,12.5477],[121.5159,12.5765],[121.5341,12.5972],[121.5486,12.6439],[121.5489,12.6694],[121.5256,12.7153],[121.4822,12.7589],[121.4761,12.7739],[121.4792,12.8072],[121.4942,12.8481],[121.4828,12.9028],[121.4989,12.9381],[121.4865,13.018],[121.5,13.0482],[121.5436,13.0753],[121.557,13.106],[121.5444,13.1291],[121.5213,13.145],[121.4873,13.1459],[121.4771,13.1368],[121.4433,13.1442],[121.4344,13.1623],[121.4497,13.1899],[121.4442,13.2147],[121.4225,13.2375],[121.3969,13.2444],[121.3833,13.2381],[121.3558,13.2847],[121.3008,13.3447],[121.2516,13.3738],[121.2336,13.3981],[121.1936,13.4244],[121.1723,13.4147],[121.1373,13.4102],[121.0964,13.417],[121.062,13.4042],[121.0278,13.4267],[120.9903,13.4669],[120.9758,13.4681],[120.9672,13.5111],[120.935,13.5056],[120.908,13.511],[120.8945,13.4991],[120.8614,13.4869],[120.8404,13.487],[120.7621,13.464],[120.7146,13.4818],[120.6561,13.4931],[120.6165,13.4885],[120.5594,13.5083],[120.5278,13.5036],[120.505,13.5103],[120.4771,13.5045],[120.4509,13.5206],[120.4146,13.5312],[120.3458,13.5056],[120.3133,13.4761],[120.2989,13.4458],[120.3154,13.4183],[120.3458,13.3819],[120.3867,13.3751],[120.3952,13.3864],[120.3906,13.4103],[120.4357,13.4269],[120.4646,13.4122],[120.474,13.3977],[120.4681,13.3669],[120.4885,13.3061],[120.4812,13.2996],[120.5046,13.2653],[120.5239,13.2655],[120.545,13.2308],[120.5969,13.2183],[120.6085,13.1999],[120.6508,13.1908],[120.6997,13.1144],[120.7229,13.0674],[120.74,13.0503],[120.7611,13.0019],[120.7802,12.92],[120.7846,12.8847],[120.7725,12.8446],[120.7881,12.8013],[120.7909,12.7324],[120.803,12.7203],[120.8347,12.7278],[120.8572,12.7157],[120.8653,12.6883],[120.9018,12.6561],[120.9342,12.5921]]],[[[124.0824,12.5515],[124.1103,12.5947],[124.0949,12.62],[124.0978,12.6403],[124.1339,12.6625],[124.1317,12.6939],[124.1425,12.7006],[124.1314,12.7322],[124.1514,12.7769],[124.1545,12.8617],[124.1169,12.9103],[124.1425,12.9339],[124.1497,12.9667],[124.1421,12.9802],[124.1533,12.9995],[124.1891,13.0086],[124.1989,13.0225],[124.1908,13.0658],[124.1382,13.0764],[124.107,13.059],[124.095,13.0119],[124.0764,13.0042],[124.0655,13.0332],[124.0225,13.0521],[123.9938,13.0918],[123.9484,13.1067],[123.9374,13.1203],[123.9081,13.1263],[123.9083,13.138],[123.879,13.1432],[123.8628,13.1354],[123.8594,13.1128],[123.839,13.1106],[123.8361,13.0834],[123.7924,13.0461],[123.7579,13.063],[123.7858,13.1143],[123.7568,13.1447],[123.7546,13.1768],[123.7647,13.2105],[123.7873,13.2375],[123.8615,13.2243],[123.8632,13.2396],[123.8141,13.289],[123.7843,13.3011],[123.7799,13.3117],[123.7419,13.3303],[123.7351,13.3671],[123.6971,13.45],[123.6747,13.4796],[123.6392,13.4846],[123.618,13.4966],[123.596,13.5402],[123.5675,13.5624],[123.5376,13.5585],[123.5304,13.5759],[123.5434,13.5887],[123.536,13.6113],[123.5387,13.6397],[123.5638,13.703],[123.5901,13.7294],[123.6331,13.7196],[123.6574,13.7069],[123.6741,13.721],[123.7181,13.7083],[123.7503,13.7084],[123.8023,13.6877],[123.819,13.6894],[123.8578,13.7185],[123.8732,13.7375],[123.9026,13.7253],[123.937,13.7354],[123.9683,13.7132],[123.9755,13.7399],[123.9421,13.7761],[123.9417,13.7954],[123.9196,13.7914],[123.8913,13.7996],[123.8671,13.8257],[123.8522,13.8163],[123.8137,13.8286],[123.7998,13.8473],[123.7829,13.8467],[123.739,13.8896],[123.7305,13.9202],[123.7172,13.9221],[123.6992,13.8844],[123.6397,13.8825],[123.6036,13.8944],[123.5826,13.9144],[123.5456,13.9285],[123.5365,13.913],[123.5165,13.9303],[123.4965,13.9334],[123.4512,13.966],[123.445,13.9488],[123.4498,13.9204],[123.4174,13.936],[123.4171,13.9749],[123.4038,13.9895],[123.3931,14.0274],[123.3575,14.0319],[123.3545,14.0605],[123.3243,14.066],[123.3089,14.0458],[123.2767,14.0722],[123.2786,14.0408],[123.2569,14.0258],[123.259,14.0015],[123.2286,14.0034],[123.2271,13.9879],[123.244,13.967],[123.2772,13.9461],[123.2945,13.9268],[123.285,13.8914],[123.322,13.8302],[123.3229,13.7955],[123.2743,13.7489],[123.2336,13.7306],[123.1959,13.7272],[123.157,13.7315],[123.1229,13.7264],[123.0479,13.774],[123.0479,13.8104],[123.0675,13.8741],[123.0944,13.8876],[123.0823,13.9553],[123.0839,13.9817],[123.057,13.993],[123.0303,14.034],[123.0294,14.0558],[123.0488,14.0686],[123.0441,14.0968],[123.0145,14.1048],[122.9757,14.1452],[122.9522,14.1632],[122.938,14.1905],[122.9146,14.1936],[122.9125,14.2144],[122.8888,14.2335],[122.8643,14.2706],[122.8266,14.2857],[122.8182,14.2738],[122.7912,14.2816],[122.7744,14.3205],[122.7448,14.3251],[122.7136,14.3212],[122.7118,14.3402],[122.6677,14.338],[122.6892,14.2803],[122.6493,14.3101],[122.629,14.3063],[122.6195,14.2893],[122.5968,14.3033],[122.5956,14.3194],[122.5283,14.3363],[122.512,14.3187],[122.4975,14.3381],[122.4838,14.3282],[122.4537,14.3285],[122.4326,14.3155],[122.4093,14.2851],[122.3941,14.2793],[122.3596,14.2469],[122.3824,14.2159],[122.3651,14.1966],[122.3378,14.1844],[122.337,14.1552],[122.3525,14.1286],[122.3466,14.114],[122.3116,14.1049],[122.3115,14.1302],[122.2897,14.1214],[122.2685,14.1244],[122.2741,14.1619],[122.2629,14.181],[122.2712,14.2073],[122.2728,14.2456],[122.2479,14.2369],[122.251,14.202],[122.2158,14.19],[122.1829,14.1582],[122.1906,14.1465],[122.1683,14.1312],[122.1907,14.0953],[122.2285,14.0767],[122.2541,14.0532],[122.2792,14.0436],[122.2938,13.9914],[122.3065,13.9725],[122.2998,13.9578],[122.2654,13.9698],[122.2361,13.9722],[122.2056,13.984],[122.1996,13.9596],[122.2365,13.9463],[122.2484,13.9331],[122.2303,13.8958],[122.1827,13.9166],[122.1532,13.9201],[122.1273,13.9153],[122.0801,13.9372],[122.0589,13.9403],[122.0104,13.9595],[121.9888,13.9783],[121.9458,13.9881],[121.9067,14.0119],[121.8822,14.0431],[121.8456,14.0742],[121.8248,14.0817],[121.7564,14.1356],[121.7328,14.1718],[121.7344,14.1915],[121.7544,14.2047],[121.7592,14.2453],[121.7292,14.2737],[121.7344,14.3056],[121.7274,14.3271],[121.6764,14.3863],[121.6631,14.3925],[121.6593,14.4235],[121.624,14.5228],[121.6297,14.5361],[121.6193,14.5912],[121.6082,14.6017],[121.6089,14.6411],[121.6264,14.6578],[121.6866,14.701],[121.7344,14.6953],[121.714,14.7221],[121.6505,14.779],[121.6236,14.7931],[121.6022,14.8267],[121.6137,14.8532],[121.5904,14.8739],[121.5729,14.9279],[121.5676,14.9682],[121.5513,14.9879],[121.5386,15.0203],[121.5185,15.0382],[121.5002,15.0724],[121.4982,15.099],[121.4822,15.1806],[121.4648,15.201],[121.423,15.2088],[121.3843,15.2785],[121.3723,15.3207],[121.3734,15.3369],[121.3919,15.3768],[121.4049,15.3844],[121.43,15.3738],[121.4542,15.4104],[121.4752,15.4168],[121.474,15.4358],[121.4884,15.4619],[121.4838,15.48],[121.4934,15.5236],[121.5648,15.5918],[121.5618,15.6048],[121.5978,15.6429],[121.6189,15.6573],[121.6068,15.6698],[121.6103,15.707],[121.6367,15.7064],[121.6374,15.7491],[121.5964,15.7616],[121.5736,15.7547],[121.5642,15.7683],[121.5483,15.8236],[121.5483,15.8686],[121.5548,15.8984],[121.5795,15.9271],[121.6167,15.9461],[121.6268,15.9656],[121.6556,15.9785],[121.6648,16.005],[121.7197,16.0429],[121.7415,16.0687],[121.76,16.0769],[121.7797,16.062],[121.7978,16.0786],[121.8382,16.091],[121.8706,16.1215],[121.9006,16.1291],[121.9182,16.1247],[121.9663,16.1358],[121.9871,16.1611],[122.0186,16.1797],[122.0394,16.1746],[122.0677,16.202],[122.0633,16.2233],[122.0891,16.2481],[122.0936,16.2639],[122.1397,16.2561],[122.1289,16.2256],[122.095,16.2041],[122.0944,16.173],[122.0609,16.13],[122.0473,16.1243],[122.0158,16.0875],[121.9927,16.0401],[122.0088,16.035],[122.0275,16.0468],[122.0677,16.091],[122.065,16.1106],[122.146,16.194],[122.2056,16.2408],[122.2017,16.2544],[122.2129,16.2937],[122.1872,16.2922],[122.1798,16.3033],[122.1899,16.3316],[122.2248,16.3563],[122.2436,16.4206],[122.2328,16.4221],[122.2164,16.3936],[122.1997,16.4355],[122.2292,16.4592],[122.2346,16.4901],[122.2489,16.5144],[122.2775,16.5258],[122.2989,16.5519],[122.3241,16.6107],[122.3389,16.6275],[122.3604,16.6828],[122.3872,16.7186],[122.4192,16.7881],[122.4367,16.7992],[122.432,16.8331],[122.4667,16.8878],[122.4572,16.8961],[122.4769,16.9511],[122.4656,16.96],[122.4878,17.0203],[122.5106,17.0375],[122.521,17.1038],[122.5147,17.1378],[122.4833,17.1161],[122.4369,17.1229],[122.4105,17.1549],[122.4199,17.191],[122.4217,17.2694],[122.4397,17.2864],[122.4216,17.3041],[122.4028,17.305],[122.3779,17.3478],[122.3581,17.3517],[122.35,17.3347],[122.3222,17.3425],[122.3103,17.3325],[122.2864,17.3403],[122.2462,17.365],[122.2475,17.3875],[122.2067,17.4728],[122.1831,17.5394],[122.1807,17.5641],[122.1628,17.6114],[122.1685,17.6986],[122.1442,17.7389],[122.1492,17.755],[122.1383,17.7834],[122.1472,17.8281],[122.1697,17.8505],[122.1631,17.8775],[122.1889,17.902],[122.1815,17.9208],[122.1767,17.9694],[122.1902,18.017],[122.1744,18.033],[122.1784,18.0536],[122.1656,18.0688],[122.1806,18.1153],[122.1909,18.1155],[122.2169,18.1522],[122.2633,18.1691],[122.2664,18.1858],[122.3033,18.2193],[122.3067,18.2393],[122.3343,18.2837],[122.3389,18.3114],[122.3139,18.3922],[122.2764,18.4172],[122.2404,18.4757],[122.2394,18.5114],[122.1784,18.515],[122.1661,18.5217],[122.1468,18.507],[122.1481,18.4808],[122.1245,18.4228],[122.1297,18.3814],[122.0645,18.3436],[122.0494,18.3179],[122.0044,18.285],[121.9413,18.2673],[121.8928,18.2703],[121.7643,18.3148],[121.6388,18.3608],[121.6259,18.3427],[121.608,18.371],[121.593,18.3751],[121.5261,18.4095],[121.4664,18.4485],[121.4185,18.459],[121.4106,18.4783],[121.3442,18.5048],[121.2784,18.5443],[121.1949,18.6096],[121.1346,18.6278],[121.0968,18.6264],[121.0837,18.6106],[121.0591,18.6071],[121.0278,18.6166],[121,18.5944],[120.9892,18.5992],[120.9556,18.5597],[120.9156,18.5617],[120.8969,18.5731],[120.8842,18.5972],[120.8611,18.6208],[120.8539,18.6475],[120.8339,18.6383],[120.7961,18.6325],[120.7819,18.6217],[120.7778,18.6006],[120.7881,18.5711],[120.7558,18.5356],[120.7147,18.5286],[120.6689,18.5317],[120.6375,18.5472],[120.6211,18.5445],[120.5989,18.5181],[120.5828,18.5161],[120.5622,18.4908],[120.5647,18.4708],[120.5953,18.4117],[120.6014,18.365],[120.5878,18.3044],[120.5669,18.277],[120.5486,18.2322],[120.5236,18.2047],[120.5183,18.1506],[120.4936,18.1086],[120.4697,18.0869],[120.4828,18.0781],[120.4806,18.0164],[120.498,18.0028],[120.4744,17.9764],[120.4661,17.9433],[120.4403,17.9278],[120.4497,17.8747],[120.4399,17.8653],[120.4581,17.825],[120.4026,17.794],[120.4264,17.7744],[120.4361,17.7331],[120.4168,17.7096],[120.3675,17.6822],[120.3683,17.6561],[120.3528,17.6347],[120.3444,17.5817],[120.3514,17.5489],[120.3867,17.5194],[120.4139,17.5154],[120.4361,17.4778],[120.4317,17.4506],[120.4467,17.4467],[120.4606,17.4064],[120.4481,17.3731],[120.4542,17.3572],[120.4444,17.3383],[120.4267,17.3353],[120.4225,17.2775],[120.4164,17.2547],[120.4144,17.2036],[120.4256,17.1726],[120.436,17.1123],[120.4375,17.0795],[120.4468,17.0542],[120.4505,17],[120.446,16.9766],[120.4231,16.9347],[120.4075,16.9178],[120.4,16.8814],[120.3719,16.8571],[120.335,16.8362],[120.3284,16.8172],[120.3342,16.7427],[120.341,16.7247],[120.3379,16.6845],[120.307,16.6386],[120.3167,16.6283],[120.2958,16.6057],[120.3,16.5826],[120.32,16.5734],[120.3174,16.5347],[120.3034,16.5017],[120.3234,16.4866],[120.3345,16.4201],[120.3223,16.3901],[120.3446,16.347],[120.3396,16.3089],[120.3475,16.282],[120.3744,16.2714],[120.3995,16.2517],[120.4175,16.2045],[120.4252,16.1717],[120.4183,16.1541],[120.3775,16.1155],[120.3628,16.0948],[120.325,16.0678],[120.2758,16.0469],[120.2236,16.0347],[120.1916,16.0451],[120.1653,16.0351],[120.1442,16.0393],[120.0971,16.0691],[120.0889,16.1164],[120.1058,16.1257],[120.1003,16.1537],[120.0728,16.1631],[120.0495,16.1847],[120.0117,16.1725],[120.0037,16.1937],[119.9839,16.2028],[119.9807,16.2212],[119.936,16.24],[119.9136,16.2625],[119.9223,16.2757],[119.9156,16.3003],[119.9286,16.3323],[119.9231,16.3678],[119.9014,16.3922],[119.8822,16.3936],[119.8558,16.3681],[119.8147,16.3586],[119.7903,16.3347],[119.7789,16.3089],[119.7725,16.2489],[119.7833,16.2394],[119.763,16.2094],[119.7553,16.1636],[119.7683,16.1658],[119.7789,16.13],[119.762,16.1014],[119.7686,16.0867],[119.7556,16.0516],[119.774,16.0247],[119.7583,15.9966],[119.7494,15.9657],[119.7691,15.9187],[119.7839,15.9311],[119.8049,15.9221],[119.8125,15.9555],[119.8486,15.9625],[119.8648,15.9418],[119.8913,15.8925],[119.9139,15.8394],[119.8853,15.8175],[119.909,15.7534],[119.8875,15.7497],[119.8686,15.7348],[119.9036,15.7011],[119.9336,15.6927],[119.9316,15.6639],[119.91,15.6112],[119.9278,15.5711],[119.9484,15.5722],[119.9453,15.5333],[119.9661,15.5117],[119.9461,15.4972],[119.9427,15.4781],[119.8998,15.4781],[119.9089,15.4397],[119.9056,15.4006],[119.9375,15.38],[119.9675,15.3432],[119.9648,15.3261],[120.0158,15.2669],[120.0111,15.2344],[120.0267,15.2011],[120.0614,15.0586],[120.0558,15.0333],[120.0656,15.0164],[120.0642,14.9789],[120.0564,14.9422],[120.058,14.8793],[120.0839,14.8537],[120.0829,14.823],[120.09,14.7808],[120.1148,14.7846],[120.1336,14.7728],[120.1592,14.7378],[120.178,14.7406],[120.1933,14.7564],[120.2012,14.7949],[120.2133,14.8158],[120.2058,14.8728],[120.2337,14.8762],[120.2439,14.85],[120.2653,14.8483],[120.2678,14.8244],[120.2966,14.8023],[120.2706,14.7836],[120.2581,14.7647],[120.2484,14.6919],[120.2683,14.6681],[120.2881,14.6613],[120.3148,14.6259],[120.3348,14.6315],[120.3681,14.6256],[120.3947,14.5797],[120.39,14.537],[120.3772,14.4984],[120.3931,14.4575],[120.4462,14.4463],[120.4647,14.4183],[120.487,14.4331],[120.5405,14.4212],[120.5763,14.4319],[120.6022,14.462],[120.6114,14.5087],[120.6,14.5608],[120.5822,14.6133],[120.5825,14.6503],[120.5703,14.6686],[120.5628,14.7006],[120.5472,14.7256],[120.5556,14.7506],[120.5469,14.7883],[120.5618,14.8132],[120.5958,14.8144],[120.635,14.7933],[120.6506,14.7697],[120.6825,14.7733],[120.7308,14.7658],[120.7567,14.7558],[120.8014,14.7547],[120.8394,14.7647],[120.84,14.7411],[120.8856,14.7094],[120.8983,14.7128],[120.9239,14.685],[120.9567,14.6336],[120.9649,14.5831],[120.981,14.573],[120.9792,14.517],[120.9892,14.5018],[120.9786,14.4833],[120.9494,14.4636],[120.8856,14.4533],[120.8695,14.4306],[120.8496,14.4207],[120.8388,14.3984],[120.7975,14.3672],[120.7683,14.332],[120.7306,14.3142],[120.7038,14.2851],[120.6786,14.2797],[120.655,14.2861],[120.6263,14.2685],[120.6197,14.2206],[120.5983,14.2261],[120.5825,14.2111],[120.5879,14.1875],[120.5811,14.1722],[120.6064,14.155],[120.5806,14.1311],[120.6167,14.1183],[120.6164,14.0894],[120.625,14.0597],[120.6177,14.0071],[120.6319,13.9839],[120.612,13.9397],[120.6208,13.9294],[120.625,13.8969],[120.6172,13.8822],[120.6225,13.8606],[120.6181,13.8347],[120.625,13.8075],[120.6533,13.7711],[120.6761,13.7858],[120.6514,13.8481],[120.6597,13.8625],[120.7096,13.8401],[120.7225,13.8581],[120.7003,13.885],[120.6983,13.9061],[120.7183,13.9289],[120.7442,13.9361],[120.8707,13.9048],[120.9118,13.8767],[120.915,13.8303],[120.9017,13.8219],[120.928,13.7806],[120.9272,13.7622],[120.893,13.7413],[120.8739,13.7103],[120.8917,13.6883],[120.9176,13.6999],[120.9309,13.7283],[120.9473,13.7415],[120.9638,13.7721],[121.0008,13.7819],[121.0361,13.765],[121.0555,13.7365],[121.0608,13.7086],[121.05,13.6928],[121.0533,13.6664],[121.0356,13.6356],[121.0695,13.6307],[121.0789,13.619],[121.1546,13.6415],[121.1835,13.6447],[121.2087,13.6262],[121.2333,13.6274],[121.2601,13.5973],[121.2855,13.5968],[121.3369,13.6427],[121.3937,13.672],[121.418,13.6551],[121.4365,13.6603],[121.4694,13.6845],[121.4375,13.7389],[121.4321,13.7617],[121.4404,13.7962],[121.4553,13.822],[121.4985,13.8543],[121.5539,13.8717],[121.5779,13.887],[121.617,13.9019],[121.6745,13.917],[121.7001,13.9193],[121.7014,13.9631],[121.7156,13.9699],[121.7627,13.9601],[121.7711,13.9461],[121.8168,13.9407],[121.8095,13.9143],[121.8214,13.9051],[121.8831,13.8897],[121.8912,13.8622],[121.928,13.8499],[121.9481,13.8516],[121.972,13.8403],[121.9809,13.8058],[122.0056,13.8091],[122.0405,13.7892],[122.0542,13.7748],[122.0985,13.7849],[122.1036,13.7674],[122.1298,13.7408],[122.1444,13.7127],[122.1639,13.6983],[122.1732,13.6697],[122.2022,13.6375],[122.199,13.6199],[122.2404,13.5959],[122.2656,13.606],[122.283,13.5867],[122.3213,13.5901],[122.3379,13.5735],[122.3312,13.5603],[122.3694,13.5461],[122.4013,13.5243],[122.4128,13.4851],[122.4735,13.419],[122.4882,13.4089],[122.4973,13.3744],[122.5163,13.3491],[122.5226,13.311],[122.5163,13.2586],[122.5045,13.2428],[122.5382,13.2196],[122.5642,13.1788],[122.5991,13.1621],[122.6245,13.1725],[122.6579,13.2089],[122.7029,13.2241],[122.6826,13.2911],[122.678,13.3707],[122.6633,13.4191],[122.6235,13.486],[122.6054,13.4966],[122.6006,13.5221],[122.5834,13.5275],[122.5646,13.5516],[122.5827,13.5609],[122.6179,13.5134],[122.6341,13.529],[122.612,13.5415],[122.5799,13.5713],[122.5458,13.5841],[122.55,13.5946],[122.4973,13.6471],[122.5021,13.6689],[122.4812,13.6976],[122.4862,13.7282],[122.5243,13.7329],[122.5095,13.7709],[122.5152,13.8125],[122.4989,13.845],[122.4861,13.8481],[122.4508,13.9062],[122.4498,13.926],[122.4676,13.9336],[122.5249,13.9228],[122.5344,13.965],[122.5679,13.9276],[122.5743,13.9092],[122.5927,13.8935],[122.6144,13.8953],[122.6508,13.8518],[122.6441,13.8391],[122.6681,13.8102],[122.68,13.8278],[122.7482,13.8023],[122.7473,13.7931],[122.7796,13.764],[122.8358,13.7349],[122.8614,13.6903],[122.8342,13.6714],[122.8236,13.6417],[122.8464,13.6171],[122.9218,13.5562],[122.9486,13.5501],[122.9755,13.5213],[123.0021,13.5223],[123.0383,13.5009],[123.0501,13.5074],[123.0937,13.4838],[123.1581,13.455],[123.1886,13.4341],[123.2011,13.4162],[123.2007,13.3884],[123.2104,13.3457],[123.2259,13.3304],[123.2384,13.2905],[123.2643,13.2669],[123.2915,13.2541],[123.3273,13.1986],[123.3045,13.1873],[123.3104,13.1669],[123.2887,13.1479],[123.2919,13.0685],[123.3005,13.0383],[123.3198,13.0066],[123.3694,13.0267],[123.3757,13.0386],[123.4065,13.0459],[123.4526,13.0238],[123.4711,12.9953],[123.4939,12.9819],[123.5242,12.9475],[123.555,12.9464],[123.5867,12.9122],[123.6417,12.8822],[123.6592,12.9119],[123.675,12.9225],[123.6844,12.8789],[123.6989,12.8883],[123.7478,12.8478],[123.7639,12.8764],[123.8058,12.8658],[123.8372,12.9042],[123.8805,12.9369],[123.885,12.9775],[123.9217,12.9789],[123.9386,12.9583],[123.9686,12.9547],[124.0189,12.9725],[124.0326,12.9637],[124.0414,12.9249],[124.017,12.8767],[123.9962,12.8682],[123.9856,12.88],[123.9492,12.8761],[123.9442,12.8503],[123.9075,12.8514],[123.8767,12.8711],[123.8611,12.8736],[123.8397,12.8322],[123.8453,12.7994],[123.8489,12.7222],[123.8753,12.6561],[123.9128,12.6358],[123.9158,12.6197],[123.9367,12.6128],[123.9561,12.5758],[123.998,12.5411],[124.0442,12.5328],[124.0714,12.5378],[124.0824,12.5515]]],[[[123.2017,11.4636],[123.2349,11.4644],[123.2347,11.4923],[123.2176,11.5101],[123.1906,11.4775],[123.2017,11.4636]]],[[[124.5728,11.4722],[124.5854,11.476],[124.6161,11.5119],[124.6164,11.5448],[124.5828,11.5688],[124.5661,11.6168],[124.5417,11.6564],[124.536,11.6761],[124.4624,11.706],[124.4256,11.7071],[124.3739,11.6939],[124.3543,11.6643],[124.362,11.6356],[124.3789,11.6232],[124.3947,11.5964],[124.3912,11.5593],[124.4407,11.4909],[124.4631,11.4672],[124.4877,11.4628],[124.5078,11.4753],[124.5543,11.478],[124.5728,11.4722]]],[[[124.8387,11.6048],[124.8281,11.5981],[124.7878,11.6194],[124.8014,11.6427],[124.7763,11.671],[124.7739,11.6914],[124.73,11.7122],[124.7223,11.6747],[124.7604,11.6297],[124.7653,11.575],[124.7912,11.5484],[124.8287,11.5339],[124.8393,11.5751],[124.8387,11.6048]]],[[[125.9606,9.9083],[125.9514,9.9281],[125.9283,9.9081],[125.9242,9.8833],[125.9482,9.891],[125.9606,9.9083]]],[[[125.5961,9.8842],[125.5939,9.9083],[125.5715,9.9094],[125.5597,9.8942],[125.5739,9.8772],[125.5961,9.8842]]],[[[125.5417,9.8628],[125.5428,9.8769],[125.5156,9.9067],[125.51,9.8862],[125.5417,9.8628]]],[[[123.8489,9.9028],[123.8238,9.9111],[123.8249,9.8876],[123.8489,9.9028]]],[[[124.6062,10.099],[124.5905,10.1372],[124.5407,10.1109],[124.5316,10.0997],[124.5278,10.0686],[124.5621,10.0919],[124.6042,10.0873],[124.6062,10.099]]],[[[125.7044,9.8761],[125.7062,9.9019],[125.693,9.9158],[125.6747,9.9158],[125.6736,9.9897],[125.6981,10.0589],[125.693,10.08],[125.6725,10.1139],[125.6617,10.1533],[125.6763,10.1674],[125.6414,10.1817],[125.6625,10.1977],[125.6476,10.241],[125.6553,10.2772],[125.6468,10.3056],[125.6622,10.3329],[125.6812,10.392],[125.6697,10.4297],[125.6571,10.4403],[125.642,10.4719],[125.6212,10.4586],[125.6089,10.4294],[125.6047,10.3797],[125.5806,10.3591],[125.5517,10.3854],[125.5469,10.3578],[125.5553,10.3269],[125.5136,10.3211],[125.5208,10.2767],[125.5125,10.2428],[125.5421,10.2081],[125.5158,10.2083],[125.4994,10.1558],[125.4771,10.1196],[125.4954,10.104],[125.5042,10.0653],[125.5283,10.0624],[125.5393,10.0808],[125.5725,10.0656],[125.5828,10.0856],[125.5989,10.0606],[125.5836,10.0508],[125.5683,10.0183],[125.5773,9.9812],[125.6032,9.9739],[125.5976,9.9557],[125.6235,9.9474],[125.6456,9.9303],[125.6408,9.8883],[125.6603,9.8525],[125.6782,9.8673],[125.7044,9.8761]]],[[[124.06,10.2497],[124.0747,10.2858],[124.0511,10.28],[124.0339,10.2462],[124.06,10.2497]]],[[[123.9828,10.2578],[123.9982,10.284],[124.0267,10.3137],[124,10.3167],[123.9855,10.3343],[123.943,10.3117],[123.9302,10.2763],[123.9322,10.2505],[123.9828,10.2578]]],[[[125.5011,10.4464],[125.4717,10.4628],[125.4633,10.4581],[125.4856,10.4225],[125.5011,10.4464]]],[[[122.7097,10.4705],[122.6862,10.4657],[122.6903,10.4428],[122.7166,10.4501],[122.7097,10.4705]]],[[[125.9792,9.8178],[126.0183,9.7525],[126.0514,9.7542],[126.1124,9.7473],[126.1317,9.7711],[126.1578,9.781],[126.1614,9.8014],[126.14,9.8383],[126.1223,9.8413],[126.1005,9.8619],[126.1211,9.8775],[126.116,9.9178],[126.0983,9.9528],[126.0847,10.0075],[126.0703,10.0239],[126.0714,10.055],[126.0469,10.0531],[126.0294,10.0292],[126.0367,10.0186],[126.0217,9.9765],[125.9733,9.9228],[125.9774,9.911],[125.9669,9.8989],[125.9597,9.8806],[125.9753,9.8622],[125.95,9.8469],[125.9594,9.825],[125.9792,9.8178]]],[[[117.2375,8.3683],[117.263,8.4074],[117.2795,8.4087],[117.2904,8.4274],[117.3669,8.4797],[117.3764,8.492],[117.3995,8.4882],[117.4143,8.4991],[117.4631,8.5089],[117.5005,8.5004],[117.5151,8.5356],[117.5387,8.5662],[117.5472,8.5958],[117.5362,8.6213],[117.5386,8.6428],[117.571,8.6755],[117.6233,8.6571],[117.6726,8.6684],[117.6861,8.6821],[117.7418,8.6872],[117.7799,8.715],[117.8075,8.7665],[117.8396,8.7701],[117.8623,8.7911],[117.8689,8.8135],[117.9135,8.8461],[117.9276,8.8434],[117.9638,8.8724],[117.9801,8.8693],[118.0032,8.8801],[118.0423,8.9482],[118.0565,8.9816],[118.0591,9.0089],[118.0814,9.0147],[118.0738,9.0415],[118.1017,9.055],[118.104,9.0956],[118.1246,9.145],[118.1519,9.1442],[118.1875,9.1534],[118.2097,9.1689],[118.2216,9.1572],[118.2682,9.1763],[118.3072,9.1827],[118.3442,9.1778],[118.365,9.1969],[118.3625,9.2092],[118.396,9.2423],[118.421,9.2448],[118.4268,9.2747],[118.466,9.3016],[118.4858,9.2989],[118.5054,9.3294],[118.5164,9.3311],[118.5381,9.3897],[118.5639,9.4158],[118.5731,9.4408],[118.6028,9.4625],[118.6222,9.5053],[118.6386,9.5058],[118.6583,9.5572],[118.6708,9.56],[118.6947,9.5847],[118.7042,9.6114],[118.7314,9.6369],[118.7405,9.6619],[118.7608,9.6667],[118.7617,9.6875],[118.7317,9.6839],[118.7194,9.7125],[118.7033,9.7081],[118.6933,9.7483],[118.6977,9.777],[118.735,9.7742],[118.7314,9.7317],[118.7703,9.7228],[118.7742,9.7972],[118.7417,9.8408],[118.7461,9.8586],[118.7456,9.9111],[118.7514,9.9286],[118.7694,9.9283],[118.7919,9.9444],[118.8219,9.9385],[118.8428,9.9628],[118.8819,9.9811],[118.8997,9.9747],[118.9839,9.9864],[119.002,9.9965],[119.0712,10.012],[119.0786,10.0183],[119.1545,10.0277],[119.197,10.0475],[119.2182,10.0775],[119.2277,10.1197],[119.2289,10.1683],[119.252,10.2186],[119.2856,10.2552],[119.299,10.2836],[119.3232,10.3117],[119.352,10.3148],[119.3721,10.3454],[119.4272,10.3515],[119.4622,10.3756],[119.5105,10.3609],[119.5349,10.3695],[119.57,10.3725],[119.5767,10.4017],[119.5889,10.4192],[119.6219,10.4433],[119.6331,10.4428],[119.6769,10.4927],[119.7044,10.4963],[119.7189,10.5178],[119.6808,10.5467],[119.6628,10.5778],[119.64,10.6344],[119.6533,10.6514],[119.6511,10.6748],[119.6274,10.6905],[119.6241,10.67],[119.5981,10.6627],[119.5772,10.6825],[119.595,10.709],[119.6008,10.7308],[119.5869,10.7447],[119.5958,10.7656],[119.5825,10.7741],[119.5994,10.8128],[119.5747,10.8382],[119.5297,10.8223],[119.5109,10.8294],[119.5135,10.8479],[119.4849,10.873],[119.4989,10.9259],[119.4882,10.9613],[119.4935,10.9909],[119.5177,11.0171],[119.5461,11.0006],[119.5677,11.0003],[119.5571,11.0559],[119.5313,11.0748],[119.5127,11.0978],[119.5009,11.1318],[119.5383,11.1746],[119.5385,11.1958],[119.5548,11.2183],[119.5669,11.2732],[119.5555,11.3282],[119.5375,11.3219],[119.5103,11.3328],[119.509,11.3994],[119.5043,11.4161],[119.4742,11.4147],[119.4686,11.4017],[119.477,11.3769],[119.4605,11.3495],[119.4311,11.3331],[119.4156,11.3042],[119.4221,11.2376],[119.4133,11.2062],[119.3758,11.1743],[119.3977,11.1563],[119.421,11.1475],[119.4219,11.0814],[119.4153,11.0773],[119.4094,11.0331],[119.3723,11.0438],[119.3474,11.0738],[119.3248,11.0842],[119.3325,11.0436],[119.3611,11.0091],[119.3409,10.9937],[119.3344,11.0194],[119.32,11.0345],[119.3076,11.0089],[119.3086,10.9633],[119.3258,10.9367],[119.3466,10.9475],[119.3612,10.9371],[119.3455,10.9129],[119.3533,10.8761],[119.3805,10.86],[119.413,10.8716],[119.4153,10.8561],[119.4492,10.8486],[119.4386,10.8222],[119.4422,10.7772],[119.4594,10.7361],[119.4339,10.7225],[119.4156,10.7639],[119.3897,10.7853],[119.3467,10.7989],[119.3009,10.8406],[119.2832,10.8474],[119.2728,10.8653],[119.2772,10.9011],[119.2856,10.9119],[119.2661,10.9478],[119.2506,10.9325],[119.2561,10.8956],[119.2395,10.879],[119.2341,10.8537],[119.2649,10.8255],[119.2619,10.798],[119.2746,10.7648],[119.3022,10.7752],[119.3225,10.7631],[119.3245,10.7449],[119.3433,10.7356],[119.3389,10.6908],[119.3262,10.6645],[119.3296,10.6505],[119.3168,10.6173],[119.3186,10.5911],[119.2919,10.5561],[119.252,10.5317],[119.2686,10.5072],[119.2559,10.4838],[119.216,10.4813],[119.2133,10.4607],[119.1908,10.4518],[119.1724,10.41],[119.158,10.4102],[119.1268,10.3839],[119.1137,10.4113],[119.1183,10.4407],[119.0972,10.4856],[119.0842,10.4511],[119.1047,10.4339],[119.0855,10.4217],[119.0749,10.4002],[119.0544,10.3867],[119.036,10.4118],[119.0014,10.4033],[118.98,10.3858],[118.9767,10.3461],[118.9962,10.3536],[119.011,10.3443],[119.002,10.3124],[118.9594,10.2831],[118.9392,10.2086],[118.8953,10.1964],[118.865,10.2106],[118.8317,10.1867],[118.806,10.1923],[118.8122,10.1636],[118.8108,10.1108],[118.8258,10.0908],[118.7889,10.0206],[118.7756,10.0239],[118.7677,10.074],[118.7719,10.1031],[118.7636,10.1156],[118.7303,10.0719],[118.7231,10.0388],[118.7042,10.0386],[118.6917,10.0189],[118.6521,9.9936],[118.6624,9.9733],[118.6466,9.9641],[118.6461,9.9366],[118.6091,9.9164],[118.6144,9.8896],[118.5892,9.8558],[118.568,9.8447],[118.5647,9.8275],[118.5407,9.8069],[118.5169,9.7688],[118.4744,9.7314],[118.4334,9.7169],[118.4086,9.6861],[118.4105,9.6682],[118.3906,9.6622],[118.3747,9.6453],[118.3564,9.6575],[118.3306,9.6313],[118.3408,9.6161],[118.3288,9.5814],[118.2978,9.5639],[118.2714,9.5217],[118.246,9.5103],[118.2108,9.4856],[118.1889,9.4391],[118.1852,9.4105],[118.1286,9.3881],[118.1167,9.3669],[118.1256,9.3539],[118.1092,9.3303],[118.0876,9.3339],[118.0726,9.3038],[118.0518,9.3002],[118.0328,9.2758],[118.02,9.2437],[117.9919,9.2391],[117.9678,9.2733],[117.9522,9.2517],[117.9056,9.2611],[117.8817,9.2433],[117.8614,9.211],[117.8336,9.2006],[117.7753,9.1647],[117.7728,9.1472],[117.7536,9.1092],[117.7586,9.0906],[117.738,9.0641],[117.7106,9.0603],[117.7,9.0706],[117.6644,9.0747],[117.6217,9.0306],[117.6217,9],[117.5956,8.9821],[117.5837,8.9619],[117.5471,8.9539],[117.543,8.9341],[117.4912,8.8882],[117.4935,8.8736],[117.465,8.8385],[117.45,8.8114],[117.4186,8.7854],[117.4231,8.7603],[117.4096,8.7523],[117.368,8.7472],[117.3495,8.7314],[117.3261,8.6739],[117.2952,8.6565],[117.2756,8.6258],[117.2768,8.6067],[117.2569,8.5945],[117.2585,8.5716],[117.2381,8.5679],[117.2403,8.5404],[117.218,8.5228],[117.2136,8.5008],[117.2181,8.4668],[117.2147,8.4307],[117.1958,8.4091],[117.1737,8.3542],[117.1874,8.3304],[117.2037,8.3314],[117.2123,8.3512],[117.2375,8.3683]]],[[[125.6517,9.8667],[125.6389,9.8875],[125.6386,9.9158],[125.6028,9.8814],[125.595,9.8539],[125.5783,9.8386],[125.6145,9.8152],[125.6469,9.8303],[125.6705,9.8322],[125.6517,9.8667]]],[[[124.0988,9.5898],[124.1684,9.6072],[124.2053,9.6078],[124.2362,9.5973],[124.2841,9.6045],[124.3138,9.6221],[124.358,9.629],[124.3648,9.6461],[124.4013,9.6551],[124.4011,9.6916],[124.4081,9.7097],[124.4471,9.7213],[124.4858,9.7611],[124.4972,9.7618],[124.5111,9.7249],[124.5724,9.7331],[124.5941,9.7587],[124.5967,9.8051],[124.5554,9.8212],[124.5456,9.8381],[124.5244,9.8403],[124.5175,9.8564],[124.5702,9.8863],[124.5514,9.9356],[124.5437,9.9728],[124.5694,9.9967],[124.5469,10.0408],[124.5296,10.044],[124.505,10.0762],[124.4929,10.0583],[124.4607,10.0647],[124.443,10.085],[124.3919,10.1097],[124.38,10.1378],[124.3514,10.1269],[124.3135,10.1659],[124.2926,10.1728],[124.2783,10.1551],[124.2441,10.1625],[124.205,10.1598],[124.1792,10.1461],[124.1525,10.1536],[124.1332,10.1243],[124.1369,10.1131],[124.0989,10.0798],[124.0621,10.0681],[124.058,10.0366],[124.0433,9.9886],[124.0261,9.9675],[123.9857,9.9648],[123.9497,9.9419],[123.9106,9.9322],[123.901,9.9172],[123.8819,9.9198],[123.8725,9.8962],[123.8392,9.8754],[123.8232,9.853],[123.7936,9.865],[123.7872,9.8473],[123.8058,9.8331],[123.7845,9.7931],[123.787,9.7393],[123.8009,9.7328],[123.8385,9.7416],[123.8606,9.7011],[123.8441,9.6621],[123.8532,9.6367],[123.8755,9.6265],[123.9163,9.6214],[123.9821,9.5978],[124.0338,9.5979],[124.0583,9.5886],[124.0988,9.5898]]],[[[123.0336,9.0495],[123.0586,9.0514],[123.0751,9.0666],[123.1028,9.0615],[123.1275,9.0456],[123.1818,9.0938],[123.202,9.0937],[123.2123,9.1196],[123.2414,9.1505],[123.2461,9.1643],[123.2849,9.2096],[123.2945,9.2355],[123.3132,9.3188],[123.2958,9.3561],[123.2675,9.3706],[123.256,9.3973],[123.2352,9.4256],[123.2386,9.4477],[123.2288,9.465],[123.1844,9.48],[123.1783,9.5081],[123.1544,9.5479],[123.1252,9.5517],[123.1414,9.5975],[123.1228,9.6061],[123.1064,9.6297],[123.1239,9.6562],[123.1498,9.6512],[123.1522,9.6861],[123.1611,9.708],[123.1529,9.7292],[123.1519,9.7799],[123.1352,9.8351],[123.1512,9.8547],[123.1472,9.8918],[123.158,9.9164],[123.1773,9.939],[123.2131,9.9966],[123.2281,10.0044],[123.2397,10.0462],[123.2664,10.0913],[123.2698,10.1144],[123.2839,10.1388],[123.281,10.1596],[123.3258,10.2535],[123.3314,10.2778],[123.3294,10.3506],[123.3326,10.3772],[123.3517,10.4075],[123.368,10.4511],[123.4035,10.4684],[123.4447,10.4981],[123.4647,10.5225],[123.4636,10.5453],[123.4929,10.6128],[123.4936,10.6372],[123.509,10.7056],[123.5183,10.7253],[123.5603,10.7739],[123.5688,10.7944],[123.5566,10.8183],[123.5237,10.861],[123.515,10.9181],[123.4931,10.9363],[123.4692,10.9231],[123.4517,10.9361],[123.3931,10.9572],[123.3581,10.9569],[123.3483,10.95],[123.3166,10.9559],[123.2814,10.9722],[123.2461,10.9978],[123.2247,10.9944],[123.1958,11.0036],[123.1642,10.9775],[123.1336,10.9725],[123.0914,10.9383],[123.0744,10.9147],[123.0397,10.9236],[122.9978,10.9144],[122.9797,10.8986],[122.9567,10.8969],[122.9572,10.8689],[122.9458,10.8436],[122.95,10.8073],[122.9644,10.7889],[122.9625,10.7305],[122.9488,10.716],[122.9502,10.6833],[122.927,10.6563],[122.9178,10.6094],[122.8822,10.5811],[122.8839,10.5711],[122.8541,10.5485],[122.822,10.5505],[122.7955,10.5226],[122.8187,10.488],[122.8244,10.4397],[122.8564,10.4058],[122.8661,10.3569],[122.8414,10.2977],[122.8486,10.2769],[122.8418,10.2103],[122.8599,10.1546],[122.8664,10.1214],[122.8493,10.0773],[122.8244,10.0636],[122.7787,10.0673],[122.7445,10.0411],[122.6936,9.9908],[122.6639,9.9778],[122.6278,9.9739],[122.5064,9.9867],[122.4505,9.9761],[122.4411,9.9167],[122.4183,9.8903],[122.3997,9.8558],[122.3814,9.8457],[122.3842,9.8231],[122.4008,9.8156],[122.3925,9.7925],[122.3986,9.7439],[122.3805,9.7128],[122.408,9.6594],[122.4308,9.6714],[122.4578,9.66],[122.4556,9.6217],[122.4806,9.5647],[122.5033,9.5561],[122.5322,9.5178],[122.5353,9.4956],[122.5817,9.4453],[122.6114,9.4197],[122.6261,9.4214],[122.6747,9.3797],[122.78,9.3669],[122.8111,9.3578],[122.8425,9.3333],[122.8646,9.3289],[122.8756,9.3119],[122.8781,9.2689],[122.8703,9.2531],[122.8892,9.2078],[122.9099,9.1347],[122.9261,9.1139],[122.9419,9.0753],[122.965,9.0692],[123.0159,9.0382],[123.0336,9.0495]]],[[[123.4436,9.5367],[123.467,9.5713],[123.4734,9.608],[123.5102,9.6963],[123.5095,9.7303],[123.5377,9.7578],[123.5308,9.7749],[123.5365,9.804],[123.5597,9.8163],[123.574,9.8577],[123.6088,9.8745],[123.6074,9.9104],[123.6203,9.9292],[123.6256,9.9757],[123.615,9.9956],[123.6212,10.03],[123.6397,10.0683],[123.6396,10.081],[123.6757,10.0824],[123.6789,10.1089],[123.7017,10.1516],[123.7268,10.1767],[123.7562,10.196],[123.7654,10.2254],[123.8021,10.2379],[123.8367,10.2342],[123.8629,10.2479],[123.8879,10.2858],[123.9397,10.32],[123.9659,10.328],[123.9706,10.3486],[124.0035,10.3603],[124.0214,10.3834],[124.0028,10.3959],[123.9983,10.4131],[124.0326,10.4971],[124.0229,10.5619],[124.0327,10.5956],[124.0291,10.6327],[124.0122,10.7009],[124.0157,10.7308],[124.0058,10.7466],[124.0114,10.7702],[124.0334,10.795],[124.0321,10.8389],[124.0548,10.8816],[124.0356,10.9125],[124.0304,10.9463],[124.0384,10.9522],[124.0449,10.9909],[124.0382,11.019],[124.0423,11.0546],[124.0141,11.0587],[123.998,11.0517],[123.9889,11.0767],[123.9936,11.0944],[124.0355,11.1485],[124.0368,11.2024],[124.0461,11.225],[124.0702,11.2553],[124.0459,11.2789],[123.9992,11.2719],[123.9905,11.2294],[123.9439,11.1867],[123.9417,11.1606],[123.9615,11.1182],[123.9575,11.0908],[123.9317,11.0911],[123.9333,11.0656],[123.9011,11.0339],[123.9156,11.0079],[123.9304,10.9985],[123.921,10.9495],[123.8983,10.9216],[123.867,10.831],[123.8306,10.7544],[123.8318,10.7351],[123.8008,10.7213],[123.7939,10.7001],[123.7552,10.645],[123.7289,10.5742],[123.7122,10.5674],[123.7034,10.5192],[123.714,10.4975],[123.6757,10.4557],[123.6676,10.4143],[123.6422,10.3992],[123.6394,10.3805],[123.5925,10.3479],[123.5798,10.3215],[123.5824,10.2643],[123.5506,10.2305],[123.5276,10.1945],[123.5174,10.1528],[123.4495,10.0816],[123.4473,10.064],[123.422,10.0591],[123.4053,10.022],[123.4094,10.005],[123.3992,9.9827],[123.3749,9.9973],[123.3652,9.9507],[123.3753,9.9336],[123.3972,9.9283],[123.3971,9.8776],[123.3708,9.8691],[123.3711,9.8174],[123.3459,9.791],[123.3383,9.7135],[123.3254,9.6761],[123.3258,9.6371],[123.3003,9.5153],[123.2967,9.4741],[123.3011,9.417],[123.3314,9.4123],[123.3524,9.4235],[123.3717,9.4458],[123.3978,9.4933],[123.4345,9.5192],[123.4436,9.5367]]],[[[125.7367,10.7036],[125.7522,10.6886],[125.7972,10.6897],[125.8206,10.7183],[125.8119,10.7306],[125.7839,10.7392],[125.7599,10.7373],[125.7194,10.745],[125.7106,10.7617],[125.7247,10.8056],[125.6921,10.8242],[125.6614,10.7925],[125.6592,10.7608],[125.6708,10.7439],[125.6986,10.7236],[125.7244,10.7178],[125.7367,10.7036]]],[[[121.0592,10.8325],[121.0764,10.8472],[121.0778,10.8692],[121.0542,10.8858],[121.0045,10.8563],[120.9985,10.8301],[121.013,10.8042],[121.037,10.797],[121.0653,10.8081],[121.0592,10.8325]]],[[[119.8944,10.5417],[119.9361,10.5072],[119.9674,10.5291],[119.983,10.6],[119.9579,10.599],[119.9388,10.6076],[119.9074,10.6006],[119.8718,10.6303],[119.8331,10.6381],[119.8335,10.6141],[119.8033,10.5853],[119.7835,10.5581],[119.7593,10.5641],[119.7458,10.5564],[119.761,10.5325],[119.7685,10.5],[119.7621,10.4651],[119.7732,10.45],[119.8152,10.4425],[119.852,10.4583],[119.8716,10.4825],[119.8888,10.4781],[119.9113,10.4963],[119.8944,10.5417]]],[[[124.3679,10.6171],[124.401,10.6286],[124.4548,10.6285],[124.5012,10.6443],[124.5169,10.6602],[124.5107,10.6786],[124.4852,10.6992],[124.4366,10.7183],[124.4126,10.706],[124.3835,10.6492],[124.3745,10.6903],[124.3447,10.7087],[124.3164,10.7097],[124.3041,10.6447],[124.2783,10.6129],[124.2818,10.5873],[124.3111,10.5862],[124.3248,10.6012],[124.3679,10.6171]]],[[[122.5261,10.4089],[122.5428,10.407],[122.5708,10.4475],[122.5839,10.4339],[122.6275,10.4344],[122.6396,10.4442],[122.6453,10.4711],[122.6639,10.4786],[122.6819,10.5005],[122.6843,10.5312],[122.708,10.5704],[122.7131,10.5947],[122.7272,10.6161],[122.7165,10.6575],[122.7203,10.6792],[122.7138,10.7159],[122.6581,10.7544],[122.6436,10.7347],[122.6142,10.7183],[122.609,10.6757],[122.5925,10.6735],[122.548,10.6281],[122.5095,10.581],[122.5162,10.557],[122.5111,10.5333],[122.5225,10.5161],[122.4828,10.5064],[122.4762,10.4764],[122.5015,10.4628],[122.512,10.4143],[122.5261,10.4089]]],[[[124.5469,10.76],[124.5647,10.8142],[124.5406,10.805],[124.4983,10.7586],[124.5008,10.7297],[124.5178,10.7342],[124.5469,10.76]]],[[[124.9807,10.037],[125.0131,10.0253],[125.0269,10.0456],[125.0239,10.0878],[125.0128,10.1028],[125.0008,10.165],[124.9842,10.1855],[124.9775,10.2131],[124.987,10.2544],[124.9722,10.3328],[124.9686,10.3753],[125.0064,10.3808],[125.0244,10.3689],[125.0369,10.3381],[125.0406,10.3094],[125.0597,10.2853],[125.0639,10.2614],[125.08,10.2239],[125.1172,10.1817],[125.1164,10.1131],[125.1245,10.0833],[125.1419,10.0583],[125.1804,10.0431],[125.1999,10.0123],[125.223,9.9627],[125.2483,9.9483],[125.256,9.9138],[125.2889,9.9125],[125.2961,9.9381],[125.2717,9.9703],[125.2806,9.9942],[125.2445,10.0417],[125.2342,10.0806],[125.2233,10.0939],[125.2128,10.1281],[125.1678,10.1325],[125.1292,10.1622],[125.1397,10.1731],[125.1289,10.2133],[125.1262,10.2626],[125.1418,10.2771],[125.2073,10.2464],[125.2543,10.2592],[125.2681,10.2989],[125.2606,10.3625],[125.2342,10.395],[125.2146,10.3853],[125.1792,10.4293],[125.1917,10.4739],[125.1648,10.5342],[125.1879,10.5604],[125.1839,10.595],[125.1481,10.6236],[125.1458,10.635],[125.1128,10.6592],[125.1053,10.6739],[125.1159,10.6956],[125.0717,10.7161],[125.0397,10.7204],[125.0142,10.7467],[125.0039,10.8009],[125.0028,10.8428],[125.0075,10.8729],[125.0336,10.9303],[125.0406,10.9942],[125.0397,11.0653],[125.0217,11.0947],[125.0255,11.1284],[125.0075,11.155],[125.0258,11.1966],[125.0192,11.2211],[125.0055,11.2197],[124.9985,11.2465],[124.9753,11.2608],[124.9627,11.2803],[124.9672,11.39],[124.942,11.428],[124.9143,11.4085],[124.8727,11.4356],[124.8483,11.4224],[124.8167,11.4294],[124.8064,11.3843],[124.7848,11.3711],[124.763,11.3442],[124.7294,11.3308],[124.6979,11.3034],[124.6714,11.3047],[124.6494,11.2939],[124.6078,11.3122],[124.5848,11.305],[124.5517,11.3396],[124.5491,11.3686],[124.5389,11.3893],[124.537,11.425],[124.4802,11.4523],[124.4558,11.4144],[124.41,11.47],[124.4096,11.477],[124.3478,11.5321],[124.3179,11.5624],[124.2856,11.5294],[124.2894,11.4935],[124.3161,11.417],[124.3413,11.3624],[124.3419,11.3147],[124.3589,11.3005],[124.3891,11.2987],[124.376,11.274],[124.3863,11.251],[124.3847,11.1835],[124.4021,11.124],[124.3778,11.0698],[124.3826,11.0459],[124.4037,11.0238],[124.4001,10.9742],[124.3753,10.9234],[124.3874,10.9132],[124.4379,10.9185],[124.4326,10.8889],[124.4509,10.8906],[124.4772,10.8657],[124.5166,10.8675],[124.551,10.9297],[124.5445,10.9839],[124.5907,11.0142],[124.6153,11],[124.6228,10.9793],[124.6537,10.9512],[124.6811,10.9408],[124.7025,10.9048],[124.707,10.8801],[124.7609,10.8191],[124.7827,10.7759],[124.7841,10.7493],[124.7941,10.7284],[124.8002,10.6519],[124.7707,10.6213],[124.763,10.5733],[124.7661,10.5369],[124.7507,10.5083],[124.7209,10.4882],[124.7299,10.4578],[124.7226,10.408],[124.7326,10.3763],[124.7655,10.3575],[124.787,10.3302],[124.7905,10.3007],[124.7722,10.2581],[124.7672,10.2083],[124.7534,10.1875],[124.7568,10.1585],[124.7713,10.1446],[124.8073,10.1295],[124.8434,10.1325],[124.89,10.1209],[124.905,10.0896],[124.9369,10.0808],[124.9648,10.0462],[124.9807,10.037]]],[[[125.8381,10.9413],[125.8283,10.9661],[125.8097,10.9814],[125.7969,11.0056],[125.7725,11.0325],[125.7632,11.0143],[125.7907,10.9938],[125.8189,10.9553],[125.8381,10.9413]]],[[[119.2973,11.0214],[119.2689,11.0175],[119.2739,10.9967],[119.2624,10.9823],[119.2708,10.9593],[119.2971,10.9488],[119.2893,10.9835],[119.2995,11],[119.2973,11.0214]]],[[[125.6494,11.0044],[125.6161,11.0011],[125.6225,10.9817],[125.6415,10.9737],[125.6569,10.9933],[125.6494,11.0044]]],[[[119.7258,11.0425],[119.6984,11.0528],[119.7031,11.0265],[119.7258,11.0425]]],[[[120.9641,11.1334],[120.9877,11.1546],[120.9778,11.1736],[120.9467,11.1599],[120.9386,11.1428],[120.9641,11.1334]]],[[[119.6172,11.0644],[119.6139,11.0836],[119.58,11.0903],[119.5603,11.0636],[119.5703,11.0433],[119.5922,11.0286],[119.6092,11.005],[119.6417,11.0147],[119.6258,11.0367],[119.6172,11.0644]]],[[[123.1367,11.1264],[123.1336,11.1514],[123.1072,11.1361],[123.1212,11.0978],[123.1367,11.1264]]],[[[119.612,11.1915],[119.5982,11.197],[119.5816,11.1792],[119.5636,11.1797],[119.554,11.1564],[119.562,11.1383],[119.5941,11.1408],[119.6253,11.1622],[119.6312,11.1746],[119.612,11.1915]]],[[[119.696,11.3123],[119.665,11.3131],[119.6556,11.2994],[119.6659,11.2687],[119.6899,11.2949],[119.696,11.3123]]],[[[123.7864,11.146],[123.8075,11.1514],[123.8008,11.1744],[123.7833,11.1855],[123.7675,11.2108],[123.7572,11.2681],[123.7405,11.2964],[123.7242,11.2953],[123.7094,11.2547],[123.6901,11.2185],[123.6989,11.2125],[123.7167,11.165],[123.7219,11.1364],[123.7547,11.15],[123.7864,11.146]]],[[[123.1745,11.2744],[123.1941,11.2935],[123.1608,11.313],[123.1558,11.2772],[123.1745,11.2744]]],[[[122.1747,10.6103],[122.2074,10.6385],[122.2425,10.6353],[122.2578,10.6513],[122.2859,10.6592],[122.3225,10.6569],[122.3386,10.6702],[122.395,10.6703],[122.4263,10.6822],[122.4827,10.6875],[122.5009,10.6793],[122.5371,10.6803],[122.5625,10.6911],[122.5815,10.6873],[122.595,10.7065],[122.5972,10.7622],[122.6322,10.7814],[122.6367,10.7722],[122.6714,10.7956],[122.7128,10.7808],[122.7353,10.7861],[122.7839,10.8556],[122.7903,10.895],[122.7814,10.9253],[122.7667,10.9453],[122.7817,10.9869],[122.8181,11.0006],[122.85,10.9989],[122.8514,11.0178],[122.8719,11.0319],[122.9061,11.0208],[122.9183,11.0628],[122.9517,11.0328],[122.9547,11.0686],[122.9739,11.0697],[123.0097,11.0933],[123.0176,11.1427],[123.0306,11.1678],[123.0433,11.1714],[123.0958,11.1561],[123.1208,11.1644],[123.1279,11.1812],[123.1108,11.2167],[123.0942,11.2239],[123.0994,11.2497],[123.095,11.2753],[123.1066,11.2905],[123.1089,11.3428],[123.1278,11.3392],[123.1466,11.3735],[123.1425,11.4061],[123.1283,11.4156],[123.1542,11.4431],[123.1603,11.4697],[123.1528,11.4878],[123.1253,11.4933],[123.1075,11.5058],[123.1214,11.5275],[123.1378,11.5178],[123.1633,11.5669],[123.1456,11.5875],[123.105,11.5488],[123.0743,11.5268],[123.0419,11.5158],[122.987,11.4825],[122.9564,11.4775],[122.9181,11.4836],[122.9175,11.4442],[122.9003,11.4275],[122.8839,11.4408],[122.8919,11.4917],[122.9239,11.5078],[122.9269,11.5189],[122.8711,11.5442],[122.8275,11.6103],[122.7997,11.6069],[122.7302,11.6075],[122.715,11.5836],[122.6783,11.5656],[122.6945,11.5313],[122.6553,11.5369],[122.6267,11.5181],[122.59,11.5186],[122.5854,11.5506],[122.5436,11.5542],[122.5561,11.5717],[122.4961,11.5956],[122.4861,11.5608],[122.4742,11.5694],[122.4675,11.5997],[122.4415,11.6041],[122.4294,11.5869],[122.4133,11.6058],[122.4114,11.6256],[122.3953,11.6383],[122.4008,11.6569],[122.4292,11.6522],[122.3975,11.6961],[122.3846,11.7257],[122.3663,11.7139],[122.3497,11.7392],[122.3148,11.7312],[122.2971,11.7385],[122.2853,11.7614],[122.2592,11.7853],[122.2347,11.7883],[122.2222,11.8139],[122.1977,11.8075],[122.1636,11.8261],[122.1305,11.8253],[122.0803,11.8378],[122.0506,11.8548],[121.9996,11.9084],[121.9503,11.9381],[121.945,11.9161],[121.9153,11.902],[121.8845,11.899],[121.8863,11.8376],[121.8782,11.809],[121.8624,11.7817],[121.8608,11.756],[121.8991,11.7572],[121.9178,11.7674],[121.9479,11.7569],[121.9879,11.7519],[122.0129,11.7364],[122.0444,11.7322],[122.0708,11.7383],[122.0998,11.7057],[122.0956,11.6717],[122.1019,11.6467],[122.0933,11.5889],[122.0781,11.5425],[122.0856,11.5019],[122.0631,11.47],[122.05,11.4106],[122.0625,11.3753],[122.0581,11.3431],[122.0364,11.3217],[122.0269,11.3006],[122.0517,11.2625],[122.0525,11.2253],[122.0328,11.1906],[122.0398,11.1523],[122.0369,11.1172],[122.0453,11.0967],[122.0417,11.0717],[122.0539,11.0322],[122.0392,11.0175],[122.0393,10.9997],[121.984,10.9303],[121.9773,10.9007],[121.9557,10.8475],[121.9449,10.801],[121.9233,10.7638],[121.9323,10.7413],[121.9464,10.7381],[121.9655,10.7159],[121.9784,10.6698],[121.9747,10.6325],[121.9582,10.5513],[121.9485,10.5326],[121.9185,10.4998],[121.9138,10.4642],[121.9189,10.4347],[121.9621,10.4135],[122.0101,10.4425],[122.032,10.4755],[122.0615,10.5011],[122.0776,10.5254],[122.0796,10.549],[122.1064,10.5835],[122.1594,10.5975],[122.1747,10.6103]]],[[[123.2658,11.4285],[123.275,11.455],[123.2457,11.4643],[123.2428,11.4481],[123.2658,11.4285]]],[[[119.8032,11.3968],[119.8306,11.3909],[119.8528,11.415],[119.8706,11.4994],[119.8444,11.5167],[119.8272,11.5106],[119.847,11.4862],[119.8298,11.4561],[119.8011,11.4522],[119.7858,11.4587],[119.7453,11.4567],[119.7373,11.43],[119.7604,11.4043],[119.7858,11.4253],[119.8244,11.4136],[119.8032,11.3968]]],[[[125.7411,11.0164],[125.7633,11.0328],[125.7506,11.0653],[125.7211,11.1053],[125.6953,11.1311],[125.6864,11.1661],[125.6656,11.1981],[125.6345,11.2114],[125.6106,11.2289],[125.605,11.195],[125.5831,11.18],[125.5353,11.1983],[125.5342,11.2161],[125.5469,11.2592],[125.5733,11.2858],[125.6064,11.3014],[125.6328,11.3375],[125.6331,11.3569],[125.6203,11.3697],[125.5975,11.3739],[125.5836,11.3994],[125.5633,11.3942],[125.5264,11.4503],[125.5156,11.4939],[125.4797,11.5289],[125.4686,11.5619],[125.4736,11.5917],[125.4444,11.5933],[125.4403,11.6206],[125.4619,11.6417],[125.4519,11.6672],[125.4925,11.6731],[125.4747,11.6986],[125.4622,11.7586],[125.4439,11.7481],[125.4133,11.7581],[125.4289,11.7758],[125.4622,11.7719],[125.4727,11.7985],[125.4633,11.8172],[125.4414,11.82],[125.4358,11.8578],[125.4203,11.8943],[125.4231,11.9292],[125.4478,11.9942],[125.5125,12.0558],[125.48,12.0906],[125.4505,12.0994],[125.4369,12.1283],[125.4667,12.1375],[125.4753,12.1656],[125.5153,12.1914],[125.498,12.2064],[125.4531,12.2592],[125.4178,12.2803],[125.3983,12.2811],[125.3753,12.2647],[125.3569,12.3056],[125.335,12.3186],[125.3114,12.3222],[125.2864,12.3381],[125.2858,12.3556],[125.3072,12.3869],[125.3378,12.4058],[125.31,12.4128],[125.2892,12.4442],[125.2917,12.4689],[125.2711,12.4789],[125.2411,12.5131],[125.1994,12.5383],[125.1783,12.5594],[125.1417,12.5756],[125.1122,12.5636],[125.0872,12.5831],[125.0742,12.5358],[125.0536,12.5497],[125.0633,12.5814],[125.0261,12.5903],[125.0008,12.6394],[124.9881,12.6422],[125.0064,12.5847],[125,12.5575],[124.975,12.5492],[124.9591,12.5763],[124.9322,12.5672],[124.8827,12.565],[124.858,12.5335],[124.8221,12.5294],[124.8008,12.5389],[124.7537,12.519],[124.6765,12.5085],[124.6615,12.518],[124.6434,12.5059],[124.5803,12.5233],[124.5574,12.5194],[124.5356,12.5264],[124.5108,12.5197],[124.494,12.5339],[124.4626,12.5408],[124.4303,12.5308],[124.4072,12.5578],[124.3944,12.5456],[124.3592,12.5536],[124.3297,12.5356],[124.3172,12.5589],[124.2808,12.5833],[124.2609,12.5492],[124.282,12.5188],[124.2847,12.4674],[124.3017,12.4555],[124.3221,12.4258],[124.3225,12.4035],[124.3361,12.3568],[124.3382,12.3146],[124.3555,12.2879],[124.3603,12.2667],[124.3909,12.1945],[124.4493,12.1549],[124.4731,12.1128],[124.5041,12.0917],[124.5354,12.0576],[124.566,12.0665],[124.5956,12.0653],[124.6369,12.0519],[124.6903,12.0042],[124.7119,11.9508],[124.7339,11.9494],[124.7517,11.9283],[124.7514,11.8986],[124.7716,11.9083],[124.7894,11.9041],[124.7947,11.885],[124.7841,11.8618],[124.8584,11.8108],[124.8847,11.7624],[124.9083,11.74],[124.9963,11.7791],[125.0128,11.7772],[125.0442,11.7494],[125.0242,11.7306],[125.0095,11.7028],[124.975,11.6727],[124.9725,11.6601],[124.9939,11.6239],[124.9575,11.5974],[124.9472,11.5717],[124.9249,11.5678],[124.9064,11.5789],[124.8815,11.5775],[124.8928,11.5542],[124.8861,11.533],[124.8514,11.5443],[124.832,11.5221],[124.8229,11.4975],[124.8404,11.4654],[124.8783,11.4729],[124.903,11.4701],[124.941,11.4486],[124.9597,11.4537],[124.9637,11.4318],[124.985,11.424],[124.9854,11.3907],[124.9946,11.3529],[124.9729,11.3222],[124.9789,11.3],[125.0003,11.2694],[125.0472,11.2814],[125.0654,11.2776],[125.1384,11.2816],[125.1678,11.2539],[125.1822,11.2136],[125.179,11.1987],[125.1947,11.1825],[125.2015,11.1379],[125.2119,11.1167],[125.2089,11.0981],[125.234,11.0857],[125.2456,11.1164],[125.2652,11.1361],[125.2944,11.1408],[125.3172,11.1167],[125.3603,11.1194],[125.4014,11.0992],[125.4081,11.0819],[125.4358,11.0983],[125.4792,11.1142],[125.5111,11.0814],[125.5173,11.1317],[125.5423,11.1524],[125.5705,11.1479],[125.5686,11.1272],[125.5828,11.1131],[125.6562,11.1419],[125.6658,11.1167],[125.6921,11.1078],[125.6756,11.0908],[125.7011,11.0681],[125.7183,11.0347],[125.7411,11.0164]]]]},"properties":{"GID_0":"PHL","ISO_A2":"PH","ISO_A3":"PHL","NAME_EN":"Philippines","NAME_IT":"Filippine"}}
]}