{"type":"FeatureCollection", "features": [
{"type":"Feature","geometry":{"type":"MultiPolygon","coordinates":[[[[-155.8675,-5.6234],[-155.8947,-5.6205],[-155.9069,-5.6265],[-155.9338,-5.6303],[-155.9303,-5.6394],[-155.9097,-5.643],[-155.8936,-5.6572],[-155.8772,-5.6658],[-155.8622,-5.6542],[-155.8426,-5.6471],[-155.8386,-5.6378],[-155.8578,-5.6225],[-155.8675,-5.6234]]],[[[-154.8942,-3.9981],[-154.8927,-3.9867],[-154.918,-3.9947],[-154.9649,-3.9983],[-154.9711,-4.0157],[-154.9406,-4.0409],[-154.9193,-4.0521],[-154.9042,-4.045],[-154.9042,-4.0216],[-154.8942,-3.9981]]],[[[169.5478,-0.8506],[169.5295,-0.8443],[169.5209,-0.8549],[169.5273,-0.8664],[169.5427,-0.8723],[169.5478,-0.8506]]],[[[-171.2398,-4.4397],[-171.2622,-4.4514],[-171.255,-4.4658],[-171.2325,-4.4678],[-171.2264,-4.4598],[-171.2398,-4.4397]]],[[[-171.09,-3.147],[-171.0752,-3.1417],[-171.0807,-3.1241],[-171.0812,-3.1062],[-171.0922,-3.1087],[-171.09,-3.147]]],[[[-157.4469,2.0474],[-157.4572,2.0491],[-157.4922,2.0453],[-157.4961,2.0281],[-157.4806,2.0225],[-157.4583,2.03],[-157.4513,2.0197],[-157.455,2.0083],[-157.4428,2.0003],[-157.42,1.9959],[-157.42,1.9772],[-157.4067,1.9569],[-157.3886,1.9595],[-157.3908,1.9378],[-157.3903,1.9],[-157.4008,1.8833],[-157.4192,1.8844],[-157.4208,1.8533],[-157.4103,1.8467],[-157.4125,1.8361],[-157.4403,1.8522],[-157.4503,1.84],[-157.4603,1.8472],[-157.4742,1.8691],[-157.4833,1.8739],[-157.5203,1.8783],[-157.5317,1.8681],[-157.5397,1.8925],[-157.5625,1.8761],[-157.5575,1.8642],[-157.5378,1.8459],[-157.5016,1.8586],[-157.4789,1.8411],[-157.4678,1.8133],[-157.4389,1.7889],[-157.4269,1.7836],[-157.39,1.7758],[-157.3708,1.7773],[-157.3492,1.7729],[-157.3147,1.7583],[-157.2755,1.7295],[-157.2547,1.7189],[-157.2417,1.7031],[-157.2061,1.6927],[-157.1667,1.7008],[-157.1631,1.7092],[-157.1675,1.7522],[-157.1844,1.7673],[-157.2319,1.7792],[-157.2486,1.7914],[-157.31,1.8167],[-157.3289,1.83],[-157.3406,1.845],[-157.3453,1.9047],[-157.3306,1.9375],[-157.307,1.9497],[-157.3012,1.9692],[-157.3144,1.9872],[-157.3542,1.9911],[-157.3804,1.9993],[-157.4137,2.0236],[-157.425,2.0402],[-157.4469,2.0474]]],[[[173.0022,1.0306],[173.0128,1.0178],[173.0242,1.0149],[173.0258,1.0033],[173.0459,0.9917],[173.0573,0.9789],[173.0625,0.9592],[173.0278,0.9286],[173.0117,0.8853],[172.9967,0.8661],[172.9754,0.857],[172.9726,0.8481],[172.9839,0.8375],[173.0011,0.8501],[173.0112,0.8701],[173.0323,0.9264],[173.0467,0.9423],[173.0699,0.9588],[173.0717,0.9785],[173.0518,0.9985],[173.0375,1.0064],[173.0167,1.0245],[173.0022,1.0306]]],[[[173.1269,1.3994],[173.1314,1.3853],[173.1453,1.3775],[173.1369,1.3614],[173.1589,1.3586],[173.1622,1.3769],[173.1269,1.3994]]],[[[172.955,1.6372],[172.9622,1.6241],[172.9533,1.6117],[172.965,1.6008],[172.9728,1.5631],[172.9947,1.5381],[172.9953,1.5553],[172.9833,1.5589],[172.9745,1.5725],[172.9664,1.6156],[172.9667,1.6292],[172.955,1.6372]]],[[[176.7938,-2.6136],[176.8164,-2.6341],[176.8286,-2.6542],[176.8442,-2.6569],[176.8217,-2.626],[176.8095,-2.6172],[176.7938,-2.6136]]],[[[176.4379,-1.3141],[176.4115,-1.3117],[176.4186,-1.3278],[176.4686,-1.3722],[176.4747,-1.3911],[176.4892,-1.3861],[176.4669,-1.367],[176.4606,-1.3572],[176.4496,-1.3237],[176.4379,-1.3141]]],[[[175.965,-1.2787],[175.9566,-1.2702],[175.9447,-1.2865],[175.9457,-1.2951],[175.9769,-1.2996],[175.9926,-1.3242],[175.9936,-1.3369],[175.9842,-1.3422],[175.9912,-1.3569],[176.0058,-1.3614],[176.0242,-1.3752],[176.0264,-1.3616],[176.0036,-1.3347],[175.9823,-1.2952],[175.965,-1.2787]]],[[[174.7933,-1.2614],[174.7975,-1.2744],[174.7955,-1.3022],[174.8027,-1.3046],[174.7981,-1.2684],[174.7933,-1.2614]]],[[[174.6675,-1.1042],[174.6586,-1.125],[174.6639,-1.1342],[174.6789,-1.1391],[174.7061,-1.1558],[174.7259,-1.1717],[174.7308,-1.1869],[174.7583,-1.2153],[174.7606,-1.2061],[174.7492,-1.1981],[174.7473,-1.188],[174.7325,-1.1722],[174.7186,-1.1483],[174.7089,-1.1466],[174.6861,-1.1283],[174.6675,-1.1042]]],[[[173.9267,0.397],[173.9247,0.3831],[173.9355,0.3556],[173.9336,0.3178],[173.9478,0.3231],[173.9425,0.3622],[173.9267,0.397]]],[[[173.8372,0.4947],[173.8428,0.487],[173.9045,0.4309],[173.9156,0.4086],[173.9256,0.4098],[173.9153,0.4342],[173.857,0.4836],[173.8372,0.4947]]],[[[173.5508,0.1881],[173.5364,0.1822],[173.5628,0.1697],[173.576,0.1757],[173.5661,0.1861],[173.5508,0.1881]]],[[[173.3919,0.2678],[173.3786,0.2606],[173.4056,0.24],[173.4142,0.2069],[173.4283,0.1989],[173.4511,0.2172],[173.4336,0.2267],[173.4114,0.2317],[173.4042,0.2594],[173.3919,0.2678]]],[[[173.2717,2.0604],[173.2587,2.0459],[173.2592,2.0134],[173.2511,1.9975],[173.2589,1.9742],[173.2928,1.97],[173.3081,1.9745],[173.2935,2.0088],[173.2822,2.0495],[173.2717,2.0604]]],[[[173.0108,3.3908],[172.9939,3.3925],[172.977,3.3763],[172.9861,3.3627],[172.9958,3.3778],[173.0065,3.3786],[173.0108,3.3908]]],[[[172.8953,3.1028],[172.8869,3.0989],[172.87,3.1045],[172.8219,3.0981],[172.8256,3.0917],[172.8428,3.0964],[172.8697,3.0983],[172.9017,3.0906],[172.8953,3.1028]]],[[[-159.3375,3.94],[-159.3264,3.9333],[-159.3219,3.8936],[-159.3167,3.8869],[-159.2911,3.8722],[-159.2644,3.8708],[-159.248,3.8553],[-159.2459,3.8461],[-159.2559,3.8339],[-159.2672,3.8314],[-159.2855,3.8167],[-159.3069,3.8147],[-159.3306,3.8208],[-159.3394,3.8147],[-159.3144,3.8047],[-159.2786,3.8097],[-159.2511,3.8269],[-159.24,3.8457],[-159.2422,3.863],[-159.2554,3.878],[-159.2922,3.8822],[-159.3078,3.8906],[-159.316,3.9011],[-159.3208,3.9308],[-159.3375,3.94]]],[[[-159.3461,3.9389],[-159.3609,3.9373],[-159.3786,3.9269],[-159.395,3.9017],[-159.3881,3.8822],[-159.3658,3.8619],[-159.3639,3.8747],[-159.3847,3.8903],[-159.3853,3.9117],[-159.3697,3.9256],[-159.3569,3.9253],[-159.3461,3.9389]]],[[[-160.3905,4.6989],[-160.4103,4.6933],[-160.4087,4.6861],[-160.3764,4.6694],[-160.3586,4.6689],[-160.35,4.6742],[-160.3531,4.6869],[-160.3905,4.6989]]]]},"properties":{"GID_0":"KIR","ISO_A2":"KI","ISO_A3":"KIR","NAME_EN":"Kiribati","NAME_IT":"Kiribati"}}
]}