{"type":"FeatureCollection", "features": [
{"type":"Feature","geometry":{"type":"Polygon","coordinates":[[[25.1287,41.3224],[25.2139,41.2774],[25.2308,41.2434],[25.328,41.2403],[25.4669,41.2874],[25.518,41.2769],[25.5378,41.3082],[25.65,41.3104],[25.7015,41.2912],[25.7192,41.316],[25.771,41.3146],[25.8125,41.3368],[25.8548,41.3054],[25.9626,41.3127],[25.9985,41.3391],[26.1174,41.3487],[26.1507,41.4199],[26.1865,41.4482],[26.1535,41.4714],[26.1838,41.5172],[26.145,41.552],[26.1509,41.6026],[26.0966,41.6244],[26.0619,41.6598],[26.059,41.6958],[26.1743,41.748],[26.286,41.7119],[26.3346,41.7176],[26.3484,41.7832],[26.3839,41.8362],[26.5284,41.8364],[26.5815,41.8781],[26.5692,41.9275],[26.6195,41.9639],[26.7511,41.9545],[26.7812,41.978],[26.8385,41.9694],[26.865,41.9874],[26.9681,42.0021],[27.0145,42.0462],[27.0281,42.0812],[27.0777,42.0943],[27.1716,42.0701],[27.2719,42.1063],[27.3769,42.0495],[27.4414,41.9699],[27.5053,41.9532],[27.5514,41.8996],[27.6081,41.9376],[27.6926,41.973],[27.7947,41.9439],[27.813,41.9798],[27.8563,41.9961],[27.9399,41.9724],[28.0154,41.9787],[28.0157,42.0276],[27.9493,42.1004],[27.8521,42.1665],[27.8429,42.1896],[27.7554,42.2457],[27.7399,42.3276],[27.7107,42.3621],[27.7101,42.4004],[27.6476,42.4182],[27.6518,42.451],[27.5632,42.4457],[27.5226,42.4307],[27.4518,42.4532],[27.5093,42.5515],[27.6354,42.5726],[27.6449,42.6382],[27.7124,42.6512],[27.7265,42.7082],[27.8937,42.6974],[27.9007,42.7663],[27.8843,42.8221],[27.9013,42.8565],[27.9068,42.9299],[27.886,43.0096],[27.9137,43.0626],[27.9471,43.1657],[27.9418,43.2104],[28.0051,43.2185],[28.0932,43.3768],[28.3088,43.4179],[28.471,43.3815],[28.5393,43.4299],[28.6032,43.5204],[28.6046,43.5524],[28.5682,43.6015],[28.5793,43.6376],[28.5654,43.696],[28.5799,43.7404],[28.4371,43.7359],[28.3501,43.7555],[28.227,43.7702],[28.1292,43.7937],[27.9957,43.8432],[27.9457,43.9851],[27.9183,44.0085],[27.845,43.9667],[27.7115,43.9597],[27.6751,44.0301],[27.6134,44.0125],[27.4702,44.0228],[27.4009,44.0126],[27.3576,44.059],[27.2927,44.0755],[27.2735,44.1264],[27.1867,44.1208],[27.1402,44.1404],[27.0434,44.1449],[26.9082,44.1336],[26.7794,44.0827],[26.5943,44.0503],[26.5298,44.0539],[26.4592,44.0388],[26.375,44.0428],[26.1933,43.9835],[26.1132,43.9725],[26.0443,43.9013],[25.9414,43.8521],[25.8858,43.7838],[25.8131,43.7461],[25.7815,43.7106],[25.7274,43.6914],[25.6667,43.6901],[25.5725,43.6474],[25.5098,43.6472],[25.3916,43.6193],[25.3471,43.6292],[25.2481,43.6847],[25.1688,43.7001],[25.1128,43.6842],[25.0598,43.6914],[25,43.7276],[24.949,43.7296],[24.8806,43.7071],[24.8007,43.7082],[24.754,43.6874],[24.7063,43.6941],[24.6246,43.7427],[24.4998,43.7619],[24.4101,43.7372],[24.3501,43.6977],[24.3123,43.7007],[24.1749,43.6829],[24.0879,43.7025],[23.9683,43.7449],[23.8649,43.7554],[23.7023,43.8044],[23.6329,43.7917],[23.5694,43.8011],[23.509,43.8342],[23.4167,43.8531],[23.2693,43.8471],[23.1323,43.8057],[23.0446,43.7966],[22.868,43.8387],[22.8398,43.887],[22.8803,43.9819],[23.0116,44.0138],[23.0472,44.0582],[23.0259,44.0897],[22.9375,44.1001],[22.8147,44.1542],[22.751,44.1982],[22.6625,44.2081],[22.6122,44.1047],[22.6177,44.0572],[22.5228,44.0415],[22.5162,44.0095],[22.4044,43.9943],[22.3988,43.9258],[22.3438,43.793],[22.383,43.7405],[22.3907,43.6867],[22.4626,43.6482],[22.47,43.5478],[22.5124,43.462],[22.5722,43.4273],[22.6301,43.4201],[22.8035,43.3198],[22.8251,43.2654],[22.8739,43.2142],[22.9593,43.1923],[22.9574,43.1017],[22.8938,43.0675],[22.8747,43.0246],[22.8227,42.9809],[22.7702,42.962],[22.7619,42.9126],[22.7333,42.8728],[22.6563,42.8542],[22.6049,42.8749],[22.504,42.8392],[22.4237,42.7856],[22.4783,42.7054],[22.4412,42.6691],[22.4467,42.627],[22.419,42.5819],[22.5337,42.4854],[22.503,42.3903],[22.4652,42.388],[22.4464,42.3385],[22.3516,42.3134],[22.4176,42.2485],[22.4938,42.1431],[22.5806,42.0861],[22.6574,42.0507],[22.8003,42.0064],[22.8379,42.0065],[22.847,41.9227],[22.8753,41.8635],[22.9018,41.8501],[22.9502,41.7556],[23.0057,41.7182],[22.9575,41.6403],[22.926,41.6327],[22.9378,41.4517],[22.925,41.4087],[22.9356,41.3369],[23.0598,41.321],[23.1848,41.3228],[23.2227,41.3764],[23.2704,41.3993],[23.3518,41.3786],[23.4288,41.4061],[23.5191,41.4051],[23.6241,41.3759],[23.666,41.4086],[23.7579,41.395],[23.7964,41.4322],[23.902,41.4515],[23.9641,41.4366],[24.0667,41.4651],[24.0561,41.5153],[24.0995,41.5487],[24.1822,41.5293],[24.2664,41.5635],[24.3047,41.5138],[24.3739,41.5325],[24.435,41.5197],[24.5237,41.5666],[24.5553,41.5451],[24.5631,41.4738],[24.5993,41.4319],[24.7281,41.4132],[24.7443,41.3779],[24.7881,41.3569],[24.8103,41.3956],[24.9302,41.3854],[25.0558,41.3564],[25.1287,41.3224]]]},"properties":{"GID_0":"BGR","ISO_A2":"BG","ISO_A3":"BGR","NAME_EN":"Bulgaria","NAME_IT":"Bulgaria"}}
]}