{"type":"FeatureCollection", "features": [
{"type":"Feature","geometry":{"type":"Polygon","coordinates":[[[-61.3749,15.2707],[-61.3779,15.2585],[-61.3654,15.2149],[-61.3312,15.2129],[-61.3057,15.2451],[-61.259,15.2513],[-61.2451,15.2874],[-61.241,15.3326],[-61.2521,15.3651],[-61.2401,15.3951],[-61.2574,15.4368],[-61.2446,15.459],[-61.2557,15.5179],[-61.2754,15.5232],[-61.3054,15.5735],[-61.3407,15.5943],[-61.3904,15.5979],[-61.4174,15.6365],[-61.4585,15.6385],[-61.4668,15.6068],[-61.456,15.5712],[-61.4801,15.5365],[-61.4501,15.4432],[-61.4362,15.4335],[-61.4274,15.3974],[-61.3951,15.3582],[-61.3887,15.3151],[-61.3749,15.2707]]]},"properties":{"GID_0":"DMA","ISO_A2":"DM","ISO_A3":"DMA","NAME_EN":"Dominica","NAME_IT":"Dominica"}}
]}