{"type":"FeatureCollection", "features": [
{"type":"Feature","geometry":{"type":"MultiPolygon","coordinates":[[[[-178.05,-14.3208],[-178.0703,-14.3358],[-178.0419,-14.3622],[-178.0225,-14.3478],[-178.0289,-14.3233],[-178.05,-14.3208]]],[[[-178.1405,-14.3103],[-178.0669,-14.3136],[-178.0714,-14.2981],[-178.0883,-14.2961],[-178.1308,-14.2586],[-178.1797,-14.2431],[-178.1825,-14.255],[-178.1583,-14.3036],[-178.1405,-14.3103]]],[[[-176.1864,-13.3075],[-176.1614,-13.2661],[-176.188,-13.2242],[-176.2133,-13.2233],[-176.2269,-13.2544],[-176.2247,-13.2775],[-176.2511,-13.29],[-176.2508,-13.3067],[-176.22,-13.33],[-176.2195,-13.3481],[-176.1997,-13.3444],[-176.1892,-13.3283],[-176.1864,-13.3075]]]]},"properties":{"GID_0":"WLF","ISO_A2":"WF","ISO_A3":"WLF","NAME_EN":"Wallis and Futuna Is.","NAME_IT":"Wallis e Futuna"}}
]}