{"type":"FeatureCollection", "features": [
{"type":"Feature","geometry":{"type":"MultiPolygon","coordinates":[[[[42.911,12.9654],[42.8885,12.9588],[42.9071,12.9176],[42.9457,12.8815],[42.9579,12.9435],[42.911,12.9654]]],[[[38.5699,18.0065],[38.4524,17.8983],[38.39,17.756],[38.3876,17.7319],[38.3417,17.6496],[38.299,17.6393],[38.2804,17.6254],[38.2601,17.5586],[38.2435,17.5543],[38.1662,17.573],[38.1303,17.5731],[38.1089,17.5589],[38.1013,17.5224],[38.1066,17.4805],[38.0707,17.482],[38.0676,17.5523],[38.0568,17.5647],[38.0184,17.5491],[38.0039,17.5571],[37.9725,17.516],[37.977,17.491],[37.9177,17.4571],[37.8703,17.4526],[37.857,17.486],[37.837,17.5],[37.7874,17.4961],[37.7748,17.4805],[37.7655,17.384],[37.6123,17.3741],[37.5153,17.3369],[37.4924,17.3069],[37.4978,17.2847],[37.5218,17.263],[37.4954,17.2491],[37.4982,17.2082],[37.4661,17.1583],[37.4681,17.1473],[37.4371,17.1024],[37.4145,17.0993],[37.3947,17.0471],[37.311,17.0944],[37.2521,17.0756],[37.2201,17.0787],[37.1974,17.0634],[37.1288,17.0572],[37.1112,17.082],[37.0213,17.096],[37.002,17.0682],[37.0182,17.0293],[36.9835,16.9691],[37.0041,16.9414],[36.9984,16.9183],[37.011,16.8801],[37.002,16.8302],[37.0293,16.8011],[36.9827,16.7497],[36.9905,16.7258],[36.9558,16.6865],[36.9011,16.6758],[36.9038,16.6106],[36.8874,16.5454],[36.8996,16.4964],[36.939,16.4443],[36.9626,16.4355],[36.949,16.366],[36.9336,16.3541],[36.9584,16.2806],[36.9316,16.2629],[36.8993,16.2264],[36.8102,15.9416],[36.7889,15.8999],[36.768,15.8297],[36.7469,15.8008],[36.6997,15.713],[36.6388,15.5219],[36.6303,15.468],[36.6149,15.4417],[36.6135,15.4132],[36.5416,15.228],[36.4711,15.1975],[36.4388,15.1566],[36.4496,15.1004],[36.4682,14.9471],[36.472,14.8555],[36.4819,14.7933],[36.5002,14.6041],[36.5054,14.512],[36.5269,14.3291],[36.5436,14.2786],[36.6182,14.2929],[36.6213,14.3062],[36.6858,14.2959],[36.7465,14.3177],[36.8249,14.3137],[36.8633,14.3178],[36.9692,14.2871],[37.0081,14.2495],[37.038,14.2642],[37.0893,14.268],[37.1034,14.2908],[37.0996,14.3333],[37.1288,14.399],[37.1569,14.4158],[37.1797,14.4145],[37.212,14.4369],[37.2479,14.4295],[37.3079,14.4426],[37.3367,14.4111],[37.3771,14.4285],[37.4033,14.4714],[37.489,14.4731],[37.5488,14.4461],[37.5954,14.4776],[37.6572,14.4947],[37.6707,14.5042],[37.7237,14.6238],[37.7415,14.6424],[37.7736,14.6304],[37.7827,14.6537],[37.7736,14.6982],[37.7819,14.7349],[37.8326,14.8052],[37.8495,14.8125],[37.8757,14.7999],[37.9021,14.81],[37.9403,14.8455],[37.971,14.8304],[37.9879,14.8079],[37.992,14.7792],[38.0215,14.755],[38.0183,14.7366],[38.0535,14.7108],[38.0915,14.7066],[38.1092,14.6901],[38.1503,14.6748],[38.1874,14.6892],[38.2282,14.6858],[38.2611,14.6671],[38.2645,14.6141],[38.2861,14.6075],[38.3153,14.5735],[38.3152,14.5507],[38.3559,14.5067],[38.3622,14.4868],[38.3948,14.4815],[38.4208,14.4637],[38.4474,14.4104],[38.4837,14.4182],[38.5159,14.4051],[38.5374,14.4201],[38.5944,14.4386],[38.6158,14.4335],[38.7029,14.4653],[38.7305,14.4589],[38.794,14.4632],[38.8484,14.4957],[38.9049,14.5012],[38.9373,14.5321],[38.9747,14.5416],[39.01,14.5903],[39.0085,14.6162],[39.0235,14.6324],[39.0976,14.6334],[39.1247,14.6134],[39.1575,14.6203],[39.2003,14.611],[39.2265,14.5682],[39.2386,14.5659],[39.2315,14.5192],[39.2167,14.4961],[39.221,14.4538],[39.2497,14.3923],[39.3008,14.4114],[39.3148,14.4376],[39.3138,14.4789],[39.34,14.5113],[39.3646,14.5058],[39.3646,14.534],[39.3985,14.5382],[39.4533,14.5269],[39.4726,14.4983],[39.4931,14.5089],[39.5004,14.5438],[39.4917,14.5825],[39.4775,14.6036],[39.5027,14.677],[39.5752,14.6699],[39.6227,14.6359],[39.6288,14.6088],[39.6574,14.5898],[39.6803,14.5888],[39.7093,14.5514],[39.7668,14.5408],[39.7926,14.5002],[39.8726,14.4619],[39.9237,14.415],[39.9499,14.4106],[40.0102,14.4396],[40.0553,14.4869],[40.1399,14.4981],[40.2226,14.4786],[40.331,14.424],[40.3847,14.3897],[40.4445,14.3635],[40.5456,14.3014],[40.6505,14.2294],[40.8367,14.0841],[41.0773,13.8785],[41.2504,13.7127],[41.3137,13.6303],[41.3785,13.5699],[41.4397,13.5195],[41.5781,13.3857],[41.6117,13.3475],[41.7373,13.2312],[41.7864,13.1753],[41.8787,13.0896],[41.9726,12.9832],[42.0102,12.9207],[42.0502,12.8431],[42.1357,12.7459],[42.2424,12.6156],[42.2803,12.5564],[42.3097,12.5212],[42.3548,12.4449],[42.3963,12.4556],[42.4657,12.5279],[42.5493,12.4897],[42.5917,12.458],[42.6452,12.3987],[42.7009,12.357],[42.7162,12.385],[42.7467,12.3855],[42.7636,12.413],[42.8029,12.417],[42.8233,12.4357],[42.8179,12.4619],[42.7972,12.4764],[42.8005,12.5093],[42.8282,12.5457],[42.8618,12.5702],[42.8657,12.5933],[42.8875,12.6171],[42.9157,12.6142],[42.9825,12.6489],[43.1182,12.7052],[43.0904,12.7735],[43.0893,12.8032],[43.0724,12.8407],[43.0229,12.8857],[43.0246,12.9118],[42.9824,12.9512],[42.9668,12.9143],[42.986,12.9007],[42.9929,12.8613],[42.9829,12.8171],[42.9437,12.809],[42.9251,12.7832],[42.9046,12.7924],[42.8282,12.8615],[42.7857,12.8415],[42.761,12.8715],[42.7707,12.8815],[42.7635,12.9285],[42.7329,12.9682],[42.749,13.024],[42.7121,13.0529],[42.6735,13.0538],[42.6443,13.1085],[42.5671,13.1849],[42.5476,13.1954],[42.4924,13.1829],[42.4593,13.186],[42.4179,13.2035],[42.3949,13.2029],[42.3799,13.2224],[42.359,13.3913],[42.3429,13.4379],[42.3079,13.4763],[42.3076,13.5157],[42.2921,13.5618],[42.2726,13.5757],[42.2354,13.6243],[42.2054,13.5943],[42.1454,13.6499],[42.1157,13.6354],[42.0765,13.7082],[42.0543,13.7282],[42.0324,13.7732],[42.0104,13.7785],[42.0013,13.8224],[41.9774,13.8271],[41.9718,13.8485],[41.9085,13.8638],[41.8587,13.8649],[41.8143,13.9218],[41.7746,13.9163],[41.7249,13.9185],[41.7215,13.939],[41.6913,13.9318],[41.6671,13.994],[41.6243,14.0668],[41.589,14.1032],[41.5496,14.1304],[41.5124,14.2093],[41.4607,14.2726],[41.4207,14.299],[41.4001,14.3574],[41.3785,14.3824],[41.344,14.4051],[41.3282,14.4624],[41.2988,14.5099],[41.2751,14.5315],[41.2243,14.5607],[41.1935,14.6051],[41.1885,14.6265],[41.1307,14.6415],[41.1071,14.6554],[41.0462,14.6701],[40.9985,14.6635],[40.9176,14.7046],[40.8982,14.7285],[40.789,14.7057],[40.751,14.7374],[40.7318,14.7776],[40.7482,14.8015],[40.7465,14.8457],[40.7301,14.8429],[40.6868,14.8879],[40.6743,14.916],[40.6518,14.8946],[40.6182,14.8932],[40.6465,14.9296],[40.621,14.9518],[40.5765,14.949],[40.5615,14.9643],[40.5696,14.999],[40.5457,15.0032],[40.5379,14.9824],[40.504,14.9618],[40.4618,14.9801],[40.4671,14.999],[40.421,14.9985],[40.4254,14.9696],[40.391,14.9513],[40.3704,14.984],[40.3557,14.9485],[40.2951,14.9046],[40.2796,14.9276],[40.2118,14.9474],[40.1807,14.9796],[40.161,14.9882],[40.1596,15.0335],[40.1463,15.0537],[40.1065,15.0626],[40.1015,15.1207],[40.0863,15.1332],[40.0649,15.1754],[40.0693,15.2082],[40.0557,15.2307],[40.0276,15.2407],[40.0546,15.2835],[40.0812,15.3024],[40.089,15.3251],[40.0588,15.3604],[40.0326,15.3665],[39.9829,15.3982],[39.9749,15.4185],[39.8826,15.4835],[39.8332,15.4471],[39.8063,15.4457],[39.8046,15.4149],[39.776,15.3974],[39.7896,15.3496],[39.7762,15.3132],[39.7851,15.2632],[39.8218,15.2665],[39.8507,15.2001],[39.8526,15.1643],[39.8254,15.126],[39.8135,15.0707],[39.7649,15.0629],[39.7529,15.0874],[39.7124,15.0924],[39.6963,15.1204],[39.7143,15.2615],[39.6874,15.304],[39.6587,15.3349],[39.6479,15.3921],[39.6146,15.4943],[39.5665,15.5376],[39.5371,15.5371],[39.4963,15.5146],[39.4632,15.5296],[39.4424,15.5982],[39.4804,15.6437],[39.449,15.6804],[39.4465,15.719],[39.4285,15.7399],[39.4274,15.7685],[39.4426,15.7904],[39.4321,15.809],[39.3751,15.8371],[39.3288,15.8926],[39.3054,15.8971],[39.2949,15.951],[39.2746,15.9715],[39.2626,16.0379],[39.2415,16.074],[39.2176,16.2051],[39.1979,16.2888],[39.2046,16.344],[39.1882,16.4154],[39.1946,16.4229],[39.1693,16.5012],[39.1532,16.5368],[39.1674,16.5524],[39.1387,16.5987],[39.151,16.6374],[39.1451,16.699],[39.1232,16.7399],[39.1182,16.7796],[39.1013,16.8032],[39.0921,16.8476],[39.0679,16.8851],[39.0429,17.0007],[39.0246,17.0471],[39.0149,17.096],[38.9985,17.1413],[38.9924,17.2001],[38.9735,17.2143],[38.9663,17.2746],[38.9421,17.3246],[38.939,17.369],[38.9224,17.4174],[38.8904,17.4826],[38.8629,17.5154],[38.8513,17.5563],[38.8007,17.6457],[38.7676,17.686],[38.7212,17.7607],[38.7001,17.7804],[38.6468,17.8674],[38.6329,17.9179],[38.6151,17.9182],[38.5996,17.9529],[38.5674,17.989],[38.5699,18.0065]]],[[[40.3007,15.0571],[40.274,14.9788],[40.3076,14.9768],[40.3526,15.0132],[40.3387,15.0468],[40.3007,15.0571]]],[[[40.2971,15.1993],[40.2626,15.1935],[40.231,15.1685],[40.2271,15.1368],[40.2546,15.1054],[40.281,15.1215],[40.2676,15.1643],[40.2971,15.1993]]],[[[40.2571,15.2496],[40.2318,15.2407],[40.2346,15.2151],[40.2668,15.2226],[40.2571,15.2496]]],[[[40.206,15.7376],[40.1801,15.7349],[40.1865,15.7107],[40.1585,15.6899],[40.1749,15.6599],[40.2099,15.6749],[40.206,15.7376]]],[[[39.9585,15.886],[39.9826,15.8612],[40.0126,15.8654],[40.0421,15.8413],[40.0285,15.816],[40.0076,15.8296],[39.9871,15.8032],[39.9924,15.7762],[39.9646,15.7713],[39.9485,15.7854],[39.9226,15.7624],[39.9287,15.7282],[39.9549,15.719],[39.9829,15.741],[40.0204,15.7288],[40.0835,15.6599],[40.0724,15.6385],[40.031,15.6299],[40.0035,15.6549],[39.974,15.661],[39.9554,15.6521],[39.9793,15.6076],[40.0343,15.601],[40.056,15.5774],[40.1182,15.591],[40.1615,15.5832],[40.2204,15.5932],[40.2701,15.5813],[40.3165,15.5615],[40.3624,15.5754],[40.426,15.5612],[40.4138,15.6313],[40.3854,15.6349],[40.3368,15.6596],[40.3293,15.6851],[40.2568,15.6996],[40.2293,15.6907],[40.251,15.6412],[40.2299,15.6146],[40.1818,15.6246],[40.1554,15.6437],[40.1512,15.6776],[40.1351,15.7188],[40.1463,15.7863],[40.1418,15.8074],[40.1043,15.8021],[40.0965,15.8357],[40.0315,15.8665],[40.0176,15.8813],[39.9585,15.886]]],[[[40.1671,16.061],[40.1312,16.0415],[40.169,16.0193],[40.1907,16.0346],[40.1671,16.061]]],[[[39.8954,16.3487],[39.8521,16.3412],[39.8918,16.3085],[39.906,16.3285],[39.8954,16.3487]]],[[[40.051,16.1162],[40.039,16.1015],[40.0418,16.0532],[39.9935,16.0571],[39.9943,16.0032],[40.046,16.0115],[40.0635,15.989],[40.1074,15.9757],[40.0996,16.0004],[40.0743,16.0338],[40.0849,16.0485],[40.1201,16.0549],[40.1171,16.0774],[40.0732,16.0868],[40.051,16.1162]]],[[[40.171,16.1943],[40.1532,16.1382],[40.1251,16.1268],[40.1265,16.0999],[40.1538,16.0879],[40.1643,16.109],[40.1646,16.154],[40.2007,16.1665],[40.171,16.1943]]],[[[40.1563,16.5493],[40.1312,16.5235],[40.1387,16.4968],[40.1893,16.5126],[40.1563,16.5493]]]]},"properties":{"GID_0":"ERI","ISO_A2":"ER","ISO_A3":"ERI","NAME_EN":"Eritrea","NAME_IT":"Eritrea"}}
]}