{"type":"FeatureCollection", "features": [
{"type":"Feature","geometry":{"type":"MultiPolygon","coordinates":[[[[124.6738,39.5751],[124.646,39.5707],[124.6201,39.5468],[124.6721,39.536],[124.6985,39.5585],[124.6738,39.5751]]],[[[124.8907,39.6163],[124.8735,39.5801],[124.854,39.5735],[124.8368,39.5046],[124.8582,39.504],[124.8876,39.5229],[124.9132,39.5693],[124.9085,39.5996],[124.8907,39.6163]]],[[[125.3404,37.771],[125.2504,37.7404],[125.2329,37.7132],[125.2685,37.716],[125.2982,37.7265],[125.3404,37.771]]],[[[124.8135,38.566],[124.8179,38.5565],[124.784,38.5315],[124.8187,38.5232],[124.8538,38.506],[124.8954,38.5093],[124.8754,38.5426],[124.8549,38.5424],[124.8135,38.566]]],[[[124.9926,38.6757],[124.9815,38.6224],[125.0076,38.6346],[125.0207,38.6574],[124.9926,38.6757]]],[[[125.5718,38.0238],[125.6038,38.034],[125.6438,38.0199],[125.6799,38.0254],[125.6982,37.9996],[125.7162,38.0199],[125.751,38.0185],[125.7676,37.9979],[125.809,37.9949],[125.7907,37.9618],[125.8265,37.941],[125.8593,37.899],[125.8299,37.8893],[125.8446,37.8618],[125.8824,37.8746],[125.9124,37.8129],[125.9863,37.8329],[125.9904,37.866],[126.0335,37.8424],[126.046,37.8465],[126.0679,37.794],[126.0951,37.776],[126.0865,37.7554],[126.1376,37.7415],[126.1574,37.7451],[126.1649,37.781],[126.1457,37.8276],[126.161,37.8377],[126.2143,37.8507],[126.2624,37.8413],[126.321,37.8721],[126.3904,37.8907],[126.4224,37.8538],[126.454,37.8451],[126.4724,37.8185],[126.501,37.8188],[126.5474,37.7954],[126.5437,37.7808],[126.5753,37.7627],[126.6028,37.7629],[126.6255,37.7791],[126.6671,37.7851],[126.6787,37.8359],[126.6921,37.8685],[126.6953,37.9113],[126.6829,37.9453],[126.7415,37.9625],[126.778,37.9635],[126.8065,37.9925],[126.8554,38.0321],[126.8743,38.0809],[126.8922,38.0992],[126.9649,38.1381],[126.962,38.1579],[126.9756,38.1997],[127.0166,38.2374],[127.1394,38.3072],[127.168,38.3018],[127.2387,38.3273],[127.2918,38.313],[127.3256,38.3139],[127.3905,38.332],[127.4353,38.3153],[127.452,38.3166],[127.5038,38.2982],[127.5551,38.3246],[127.5861,38.3331],[127.6136,38.3211],[127.6537,38.3246],[127.6818,38.319],[127.7026,38.3299],[127.7973,38.3231],[127.8335,38.3004],[127.8784,38.3133],[127.9268,38.3094],[127.9582,38.3002],[127.9918,38.2787],[128.0074,38.2791],[128.0181,38.3117],[128.047,38.305],[128.0783,38.3088],[128.1098,38.3292],[128.1377,38.3283],[128.1761,38.3561],[128.2125,38.3701],[128.2307,38.3941],[128.2892,38.4344],[128.3121,38.4727],[128.3198,38.5059],[128.3151,38.5863],[128.3593,38.6122],[128.3474,38.6865],[128.2696,38.7407],[128.2549,38.7335],[128.2124,38.7349],[128.1899,38.7496],[128.1687,38.7768],[128.1465,38.7857],[128.1326,38.8151],[128.0846,38.8449],[128.0476,38.8463],[128.0065,38.8571],[127.9524,38.9082],[127.8557,38.9807],[127.8482,38.9996],[127.794,39.0599],[127.7457,39.1329],[127.7257,39.1143],[127.6971,39.1165],[127.6687,39.1029],[127.6479,39.1138],[127.609,39.1557],[127.5801,39.1463],[127.5543,39.1535],[127.539,39.1401],[127.5007,39.1588],[127.4457,39.166],[127.4179,39.1793],[127.3715,39.2174],[127.366,39.269],[127.4057,39.3224],[127.4396,39.3371],[127.4657,39.3332],[127.4743,39.351],[127.4449,39.3779],[127.426,39.3532],[127.3793,39.359],[127.3821,39.3849],[127.4095,39.3966],[127.4471,39.3888],[127.491,39.4046],[127.4818,39.4268],[127.5038,39.436],[127.5146,39.401],[127.5404,39.3838],[127.5418,39.3576],[127.5238,39.3507],[127.5321,39.3026],[127.5657,39.3024],[127.5537,39.3338],[127.559,39.3526],[127.5232,39.4413],[127.5115,39.501],[127.5182,39.5263],[127.539,39.5601],[127.5593,39.571],[127.5646,39.5918],[127.5565,39.6307],[127.5404,39.6463],[127.5074,39.6421],[127.4918,39.661],[127.4887,39.6918],[127.501,39.7307],[127.5287,39.7615],[127.5471,39.7593],[127.5512,39.7926],[127.5832,39.801],[127.6246,39.834],[127.6638,39.8118],[127.6804,39.8196],[127.6982,39.8524],[127.7418,39.8607],[127.779,39.8557],[127.7979,39.8838],[127.8532,39.8879],[127.8743,39.9001],[127.8882,39.9315],[127.874,39.9421],[127.8907,39.9818],[127.9226,39.9776],[127.9604,40.0138],[127.9757,40.0151],[127.9815,40.0521],[128.0057,40.061],[128.0371,40.0521],[128.0604,40.0335],[128.0807,40.0426],[128.1954,40.0263],[128.234,40.0335],[128.2321,40.0676],[128.2665,40.0768],[128.2854,40.0624],[128.2982,40.0351],[128.319,40.0288],[128.3362,40.0674],[128.3649,40.0968],[128.4524,40.1101],[128.4676,40.1343],[128.5157,40.1346],[128.5385,40.159],[128.5938,40.1885],[128.6313,40.1788],[128.6607,40.2085],[128.6696,40.2385],[128.6163,40.2704],[128.6196,40.299],[128.641,40.3182],[128.6687,40.3085],[128.6885,40.3318],[128.7201,40.3413],[128.7482,40.336],[128.7651,40.3535],[128.8001,40.3524],[128.839,40.3724],[128.8607,40.3721],[128.911,40.4082],[128.9735,40.461],[129.0085,40.4657],[129.034,40.484],[129.0649,40.4763],[129.0974,40.4901],[129.1126,40.5201],[129.1401,40.5363],[129.1715,40.6107],[129.1846,40.6157],[129.2079,40.689],[129.239,40.7101],[129.2696,40.7107],[129.3026,40.6763],[129.3165,40.7101],[129.3385,40.7379],[129.394,40.761],[129.4296,40.7829],[129.506,40.7968],[129.5446,40.8138],[129.5712,40.8413],[129.6182,40.8449],[129.7012,40.841],[129.7304,40.8576],[129.7329,40.8929],[129.7551,40.9071],[129.7568,40.9393],[129.7343,40.9788],[129.7188,40.9874],[129.7207,41.0763],[129.7318,41.1049],[129.7126,41.1265],[129.7254,41.1424],[129.7154,41.1988],[129.7396,41.2129],[129.7354,41.2432],[129.7593,41.2788],[129.7671,41.3051],[129.7904,41.3312],[129.7904,41.3582],[129.8049,41.3793],[129.7849,41.3918],[129.7604,41.3899],[129.7382,41.4171],[129.7029,41.4249],[129.6754,41.4488],[129.6496,41.4949],[129.6565,41.5215],[129.6479,41.5507],[129.6704,41.5751],[129.6854,41.6382],[129.7063,41.6721],[129.7374,41.6835],[129.7624,41.7579],[129.8151,41.7813],[129.8682,41.794],[129.8776,41.836],[129.8874,41.8451],[129.8957,41.9085],[129.9151,41.916],[129.9462,41.896],[129.959,41.9007],[129.9765,41.946],[129.9982,41.9693],[129.979,41.989],[129.9982,41.9982],[130.0093,42.021],[130.0418,42.0268],[130.0585,42.0571],[130.0774,42.0635],[130.0801,42.0865],[130.1463,42.0943],[130.1849,42.1099],[130.2051,42.1618],[130.2312,42.1799],[130.2476,42.2038],[130.276,42.2165],[130.301,42.241],[130.3251,42.2096],[130.3485,42.2176],[130.3829,42.296],[130.4215,42.3221],[130.4646,42.3179],[130.4782,42.3399],[130.5115,42.3376],[130.5226,42.322],[130.5835,42.3151],[130.6046,42.2935],[130.6051,42.2754],[130.6744,42.2846],[130.645,42.3483],[130.66,42.3676],[130.6555,42.3865],[130.6235,42.4217],[130.5667,42.4332],[130.5698,42.4769],[130.5509,42.49],[130.5422,42.5211],[130.5253,42.5416],[130.5145,42.5745],[130.5165,42.609],[130.4747,42.6136],[130.4645,42.5863],[130.4769,42.5661],[130.4702,42.5496],[130.4366,42.5459],[130.4156,42.5702],[130.4331,42.6011],[130.3869,42.5983],[130.3563,42.6291],[130.3179,42.6519],[130.2882,42.691],[130.2482,42.7114],[130.2359,42.7426],[130.2331,42.7859],[130.2658,42.8861],[130.2524,42.8988],[130.1545,42.9069],[130.1162,42.9028],[130.1158,42.955],[130.1464,42.9694],[130.0971,42.9856],[130.0707,42.9693],[130.0122,42.9658],[129.9581,42.9762],[129.9497,43.0045],[129.8965,43.002],[129.8513,42.9634],[129.8505,42.939],[129.8633,42.9194],[129.8365,42.9057],[129.8332,42.8643],[129.8066,42.8273],[129.8072,42.8095],[129.7618,42.7109],[129.7759,42.6742],[129.7473,42.6461],[129.7514,42.6173],[129.7759,42.6036],[129.7437,42.5718],[129.7467,42.5194],[129.7406,42.4643],[129.7144,42.4268],[129.6378,42.4314],[129.6285,42.458],[129.5981,42.452],[129.6084,42.4348],[129.5937,42.4102],[129.5715,42.4028],[129.5703,42.3794],[129.545,42.3618],[129.5259,42.3863],[129.4458,42.4412],[129.4176,42.438],[129.3991,42.4482],[129.3795,42.4295],[129.3514,42.4212],[129.3129,42.4229],[129.2958,42.3855],[129.235,42.3742],[129.2285,42.3428],[129.2436,42.3147],[129.2018,42.311],[129.2015,42.2826],[129.2141,42.2667],[129.1828,42.2526],[129.1783,42.2383],[129.2139,42.2119],[129.1688,42.1824],[129.1409,42.1433],[129.0644,42.1359],[129.0338,42.116],[129.0184,42.095],[128.9552,42.0756],[128.9604,42.0395],[128.9451,42.0175],[128.9053,42.0131],[128.8312,42.0228],[128.8134,42.0364],[128.7707,42.0335],[128.7435,42.0429],[128.6959,42.0125],[128.6677,42.0098],[128.6437,42.0309],[128.6179,42.031],[128.5726,41.9979],[128.4712,41.9997],[128.4639,42.0163],[128.4212,42.0282],[128.3818,42.0269],[128.3475,42.0351],[128.2906,42.0346],[128.2103,42.0156],[128.1395,42.0059],[128.1381,41.9897],[128.1112,41.9812],[128.081,41.9858],[128.064,41.9654],[128.0961,41.8792],[128.0972,41.8401],[128.0864,41.8145],[128.1301,41.7636],[128.1441,41.7239],[128.2139,41.675],[128.244,41.6703],[128.2973,41.6339],[128.3138,41.583],[128.2942,41.566],[128.2684,41.5093],[128.2345,41.4897],[128.2389,41.4728],[128.202,41.4096],[128.1608,41.3964],[128.1426,41.3782],[128.1025,41.363],[128.0411,41.4061],[128.019,41.408],[128.0003,41.429],[127.9262,41.4392],[127.9081,41.4296],[127.8718,41.436],[127.859,41.4047],[127.8239,41.4064],[127.7988,41.4201],[127.6622,41.4214],[127.6373,41.4078],[127.617,41.425],[127.5511,41.4408],[127.5444,41.4671],[127.5056,41.4704],[127.4536,41.4571],[127.4087,41.4554],[127.3895,41.4816],[127.3418,41.4644],[127.2836,41.4822],[127.279,41.5065],[127.2441,41.5022],[127.1594,41.5391],[127.1136,41.5387],[127.1217,41.564],[127.1443,41.5845],[127.102,41.6383],[127.0744,41.6457],[127.0406,41.6661],[127.0524,41.7047],[127.0441,41.7428],[127.0067,41.7407],[126.994,41.762],[126.9439,41.7882],[126.9262,41.8085],[126.8714,41.7827],[126.8396,41.7269],[126.8006,41.7283],[126.7854,41.693],[126.757,41.7265],[126.6977,41.7529],[126.6772,41.747],[126.7235,41.6983],[126.6927,41.6809],[126.684,41.6633],[126.6438,41.6571],[126.6138,41.667],[126.6107,41.6429],[126.5817,41.612],[126.5716,41.585],[126.5848,41.5642],[126.5785,41.5428],[126.5555,41.5263],[126.5409,41.4791],[126.5043,41.4313],[126.5025,41.3995],[126.5304,41.363],[126.5052,41.3463],[126.4941,41.3699],[126.447,41.3544],[126.4011,41.307],[126.3609,41.2822],[126.3544,41.2418],[126.3082,41.2237],[126.3049,41.1887],[126.2872,41.1595],[126.2346,41.1374],[126.2085,41.1155],[126.1835,41.1063],[126.16,41.0841],[126.1155,41.0812],[126.1119,41.0636],[126.1324,41.05],[126.1009,41.0099],[126.0656,40.9927],[126.0713,40.9657],[126.0447,40.9522],[126.0132,40.9119],[126.0063,40.8915],[125.9712,40.8961],[125.9371,40.8738],[125.8758,40.8978],[125.8469,40.8735],[125.8028,40.8628],[125.7746,40.8868],[125.7465,40.8684],[125.7107,40.8584],[125.6462,40.8166],[125.6401,40.7997],[125.6807,40.7796],[125.6881,40.7634],[125.6069,40.7566],[125.5763,40.7723],[125.5596,40.7644],[125.5402,40.721],[125.467,40.7108],[125.4545,40.6682],[125.4156,40.6654],[125.4223,40.6276],[125.4025,40.6233],[125.3634,40.648],[125.3293,40.6339],[125.2736,40.6511],[125.2535,40.614],[125.2392,40.6072],[125.1899,40.6082],[125.0779,40.5568],[125.054,40.5429],[125.0141,40.5326],[124.9982,40.5009],[125.0463,40.4824],[125.0346,40.4568],[124.9739,40.4631],[124.9221,40.4496],[124.8875,40.4709],[124.8705,40.4454],[124.8357,40.4108],[124.8013,40.3918],[124.7591,40.3801],[124.734,40.3557],[124.7331,40.3206],[124.673,40.2957],[124.6241,40.2841],[124.5732,40.2466],[124.5351,40.2327],[124.5066,40.2072],[124.4968,40.1859],[124.4589,40.1596],[124.4237,40.1476],[124.3858,40.1231],[124.376,40.0982],[124.3287,40.0631],[124.3375,40.0415],[124.3605,40.0305],[124.3582,40],[124.3404,39.9812],[124.2803,39.9504],[124.2824,39.9325],[124.2459,39.9278],[124.2206,39.9149],[124.2151,39.8426],[124.1829,39.8132],[124.2115,39.7943],[124.2582,39.8093],[124.2724,39.8329],[124.2685,39.8732],[124.2868,39.9279],[124.3101,39.9476],[124.3399,39.9599],[124.311,39.904],[124.3288,39.8874],[124.3735,39.8849],[124.3879,39.8763],[124.4112,39.8313],[124.4088,39.8063],[124.4454,39.7782],[124.4662,39.7815],[124.4971,39.7663],[124.5557,39.7199],[124.5815,39.7276],[124.6457,39.6954],[124.6449,39.6724],[124.6087,39.6288],[124.6157,39.5946],[124.6432,39.5896],[124.664,39.6193],[124.7157,39.6468],[124.7571,39.6854],[124.7363,39.6974],[124.7524,39.741],[124.7913,39.7443],[124.8021,39.7207],[124.8401,39.7188],[124.8571,39.7026],[124.8857,39.7079],[124.8999,39.6771],[124.8946,39.661],[124.936,39.6454],[124.9471,39.674],[124.9674,39.6604],[124.9693,39.6393],[125.0157,39.6388],[125.0635,39.6271],[125.0521,39.5926],[125.0593,39.5701],[125.0921,39.5635],[125.1226,39.5735],[125.1868,39.5804],[125.2074,39.6107],[125.2218,39.614],[125.2307,39.5793],[125.2468,39.5651],[125.2726,39.5213],[125.3138,39.529],[125.3451,39.5537],[125.3821,39.5596],[125.4037,39.5804],[125.4235,39.5715],[125.4071,39.5496],[125.3907,39.4982],[125.3376,39.4601],[125.3476,39.4185],[125.369,39.3774],[125.3988,39.381],[125.4051,39.3446],[125.3999,39.319],[125.4218,39.3096],[125.4007,39.2899],[125.3851,39.2363],[125.3401,39.2176],[125.3012,39.164],[125.2837,39.1188],[125.2838,39.096],[125.2663,39.0829],[125.2562,39.0546],[125.2012,38.9988],[125.2026,38.9757],[125.1712,38.9368],[125.1599,38.9032],[125.1396,38.8726],[125.1468,38.8549],[125.1365,38.8096],[125.1465,38.7857],[125.1951,38.7776],[125.2024,38.7513],[125.2438,38.7551],[125.1904,38.6826],[125.1721,38.684],[125.184,38.6371],[125.1551,38.6313],[125.1363,38.6674],[125.1135,38.6426],[125.131,38.621],[125.1157,38.6001],[125.0854,38.5876],[125.0679,38.5585],[125.0376,38.5835],[125.0129,38.5818],[124.9865,38.5404],[125.0079,38.531],[125.0165,38.5068],[124.9943,38.4713],[124.9449,38.4429],[124.8976,38.3801],[124.8562,38.3446],[124.8763,38.3146],[124.8637,38.2604],[124.8882,38.226],[124.9118,38.2168],[124.9532,38.2238],[124.9346,38.1946],[124.9121,38.2149],[124.889,38.2165],[124.8593,38.2368],[124.806,38.1871],[124.7729,38.1768],[124.7201,38.1368],[124.6724,38.1413],[124.6604,38.1215],[124.7501,38.1004],[124.8018,38.1004],[124.8504,38.1068],[124.8824,38.1251],[124.9238,38.1121],[124.9426,38.0946],[125.0018,38.0707],[125.0287,38.0776],[125.084,38.0782],[125.1237,38.0932],[125.1485,38.0888],[125.1729,38.0971],[125.2004,38.0926],[125.2493,38.069],[125.2165,38.0393],[125.2001,38.0546],[125.1674,38.0585],[125.119,38.0454],[125.1026,38.0193],[125.1368,37.9682],[125.0824,37.9632],[125.0782,37.9843],[125.0565,37.9851],[125.0246,37.961],[124.9926,37.9632],[125.0051,37.9129],[125.0365,37.9032],[125.0638,37.9074],[125.0835,37.8796],[125.1335,37.8682],[125.1918,37.8751],[125.241,37.9071],[125.2829,37.9007],[125.3079,37.8774],[125.2707,37.846],[125.2343,37.8307],[125.2913,37.8101],[125.3001,37.8007],[125.3499,37.8229],[125.356,37.8457],[125.3754,37.8554],[125.4271,37.8601],[125.4307,37.8943],[125.4901,37.8838],[125.461,37.8715],[125.4743,37.8485],[125.4679,37.8332],[125.4368,37.8282],[125.3879,37.8001],[125.3607,37.7932],[125.3504,37.7654],[125.3126,37.7168],[125.3485,37.6946],[125.374,37.729],[125.3918,37.7351],[125.4701,37.7299],[125.4985,37.7771],[125.5254,37.7699],[125.5604,37.7899],[125.5899,37.764],[125.6226,37.8004],[125.621,37.8496],[125.6396,37.8574],[125.6285,37.8799],[125.6465,37.901],[125.6629,37.8932],[125.6957,37.8971],[125.7265,37.9174],[125.7032,37.9407],[125.6976,37.9618],[125.6746,37.986],[125.6454,37.9671],[125.621,37.9876],[125.5799,38.0088],[125.5718,38.0238]]]]},"properties":{"GID_0":"PRK","ISO_A2":"KP","ISO_A3":"PRK","NAME_EN":"North Korea","NAME_IT":"Corea del Nord"}}
]}