{"type":"FeatureCollection", "features": [
{"type":"Feature","geometry":{"type":"MultiPolygon","coordinates":[[[[39.3559,-11.0916],[39.4039,-11.0632],[39.4329,-11.0577],[39.5296,-10.9854],[39.6291,-10.9496],[39.6945,-10.946],[39.7994,-10.9046],[39.8879,-10.846],[39.9914,-10.8161],[40.0299,-10.7892],[40.2335,-10.6074],[40.2843,-10.5798],[40.3393,-10.5765],[40.3658,-10.5589],[40.3797,-10.5278],[40.4239,-10.4894],[40.4224,-10.4326],[40.376,-10.4385],[40.3815,-10.3979],[40.4418,-10.3643],[40.4451,-10.3501],[40.4043,-10.2968],[40.3901,-10.3151],[40.4135,-10.3482],[40.3954,-10.3632],[40.3279,-10.3546],[40.2918,-10.2685],[40.2643,-10.2615],[40.2499,-10.2812],[40.164,-10.2576],[40.1357,-10.2774],[40.1196,-10.1715],[40.0793,-10.1618],[39.9846,-10.1224],[39.9493,-10.1004],[39.9454,-10.0812],[39.904,-10.0332],[39.8693,-10.0132],[39.8299,-10.0065],[39.8215,-9.986],[39.7657,-9.974],[39.719,-9.996],[39.7124,-9.9554],[39.7851,-9.9279],[39.8046,-9.8715],[39.7949,-9.8093],[39.7618,-9.7868],[39.7365,-9.6949],[39.7499,-9.6599],[39.7174,-9.6251],[39.7321,-9.6096],[39.6954,-9.5393],[39.681,-9.4907],[39.6293,-9.4218],[39.5687,-9.4321],[39.5635,-9.406],[39.6043,-9.4124],[39.6304,-9.3796],[39.654,-9.3701],[39.6482,-9.2696],[39.6374,-9.1768],[39.6071,-9.1351],[39.6174,-9.069],[39.5765,-9.0354],[39.5532,-9.0357],[39.5599,-9.0901],[39.5187,-9.1165],[39.4796,-9.0899],[39.4999,-9.0529],[39.4982,-9.004],[39.4818,-8.9565],[39.5479,-8.9293],[39.5199,-8.9007],[39.5015,-8.846],[39.449,-8.7907],[39.4399,-8.7468],[39.4135,-8.7449],[39.3785,-8.7218],[39.3568,-8.6654],[39.3643,-8.6207],[39.3413,-8.5454],[39.2957,-8.514],[39.2915,-8.4532],[39.3093,-8.4218],[39.3032,-8.3743],[39.2657,-8.3179],[39.2971,-8.3013],[39.3429,-8.2971],[39.3449,-8.2268],[39.364,-8.2032],[39.3757,-8.1504],[39.4201,-8.0843],[39.4471,-8.0115],[39.4137,-7.9035],[39.4451,-7.8513],[39.4449,-7.8221],[39.3865,-7.7749],[39.3537,-7.7679],[39.3426,-7.7401],[39.2915,-7.7218],[39.3037,-7.6735],[39.2801,-7.6363],[39.2754,-7.6018],[39.2943,-7.5346],[39.3015,-7.4843],[39.3204,-7.4343],[39.3529,-7.3974],[39.351,-7.3626],[39.3776,-7.2799],[39.4254,-7.2471],[39.4368,-7.1974],[39.4685,-7.1687],[39.5151,-7.1574],[39.5337,-7.1235],[39.5429,-7.0818],[39.5474,-6.9887],[39.5257,-6.9768],[39.5032,-6.9354],[39.4957,-6.8943],[39.4715,-6.8732],[39.3576,-6.849],[39.3493,-6.831],[39.2965,-6.8088],[39.2815,-6.7718],[39.2449,-6.7507],[39.2154,-6.6582],[39.1754,-6.6235],[39.1524,-6.5804],[39.111,-6.5587],[39.0724,-6.504],[38.9696,-6.4724],[38.9629,-6.4574],[38.9212,-6.451],[38.8476,-6.3493],[38.841,-6.3151],[38.866,-6.2224],[38.861,-6.161],[38.8429,-6.1549],[38.7993,-6.0943],[38.781,-6.0538],[38.7793,-6.024],[38.8054,-5.9504],[38.8201,-5.9343],[38.8187,-5.8721],[38.8401,-5.804],[38.8957,-5.7135],[38.894,-5.6696],[38.9335,-5.619],[38.9465,-5.5771],[38.9696,-5.5513],[39.0032,-5.4549],[38.9832,-5.4296],[39.0218,-5.4093],[39.071,-5.2899],[39.089,-5.2249],[39.0735,-5.2115],[39.1021,-5.1832],[39.1151,-5.1226],[39.1407,-5.1221],[39.1265,-5.0532],[39.1435,-5.0076],[39.1376,-4.9412],[39.1557,-4.916],[39.1796,-4.934],[39.2107,-4.8724],[39.221,-4.8076],[39.1757,-4.7824],[39.2146,-4.734],[39.2101,-4.6888],[39.1928,-4.6603],[38.9645,-4.4984],[38.7608,-4.3604],[37.7858,-3.6771],[37.768,-3.6333],[37.7441,-3.5441],[37.702,-3.5304],[37.6737,-3.509],[37.6265,-3.5308],[37.6036,-3.5206],[37.6271,-3.4673],[37.5854,-3.4621],[37.5854,-3.4405],[37.6181,-3.4002],[37.6643,-3.3589],[37.6856,-3.3236],[37.7114,-3.3055],[37.6726,-3.0677],[37.6207,-3.0256],[37.5489,-2.9775],[37.468,-2.9297],[37.2427,-2.8044],[36.7595,-2.5321],[36.4981,-2.3879],[36.2513,-2.2659],[36.2035,-2.2275],[36.1046,-2.1654],[35.8458,-2.0191],[35.4393,-1.7882],[35.3177,-1.7288],[34.7018,-1.3723],[34.5807,-1.304],[34.5652,-1.3002],[34.3733,-1.1909],[34.2244,-1.103],[34.1909,-1.0894],[34.0775,-1.0262],[34.0332,-1.0451],[34.0165,-1.004],[33.9312,-1.0042],[33.9309,-0.9932],[33.6528,-0.9965],[31.7662,-0.9968],[31.619,-1.0013],[31.165,-0.9977],[31.0754,-0.9993],[30.7988,-0.9989],[30.7668,-0.9858],[30.7397,-1.0048],[30.7009,-1.0132],[30.659,-1.0614],[30.634,-1.0707],[30.5834,-1.0612],[30.5401,-1.0749],[30.4676,-1.0608],[30.4526,-1.0815],[30.4701,-1.1557],[30.5094,-1.1719],[30.524,-1.2124],[30.5515,-1.2513],[30.569,-1.3375],[30.6191,-1.3605],[30.6279,-1.3827],[30.6609,-1.3825],[30.6788,-1.3994],[30.7361,-1.4182],[30.7461,-1.5222],[30.8392,-1.6508],[30.8127,-1.7337],[30.8309,-1.7558],[30.8231,-1.7812],[30.8303,-1.8613],[30.8045,-1.9348],[30.8634,-2.0321],[30.8991,-2.0781],[30.8738,-2.1204],[30.8596,-2.1797],[30.8435,-2.2051],[30.8529,-2.2757],[30.8522,-2.3211],[30.8157,-2.3653],[30.7755,-2.3889],[30.7171,-2.3554],[30.6573,-2.4135],[30.6093,-2.3993],[30.5691,-2.4193],[30.5434,-2.413],[30.5244,-2.4477],[30.5072,-2.5053],[30.4833,-2.5289],[30.4848,-2.5571],[30.4225,-2.6548],[30.431,-2.6789],[30.4591,-2.6911],[30.5231,-2.6558],[30.5121,-2.6945],[30.4773,-2.7159],[30.4425,-2.753],[30.4386,-2.8038],[30.409,-2.8588],[30.4351,-2.8747],[30.4395,-2.8989],[30.5029,-2.9529],[30.5395,-2.9327],[30.578,-2.8941],[30.6474,-2.9532],[30.6704,-2.9933],[30.7095,-2.9712],[30.7478,-2.9972],[30.8369,-2.9756],[30.8149,-3.0429],[30.7953,-3.0542],[30.8365,-3.0946],[30.8342,-3.1431],[30.8467,-3.1653],[30.8413,-3.2075],[30.8134,-3.2242],[30.8293,-3.2636],[30.7577,-3.2926],[30.6669,-3.3199],[30.6344,-3.3615],[30.6781,-3.3985],[30.661,-3.4324],[30.6188,-3.4664],[30.4716,-3.54],[30.4565,-3.5756],[30.4571,-3.6063],[30.4222,-3.6413],[30.3976,-3.705],[30.4104,-3.7844],[30.3475,-3.7742],[30.2985,-3.8575],[30.2599,-3.8923],[30.232,-3.9411],[30.2142,-3.9909],[30.2239,-4.0247],[30.1877,-4.0571],[30.1802,-4.0885],[30.1588,-4.1154],[30.0784,-4.1685],[30.0528,-4.2231],[30.0438,-4.2752],[30.0158,-4.2778],[29.9693,-4.3035],[29.9425,-4.3401],[29.8847,-4.3598],[29.8512,-4.3819],[29.8263,-4.3611],[29.7636,-4.4326],[29.7693,-4.4559],[29.7071,-4.4624],[29.6739,-4.447],[29.5634,-4.4438],[29.3915,-4.4453],[29.3943,-4.5054],[29.3864,-4.5407],[29.3356,-4.6514],[29.3272,-4.6989],[29.3285,-4.7741],[29.3372,-4.8536],[29.3731,-5.0169],[29.4102,-5.1235],[29.4673,-5.2742],[29.5297,-5.4151],[29.576,-5.556],[29.599,-5.664],[29.607,-5.7748],[29.6,-5.856],[29.5782,-5.9629],[29.5793,-6.1468],[29.595,-6.252],[29.624,-6.338],[29.6549,-6.413],[29.7466,-6.5535],[29.827,-6.643],[29.906,-6.708],[30.0851,-6.8361],[30.1408,-6.8899],[30.1836,-6.9402],[30.2386,-7.0218],[30.3032,-7.1361],[30.3589,-7.2478],[30.423,-7.418],[30.5222,-7.62],[30.5752,-7.7509],[30.6271,-7.897],[30.6516,-7.9807],[30.6852,-8.018],[30.733,-8.1031],[30.7564,-8.1847],[30.7951,-8.2768],[30.8421,-8.3572],[31.0169,-8.5767],[31.0623,-8.6086],[31.1036,-8.6227],[31.1649,-8.6149],[31.2085,-8.5761],[31.2549,-8.5839],[31.2742,-8.6322],[31.3124,-8.6067],[31.348,-8.6169],[31.3747,-8.5941],[31.3958,-8.6304],[31.459,-8.6391],[31.486,-8.6818],[31.5375,-8.6789],[31.5815,-8.7373],[31.5682,-8.7649],[31.5793,-8.8369],[31.6614,-8.8886],[31.6789,-8.9165],[31.7358,-8.9233],[31.7651,-8.8948],[31.8015,-8.8851],[31.9505,-8.9359],[31.9295,-8.9822],[31.9369,-9.0191],[31.9881,-9.0753],[32.0694,-9.0481],[32.1394,-9.0643],[32.1618,-9.0577],[32.1919,-9.0904],[32.2554,-9.1303],[32.3824,-9.1252],[32.4372,-9.1181],[32.4948,-9.1508],[32.4847,-9.1722],[32.5459,-9.2544],[32.5778,-9.2402],[32.6476,-9.2713],[32.7553,-9.282],[32.7656,-9.3195],[32.8001,-9.3218],[32.8145,-9.3486],[32.867,-9.3783],[32.8931,-9.3665],[32.9282,-9.4003],[32.9559,-9.3997],[32.9998,-9.3638],[33.0246,-9.4024],[33.0796,-9.4495],[33.1481,-9.4908],[33.2102,-9.5089],[33.2556,-9.4862],[33.2824,-9.5013],[33.3222,-9.4838],[33.3605,-9.5245],[33.3942,-9.5392],[33.4403,-9.6127],[33.5198,-9.627],[33.5519,-9.5859],[33.5902,-9.5784],[33.6288,-9.6059],[33.6849,-9.608],[33.7173,-9.5828],[33.7603,-9.582],[33.8034,-9.6074],[33.8925,-9.6838],[33.9432,-9.7061],[33.9671,-9.627],[33.9453,-9.5722],[33.9648,-9.5284],[34.0144,-9.4949],[34.0363,-9.4919],[34.1382,-9.5855],[34.1747,-9.6121],[34.306,-9.7402],[34.3445,-9.8065],[34.4527,-9.9309],[34.5015,-9.9764],[34.5241,-10.0164],[34.539,-10.0642],[34.5225,-10.1153],[34.5548,-10.1885],[34.5526,-10.2315],[34.5698,-10.3076],[34.5591,-10.3251],[34.5416,-10.4156],[34.5756,-10.4672],[34.5469,-10.5097],[34.5551,-10.549],[34.5943,-10.5816],[34.5869,-10.6047],[34.6073,-10.6308],[34.6254,-10.6812],[34.6165,-10.7055],[34.6519,-10.7576],[34.6365,-10.9468],[34.6042,-10.9895],[34.6027,-11.0307],[34.6345,-11.0526],[34.6283,-11.102],[34.646,-11.1262],[34.6861,-11.1412],[34.7307,-11.1907],[34.7375,-11.2125],[34.7905,-11.2835],[34.8049,-11.3212],[34.8827,-11.3552],[34.9102,-11.3778],[34.9257,-11.4151],[34.9363,-11.4831],[34.9579,-11.5713],[35.3407,-11.5565],[35.3963,-11.5819],[35.489,-11.5947],[35.5107,-11.5835],[35.5756,-11.6035],[35.6393,-11.5857],[35.6747,-11.5565],[35.7039,-11.5186],[35.712,-11.4813],[35.7764,-11.4713],[35.8238,-11.4068],[35.8577,-11.424],[35.9419,-11.4249],[35.958,-11.4373],[35.957,-11.4831],[36.0156,-11.4994],[36.1239,-11.552],[36.1723,-11.5896],[36.1811,-11.639],[36.17,-11.6655],[36.2013,-11.7162],[36.2394,-11.7066],[36.2671,-11.718],[36.3169,-11.702],[36.3647,-11.7036],[36.3779,-11.6842],[36.4199,-11.6916],[36.4752,-11.6863],[36.5014,-11.6928],[36.5165,-11.7264],[36.5603,-11.7457],[36.6036,-11.7227],[36.651,-11.7257],[36.7195,-11.6929],[36.7557,-11.6561],[36.8108,-11.587],[36.8657,-11.5925],[36.8887,-11.6061],[37.007,-11.6026],[37.0251,-11.5692],[37.0789,-11.6233],[37.1568,-11.6322],[37.2292,-11.6511],[37.2623,-11.6341],[37.2993,-11.6397],[37.3317,-11.6723],[37.3842,-11.6882],[37.4194,-11.68],[37.4307,-11.6489],[37.5006,-11.6118],[37.5835,-11.6225],[37.6226,-11.6043],[37.6588,-11.5742],[37.7479,-11.5487],[37.7785,-11.5138],[37.7881,-11.4868],[37.7739,-11.4601],[37.7909,-11.4165],[37.8079,-11.4063],[37.8271,-11.3655],[37.8311,-11.3083],[37.9335,-11.2565],[37.999,-11.2616],[38.0575,-11.274],[38.1131,-11.2597],[38.1398,-11.2732],[38.2102,-11.2752],[38.2619,-11.2884],[38.2885,-11.3288],[38.3213,-11.3255],[38.3782,-11.383],[38.4273,-11.391],[38.4539,-11.4134],[38.4861,-11.4149],[38.5258,-11.3741],[38.5744,-11.3471],[38.6264,-11.2941],[38.6521,-11.2788],[38.7133,-11.2732],[38.7442,-11.2783],[38.7827,-11.2447],[38.8294,-11.2204],[38.8847,-11.1755],[39.0451,-11.1745],[39.1358,-11.1511],[39.1857,-11.1622],[39.2134,-11.1801],[39.2417,-11.1799],[39.2915,-11.1509],[39.3559,-11.0916]]],[[[39.5304,-8.9501],[39.4896,-8.9612],[39.5154,-9.0126],[39.5304,-8.9501]]],[[[39.8013,-7.966],[39.7876,-7.9879],[39.7579,-7.994],[39.781,-8.026],[39.814,-7.9729],[39.8013,-7.966]]],[[[39.746,-7.931],[39.7713,-7.9068],[39.8343,-7.914],[39.8557,-7.8762],[39.8496,-7.8574],[39.8846,-7.8032],[39.9065,-7.7124],[39.9096,-7.6437],[39.8662,-7.684],[39.8376,-7.7465],[39.809,-7.7534],[39.7932,-7.7999],[39.7076,-7.8187],[39.7051,-7.8537],[39.6699,-7.9024],[39.6213,-7.9285],[39.6057,-7.9465],[39.6171,-7.9807],[39.6899,-7.9974],[39.7493,-7.976],[39.7315,-7.9518],[39.746,-7.931]]],[[[39.5601,-6.4418],[39.5818,-6.3857],[39.5538,-6.3354],[39.5371,-6.2837],[39.5357,-6.191],[39.5107,-6.1262],[39.4888,-6.149],[39.5065,-6.1815],[39.461,-6.1915],[39.4382,-6.1718],[39.4257,-6.1374],[39.4315,-6.0629],[39.3824,-6.0004],[39.356,-5.9176],[39.3532,-5.8743],[39.361,-5.8271],[39.3521,-5.786],[39.3096,-5.7251],[39.2876,-5.7568],[39.296,-5.7915],[39.2746,-5.8649],[39.2235,-5.8899],[39.2132,-5.9174],[39.1832,-5.9121],[39.184,-5.994],[39.2149,-6.094],[39.214,-6.134],[39.186,-6.1626],[39.2068,-6.1896],[39.1982,-6.2232],[39.2824,-6.321],[39.3001,-6.3162],[39.2807,-6.2582],[39.3068,-6.2396],[39.3329,-6.2615],[39.3518,-6.3099],[39.3885,-6.3474],[39.4274,-6.3637],[39.4646,-6.4487],[39.4899,-6.4757],[39.5151,-6.4774],[39.5601,-6.4418]]],[[[39.744,-5.4471],[39.7943,-5.396],[39.8037,-5.3462],[39.8393,-5.2735],[39.8565,-5.1882],[39.8643,-5.1146],[39.849,-5.1082],[39.8318,-5.0588],[39.8404,-5.0185],[39.8699,-5.0196],[39.8768,-4.9835],[39.8743,-4.9051],[39.8613,-4.9074],[39.8176,-4.9549],[39.7865,-4.9265],[39.7029,-4.8949],[39.6768,-4.8737],[39.669,-4.9496],[39.6754,-4.9868],[39.6932,-5.0138],[39.6985,-5.0529],[39.684,-5.1226],[39.6968,-5.1432],[39.7374,-5.1699],[39.7379,-5.2063],[39.7015,-5.2174],[39.724,-5.2426],[39.6668,-5.2832],[39.6701,-5.3199],[39.6418,-5.3399],[39.6432,-5.3815],[39.6299,-5.4082],[39.6385,-5.4351],[39.6707,-5.431],[39.7268,-5.4607],[39.744,-5.4471]]],[[[39.5871,-5.4118],[39.5999,-5.4524],[39.6493,-5.4826],[39.6596,-5.4501],[39.6237,-5.4432],[39.5871,-5.4118]]]]},"properties":{"GID_0":"TZA","ISO_A2":"TZ","ISO_A3":"TZA","NAME_EN":"Tanzania","NAME_IT":"Tanzania"}}
]}