{"type":"FeatureCollection", "features": [
{"type":"Feature","geometry":{"type":"Polygon","coordinates":[[[-60.8951,13.8701],[-60.8782,13.8926],[-60.8815,13.9135],[-60.8732,13.9699],[-60.8754,13.9888],[-60.8871,14.006],[-60.8907,14.0307],[-60.8832,14.0518],[-60.9065,14.0657],[-60.9271,14.0913],[-60.9185,14.1035],[-60.9479,14.1076],[-60.9576,14.0712],[-60.9757,14.0682],[-60.9735,14.0354],[-60.9899,14.0221],[-61.0054,14.0243],[-61.0165,14.004],[-61.0163,13.9865],[-61.0268,13.981],[-61.0326,13.9632],[-61.0612,13.9179],[-61.0793,13.8826],[-61.0785,13.8654],[-61.0629,13.8579],[-61.066,13.8193],[-61.0785,13.8096],[-61.0696,13.7912],[-61.0546,13.7799],[-61.0371,13.7571],[-60.9974,13.7513],[-60.9896,13.7354],[-60.9463,13.7213],[-60.9276,13.766],[-60.9038,13.7654],[-60.894,13.8162],[-60.8821,13.8446],[-60.884,13.8701],[-60.8951,13.8701]]]},"properties":{"GID_0":"LCA","ISO_A2":"LC","ISO_A3":"LCA","NAME_EN":"Saint Lucia","NAME_IT":"Saint Lucia"}}
]}