{"type":"FeatureCollection", "features": [
{"type":"Feature","geometry":{"type":"MultiPolygon","coordinates":[[[[-9.75682,52.45662],[-9.756852941176465,52.45661176470588],[-9.7685,52.449],[-9.7964,52.446],[-9.8023,52.4406],[-9.8664,52.4269],[-9.8746,52.4317],[-9.9064,52.4323],[-9.9421,52.4228],[-9.9478,52.4098],[-9.9316,52.4014],[-9.8701,52.3915],[-9.8378,52.3895],[-9.8318,52.3755],[-9.8372,52.3601],[-9.8345,52.3413],[-9.8498,52.3141],[-9.8638,52.3033],[-9.834,52.2987],[-9.8374,52.2917],[-9.8596,52.2893],[-9.8855,52.2999],[-9.8755,52.2744],[-9.8504,52.2804],[-9.8352,52.2757],[-9.7936,52.2717],[-9.7772,52.2754],[-9.7533,52.2679],[-9.7495,52.2619],[-9.7632,52.2475],[-9.7827,52.2528],[-9.8053,52.244],[-9.8388,52.2498],[-9.8613,52.2363],[-9.9016,52.2289],[-9.9235,52.2344],[-9.955,52.2319],[-9.9789,52.2458],[-9.9972,52.2491],[-10.0248,52.2705],[-10.0166,52.3077],[-10.0414,52.3032],[-10.0339,52.2831],[-10.0513,52.2667],[-10.0838,52.2492],[-10.1024,52.2445],[-10.1357,52.2437],[-10.1374,52.2386],[-10.1711,52.2361],[-10.1602,52.2514],[-10.1569,52.2879],[-10.1767,52.2915],[-10.21,52.2814],[-10.2526,52.2737],[-10.2704,52.2591],[-10.2937,52.258],[-10.3072,52.2408],[-10.3321,52.2342],[-10.3572,52.2367],[-10.3728,52.2249],[-10.3739,52.2165],[-10.3565,52.2114],[-10.3756,52.2005],[-10.3787,52.1909],[-10.3644,52.1846],[-10.374,52.1731],[-10.3863,52.1791],[-10.4151,52.1837],[-10.4222,52.2037],[-10.4374,52.1924],[-10.4483,52.1923],[-10.4545,52.1786],[-10.4498,52.1684],[-10.4634,52.1579],[-10.4702,52.1351],[-10.4589,52.1229],[-10.4654,52.1137],[-10.4561,52.0974],[-10.4239,52.0987],[-10.4102,52.104],[-10.3571,52.1058],[-10.3779,52.1208],[-10.361,52.1325],[-10.3395,52.1262],[-10.32,52.1139],[-10.2917,52.1105],[-10.2644,52.1144],[-10.267,52.1236],[-10.3005,52.1271],[-10.3004,52.1367],[-10.2719,52.1384],[-10.2514,52.1184],[-10.2152,52.1223],[-10.1945,52.1077],[-10.1589,52.1215],[-10.1242,52.1148],[-10.1092,52.1266],[-10.0942,52.1234],[-10.0511,52.1373],[-10.0407,52.1357],[-9.987,52.1436],[-9.9573,52.1127],[-9.9367,52.1061],[-9.9516,52.1343],[-9.9527,52.1463],[-9.9198,52.1499],[-9.8649,52.1596],[-9.84,52.1572],[-9.8252,52.1603],[-9.8139,52.1534],[-9.7918,52.1516],[-9.8007,52.1293],[-9.8346,52.126],[-9.8558,52.1173],[-9.891,52.1094],[-9.893653519768558,52.13378553519769],[-9.9116,52.1008],[-9.9357,52.0848],[-9.936,52.0738],[-9.9786,52.0525],[-10.0309,52.0367],[-10.0567,52.0405],[-10.1306,52.0248],[-10.1548,52.0217],[-10.1629,52.0142],[-10.1827,52.0123],[-10.2073,52.0024],[-10.2154,51.9909],[-10.2416,51.9934],[-10.28,51.9707],[-10.3084,51.9624],[-10.3006,51.9501],[-10.2794,51.9519],[-10.2751,51.9389],[-10.2567,51.9237],[-10.2575,51.913],[-10.2784,51.9123],[-10.2948,51.9011],[-10.3506,51.8848],[-10.3668,51.8868],[-10.3979,51.8807],[-10.3826,51.86],[-10.3949,51.8481],[-10.3873,51.8424],[-10.3646,51.8458],[-10.3366,51.844],[-10.3319,51.8388],[-10.3402,51.813],[-10.3334,51.8046],[-10.3548,51.797],[-10.3417,51.7887],[-10.3077,51.7947],[-10.2683,51.8201],[-10.2471,51.8433],[-10.2129,51.8443],[-10.18,51.8321],[-10.1724,51.8236],[-10.1791,51.8092],[-10.1807,51.7879],[-10.1991,51.7783],[-10.1792,51.766],[-10.1514,51.7658],[-10.1459,51.7592],[-10.1124,51.7608],[-10.0805,51.7563],[-10.0556,51.7615],[-10.0338,51.7733],[-10.0068,51.7733],[-9.9901,51.7844],[-9.9703,51.7886],[-9.9505,51.8007],[-9.9369,51.8002],[-9.9018,51.8081],[-9.9015,51.8148],[-9.861951920529796,51.80889682119206],[-9.8499,51.8081],[-9.8326,51.8166],[-9.8295,51.8256],[-9.7912,51.8325],[-9.7747,51.8412],[-9.731,51.8528],[-9.6888,51.8602],[-9.6636,51.8688],[-9.6423,51.8697],[-9.6231,51.8585],[-9.6451,51.8445],[-9.6652,51.8446],[-9.717,51.8398],[-9.7429,51.8288],[-9.7399,51.8238],[-9.7712,51.8122],[-9.7802,51.8029],[-9.8251,51.7846],[-9.7918,51.7774],[-9.78,51.7651],[-9.780408904109589,51.7551102739726],[-9.7884,51.7626],[-9.8189,51.7675],[-9.8391,51.7771],[-9.8542,51.7715],[-9.854,51.7526],[-9.8757,51.747],[-9.8834,51.7637],[-9.9061,51.75],[-9.9306,51.7399],[-9.9482,51.7412],[-9.9914,51.726],[-10.0067,51.7158],[-9.948,51.712],[-9.9639,51.7047],[-9.9726,51.685],[-9.9986,51.6849],[-10.0172,51.6724],[-10.0306,51.6784],[-10.0562,51.668],[-10.0873,51.6748],[-10.106,51.664],[-10.0783,51.6561],[-10.0577,51.6541],[-10.0622,51.625],[-10.086,51.6228],[-10.1308,51.6134],[-10.1427,51.6209],[-10.1559,51.6096],[-10.1209,51.6024],[-10.0836,51.6004],[-10.0711,51.6052],[-10.0536,51.5932],[-10.0383,51.589],[-10.0283,51.5956],[-10.0064,51.5986],[-9.9739,51.6163],[-9.934,51.6156],[-9.9262,51.6399],[-9.9088,51.6505],[-9.8802,51.6494],[-9.8671,51.6569],[-9.8481,51.6536],[-9.8206,51.6595],[-9.7802,51.6589],[-9.7545,51.6671],[-9.7256,51.6708],[-9.7183,51.6763],[-9.6452,51.6753],[-9.623,51.6812],[-9.5964,51.6933],[-9.5806,51.71],[-9.5498,51.7128],[-9.5523,51.7381],[-9.5455,51.7485],[-9.5304,51.749],[-9.5224,51.7267],[-9.5058,51.7182],[-9.4829,51.7152],[-9.4565,51.7288],[-9.4464,51.721],[-9.4601,51.6978],[-9.4631,51.6787],[-9.4855,51.6788],[-9.5091,51.6634],[-9.5627,51.6528],[-9.633,51.6301],[-9.6596,51.6269],[-9.7271,51.5999],[-9.749,51.594],[-9.7696,51.5827],[-9.7846,51.5797],[-9.7912,51.5671],[-9.8488,51.5436],[-9.8389,51.5399],[-9.8053,51.5442],[-9.7927,51.5512],[-9.7749,51.5501],[-9.7452,51.5612],[-9.73,51.5597],[-9.7256,51.5697],[-9.6981,51.5725],[-9.6918,51.5798],[-9.6535,51.5841],[-9.6351,51.5969],[-9.6088,51.6019],[-9.585,51.6115],[-9.5371,51.6103],[-9.5535,51.6018],[-9.5747,51.6009],[-9.6027,51.5818],[-9.6201,51.5786],[-9.6246,51.5699],[-9.6469,51.5645],[-9.652,51.5522],[-9.6922,51.5298],[-9.751,51.5227],[-9.7724,51.5122],[-9.7867,51.4989],[-9.837,51.483],[-9.8066,51.4733],[-9.8184,51.4626],[-9.8167,51.4514],[-9.8021,51.4492],[-9.7726,51.4649],[-9.7582,51.4521],[-9.7321,51.4714],[-9.7037,51.4815],[-9.6988,51.4951],[-9.6805,51.504],[-9.6642,51.5005],[-9.6599,51.5142],[-9.6331,51.5122],[-9.6363,51.5048],[-9.6036,51.4927],[-9.5731,51.5036],[-9.5465,51.5095],[-9.5446,51.5255],[-9.5166,51.5185],[-9.4893,51.5242],[-9.4552,51.5252],[-9.436,51.5438],[-9.4462,51.5529],[-9.3975,51.5493],[-9.3918,51.5442],[-9.4055,51.5227],[-9.4312,51.5106],[-9.4136,51.4966],[-9.3714,51.4859],[-9.389,51.4746],[-9.3807,51.4696],[-9.3418,51.4708],[-9.3208,51.4785],[-9.2937,51.4955],[-9.2649,51.4969],[-9.2429,51.4838],[-9.2281,51.4809],[-9.2094,51.4872],[-9.2163,51.4978],[-9.2054,51.5079],[-9.1895,51.5072],[-9.1881,51.5198],[-9.1468,51.5214],[-9.1145,51.5417],[-9.1172,51.5562],[-9.0858,51.5459],[-9.0582,51.553],[-9.0354,51.553],[-9.0133,51.5661],[-8.9928,51.5651],[-8.9552,51.5507],[-8.926,51.5471],[-8.9243,51.5399],[-8.8897,51.5516],[-8.8922,51.5706],[-8.873,51.5796],[-8.8667,51.5921],[-8.842,51.5943],[-8.8047,51.5931],[-8.7813,51.5884],[-8.7749,51.582],[-8.7367,51.5715],[-8.7133,51.5693],[-8.6976,51.5821],[-8.7057,51.59],[-8.6911,51.6099],[-8.702,51.6184],[-8.685,51.6352],[-8.7116,51.6393],[-8.7005,51.6473],[-8.6805,51.6447],[-8.6593,51.6345],[-8.5829,51.6444],[-8.5663,51.6399],[-8.5492,51.6224],[-8.5416,51.6316],[-8.5517,51.6415],[-8.5301,51.657],[-8.5286,51.671],[-8.5023,51.6862],[-8.4728,51.6802],[-8.4397,51.6854],[-8.4234,51.6928],[-8.4151,51.7049],[-8.3929,51.7021],[-8.3853,51.7144],[-8.3429,51.7157],[-8.3303,51.7341],[-8.3129,51.7382],[-8.2961,51.7578],[-8.3078,51.7717],[-8.3396,51.7614],[-8.3651,51.764],[-8.3264,51.7669],[-8.2936,51.7796],[-8.2737,51.7981],[-8.3112,51.813],[-8.2996,51.8263],[-8.3415,51.8406],[-8.3189,51.8428],[-8.2735,51.8525],[-8.2647,51.8588],[-8.1886,51.8573],[-8.1953,51.846],[-8.2227,51.8424],[-8.2641,51.8156],[-8.2488,51.8046],[-8.2521,51.7943],[-8.1782,51.7953],[-8.1692,51.7851],[-8.1452,51.7994],[-8.1126,51.8086],[-8.0615,51.8088],[-8.0014,51.8283],[-8.021,51.8326],[-8.0208,51.8464],[-7.9967,51.8607],[-7.9642,51.8694],[-7.8876,51.8776],[-7.8644,51.8841],[-7.8879,51.8947],[-7.9034,51.894],[-7.9061,51.9058],[-7.8851,51.9117],[-7.8659,51.9303],[-7.8428,51.9405],[-7.8185,51.9388],[-7.7955,51.9418],[-7.7749,51.9518],[-7.7552,51.9408],[-7.737,51.938],[-7.7097,51.9426],[-7.7221,51.9525],[-7.7016,51.9723],[-7.6671,51.9749],[-7.5864,51.9914],[-7.579,52.0027],[-7.5858,52.019],[-7.5671,52.0409],[-7.5469,52.0447],[-7.5442,52.0548],[-7.5887,52.0515],[-7.6061,52.0626],[-7.6316,52.0601],[-7.6321,52.0846],[-7.5969,52.0919],[-7.5851,52.1009],[-7.5537,52.0778],[-7.5401,52.0981],[-7.5191,52.106],[-7.4988,52.1026],[-7.4687,52.1176],[-7.4258,52.1305],[-7.3909,52.1291],[-7.3613,52.1373],[-7.3088,52.136],[-7.292,52.1411],[-7.2184,52.1315],[-7.1705,52.1365],[-7.1519,52.1589],[-7.135,52.1587],[-7.1314,52.169],[-7.0986,52.1689],[-7.0775,52.1585],[-7.092,52.143],[-7.108,52.1338],[-7.097,52.1273],[-7.0821,52.135],[-7.0495,52.1389],[-7.024,52.1332],[-6.9901,52.1454],[-6.9746,52.1639],[-6.9698,52.1775],[-6.9819,52.186],[-6.9766,52.2135],[-6.9687,52.2266],[-6.9701,52.2393],[-6.9557,52.2429],[-6.9203,52.2188],[-6.9025,52.1959],[-6.913,52.1912],[-6.8976,52.1738],[-6.8994,52.1581],[-6.9346,52.1306],[-6.9249,52.1235],[-6.8894,52.1514],[-6.8818,52.1617],[-6.8302,52.1761],[-6.833696952908591,52.19069750692521],[-6.8192,52.2103],[-6.8289,52.223],[-6.7968,52.24],[-6.7868,52.229],[-6.7855,52.2043],[-6.7552,52.2138],[-6.7406,52.2118],[-6.7059,52.2191],[-6.6816,52.2189],[-6.6782,52.2116],[-6.6431,52.2013],[-6.618,52.191],[-6.5956,52.1766],[-6.5619,52.1777],[-6.5394,52.1853],[-6.4785,52.1912],[-6.4183,52.1875],[-6.3876,52.1775],[-6.3698,52.1757],[-6.3482,52.1919],[-6.3499,52.2033],[-6.3257,52.2249],[-6.3136,52.2409],[-6.3347,52.2549],[-6.3631,52.2514],[-6.3738,52.2574],[-6.3889,52.2805],[-6.4127,52.2994],[-6.428,52.3063],[-6.447,52.3078],[-6.4474,52.3302],[-6.4763,52.3523],[-6.4998,52.3579],[-6.4716,52.3667],[-6.4684,52.3489],[-6.4355,52.3561],[-6.3853,52.3555],[-6.3697,52.3435],[-6.3575,52.3448],[-6.3632,52.3643],[-6.3595,52.3956],[-6.3495,52.4131],[-6.3216,52.4349],[-6.2938,52.4648],[-6.2516,52.4979],[-6.2362,52.5159],[-6.2145,52.5314],[-6.1935,52.5632],[-6.2034,52.5699],[-6.2033,52.5819],[-6.2126,52.5889],[-6.2093,52.602],[-6.2294,52.625],[-6.2262,52.6469],[-6.2093,52.6664],[-6.1972,52.6881],[-6.1769,52.7064],[-6.159,52.7156],[-6.1572,52.7245],[-6.1409,52.7337],[-6.1472,52.7436],[-6.1378,52.758],[-6.1448,52.7634],[-6.1461,52.7822],[-6.1418,52.7996],[-6.1206,52.8154],[-6.1098,52.8344],[-6.0879,52.847],[-6.0573,52.8582],[-6.0645,52.8654],[-6.0517,52.8907],[-6.0389,52.8978],[-6.0378,52.9154],[-6.0209,52.9254],[-6.0153,52.9521],[-5.9998,52.9611],[-6.0075,52.9726],[-6.0406,52.9831],[-6.0499,53.0048],[-6.0475,53.0333],[-6.0345,53.069],[-6.0421,53.1202],[-6.0758,53.1632],[-6.0767,53.1895],[-6.0941,53.1982],[-6.1034,53.2111],[-6.1134,53.248],[-6.1061,53.2663],[-6.0932,53.275],[-6.1027,53.2841],[-6.1412,53.2979],[-6.1534,53.2956],[-6.1931,53.3089],[-6.2046,53.3164],[-6.2108,53.3329],[-6.226,53.3425],[-6.2617,53.3302],[-6.2803,53.3301],[-6.3077,53.3406],[-6.3083,53.3474],[-6.2751,53.3608],[-6.2498,53.357],[-6.2298,53.3644],[-6.1913,53.3573],[-6.1426,53.3848],[-6.1168,53.3887],[-6.1037,53.3864],[-6.0986,53.3708],[-6.0818,53.361],[-6.0544,53.3665],[-6.0473,53.3859],[-6.0626,53.3864],[-6.104,53.3995],[-6.118,53.4198],[-6.1235,53.4437],[-6.135,53.4511],[-6.177,53.4563],[-6.1916,53.464],[-6.1702,53.4698],[-6.1334,53.4682],[-6.1468,53.4553],[-6.1322,53.4527],[-6.118,53.4761],[-6.0966,53.4895],[-6.1221,53.4985],[-6.1489,53.5023],[-6.1471,53.5097],[-6.1223,53.5142],[-6.1055,53.5112],[-6.0932,53.518],[-6.0793,53.5498],[-6.0838,53.5604],[-6.099,53.5658],[-6.1057,53.5828],[-6.1489,53.5864],[-6.165,53.6054],[-6.183,53.6129],[-6.1951,53.6297],[-6.2134,53.6371],[-6.2315,53.6642],[-6.2446,53.7034],[-6.2434,53.7193],[-6.2515,53.7311],[-6.2485,53.759],[-6.2335,53.7889],[-6.2599,53.8062],[-6.2605,53.8275],[-6.248,53.8533],[-6.2682,53.871],[-6.2898,53.8715],[-6.3041,53.8787],[-6.3311,53.8759],[-6.3517,53.8867],[-6.3695,53.9043],[-6.376,53.9202],[-6.3717,53.9305],[-6.3762,53.9571],[-6.36,53.9733],[-6.3656,53.9806],[-6.3396,53.9979],[-6.3488,54.0083],[-6.3855,54.0077],[-6.3889,54.0134],[-6.3209,54.0141],[-6.2949,54.0083],[-6.2509,53.988],[-6.2288,53.9868],[-6.1869,53.9785],[-6.1644,53.977],[-6.1325,53.9872],[-6.103,54.0001],[-6.1263,54.0171],[-6.129,54.0305],[-6.1551,54.029],[-6.1831,54.0403],[-6.1965,54.0573],[-6.2472,54.0784],[-6.268,54.1021],[-6.2909,54.1127],[-6.309,54.1067],[-6.3179,54.091],[-6.3364,54.0947],[-6.3399,54.1119],[-6.3684,54.111],[-6.3622,54.0974],[-6.3673,54.0702],[-6.3873,54.0616],[-6.4484,54.0609],[-6.45,54.068],[-6.4778,54.0771],[-6.4843,54.0668],[-6.5157,54.0525],[-6.5321,54.0596],[-6.5454,54.0515],[-6.5695,54.0509],[-6.5866,54.0576],[-6.593,54.0463],[-6.6234,54.0389],[-6.6407,54.0482],[-6.6499,54.0615],[-6.6611,54.0629],[-6.6588,54.0876],[-6.6451,54.096],[-6.6612,54.1227],[-6.6398,54.1316],[-6.6316,54.1471],[-6.6357,54.1709],[-6.6651,54.1932],[-6.6828,54.1932],[-6.7059,54.2001],[-6.7209,54.1872],[-6.7455,54.1885],[-6.7559,54.199],[-6.7756,54.1989],[-6.8024,54.2154],[-6.815,54.2272],[-6.8394,54.2677],[-6.8656,54.2697],[-6.8778,54.2851],[-6.8605,54.2891],[-6.859,54.3038],[-6.8639,54.3301],[-6.8759,54.3465],[-6.9063,54.3504],[-6.9067,54.3695],[-6.9332,54.3799],[-6.9591,54.3978],[-7,54.4065],[-7.0044,54.4131],[-7.0289,54.4214],[-7.0537,54.4122],[-7.0724,54.3884],[-7.109,54.3656],[-7.1036,54.3559],[-7.1238,54.3507],[-7.1527,54.3354],[-7.1816,54.3398],[-7.1792,54.3097],[-7.1916,54.3119],[-7.2121,54.2997],[-7.1817,54.2864],[-7.1789,54.2723],[-7.1606,54.2736],[-7.1426,54.2516],[-7.1532,54.2209],[-7.1988,54.2156],[-7.2211,54.2158],[-7.2481,54.2044],[-7.2596,54.184],[-7.2513,54.1727],[-7.2525,54.1557],[-7.2629,54.1375],[-7.2919,54.1191],[-7.3035,54.1228],[-7.2842,54.1398],[-7.2899,54.1492],[-7.2798,54.1677],[-7.2914,54.1719],[-7.3102,54.1673],[-7.3261,54.1515],[-7.3395,54.1467],[-7.3275,54.1353],[-7.3053,54.1234],[-7.3187,54.1134],[-7.3474,54.1178],[-7.3634,54.1314],[-7.4031,54.1409],[-7.4096,54.1563],[-7.4424,54.1539],[-7.4686,54.1408],[-7.4718,54.1267],[-7.4921,54.1232],[-7.5284,54.1357],[-7.5446,54.1264],[-7.5657,54.1266],[-7.5751,54.1337],[-7.6104,54.1438],[-7.6253,54.1533],[-7.6285,54.1692],[-7.6644,54.188],[-7.6795,54.1925],[-7.6922,54.2039],[-7.7446,54.2043],[-7.7485,54.2095],[-7.8037,54.207],[-7.8115,54.2009],[-7.8599,54.2174],[-7.8589,54.2431],[-7.8727,54.2662],[-7.8707,54.2882],[-7.8883,54.3005],[-7.9466,54.3043],[-7.9617,54.3125],[-7.9721,54.3309],[-7.9864,54.3442],[-7.9995,54.3472],[-8.0076,54.3613],[-8.0313,54.3567],[-8.0635,54.3748],[-8.0786,54.3922],[-8.0973,54.4065],[-8.1587,54.439],[-8.1432,54.451],[-8.1674,54.4593],[-8.1651,54.469],[-8.1147,54.4691],[-8.0987,54.4843],[-8.0785,54.4883],[-8.0427,54.4877],[-8.0418,54.5065],[-8.0129,54.5331],[-8.006,54.5459],[-7.9915,54.543],[-7.9706,54.5472],[-7.9533,54.5343],[-7.9194,54.5368],[-7.8694,54.5346],[-7.8443,54.5374],[-7.8239,54.5444],[-7.8332,54.5523],[-7.7995,54.5766],[-7.7666,54.5862],[-7.7603,54.5942],[-7.6942,54.6137],[-7.725,54.6276],[-7.7543,54.6185],[-7.7725,54.6215],[-7.7836,54.6332],[-7.8013,54.6334],[-7.8184,54.6405],[-7.8283,54.6331],[-7.8571,54.639],[-7.8566,54.6505],[-7.8915,54.656],[-7.9139,54.6759],[-7.8987,54.6849],[-7.918,54.7027],[-7.8794,54.7029],[-7.855,54.7269],[-7.8367,54.7364],[-7.8177,54.7338],[-7.8081,54.72],[-7.7887,54.7196],[-7.778,54.7104],[-7.7499,54.7043],[-7.7354,54.7169],[-7.7116,54.7261],[-7.6773,54.7309],[-7.6367,54.7515],[-7.6176,54.7434],[-7.6008,54.746],[-7.5782,54.7418],[-7.538,54.7473],[-7.5476,54.7554],[-7.5492,54.7894],[-7.5277,54.8029],[-7.484,54.8238],[-7.4811,54.8312],[-7.456,54.8538],[-7.442,54.8794],[-7.4516,54.8934],[-7.4451,54.911],[-7.4476,54.9346],[-7.4251,54.9432],[-7.4052,54.9422],[-7.4072,54.9552],[-7.4003,54.9722],[-7.4071,54.983],[-7.392,54.9946],[-7.4056,55.0033],[-7.3915,55.0223],[-7.3765,55.0287],[-7.3563,55.0456],[-7.3335,55.0502],[-7.3183,55.0451],[-7.2994,55.0561],[-7.2891,55.0474],[-7.2727,55.0634],[-7.2581,55.0664],[-7.2455,55.081],[-7.2199,55.1005],[-7.2039,55.119],[-7.1588,55.1491],[-7.121,55.1579],[-7.0798,55.1726],[-7.0468,55.1875],[-7.0227,55.1898],[-6.9838,55.2033],[-6.963,55.207],[-6.9289,55.2241],[-6.9275,55.2372],[-6.9383,55.2468],[-6.9738,55.2565],[-6.9952,55.254],[-7.0092,55.2652],[-7.0365,55.2693],[-7.0481,55.2755],[-7.0697,55.2717],[-7.0928,55.2857],[-7.1163,55.2874],[-7.1568,55.2969],[-7.1575,55.3108],[-7.1771,55.3206],[-7.1707,55.3361],[-7.1898,55.3458],[-7.2313,55.3518],[-7.244,55.3588],[-7.2694,55.3598],[-7.2769,55.366],[-7.332,55.3681],[-7.3393,55.3757],[-7.3817,55.3829],[-7.3874,55.3671],[-7.3731,55.3606],[-7.3479,55.3582],[-7.3536,55.3319],[-7.3352,55.326],[-7.3308,55.3119],[-7.3152,55.3103],[-7.2883,55.2964],[-7.258,55.2863],[-7.2828,55.2764],[-7.2982,55.2767],[-7.3202,55.2887],[-7.3345,55.312],[-7.3634,55.3185],[-7.3836,55.2927],[-7.4159,55.2914],[-7.4494,55.2821],[-7.4711,55.2814],[-7.5065,55.2895],[-7.5221,55.2851],[-7.5086,55.2717],[-7.5161,55.2543],[-7.5342,55.2476],[-7.518,55.2387],[-7.5363,55.2287],[-7.5462,55.1939],[-7.5281,55.1889],[-7.4969,55.1609],[-7.4887,55.1597],[-7.4576,55.1216],[-7.4742,55.1101],[-7.4796,55.0916],[-7.4563,55.0774],[-7.4795,55.074],[-7.4903,55.0844],[-7.5138,55.0832],[-7.5332,55.0723],[-7.5233,55.0578],[-7.5086,55.0564],[-7.4945,55.0405],[-7.5133,55.0401],[-7.5157,55.025],[-7.5396,55.0239],[-7.554,55.0125],[-7.5971,54.9934],[-7.6232,54.9669],[-7.6464,54.9635],[-7.6595,54.9691],[-7.634,54.9972],[-7.599,55.0108],[-7.5582,55.0355],[-7.5681,55.0537],[-7.6063,55.0452],[-7.6295,55.0522],[-7.5971,55.0618],[-7.5972,55.0738],[-7.5854,55.0818],[-7.5314,55.0956],[-7.5316,55.1149],[-7.518,55.1228],[-7.5227,55.134],[-7.5417,55.1416],[-7.551,55.1558],[-7.5772,55.1697],[-7.5717,55.1803],[-7.5878,55.1879],[-7.6143,55.192],[-7.6259,55.2043],[-7.6149,55.2096],[-7.6033,55.2312],[-7.6241,55.2589],[-7.6322,55.2776],[-7.6593,55.2775],[-7.6761,55.2638],[-7.6922,55.2598],[-7.7022,55.2477],[-7.7555,55.2478],[-7.7523,55.2382],[-7.7989,55.2155],[-7.78,55.2043],[-7.7709,55.1912],[-7.7458,55.1993],[-7.739,55.1834],[-7.7126,55.1758],[-7.7062,55.1809],[-7.7222,55.1993],[-7.7233,55.2204],[-7.7089,55.2279],[-7.6992,55.211],[-7.7129,55.2019],[-7.7121,55.1911],[-7.6806,55.1798],[-7.6802,55.1652],[-7.6646,55.1587],[-7.6776,55.1304],[-7.692,55.1124],[-7.7039,55.1208],[-7.6932,55.1428],[-7.712,55.1669],[-7.7292,55.166],[-7.7409,55.1814],[-7.804,55.1855],[-7.8101,55.1954],[-7.8083,55.216],[-7.7886,55.2317],[-7.8024,55.2489],[-7.8171,55.2255],[-7.8669,55.2267],[-7.8652,55.2154],[-7.8744,55.2048],[-7.8607,55.1929],[-7.8364,55.1941],[-7.8254,55.1787],[-7.8384,55.1507],[-7.8598,55.14],[-7.9023,55.1362],[-7.8937,55.1464],[-7.8696,55.1508],[-7.8533,55.1647],[-7.8987,55.1737],[-7.8973,55.1885],[-7.9458,55.1816],[-7.9595,55.1909],[-7.9448,55.1965],[-7.9461,55.2141],[-7.9677,55.2128],[-7.9752,55.2236],[-7.9939,55.2224],[-8.0168,55.214],[-8.0245,55.199],[-8.0161,55.1857],[-8.0244,55.1736],[-8.0516,55.1738],[-8.0684,55.1629],[-8.1222,55.1582],[-8.1226,55.138],[-8.1341,55.1275],[-8.1648,55.1422],[-8.1357,55.1532],[-8.1486,55.1637],[-8.159,55.1468],[-8.2287,55.1493],[-8.2512,55.155],[-8.2733,55.1545],[-8.2996,55.1393],[-8.2941,55.1308],[-8.3168,55.1126],[-8.3146,55.0935],[-8.326,55.0897],[-8.3146,55.0764],[-8.3507,55.0601],[-8.3427,55.0484],[-8.35,55.0392],[-8.3679,55.0414],[-8.3834,55.034],[-8.4053,55.0323],[-8.3947,55.0222],[-8.4076,55.0187],[-8.4115,55.006],[-8.4505,55.0064],[-8.4539,54.9987],[-8.4382,54.9893],[-8.4401,54.9791],[-8.4246,54.9722],[-8.4136,54.9591],[-8.3787,54.9519],[-8.4088,54.9361],[-8.4533,54.9449],[-8.4442,54.931],[-8.4586,54.9186],[-8.4414,54.9043],[-8.4097,54.8981],[-8.389,54.8888],[-8.3776,54.8993],[-8.3499,54.9048],[-8.3251,54.8798],[-8.3604,54.8826],[-8.3862,54.8688],[-8.3854,54.8571],[-8.411,54.8461],[-8.4267,54.8481],[-8.4486,54.8385],[-8.478,54.8475],[-8.4934,54.8479],[-8.5206,54.8316],[-8.5532,54.8338],[-8.5179,54.8114],[-8.4957,54.8028],[-8.4541,54.7973],[-8.4485,54.7852],[-8.4116,54.7747],[-8.4324,54.7651],[-8.4712,54.7816],[-8.473,54.7904],[-8.5014,54.7896],[-8.517,54.7844],[-8.5334,54.7903],[-8.5473,54.7826],[-8.5159,54.7721],[-8.5042,54.775],[-8.469,54.7663],[-8.4733,54.7577],[-8.5162,54.7613],[-8.5941,54.7785],[-8.656,54.7691],[-8.7052,54.7517],[-8.7496,54.7278],[-8.7454,54.7073],[-8.7897,54.7057],[-8.8034,54.6949],[-8.7876,54.6842],[-8.7947,54.6687],[-8.7733,54.6574],[-8.7399,54.6525],[-8.7255,54.646],[-8.693,54.6426],[-8.6789,54.6228],[-8.6491,54.6198],[-8.6247,54.6272],[-8.6104,54.6176],[-8.5844,54.6167],[-8.5331,54.6201],[-8.4891,54.6352],[-8.4774,54.6035],[-8.4646,54.6057],[-8.4535,54.6186],[-8.4305,54.634],[-8.4242,54.6182],[-8.3968,54.6353],[-8.3792,54.6239],[-8.3782,54.6044],[-8.3542,54.6142],[-8.342,54.6308],[-8.3029,54.6386],[-8.2878,54.6468],[-8.2803,54.6317],[-8.3006,54.6091],[-8.2721,54.6068],[-8.2468,54.6178],[-8.206,54.6305],[-8.174,54.6444],[-8.1527,54.6348],[-8.1338,54.6436],[-8.1314,54.6189],[-8.1431,54.609],[-8.1683,54.6186],[-8.1655,54.5951],[-8.1778,54.5864],[-8.2211,54.5679],[-8.2102,54.5487],[-8.2503,54.5348],[-8.2694,54.5251],[-8.2389,54.5],[-8.2646,54.5017],[-8.2658,54.4909],[-8.2832,54.4877],[-8.2825,54.4779],[-8.3122,54.4791],[-8.3345,54.4706],[-8.4009,54.4634],[-8.4169,54.456],[-8.4387,54.4549],[-8.4702,54.4672],[-8.4763,54.4538],[-8.4673,54.4401],[-8.4827,54.4317],[-8.4907,54.4179],[-8.5277,54.4137],[-8.5606,54.4051],[-8.5924,54.3848],[-8.6165,54.3802],[-8.6219,54.3708],[-8.6407,54.3712],[-8.6734,54.3614],[-8.6694,54.3512],[-8.6489,54.3361],[-8.6204,54.3346],[-8.5935,54.3431],[-8.5544,54.342],[-8.5355,54.3328],[-8.5004,54.3231],[-8.5076,54.3155],[-8.53,54.315],[-8.5666,54.3247],[-8.5722,54.3045],[-8.5258,54.3033],[-8.4918,54.292],[-8.5176,54.2764],[-8.5452,54.2804],[-8.5853,54.2765],[-8.5916,54.284],[-8.6227,54.2611],[-8.6033,54.2611],[-8.5731,54.2327],[-8.5444,54.2302],[-8.5474,54.2183],[-8.5774,54.2169],[-8.6044,54.2228],[-8.6049,54.2298],[-8.6281,54.2378],[-8.6275,54.2455],[-8.6541,54.2692],[-8.6867,54.2728],[-8.7255,54.2628],[-8.7559,54.2687],[-8.7733,54.277],[-8.805,54.2572],[-8.8266,54.2528],[-8.8652,54.2623],[-8.8946,54.2726],[-8.9054,54.283],[-8.947,54.295],[-8.973,54.2911],[-8.9998,54.2916],[-9.0203,54.2966],[-9.0533,54.2944],[-9.0536,54.2738],[-9.0965,54.2254],[-9.0946,54.2148],[-9.1312,54.2081],[-9.1241,54.1817],[-9.143,54.1828],[-9.166,54.1912],[-9.1585,54.2],[-9.1828,54.2085],[-9.2191,54.2126],[-9.198,54.2292],[-9.1958,54.2475],[-9.216,54.2454],[-9.2164,54.2608],[-9.2066,54.2756],[-9.2276,54.2789],[-9.2566,54.2758],[-9.2485,54.2956],[-9.2641,54.3098],[-9.2911,54.312],[-9.336,54.3216],[-9.3744,54.3049],[-9.4311,54.312],[-9.4528,54.3069],[-9.5004,54.32],[-9.5097,54.3102],[-9.53,54.31],[-9.5335,54.3179],[-9.5619,54.3133],[-9.5993,54.3242],[-9.6125,54.3213],[-9.643,54.3237],[-9.6643,54.3142],[-9.6968,54.3213],[-9.742,54.3274],[-9.7534,54.3403],[-9.7702,54.3349],[-9.7837,54.3407],[-9.8145,54.34],[-9.8345,54.3279],[-9.8575,54.3246],[-9.8538,54.308],[-9.8084,54.2873],[-9.8651,54.2746],[-9.8729,54.2646],[-9.872,54.2507],[-9.8807,54.2457],[-9.8761,54.2177],[-9.913,54.2124],[-9.9602,54.2152],[-9.9466,54.2274],[-9.9021,54.2388],[-9.8905,54.2546],[-9.8987,54.2635],[-9.9173,54.2624],[-9.9348,54.2687],[-9.9628,54.2723],[-9.9745,54.2892],[-9.9879,54.2907],[-9.9906,54.302],[-10.0246,54.2844],[-10.0696,54.2767],[-10.0816,54.2685],[-10.0737,54.2609],[-10.1022,54.2388],[-10.0554,54.2268],[-10.0631,54.209],[-10.083,54.2094],[-10.0964,54.199],[-10.0874,54.1784],[-10.1038,54.1518],[-10.1183,54.1457],[-10.1256,54.1264],[-10.1219,54.1126],[-10.1263,54.0971],[-10.1122,54.0965],[-10.0943,54.0875],[-10.0713,54.0895],[-10.0668,54.1098],[-10.0913,54.1126],[-10.0874,54.1266],[-10.0697,54.1288],[-10.07,54.1434],[-10.088,54.1536],[-10.0885,54.1618],[-10.0693,54.1686],[-10.0444,54.1692],[-10.0358,54.1768],[-10.0376,54.1932],[-10.0135,54.19],[-10.0032,54.2172],[-9.973,54.2082],[-9.9526,54.1951],[-9.9324,54.194],[-9.9346,54.1811],[-9.9543,54.1717],[-9.9358,54.1561],[-9.9546,54.1475],[-9.9349,54.1262],[-9.9255,54.1351],[-9.9088,54.1246],[-9.9292,54.1212],[-9.9384,54.1116],[-9.9658,54.1088],[-9.9832,54.1006],[-9.9675,54.085],[-9.9631,54.0728],[-9.9304,54.061],[-9.9216,54.067],[-9.8932,54.0722],[-9.8893,54.0983],[-9.8552,54.1124],[-9.8518,54.099],[-9.8712,54.0692],[-9.884,54.0671],[-9.9075,54.0373],[-9.884,54.023],[-9.8784,54.0077],[-9.8483,53.9955],[-9.8468,53.9737],[-9.7929,53.9559],[-9.7942,53.914],[-9.8051,53.9135],[-9.8149,53.9275],[-9.7989,53.9344],[-9.7976,53.9459],[-9.8278,53.9488],[-9.8394,53.9588],[-9.8707,53.9583],[-9.8868,53.9524],[-9.924,53.9474],[-9.9288,53.9609],[-9.9519,53.9628],[-9.9588,53.99],[-9.9288,53.9952],[-9.9376,54.0064],[-9.9606,54.0184],[-9.9795,54.021],[-10.0272,54.0116],[-10.0429,54.0245],[-10.0678,54.0238],[-10.0983,54.0095],[-10.0983,54.002],[-10.1441,54.002],[-10.1715,54.0074],[-10.2224,53.9744],[-10.1984,53.962],[-10.1892,53.9699],[-10.1402,53.9686],[-10.1301,53.9739],[-10.1003,53.9644],[-10.0856,53.9721],[-10.0664,53.9716],[-10.0449,53.9585],[-10.0579,53.9252],[-10.0382,53.9142],[-10.0266,53.9217],[-9.9993,53.9042],[-9.9913,53.8887],[-9.9625,53.8744],[-9.949,53.8776],[-9.9366,53.8987],[-9.9417,53.9088],[-9.9566,53.9113],[-9.9126,53.9317],[-9.9153,53.9177],[-9.9309,53.9052],[-9.923,53.8918],[-9.9361,53.8716],[-9.8969,53.8658],[-9.865,53.8664],[-9.8165,53.8774],[-9.7763,53.9049],[-9.742,53.8948],[-9.6909,53.9004],[-9.6658,53.8947],[-9.6544,53.8979],[-9.6142,53.8927],[-9.587,53.8974],[-9.5655,53.8889],[-9.5769,53.8848],[-9.5825,53.8679],[-9.5596,53.8615],[-9.5772,53.8471],[-9.6101,53.8469],[-9.621,53.8331],[-9.6158,53.8125],[-9.568,53.8024],[-9.5699,53.7886],[-9.602,53.7817],[-9.6366,53.7885],[-9.6582,53.7817],[-9.6682,53.7887],[-9.702,53.7787],[-9.7375,53.7736],[-9.7659,53.7748],[-9.7701,53.782],[-9.8031,53.7785],[-9.8266,53.7694],[-9.8635,53.7687],[-9.9058,53.7619],[-9.8941,53.7376],[-9.9,53.7225],[-9.9121,53.7116],[-9.919,53.6887],[-9.9065,53.6771],[-9.9151,53.6646],[-9.9102,53.6516],[-9.881,53.6486],[-9.8797,53.6337],[-9.8403,53.6238],[-9.7844,53.6027],[-9.8038,53.6007],[-9.8429,53.6178],[-9.8591,53.6198],[-9.8788,53.6134],[-9.8986,53.6145],[-9.9103,53.601],[-9.9328,53.5975],[-9.9687,53.6007],[-9.9969,53.611],[-10.0288,53.6071],[-10.0492,53.6094],[-10.0447,53.5943],[-10.0233,53.5788],[-9.9741,53.571],[-9.975,53.5625],[-9.9533,53.5524],[-9.9815,53.5465],[-10.0026,53.549],[-10.0209,53.5602],[-10.0109,53.5667],[-10.0456,53.5724],[-10.0621,53.5703],[-10.0794,53.5755],[-10.1275,53.5763],[-10.0957,53.5575],[-10.1503,53.5625],[-10.1744,53.5607],[-10.1931,53.5522],[-10.1781,53.5391],[-10.1455,53.5423],[-10.1451,53.5319],[-10.1253,53.5217],[-10.1362,53.5086],[-10.1076,53.496],[-10.0874,53.4963],[-10.0834,53.4889],[-10.1002,53.4807],[-10.0797,53.4728],[-10.0797,53.4654],[-10.0403,53.4634],[-10.0621,53.4515],[-10.075,53.4384],[-10.1004,53.4509],[-10.1277,53.4552],[-10.1826,53.4125],[-10.141,53.4166],[-10.1275,53.4075],[-10.095987096774197,53.41448894009216],[-10.0435,53.4133],[-10.036,53.4093],[-10.0367,53.3906],[-9.9895,53.3795],[-9.974,53.3838],[-9.9368,53.3787],[-9.9173,53.3874],[-9.9164,53.414],[-9.9001,53.4213],[-9.8855,53.415],[-9.8795,53.4041],[-9.8629,53.4014],[-9.8225,53.4062],[-9.796,53.4032],[-9.794,53.3877],[-9.8203,53.376],[-9.8557,53.374],[-9.867,53.3679],[-9.8891,53.3686],[-9.8952,53.3549],[-9.8828,53.3443],[-9.9,53.3367],[-9.9069,53.3251],[-9.8801,53.3116],[-9.8633,53.3197],[-9.8399,53.3223],[-9.8361,53.3132],[-9.7954,53.3052],[-9.7824,53.2959],[-9.767,53.3045],[-9.7397,53.306],[-9.7301,53.3137],[-9.7133,53.3417],[-9.6996,53.3505],[-9.6956,53.3614],[-9.6675,53.3689],[-9.6647,53.3777],[-9.6484,53.3877],[-9.6286,53.3761],[-9.644,53.3534],[-9.6437,53.3313],[-9.6235,53.3307],[-9.5943,53.3402],[-9.6031,53.3514],[-9.6029,53.3636],[-9.6142,53.3795],[-9.5942,53.3816],[-9.5967,53.359],[-9.5621,53.348],[-9.56,53.3369],[-9.5827,53.329],[-9.6079,53.3281],[-9.6252,53.3185],[-9.6002,53.2952],[-9.6001,53.2785],[-9.6203,53.267],[-9.6314,53.2505],[-9.6157,53.2345],[-9.591,53.2367],[-9.5773,53.2468],[-9.5735,53.261],[-9.5838,53.2718],[-9.5733,53.2789],[-9.5502,53.2805],[-9.5547,53.2684],[-9.567,53.2631],[-9.5506,53.2459],[-9.5465,53.2337],[-9.5258,53.222],[-9.5098,53.2219],[-9.4857,53.2291],[-9.466,53.2262],[-9.4552,53.2337],[-9.4044,53.2338],[-9.3606,53.2425],[-9.3395,53.2384],[-9.3088,53.2431],[-9.2718,53.2424],[-9.2301,53.2475],[-9.1629,53.2457],[-9.1466,53.2504],[-9.0827,53.2581],[-9.045098287671232,53.26929623287671],[-8.9943,53.2623],[-8.9448,53.2736],[-8.9419,53.2589],[-8.9772,53.2563],[-8.9876,53.247],[-8.9723,53.236],[-8.9858,53.2288],[-8.9672,53.2103],[-8.952,53.2087],[-8.9105,53.2219],[-8.9121,53.2087],[-8.9273,53.2077],[-8.9462,53.1921],[-8.9546,53.177],[-8.9444,53.1689],[-8.9349,53.1453],[-8.9592,53.1568],[-9.0209,53.171],[-9.0429,53.1601],[-9.0103,53.155],[-9.026,53.1438],[-9.0527,53.1584],[-9.0724,53.1559],[-9.1139,53.1576],[-9.1053,53.1433],[-9.1207,53.1369],[-9.1391,53.1207],[-9.1519,53.1187],[-9.1832,53.1336],[-9.2202,53.1395],[-9.2625,53.1542],[-9.2825,53.1446],[-9.2921,53.1326],[-9.2883,53.1188],[-9.3174,53.0875],[-9.3577,53.0732],[-9.3642,53.0513],[-9.3829,53.0428],[-9.3955,53.0255],[-9.4088,53.0189],[-9.3921,53.0081],[-9.4301,52.9853],[-9.4285,52.9703],[-9.4764,52.9412],[-9.467,52.9303],[-9.4369,52.9373],[-9.4239,52.9319],[-9.4005,52.9325],[-9.3726,52.9435],[-9.3605,52.9438],[-9.3466,52.9311],[-9.3514,52.9182],[-9.3896,52.897],[-9.4236,52.8885],[-9.4364,52.8715],[-9.427,52.8663],[-9.4425,52.8517],[-9.4352,52.8327],[-9.4546,52.8337],[-9.4566,52.817],[-9.4885,52.8038],[-9.4828,52.7746],[-9.4936,52.7649],[-9.4984,52.7501],[-9.5271,52.7464],[-9.5479,52.752],[-9.5693,52.7521],[-9.607,52.7442],[-9.6081,52.7332],[-9.6287,52.7323],[-9.6163,52.7157],[-9.6329,52.7127],[-9.6564,52.697],[-9.6518,52.6845],[-9.6775,52.6792],[-9.6979,52.6638],[-9.768,52.6337],[-9.7819,52.6308],[-9.8029,52.6099],[-9.8191,52.6002],[-9.8744,52.5922],[-9.8822,52.5795],[-9.9129,52.5761],[-9.929,52.5562],[-9.8791,52.5575],[-9.8367,52.5721],[-9.8064,52.5654],[-9.7423,52.5803],[-9.737,52.5873],[-9.7115,52.5796],[-9.6963,52.5834],[-9.6628,52.5622],[-9.6783,52.5455],[-9.6681,52.539],[-9.6818,52.5251],[-9.6803,52.4982],[-9.6894,52.4828],[-9.7102,52.4814],[-9.748,52.4649],[-9.75682,52.45662]]],[[[-10.5105,52.1053],[-10.5478,52.0954],[-10.538,52.0869],[-10.5161,52.0953],[-10.5105,52.1053]]],[[[-6.0259,53.4983],[-6.0305,53.4891],[-6.0098,53.4829],[-6.0044,53.4924],[-6.0259,53.4983]]],[[[-10.1499,53.5297],[-10.1613,53.5388],[-10.1765,53.5339],[-10.1701,53.5231],[-10.1499,53.5297]]],[[[-10.0813,53.7103],[-10.1209,53.7126],[-10.1352,53.7022],[-10.1356,53.6904],[-10.0876,53.6992],[-10.0813,53.7103]]],[[[-10.1938,53.6331],[-10.2074,53.6353],[-10.2558,53.6183],[-10.2336,53.6113],[-10.1926,53.6063],[-10.1787,53.6174],[-10.1815,53.6325],[-10.1938,53.6331]]],[[[-9.975,53.8251],[-9.9964,53.8144],[-10.045,53.8047],[-10.0465,53.7907],[-9.985,53.7905],[-9.9505,53.7979],[-9.9425,53.8071],[-9.9635,53.8128],[-9.975,53.8251]]],[[[-9.8929,53.9904],[-9.8909,54.0004],[-9.9144,54.0002],[-9.9221,53.991],[-9.8929,53.9904]]],[[[-10.1924,54.1429],[-10.2088,54.1388],[-10.2027,54.1246],[-10.1877,54.1294],[-10.1924,54.1429]]],[[[-8.5334,55.0174],[-8.5639,54.9939],[-8.5647,54.9756],[-8.5459,54.973],[-8.4869,54.9736],[-8.4884,54.9849],[-8.5334,55.0174]]],[[[-8.4267,55.0523],[-8.4318,55.0464],[-8.4184,55.0157],[-8.4076,55.0222],[-8.4267,55.0523]]],[[[-9.4642,51.4519],[-9.4773,51.4529],[-9.5063,51.4418],[-9.5224,51.428],[-9.4797,51.4338],[-9.4642,51.4519]]],[[[-9.3992,51.4891],[-9.4091,51.4908],[-9.4389,51.4623],[-9.4345,51.4521],[-9.4069,51.466],[-9.3992,51.4891]]],[[[-9.4913,51.688],[-9.4842,51.7048],[-9.5295,51.6847],[-9.4966,51.68],[-9.4913,51.688]]],[[[-10.347,51.9332],[-10.3503,51.9252],[-10.3866,51.9125],[-10.3963,51.9144],[-10.4216,51.8993],[-10.4263,51.8807],[-10.3911,51.8926],[-10.3825,51.887],[-10.356,51.8905],[-10.3434,51.8968],[-10.3074,51.9059],[-10.2889,51.9162],[-10.2962,51.9284],[-10.317,51.924],[-10.347,51.9332]]],[[[-10.1575,51.6051],[-10.1728,51.609],[-10.2074,51.6028],[-10.2113,51.5899],[-10.1785,51.5961],[-10.1575,51.6051]]],[[[-9.7852,51.6429],[-9.881,51.6411],[-9.9105,51.6341],[-9.9191,51.6188],[-9.8787,51.6159],[-9.8213,51.6289],[-9.7852,51.6429]]],[[[-9.5063,53.064],[-9.534,53.0683],[-9.5562,53.0497],[-9.5258,53.0454],[-9.5017,53.0595],[-9.5063,53.064]]],[[[-9.5654,53.0931],[-9.5725,53.102],[-9.6133,53.0841],[-9.6205,53.068],[-9.6072,53.065],[-9.5797,53.0713],[-9.5654,53.0931]]],[[[-9.7741,53.1483],[-9.8073,53.1518],[-9.8301,53.1387],[-9.7773,53.1293],[-9.7422,53.1169],[-9.6722,53.0988],[-9.6542,53.0892],[-9.64,53.0888],[-9.664,53.1197],[-9.6548,53.1312],[-9.685,53.133],[-9.6877,53.1383],[-9.7356,53.1375],[-9.7501,53.1311],[-9.7598,53.1479],[-9.7741,53.1483]]],[[[-9.6718,53.307],[-9.6857,53.3098],[-9.7119,53.2973],[-9.6894,53.2796],[-9.6761,53.2882],[-9.6496,53.2883],[-9.6379,53.2955],[-9.6718,53.307]]],[[[-6.1269,53.3762],[-6.1319,53.3805],[-6.164,53.3687],[-6.1783,53.3587],[-6.1654,53.3528],[-6.1491,53.3655],[-6.1269,53.3762]]],[[[-9.8978,53.4149],[-9.9092,53.4147],[-9.902,53.3758],[-9.8906,53.3777],[-9.8865,53.3936],[-9.8977,53.4034],[-9.8978,53.4149]]],[[[-9.6521,53.2816],[-9.6754,53.2793],[-9.6815,53.2708],[-9.7232,53.2642],[-9.7125,53.2525],[-9.7183,53.2428],[-9.7007,53.2252],[-9.6577,53.2258],[-9.6419,53.2421],[-9.6447,53.264],[-9.6568,53.2715],[-9.6521,53.2816]]]]},"properties":{"GID_0":"IRL","ISO_A2":"IE","ISO_A3":"IRL","NAME_EN":"Ireland","NAME_IT":"Irlanda"}}
]}