{"type":"FeatureCollection", "features": [
{"type":"Feature","geometry":{"type":"MultiPolygon","coordinates":[[[[101.8189,5.755],[101.8318,5.7776],[101.8668,5.8074],[101.8838,5.8371],[101.9171,5.843],[101.9411,5.8668],[101.9223,5.9102],[101.9395,5.9721],[101.9722,6.0056],[101.9713,6.0191],[102.0033,6.0496],[102.0519,6.0788],[102.0615,6.1029],[102.0929,6.1467],[102.0774,6.1911],[102.0786,6.2528],[101.9828,6.3146],[101.9173,6.3739],[101.8747,6.4244],[101.8186,6.4506],[101.7587,6.5259],[101.6284,6.7245],[101.5575,6.8458],[101.4846,6.8691],[101.466,6.8799],[101.4009,6.8918],[101.3461,6.91],[101.3478,6.8889],[101.3297,6.8705],[101.3088,6.8867],[101.2884,6.878],[101.2629,6.9025],[101.2087,6.871],[101.1604,6.861],[101.1039,6.8617],[101.0517,6.8544],[101.0003,6.8573],[100.9391,6.8873],[100.9105,6.9069],[100.8492,6.9621],[100.8066,6.9562],[100.7652,6.9852],[100.7331,7.0208],[100.6578,7.125],[100.6231,7.1822],[100.5943,7.1814],[100.5509,7.1417],[100.4894,7.1336],[100.4201,7.1615],[100.4157,7.1851],[100.3896,7.2027],[100.4103,7.2385],[100.4745,7.2565],[100.5671,7.1885],[100.5816,7.1961],[100.5565,7.2486],[100.5283,7.2822],[100.4753,7.3884],[100.4398,7.4943],[100.3567,7.8314],[100.3313,7.9554],[100.2939,8.1814],[100.2606,8.3156],[100.2183,8.4344],[100.1936,8.4786],[100.1689,8.5039],[100.1481,8.4444],[100.1569,8.3922],[100.0883,8.4142],[100.0441,8.5233],[100.0011,8.5881],[99.9791,8.5869],[99.9522,8.6328],[99.9294,8.8119],[99.9146,8.9098],[99.915,8.9898],[99.9094,9.0982],[99.88,9.1275],[99.8733,9.1667],[99.8791,9.2182],[99.8637,9.2484],[99.8447,9.2635],[99.8375,9.3036],[99.8081,9.2997],[99.7425,9.325],[99.7239,9.3125],[99.6856,9.3303],[99.6675,9.3035],[99.6427,9.3029],[99.6097,9.2683],[99.5811,9.2697],[99.5344,9.2867],[99.5083,9.26],[99.4869,9.2108],[99.467,9.1989],[99.4132,9.2063],[99.3706,9.1905],[99.3592,9.2069],[99.32,9.2191],[99.3011,9.2356],[99.2664,9.2192],[99.2406,9.2353],[99.2247,9.2594],[99.2164,9.3036],[99.2189,9.3372],[99.2628,9.3611],[99.2908,9.4022],[99.2419,9.4844],[99.2094,9.5692],[99.2097,9.6014],[99.1833,9.6344],[99.1619,9.6781],[99.1464,9.7408],[99.1381,9.8203],[99.1658,9.8584],[99.1572,9.8944],[99.1611,9.9456],[99.1519,9.9711],[99.1559,10.0055],[99.1803,10.0175],[99.1526,10.0695],[99.149,10.127],[99.172,10.1527],[99.1941,10.2138],[99.2216,10.2265],[99.1934,10.2659],[99.1677,10.2794],[99.1513,10.305],[99.1468,10.3441],[99.1846,10.3704],[99.2102,10.37],[99.2392,10.3438],[99.2514,10.3615],[99.2856,10.3658],[99.2836,10.4112],[99.2415,10.4478],[99.2297,10.4912],[99.2428,10.5412],[99.2749,10.5432],[99.286,10.6108],[99.2969,10.6188],[99.3202,10.6704],[99.3595,10.6915],[99.3855,10.7183],[99.4242,10.7969],[99.4343,10.8566],[99.4497,10.8728],[99.4968,10.8748],[99.5197,10.8958],[99.4909,10.939],[99.4912,10.9755],[99.5017,11.0422],[99.4861,11.1169],[99.5008,11.1728],[99.5453,11.2081],[99.5769,11.1923],[99.5822,11.2122],[99.5628,11.2289],[99.55,11.2769],[99.5608,11.3381],[99.5992,11.4042],[99.6383,11.5178],[99.6739,11.5881],[99.7156,11.6553],[99.7269,11.6831],[99.7917,11.7456],[99.811,11.787],[99.7989,11.8175],[99.8287,11.8387],[99.8122,11.8836],[99.8386,11.9548],[99.8639,11.9944],[99.9339,12.0692],[99.962,12.0859],[99.9608,12.1114],[99.9778,12.1478],[100.0206,12.1893],[100.001,12.2283],[99.9776,12.253],[99.9739,12.2753],[99.9979,12.344],[99.9939,12.4066],[99.9797,12.4301],[99.9781,12.5189],[99.957,12.5794],[99.9545,12.6207],[99.9642,12.7275],[99.9745,12.7687],[100,12.8386],[100.0258,12.8964],[100.0392,12.9639],[100.0947,13.0397],[100.0644,13.0894],[100.0672,13.1569],[100.0197,13.185],[99.9981,13.2197],[99.9522,13.2628],[99.9553,13.3033],[99.9994,13.3333],[99.9992,13.3678],[100.0344,13.3711],[100.0481,13.4078],[100.0639,13.4192],[100.1533,13.4492],[100.255,13.4767],[100.2811,13.5067],[100.3297,13.4861],[100.3797,13.4889],[100.4717,13.5044],[100.4803,13.5003],[100.5725,13.5144],[100.6089,13.5411],[100.6325,13.52],[100.6972,13.5058],[100.8114,13.4903],[100.8883,13.4683],[100.9406,13.4622],[100.9778,13.4819],[100.9672,13.4433],[100.9839,13.3942],[100.9758,13.3592],[100.9257,13.3413],[100.9021,13.3048],[100.9275,13.2583],[100.9361,13.2025],[100.925,13.1706],[100.8789,13.11],[100.8717,13.0833],[100.8931,13.0497],[100.9147,13.0447],[100.928,13.011],[100.9011,12.9719],[100.8829,12.9706],[100.8836,12.9394],[100.8558,12.9105],[100.8961,12.8599],[100.9135,12.8071],[100.9032,12.7785],[100.8401,12.7514],[100.834,12.7134],[100.8405,12.6756],[100.8856,12.6521],[100.9027,12.6624],[100.9302,12.645],[100.9206,12.6289],[100.9618,12.5942],[100.9716,12.6477],[101.0645,12.6742],[101.1082,12.6788],[101.219,12.6679],[101.2885,12.6537],[101.3481,12.6292],[101.4031,12.6006],[101.4637,12.6328],[101.5564,12.6269],[101.5741,12.6512],[101.6424,12.6438],[101.6884,12.6929],[101.7494,12.7078],[101.8261,12.6722],[101.8625,12.6425],[101.8661,12.6156],[101.905,12.5961],[101.9083,12.5631],[101.9287,12.5372],[101.9836,12.5411],[102.0308,12.5134],[102.0464,12.4853],[102.0864,12.4675],[102.1258,12.4186],[102.1617,12.3967],[102.2208,12.3301],[102.2542,12.3061],[102.2764,12.3253],[102.2582,12.3493],[102.2569,12.3725],[102.2316,12.3815],[102.2394,12.4158],[102.2561,12.4161],[102.2911,12.3803],[102.2672,12.3681],[102.2839,12.32],[102.305,12.3061],[102.2683,12.265],[102.2883,12.2294],[102.2769,12.2047],[102.3202,12.1826],[102.3339,12.1964],[102.3685,12.1929],[102.3966,12.1687],[102.4731,12.1628],[102.4778,12.1389],[102.5316,12.1136],[102.5508,12.0837],[102.5472,12.0589],[102.5889,12.0585],[102.5595,12.0955],[102.5665,12.1177],[102.5559,12.1622],[102.5639,12.1892],[102.5925,12.2111],[102.6444,12.1753],[102.6275,12.1463],[102.6642,12.12],[102.7513,12.0444],[102.7658,12.0222],[102.766,11.9818],[102.7844,11.9461],[102.78,11.9025],[102.8198,11.8924],[102.8161,11.9332],[102.7844,11.9774],[102.7703,12.0745],[102.7359,12.1083],[102.7039,12.1724],[102.7185,12.2254],[102.7136,12.2609],[102.7261,12.3031],[102.7258,12.3645],[102.7415,12.3857],[102.7712,12.3936],[102.787,12.4149],[102.7655,12.4561],[102.6779,12.543],[102.6461,12.6103],[102.617,12.6154],[102.5669,12.6578],[102.5319,12.6533],[102.5102,12.6704],[102.4998,12.7397],[102.5325,12.7676],[102.5322,12.8111],[102.5012,12.8498],[102.5091,12.8951],[102.4855,12.948],[102.4854,12.9786],[102.5016,12.9922],[102.4595,13.0822],[102.4396,13.0856],[102.4166,13.123],[102.3931,13.1773],[102.3867,13.2172],[102.3706,13.2368],[102.35,13.2916],[102.3596,13.3137],[102.3451,13.3469],[102.3605,13.4059],[102.357,13.4793],[102.3635,13.505],[102.3338,13.5375],[102.3401,13.5597],[102.3666,13.5779],[102.4388,13.5598],[102.4771,13.5714],[102.5268,13.5645],[102.5628,13.5791],[102.5799,13.6061],[102.5703,13.6431],[102.548,13.6588],[102.569,13.691],[102.6782,13.7494],[102.7156,13.7738],[102.7232,13.7933],[102.7663,13.8564],[102.7829,13.9328],[102.8156,13.9654],[102.8666,14.0043],[102.9083,14.0212],[102.8978,14.0518],[102.9007,14.0834],[102.9232,14.106],[102.925,14.1321],[102.941,14.1523],[102.9299,14.177],[102.9625,14.2122],[102.9993,14.2142],[103.0221,14.2285],[103.0569,14.2743],[103.0791,14.2939],[103.1153,14.2996],[103.1286,14.3198],[103.1746,14.3357],[103.2189,14.3236],[103.2618,14.35],[103.3157,14.3567],[103.333,14.3514],[103.402,14.3578],[103.436,14.3909],[103.4677,14.3647],[103.4997,14.4128],[103.5576,14.4319],[103.6063,14.4219],[103.6214,14.4041],[103.6568,14.4208],[103.6574,14.44],[103.7079,14.4319],[103.7003,14.3919],[103.7316,14.3857],[103.769,14.3671],[103.8623,14.3655],[103.8817,14.338],[103.9422,14.3302],[103.9499,14.3504],[103.9828,14.3542],[104.028,14.3404],[104.0919,14.3509],[104.1081,14.3784],[104.1392,14.3718],[104.1982,14.3838],[104.2189,14.3677],[104.2454,14.376],[104.2754,14.4085],[104.3217,14.3739],[104.3551,14.3692],[104.3783,14.3779],[104.4326,14.3599],[104.476,14.3587],[104.499,14.3762],[104.5352,14.3556],[104.5645,14.354],[104.6023,14.3963],[104.6409,14.4232],[104.6593,14.4006],[104.6801,14.3975],[104.6987,14.4273],[104.7548,14.4049],[104.7669,14.4235],[104.8058,14.4374],[104.8336,14.4012],[104.8717,14.4182],[104.9463,14.3825],[104.9725,14.3923],[105.0027,14.362],[104.9845,14.3183],[105.0028,14.3027],[105.0228,14.2413],[105.0502,14.2149],[105.1091,14.2142],[105.1465,14.2422],[105.1514,14.2849],[105.1767,14.3147],[105.1758,14.3455],[105.2001,14.3485],[105.2298,14.3316],[105.2559,14.3611],[105.2796,14.3516],[105.3228,14.3958],[105.3626,14.3852],[105.4095,14.4254],[105.4267,14.4136],[105.4725,14.4692],[105.4825,14.5041],[105.5036,14.511],[105.5416,14.5821],[105.5313,14.5959],[105.5314,14.6365],[105.5189,14.6649],[105.5228,14.7257],[105.5138,14.7982],[105.5235,14.8229],[105.5546,14.8328],[105.5385,14.8666],[105.5797,14.8795],[105.5766,14.8998],[105.5511,14.9231],[105.559,14.9534],[105.5863,14.9442],[105.6223,14.9746],[105.5791,14.9951],[105.5736,15.02],[105.5494,15.0368],[105.5131,15.0844],[105.4746,15.0985],[105.467,15.113],[105.4781,15.1784],[105.5194,15.2182],[105.5423,15.251],[105.5848,15.2596],[105.5937,15.2751],[105.584,15.3132],[105.5316,15.3206],[105.5073,15.3139],[105.4697,15.3485],[105.4956,15.3843],[105.5665,15.3975],[105.5924,15.4197],[105.605,15.4782],[105.5958,15.507],[105.6287,15.5639],[105.6391,15.6276],[105.6376,15.6587],[105.5968,15.7237],[105.5005,15.7646],[105.4677,15.7431],[105.4376,15.7523],[105.4215,15.7872],[105.4025,15.7933],[105.3912,15.8281],[105.3452,15.9213],[105.3805,15.9824],[105.4197,15.9852],[105.4142,16.013],[105.3173,16.0268],[105.275,16.0409],[105.2136,16.0479],[105.1042,16.0892],[105.0865,16.0837],[105.0429,16.1079],[105.0353,16.1422],[105.0139,16.1913],[105.0193,16.2336],[104.9915,16.2708],[104.9611,16.2896],[104.934,16.3258],[104.9036,16.3372],[104.8653,16.3986],[104.8636,16.424],[104.8423,16.4577],[104.7737,16.4967],[104.746,16.5282],[104.7364,16.5692],[104.746,16.6336],[104.7656,16.6873],[104.7617,16.7456],[104.7352,16.8038],[104.7598,16.8482],[104.735,16.9076],[104.7312,17.0023],[104.7371,17.0288],[104.7688,17.0792],[104.8062,17.2251],[104.8066,17.2995],[104.802,17.3827],[104.7719,17.4288],[104.7514,17.4451],[104.6977,17.5254],[104.6172,17.5752],[104.5388,17.619],[104.4733,17.646],[104.4574,17.658],[104.401,17.7356],[104.3932,17.7564],[104.3492,17.821],[104.2868,17.8458],[104.2735,17.8638],[104.2194,17.9906],[104.1106,18.1115],[104.0639,18.2162],[103.9744,18.3344],[103.9257,18.3253],[103.8869,18.2895],[103.8534,18.2855],[103.8368,18.324],[103.8109,18.3383],[103.6986,18.3407],[103.6193,18.3982],[103.573,18.403],[103.5182,18.4239],[103.4595,18.4227],[103.4084,18.4467],[103.3511,18.4319],[103.3128,18.431],[103.2516,18.3707],[103.2566,18.3347],[103.2794,18.3351],[103.3013,18.3024],[103.2719,18.2868],[103.1857,18.2625],[103.1525,18.2283],[103.1581,18.2013],[103.1504,18.1684],[103.0925,18.13],[103.0812,18.1121],[103.0757,18.0724],[103.0814,18.0303],[103.0412,17.9776],[103.0195,17.97],[102.9984,17.9887],[102.9633,18.003],[102.905,17.9808],[102.8614,17.9708],[102.8223,17.9405],[102.7812,17.9248],[102.7711,17.9025],[102.7428,17.8835],[102.7008,17.8747],[102.679,17.8436],[102.6973,17.8246],[102.6783,17.8013],[102.6396,17.8294],[102.5997,17.8331],[102.59,17.8459],[102.6168,17.9098],[102.6047,17.9551],[102.5589,17.9669],[102.4631,17.9695],[102.4226,17.9879],[102.3507,18.0416],[102.2913,18.0528],[102.2429,18.1033],[102.1873,18.1469],[102.166,18.2015],[102.136,18.2137],[102.0898,18.2178],[102.0476,18.1954],[102.039,18.1626],[101.9982,18.1217],[101.9587,18.0954],[101.914,18.0332],[101.8781,18.027],[101.8284,18.0551],[101.7872,18.0694],[101.77,18.0528],[101.7552,17.9996],[101.733,17.9481],[101.7364,17.9192],[101.7139,17.9005],[101.6811,17.9022],[101.6202,17.8891],[101.5955,17.8472],[101.5743,17.8624],[101.5543,17.812],[101.5744,17.8015],[101.5078,17.755],[101.4983,17.7254],[101.471,17.7518],[101.4368,17.7142],[101.3904,17.6943],[101.3579,17.6618],[101.3158,17.6493],[101.3131,17.6329],[101.267,17.5957],[101.2346,17.5342],[101.1861,17.5239],[101.1883,17.4949],[101.1666,17.4668],[101.1124,17.4825],[101.0488,17.527],[101.047,17.5428],[101.0058,17.5538],[100.9685,17.5735],[100.9955,17.6291],[100.9915,17.66],[101.0108,17.6981],[101.0074,17.724],[100.9829,17.7659],[101.008,17.7834],[100.9943,17.8029],[101.0026,17.8213],[101.032,17.8325],[101.0204,17.8892],[101.0493,17.9119],[101.0905,17.9236],[101.1166,17.9697],[101.1238,17.9982],[101.1526,18.035],[101.186,18.0636],[101.1627,18.1216],[101.193,18.2086],[101.1672,18.216],[101.161,18.2735],[101.1502,18.2932],[101.184,18.33],[101.15,18.3455],[101.1256,18.3682],[101.085,18.3833],[101.0811,18.4034],[101.0546,18.4236],[101.0696,18.4584],[101.0959,18.482],[101.1057,18.5196],[101.1398,18.5261],[101.1513,18.5511],[101.1763,18.5582],[101.1886,18.5772],[101.1837,18.6098],[101.215,18.62],[101.273,18.6886],[101.2257,18.7307],[101.2512,18.7757],[101.2554,18.8116],[101.2448,18.8303],[101.2566,18.8629],[101.2477,18.8864],[101.2766,18.9282],[101.2991,18.942],[101.2952,18.9791],[101.3125,19.0004],[101.3384,19.0026],[101.3576,19.0437],[101.3431,19.0674],[101.3182,19.0779],[101.2563,19.1299],[101.2471,19.1787],[101.2564,19.219],[101.2414,19.283],[101.2293,19.3076],[101.2401,19.3285],[101.2074,19.3479],[101.189,19.3957],[101.2171,19.4297],[101.2072,19.4565],[101.2156,19.4733],[101.2683,19.4683],[101.2697,19.5016],[101.2874,19.5253],[101.2761,19.5486],[101.283,19.5804],[101.246,19.6017],[101.2088,19.6034],[101.2,19.5751],[101.169,19.5791],[101.1246,19.5706],[101.0938,19.5852],[101.0643,19.6173],[101.026,19.628],[100.9149,19.6248],[100.8919,19.6295],[100.8846,19.6042],[100.8185,19.5234],[100.7666,19.499],[100.7302,19.525],[100.6529,19.5549],[100.6191,19.5495],[100.6012,19.495],[100.5712,19.4814],[100.5307,19.494],[100.4823,19.4872],[100.4726,19.5289],[100.4894,19.5658],[100.4876,19.5965],[100.4448,19.6333],[100.4299,19.6713],[100.4441,19.7058],[100.4059,19.7493],[100.4163,19.7781],[100.4387,19.7983],[100.4626,19.8551],[100.5075,19.8853],[100.5217,19.915],[100.5193,19.944],[100.5537,20.0292],[100.5717,20.0966],[100.5798,20.1665],[100.5548,20.1735],[100.5304,20.1419],[100.5106,20.148],[100.4919,20.1746],[100.4576,20.1976],[100.454,20.2297],[100.4168,20.2525],[100.4081,20.28],[100.3838,20.3137],[100.3737,20.3519],[100.3326,20.3964],[100.2754,20.3989],[100.2514,20.3829],[100.2262,20.3453],[100.2174,20.3113],[100.1707,20.298],[100.1829,20.2641],[100.1738,20.2441],[100.115,20.2481],[100.0926,20.2767],[100.0988,20.311],[100.0759,20.3749],[99.9869,20.4279],[99.9568,20.4628],[99.9234,20.4439],[99.8718,20.443],[99.8427,20.4003],[99.8429,20.3706],[99.8128,20.3341],[99.7782,20.3326],[99.7327,20.3479],[99.7132,20.3221],[99.6837,20.3146],[99.6375,20.3401],[99.6142,20.3298],[99.56,20.3558],[99.5167,20.3639],[99.498,20.3834],[99.4595,20.3907],[99.4592,20.3603],[99.4984,20.3391],[99.5115,20.3121],[99.5071,20.2921],[99.5349,20.2304],[99.5626,20.2019],[99.5445,20.1696],[99.4993,20.1302],[99.5021,20.1148],[99.4439,20.0888],[99.3835,20.0865],[99.318,20.0679],[99.2655,20.1029],[99.214,20.1277],[99.1635,20.1297],[99.1288,20.1147],[99.1101,20.0954],[99.0785,20.0986],[99.0693,20.0663],[99.0457,20.0341],[99.0529,19.9967],[99.0321,19.9692],[99.0462,19.9469],[99.031,19.9235],[99.0257,19.8621],[99.036,19.8527],[99.0188,19.8037],[98.9936,19.7805],[98.9825,19.7319],[98.9461,19.7658],[98.9158,19.7528],[98.8502,19.8057],[98.7983,19.7731],[98.7819,19.751],[98.7411,19.7515],[98.7141,19.7616],[98.676,19.7486],[98.6156,19.7085],[98.5748,19.7014],[98.5619,19.6731],[98.5205,19.7129],[98.4759,19.6933],[98.4169,19.6893],[98.3953,19.7009],[98.3665,19.6906],[98.326,19.6948],[98.2993,19.6793],[98.2502,19.6737],[98.2252,19.7214],[98.1936,19.7361],[98.1714,19.767],[98.1379,19.7842],[98.1016,19.7702],[98.0854,19.8075],[98.037,19.7839],[98.0416,19.7626],[98.0291,19.7195],[98.032,19.6848],[98.0467,19.6623],[98.0416,19.6391],[97.9869,19.6379],[97.9791,19.6003],[97.9042,19.5756],[97.8638,19.5732],[97.857,19.5306],[97.8891,19.4981],[97.8305,19.4375],[97.8073,19.4024],[97.8032,19.3493],[97.8256,19.3264],[97.8338,19.3001],[97.7862,19.2652],[97.8137,19.2509],[97.8457,19.2203],[97.8444,19.1439],[97.8373,19.0922],[97.768,19.0643],[97.7729,19.0423],[97.7388,19.0386],[97.7357,18.971],[97.7111,18.9631],[97.6724,18.9302],[97.7194,18.8879],[97.7388,18.8848],[97.7428,18.8273],[97.7661,18.7599],[97.7574,18.7219],[97.7758,18.6929],[97.7719,18.575],[97.7332,18.5805],[97.7036,18.5662],[97.6589,18.5745],[97.6438,18.5585],[97.6183,18.5576],[97.6086,18.5336],[97.5515,18.526],[97.5394,18.4876],[97.5088,18.4886],[97.4919,18.5053],[97.4563,18.4902],[97.4359,18.5034],[97.4228,18.5447],[97.4013,18.5617],[97.3637,18.5581],[97.3488,18.5424],[97.3861,18.5062],[97.4049,18.4473],[97.4278,18.4067],[97.4534,18.3881],[97.4453,18.338],[97.4619,18.3093],[97.5077,18.2648],[97.5372,18.2847],[97.5511,18.3306],[97.5765,18.3368],[97.6207,18.3167],[97.6411,18.279],[97.6097,18.2411],[97.6163,18.2214],[97.6517,18.1771],[97.6769,18.1595],[97.6797,18.1114],[97.6993,18.064],[97.727,18.0175],[97.7411,17.9725],[97.7374,17.9519],[97.6937,17.9243],[97.6763,17.8683],[97.7042,17.8136],[97.7578,17.7706],[97.7675,17.756],[97.7643,17.7229],[97.7948,17.6783],[97.8521,17.6233],[97.9075,17.5818],[97.9251,17.5375],[97.9624,17.5269],[97.9937,17.5086],[98.0368,17.4519],[98.0561,17.4408],[98.0837,17.3885],[98.1112,17.384],[98.1055,17.3441],[98.173,17.2584],[98.2368,17.2269],[98.251,17.1799],[98.2853,17.1417],[98.281,17.1199],[98.3217,17.1101],[98.3045,17.0923],[98.3386,17.0492],[98.4124,17.0513],[98.4387,17.0338],[98.4732,16.9947],[98.4975,16.9482],[98.5218,16.9158],[98.5136,16.8678],[98.4941,16.8402],[98.5415,16.8254],[98.4639,16.7451],[98.4637,16.7281],[98.5174,16.6912],[98.5163,16.6562],[98.5265,16.6401],[98.5751,16.619],[98.5872,16.5854],[98.574,16.5691],[98.5855,16.5461],[98.6585,16.4558],[98.6391,16.425],[98.6652,16.3637],[98.6695,16.2826],[98.7052,16.2733],[98.7289,16.3297],[98.7469,16.3438],[98.7739,16.3438],[98.7829,16.3636],[98.8175,16.3848],[98.8317,16.4214],[98.8809,16.4231],[98.9173,16.3889],[98.9326,16.3272],[98.9165,16.3039],[98.9039,16.2521],[98.8665,16.2313],[98.8538,16.2119],[98.8632,16.1691],[98.8489,16.1264],[98.8049,16.1028],[98.7702,16.1191],[98.719,16.1222],[98.7,16.1337],[98.6617,16.0719],[98.6376,16.0613],[98.626,16.041],[98.582,16.0617],[98.5629,16.0312],[98.5925,16.012],[98.6094,15.9746],[98.5949,15.9581],[98.5853,15.9171],[98.5966,15.8747],[98.6111,15.8754],[98.5735,15.7822],[98.5477,15.6817],[98.56,15.6504],[98.5574,15.5996],[98.5791,15.5359],[98.5898,15.4384],[98.5813,15.3636],[98.5625,15.3368],[98.5359,15.3687],[98.4872,15.3861],[98.4174,15.3483],[98.4228,15.3274],[98.406,15.3035],[98.4225,15.2702],[98.4094,15.2528],[98.3534,15.2918],[98.3089,15.311],[98.3061,15.2786],[98.2611,15.2341],[98.2369,15.2186],[98.1994,15.2297],[98.2138,15.1822],[98.1917,15.1489],[98.1863,15.095],[98.2338,15.043],[98.2143,15.0201],[98.2099,14.9811],[98.233,14.9656],[98.2322,14.9442],[98.2533,14.9129],[98.2338,14.8882],[98.2642,14.854],[98.2504,14.8286],[98.2785,14.7949],[98.3001,14.7484],[98.3304,14.7053],[98.3667,14.6855],[98.3696,14.6643],[98.4348,14.6122],[98.4606,14.5772],[98.463,14.5294],[98.4927,14.5391],[98.5143,14.4751],[98.552,14.4326],[98.5597,14.4016],[98.5791,14.369],[98.5994,14.3665],[98.6016,14.3238],[98.6977,14.2743],[98.7075,14.2528],[98.7606,14.2142],[98.8307,14.1742],[98.8714,14.1442],[98.8791,14.1235],[98.9225,14.11],[98.9708,14.0798],[98.9745,14.0309],[99.0017,14.0175],[99.0236,13.9459],[99.0639,13.9261],[99.0829,13.8906],[99.1102,13.8912],[99.1063,13.8314],[99.1242,13.8109],[99.1277,13.7667],[99.1564,13.7532],[99.1718,13.72],[99.1742,13.6898],[99.1672,13.5711],[99.1953,13.5405],[99.1909,13.4937],[99.2103,13.4565],[99.2132,13.4117],[99.2042,13.3693],[99.2095,13.3362],[99.1916,13.3157],[99.1975,13.2562],[99.2111,13.2063],[99.1832,13.1915],[99.1578,13.2078],[99.1323,13.2019],[99.1171,13.1756],[99.1346,13.1638],[99.1365,13.1275],[99.1282,13.1026],[99.0998,13.0771],[99.1346,13.0324],[99.1713,13.014],[99.1958,12.9593],[99.166,12.9238],[99.1835,12.9098],[99.1867,12.8492],[99.223,12.8227],[99.2354,12.7769],[99.2284,12.7432],[99.2486,12.7186],[99.2705,12.7283],[99.2906,12.7148],[99.2961,12.6771],[99.339,12.6611],[99.3664,12.6244],[99.4127,12.615],[99.4398,12.5824],[99.4186,12.5245],[99.4263,12.4904],[99.4025,12.4586],[99.4254,12.4482],[99.4263,12.425],[99.4425,12.4004],[99.4344,12.3419],[99.4617,12.2856],[99.4848,12.2727],[99.4719,12.2349],[99.4952,12.1889],[99.4734,12.1568],[99.501,12.1432],[99.5501,12.1502],[99.5714,12.1447],[99.5562,12.0925],[99.5343,12.0653],[99.5393,12.0133],[99.5748,12.0072],[99.5925,11.9922],[99.5921,11.9507],[99.5803,11.9422],[99.5797,11.9044],[99.5886,11.8721],[99.6101,11.8679],[99.6222,11.8323],[99.6583,11.8288],[99.6379,11.7554],[99.6368,11.7265],[99.603,11.707],[99.5834,11.6771],[99.5876,11.6584],[99.5663,11.6258],[99.5297,11.6209],[99.5174,11.6356],[99.468,11.6142],[99.4582,11.5826],[99.4741,11.5327],[99.4588,11.4946],[99.3948,11.4609],[99.4033,11.4239],[99.4024,11.3884],[99.3654,11.3709],[99.3423,11.3371],[99.3125,11.3167],[99.3269,11.2866],[99.3071,11.2554],[99.3079,11.2165],[99.2866,11.1895],[99.2635,11.2004],[99.2532,11.1686],[99.232,11.1431],[99.2276,11.1122],[99.1899,11.083],[99.1573,11.0318],[99.1031,11.0126],[99.0939,10.9716],[99.0802,10.9543],[99.02,10.965],[98.9996,10.9229],[99.0111,10.856],[98.9732,10.8313],[98.9591,10.8117],[98.9238,10.8266],[98.8893,10.774],[98.8727,10.7795],[98.843,10.7513],[98.8202,10.7154],[98.7826,10.6769],[98.7872,10.6494],[98.7762,10.6141],[98.8043,10.5979],[98.8065,10.5567],[98.8196,10.5427],[98.8224,10.5048],[98.812,10.467],[98.7847,10.4393],[98.7547,10.39],[98.7517,10.3217],[98.7378,10.2931],[98.6764,10.1211],[98.6436,10.0728],[98.6042,9.9972],[98.5908,9.9342],[98.5695,9.9221],[98.5609,9.8862],[98.5425,9.887],[98.5156,9.8534],[98.5399,9.7998],[98.507,9.7828],[98.5118,9.7531],[98.5575,9.7292],[98.5386,9.6939],[98.492,9.6619],[98.465,9.6036],[98.5083,9.595],[98.5345,9.5688],[98.4987,9.5525],[98.4836,9.5162],[98.4556,9.5633],[98.437,9.5052],[98.4296,9.4404],[98.4181,9.4111],[98.3969,9.4028],[98.3911,9.3355],[98.381,9.3207],[98.3625,9.2592],[98.3194,9.2089],[98.3193,9.1811],[98.3394,9.1517],[98.3425,9.1192],[98.3656,9.0894],[98.3659,9.0697],[98.33,9.0565],[98.3184,9.0336],[98.327,9.0165],[98.3667,8.9924],[98.365,8.9542],[98.3338,8.978],[98.3224,8.9713],[98.3109,8.9457],[98.2881,8.9158],[98.2874,8.896],[98.2757,8.8671],[98.2642,8.8592],[98.2578,8.8032],[98.2613,8.7622],[98.235,8.7211],[98.2472,8.6528],[98.233,8.6255],[98.2426,8.6],[98.2226,8.5789],[98.237,8.5538],[98.2055,8.5524],[98.2166,8.5203],[98.2359,8.4342],[98.2627,8.3354],[98.2823,8.2453],[98.2821,8.2047],[98.3166,8.1992],[98.3281,8.1858],[98.3605,8.1882],[98.3738,8.1393],[98.3876,8.1267],[98.4077,8.1525],[98.4353,8.1633],[98.4516,8.2062],[98.4678,8.2177],[98.4551,8.2787],[98.4668,8.3467],[98.5068,8.3421],[98.5111,8.3281],[98.5503,8.3413],[98.5706,8.3597],[98.5918,8.361],[98.615,8.4031],[98.6356,8.3701],[98.6364,8.3295],[98.6241,8.2984],[98.6494,8.2731],[98.6852,8.3039],[98.709,8.3101],[98.7125,8.2658],[98.7461,8.2061],[98.7514,8.1828],[98.7377,8.1571],[98.7571,8.1328],[98.741,8.0769],[98.7492,8.0549],[98.7726,8.0411],[98.8022,8.046],[98.8416,8.0102],[98.8637,8.0293],[98.8802,8.0202],[98.9068,8.0464],[98.9572,8],[98.9467,7.9776],[98.9728,7.9323],[98.9995,7.9417],[99.0156,7.9253],[99.0275,7.8893],[99.0717,7.923],[99.085,7.9084],[99.0649,7.8555],[99.0971,7.8303],[99.1287,7.8182],[99.1381,7.7511],[99.1694,7.7283],[99.1764,7.7065],[99.2012,7.6989],[99.2547,7.6494],[99.2461,7.6258],[99.2781,7.6006],[99.2945,7.5615],[99.3134,7.5373],[99.307,7.5112],[99.3276,7.4942],[99.3448,7.4388],[99.3469,7.4003],[99.3382,7.3783],[99.3778,7.3368],[99.3949,7.3079],[99.4693,7.2836],[99.4841,7.2925],[99.4908,7.3225],[99.4836,7.3781],[99.5011,7.3919],[99.5084,7.3091],[99.5253,7.2961],[99.5613,7.3204],[99.5684,7.358],[99.5851,7.3549],[99.5597,7.289],[99.5325,7.2828],[99.5212,7.2514],[99.5586,7.2081],[99.5854,7.1473],[99.606,7.1902],[99.6358,7.1608],[99.659,7.1749],[99.6708,7.1253],[99.7033,7.1333],[99.7358,7.1272],[99.735,7.1104],[99.6703,7.0399],[99.6835,7.0118],[99.6856,6.895],[99.6983,6.866],[99.7499,6.84],[99.7786,6.8379],[99.8001,6.8069],[99.8119,6.7697],[99.8422,6.7761],[99.8779,6.7202],[99.9236,6.6883],[99.9361,6.6562],[99.9635,6.6376],[99.9492,6.6172],[99.9505,6.5844],[99.9783,6.6039],[100.0069,6.5613],[100.0485,6.5218],[100.0639,6.5153],[100.0808,6.5569],[100.0992,6.53],[100.1017,6.4964],[100.1265,6.4195],[100.1479,6.4535],[100.1635,6.4981],[100.1553,6.5611],[100.1843,6.5773],[100.1661,6.6307],[100.1811,6.6545],[100.1803,6.6989],[100.205,6.726],[100.2356,6.6942],[100.2725,6.6971],[100.3251,6.6631],[100.3267,6.6225],[100.3141,6.6033],[100.3529,6.5725],[100.3595,6.5466],[100.4239,6.5146],[100.4579,6.5313],[100.49,6.525],[100.5034,6.5014],[100.5274,6.4868],[100.5617,6.4954],[100.574,6.4828],[100.6362,6.4575],[100.6532,6.4434],[100.7087,6.4709],[100.7329,6.5062],[100.7463,6.4698],[100.7777,6.4632],[100.8186,6.4374],[100.8218,6.3566],[100.8473,6.3539],[100.8492,6.3123],[100.8352,6.2889],[100.8537,6.2438],[100.8827,6.2611],[100.9078,6.2453],[100.9402,6.2499],[100.9714,6.2874],[100.9882,6.2842],[101.0194,6.2537],[101.0969,6.2601],[101.1266,6.1953],[101.1078,6.1795],[101.0757,6.1704],[101.0606,6.1404],[101.0897,6.1341],[101.1321,6.1021],[101.1056,6.0615],[101.1132,6.0351],[101.1064,5.9991],[101.1265,5.9813],[101.0878,5.9251],[101.052,5.9103],[101.0362,5.9179],[101.0095,5.8736],[101.0155,5.8354],[100.9861,5.8065],[101.0301,5.7477],[101.0574,5.7473],[101.1187,5.6695],[101.1345,5.616],[101.1742,5.6504],[101.2058,5.6622],[101.2189,5.6825],[101.2571,5.715],[101.2499,5.759],[101.2751,5.8134],[101.2884,5.8218],[101.3158,5.808],[101.3721,5.8382],[101.3914,5.8717],[101.411,5.8781],[101.4824,5.8768],[101.5137,5.9034],[101.5789,5.9339],[101.6012,5.9219],[101.636,5.8796],[101.6649,5.8644],[101.6642,5.8153],[101.6934,5.7813],[101.7661,5.7951],[101.7908,5.7552],[101.8189,5.755]]],[[[99.9705,9.4126],[100.0164,9.4247],[100.0278,9.4506],[100.0667,9.4869],[100.0614,9.5278],[100.0881,9.57],[100.0689,9.5839],[100.0528,9.5572],[99.9972,9.5714],[99.9814,9.5878],[99.9147,9.5717],[99.9339,9.5375],[99.9337,9.4375],[99.9705,9.4126]]],[[[100,9.7061],[100.06,9.6794],[100.0778,9.6825],[100.08,9.745],[100.0522,9.7928],[100.0167,9.8025],[99.9817,9.7989],[99.9618,9.7726],[99.9753,9.7263],[100,9.7061]]],[[[100.7878,12.7191],[100.7741,12.7202],[100.779,12.6711],[100.8063,12.6961],[100.7878,12.7191]]],[[[99.2827,6.5745],[99.2751,6.5514],[99.2858,6.5075],[99.3136,6.5095],[99.3223,6.5478],[99.2827,6.5745]]],[[[99.2527,6.5787],[99.1956,6.5756],[99.19,6.5465],[99.218,6.538],[99.2576,6.556],[99.2527,6.5787]]],[[[99.0767,7.566],[99.0803,7.5975],[99.0595,7.6128],[99.0482,7.6438],[99.0252,7.6444],[99.0343,7.6016],[99.0308,7.5797],[99.067,7.4993],[99.0995,7.4696],[99.1119,7.4908],[99.0767,7.566]]],[[[99.397,7.2623],[99.3683,7.2661],[99.3648,7.224],[99.3743,7.2101],[99.4126,7.2427],[99.397,7.2623]]],[[[99.0731,7.6867],[99.0395,7.6846],[99.0392,7.6539],[99.0509,7.648],[99.0585,7.6223],[99.0842,7.5956],[99.1163,7.5987],[99.1308,7.648],[99.1094,7.6863],[99.0731,7.6867]]],[[[98.3444,7.818],[98.3933,7.85],[98.3986,7.8705],[98.4304,7.875],[98.4227,7.9036],[98.3983,7.9453],[98.3942,7.9792],[98.4075,7.99],[98.4109,8.0258],[98.4317,8.0461],[98.4349,8.0859],[98.3865,8.0857],[98.3734,8.119],[98.3515,8.1111],[98.3376,8.1721],[98.2866,8.1999],[98.3017,8.1199],[98.2981,8.0918],[98.2725,8.0785],[98.2765,8.0422],[98.2925,8.0021],[98.2766,7.9816],[98.2815,7.9523],[98.2581,7.9357],[98.2898,7.9159],[98.2905,7.8563],[98.306,7.7757],[98.3334,7.7885],[98.3444,7.818]]],[[[98.9892,7.9264],[98.9678,7.9217],[98.9769,7.8844],[99.0004,7.8958],[98.9892,7.9264]]],[[[98.6022,8.0316],[98.6105,8.0439],[98.5926,8.0705],[98.5576,8.0871],[98.5308,8.0707],[98.5509,8.0364],[98.5879,8.0127],[98.5875,7.9961],[98.5644,7.9587],[98.5763,7.9296],[98.6001,7.9131],[98.6101,7.9398],[98.6125,7.9797],[98.6022,8.0316]]],[[[99.1033,7.7458],[99.13,7.7833],[99.1284,7.8165],[99.1017,7.8192],[99.0605,7.852],[99.0172,7.8222],[99.0308,7.7974],[99.0202,7.7644],[99.0408,7.7037],[99.0872,7.6899],[99.1089,7.7106],[99.1033,7.7458]]],[[[99.017,7.884],[99.0022,7.8714],[99.0148,7.8373],[99.0404,7.8608],[99.017,7.884]]],[[[98.6371,8.1816],[98.602,8.1559],[98.5876,8.1181],[98.5923,8.0949],[98.6183,8.0975],[98.6344,8.1416],[98.6371,8.1816]]],[[[99.665,6.7125],[99.6455,6.7019],[99.637,6.6709],[99.6145,6.66],[99.6124,6.6161],[99.596,6.6005],[99.6141,6.5664],[99.638,6.5474],[99.6439,6.5181],[99.6604,6.5047],[99.6761,6.5394],[99.6988,6.5568],[99.6945,6.6012],[99.6801,6.6171],[99.6843,6.6845],[99.665,6.7125]]],[[[98.2739,9.0126],[98.2475,9.0064],[98.2632,8.9534],[98.2484,8.9133],[98.2646,8.8876],[98.2828,8.8942],[98.2859,8.9186],[98.2958,8.9403],[98.3089,8.9462],[98.3239,8.9827],[98.2739,9.0126]]],[[[98.2898,9.163],[98.2612,9.1653],[98.2492,9.1264],[98.2519,9.0815],[98.246,9.0319],[98.2821,9.0306],[98.3276,9.0665],[98.3344,9.0806],[98.3233,9.1182],[98.2898,9.163]]],[[[99.8439,10.1239],[99.8153,10.0711],[99.8458,10.0736],[99.8439,10.1239]]],[[[98.4156,9.7673],[98.3868,9.7308],[98.4046,9.7114],[98.4231,9.7298],[98.4156,9.7673]]],[[[98.4643,9.8595],[98.437,9.8556],[98.4312,9.8208],[98.4465,9.8],[98.4685,9.8245],[98.4643,9.8595]]],[[[102.565,11.7198],[102.5581,11.7575],[102.5345,11.7242],[102.5273,11.6961],[102.5453,11.6231],[102.5288,11.6029],[102.5711,11.5884],[102.5936,11.5931],[102.6089,11.6511],[102.6008,11.7],[102.565,11.7198]]],[[[102.4764,11.8329],[102.4645,11.8201],[102.4839,11.798],[102.5059,11.83],[102.4764,11.8329]]],[[[102.2606,12.1519],[102.2525,12.1303],[102.2733,12.1028],[102.2744,12.0722],[102.2894,12.0586],[102.2939,11.9819],[102.377,11.9639],[102.3821,12.0005],[102.4131,11.9672],[102.4299,11.9899],[102.398,12.0489],[102.3861,12.0489],[102.3561,12.1083],[102.3222,12.1364],[102.2606,12.1519]]]]},"properties":{"GID_0":"THA","ISO_A2":"TH","ISO_A3":"THA","NAME_EN":"Thailand","NAME_IT":"Thailandia"}}
]}