{"type":"FeatureCollection", "features": [
{"type":"Feature","geometry":{"type":"MultiPolygon","coordinates":[[[[-64.8642,32.2669],[-64.875,32.2781],[-64.8606,32.3008],[-64.8792,32.3028],[-64.8756,32.2911],[-64.8878,32.2817],[-64.8778,32.2589],[-64.8622,32.2478],[-64.8344,32.2467],[-64.7806,32.27],[-64.7519,32.2944],[-64.7425,32.2986],[-64.6886,32.3342],[-64.7067,32.3472],[-64.7239,32.3489],[-64.7375,32.3436],[-64.7475,32.3178],[-64.7731,32.3078],[-64.8067,32.3083],[-64.8061,32.2914],[-64.795,32.2817],[-64.8431,32.2544],[-64.8653,32.26],[-64.8642,32.2669]]],[[[-64.6853,32.3775],[-64.7119,32.3678],[-64.6516,32.3597],[-64.6494,32.3722],[-64.6711,32.37],[-64.6853,32.3775]]]]},"properties":{"GID_0":"BMU","ISO_A2":"BM","ISO_A3":"BMU","NAME_EN":"Bermuda","NAME_IT":"Bermuda"}}
]}