{"type":"FeatureCollection", "features": [
{"type":"Feature","geometry":{"type":"Polygon","coordinates":[[[-16.6907,13.1653],[-16.0241,13.1637],[-15.8025,13.1811],[-15.8021,13.348],[-15.6804,13.3706],[-15.591,13.3493],[-15.4917,13.3951],[-15.3795,13.3553],[-15.2952,13.3669],[-15.2221,13.4267],[-15.1956,13.5285],[-15.1398,13.5814],[-15.0751,13.5656],[-14.9948,13.4901],[-14.8031,13.4162],[-14.6588,13.341],[-14.5607,13.3629],[-14.5063,13.3066],[-14.3478,13.2277],[-14.132,13.2229],[-14.1026,13.2848],[-13.9508,13.3216],[-13.8596,13.3225],[-13.7916,13.4385],[-13.8864,13.5493],[-13.9575,13.5784],[-14.164,13.5327],[-14.239,13.4741],[-14.3201,13.4551],[-14.4273,13.5017],[-14.5061,13.6252],[-14.6262,13.6556],[-14.7125,13.6152],[-14.7821,13.6538],[-14.8014,13.7333],[-14.8721,13.7871],[-15.0621,13.8269],[-15.2152,13.7497],[-15.3387,13.7832],[-15.4332,13.7194],[-15.4731,13.5909],[-16.0277,13.5913],[-16.5452,13.5924],[-16.5493,13.4868],[-16.4824,13.4407],[-16.4837,13.3913],[-16.4156,13.3264],[-16.3188,13.3354],[-16.1532,13.4522],[-16.1,13.4363],[-15.863,13.4628],[-15.8961,13.4218],[-16.072,13.4037],[-16.1569,13.4251],[-16.2386,13.3179],[-16.4552,13.2689],[-16.5735,13.3158],[-16.6126,13.4374],[-16.694,13.4763],[-16.7938,13.3788],[-16.8068,13.2751],[-16.766,13.1129],[-16.6907,13.1653]]]},"properties":{"GID_0":"GMB","ISO_A2":"GM","ISO_A3":"GMB","NAME_EN":"Gambia","NAME_IT":"Gambia"}}
]}