{"type":"FeatureCollection", "features": [
{"type":"Feature","geometry":{"type":"Polygon","coordinates":[[[18.2793,45.7614],[18.4024,45.7492],[18.463,45.7591],[18.5946,45.8248],[18.6233,45.8773],[18.7043,45.9106],[18.7921,45.8807],[18.8113,45.9113],[18.8992,45.9378],[18.9864,45.9361],[19.0943,46.0336],[19.1487,45.998],[19.2745,45.998],[19.3665,46.0555],[19.4119,46.0478],[19.5033,46.136],[19.5605,46.1714],[19.6577,46.1894],[19.7394,46.1681],[19.8164,46.1303],[19.9344,46.1773],[20.0941,46.1781],[20.1415,46.1468],[20.2718,46.1275],[20.3572,46.1699],[20.4607,46.1432],[20.5032,46.1903],[20.6422,46.1275],[20.7155,46.1663],[20.7504,46.251],[20.875,46.2878],[20.9238,46.2621],[21.0383,46.2482],[21.1048,46.2629],[21.1171,46.302],[21.1821,46.3044],[21.2079,46.4036],[21.277,46.407],[21.319,46.4513],[21.262,46.5023],[21.3315,46.6319],[21.418,46.6428],[21.4971,46.688],[21.5283,46.7395],[21.4851,46.7647],[21.5208,46.8363],[21.5984,46.8617],[21.6076,46.9328],[21.6399,46.9333],[21.6792,46.9894],[21.6843,47.046],[21.7277,47.0989],[21.7933,47.1245],[21.8191,47.1731],[21.8594,47.1875],[21.8534,47.2395],[21.9401,47.3733],[22.0136,47.3761],[22.0369,47.4277],[22.0091,47.4762],[22.0257,47.5202],[22.1307,47.5896],[22.1726,47.592],[22.2662,47.7314],[22.4274,47.7504],[22.4496,47.8034],[22.4901,47.8062],[22.5512,47.773],[22.6866,47.7919],[22.7126,47.8347],[22.7784,47.8437],[22.7946,47.8912],[22.8486,47.9084],[22.9056,47.9615],[22.8461,47.9884],[22.8804,48.0411],[22.826,48.1198],[22.7449,48.1233],[22.6761,48.0945],[22.5985,48.1133],[22.5923,48.1592],[22.5224,48.2373],[22.4428,48.2533],[22.3732,48.2389],[22.3394,48.3054],[22.2198,48.4273],[22.1422,48.3842],[22.0835,48.3762],[22.0251,48.3927],[21.84,48.3649],[21.8404,48.3355],[21.7329,48.3499],[21.6338,48.4479],[21.6146,48.5129],[21.5477,48.5115],[21.5202,48.5499],[21.4493,48.5765],[21.3288,48.5575],[21.3066,48.5286],[21.2435,48.5422],[21.1064,48.4943],[21.0944,48.5201],[20.9715,48.5229],[20.9142,48.5613],[20.8403,48.5864],[20.6566,48.5644],[20.5903,48.5363],[20.5075,48.5331],[20.5018,48.4896],[20.4162,48.4187],[20.4108,48.3712],[20.2871,48.2637],[20.24,48.2836],[20.1991,48.2535],[20.0406,48.1748],[19.8948,48.1654],[19.7543,48.2171],[19.6957,48.2058],[19.6286,48.2514],[19.5278,48.2064],[19.4931,48.1133],[19.4034,48.0866],[19.2984,48.0893],[19.2444,48.0578],[19.1343,48.0763],[19.0579,48.0608],[18.8481,48.0525],[18.8128,47.9925],[18.766,47.9866],[18.7633,47.8733],[18.8222,47.8492],[18.663,47.7613],[18.4483,47.7658],[18.2951,47.7327],[18.083,47.7569],[17.9688,47.7577],[17.8989,47.7382],[17.725,47.7543],[17.609,47.8224],[17.567,47.8166],[17.5351,47.8606],[17.4507,47.8936],[17.4027,47.9559],[17.3345,47.9979],[17.2463,48.0203],[17.1624,48.0089],[17.1183,47.9613],[17.1054,47.8997],[17.0112,47.8588],[17.0731,47.8086],[17.0715,47.7286],[17.0943,47.7087],[16.9138,47.6881],[16.7502,47.6819],[16.7222,47.7358],[16.6355,47.7595],[16.5482,47.7514],[16.5416,47.7123],[16.4883,47.6984],[16.441,47.6571],[16.5156,47.6466],[16.5737,47.6203],[16.6533,47.6233],[16.7067,47.5233],[16.6717,47.4747],[16.5769,47.4068],[16.4466,47.4076],[16.4906,47.2807],[16.4429,47.249],[16.4655,47.1686],[16.5305,47.1276],[16.4657,47.0993],[16.5216,47.0619],[16.4137,47.0051],[16.3045,46.9986],[16.2231,46.936],[16.1945,46.9361],[16.1261,46.8596],[16.241,46.8782],[16.2939,46.8737],[16.3454,46.8426],[16.312,46.7959],[16.3531,46.7144],[16.4233,46.6934],[16.3894,46.6351],[16.5126,46.563],[16.5252,46.5052],[16.6625,46.4601],[16.7234,46.3911],[16.8027,46.387],[16.881,46.3344],[16.8878,46.2824],[16.9726,46.2245],[17.0126,46.2205],[17.1596,46.1712],[17.2559,46.0478],[17.3995,45.9361],[17.4482,45.9504],[17.5602,45.9381],[17.6131,45.9031],[17.6664,45.8425],[17.8173,45.812],[17.8585,45.7741],[17.8944,45.795],[17.9888,45.8019],[18.0807,45.7719],[18.1365,45.7961],[18.2085,45.7904],[18.2793,45.7614]]]},"properties":{"GID_0":"HUN","ISO_A2":"HU","ISO_A3":"HUN","NAME_EN":"Hungary","NAME_IT":"Ungheria"}}
]}