{"type":"FeatureCollection", "features": [
{"type":"Feature","geometry":{"type":"MultiPolygon","coordinates":[[[[-87.048,5.5559],[-87.0794,5.5412],[-87.0942,5.5214],[-87.0686,5.5079],[-87.034,5.5243],[-87.048,5.5559]]],[[[-85.4265,9.8564],[-85.3806,9.8484],[-85.3418,9.8298],[-85.2752,9.7869],[-85.2675,9.7585],[-85.2227,9.7249],[-85.1961,9.6681],[-85.1514,9.6243],[-85.1412,9.5804],[-85.1114,9.5621],[-85.0779,9.6156],[-85.0678,9.6536],[-85.0371,9.6808],[-85.0074,9.69],[-85.0144,9.7134],[-85.0087,9.7407],[-84.993,9.7482],[-84.9588,9.7265],[-84.951,9.7593],[-84.936,9.757],[-84.924,9.792],[-84.8971,9.8146],[-84.9322,9.8357],[-84.9121,9.8554],[-84.9378,9.8805],[-84.9213,9.9254],[-84.9593,9.9418],[-85.0077,9.9379],[-85.0239,9.959],[-85.0518,9.9758],[-85.0949,9.9703],[-85.1323,9.9903],[-85.1638,10.0202],[-85.1698,10.0462],[-85.1904,10.0636],[-85.1953,10.083],[-85.23,10.0948],[-85.24,10.1198],[-85.2473,10.1787],[-85.2253,10.1923],[-85.19,10.1725],[-85.1437,10.1597],[-85.1234,10.1745],[-85.0924,10.1696],[-85.0755,10.1352],[-85.0502,10.1407],[-85.0163,10.1244],[-85.0032,10.1029],[-84.9723,10.0918],[-84.9534,10.0588],[-84.9257,10.0365],[-84.8986,10.0266],[-84.8342,9.9864],[-84.7819,9.9796],[-84.7388,9.9672],[-84.7406,9.9494],[-84.7125,9.9176],[-84.731,9.8932],[-84.7053,9.8744],[-84.6503,9.8053],[-84.6267,9.7545],[-84.6322,9.7395],[-84.6749,9.6964],[-84.6505,9.6218],[-84.6312,9.614],[-84.6178,9.5813],[-84.5285,9.5187],[-84.4851,9.5303],[-84.302,9.4871],[-84.2445,9.4696],[-84.1808,9.4443],[-84.1459,9.3816],[-84.0938,9.3731],[-83.9569,9.3168],[-83.9326,9.3024],[-83.8463,9.2376],[-83.8231,9.2116],[-83.7792,9.1926],[-83.748,9.1525],[-83.728,9.1447],[-83.679,9.0909],[-83.6454,9.0421],[-83.6328,9.0141],[-83.6303,8.9641],[-83.6183,8.8766],[-83.5892,8.862],[-83.6092,8.8268],[-83.6405,8.8112],[-83.6475,8.7678],[-83.6411,8.7375],[-83.6539,8.6979],[-83.6918,8.6942],[-83.7154,8.6759],[-83.7144,8.6493],[-83.7318,8.6426],[-83.7356,8.606],[-83.6503,8.5219],[-83.6097,8.4931],[-83.5894,8.459],[-83.5702,8.4433],[-83.5453,8.4396],[-83.513,8.4484],[-83.4601,8.4416],[-83.2914,8.3744],[-83.2781,8.3874],[-83.2837,8.4454],[-83.2711,8.4651],[-83.292,8.5001],[-83.285,8.5324],[-83.3139,8.5491],[-83.3263,8.5688],[-83.3743,8.575],[-83.3992,8.5928],[-83.4365,8.634],[-83.4344,8.6586],[-83.4721,8.7014],[-83.4654,8.7263],[-83.4331,8.7134],[-83.381,8.7466],[-83.3474,8.7363],[-83.3335,8.7218],[-83.3202,8.6737],[-83.2911,8.6576],[-83.2539,8.6566],[-83.1829,8.6217],[-83.1719,8.6428],[-83.1232,8.5941],[-83.1538,8.5793],[-83.1363,8.5495],[-83.1374,8.5174],[-83.1135,8.4914],[-83.0917,8.4509],[-83.1106,8.4149],[-83.1316,8.4034],[-83.1465,8.3672],[-83.1216,8.3402],[-83.0468,8.2959],[-82.9804,8.2471],[-82.9377,8.1858],[-82.9039,8.1153],[-82.9008,8.0871],[-82.9148,8.055],[-82.9007,8.0396],[-82.8878,8.0789],[-82.8872,8.1051],[-82.9076,8.1418],[-82.9108,8.1948],[-82.9352,8.2094],[-82.9301,8.2452],[-82.9423,8.2724],[-82.9681,8.2791],[-82.9907,8.2713],[-83.003,8.2953],[-83.0516,8.3308],[-82.9837,8.3729],[-82.9542,8.4133],[-82.9357,8.4239],[-82.8682,8.4396],[-82.8396,8.4801],[-82.8315,8.5055],[-82.8387,8.5457],[-82.8223,8.5671],[-82.83,8.6361],[-82.9161,8.7417],[-82.914,8.77],[-82.8948,8.7714],[-82.8883,8.7931],[-82.8656,8.8048],[-82.8829,8.832],[-82.8566,8.8527],[-82.8218,8.8596],[-82.799,8.8773],[-82.7759,8.8772],[-82.7487,8.9065],[-82.7121,8.9232],[-82.7166,8.9487],[-82.742,8.9664],[-82.7507,8.9923],[-82.7996,9.0034],[-82.8184,9.0305],[-82.878,9.0607],[-82.8928,9.089],[-82.9342,9.0787],[-82.9341,9.4751],[-82.8411,9.4971],[-82.8475,9.5142],[-82.872,9.5236],[-82.8675,9.545],[-82.8852,9.5655],[-82.8777,9.5917],[-82.8469,9.6165],[-82.816,9.5973],[-82.7933,9.5987],[-82.7764,9.5851],[-82.752,9.5903],[-82.7289,9.5541],[-82.695,9.5431],[-82.6916,9.5126],[-82.637,9.4942],[-82.6076,9.5027],[-82.5888,9.5594],[-82.5648,9.5718],[-82.602,9.5947],[-82.622,9.6346],[-82.6593,9.6322],[-82.7246,9.6436],[-82.7487,9.6602],[-82.7817,9.6654],[-82.8143,9.7186],[-82.8638,9.7538],[-82.9024,9.8063],[-83.0245,9.9627],[-83.025,10.001],[-83.0736,10.0129],[-83.107,10.0091],[-83.1853,10.1103],[-83.2687,10.2129],[-83.3699,10.3292],[-83.441,10.4308],[-83.4871,10.5122],[-83.5203,10.583],[-83.5506,10.657],[-83.5688,10.7115],[-83.5864,10.7973],[-83.6283,10.8949],[-83.6625,10.9323],[-83.6731,10.9081],[-83.667,10.8797],[-83.6749,10.852],[-83.6604,10.8189],[-83.6704,10.7977],[-83.6968,10.7874],[-83.7144,10.7927],[-83.7598,10.7746],[-83.7933,10.7694],[-83.8132,10.7459],[-83.8403,10.744],[-83.8633,10.7175],[-83.8909,10.7217],[-83.9322,10.7074],[-83.938,10.7212],[-83.9677,10.7293],[-83.9722,10.7453],[-84.0053,10.7644],[-84.0358,10.7713],[-84.0836,10.7594],[-84.0999,10.7732],[-84.1267,10.765],[-84.136,10.787],[-84.1752,10.786],[-84.2231,10.801],[-84.2364,10.8199],[-84.2149,10.8393],[-84.2192,10.863],[-84.2583,10.8915],[-84.2827,10.8937],[-84.2917,10.911],[-84.3236,10.9188],[-84.3415,10.9728],[-84.3584,10.9959],[-84.3764,10.9775],[-84.3999,10.9751],[-84.4203,10.9552],[-84.4506,10.961],[-84.4859,11.0008],[-84.5644,11.0332],[-84.5745,11.0512],[-84.606,11.0384],[-84.6804,11.0845],[-84.9108,10.9438],[-85.2286,11.0631],[-85.3575,11.1263],[-85.424,11.129],[-85.5223,11.1676],[-85.5604,11.21],[-85.6098,11.2198],[-85.693,11.0789],[-85.6678,11.0462],[-85.6882,11.027],[-85.7133,11.0267],[-85.7408,11.0436],[-85.7528,11.0184],[-85.7253,11.0063],[-85.6893,10.9772],[-85.705,10.9603],[-85.7119,10.9264],[-85.733,10.9398],[-85.7787,10.9395],[-85.798,10.9277],[-85.8169,10.9455],[-85.8539,10.9453],[-85.862,10.9294],[-85.9184,10.9049],[-85.9033,10.8901],[-85.8673,10.8773],[-85.844,10.8568],[-85.7894,10.8482],[-85.801,10.8246],[-85.7642,10.8033],[-85.7417,10.8191],[-85.6864,10.8035],[-85.6626,10.7736],[-85.6618,10.7205],[-85.653,10.6762],[-85.6802,10.6489],[-85.6548,10.6427],[-85.6273,10.6238],[-85.677,10.5803],[-85.6935,10.5562],[-85.7356,10.5439],[-85.7691,10.5422],[-85.7949,10.5175],[-85.8025,10.4964],[-85.7714,10.4544],[-85.8076,10.401],[-85.835,10.3974],[-85.8472,10.3726],[-85.8654,10.3667],[-85.8401,10.3204],[-85.8534,10.2925],[-85.8529,10.2619],[-85.836,10.2011],[-85.8008,10.1423],[-85.7887,10.0941],[-85.7368,10.0266],[-85.6875,9.9762],[-85.6528,9.9029],[-85.626,9.8924],[-85.5077,9.87],[-85.4634,9.8508],[-85.4265,9.8564]]],[[[-85.1217,10.0999],[-85.1629,10.1261],[-85.1977,10.1141],[-85.1827,10.0842],[-85.1349,10.0741],[-85.1217,10.0999]]]]},"properties":{"GID_0":"CRI","ISO_A2":"CR","ISO_A3":"CRI","NAME_EN":"Costa Rica","NAME_IT":"Costa Rica"}}
]}