{"type":"FeatureCollection", "features": [
{"type":"Feature","geometry":{"type":"MultiPolygon","coordinates":[[[[-72.4004,18.2287],[-72.3368,18.234],[-72.3057,18.2226],[-72.2603,18.2281],[-72.2143,18.2199],[-72.1585,18.2316],[-72.1268,18.2289],[-72.0529,18.2371],[-72.0096,18.2049],[-71.9271,18.1894],[-71.8704,18.1465],[-71.8179,18.0964],[-71.8178,18.0794],[-71.7531,18.0301],[-71.7271,18.0799],[-71.7433,18.1125],[-71.7394,18.1487],[-71.7791,18.1746],[-71.7623,18.2213],[-71.688,18.3427],[-71.7889,18.381],[-71.8238,18.4004],[-71.838,18.4311],[-71.8992,18.459],[-71.9084,18.4861],[-71.8758,18.5056],[-71.9504,18.5813],[-71.9815,18.6213],[-71.9616,18.6586],[-71.9231,18.6373],[-71.9082,18.6514],[-71.8443,18.6294],[-71.8015,18.6383],[-71.8047,18.6644],[-71.7781,18.7095],[-71.7322,18.7263],[-71.7171,18.8084],[-71.7203,18.8791],[-71.7635,18.9109],[-71.7785,18.9521],[-71.8323,18.9741],[-71.857,18.9508],[-71.8719,18.9752],[-71.829,18.9955],[-71.7917,18.9929],[-71.7865,19.0115],[-71.6971,19.079],[-71.6706,19.1174],[-71.647,19.1257],[-71.6322,19.1716],[-71.6351,19.2329],[-71.6935,19.245],[-71.7132,19.2721],[-71.7454,19.2787],[-71.7764,19.3334],[-71.7466,19.3546],[-71.6918,19.3643],[-71.6956,19.4006],[-71.6797,19.4362],[-71.7007,19.538],[-71.742,19.5881],[-71.744,19.6354],[-71.7327,19.662],[-71.7607,19.7046],[-71.8487,19.7149],[-71.9074,19.7263],[-71.9901,19.7301],[-71.9901,19.7049],[-72.0337,19.7009],[-72.0365,19.7273],[-72.0645,19.7329],[-72.1135,19.7299],[-72.1296,19.7524],[-72.1932,19.7418],[-72.1899,19.7849],[-72.2449,19.7849],[-72.2785,19.7671],[-72.3143,19.7602],[-72.311,19.7218],[-72.3318,19.7138],[-72.3388,19.7713],[-72.3821,19.8072],[-72.4081,19.8045],[-72.4296,19.8218],[-72.4593,19.8285],[-72.492,19.8204],[-72.5277,19.8474],[-72.581,19.8976],[-72.6204,19.8935],[-72.6363,19.9082],[-72.7218,19.9368],[-72.781,19.9518],[-72.8943,19.9363],[-73.0004,19.9174],[-73.069,19.9185],[-73.1579,19.9307],[-73.1846,19.9212],[-73.2421,19.8782],[-73.291,19.8621],[-73.3424,19.8376],[-73.3654,19.8463],[-73.4088,19.8435],[-73.3835,19.8176],[-73.3832,19.8007],[-73.4262,19.7968],[-73.4526,19.7613],[-73.4554,19.6912],[-73.4382,19.6676],[-73.3913,19.634],[-73.3212,19.6242],[-73.269,19.6336],[-73.2288,19.6307],[-73.2071,19.6618],[-73.1815,19.6399],[-73.1271,19.6224],[-73.1032,19.6418],[-73.0535,19.6301],[-73.0374,19.6162],[-72.986,19.5943],[-72.9629,19.5754],[-72.9209,19.562],[-72.886,19.5407],[-72.8485,19.531],[-72.8196,19.5128],[-72.7826,19.476],[-72.7712,19.4535],[-72.7446,19.4448],[-72.6974,19.4571],[-72.7004,19.4278],[-72.6821,19.4119],[-72.7307,19.3652],[-72.7585,19.3763],[-72.7736,19.3457],[-72.7546,19.3246],[-72.7283,19.3254],[-72.7296,19.3007],[-72.7471,19.2779],[-72.7664,19.2843],[-72.7904,19.2065],[-72.7443,19.1482],[-72.7001,19.1271],[-72.7032,19.1073],[-72.7296,19.0885],[-72.7718,19.0935],[-72.8215,19.0674],[-72.8115,19.0307],[-72.7629,19.0135],[-72.7393,18.9918],[-72.7274,18.9532],[-72.6485,18.9185],[-72.6199,18.8871],[-72.6113,18.8596],[-72.5765,18.8343],[-72.5607,18.7957],[-72.5221,18.7674],[-72.4887,18.7685],[-72.4629,18.7546],[-72.4507,18.7196],[-72.3899,18.7124],[-72.3788,18.7007],[-72.3221,18.6796],[-72.3525,18.615],[-72.3392,18.5937],[-72.3518,18.5422],[-72.3809,18.5348],[-72.4186,18.5559],[-72.4313,18.5426],[-72.468,18.5483],[-72.5399,18.5442],[-72.5529,18.5607],[-72.5813,18.5651],[-72.6265,18.5512],[-72.6487,18.5255],[-72.6751,18.4589],[-72.6917,18.441],[-72.7288,18.4265],[-72.7913,18.4301],[-72.8132,18.4424],[-72.8585,18.4421],[-72.8753,18.4255],[-72.8979,18.4308],[-72.9149,18.4529],[-72.9868,18.4682],[-73.0698,18.458],[-73.0925,18.4438],[-73.1252,18.4748],[-73.1879,18.4899],[-73.2393,18.4763],[-73.2965,18.4846],[-73.3324,18.5037],[-73.4568,18.5287],[-73.5205,18.5291],[-73.5876,18.5018],[-73.6724,18.5085],[-73.6615,18.5542],[-73.6318,18.5591],[-73.5915,18.5521],[-73.5777,18.5892],[-73.6349,18.5818],[-73.6562,18.5723],[-73.6871,18.5782],[-73.727,18.5665],[-73.731,18.5515],[-73.7882,18.539],[-73.8183,18.5607],[-73.8551,18.5726],[-73.9011,18.5691],[-73.9163,18.5901],[-73.9627,18.6015],[-74.0062,18.6007],[-74.064,18.6097],[-74.1093,18.6368],[-74.1407,18.664],[-74.2101,18.676],[-74.2574,18.6712],[-74.279,18.6479],[-74.3296,18.6554],[-74.3674,18.636],[-74.4072,18.6298],[-74.4261,18.6063],[-74.415,18.5824],[-74.4424,18.5154],[-74.4595,18.4989],[-74.4618,18.4651],[-74.476,18.4171],[-74.4535,18.4027],[-74.4471,18.3487],[-74.4024,18.3342],[-74.3696,18.2963],[-74.3116,18.2849],[-74.2578,18.3109],[-74.2298,18.311],[-74.1889,18.2968],[-74.1663,18.2726],[-74.0913,18.2474],[-74.054,18.2113],[-74.0051,18.1811],[-74.001,18.1654],[-73.9497,18.1313],[-73.9276,18.0915],[-73.9043,18.0327],[-73.8771,18.0218],[-73.8054,18.0224],[-73.7862,18.0551],[-73.8401,18.1026],[-73.8429,18.1232],[-73.8201,18.1512],[-73.7182,18.2103],[-73.6968,18.2354],[-73.6196,18.2168],[-73.5588,18.2274],[-73.5715,18.2554],[-73.546,18.2607],[-73.5315,18.2324],[-73.4918,18.2561],[-73.4546,18.263],[-73.4282,18.2556],[-73.386,18.2696],[-73.3555,18.2565],[-73.3576,18.2168],[-73.2783,18.232],[-73.2666,18.2151],[-73.1712,18.211],[-73.1407,18.1968],[-73.086,18.1851],[-73.0204,18.1812],[-72.961,18.1665],[-72.931,18.1671],[-72.8918,18.1499],[-72.8532,18.1429],[-72.7929,18.144],[-72.7512,18.1835],[-72.7201,18.1743],[-72.6396,18.1913],[-72.5526,18.1712],[-72.5415,18.1915],[-72.5574,18.2204],[-72.539,18.2321],[-72.5182,18.2135],[-72.4004,18.2287]]],[[[-73.7021,18.109],[-73.6747,18.0596],[-73.5868,18.0554],[-73.571,18.0701],[-73.6043,18.1003],[-73.6339,18.0834],[-73.7021,18.109]]],[[[-72.9207,18.74],[-72.851,18.7201],[-72.823,18.6934],[-72.806,18.7062],[-72.8096,18.7868],[-72.8571,18.8362],[-72.9184,18.8524],[-72.9924,18.8832],[-73.0571,18.9251],[-73.135,18.9382],[-73.1979,18.9699],[-73.2529,18.9662],[-73.2993,18.934],[-73.2971,18.9063],[-73.266,18.8865],[-73.2175,18.8351],[-73.1257,18.819],[-73.0753,18.7959],[-73.0361,18.7583],[-73.0001,18.746],[-72.9207,18.74]]],[[[-73.7543,18.6432],[-73.7968,18.6204],[-73.7971,18.6021],[-73.744,18.5815],[-73.7074,18.5999],[-73.7007,18.6257],[-73.7543,18.6432]]],[[[-72.7367,20.0621],[-72.8015,20.0896],[-72.8599,20.0882],[-72.9304,20.0771],[-72.9713,20.0651],[-72.8818,20.0335],[-72.8105,20.0285],[-72.7532,20.009],[-72.6468,19.9921],[-72.6401,20.0229],[-72.6757,20.044],[-72.7367,20.0621]]]]},"properties":{"GID_0":"HTI","ISO_A2":"HT","ISO_A3":"HTI","NAME_EN":"Haiti","NAME_IT":"Haiti"}}
]}