{"type":"FeatureCollection", "features": [
{"type":"Feature","geometry":{"type":"MultiPolygon","coordinates":[[[[-61.5061,10.0715],[-61.479,10.0679],[-61.4104,10.0768],[-61.3624,10.0707],[-61.2824,10.0868],[-61.2499,10.084],[-61.2207,10.0726],[-61.161,10.0749],[-61.0624,10.1143],[-61.0493,10.1343],[-61.0213,10.1532],[-60.994,10.1471],[-61.0032,10.201],[-60.9954,10.3076],[-60.9837,10.3296],[-61.0107,10.3685],[-61.0404,10.4649],[-61.0418,10.5118],[-61.0118,10.5288],[-61.0201,10.5557],[-61.0379,10.6851],[-61.0265,10.7029],[-60.9982,10.7037],[-60.9912,10.7199],[-60.9471,10.7646],[-60.9376,10.8035],[-60.9107,10.8168],[-60.9243,10.836],[-60.9918,10.8351],[-61.0068,10.844],[-61.0438,10.841],[-61.1162,10.8196],[-61.1424,10.8226],[-61.1907,10.7979],[-61.2529,10.7924],[-61.3304,10.8015],[-61.3515,10.8121],[-61.4026,10.7796],[-61.474,10.7757],[-61.4837,10.7537],[-61.5318,10.7546],[-61.5462,10.7471],[-61.6087,10.7485],[-61.6693,10.7088],[-61.6543,10.6785],[-61.6188,10.6801],[-61.6026,10.6907],[-61.5107,10.6465],[-61.4888,10.6165],[-61.469,10.5662],[-61.4635,10.5376],[-61.4749,10.5146],[-61.4715,10.4838],[-61.4949,10.4232],[-61.4907,10.3807],[-61.4701,10.3643],[-61.456,10.2999],[-61.4721,10.2699],[-61.4915,10.2513],[-61.5482,10.229],[-61.5707,10.2318],[-61.6192,10.2513],[-61.639,10.2362],[-61.6315,10.2191],[-61.6568,10.1962],[-61.6874,10.1871],[-61.6971,10.1668],[-61.7357,10.1533],[-61.7879,10.1485],[-61.8262,10.1346],[-61.8343,10.106],[-61.8537,10.0954],[-61.9085,10.0874],[-61.929,10.0612],[-61.9096,10.0429],[-61.8865,10.0496],[-61.8282,10.0818],[-61.7926,10.086],[-61.781,10.0751],[-61.756,10.0851],[-61.6954,10.0874],[-61.6654,10.0776],[-61.6512,10.0596],[-61.6276,10.0554],[-61.5871,10.0713],[-61.5061,10.0715]]],[[[-60.5299,11.3451],[-60.5488,11.3382],[-60.5643,11.3157],[-60.5829,11.3301],[-60.6107,11.3249],[-60.6368,11.3026],[-60.6968,11.289],[-60.6985,11.2763],[-60.7279,11.254],[-60.749,11.2485],[-60.7751,11.2243],[-60.8171,11.1676],[-60.8457,11.1535],[-60.7832,11.1351],[-60.7635,11.1654],[-60.7418,11.1807],[-60.719,11.1707],[-60.6888,11.1935],[-60.6457,11.1893],[-60.5843,11.2457],[-60.5526,11.244],[-60.5343,11.2551],[-60.5171,11.3168],[-60.5299,11.3451]]]]},"properties":{"GID_0":"TTO","ISO_A2":"TT","ISO_A3":"TTO","NAME_EN":"Trinidad and Tobago","NAME_IT":"Trinidad e Tobago"}}
]}