{"type":"FeatureCollection", "features": [
{"type":"Feature","geometry":{"type":"Polygon","coordinates":[[[38.4372,3.6013],[38.5174,3.6263],[38.9076,3.5097],[39.0808,3.5386],[39.2005,3.4791],[39.4984,3.4538],[39.5786,3.4726],[39.771,3.6684],[39.8619,3.8641],[40.2309,4.0463],[40.7752,4.2772],[41.1127,3.9869],[41.3786,3.9573],[41.9007,3.9853],[42.0137,4.0978],[42.2039,4.1614],[42.3962,4.1633],[42.692,4.2245],[42.948,4.3952],[43.033,4.5546],[43.1626,4.6582],[43.3975,4.7841],[43.8063,4.8988],[44.029,4.9397],[44.9032,4.9127],[45.0017,4.9322],[45.6682,5.6223],[46.1772,6.1534],[46.8036,6.8033],[47.9582,8.0126],[46.9993,7.9851],[45.6208,8.4429],[44.1564,8.938],[44.0612,8.9859],[43.5814,9.3783],[43.4155,9.4769],[43.307,9.6377],[43.2134,9.872],[43.081,9.9388],[42.8045,10.3148],[42.7047,10.5746],[42.7965,10.792],[42.9361,10.9663],[42.7573,10.9707],[42.6268,11.0733],[42.3948,10.9686],[42.1133,10.9696],[41.9673,10.914],[41.7803,10.9581],[41.7769,11.2856],[41.7482,11.4927],[41.8158,11.7382],[41.9422,11.8243],[42.0897,12.0644],[42.2662,12.2892],[42.3548,12.4449],[42.2424,12.6156],[42.0502,12.8431],[41.8787,13.0896],[41.0773,13.8785],[40.6505,14.2294],[40.2226,14.4786],[40.0553,14.4869],[39.9499,14.4106],[39.7093,14.5514],[39.5752,14.6699],[39.4931,14.5089],[39.3646,14.534],[39.221,14.4538],[39.2003,14.611],[39.0235,14.6324],[38.9747,14.5416],[38.794,14.4632],[38.4474,14.4104],[38.2645,14.6141],[38.0183,14.7366],[37.971,14.8304],[37.8326,14.8052],[37.6707,14.5042],[37.5488,14.4461],[37.4033,14.4714],[37.1288,14.399],[37.0893,14.268],[37.0081,14.2495],[36.8633,14.3178],[36.5527,14.2768],[36.4628,13.971],[36.4991,13.8468],[36.3814,13.5452],[36.2817,13.3761],[36.153,12.9334],[36.1517,12.6825],[36.0511,12.722],[35.7724,12.6605],[35.6475,12.6052],[35.2571,11.9342],[35.0466,11.7352],[35.078,11.5215],[34.9297,11.2358],[35.0003,11.1806],[34.9566,10.957],[34.9823,10.8985],[34.7654,10.7551],[34.6098,10.8972],[34.465,10.8211],[34.2976,10.5857],[34.2931,10.4063],[34.3514,10.2209],[34.3336,10.1134],[34.2331,10.0475],[34.2169,9.9025],[34.1007,9.5506],[34.1447,8.9622],[34.1421,8.6109],[34.015,8.4869],[33.8983,8.4806],[33.7725,8.3696],[33.62,8.4686],[33.3954,8.4235],[33.3052,8.4554],[33.1927,8.4069],[33.1658,8.1946],[33.0021,7.9401],[33.0501,7.7873],[33.1654,7.7954],[33.3202,7.7062],[33.4316,7.7514],[33.6723,7.6922],[33.8713,7.5179],[33.9476,7.5023],[34.0288,7.3696],[34.0118,7.2597],[34.1924,7.1376],[34.1932,7.0549],[34.4843,6.9043],[34.5359,6.7527],[34.6811,6.7023],[34.7885,6.5836],[34.8562,6.6078],[35.0138,6.445],[34.9511,6.2678],[35.002,6.0026],[34.9909,5.8954],[35.1211,5.6908],[35.1262,5.6152],[35.3002,5.4963],[35.3001,5.3325],[35.5787,5.4144],[35.8543,5.3146],[35.8142,5.1037],[35.7863,4.7315],[35.9654,4.5115],[36.0491,4.4494],[36.8388,4.444],[37.0394,4.3617],[37.9002,3.7777],[38.1203,3.6085],[38.4372,3.6013]]]},"properties":{"GID_0":"ETH","ISO_A2":"ET","ISO_A3":"ETH","NAME_EN":"Ethiopia","NAME_IT":"Etiopia"}}
]}