{"type":"FeatureCollection", "features": [
{"type":"Feature","geometry":{"type":"MultiPolygon","coordinates":[[[[-71.5196,17.6176],[-71.5379,17.5954],[-71.5537,17.5496],[-71.5282,17.5426],[-71.4765,17.5713],[-71.4968,17.6074],[-71.5196,17.6176]]],[[[-71.2704,17.8596],[-71.1996,17.9301],[-71.1346,18.0313],[-71.0951,18.0685],[-71.0721,18.109],[-71.0582,18.1549],[-71.0832,18.2179],[-71.1051,18.2435],[-71.1021,18.2807],[-71.0612,18.3154],[-70.9982,18.2996],[-70.9571,18.2476],[-70.9007,18.2749],[-70.8424,18.3482],[-70.811,18.3415],[-70.7257,18.3554],[-70.7029,18.3832],[-70.7104,18.4096],[-70.6885,18.4296],[-70.6121,18.4221],[-70.5815,18.4068],[-70.5704,18.371],[-70.5749,18.3326],[-70.5924,18.2774],[-70.5504,18.251],[-70.5218,18.2046],[-70.5068,18.194],[-70.4543,18.2107],[-70.3929,18.2374],[-70.3326,18.226],[-70.2704,18.2374],[-70.2374,18.2221],[-70.2093,18.2357],[-70.189,18.2282],[-70.149,18.2351],[-70.1021,18.3051],[-70.0824,18.3154],[-70.0246,18.4096],[-69.9437,18.4332],[-69.8879,18.4679],[-69.7432,18.4629],[-69.6824,18.4463],[-69.6649,18.4074],[-69.631,18.4004],[-69.6329,18.4387],[-69.5915,18.4463],[-69.5485,18.4096],[-69.5032,18.4051],[-69.4479,18.4221],[-69.4013,18.4274],[-69.3579,18.4232],[-69.2096,18.4526],[-69.1732,18.4151],[-69.0851,18.3926],[-68.979,18.4004],[-68.9587,18.4146],[-68.896,18.3979],[-68.8407,18.3715],[-68.7835,18.2865],[-68.7524,18.2224],[-68.6896,18.2096],[-68.6401,18.2157],[-68.6329,18.2796],[-68.601,18.3368],[-68.6157,18.3568],[-68.5946,18.381],[-68.5579,18.3579],[-68.4896,18.3371],[-68.4504,18.3615],[-68.444,18.4263],[-68.4013,18.4635],[-68.3251,18.5885],[-68.3251,18.6182],[-68.3437,18.6424],[-68.3915,18.6618],[-68.4376,18.7004],[-68.4654,18.7343],[-68.4857,18.7404],[-68.5265,18.7793],[-68.5357,18.7726],[-68.6035,18.829],[-68.6649,18.8974],[-68.6993,18.9293],[-68.7465,18.9601],[-68.8354,18.9951],[-68.8668,18.9926],[-68.9182,19.0274],[-68.9696,19.0296],[-69.0254,18.9851],[-69.074,18.9865],[-69.1154,19.0115],[-69.2038,19.0076],[-69.2232,19.0276],[-69.2579,19.0163],[-69.3104,19.0488],[-69.3424,19.0435],[-69.379,19.0582],[-69.3851,19.0796],[-69.4137,19.1032],[-69.4393,19.0971],[-69.4424,19.076],[-69.4882,19.0768],[-69.5007,19.0879],[-69.5324,19.0779],[-69.566,19.0921],[-69.6057,19.0793],[-69.6368,19.0979],[-69.6371,19.1368],[-69.6185,19.2254],[-69.5546,19.2115],[-69.4718,19.2074],[-69.4154,19.1924],[-69.3257,19.201],[-69.2782,19.184],[-69.2207,19.1832],[-69.2085,19.2329],[-69.1679,19.2593],[-69.1501,19.2999],[-69.2401,19.2862],[-69.2501,19.3046],[-69.214,19.3546],[-69.2387,19.3638],[-69.251,19.3418],[-69.2885,19.3307],[-69.3213,19.3076],[-69.3913,19.3085],[-69.4121,19.3226],[-69.4876,19.3226],[-69.5468,19.3274],[-69.5774,19.3037],[-69.6546,19.294],[-69.7101,19.2757],[-69.7421,19.2815],[-69.7937,19.3151],[-69.8421,19.3713],[-69.8465,19.394],[-69.8763,19.4529],[-69.8685,19.509],[-69.8968,19.5296],[-69.8857,19.6176],[-69.9007,19.6462],[-69.9265,19.6518],[-69.9465,19.6754],[-69.9779,19.6832],[-70.0574,19.6732],[-70.0946,19.6299],[-70.1715,19.621],[-70.2412,19.6424],[-70.3035,19.6535],[-70.3613,19.6982],[-70.3913,19.7432],[-70.4388,19.7782],[-70.4599,19.7849],[-70.511,19.7799],[-70.5174,19.756],[-70.5571,19.7646],[-70.5876,19.7549],[-70.6507,19.7729],[-70.7496,19.8385],[-70.7782,19.8421],[-70.8115,19.8826],[-70.8568,19.906],[-70.9082,19.9037],[-70.9321,19.9165],[-70.9532,19.9093],[-70.9899,19.9307],[-71.0249,19.9312],[-71.0615,19.9182],[-71.0901,19.8732],[-71.1824,19.8521],[-71.249,19.829],[-71.3001,19.849],[-71.3785,19.8576],[-71.4887,19.909],[-71.581,19.9102],[-71.6604,19.8904],[-71.6607,19.856],[-71.6926,19.8307],[-71.7415,19.8151],[-71.7787,19.7785],[-71.7465,19.7565],[-71.7257,19.7215],[-71.7594,19.7021],[-71.7327,19.662],[-71.744,19.6354],[-71.742,19.5881],[-71.7007,19.538],[-71.6797,19.4362],[-71.6956,19.4006],[-71.6918,19.3643],[-71.7466,19.3546],[-71.7764,19.3334],[-71.7454,19.2787],[-71.7132,19.2721],[-71.6935,19.245],[-71.6351,19.2329],[-71.6322,19.1716],[-71.647,19.1257],[-71.6706,19.1174],[-71.6971,19.079],[-71.7865,19.0115],[-71.8719,18.9752],[-71.8462,18.9621],[-71.8135,18.9668],[-71.7785,18.9521],[-71.7635,18.9109],[-71.7203,18.8791],[-71.7171,18.8084],[-71.7322,18.7263],[-71.7781,18.7095],[-71.8047,18.6644],[-71.8015,18.6383],[-71.8443,18.6294],[-71.9082,18.6514],[-71.9231,18.6373],[-71.9616,18.6586],[-71.9815,18.6213],[-71.9504,18.5813],[-71.8758,18.5056],[-71.9084,18.4861],[-71.8992,18.459],[-71.838,18.4311],[-71.8238,18.4004],[-71.7889,18.381],[-71.688,18.3427],[-71.7623,18.2213],[-71.7791,18.1746],[-71.7394,18.1487],[-71.7433,18.1125],[-71.7271,18.0799],[-71.7487,18.0425],[-71.7207,18.0063],[-71.6821,17.9837],[-71.6546,17.9385],[-71.6718,17.8985],[-71.6543,17.8874],[-71.6332,17.8493],[-71.6282,17.8226],[-71.6535,17.8113],[-71.6799,17.7665],[-71.6432,17.7571],[-71.6029,17.7682],[-71.5504,17.7651],[-71.5104,17.7424],[-71.486,17.7026],[-71.4726,17.6629],[-71.4449,17.6382],[-71.4226,17.6038],[-71.369,17.684],[-71.3487,17.761],[-71.311,17.821],[-71.2874,17.8279],[-71.2704,17.8596]]],[[[-68.7665,18.1968],[-68.7829,18.1732],[-68.7515,18.1363],[-68.701,18.1168],[-68.6449,18.1301],[-68.569,18.1185],[-68.5849,18.1501],[-68.6093,18.1632],[-68.6507,18.1588],[-68.674,18.174],[-68.7074,18.1718],[-68.7665,18.1968]]]]},"properties":{"GID_0":"DOM","ISO_A2":"DO","ISO_A3":"DOM","NAME_EN":"Dominican Rep.","NAME_IT":"Repubblica Dominicana"}}
]}