{"type":"FeatureCollection", "features": [
{"type":"Feature","geometry":{"type":"MultiPolygon","coordinates":[[[[75.3223,32.3373],[75.3399,32.2886],[75.367,32.2687],[75.3635,32.2392],[75.3228,32.2013],[75.3094,32.1546],[75.2833,32.1422],[75.272,32.1128],[75.2392,32.0872],[75.212,32.1191],[75.1851,32.0838],[75.1163,32.0828],[75.0459,32.0392],[74.9984,32.0287],[74.9259,32.0657],[74.8793,32.0519],[74.8457,32.0092],[74.8184,31.9974],[74.8014,31.9618],[74.6516,31.9092],[74.6226,31.8813],[74.5991,31.8851],[74.544,31.7764],[74.518,31.7452],[74.5173,31.7229],[74.5785,31.6234],[74.6009,31.5678],[74.599,31.5275],[74.573,31.5196],[74.6402,31.4645],[74.6253,31.4236],[74.5946,31.3971],[74.5519,31.2985],[74.5128,31.2755],[74.5222,31.2475],[74.5013,31.1816],[74.5046,31.1385],[74.5445,31.117],[74.5658,31.0843],[74.6006,31.1088],[74.5924,31.1334],[74.6791,31.129],[74.6944,31.0954],[74.656,31.0545],[74.6002,31.0435],[74.5534,31.0626],[74.5318,31.0127],[74.5381,30.9935],[74.4966,30.9672],[74.4706,30.966],[74.4207,30.9259],[74.4161,30.906],[74.3655,30.8854],[74.372,30.8529],[74.3161,30.8476],[74.2663,30.7624],[74.2737,30.7433],[74.2322,30.7196],[74.1968,30.6718],[74.1509,30.6326],[74.1184,30.6322],[74.092,30.5981],[74.0926,30.5753],[73.9837,30.5005],[73.9627,30.4576],[73.9323,30.4584],[73.9279,30.4209],[73.9034,30.4168],[73.8732,30.3834],[73.9343,30.303],[73.9578,30.2617],[73.9663,30.195],[73.8377,30.1087],[73.7941,30.0697],[73.754,30.0565],[73.6112,30.0224],[73.4128,29.9492],[73.3854,29.926],[73.3403,29.7689],[73.2713,29.557],[73.1913,29.4286],[73.137,29.3293],[73.0785,29.2334],[73,29.1474],[72.9417,29.0272],[72.7414,28.9483],[72.6507,28.9034],[72.5199,28.8286],[72.3847,28.7639],[72.302,28.6648],[72.2088,28.4],[72.1844,28.358],[72.1261,28.3035],[71.9959,28.207],[71.9333,28.1269],[71.9124,28.0481],[71.8974,27.9574],[71.6583,27.8689],[71.5308,27.8653],[71.4097,27.8658],[71.273,27.8419],[71.2087,27.8244],[71.034,27.7573],[70.9069,27.7006],[70.819,27.7043],[70.7577,27.7172],[70.7148,27.7763],[70.6784,27.8391],[70.6721,27.9143],[70.6607,27.9305],[70.5626,28.0198],[70.5303,28.0325],[70.4791,28.0337],[70.3662,28.0082],[70.3029,27.9462],[70.2076,27.8854],[70.157,27.834],[70.1078,27.7669],[70.0246,27.5697],[70.0163,27.556],[69.9362,27.5021],[69.862,27.4028],[69.8125,27.3596],[69.6659,27.2514],[69.5867,27.178],[69.5652,27.1385],[69.5132,27.0169],[69.5009,26.9003],[69.4837,26.8062],[69.5154,26.7401],[69.7219,26.6538],[69.7719,26.6137],[69.8556,26.5829],[69.9183,26.5826],[70.0248,26.5987],[70.1069,26.5895],[70.1677,26.5507],[70.1839,26.4868],[70.176,26.4333],[70.1783,26.3498],[70.1667,26.307],[70.1727,26.2451],[70.1452,26.1662],[70.0943,26.0974],[70.0805,26.0582],[70.0913,25.9652],[70.1067,25.9242],[70.178,25.8195],[70.2445,25.7663],[70.2796,25.7013],[70.3997,25.6638],[70.4903,25.676],[70.5362,25.6767],[70.6017,25.7033],[70.666,25.6972],[70.6811,25.6608],[70.6762,25.5239],[70.6879,25.5173],[70.6742,25.3893],[70.7443,25.321],[70.7591,25.275],[70.8943,25.1441],[70.9256,24.9947],[70.9455,24.9345],[71.004,24.8529],[71.0353,24.7988],[71.0729,24.712],[71.1004,24.6833],[71.085,24.6614],[71.0205,24.6305],[71.0006,24.5992],[70.9983,24.5413],[71.0153,24.5228],[71.0076,24.4422],[71.0286,24.4334],[71.0931,24.4359],[71.1341,24.4138],[71.1221,24.3909],[71.0883,24.3815],[71.0664,24.3557],[71.013,24.3469],[70.9984,24.3606],[70.9597,24.3462],[70.8851,24.2908],[70.8941,24.2571],[70.8537,24.2474],[70.8058,24.2227],[70.7258,24.2209],[70.6553,24.2251],[70.5936,24.2403],[70.5724,24.2649],[70.5878,24.2854],[70.5721,24.3445],[70.592,24.3586],[70.6119,24.4005],[70.5749,24.4203],[70.4596,24.387],[70.3703,24.3535],[70.2969,24.3399],[70.2371,24.3173],[70.1505,24.3006],[70.1101,24.2849],[70.0773,24.2156],[70.0241,24.1694],[69.8703,24.1647],[69.7246,24.1751],[69.6751,24.2124],[69.6007,24.2778],[69.5012,24.255],[69.4316,24.2737],[69.3619,24.2662],[69.3103,24.2767],[69.19,24.2357],[69.0929,24.2691],[69.0137,24.2291],[68.9706,24.2375],[68.9472,24.2766],[68.922,24.2587],[68.8979,24.1989],[68.8477,24.2084],[68.8264,24.3084],[68.7641,24.2841],[68.7596,24.0358],[68.7492,23.962],[68.5468,23.9632],[68.5374,23.9468],[68.5587,23.924],[68.5796,23.9243],[68.5885,23.9224],[68.6199,23.9065],[68.5729,23.881],[68.5507,23.8401],[68.5193,23.8265],[68.526,23.8021],[68.5154,23.7854],[68.524,23.7771],[68.5251,23.759],[68.5335,23.756],[68.5746,23.8213],[68.6001,23.8396],[68.6374,23.836],[68.6718,23.8615],[68.729,23.8549],[68.7185,23.826],[68.6663,23.8085],[68.6296,23.759],[68.5954,23.7324],[68.5585,23.7193],[68.489,23.6354],[68.4865,23.596],[68.5004,23.476],[68.521,23.4618],[68.5571,23.3896],[68.6332,23.3521],[68.6568,23.2949],[68.6407,23.2665],[68.5996,23.2238],[68.6529,23.1546],[68.7135,23.1185],[68.7593,23.0804],[68.7871,23.0724],[68.9276,22.9924],[68.9704,22.9638],[69.021,22.9413],[69.1907,22.8412],[69.2668,22.824],[69.3007,22.8324],[69.3907,22.8137],[69.4696,22.7737],[69.516,22.791],[69.5526,22.7857],[69.6007,22.759],[69.6413,22.7665],[69.7113,22.7382],[69.7468,22.7938],[69.7524,22.8196],[69.7985,22.8507],[69.8668,22.8729],[69.9057,22.8662],[69.9512,22.8929],[70.0343,22.8974],[70.106,22.909],[70.139,22.9412],[70.2024,22.9507],[70.2507,22.9735],[70.2688,22.9554],[70.3476,22.9304],[70.3807,22.9429],[70.3935,22.9632],[70.3962,23.0254],[70.4379,23.0626],[70.4935,23.0751],[70.4715,23.0124],[70.4304,22.9579],[70.4235,22.9326],[70.3851,22.9099],[70.311,22.794],[70.3032,22.7576],[70.2415,22.7079],[70.2454,22.6746],[70.2199,22.6296],[70.1974,22.6168],[70.1932,22.586],[70.1629,22.5515],[70.0907,22.5465],[70.0365,22.559],[69.946,22.5285],[69.9449,22.5149],[69.9243,22.5046],[69.9004,22.4679],[69.8754,22.4479],[69.8326,22.451],[69.8057,22.4037],[69.7926,22.4035],[69.7204,22.4618],[69.6882,22.4443],[69.6993,22.396],[69.6601,22.3879],[69.6546,22.359],[69.6174,22.3463],[69.5599,22.3668],[69.5507,22.4049],[69.4901,22.3557],[69.4885,22.3379],[69.4418,22.3304],[69.4193,22.3157],[69.3374,22.3182],[69.3249,22.2954],[69.2838,22.2721],[69.2235,22.2579],[69.1696,22.2943],[69.1579,22.316],[69.1815,22.3785],[69.1982,22.3876],[69.1757,22.4243],[69.1485,22.4026],[69.1099,22.4101],[69.0799,22.3924],[69.0437,22.4326],[69.0079,22.4399],[68.9568,22.3665],[68.9363,22.3076],[68.981,22.2118],[69.0551,22.1285],[69.2365,21.9382],[69.5715,21.6468],[69.6021,21.6374],[69.6885,21.5501],[69.7235,21.5724],[69.6776,21.6035],[69.7135,21.6321],[69.7438,21.636],[69.7637,21.596],[69.7513,21.5643],[69.7257,21.5546],[69.7129,21.5285],[69.8104,21.4215],[69.9229,21.2918],[70.0604,21.1424],[70.1874,21.0301],[70.2582,20.9726],[70.3649,20.9007],[70.394,20.894],[70.4249,20.8632],[70.5854,20.7815],[70.6862,20.749],[70.7438,20.7199],[70.8679,20.7038],[70.9518,20.7038],[70.9943,20.7107],[70.9826,20.7449],[71.0815,20.7385],[71.086,20.7562],[71.146,20.7571],[71.1557,20.7785],[71.2021,20.7885],[71.3226,20.8463],[71.4001,20.8654],[71.4382,20.8688],[71.4771,20.8899],[71.5149,20.9482],[71.534,20.9432],[71.6382,20.9751],[71.7151,21.0204],[71.7607,21.0201],[71.8068,21.0379],[71.7968,21.0579],[71.9096,21.1107],[71.9521,21.1185],[71.9915,21.1426],[72.0465,21.159],[72.0871,21.1904],[72.1137,21.1965],[72.0821,21.2457],[72.0879,21.2782],[72.109,21.2829],[72.1215,21.3254],[72.1765,21.3965],[72.214,21.4271],[72.254,21.5018],[72.269,21.5738],[72.306,21.6285],[72.2596,21.7235],[72.271,21.7515],[72.2601,21.7843],[72.2582,21.8824],[72.2424,21.9165],[72.2137,21.9488],[72.2337,22.0238],[72.2876,22.0018],[72.3232,22.1226],[72.3915,22.1801],[72.4165,22.2274],[72.4165,22.2796],[72.4351,22.3012],[72.4707,22.2388],[72.5057,22.229],[72.524,22.2449],[72.5746,22.2554],[72.596,22.2735],[72.6354,22.2846],[72.6915,22.2371],[72.7632,22.2332],[72.8104,22.2651],[72.8526,22.2818],[72.8651,22.2435],[72.8174,22.2479],[72.7996,22.2385],[72.7576,22.174],[72.7001,22.1843],[72.659,22.2124],[72.6012,22.2135],[72.5687,22.1876],[72.5476,22.1507],[72.5263,22.0768],[72.5049,21.981],[72.5021,21.9415],[72.5176,21.8574],[72.5699,21.824],[72.5521,21.7924],[72.5404,21.7357],[72.5176,21.7068],[72.5474,21.6585],[72.6004,21.6815],[72.7113,21.6785],[72.7363,21.6896],[72.7799,21.6632],[72.7349,21.6393],[72.7054,21.6518],[72.6751,21.629],[72.6293,21.6177],[72.6057,21.5788],[72.5982,21.5443],[72.6371,21.496],[72.6649,21.4274],[72.6254,21.3815],[72.6226,21.346],[72.5932,21.3121],[72.5971,21.2501],[72.6135,21.2288],[72.6246,21.0918],[72.659,21.0879],[72.6599,21.1388],[72.6671,21.1554],[72.6935,21.1549],[72.7146,21.1399],[72.7001,21.101],[72.7232,21.049],[72.754,20.9429],[72.7854,20.9232],[72.7918,20.8965],[72.8388,20.7988],[72.8346,20.7818],[72.8668,20.7482],[72.8521,20.734],[72.8976,20.5871],[72.8851,20.5462],[72.8849,20.4999],[72.8326,20.446],[72.8279,20.3876],[72.816,20.3596],[72.7757,20.3335],[72.7746,20.3038],[72.7557,20.2921],[72.7407,20.2393],[72.7482,20.2015],[72.726,20.0815],[72.7076,20.0701],[72.7215,20.0012],[72.7162,19.9724],[72.6643,19.9329],[72.6829,19.8885],[72.6738,19.8535],[72.6507,19.8396],[72.6796,19.8135],[72.6874,19.7476],[72.7099,19.7068],[72.7129,19.6446],[72.7279,19.6249],[72.7126,19.596],[72.7246,19.539],[72.7418,19.5157],[72.7801,19.4913],[72.7446,19.4629],[72.7601,19.416],[72.7576,19.376],[72.799,19.3313],[72.7843,19.3026],[72.7763,19.2215],[72.784,19.1624],[72.8215,19.1221],[72.8207,19.0585],[72.8357,19.0276],[72.8162,19.0132],[72.7996,18.9593],[72.8443,18.929],[72.8621,19.0029],[72.9185,18.9996],[72.9554,19.0276],[72.9632,19.0585],[72.9929,19.059],[73.0037,19.0293],[73.0024,18.9713],[72.9549,18.9638],[72.9393,18.946],[72.9576,18.9085],[72.9168,18.9104],[72.9082,18.8857],[72.9265,18.851],[72.9779,18.8632],[72.9826,18.8096],[72.9435,18.8279],[72.9163,18.7924],[72.8821,18.8049],[72.8635,18.7912],[72.8643,18.7213],[72.8551,18.6968],[72.8704,18.6396],[72.8821,18.6374],[72.9287,18.5354],[72.9112,18.5304],[72.8946,18.4571],[72.9065,18.4026],[72.924,18.3921],[72.9343,18.351],[72.9724,18.3018],[73.0415,18.2646],[73.0638,18.2271],[72.9987,18.2485],[72.9707,18.2713],[72.9354,18.2815],[72.9446,18.2232],[72.979,18.1926],[72.9876,18.1604],[72.971,18.1321],[72.9899,18.1001],[73.0015,18.0546],[73.0296,18.0321],[73.006,18.0135],[73.0382,17.9843],[73.0296,17.9443],[73.0521,17.929],[73.124,17.7526],[73.1346,17.7088],[73.114,17.6943],[73.1437,17.6018],[73.1421,17.5451],[73.1815,17.5076],[73.1937,17.4685],[73.184,17.4557],[73.1765,17.3874],[73.2071,17.3843],[73.2293,17.319],[73.1985,17.2893],[73.2235,17.2665],[73.2471,17.2104],[73.2726,17.1204],[73.2854,17.1057],[73.2879,17.0543],[73.256,17.0479],[73.2574,17.0196],[73.2838,17.0121],[73.2943,16.986],[73.2818,16.9496],[73.2801,16.8971],[73.2949,16.8621],[73.2954,16.8168],[73.3176,16.806],[73.3051,16.7671],[73.3065,16.7318],[73.3296,16.6857],[73.3329,16.6415],[73.3204,16.6074],[73.3426,16.5662],[73.3101,16.539],[73.3551,16.4465],[73.3685,16.3957],[73.3679,16.3635],[73.3871,16.3574],[73.4274,16.214],[73.4415,16.1857],[73.4676,16.0713],[73.4832,16.036],[73.4887,15.9879],[73.5126,15.9368],[73.5857,15.9093],[73.6129,15.8546],[73.626,15.8526],[73.6665,15.7568],[73.6901,15.7185],[73.7226,15.6301],[73.7415,15.6046],[73.7685,15.4904],[73.8054,15.4949],[73.8037,15.454],[73.849,15.4521],[73.8826,15.3985],[73.8165,15.4043],[73.8068,15.3785],[73.841,15.3604],[73.8735,15.3701],[73.9093,15.2901],[73.9485,15.146],[73.9221,15.086],[73.9804,15.0524],[73.9854,15.0251],[74.0329,14.999],[74.0488,14.9582],[74.0429,14.9185],[74.096,14.8976],[74.1246,14.8374],[74.1235,14.8049],[74.1588,14.754],[74.1982,14.724],[74.2274,14.7451],[74.2496,14.7396],[74.2818,14.6779],[74.2779,14.6579],[74.2899,14.6029],[74.3138,14.5446],[74.3107,14.5246],[74.3596,14.5018],[74.3926,14.4188],[74.4135,14.3157],[74.454,14.1993],[74.471,14.1835],[74.5146,13.9863],[74.5701,13.9465],[74.5915,13.906],[74.6182,13.8263],[74.6446,13.6849],[74.6618,13.6554],[74.6815,13.5474],[74.6943,13.454],[74.6976,13.3499],[74.7188,13.3249],[74.744,13.1918],[74.7549,13.1629],[74.7974,12.9732],[74.821,12.8524],[74.8337,12.8318],[74.8838,12.7096],[74.9154,12.6446],[74.9979,12.4499],[75.0404,12.3879],[75.0965,12.2635],[75.1176,12.2063],[75.1363,12.1868],[75.1726,12.1126],[75.1849,12.0437],[75.2015,12.0099],[75.2265,12.0227],[75.2904,11.9868],[75.2987,11.9435],[75.3668,11.8513],[75.3926,11.8493],[75.4554,11.7768],[75.5085,11.7315],[75.5424,11.6818],[75.5676,11.626],[75.6179,11.4888],[75.6813,11.4499],[75.7012,11.4193],[75.7476,11.3185],[75.8018,11.1582],[75.8293,11.1224],[75.8799,10.9315],[75.9101,10.7924],[76.0232,10.536],[76.0829,10.4199],[76.1182,10.3279],[76.1385,10.2521],[76.1826,10.129],[76.224,9.9771],[76.2387,10.0229],[76.2254,10.0726],[76.2126,10.084],[76.2074,10.1351],[76.2412,10.1088],[76.2643,10.0679],[76.2513,10.0518],[76.2724,10.0163],[76.2699,9.9893],[76.3307,9.8821],[76.354,9.9107],[76.3846,9.8443],[76.3835,9.8065],[76.369,9.7943],[76.391,9.7421],[76.3829,9.7026],[76.4079,9.6999],[76.4026,9.6474],[76.4301,9.6113],[76.416,9.5696],[76.4265,9.5551],[76.4985,9.5288],[76.3571,9.5254],[76.3532,9.5399],[76.3671,9.611],[76.3932,9.6788],[76.3637,9.7029],[76.3721,9.7385],[76.3574,9.8215],[76.3313,9.8724],[76.2654,9.8968],[76.2954,9.9179],[76.2374,9.9563],[76.2604,9.8818],[76.2796,9.7768],[76.3001,9.586],[76.3104,9.524],[76.3379,9.416],[76.3693,9.3432],[76.511,9.0296],[76.5462,8.9024],[76.614,8.8557],[76.6751,8.7793],[76.6996,8.7376],[76.7349,8.6979],[76.8904,8.5026],[76.9599,8.4218],[76.9788,8.3815],[77.0021,8.371],[77.0857,8.3004],[77.1588,8.2468],[77.2393,8.1765],[77.2965,8.1496],[77.3035,8.1315],[77.3637,8.1199],[77.4337,8.0971],[77.5524,8.0779],[77.5593,8.1196],[77.6107,8.1496],[77.7162,8.1657],[77.7462,8.1771],[77.7843,8.2074],[77.8135,8.2462],[77.889,8.2732],[77.9538,8.314],[77.9824,8.3413],[78.0557,8.3813],[78.0654,8.4204],[78.1304,8.4971],[78.1229,8.5132],[78.1387,8.5888],[78.1043,8.6032],[78.1007,8.6401],[78.1321,8.6665],[78.1354,8.6888],[78.1707,8.7451],[78.1637,8.7738],[78.1687,8.8821],[78.209,8.9593],[78.2354,8.9832],[78.3112,9.0324],[78.4107,9.1118],[78.5104,9.1351],[78.5782,9.1313],[78.6143,9.1521],[78.6507,9.1593],[78.6451,9.1815],[78.6712,9.1985],[78.7185,9.1901],[78.7276,9.2088],[78.8601,9.2535],[78.9065,9.2496],[78.9257,9.266],[78.9846,9.2749],[79.0938,9.2599],[79.1324,9.2871],[79.0646,9.2999],[78.9893,9.3538],[78.9393,9.4063],[78.9021,9.4657],[78.9226,9.5299],[78.9349,9.6082],[78.9596,9.6299],[78.994,9.7085],[79.0415,9.7662],[79.0579,9.7726],[79.0912,9.8276],[79.1249,9.8629],[79.1279,9.894],[79.2426,10.0251],[79.2537,10.0632],[79.2285,10.0921],[79.2307,10.1504],[79.2418,10.1821],[79.2813,10.2137],[79.2679,10.2324],[79.2949,10.2607],[79.3337,10.2854],[79.3696,10.2949],[79.3968,10.3179],[79.5068,10.3085],[79.5343,10.3357],[79.5496,10.3168],[79.5957,10.3026],[79.6221,10.334],[79.6471,10.3201],[79.7085,10.3235],[79.7571,10.3121],[79.796,10.2729],[79.8671,10.2863],[79.884,10.314],[79.866,10.4163],[79.8532,10.6538],[79.8504,10.7535],[79.8529,10.9621],[79.859,11.1399],[79.8365,11.3185],[79.8382,11.3549],[79.8243,11.3704],[79.8074,11.4446],[79.7613,11.5374],[79.7588,11.6118],[79.7776,11.7101],[79.7954,11.7751],[79.8063,11.8396],[79.8199,11.8693],[79.8435,11.9688],[79.8832,12.0615],[79.9774,12.2051],[80.0062,12.2596],[80.0701,12.3526],[80.1162,12.4054],[80.156,12.4668],[80.1657,12.5249],[80.254,12.779],[80.2474,12.8257],[80.2585,12.936],[80.2843,13.0632],[80.3032,13.0896],[80.299,13.1393],[80.3235,13.2029],[80.3446,13.2785],[80.3446,13.3379],[80.3282,13.4299],[80.3015,13.4246],[80.2737,13.4446],[80.2621,13.4729],[80.1796,13.4949],[80.109,13.5193],[80.051,13.5882],[80.0749,13.6085],[80.0704,13.6307],[80.1035,13.6543],[80.1385,13.6129],[80.154,13.7032],[80.189,13.6668],[80.1876,13.6482],[80.2182,13.6235],[80.2643,13.5612],[80.2929,13.4471],[80.3151,13.4446],[80.2835,13.5265],[80.2421,13.6163],[80.2326,13.6696],[80.2393,13.7313],[80.2524,13.7801],[80.2449,13.8196],[80.1979,13.9182],[80.1457,14.041],[80.1299,14.1213],[80.1268,14.1901],[80.1387,14.2724],[80.1699,14.3607],[80.1796,14.5124],[80.199,14.5871],[80.1721,14.6096],[80.1451,14.6921],[80.1115,14.744],[80.0888,14.8115],[80.0849,14.879],[80.0687,14.9271],[80.0546,14.9993],[80.0479,15.0774],[80.0537,15.1176],[80.0835,15.1946],[80.0829,15.2537],[80.1112,15.3488],[80.1479,15.4032],[80.2007,15.4654],[80.2251,15.5324],[80.2374,15.601],[80.2704,15.6732],[80.3118,15.721],[80.3607,15.7629],[80.431,15.8057],[80.5013,15.8374],[80.5668,15.8607],[80.644,15.8776],[80.7118,15.8801],[80.786,15.8601],[80.8118,15.8329],[80.7932,15.8146],[80.811,15.7638],[80.8127,15.7279],[80.8379,15.709],[80.9318,15.724],[80.9429,15.7196],[81.001,15.7518],[81.0121,15.7763],[80.9949,15.8035],[80.9979,15.8296],[81.0879,15.9299],[81.1457,15.9738],[81.141,16.0182],[81.1893,16.1035],[81.2051,16.176],[81.2426,16.2499],[81.2871,16.2938],[81.3285,16.3179],[81.3926,16.3421],[81.4651,16.3529],[81.5279,16.354],[81.561,16.3454],[81.684,16.3329],[81.7326,16.3154],[81.854,16.3746],[81.9446,16.3951],[82.0729,16.4632],[82.2243,16.5379],[82.2865,16.5574],[82.2996,16.5918],[82.2782,16.6363],[82.2599,16.6413],[82.2588,16.6888],[82.2935,16.7079],[82.3412,16.7535],[82.3585,16.8443],[82.3132,16.8518],[82.2576,16.8926],[82.249,16.9304],[82.2718,16.941],[82.2785,16.9932],[82.319,17.0593],[82.3996,17.1368],[82.4776,17.2049],[82.5315,17.2429],[82.6829,17.3329],[82.7387,17.361],[82.9907,17.4724],[83.0082,17.4996],[83.1121,17.5471],[83.1624,17.5613],[83.2382,17.6118],[83.2326,17.6243],[83.2954,17.6751],[83.2924,17.6879],[83.3443,17.7249],[83.3582,17.7607],[83.3846,17.7771],[83.4101,17.8104],[83.4193,17.8574],[83.4546,17.8876],[83.4535,17.9029],[83.5296,17.9493],[83.559,17.9835],[83.5646,18.011],[83.6438,18.0618],[83.6732,18.0868],[83.7846,18.1474],[83.8626,18.1757],[83.8893,18.1968],[83.9371,18.2107],[84.0696,18.276],[84.1299,18.3151],[84.1274,18.341],[84.1504,18.3735],[84.2021,18.4263],[84.2843,18.5001],[84.3562,18.5568],[84.3776,18.606],[84.4407,18.664],[84.441,18.6801],[84.5021,18.751],[84.5535,18.7918],[84.5896,18.8729],[84.6876,18.9724],[84.7646,19.0749],[84.7243,19.0907],[84.7335,19.1221],[84.7765,19.1096],[84.8087,19.1549],[84.8676,19.2204],[84.9315,19.2774],[84.9976,19.3276],[85.0839,19.3828],[85.1047,19.4138],[85.1628,19.4606],[85.2864,19.5481],[85.4192,19.6231],[85.49,19.6528],[85.6636,19.7392],[85.8455,19.8012],[85.9533,19.83],[86.0456,19.8471],[86.228,19.9009],[86.2961,19.9355],[86.3642,19.9537],[86.3219,19.9844],[86.2949,20.0244],[86.2482,20.0214],[86.2479,20.0532],[86.2745,20.0616],[86.3274,20.0307],[86.3394,19.9903],[86.3836,19.9761],[86.4075,19.9953],[86.4117,20.0364],[86.4939,20.1236],[86.4953,20.1783],[86.6363,20.2455],[86.6718,20.2576],[86.7181,20.2878],[86.7705,20.3325],[86.7897,20.3592],[86.7822,20.3864],[86.7327,20.4025],[86.7331,20.4536],[86.7533,20.4975],[86.7844,20.5358],[86.8722,20.5981],[86.9867,20.6683],[87.0072,20.6967],[86.9392,20.7116],[86.9025,20.6978],[86.8496,20.6524],[86.823,20.6465],[86.8159,20.6364],[86.8069,20.6433],[86.7944,20.6453],[86.7711,20.6422],[86.7667,20.6444],[86.8161,20.7239],[86.818,20.7606],[86.8814,20.7975],[86.9641,20.7942],[86.9703,20.8261],[86.9594,20.8636],[86.9173,20.9398],[86.8889,21.0164],[86.8583,21.055],[86.8233,21.1383],[86.8239,21.1964],[86.8683,21.2761],[86.9108,21.3403],[86.9247,21.3472],[86.9811,21.4108],[87.0642,21.4639],[87.1139,21.5083],[87.1653,21.5319],[87.2408,21.552],[87.3039,21.5557],[87.3619,21.5517],[87.4133,21.5697],[87.4639,21.6064],[87.5612,21.6331],[87.6778,21.6539],[87.7397,21.6783],[87.7578,21.7],[87.7897,21.695],[87.8947,21.7844],[87.9289,21.8003],[87.9806,21.8583],[88.0358,21.9814],[88.0522,22.0075],[88.1486,22.0597],[88.1933,22.1128],[88.1356,22.1847],[88.0656,22.1897],[88.0347,22.2094],[87.9904,22.2095],[87.94,22.2603],[87.9587,22.2847],[87.9849,22.2457],[88.0261,22.2225],[88.0728,22.21],[88.1167,22.2092],[88.1881,22.1867],[88.2106,22.1494],[88.2244,22.0917],[88.2139,22.0347],[88.1956,22.0036],[88.1537,21.9592],[88.1772,21.9261],[88.1633,21.8794],[88.2094,21.8014],[88.2172,21.7644],[88.2739,21.7546],[88.2786,21.77],[88.2584,21.8008],[88.2634,21.8138],[88.3056,21.8303],[88.3257,21.8621],[88.337,21.8616],[88.3549,21.8557],[88.364,21.7978],[88.3923,21.8132],[88.3858,21.8394],[88.3975,21.8853],[88.4147,21.8902],[88.4169,21.9034],[88.4242,21.9077],[88.433,21.9028],[88.4417,21.9114],[88.4506,21.9134],[88.5166,21.9131],[88.4943,21.8791],[88.521,21.8564],[88.5479,21.8817],[88.5395,21.8994],[88.545,21.906],[88.5624,21.8989],[88.5705,21.9036],[88.5783,21.8894],[88.6014,21.9058],[88.6149,21.937],[88.6019,21.9903],[88.6367,22.0453],[88.6193,22.1088],[88.6395,22.1575],[88.6812,22.2092],[88.702,22.2094],[88.7336,22.1956],[88.7436,22.2292],[88.7905,22.2595],[88.7927,22.2762],[88.8044,22.2827],[88.8026,22.329],[88.8189,22.3636],[88.857,22.3727],[88.8524,22.4328],[88.8553,22.5106],[88.8689,22.5458],[88.8964,22.5633],[88.9376,22.5699],[88.9319,22.6456],[88.9623,22.6951],[88.9279,22.7182],[88.911,22.7579],[88.9584,22.7942],[88.9681,22.8452],[88.9494,22.8774],[88.9098,22.8798],[88.8941,22.9525],[88.8552,22.9576],[88.8841,23.0406],[88.861,23.0774],[88.8858,23.1056],[88.9314,23.1386],[88.9422,23.2064],[88.8136,23.2522],[88.8042,23.2188],[88.778,23.2234],[88.7188,23.2563],[88.7192,23.2979],[88.7655,23.3677],[88.7511,23.4029],[88.7644,23.4421],[88.7933,23.4443],[88.7833,23.5025],[88.7444,23.4831],[88.6957,23.5175],[88.6555,23.5576],[88.6392,23.5928],[88.6015,23.607],[88.5937,23.6409],[88.5738,23.6668],[88.5647,23.7132],[88.5806,23.7652],[88.5714,23.7833],[88.6009,23.8206],[88.5848,23.8679],[88.6331,23.8614],[88.6827,23.8888],[88.7015,23.9123],[88.7354,23.9147],[88.7372,24.0626],[88.7277,24.1009],[88.7095,24.1208],[88.7464,24.1472],[88.7315,24.1717],[88.7409,24.254],[88.7247,24.2979],[88.6965,24.3154],[88.588,24.312],[88.555,24.2965],[88.5287,24.3442],[88.5072,24.3447],[88.4303,24.3838],[88.3894,24.3719],[88.333,24.3832],[88.2633,24.446],[88.1937,24.4662],[88.1038,24.5489],[88.0412,24.6434],[88.0106,24.6667],[88.0599,24.715],[88.0657,24.7508],[88.1509,24.8493],[88.1656,24.8901],[88.1406,24.9173],[88.2034,24.9577],[88.2262,24.9598],[88.2631,24.9191],[88.2649,24.8928],[88.3331,24.8704],[88.3468,24.8925],[88.3263,24.9159],[88.3402,24.9403],[88.3845,24.9378],[88.4174,24.974],[88.4472,25.0327],[88.4365,25.0502],[88.4529,25.0794],[88.4414,25.1276],[88.4592,25.1351],[88.4448,25.1768],[88.4777,25.2133],[88.5599,25.191],[88.5796,25.1769],[88.6202,25.2053],[88.68,25.209],[88.7333,25.2],[88.793,25.1727],[88.8133,25.1744],[88.8304,25.2055],[88.8649,25.2007],[88.9242,25.172],[88.9496,25.1813],[88.9589,25.2196],[88.952,25.2475],[88.9931,25.2703],[89.0094,25.2992],[88.9151,25.3126],[88.9064,25.338],[88.8714,25.34],[88.8456,25.3622],[88.8297,25.4904],[88.808,25.5128],[88.7592,25.524],[88.7101,25.4807],[88.663,25.4738],[88.6231,25.4971],[88.548,25.5182],[88.5331,25.5422],[88.5007,25.5511],[88.4999,25.5841],[88.4506,25.6025],[88.4538,25.665],[88.4243,25.6705],[88.3786,25.7116],[88.3209,25.7376],[88.3163,25.7532],[88.2685,25.7808],[88.2699,25.8081],[88.2283,25.7967],[88.1934,25.8016],[88.1521,25.7758],[88.1144,25.798],[88.1013,25.8296],[88.1153,25.8524],[88.0939,25.8744],[88.0937,25.9296],[88.1108,25.9324],[88.1299,25.9866],[88.1537,26.0178],[88.1768,26.0186],[88.1643,26.0857],[88.1804,26.1457],[88.2294,26.1673],[88.2494,26.19],[88.2763,26.1886],[88.3478,26.222],[88.3592,26.2429],[88.3496,26.2823],[88.3715,26.306],[88.415,26.3152],[88.4632,26.3574],[88.5248,26.3598],[88.4981,26.4344],[88.4581,26.4667],[88.4167,26.4693],[88.4049,26.4859],[88.366,26.4709],[88.3321,26.4932],[88.3708,26.5607],[88.3759,26.5943],[88.416,26.6317],[88.4312,26.5502],[88.4835,26.5411],[88.5279,26.4862],[88.56,26.4571],[88.6498,26.4297],[88.6853,26.3748],[88.6951,26.3442],[88.6761,26.3165],[88.6676,26.272],[88.7219,26.2829],[88.7935,26.3101],[88.8131,26.2972],[88.8135,26.2547],[88.8597,26.2315],[88.8767,26.2867],[88.9262,26.2839],[88.9531,26.2421],[89.046,26.2408],[89.0673,26.274],[89.0102,26.3019],[88.9797,26.3466],[88.9137,26.378],[88.9172,26.4033],[88.9447,26.4257],[88.9461,26.448],[88.9832,26.4466],[89.0034,26.42],[89.0462,26.3999],[89.0934,26.3928],[89.0936,26.3259],[89.1049,26.2756],[89.1252,26.2636],[89.1493,26.209],[89.1355,26.1874],[89.1553,26.1387],[89.1929,26.1239],[89.2197,26.1266],[89.2517,26.1013],[89.2543,26.0642],[89.3046,26.0471],[89.3631,26.0076],[89.431,26.0111],[89.4783,25.9967],[89.5213,26.0083],[89.5409,25.9696],[89.5804,25.9682],[89.5918,25.994],[89.5837,26.0335],[89.6483,26.0685],[89.6398,26.0989],[89.5965,26.1353],[89.6148,26.1787],[89.6606,26.1768],[89.6972,26.1586],[89.7476,26.1574],[89.8192,26.0259],[89.8718,25.9742],[89.8319,25.9415],[89.8785,25.9243],[89.8325,25.8707],[89.8264,25.8103],[89.8413,25.7591],[89.835,25.7159],[89.8729,25.6569],[89.8824,25.6173],[89.8523,25.4664],[89.8327,25.4389],[89.8196,25.3808],[89.8416,25.3083],[89.8765,25.2854],[89.9091,25.3081],[89.9807,25.281],[90.0545,25.2615],[90.1123,25.2255],[90.1714,25.2232],[90.1959,25.2111],[90.3104,25.1889],[90.3301,25.1939],[90.3705,25.1629],[90.4186,25.1509],[90.4596,25.1523],[90.5066,25.17],[90.6369,25.1722],[90.6511,25.1821],[90.6985,25.1569],[90.7393,25.1544],[90.7949,25.1813],[90.8144,25.1625],[90.8535,25.1558],[90.9279,25.1623],[91.0696,25.1985],[91.1722,25.1943],[91.1946,25.2019],[91.2515,25.1946],[91.271,25.204],[91.3371,25.1737],[91.3986,25.1646],[91.5026,25.1355],[91.5589,25.1493],[91.5802,25.1725],[91.6379,25.1227],[91.7049,25.1501],[91.7436,25.1512],[91.8272,25.1779],[91.8555,25.1726],[91.9145,25.1814],[91.9805,25.1718],[92.0034,25.1862],[92.0618,25.1871],[92.1396,25.1547],[92.1358,25.1389],[92.2003,25.1201],[92.2543,25.0869],[92.3105,25.0692],[92.3381,25.0516],[92.4252,25.0297],[92.4194,24.9676],[92.4478,24.9658],[92.4496,24.9387],[92.4839,24.9286],[92.4919,24.878],[92.4028,24.8549],[92.3397,24.8783],[92.296,24.9162],[92.2452,24.9102],[92.2424,24.8406],[92.2692,24.83],[92.2959,24.7366],[92.2596,24.6874],[92.2353,24.5976],[92.231,24.531],[92.2125,24.5038],[92.1734,24.534],[92.1504,24.4954],[92.1673,24.4347],[92.1367,24.4251],[92.1191,24.3887],[92.089,24.3734],[92.0101,24.382],[91.97,24.3746],[91.9199,24.3375],[91.9407,24.2682],[91.9022,24.1371],[91.8778,24.1479],[91.8739,24.1746],[91.8236,24.2102],[91.7454,24.2469],[91.7595,24.142],[91.6921,24.1598],[91.6802,24.1915],[91.6597,24.1897],[91.6344,24.1382],[91.6341,24.1026],[91.5925,24.0791],[91.5442,24.0761],[91.4758,24.1007],[91.4125,24.1101],[91.3745,24.1079],[91.3965,24.0498],[91.3908,24.0259],[91.3616,23.9864],[91.3051,23.9954],[91.2837,23.9831],[91.2639,23.9444],[91.2365,23.9297],[91.2448,23.9071],[91.2295,23.8807],[91.254,23.8372],[91.2271,23.7932],[91.2143,23.7501],[91.1724,23.752],[91.1491,23.7117],[91.1542,23.6885],[91.1938,23.69],[91.1929,23.6546],[91.1613,23.6545],[91.1624,23.5952],[91.1872,23.5777],[91.2007,23.5202],[91.2522,23.4811],[91.2515,23.4538],[91.2764,23.4148],[91.2797,23.3768],[91.2961,23.341],[91.2898,23.3187],[91.3236,23.2376],[91.3247,23.1688],[91.3469,23.1025],[91.3697,23.0705],[91.3958,23.0562],[91.416,23.0767],[91.4012,23.1352],[91.3818,23.1752],[91.3877,23.208],[91.4187,23.2584],[91.4539,23.2564],[91.4824,23.1986],[91.5067,23.1801],[91.4909,23.1578],[91.5126,23.1372],[91.5112,23.1043],[91.5353,23.0635],[91.5304,23.0384],[91.5424,22.9997],[91.575,22.9688],[91.5904,22.9771],[91.6169,22.9442],[91.6457,22.9768],[91.7256,22.9893],[91.7851,23.0317],[91.794,23.0624],[91.8355,23.0955],[91.8209,23.1225],[91.7763,23.2442],[91.7748,23.2781],[91.8083,23.3387],[91.8376,23.3709],[91.8407,23.399],[91.9184,23.4397],[91.9761,23.496],[91.9562,23.5258],[91.9657,23.5541],[91.9423,23.6818],[91.9567,23.7191],[91.9773,23.7315],[92,23.6713],[92.042,23.6481],[92.0793,23.6487],[92.0806,23.6714],[92.1238,23.6958],[92.1442,23.7332],[92.1718,23.7387],[92.1777,23.7077],[92.2381,23.6703],[92.2468,23.7227],[92.2893,23.702],[92.275,23.6501],[92.2889,23.5983],[92.3058,23.583],[92.3062,23.5352],[92.3178,23.5262],[92.327,23.4486],[92.3463,23.4334],[92.3561,23.3727],[92.3757,23.3655],[92.3682,23.3256],[92.3857,23.3063],[92.3996,23.2419],[92.3507,23.2343],[92.3624,23.1651],[92.3579,23.1035],[92.3923,23.0565],[92.3743,22.9701],[92.3765,22.9288],[92.3978,22.9294],[92.4643,22.8547],[92.4552,22.8258],[92.4722,22.7958],[92.477,22.7543],[92.5024,22.7376],[92.526,22.6731],[92.5245,22.6407],[92.5384,22.586],[92.5218,22.5603],[92.5512,22.5137],[92.5439,22.4948],[92.5547,22.4056],[92.571,22.3568],[92.5918,22.2393],[92.588,22.216],[92.6066,22.1661],[92.5752,22.1162],[92.5898,22.0708],[92.5974,22.012],[92.6181,21.9814],[92.69,22.041],[92.7034,22.1538],[92.8171,22.0956],[92.8943,22.012],[92.9158,21.965],[92.9421,22.0183],[92.9666,22.0271],[92.988,21.9829],[93.0092,21.9839],[93.0008,22.0556],[93.016,22.1055],[93.0656,22.1021],[93.0469,22.1387],[93.0549,22.1654],[93.0445,22.1937],[93.077,22.2101],[93.1172,22.2013],[93.1307,22.1791],[93.163,22.1823],[93.1471,22.2465],[93.1904,22.2497],[93.2019,22.2809],[93.1908,22.4273],[93.1345,22.4748],[93.1309,22.5261],[93.1155,22.5547],[93.1456,22.5861],[93.1364,22.6229],[93.1148,22.6392],[93.0918,22.7093],[93.1127,22.7442],[93.0993,22.8104],[93.1162,22.8163],[93.1217,22.8628],[93.1628,22.9135],[93.1292,23.0008],[93.1329,23.0475],[93.2062,23.0569],[93.2532,23.0065],[93.302,23.0083],[93.3326,23.0357],[93.3582,23.0779],[93.3947,23.2243],[93.3784,23.2561],[93.3778,23.3375],[93.3658,23.3545],[93.4142,23.388],[93.3983,23.4113],[93.4076,23.5085],[93.4276,23.5344],[93.4347,23.5888],[93.4283,23.6535],[93.4447,23.6824],[93.4169,23.7121],[93.4053,23.7616],[93.411,23.8077],[93.3992,23.8242],[93.3987,23.9303],[93.371,23.9405],[93.3374,23.9828],[93.342,24.0674],[93.3538,24.0977],[93.4042,24.0843],[93.4329,24.0617],[93.467,23.9993],[93.4722,23.9707],[93.5151,23.9472],[93.5305,23.9608],[93.6093,23.9734],[93.6163,24.0107],[93.6524,24.0135],[93.74,23.9992],[93.7622,24.0041],[93.7935,23.9675],[93.8081,23.9331],[93.8662,23.9379],[93.8961,23.9548],[93.9538,23.9502],[93.9694,23.9339],[94.0177,23.934],[94.0511,23.9004],[94.101,23.889],[94.1226,23.8427],[94.1615,23.8528],[94.1708,23.9351],[94.2453,24.0442],[94.2597,24.0896],[94.2627,24.1677],[94.2837,24.1799],[94.2951,24.2399],[94.328,24.2924],[94.3263,24.3389],[94.3518,24.342],[94.3861,24.3846],[94.4115,24.4697],[94.4296,24.4933],[94.4595,24.5668],[94.5208,24.6168],[94.5507,24.6749],[94.551,24.7165],[94.591,24.7109],[94.6108,24.7221],[94.6333,24.765],[94.6254,24.7848],[94.6412,24.8487],[94.6921,24.8999],[94.7059,24.9343],[94.7019,24.9684],[94.7422,25.0252],[94.7507,25.0635],[94.7457,25.1366],[94.6017,25.1952],[94.5854,25.2157],[94.5987,25.2891],[94.6221,25.3368],[94.6312,25.3873],[94.671,25.4125],[94.6886,25.4655],[94.7727,25.4813],[94.8125,25.4954],[94.8339,25.5467],[94.9197,25.6111],[94.9429,25.6753],[94.989,25.7091],[95.0094,25.7385],[95.0525,25.7627],[95.0515,25.7991],[95.0154,25.872],[95.028,25.9198],[95.0574,25.947],[95.1065,25.9682],[95.1647,26.035],[95.1854,26.0847],[95.1659,26.099],[95.1267,26.101],[95.1168,26.163],[95.1283,26.2031],[95.1207,26.2749],[95.1311,26.2925],[95.1283,26.3547],[95.1357,26.3878],[95.1048,26.4013],[95.1087,26.4237],[95.0688,26.4667],[95.1208,26.5298],[95.1148,26.548],[95.1545,26.5808],[95.1547,26.6195],[95.2062,26.6491],[95.2404,26.6916],[95.272,26.6628],[95.3026,26.656],[95.3466,26.6779],[95.4233,26.6967],[95.4657,26.7504],[95.4835,26.755],[95.5148,26.8132],[95.5457,26.8379],[95.6115,26.8212],[95.6341,26.8733],[95.6734,26.9102],[95.7035,26.8872],[95.7308,26.8875],[95.755,26.9079],[95.7609,26.964],[95.8153,27.0222],[95.8771,27.0205],[95.9571,27.0682],[95.9792,27.1107],[96.0169,27.1548],[96.0364,27.1961],[96.1637,27.2545],[96.2181,27.2696],[96.2343,27.2849],[96.2787,27.2794],[96.3108,27.302],[96.3477,27.2884],[96.4335,27.3099],[96.5,27.3094],[96.5307,27.298],[96.6008,27.3446],[96.6205,27.3728],[96.6937,27.3655],[96.7125,27.3807],[96.7407,27.3645],[96.8024,27.3544],[96.8497,27.3063],[96.8557,27.2803],[96.8927,27.2476],[96.8634,27.2192],[96.8662,27.1997],[96.9184,27.1755],[96.9637,27.1726],[97.0302,27.1417],[97.0627,27.1112],[97.1086,27.1213],[97.1464,27.1028],[97.1717,27.1368],[97.1499,27.1783],[97.1273,27.1852],[97.0951,27.2214],[97.0941,27.2479],[97.0436,27.2898],[97.0403,27.3079],[97.0033,27.3299],[96.9975,27.3551],[96.969,27.3863],[96.9655,27.4154],[96.9414,27.427],[96.9118,27.4627],[96.9139,27.4884],[96.9377,27.5301],[96.9158,27.5583],[96.8976,27.6208],[96.929,27.656],[96.9783,27.6719],[97.0157,27.7406],[97.0466,27.7497],[97.0422,27.7675],[97.0417,27.8044],[97.0164,27.8028],[96.9761,27.8281],[96.9614,27.8636],[96.8944,27.8911],[96.8161,27.8986],[96.7989,27.9261],[96.7461,27.9544],[96.6808,27.9703],[96.6414,27.9975],[96.6086,28.0469],[96.5653,28.0711],[96.5247,28.0822],[96.4368,28.1682],[96.3678,28.1269],[96.2978,28.1525],[96.2758,28.2155],[96.2463,28.2433],[96.21,28.2314],[96.1438,28.1751],[96.1063,28.1947],[96.0534,28.2022],[96.0317,28.1844],[96.0028,28.1867],[95.9117,28.2389],[95.8944,28.2883],[95.8758,28.2917],[95.5613,28.195],[95.3255,28.0994],[95.2697,27.9375],[95.188,27.9033],[95.0855,27.8503],[94.9232,27.7546],[94.8609,27.7395],[94.8488,27.7107],[94.7953,27.6981],[94.7427,27.6634],[94.6981,27.6671],[94.6398,27.631],[94.5915,27.6228],[94.5735,27.607],[94.5263,27.5958],[94.5002,27.5773],[94.4535,27.5709],[94.4209,27.6013],[94.3675,27.5767],[94.2877,27.5918],[94.2351,27.6325],[94.2265,27.5756],[94.2565,27.5574],[94.2591,27.5226],[94.1912,27.4963],[94.0863,27.4046],[94.0609,27.3636],[94,27.3347],[93.901,27.2415],[93.8674,27.1988],[93.817,27.1582],[93.8056,27.1378],[93.8002,27.1326],[93.8255,27.1193],[93.8367,27.0782],[93.7779,27.0528],[93.7189,27.0192],[93.6758,26.9711],[93.5842,26.9526],[93.4681,26.9389],[93.4479,26.9542],[93.3479,26.9632],[93.2669,26.956],[93.1843,26.9387],[93.0194,26.9168],[92.9178,26.9642],[92.9167,26.9847],[92.8724,27.0077],[92.7691,27.033],[92.7137,27.0261],[92.6589,27.0385],[92.6455,26.9874],[92.5852,26.9619],[92.505,26.9668],[92.4462,26.9606],[92.3998,26.9263],[92.3531,26.9356],[92.3029,26.9242],[92.2764,26.9025],[92.2546,26.9122],[92.1948,26.891],[92.113,26.8924],[92.1029,26.8676],[92.0566,26.8476],[91.9831,26.8583],[91.9639,26.8829],[91.8921,26.9192],[91.8591,26.9137],[91.8239,26.8644],[91.7206,26.8119],[91.6897,26.8069],[91.6256,26.8212],[91.5913,26.805],[91.4949,26.7914],[91.4483,26.8111],[91.4075,26.8397],[91.3756,26.7954],[91.3374,26.7812],[91.2964,26.7872],[91.2368,26.8123],[91.1458,26.8112],[91.0975,26.8222],[91.0554,26.7824],[90.9916,26.7908],[90.8166,26.7763],[90.6935,26.7703],[90.6758,26.7842],[90.5459,26.8169],[90.4165,26.9047],[90.3564,26.901],[90.3478,26.8754],[90.3002,26.8484],[90.2302,26.8591],[90.2008,26.8354],[90.1875,26.807],[90.1946,26.7734],[90.1384,26.7533],[90.0492,26.7307],[89.967,26.7238],[89.8975,26.7244],[89.8629,26.7374],[89.8632,26.7007],[89.8121,26.711],[89.7722,26.7022],[89.7446,26.7303],[89.7239,26.7235],[89.6406,26.7474],[89.6509,26.7764],[89.5652,26.8002],[89.56,26.8132],[89.4743,26.8027],[89.4387,26.8408],[89.3895,26.842],[89.3789,26.8624],[89.2753,26.8289],[89.1936,26.8109],[89.1763,26.8193],[89.1343,26.8078],[89.1005,26.8427],[89.0956,26.8918],[89.0299,26.9231],[89.0212,26.9408],[88.9804,26.9172],[88.9437,26.9343],[88.9508,26.9687],[88.9215,26.9938],[88.877,26.9443],[88.8688,26.9946],[88.8789,27.0652],[88.87,27.1091],[88.8414,27.1122],[88.8039,27.1391],[88.7602,27.1528],[88.7868,27.182],[88.8032,27.248],[88.8313,27.2625],[88.879,27.2612],[88.9079,27.2767],[88.9195,27.3277],[88.8899,27.3364],[88.881,27.3632],[88.8398,27.3782],[88.8093,27.4052],[88.7834,27.4556],[88.7889,27.5261],[88.7671,27.565],[88.8055,27.6033],[88.8064,27.6322],[88.8466,27.6689],[88.8455,27.7003],[88.8624,27.739],[88.8543,27.8165],[88.881,27.839],[88.8814,27.8925],[88.8612,27.9235],[88.8363,27.932],[88.8409,27.991],[88.7511,28.0733],[88.6668,28.0741],[88.6377,28.1044],[88.5748,28.0856],[88.5333,28.0366],[88.4831,28.0456],[88.4616,28.0198],[88.4265,28.0081],[88.3898,27.9781],[88.3452,27.9895],[88.2439,27.9485],[88.2035,27.9666],[88.1736,27.9447],[88.1391,27.9635],[88.1139,27.9122],[88.13,27.8815],[88.1513,27.8765],[88.2039,27.8373],[88.1879,27.8103],[88.1999,27.7905],[88.1812,27.7468],[88.161,27.7406],[88.1473,27.6654],[88.1226,27.6453],[88.1163,27.6103],[88.0954,27.5973],[88.0463,27.4958],[88.0813,27.4318],[88.0532,27.4126],[88.0444,27.3707],[88.0692,27.3356],[88.0343,27.286],[88.0219,27.2355],[88.0099,27.143],[87.9942,27.1052],[88.0144,27.0971],[88.0403,27.0363],[88.0856,27.0286],[88.1177,26.9885],[88.123,26.9501],[88.1486,26.9204],[88.1389,26.8984],[88.1745,26.8689],[88.1702,26.8371],[88.1905,26.7714],[88.1847,26.7192],[88.17,26.6989],[88.1656,26.6457],[88.1446,26.6255],[88.1159,26.5723],[88.0977,26.5161],[88.1059,26.4667],[88.0974,26.4374],[88.0404,26.3936],[88.0326,26.3646],[87.995,26.3694],[87.9942,26.3922],[87.935,26.4177],[87.9025,26.4771],[87.866,26.4676],[87.8512,26.4362],[87.7949,26.4685],[87.7689,26.4121],[87.7362,26.4075],[87.7122,26.4271],[87.6544,26.3932],[87.5902,26.3922],[87.5189,26.4306],[87.4691,26.4401],[87.4302,26.422],[87.391,26.4187],[87.3589,26.3879],[87.3434,26.3475],[87.3149,26.3711],[87.2684,26.3736],[87.2504,26.4136],[87.1888,26.414],[87.165,26.4038],[87.0939,26.45],[87.0743,26.5855],[87.0448,26.5679],[87.0177,26.5318],[86.9351,26.5165],[86.9322,26.4893],[86.8956,26.4873],[86.8964,26.4617],[86.8358,26.4387],[86.7716,26.4591],[86.7492,26.428],[86.7282,26.4254],[86.6957,26.4509],[86.6285,26.4691],[86.6234,26.4838],[86.5728,26.4969],[86.5442,26.5381],[86.5011,26.5416],[86.4579,26.5678],[86.3973,26.5849],[86.3102,26.6196],[86.2551,26.6156],[86.2337,26.5928],[86.1994,26.5933],[86.1945,26.6144],[86.1574,26.6096],[86.072,26.6568],[86.0307,26.6664],[85.9782,26.6579],[85.9576,26.6295],[85.8932,26.5945],[85.8609,26.5686],[85.8533,26.6095],[85.8198,26.6025],[85.8038,26.6235],[85.7492,26.6396],[85.7258,26.6739],[85.7367,26.7956],[85.7233,26.82],[85.6825,26.843],[85.6092,26.857],[85.5451,26.8379],[85.4983,26.7981],[85.4556,26.7819],[85.4096,26.7911],[85.3771,26.7606],[85.3363,26.7414],[85.1997,26.7693],[85.1792,26.8149],[85.196,26.8417],[85.1913,26.8698],[85.1134,26.8722],[85.0597,26.8489],[85.031,26.859],[85.0458,26.8911],[85.0061,26.8948],[84.9729,26.9168],[84.9681,26.958],[84.9128,26.9676],[84.8612,26.9889],[84.8569,27.008],[84.8097,27.0075],[84.7748,27.0175],[84.7589,27.0027],[84.6449,27.0472],[84.6496,27.0709],[84.6778,27.1029],[84.6857,27.1432],[84.6779,27.1701],[84.6917,27.2223],[84.6245,27.3361],[84.488,27.3583],[84.4433,27.37],[84.3606,27.3734],[84.2934,27.385],[84.2562,27.4519],[84.151,27.4857],[84.153,27.5166],[84.1107,27.5215],[84.0975,27.4894],[84.0727,27.4815],[84.0542,27.4426],[83.9481,27.441],[83.9333,27.4494],[83.8702,27.4285],[83.8899,27.3582],[83.8648,27.3464],[83.8332,27.3695],[83.6167,27.4694],[83.3909,27.4795],[83.386,27.4422],[83.4076,27.4053],[83.3868,27.3901],[83.3545,27.3398],[83.2965,27.334],[83.2677,27.3654],[83.2742,27.3834],[83.2125,27.4242],[83.1902,27.454],[83.1665,27.4575],[83.0361,27.4487],[82.9562,27.4678],[82.9316,27.5009],[82.8371,27.5015],[82.8036,27.4964],[82.737,27.5031],[82.7396,27.5467],[82.7579,27.5866],[82.735,27.6185],[82.7396,27.6405],[82.7162,27.6624],[82.707,27.7164],[82.607,27.7058],[82.5431,27.6855],[82.5181,27.6902],[82.4507,27.6786],[82.4037,27.7025],[82.369,27.7424],[82.3058,27.7724],[82.2102,27.843],[82.1559,27.8661],[82.1252,27.8648],[82.0729,27.9225],[81.9701,27.9288],[81.904,27.8537],[81.825,27.9025],[81.8067,27.9032],[81.704,27.9865],[81.6452,27.9937],[81.5491,28.049],[81.4802,28.0825],[81.4858,28.1181],[81.4518,28.1408],[81.4488,28.1602],[81.3769,28.1769],[81.3731,28.1422],[81.3198,28.1334],[81.3224,28.1972],[81.2345,28.2889],[81.2363,28.3246],[81.2124,28.3605],[81.0815,28.3848],[81.0014,28.4539],[80.9809,28.4343],[80.9074,28.4657],[80.9103,28.4975],[80.8776,28.5097],[80.857,28.497],[80.7863,28.5292],[80.7696,28.5655],[80.7163,28.5679],[80.6529,28.6339],[80.6133,28.6392],[80.5818,28.6612],[80.592,28.6797],[80.5416,28.6905],[80.5052,28.6652],[80.5233,28.5768],[80.4733,28.5905],[80.4628,28.6207],[80.4164,28.6391],[80.3733,28.629],[80.3276,28.6663],[80.3185,28.7001],[80.2792,28.7099],[80.2523,28.7578],[80.2177,28.7553],[80.173,28.782],[80.1198,28.8287],[80.0663,28.8373],[80.0601,28.9163],[80.0977,28.9752],[80.1285,29.0059],[80.1301,29.061],[80.146,29.103],[80.186,29.1373],[80.235,29.1184],[80.2744,29.1448],[80.2596,29.1874],[80.2953,29.1976],[80.306,29.2853],[80.2986,29.3237],[80.2477,29.4074],[80.2477,29.4467],[80.3029,29.4571],[80.3014,29.4905],[80.3421,29.5099],[80.4095,29.5949],[80.4228,29.6302],[80.3922,29.6645],[80.3702,29.7216],[80.4086,29.7944],[80.4656,29.8023],[80.4941,29.7953],[80.509,29.823],[80.5552,29.853],[80.581,29.9325],[80.6053,29.9587],[80.6779,29.9581],[80.7213,30.0004],[80.7398,29.9995],[80.808,30.09],[80.8471,30.1023],[80.8805,30.1325],[80.8646,30.1689],[80.9292,30.2359],[80.9779,30.238],[80.9941,30.2705],[80.9167,30.288],[80.8113,30.32],[80.776,30.3432],[80.7375,30.3981],[80.6659,30.4434],[80.649,30.4453],[80.5842,30.4872],[80.5265,30.4543],[80.4897,30.4891],[80.4235,30.5057],[80.4006,30.5312],[80.3683,30.5269],[80.278,30.5745],[80.2386,30.5657],[80.2053,30.5846],[80.1855,30.6164],[80.1128,30.6803],[80.0624,30.6941],[80.0638,30.7595],[80.0472,30.7899],[79.9919,30.8355],[79.988,30.8543],[79.9495,30.8874],[79.915,30.8922],[79.8776,30.9264],[79.8549,30.9789],[79.8107,30.9776],[79.7456,31.0062],[79.6932,30.9817],[79.6539,30.9858],[79.5848,30.944],[79.5311,30.9741],[79.5377,30.9913],[79.4971,31.0414],[79.4131,31.0376],[79.4084,31.073],[79.3901,31.0939],[79.324,31.1093],[79.219,31.1046],[79.1611,31.1088],[79.0537,31.1348],[78.9858,31.1183],[78.9777,31.1518],[78.9319,31.1991],[78.9232,31.236],[78.867,31.2806],[78.8533,31.3055],[78.8249,31.2945],[78.7828,31.2989],[78.7593,31.3166],[78.7462,31.3617],[78.7823,31.443],[78.7517,31.4885],[78.7166,31.4849],[78.7068,31.5211],[78.7213,31.541],[78.7973,31.5762],[78.8228,31.6006],[78.8269,31.628],[78.7953,31.6492],[78.7796,31.6898],[78.7344,31.692],[78.7113,31.7413],[78.693,31.8143],[78.7205,31.8353],[78.7257,31.8864],[78.73,31.9115],[78.6993,31.9652],[78.6312,32.0253],[78.6012,32.0772],[78.5228,32.1201],[78.4502,32.1898],[78.4397,32.2093],[78.4607,32.2453],[78.4607,32.3372],[78.5188,32.4185],[78.4781,32.4259],[78.4381,32.4564],[78.4384,32.5054],[78.4014,32.5182],[78.3824,32.5297],[78.3104,32.4759],[78.2785,32.5079],[78.2992,32.5293],[78.2966,32.5775],[78.3318,32.5849],[78.3888,32.6232],[78.3632,32.672],[78.3778,32.7193],[78.3714,32.7618],[78.3447,32.7634],[78.2877,32.7378],[78.2957,32.7128],[78.2366,32.6947],[78.225,32.6756],[78.184,32.6639],[78.136,32.6703],[78.0934,32.6622],[78.0675,32.6256],[78.0441,32.6288],[78.0358,32.5919],[77.9767,32.5919],[77.9202,32.6795],[77.9033,32.6931],[77.9179,32.7569],[77.867,32.7903],[77.8613,32.8162],[77.8251,32.8399],[77.7614,32.8648],[77.7902,32.9054],[77.7125,32.9718],[77.6652,32.986],[77.6533,32.9594],[77.5864,32.9399],[77.5196,32.8874],[77.4846,32.8865],[77.4552,32.8617],[77.4257,32.8837],[77.3794,32.8808],[77.3587,32.8564],[77.3565,32.8253],[77.3216,32.8224],[77.2283,32.8956],[77.1507,32.9202],[77.1364,32.9805],[77.1032,32.9872],[77.0749,32.9734],[77.0353,32.9997],[76.9985,32.9896],[76.9175,33.0337],[76.8772,33.1142],[76.8526,33.1115],[76.8035,33.1557],[76.8033,33.1939],[76.8186,33.2056],[76.7854,33.2536],[76.7299,33.1794],[76.6967,33.1815],[76.627,33.1625],[76.5996,33.1738],[76.5819,33.2069],[76.5475,33.2095],[76.4691,33.1799],[76.3917,33.1867],[76.3589,33.1575],[76.275,33.104],[76.2552,33.0523],[76.2373,33.0326],[76.1522,33.0229],[76.0937,33.0048],[76.0822,32.9688],[76.0172,32.9176],[75.9338,32.8843],[75.9001,32.9157],[75.8671,32.9302],[75.808,32.9298],[75.7874,32.8933],[75.8211,32.8428],[75.8738,32.8137],[75.9125,32.7571],[75.8966,32.6911],[75.9236,32.6437],[75.8378,32.5376],[75.8043,32.4871],[75.7459,32.4763],[75.7115,32.4182],[75.6481,32.3888],[75.5926,32.3817],[75.5452,32.3608],[75.5243,32.34],[75.5158,32.298],[75.4989,32.2753],[75.4735,32.3392],[75.415,32.3243],[75.3318,32.3447],[75.3223,32.3373]],[[88.9839,26.2947],[88.9545,26.2747],[88.928,26.2919],[88.9181,26.3257],[88.9384,26.335],[88.9608,26.2951],[88.9839,26.2947]]],[[[72.6807,21.154],[72.6649,21.1485],[72.6757,21.1051],[72.7104,21.1407],[72.6807,21.154]]],[[[69.6304,22.4576],[69.594,22.4457],[69.5921,22.4282],[69.6365,22.4065],[69.656,22.4246],[69.6304,22.4576]]],[[[69.9207,22.5515],[69.9004,22.5462],[69.8965,22.5118],[69.9415,22.5179],[69.9324,22.5446],[69.9207,22.5515]]],[[[70.0129,22.5915],[69.9651,22.5779],[69.9638,22.5454],[70.0079,22.554],[70.0129,22.5915]]],[[[79.3168,9.3268],[79.2793,9.3121],[79.2676,9.2932],[79.2204,9.2921],[79.224,9.2593],[79.2818,9.2535],[79.4165,9.1838],[79.326,9.2618],[79.3146,9.2824],[79.3351,9.3115],[79.3168,9.3268]]],[[[80.1485,13.6132],[80.1279,13.5785],[80.154,13.5557],[80.1626,13.6049],[80.1485,13.6132]]],[[[93.8481,7.2333],[93.8119,7.2136],[93.755,7.2114],[93.7336,7.1872],[93.6861,7.19],[93.6758,7.1728],[93.6747,7.1125],[93.6644,7.0485],[93.6861,7.0183],[93.723,6.9919],[93.7506,6.9289],[93.7801,6.8836],[93.7738,6.8641],[93.8093,6.8037],[93.8049,6.7645],[93.8349,6.7556],[93.8509,6.8161],[93.8957,6.8044],[93.9088,6.8288],[93.8936,6.8469],[93.9003,6.8958],[93.9181,6.9469],[93.935,6.9635],[93.9156,7.004],[93.9167,7.0484],[93.8878,7.0864],[93.8836,7.1838],[93.8481,7.2333]]],[[[93.7169,7.4333],[93.7072,7.3939],[93.6325,7.3706],[93.6361,7.3214],[93.6219,7.3114],[93.6292,7.2697],[93.6483,7.2425],[93.6794,7.2847],[93.725,7.31],[93.7565,7.3744],[93.7214,7.4022],[93.7169,7.4333]]],[[[93.3847,8.0219],[93.3364,8.0122],[93.3106,7.9619],[93.3172,7.9336],[93.3564,7.8889],[93.38,7.8822],[93.3975,7.9019],[93.4747,7.8925],[93.4597,7.9375],[93.4022,7.9764],[93.4097,8.0071],[93.3847,8.0219]]],[[[93.5514,8.0269],[93.5072,7.9847],[93.5739,7.9289],[93.5828,7.9917],[93.5514,8.0269]]],[[[93.5323,8.2307],[93.4947,8.2228],[93.4906,8.1989],[93.4539,8.1736],[93.4594,8.1222],[93.4806,8.0861],[93.4839,8.0561],[93.5483,8.0883],[93.5044,8.1443],[93.5447,8.1961],[93.5323,8.2307]]],[[[93.1308,8.3506],[93.0953,8.3403],[93.0853,8.3079],[93.0872,8.2694],[93.1153,8.2269],[93.1792,8.1958],[93.1943,8.225],[93.1543,8.243],[93.1264,8.2833],[93.1411,8.3294],[93.1308,8.3506]]],[[[92.7947,9.2378],[92.7653,9.2147],[92.7211,9.2142],[92.7197,9.1461],[92.7317,9.1244],[92.8114,9.1236],[92.8306,9.1387],[92.8183,9.2145],[92.7947,9.2378]]],[[[93.8692,12.2939],[93.8397,12.3208],[93.8187,12.3004],[93.8267,12.2449],[93.8807,12.2366],[93.8692,12.2939]]],[[[92.5278,10.89],[92.4925,10.8892],[92.4564,10.86],[92.4183,10.7953],[92.3815,10.7622],[92.3836,10.6742],[92.4083,10.6486],[92.4206,10.6147],[92.3819,10.5408],[92.419,10.5476],[92.4622,10.5361],[92.499,10.5112],[92.5318,10.5189],[92.5686,10.5767],[92.5398,10.6106],[92.5527,10.6378],[92.5968,10.6783],[92.5983,10.7031],[92.5828,10.7425],[92.5877,10.7869],[92.5637,10.8041],[92.5594,10.8608],[92.5278,10.89]]],[[[92.6453,11.5113],[92.6208,11.4974],[92.6111,11.4586],[92.6229,11.4053],[92.5871,11.4005],[92.5812,11.3667],[92.5994,11.3468],[92.638,11.3463],[92.6909,11.3703],[92.6641,11.395],[92.6858,11.4366],[92.6686,11.49],[92.6453,11.5113]]],[[[92.2235,11.5904],[92.2126,11.535],[92.2604,11.5175],[92.2747,11.5359],[92.2626,11.5898],[92.2235,11.5904]]],[[[92.7037,12.2328],[92.6622,12.2159],[92.6236,12.1028],[92.6256,12.0608],[92.6131,12.0066],[92.611,11.8713],[92.5868,11.8875],[92.5654,11.9432],[92.5266,11.8954],[92.5135,11.848],[92.549,11.8161],[92.5523,11.7213],[92.5881,11.7179],[92.592,11.6712],[92.6124,11.6352],[92.6056,11.6088],[92.6422,11.5605],[92.6469,11.522],[92.6672,11.5039],[92.7279,11.5162],[92.7407,11.5926],[92.7529,11.6096],[92.7567,11.6651],[92.7154,11.6776],[92.7026,11.696],[92.7549,11.7174],[92.7881,11.8839],[92.7882,11.9198],[92.7709,11.94],[92.7463,11.9318],[92.716,11.9508],[92.7337,11.998],[92.7539,12.027],[92.7757,12.0312],[92.7358,12.0845],[92.7362,12.1066],[92.7575,12.1764],[92.7127,12.1756],[92.7037,12.2328]]],[[[92.7334,12.2402],[92.722,12.1955],[92.747,12.1805],[92.7681,12.2014],[92.7623,12.2294],[92.7334,12.2402]]],[[[92.9732,12.0368],[92.9308,12.0056],[92.9596,11.9813],[92.9744,11.9484],[92.9947,11.94],[93.0225,11.9009],[93.054,11.9032],[93.0072,12.0003],[93.0095,12.0189],[92.9732,12.0368]]],[[[92.9954,12.107],[92.9596,12.1065],[92.9618,12.0722],[92.9928,12.0436],[93.0053,12.0992],[92.9954,12.107]]],[[[93.0272,12.1475],[92.9617,12.1505],[92.9623,12.1228],[93.0073,12.1072],[93.007,12.0758],[93.0344,12.0606],[93.0272,12.1475]]],[[[93.0749,12.2102],[93.0536,12.1855],[93.0372,12.1335],[93.0663,12.098],[93.0908,12.1],[93.0866,12.1931],[93.0749,12.2102]]],[[[92.7829,12.311],[92.7818,12.2855],[92.7423,12.2455],[92.7699,12.2369],[92.7697,12.2007],[92.7403,12.1022],[92.7647,12.0633],[92.7895,12.0819],[92.8226,12.1655],[92.8553,12.1711],[92.8538,12.2039],[92.8722,12.2261],[92.8589,12.2458],[92.8831,12.2634],[92.8715,12.2983],[92.8303,12.3003],[92.81,12.3128],[92.792,12.3047],[92.7829,12.311]]],[[[92.9533,12.4094],[92.9329,12.419],[92.9193,12.3646],[92.9323,12.3594],[92.9533,12.4094]]],[[[92.9038,12.9158],[92.8735,12.8812],[92.8448,12.8751],[92.8417,12.8756],[92.8402,12.8783],[92.843,12.8854],[92.8397,12.8913],[92.8341,12.8855],[92.8306,12.8847],[92.8269,12.8875],[92.8243,12.8953],[92.7919,12.8899],[92.7932,12.8632],[92.7239,12.8271],[92.7212,12.7877],[92.7415,12.7245],[92.7301,12.6981],[92.7443,12.6677],[92.705,12.5964],[92.7088,12.5562],[92.6942,12.5157],[92.7086,12.4931],[92.6981,12.421],[92.7008,12.3362],[92.7204,12.3003],[92.7548,12.2957],[92.7719,12.3178],[92.7951,12.3061],[92.8097,12.3149],[92.8324,12.3026],[92.8781,12.3132],[92.8792,12.3579],[92.8386,12.395],[92.8286,12.4231],[92.897,12.4295],[92.9412,12.4492],[92.9353,12.4698],[92.9591,12.4867],[92.9747,12.5318],[92.9561,12.6081],[92.9652,12.6798],[92.9769,12.7182],[92.9625,12.7529],[92.9345,12.7816],[92.9533,12.8094],[92.9275,12.8846],[92.9038,12.9158]]],[[[93.0311,13.5686],[92.9939,13.5653],[92.9647,13.5444],[92.9175,13.5364],[92.9294,13.5017],[92.8989,13.4761],[92.8728,13.4725],[92.8842,13.4297],[92.8453,13.4086],[92.8592,13.3853],[92.8361,13.3661],[92.8275,13.2686],[92.8317,13.2133],[92.8133,13.1658],[92.81,13.1269],[92.82,13.1011],[92.7967,13.0894],[92.7911,13.0119],[92.8016,12.939],[92.7942,12.9144],[92.8246,12.8968],[92.8277,12.8882],[92.83,12.8862],[92.8384,12.8917],[92.8428,12.8919],[92.8439,12.8856],[92.8417,12.8766],[92.8576,12.8787],[92.8729,12.8832],[92.8589,12.9034],[92.8795,12.9727],[92.9069,12.985],[92.9163,13.0542],[92.9671,13.0135],[93.0039,13.0286],[93.036,13.0912],[93.0322,13.1789],[93.0561,13.2328],[93.0575,13.2564],[93.0133,13.3069],[92.9797,13.3347],[93.0033,13.3533],[93.0717,13.3475],[93.0364,13.4167],[93.0332,13.4576],[93.045,13.5253],[93.0311,13.5686]]],[[[92.7004,12.9883],[92.6698,12.9625],[92.6798,12.9411],[92.651,12.8467],[92.6667,12.8031],[92.689,12.8167],[92.7195,12.8742],[92.7204,12.9758],[92.7004,12.9883]]],[[[88.84,21.6039],[88.8283,21.5769],[88.8539,21.55],[88.9033,21.5614],[88.8761,21.5922],[88.84,21.6039]]],[[[88.73,21.6319],[88.7072,21.5942],[88.7358,21.5717],[88.7469,21.5775],[88.7481,21.591],[88.7572,21.599],[88.7515,21.6038],[88.7359,21.6107],[88.73,21.6319]]],[[[88.7756,21.6467],[88.7296,21.64],[88.7537,21.6043],[88.7582,21.6],[88.7581,21.5972],[88.7492,21.5901],[88.7511,21.5769],[88.7981,21.5917],[88.7739,21.6197],[88.7756,21.6467]]],[[[88.99,21.6981],[88.9732,21.6974],[88.951,21.701],[88.964,21.6457],[88.9924,21.6441],[88.9981,21.6047],[89.0366,21.6136],[89.0212,21.6423],[88.9879,21.653],[88.99,21.6981]]],[[[88.5778,21.687],[88.5708,21.666],[88.5548,21.6474],[88.6031,21.6267],[88.5778,21.687]]],[[[89.0621,21.7192],[89.0229,21.7161],[89.0264,21.6879],[89.0209,21.6624],[89.0285,21.6353],[89.0516,21.6175],[89.0906,21.6339],[89.0923,21.6657],[89.0621,21.7192]]],[[[88.6984,21.709],[88.687,21.6833],[88.7251,21.6382],[88.7406,21.6543],[88.7074,21.6812],[88.6984,21.709]]],[[[88.8097,21.6953],[88.7647,21.6931],[88.7594,21.6631],[88.7969,21.6553],[88.8097,21.6953]]],[[[88.5517,21.7356],[88.5172,21.7114],[88.5378,21.6424],[88.5667,21.6636],[88.5673,21.6932],[88.5874,21.7093],[88.5706,21.7306],[88.5517,21.7356]]],[[[88.8878,21.7425],[88.8725,21.7206],[88.8878,21.6581],[88.9178,21.6331],[88.9419,21.6897],[88.9142,21.7253],[88.8878,21.7425]]],[[[88.9839,21.7252],[88.9925,21.7014],[88.993,21.6514],[89.0178,21.6612],[89.0242,21.6877],[88.9839,21.7252]]],[[[88.8381,21.7647],[88.7805,21.7311],[88.815,21.71],[88.8231,21.6711],[88.8089,21.6388],[88.8458,21.62],[88.86,21.6372],[88.8422,21.6811],[88.84,21.7156],[88.8616,21.7616],[88.8381,21.7647]]],[[[88.9339,21.7617],[88.9228,21.7197],[88.9502,21.7023],[88.9731,21.6986],[88.9694,21.7228],[88.9772,21.7342],[88.9638,21.7524],[88.9339,21.7617]]],[[[88.7198,21.8026],[88.6961,21.7519],[88.7111,21.6902],[88.7578,21.6837],[88.7508,21.7369],[88.7593,21.7592],[88.7281,21.7778],[88.7198,21.8026]]],[[[89.012,21.7649],[89.0016,21.75],[89.0169,21.7312],[89.0174,21.7178],[89.0565,21.7241],[89.012,21.7649]]],[[[88.585,21.7661],[88.5797,21.7258],[88.6161,21.7408],[88.5872,21.7522],[88.585,21.7661]]],[[[88.6168,21.7864],[88.5892,21.7798],[88.5876,21.7547],[88.6308,21.7425],[88.6168,21.7864]]],[[[89.0061,21.7837],[88.9892,21.7886],[88.9511,21.7581],[88.9653,21.7527],[88.9728,21.7415],[88.9839,21.7481],[88.9887,21.7398],[88.9767,21.7286],[89.0037,21.7161],[89.0136,21.7326],[89.0014,21.746],[88.9977,21.7714],[89.0061,21.7837]]],[[[88.7842,21.7392],[88.7822,21.7669],[88.7958,21.7872],[88.7863,21.8229],[88.7664,21.7868],[88.7498,21.7697],[88.7842,21.7392]]],[[[88.8248,21.7991],[88.7842,21.7663],[88.8104,21.7503],[88.8303,21.7667],[88.8248,21.7991]]],[[[88.9206,21.8231],[88.8831,21.8081],[88.9181,21.775],[88.9206,21.8231]]],[[[88.8561,21.8614],[88.8372,21.8431],[88.835,21.7817],[88.8763,21.7672],[88.8822,21.7972],[88.8772,21.8517],[88.8581,21.8553],[88.8561,21.8614]]],[[[88.5967,21.8475],[88.576,21.817],[88.5953,21.7964],[88.6181,21.8292],[88.5967,21.8475]]],[[[88.9838,21.8922],[88.979,21.8718],[88.9769,21.8647],[88.9661,21.8599],[88.9503,21.8369],[88.9919,21.8103],[89.03,21.8345],[89.0289,21.8658],[88.9838,21.8922]]],[[[82.3321,16.7249],[82.3199,16.7068],[82.2851,16.6976],[82.2607,16.6465],[82.2838,16.6426],[82.2974,16.6129],[82.3193,16.6207],[82.3185,16.6513],[82.3449,16.7051],[82.3321,16.7249]]],[[[86.8891,20.7676],[86.8542,20.7758],[86.83,20.76],[86.8015,20.6834],[86.7792,20.6558],[86.7847,20.6442],[86.7925,20.6461],[86.8058,20.6453],[86.8151,20.6378],[86.8219,20.6471],[86.8302,20.6725],[86.8535,20.6567],[86.8929,20.6951],[86.9364,20.7167],[87.0014,20.7158],[87.0069,20.7431],[86.9919,20.7711],[86.8891,20.7676]]],[[[88.505,21.5933],[88.4853,21.5858],[88.4817,21.5547],[88.5308,21.5422],[88.5339,21.5781],[88.505,21.5933]]],[[[88.5427,21.6347],[88.5137,21.5983],[88.5664,21.5689],[88.5839,21.6108],[88.5427,21.6347]]],[[[88.3244,21.7058],[88.3058,21.6291],[88.3384,21.6218],[88.3539,21.6494],[88.3511,21.6781],[88.3244,21.7058]]],[[[88.2295,21.7619],[88.2112,21.7244],[88.2061,21.675],[88.233,21.669],[88.2347,21.6354],[88.2172,21.6153],[88.2456,21.5911],[88.2483,21.5639],[88.2917,21.5631],[88.2883,21.6231],[88.3117,21.6719],[88.2617,21.7332],[88.272,21.7544],[88.2295,21.7619]]],[[[88.2078,21.7161],[88.1813,21.6875],[88.205,21.6097],[88.2304,21.6391],[88.2263,21.6702],[88.199,21.6758],[88.2078,21.7161]]],[[[88.4572,21.7047],[88.4194,21.6892],[88.4201,21.6531],[88.4511,21.6206],[88.4707,21.673],[88.4572,21.7047]]],[[[88.4166,21.7254],[88.3797,21.6808],[88.3874,21.6115],[88.4319,21.6274],[88.4147,21.6489],[88.4114,21.6835],[88.4286,21.702],[88.4166,21.7254]]],[[[88.371,21.7632],[88.3426,21.7539],[88.3489,21.7256],[88.3376,21.7098],[88.3655,21.6872],[88.3883,21.7025],[88.3597,21.7345],[88.371,21.7632]]],[[[88.4642,21.7895],[88.4235,21.7683],[88.4331,21.7045],[88.4672,21.7372],[88.4642,21.7895]]],[[[88.139,21.8706],[88.122,21.8657],[88.0729,21.7802],[88.0614,21.7344],[88.0442,21.7177],[88.0417,21.6492],[88.0706,21.6339],[88.1289,21.6281],[88.1547,21.65],[88.1536,21.6925],[88.1707,21.7424],[88.1645,21.792],[88.1725,21.812],[88.139,21.8706]]],[[[88.5626,21.8007],[88.5406,21.8106],[88.5042,21.7708],[88.5044,21.7508],[88.5344,21.7332],[88.554,21.7364],[88.5722,21.735],[88.5626,21.8007]]],[[[88.4266,21.8071],[88.4197,21.8108],[88.3827,21.7791],[88.4019,21.7519],[88.4427,21.7997],[88.4296,21.7996],[88.4266,21.8071]]],[[[88.3388,21.8595],[88.3077,21.8303],[88.2659,21.8137],[88.2626,21.7953],[88.2983,21.7772],[88.3097,21.7338],[88.345,21.7217],[88.3398,21.751],[88.3435,21.7603],[88.3571,21.7669],[88.378,21.7694],[88.3514,21.8219],[88.3527,21.8542],[88.3388,21.8595]]],[[[88.4255,21.9024],[88.3995,21.8708],[88.3925,21.8326],[88.4032,21.7976],[88.4183,21.8116],[88.4269,21.8103],[88.4306,21.8005],[88.4497,21.8044],[88.4522,21.8205],[88.4892,21.8389],[88.4838,21.8853],[88.452,21.9048],[88.4403,21.9061],[88.4344,21.9011],[88.4255,21.9024]]],[[[88.5684,21.9001],[88.5613,21.8976],[88.5449,21.9047],[88.5503,21.881],[88.5317,21.8503],[88.5631,21.8309],[88.5764,21.8886],[88.5684,21.9001]]],[[[88.1439,22.0219],[88.0939,22.0114],[88.0656,21.9814],[88.0477,21.9329],[88.0918,21.9455],[88.1439,22.0219]]],[[[88.7922,21.8754],[88.7658,21.8289],[88.7842,21.8261],[88.7944,21.8125],[88.8211,21.825],[88.8297,21.8622],[88.7922,21.8754]]],[[[88.6253,21.8958],[88.5947,21.8544],[88.6423,21.8069],[88.6535,21.8677],[88.6253,21.8958]]],[[[88.7231,21.9017],[88.6983,21.86],[88.7075,21.8114],[88.7183,21.8081],[88.7258,21.7944],[88.7528,21.8119],[88.7806,21.8594],[88.7714,21.8764],[88.7592,21.8783],[88.7422,21.8989],[88.7289,21.8986],[88.7231,21.9017]]],[[[88.8881,21.9145],[88.8394,21.9064],[88.8542,21.8894],[88.8542,21.8697],[88.8611,21.8558],[88.8781,21.8539],[88.89,21.8122],[88.9528,21.8514],[88.9644,21.8631],[88.9767,21.8689],[88.9661,21.8903],[88.9739,21.8978],[88.9146,21.9281],[88.8881,21.9145]]],[[[88.7264,21.9275],[88.7167,21.9178],[88.7189,21.9092],[88.7292,21.8997],[88.7408,21.9006],[88.7506,21.8956],[88.7583,21.88],[88.7864,21.8786],[88.8081,21.8844],[88.7994,21.9197],[88.7869,21.9175],[88.775,21.9245],[88.7558,21.9269],[88.7442,21.9192],[88.7264,21.9275]]],[[[88.8208,21.9405],[88.8566,21.9191],[88.9073,21.9295],[88.8997,22.0131],[88.8131,22.0192],[88.762,22.0152],[88.7497,21.9819],[88.7569,21.9725],[88.7517,21.9569],[88.7614,21.9533],[88.7756,21.9433],[88.8208,21.9405]]],[[[88.7508,21.9783],[88.7249,21.9779],[88.7222,21.943],[88.7409,21.922],[88.7617,21.9308],[88.7897,21.9203],[88.8053,21.9331],[88.7758,21.9415],[88.7608,21.9511],[88.7503,21.9553],[88.7495,21.959],[88.7508,21.9783]]],[[[88.6652,22.0172],[88.6349,21.996],[88.6344,21.9511],[88.6782,21.9429],[88.7158,22.0006],[88.6652,22.0172]]],[[[89.0217,22.0503],[88.9852,22.0552],[88.9681,22.0144],[88.9769,22.0083],[88.9756,21.9914],[89.0181,21.9755],[89.0043,21.9441],[89.0303,21.9264],[89.0598,21.932],[89.078,21.9869],[89.0412,22.0485],[89.0217,22.0503]]],[[[88.9567,22.19],[88.9197,22.1611],[88.9088,22.1347],[88.9307,22.0981],[88.9014,22.0653],[88.9127,21.9944],[88.9315,21.9421],[88.9455,21.9292],[89.0126,21.902],[89.0213,21.9217],[88.9946,21.942],[88.9875,21.9838],[88.9725,21.9878],[88.9757,22.0043],[88.9673,22.0111],[88.9672,22.0196],[88.9581,22.0602],[88.9842,22.1231],[88.9849,22.1485],[88.9567,22.19]]],[[[88.808,22.082],[88.7783,22.1021],[88.7481,22.0582],[88.7829,22.0496],[88.808,22.082]]],[[[88.8231,22.1233],[88.7989,22.1114],[88.8055,22.0851],[88.8381,22.0731],[88.8675,22.0825],[88.8457,22.1194],[88.8231,22.1233]]],[[[88.7808,22.1619],[88.7655,22.192],[88.7319,22.194],[88.6999,22.2082],[88.6529,22.1634],[88.6368,22.1205],[88.6616,22.0522],[88.6634,22.0244],[88.7213,22.0054],[88.7325,22.0362],[88.6884,22.0598],[88.6828,22.0802],[88.7381,22.1345],[88.7808,22.1619]]],[[[89.0078,22.1978],[88.9727,22.1934],[88.9961,22.1269],[88.9804,22.0793],[88.9853,22.057],[89.0388,22.0549],[89.0311,22.0933],[89.0505,22.1306],[89.0224,22.1484],[89.0078,22.1978]]],[[[88.8716,22.1681],[88.8459,22.122],[88.8607,22.0951],[88.9081,22.087],[88.9228,22.1],[88.8866,22.1645],[88.8716,22.1681]]],[[[88.85,22.1918],[88.8128,22.1788],[88.7462,22.1319],[88.7346,22.104],[88.7029,22.0788],[88.7392,22.057],[88.7719,22.1064],[88.8473,22.1416],[88.85,22.1918]]],[[[88.9409,22.2234],[88.9188,22.2308],[88.9081,22.1968],[88.9315,22.177],[88.9611,22.2003],[88.9409,22.2234]]],[[[88.815,22.2788],[88.7951,22.2761],[88.7916,22.2584],[88.7529,22.2315],[88.7482,22.1973],[88.7694,22.1919],[88.7885,22.1786],[88.8152,22.1812],[88.8004,22.2279],[88.8257,22.2414],[88.815,22.2788]]],[[[88.8544,22.3608],[88.8183,22.3589],[88.8042,22.3297],[88.805,22.2956],[88.8273,22.2655],[88.8284,22.2419],[88.8058,22.2206],[88.8392,22.1956],[88.86,22.2052],[88.8723,22.1714],[88.8982,22.1779],[88.9298,22.2637],[88.9372,22.2983],[88.9117,22.312],[88.8916,22.3431],[88.8544,22.3608]]],[[[88.9831,22.3779],[88.9646,22.3674],[88.9514,22.3251],[88.9472,22.2556],[88.9678,22.2161],[89.0197,22.2056],[89.0229,22.1663],[89.0608,22.1673],[89.0669,22.1983],[89.037,22.2267],[89.0324,22.2573],[88.9942,22.2856],[88.9838,22.325],[88.9831,22.3779]]],[[[88.9248,22.5619],[88.895,22.5596],[88.9144,22.5111],[88.8947,22.4661],[88.9258,22.4062],[88.9153,22.3919],[88.8964,22.3798],[88.9073,22.3358],[88.9419,22.3099],[88.9636,22.4036],[88.9986,22.4303],[88.9953,22.4669],[88.9714,22.4989],[88.96,22.5486],[88.9248,22.5619]]],[[[88.9003,22.5444],[88.878,22.5416],[88.8567,22.51],[88.8548,22.4379],[88.8619,22.4128],[88.8822,22.4036],[88.8858,22.3765],[88.9167,22.3951],[88.8923,22.4654],[88.9033,22.5044],[88.9003,22.5444]]],[[[68.5599,23.3115],[68.5724,23.261],[68.6149,23.2715],[68.6121,23.2965],[68.5599,23.3115]]],[[[68.4763,23.4787],[68.4582,23.4179],[68.4846,23.4032],[68.4949,23.456],[68.4763,23.4787]]],[[[68.4837,23.5951],[68.4354,23.5571],[68.446,23.5401],[68.4854,23.5751],[68.4837,23.5951]]],[[[68.3626,23.8035],[68.3349,23.7562],[68.3379,23.7296],[68.2688,23.6515],[68.1929,23.6351],[68.1874,23.611],[68.2829,23.6004],[68.2949,23.5788],[68.3468,23.5982],[68.3587,23.6276],[68.3904,23.6543],[68.4185,23.7243],[68.4262,23.7949],[68.3979,23.7849],[68.3626,23.8035]]],[[[68.3115,23.8221],[68.2982,23.8037],[68.2735,23.7926],[68.2646,23.754],[68.2718,23.7038],[68.3243,23.7343],[68.3138,23.7868],[68.3224,23.8049],[68.3115,23.8221]]],[[[68.5026,23.8293],[68.4479,23.8065],[68.4565,23.774],[68.4371,23.7432],[68.4949,23.7374],[68.5168,23.7546],[68.5224,23.7754],[68.5124,23.7888],[68.5229,23.8037],[68.5026,23.8293]]],[[[68.3988,23.8765],[68.3443,23.8393],[68.3551,23.811],[68.399,23.7896],[68.4265,23.8104],[68.4393,23.839],[68.3988,23.8765]]],[[[68.4318,23.9938],[68.4013,23.9688],[68.3599,23.9776],[68.346,23.9326],[68.3262,23.9143],[68.289,23.9218],[68.2613,23.8865],[68.2543,23.8587],[68.2093,23.811],[68.2118,23.7635],[68.1926,23.731],[68.2379,23.6813],[68.2551,23.7113],[68.2621,23.7601],[68.2743,23.7974],[68.2888,23.8174],[68.3037,23.8246],[68.314,23.8218],[68.3376,23.8193],[68.3504,23.9085],[68.3871,23.9143],[68.419,23.9346],[68.4326,23.9599],[68.4318,23.9938]]],[[[68.4529,23.9368],[68.4274,23.9335],[68.4201,23.921],[68.3863,23.9063],[68.3637,23.906],[68.3504,23.8913],[68.3565,23.8632],[68.3935,23.8804],[68.426,23.8646],[68.4521,23.8818],[68.4529,23.9368]]],[[[68.5379,23.9413],[68.5287,23.9151],[68.4863,23.8904],[68.491,23.8663],[68.5468,23.8729],[68.5646,23.8938],[68.5671,23.9035],[68.5796,23.9138],[68.5826,23.9229],[68.5585,23.9232],[68.5379,23.9413]]],[[[68.4876,23.991],[68.4482,23.9813],[68.4282,23.9379],[68.4418,23.9363],[68.4488,23.9401],[68.4565,23.9343],[68.4532,23.8799],[68.5185,23.9243],[68.4876,23.991]]]]},"properties":{"GID_0":"IND","ISO_A2":"IN","ISO_A3":"IND","NAME_EN":"India","NAME_IT":"India"}},
{"type":"Feature","geometry":{"type":"Polygon","coordinates":[[[78.4014,32.5182],[78.4122,32.5561],[78.4527,32.5795],[78.4856,32.5732],[78.5264,32.6065],[78.5593,32.6123],[78.6033,32.6044],[78.6323,32.6111],[78.6544,32.6492],[78.7365,32.6959],[78.7603,32.6842],[78.7803,32.5983],[78.7652,32.5749],[78.7812,32.4753],[78.836,32.4253],[78.8746,32.4146],[78.9147,32.3671],[78.9772,32.3428],[78.9938,32.3643],[79.0675,32.385],[79.1045,32.3717],[79.1212,32.4161],[79.1181,32.45],[79.1489,32.4838],[79.203,32.5108],[79.2492,32.5225],[79.2641,32.5899],[79.292,32.6534],[79.2646,32.6742],[79.2871,32.7526],[79.2889,32.7932],[79.2498,32.8321],[79.2788,32.8829],[79.2823,32.9354],[79.26,32.9847],[79.2301,33.0002],[79.1622,33.0147],[79.1487,33.0526],[79.1554,33.0902],[79.1884,33.1294],[79.1956,33.157],[79.1805,33.1946],[79.1414,33.2001],[79.075,33.2286],[79.0666,33.2959],[78.9887,33.3474],[78.9727,33.3673],[78.9213,33.3987],[78.8233,33.4835],[78.764,33.5618],[78.7107,33.6558],[78.7093,33.6796],[78.7752,33.7462],[78.7751,33.8013],[78.7418,33.8402],[78.7172,33.8905],[78.7147,33.9611],[78.7636,34.0015],[78.7606,34.0361],[78.7121,34.0505],[78.7064,34.0722],[78.7292,34.0957],[78.8711,34.1572],[78.9562,34.2178],[78.9934,34.2887],[78.9901,34.3178],[78.9225,34.3754],[78.8377,34.4068],[78.763,34.4605],[78.7301,34.4967],[78.6601,34.5297],[78.6111,34.5831],[78.5693,34.6119],[78.4822,34.6033],[78.4181,34.6054],[78.3872,34.6516],[78.2844,34.6674],[78.248,34.6951],[78.2073,34.7661],[78.1846,34.8815],[78.1335,34.9709],[78.0829,35.0825],[78.1171,35.1116],[78.1161,35.1454],[78.0587,35.1839],[78.0177,35.2498],[78.002,35.2946],[77.9903,35.379],[78.0212,35.4169],[78.0973,35.4556],[78.0794,35.4922],[77.9906,35.4871],[77.9513,35.4736],[77.928,35.4405],[77.8886,35.4289],[77.8627,35.4586],[77.8468,35.5008],[77.7355,35.4338],[77.6506,35.3671],[77.585,35.3239],[77.4854,35.2665],[77.4425,35.2344],[77.2808,35.1383],[77.1568,35.0547],[77.0684,35.0241],[77.0109,35.0276],[77.0101,34.9563],[76.9975,34.9392],[76.9503,34.9409],[76.8835,34.9703],[76.8632,34.9708],[76.8111,34.9355],[76.7624,34.933],[76.7389,34.9019],[76.7447,34.8447],[76.6716,34.7574],[76.5618,34.7583],[76.5141,34.7838],[76.4692,34.7917],[76.3859,34.736],[76.3161,34.7316],[76.2751,34.6936],[76.1579,34.6434],[76.1219,34.6467],[76.0858,34.6715],[76.0365,34.6703],[76.0004,34.6358],[75.9322,34.6244],[75.9186,34.6048],[75.8433,34.5746],[75.793,34.5339],[75.7492,34.5158],[75.5919,34.5401],[75.5061,34.5373],[75.395,34.5488],[75.3505,34.5622],[75.2619,34.6109],[75.2661,34.6395],[75.2067,34.6463],[75.1423,34.6624],[75.0187,34.6415],[74.8938,34.6845],[74.8356,34.6776],[74.7281,34.6886],[74.6713,34.7007],[74.6388,34.7335],[74.5802,34.7701],[74.5066,34.7755],[74.474,34.7906],[74.3755,34.8034],[74.3462,34.7904],[74.3028,34.7975],[74.2699,34.7627],[74.203,34.7366],[74.1418,34.6912],[74.0417,34.6873],[74.0129,34.7099],[73.9602,34.6967],[73.9273,34.6459],[73.9481,34.5731],[73.8953,34.5467],[73.8987,34.4958],[73.8548,34.4734],[73.777,34.4163],[73.7632,34.3596],[73.8074,34.3567],[73.8418,34.3383],[73.8994,34.3598],[73.941,34.3017],[73.9762,34.2648],[73.9766,34.2118],[73.9041,34.1222],[73.8857,34.0751],[73.8982,34.0328],[74,34.0302],[74.0061,34.0224],[74.087,34.0378],[74.115,34.0538],[74.1614,34.0389],[74.2147,34.0386],[74.2487,34.0138],[74.2627,33.9743],[74.2611,33.9248],[74.2197,33.8672],[74.1701,33.8399],[74.09,33.8263],[74.049,33.8088],[74.0283,33.776],[73.9665,33.7403],[73.9563,33.7203],[73.9757,33.6936],[74,33.6237],[74.0284,33.5747],[74.0957,33.5704],[74.1781,33.4817],[74.1851,33.3835],[74.1669,33.3441],[74.103,33.2705],[74.0789,33.2602],[74.0244,33.2625],[74.0131,33.2499],[74.0143,33.1982],[74.0828,33.1807],[74.1117,33.1644],[74.1762,33.1072],[74.2052,33.0433],[74.255,33.0488],[74.3517,33.0131],[74.3464,32.9655],[74.318,32.9197],[74.3477,32.9082],[74.4061,32.907],[74.4251,32.8931],[74.4301,32.8447],[74.4661,32.7814],[74.5315,32.7407],[74.5671,32.7552],[74.6142,32.7577],[74.6415,32.7919],[74.642,32.8229],[74.6808,32.8382],[74.7004,32.827],[74.6675,32.7666],[74.6501,32.7184],[74.6756,32.6658],[74.6422,32.611],[74.6524,32.5602],[74.6805,32.5382],[74.6984,32.4849],[74.7989,32.4841],[74.8564,32.4927],[74.8997,32.4661],[74.9879,32.4496],[75.0302,32.4918],[75.0826,32.48],[75.1476,32.4134],[75.1795,32.4254],[75.2002,32.4023],[75.2315,32.3992],[75.3223,32.3373],[75.3318,32.3447],[75.415,32.3243],[75.4735,32.3392],[75.4989,32.2753],[75.5158,32.298],[75.5243,32.34],[75.5452,32.3608],[75.5926,32.3817],[75.6481,32.3888],[75.7115,32.4182],[75.7459,32.4763],[75.8043,32.4871],[75.8378,32.5376],[75.9236,32.6437],[75.8966,32.6911],[75.9125,32.7571],[75.8738,32.8137],[75.8211,32.8428],[75.7874,32.8933],[75.808,32.9298],[75.8671,32.9302],[75.9001,32.9157],[75.9338,32.8843],[76.0172,32.9176],[76.0822,32.9688],[76.0937,33.0048],[76.1522,33.0229],[76.2373,33.0326],[76.2552,33.0523],[76.275,33.104],[76.3589,33.1575],[76.3917,33.1867],[76.4691,33.1799],[76.5475,33.2095],[76.5819,33.2069],[76.5996,33.1738],[76.627,33.1625],[76.6967,33.1815],[76.7299,33.1794],[76.7854,33.2536],[76.8186,33.2056],[76.8033,33.1939],[76.8035,33.1557],[76.8526,33.1115],[76.8772,33.1142],[76.9175,33.0337],[76.9985,32.9896],[77.0353,32.9997],[77.0749,32.9734],[77.1032,32.9872],[77.1364,32.9805],[77.1507,32.9202],[77.2283,32.8956],[77.3216,32.8224],[77.3565,32.8253],[77.3587,32.8564],[77.3794,32.8808],[77.4257,32.8837],[77.4552,32.8617],[77.4846,32.8865],[77.5196,32.8874],[77.5864,32.9399],[77.6533,32.9594],[77.6652,32.986],[77.7125,32.9718],[77.7902,32.9054],[77.7614,32.8648],[77.8251,32.8399],[77.8613,32.8162],[77.867,32.7903],[77.9179,32.7569],[77.9033,32.6931],[77.9202,32.6795],[77.9767,32.5919],[78.0358,32.5919],[78.0441,32.6288],[78.0675,32.6256],[78.0934,32.6622],[78.136,32.6703],[78.184,32.6639],[78.225,32.6756],[78.2366,32.6947],[78.2957,32.7128],[78.2877,32.7378],[78.3447,32.7634],[78.3714,32.7618],[78.3778,32.7193],[78.3632,32.672],[78.3888,32.6232],[78.3318,32.5849],[78.2966,32.5775],[78.2992,32.5293],[78.2785,32.5079],[78.3104,32.4759],[78.3824,32.5297],[78.4014,32.5182]]]},"properties":{"GID_0":"IND","ISO_A2":"IN","ISO_A3":"IND","NAME_EN":"India","NAME_IT":"India"}},
{"type":"Feature","geometry":{"type":"Polygon","coordinates":[[[78.7257,31.8864],[78.771,31.9998],[78.7371,32.0041],[78.6574,32.0813],[78.6484,32.1064],[78.5973,32.122],[78.5747,32.1577],[78.5942,32.1885],[78.5929,32.2187],[78.5394,32.25],[78.4607,32.2453],[78.4397,32.2093],[78.4502,32.1898],[78.5228,32.1201],[78.6012,32.0772],[78.6312,32.0253],[78.6993,31.9652],[78.73,31.9115],[78.7257,31.8864]]]},"properties":{"GID_0":"IND","ISO_A2":"IN","ISO_A3":"IND","NAME_EN":"India","NAME_IT":"India"}},
{"type":"Feature","geometry":{"type":"Polygon","coordinates":[[[80.2053,30.5846],[80.209,30.6451],[80.1805,30.6699],[80.2198,30.6973],[80.2373,30.7407],[80.2228,30.7652],[80.1905,30.7638],[80.1675,30.8072],[80.1031,30.7797],[80.0741,30.7997],[80.0441,30.844],[79.9495,30.8874],[79.988,30.8543],[79.9919,30.8355],[80.0472,30.7899],[80.0638,30.7595],[80.0624,30.6941],[80.1128,30.6803],[80.1855,30.6164],[80.2053,30.5846]]]},"properties":{"GID_0":"IND","ISO_A2":"IN","ISO_A3":"IND","NAME_EN":"India","NAME_IT":"India"}},
{"type":"Feature","geometry":{"type":"Polygon","coordinates":[[[93.817,27.1582],[93.8674,27.1988],[93.901,27.2415],[94,27.3347],[94.0609,27.3636],[94.0863,27.4046],[94.1912,27.4963],[94.2591,27.5226],[94.2565,27.5574],[94.2265,27.5756],[94.2351,27.6325],[94.2877,27.5918],[94.3675,27.5767],[94.4209,27.6013],[94.4535,27.5709],[94.5002,27.5773],[94.5263,27.5958],[94.5735,27.607],[94.5915,27.6228],[94.6398,27.631],[94.6981,27.6671],[94.7427,27.6634],[94.7953,27.6981],[94.8488,27.7107],[94.8609,27.7395],[94.9232,27.7546],[95.0855,27.8503],[95.188,27.9033],[95.2697,27.9375],[95.3255,28.0994],[95.5613,28.195],[95.8758,28.2917],[95.8944,28.2883],[95.9117,28.2389],[96.0028,28.1867],[96.0317,28.1844],[96.0534,28.2022],[96.1063,28.1947],[96.1438,28.1751],[96.21,28.2314],[96.2463,28.2433],[96.2758,28.2155],[96.2978,28.1525],[96.3678,28.1269],[96.4368,28.1682],[96.5247,28.0822],[96.5653,28.0711],[96.6086,28.0469],[96.6414,27.9975],[96.6808,27.9703],[96.7461,27.9544],[96.7989,27.9261],[96.8161,27.8986],[96.8944,27.8911],[96.9614,27.8636],[96.9761,27.8281],[97.0164,27.8028],[97.0417,27.8044],[97.0422,27.7675],[97.0466,27.7497],[97.0964,27.7499],[97.1025,27.7934],[97.1603,27.8226],[97.2565,27.9095],[97.3087,27.93],[97.3435,27.8941],[97.3786,27.918],[97.3781,27.9862],[97.3986,28.0341],[97.366,28.0681],[97.3118,28.07],[97.3102,28.0933],[97.339,28.1195],[97.3308,28.163],[97.372,28.2004],[97.3747,28.2256],[97.2821,28.2763],[97.2412,28.2751],[97.2242,28.2999],[97.1694,28.3023],[97.1588,28.3269],[97.1259,28.3562],[97.0926,28.3697],[97.0453,28.3541],[96.9965,28.3162],[96.9259,28.345],[96.8987,28.3859],[96.8522,28.3684],[96.7744,28.3741],[96.7511,28.4217],[96.7169,28.4329],[96.6646,28.4658],[96.5796,28.4631],[96.5103,28.4183],[96.4583,28.4192],[96.432,28.3917],[96.4229,28.351],[96.3994,28.3445],[96.3709,28.3943],[96.3199,28.3862],[96.2745,28.424],[96.373,28.487],[96.3666,28.5047],[96.3243,28.5303],[96.3546,28.5606],[96.4066,28.564],[96.4444,28.606],[96.4952,28.6438],[96.4705,28.6846],[96.5322,28.7115],[96.5859,28.7216],[96.6136,28.7598],[96.6084,28.7981],[96.5375,28.8841],[96.5387,28.921],[96.5212,28.9652],[96.4875,28.9653],[96.4774,28.994],[96.5252,29.0793],[96.4358,29.0376],[96.3467,29.0323],[96.2937,28.9987],[96.2281,28.9293],[96.1665,28.9059],[96.1452,28.9375],[96.1804,28.9685],[96.1849,28.9881],[96.1504,29.0531],[96.1242,29.0807],[96.1695,29.0876],[96.2003,29.1059],[96.2175,29.1381],[96.2602,29.1602],[96.3464,29.171],[96.3585,29.1816],[96.3928,29.2565],[96.375,29.2837],[96.3126,29.2591],[96.293,29.2358],[96.2342,29.2435],[96.2032,29.2936],[96.1831,29.3093],[96.1858,29.3445],[96.15,29.3993],[96.0928,29.4564],[96.0556,29.4584],[96.0145,29.4214],[95.9571,29.3827],[95.8809,29.3915],[95.8403,29.3537],[95.7965,29.3363],[95.7776,29.3564],[95.7271,29.3025],[95.6312,29.249],[95.5987,29.2619],[95.5858,29.218],[95.5377,29.214],[95.5468,29.1287],[95.4963,29.1403],[95.4859,29.0763],[95.4543,29.037],[95.4101,29.0341],[95.3455,29.0461],[95.3027,29.0629],[95.2501,29.0686],[95.2508,29.1099],[95.1775,29.1086],[95.1135,29.1212],[95.0984,29.1438],[95.0397,29.1524],[94.9975,29.173],[94.9677,29.1598],[94.9188,29.1623],[94.8812,29.1818],[94.8466,29.183],[94.798,29.1646],[94.7979,29.21],[94.7665,29.2528],[94.6772,29.3278],[94.6282,29.3486],[94.6107,29.3012],[94.5739,29.2752],[94.5579,29.2289],[94.4945,29.2167],[94.4312,29.2268],[94.3723,29.1902],[94.3502,29.1502],[94.2976,29.1506],[94.2147,29.0841],[94.1752,29.0205],[94.1551,28.9548],[94.0788,28.9058],[94.0301,28.8535],[93.9949,28.8414],[93.9853,28.7983],[94.0014,28.7755],[93.9685,28.7514],[93.9656,28.7232],[93.9346,28.6771],[93.9041,28.6767],[93.844,28.7074],[93.7752,28.6685],[93.7316,28.6893],[93.607,28.6559],[93.5245,28.6613],[93.4955,28.684],[93.4742,28.6537],[93.4457,28.676],[93.4118,28.6529],[93.3323,28.6337],[93.3276,28.6083],[93.2999,28.5996],[93.3053,28.5663],[93.2759,28.5048],[93.2291,28.478],[93.1904,28.426],[93.2315,28.4007],[93.2227,28.3411],[93.1938,28.318],[93.1248,28.3268],[93.0954,28.3071],[93.0219,28.2999],[93.0338,28.2631],[93.0004,28.2308],[92.9645,28.2618],[92.9129,28.235],[92.8953,28.2046],[92.8265,28.172],[92.8193,28.1974],[92.783,28.1837],[92.6802,28.118],[92.6629,28.0628],[92.6954,28.0484],[92.7395,27.9894],[92.7013,27.9338],[92.6692,27.9001],[92.6051,27.8775],[92.5607,27.821],[92.5151,27.8402],[92.4925,27.8368],[92.4438,27.8008],[92.4139,27.823],[92.3798,27.795],[92.3074,27.7792],[92.2847,27.8076],[92.2674,27.8539],[92.2463,27.8635],[92.2003,27.8571],[92.1561,27.837],[92.0554,27.7591],[91.9839,27.77],[91.9451,27.7287],[91.8786,27.7218],[91.8605,27.7369],[91.8279,27.8076],[91.7581,27.8013],[91.6941,27.8221],[91.6693,27.8567],[91.6074,27.854],[91.5797,27.8633],[91.5548,27.8499],[91.5714,27.8174],[91.6092,27.8237],[91.6348,27.8036],[91.6459,27.7687],[91.6287,27.6993],[91.5738,27.661],[91.5666,27.6245],[91.5844,27.6089],[91.5669,27.5841],[91.5939,27.5435],[91.6517,27.4843],[91.6947,27.5059],[91.7144,27.4747],[91.7673,27.4649],[91.8481,27.4863],[91.8714,27.4708],[91.9233,27.4753],[91.9425,27.4599],[92.0188,27.4803],[92.0227,27.4458],[92.0583,27.4],[92.0472,27.3609],[92.0655,27.3263],[92.1248,27.2824],[92.0872,27.2691],[92.059,27.1942],[92.0268,27.1686],[92.0359,27.14],[92.0239,27.1095],[92.044,27.0516],[92.0828,27.0346],[92.1222,26.9579],[92.113,26.8924],[92.1948,26.891],[92.2546,26.9122],[92.2764,26.9025],[92.3029,26.9242],[92.3531,26.9356],[92.3998,26.9263],[92.4462,26.9606],[92.505,26.9668],[92.5852,26.9619],[92.6455,26.9874],[92.6589,27.0385],[92.7137,27.0261],[92.7691,27.033],[92.8724,27.0077],[92.9167,26.9847],[92.9178,26.9642],[93.0194,26.9168],[93.1843,26.9387],[93.2669,26.956],[93.3479,26.9632],[93.4479,26.9542],[93.4681,26.9389],[93.5842,26.9526],[93.6758,26.9711],[93.7189,27.0192],[93.7779,27.0528],[93.8367,27.0782],[93.8255,27.1193],[93.8002,27.1326],[93.8056,27.1378],[93.817,27.1582]]]},"properties":{"GID_0":"IND","ISO_A2":"IN","ISO_A3":"IND","NAME_EN":"India","NAME_IT":"India"}},
{"type":"Feature","geometry":{"type":"Polygon","coordinates":[[[79.3901,31.0939],[79.3792,31.1203],[79.3251,31.1298],[79.2849,31.1701],[79.2884,31.1956],[79.2628,31.2453],[79.2339,31.254],[79.249,31.2945],[79.2215,31.3194],[79.1289,31.4387],[79.0568,31.4723],[79.0342,31.428],[78.9806,31.357],[78.9302,31.3379],[78.9089,31.2589],[78.8795,31.2707],[78.8675,31.3014],[78.8401,31.3277],[78.8272,31.3813],[78.7764,31.4012],[78.7955,31.4528],[78.7517,31.4885],[78.7823,31.443],[78.7462,31.3617],[78.7593,31.3166],[78.7828,31.2989],[78.8249,31.2945],[78.8533,31.3055],[78.867,31.2806],[78.9232,31.236],[78.9319,31.1991],[78.9777,31.1518],[78.9858,31.1183],[79.0537,31.1348],[79.1611,31.1088],[79.219,31.1046],[79.324,31.1093],[79.3901,31.0939]]]},"properties":{"GID_0":"IND","ISO_A2":"IN","ISO_A3":"IND","NAME_EN":"India","NAME_IT":"India"}}
]}