{"type":"FeatureCollection", "features": [
{"type":"Feature","geometry":{"type":"MultiPolygon","coordinates":[[[[-9.9728,-40.2758],[-9.9997,-40.2819],[-10.0182,-40.3145],[-9.9758,-40.3235],[-9.9633,-40.3403],[-9.9225,-40.3639],[-9.8922,-40.3711],[-9.8761,-40.3469],[-9.8964,-40.3272],[-9.89,-40.3129],[-9.9089,-40.3032],[-9.9237,-40.2826],[-9.9728,-40.2758]]],[[[-12.6701,-37.2855],[-12.6854,-37.2819],[-12.7061,-37.2939],[-12.6932,-37.3174],[-12.6443,-37.3036],[-12.6701,-37.2855]]],[[[-12.2762,-37.0625],[-12.3179,-37.0641],[-12.3384,-37.088],[-12.3517,-37.1192],[-12.3178,-37.1594],[-12.2844,-37.1706],[-12.2147,-37.1164],[-12.236,-37.0792],[-12.2608,-37.0631],[-12.2762,-37.0625]]],[[[-14.3756,-7.8894],[-14.3939,-7.8933],[-14.4206,-7.9319],[-14.4017,-7.9908],[-14.3446,-7.9848],[-14.3014,-7.9569],[-14.3214,-7.9231],[-14.3558,-7.8972],[-14.3756,-7.8894]]],[[[-5.7276,-16.0147],[-5.702,-16.0018],[-5.6878,-16.0071],[-5.6725,-15.9927],[-5.6362,-15.9739],[-5.6343,-15.9497],[-5.6515,-15.936],[-5.6569,-15.9115],[-5.6864,-15.9135],[-5.7038,-15.9043],[-5.7181,-15.9237],[-5.7595,-15.9499],[-5.7665,-15.9702],[-5.7894,-15.9962],[-5.76,-16.0072],[-5.7463,-16.0276],[-5.7276,-16.0147]]]]},"properties":{"GID_0":"SHN","ISO_A2":"SH","ISO_A3":"SHN","NAME_EN":"Saint Helena","NAME_IT":"Sant'Elena"}}
]}