{"type":"FeatureCollection", "features": [
{"type":"Feature","geometry":{"type":"Polygon","coordinates":[[[92.0372,27.0692],[92.0268,27.1686],[92.0872,27.2691],[92.0472,27.3609],[92.0583,27.4],[92.0188,27.4803],[91.9425,27.4599],[91.8481,27.4863],[91.7673,27.4649],[91.6517,27.4843],[91.5669,27.5841],[91.5738,27.661],[91.6287,27.6993],[91.6459,27.7687],[91.6092,27.8237],[91.6264,27.8908],[91.486,27.9463],[91.466,28.0072],[91.3113,28.0643],[91.2064,27.9875],[90.9805,28.0021],[90.8042,28.0699],[90.7882,28.0446],[90.6843,28.0753],[90.5916,28.0253],[90.5066,28.0684],[90.3819,28.0614],[90.295,28.1586],[90.2374,28.1442],[90.161,28.1919],[90.1163,28.1653],[90.0232,28.1643],[89.9754,28.1936],[89.8965,28.1849],[89.8603,28.2302],[89.7686,28.2247],[89.7255,28.1744],[89.6139,28.1704],[89.4605,28.0372],[89.4495,27.9728],[89.3892,27.8918],[89.2993,27.8536],[89.2253,27.784],[89.2218,27.7304],[89.1052,27.6038],[89.034,27.5796],[88.9778,27.4876],[88.9681,27.4049],[89.0036,27.3281],[88.9079,27.2767],[88.8032,27.248],[88.7602,27.1528],[88.87,27.1091],[88.8688,26.9946],[88.9215,26.9938],[88.9437,26.9343],[89.0956,26.8918],[89.1343,26.8078],[89.2753,26.8289],[89.3789,26.8624],[89.4743,26.8027],[89.5652,26.8002],[89.6406,26.7474],[89.7722,26.7022],[89.8975,26.7244],[90.0492,26.7307],[90.1946,26.7734],[90.2302,26.8591],[90.3002,26.8484],[90.3564,26.901],[90.4165,26.9047],[90.5459,26.8169],[90.6935,26.7703],[90.9916,26.7908],[91.0554,26.7824],[91.0975,26.8222],[91.2368,26.8123],[91.3374,26.7812],[91.4075,26.8397],[91.4949,26.7914],[91.6256,26.8212],[91.7206,26.8119],[91.8239,26.8644],[91.8921,26.9192],[91.9831,26.8583],[92.0566,26.8476],[92.1168,26.8965],[92.1197,26.9733],[92.0372,27.0692]]]},"properties":{"GID_0":"BTN","ISO_A2":"BT","ISO_A3":"BTN","NAME_EN":"Bhutan","NAME_IT":"Bhutan"}}
]}