{"type":"FeatureCollection", "features": [
{"type":"Feature","geometry":{"type":"Polygon","coordinates":[[[20.8721,-34.4507],[20.8538,-34.3976],[20.9307,-34.3668],[21.0015,-34.3649],[21.1051,-34.3774],[21.2043,-34.4049],[21.299,-34.4404],[21.3826,-34.411],[21.4299,-34.3732],[21.5368,-34.3568],[21.6951,-34.3957],[21.8132,-34.3815],[21.906,-34.3443],[21.9251,-34.3068],[21.9126,-34.2701],[21.9557,-34.2287],[22.0118,-34.2093],[22.1443,-34.1971],[22.111,-34.1632],[22.1229,-34.1165],[22.159,-34.0843],[22.2124,-34.0638],[22.2854,-34.0512],[22.3854,-34.0615],[22.4879,-34.0471],[22.564,-33.9963],[22.6632,-34.0074],[22.7601,-34.0335],[22.7774,-34.0271],[22.9746,-34.0854],[23.0093,-34.0715],[23.0429,-34.084],[23.129,-34.0788],[23.2251,-34.0871],[23.2712,-34.1004],[23.3754,-34.0985],[23.3854,-34.0326],[23.449,-34.0051],[23.5232,-34.0024],[23.5668,-33.9813],[23.6499,-33.9807],[23.8621,-34.0215],[23.9488,-34.0282],[24.1201,-34.056],[24.1951,-34.0599],[24.3113,-34.1021],[24.3813,-34.1037],[24.474,-34.1626],[24.5843,-34.1874],[24.6218,-34.1732],[24.6957,-34.1918],[24.834,-34.2032],[24.8412,-34.1424],[24.9207,-34.0807],[24.9312,-34.0121],[24.969,-33.9879],[25.0315,-33.9704],[25.129,-33.9629],[25.2179,-33.9701],[25.2787,-33.984],[25.4063,-34.0335],[25.4596,-34.0288],[25.5782,-34.0493],[25.6326,-34.0465],[25.6874,-33.9996],[25.6129,-33.9476],[25.6265,-33.8799],[25.6518,-33.8363],[25.701,-33.7921],[25.7824,-33.7454],[25.8487,-33.7221],[25.9446,-33.709],[26.0724,-33.7062],[26.1471,-33.716],[26.3215,-33.7676],[26.3807,-33.7593],[26.4665,-33.7732],[26.5462,-33.7513],[26.6696,-33.6954],[26.739,-33.6535],[26.8671,-33.6279],[26.9357,-33.5815],[27.0065,-33.5713],[27.0513,-33.5387],[27.1124,-33.524],[27.1668,-33.4718],[27.2143,-33.4607],[27.2412,-33.4313],[27.4226,-33.3326],[27.4804,-33.2965],[27.529,-33.2546],[27.5987,-33.2224],[27.7618,-33.1046],[27.9074,-33.0404],[27.9268,-33.0065],[27.9649,-32.9749],[28.1001,-32.8885],[28.1162,-32.8318],[28.1529,-32.7971],[28.2385,-32.7715],[28.3485,-32.709],[28.4282,-32.646],[28.4285,-32.6326],[28.5101,-32.6049],[28.6032,-32.5013],[28.6576,-32.4735],[28.7776,-32.3488],[28.8165,-32.3296],[28.8368,-32.3001],[28.879,-32.279],[28.9443,-32.2187],[29.0101,-32.1343],[29.0688,-32.089],[29.1299,-32.0204],[29.1376,-31.9957],[29.2149,-31.9324],[29.3243,-31.8096],[29.3515,-31.8032],[29.3593,-31.759],[29.4068,-31.7268],[29.4293,-31.6868],[29.4937,-31.6715],[29.5524,-31.624],[29.5999,-31.6029],[29.6351,-31.5629],[29.6718,-31.5449],[29.7687,-31.4446],[29.8546,-31.4237],[30.0099,-31.2962],[30.0688,-31.2213],[30.1571,-31.1346],[30.1832,-31.0901],[30.2782,-30.9888],[30.3046,-30.9424],[30.391,-30.8479],[30.4607,-30.7337],[30.5354,-30.6426],[30.5843,-30.5596],[30.6249,-30.5135],[30.6335,-30.4846],[30.6735,-30.4304],[30.7068,-30.369],[30.736,-30.339],[30.7626,-30.271],[30.884,-30.0585],[30.9629,-29.9879],[31.0365,-29.9088],[31.0382,-29.8179],[31.1315,-29.6476],[31.1849,-29.5718],[31.2237,-29.5376],[31.2357,-29.5076],[31.3357,-29.3968],[31.3351,-29.3871],[31.4229,-29.3088],[31.4535,-29.2671],[31.5651,-29.174],[31.6204,-29.1029],[31.7043,-29.0293],[31.7635,-28.9654],[31.9212,-28.9176],[32.0101,-28.8804],[32.0962,-28.801],[32.1935,-28.7204],[32.2482,-28.6671],[32.2974,-28.6349],[32.3607,-28.5771],[32.399,-28.5265],[32.4271,-28.4235],[32.4176,-28.4037],[32.4368,-28.3546],[32.4768,-28.2962],[32.536,-28.1904],[32.5599,-28.1276],[32.5599,-28.0854],[32.5946,-27.9346],[32.5896,-27.8935],[32.6018,-27.8154],[32.6399,-27.6876],[32.6593,-27.5979],[32.6796,-27.5443],[32.6824,-27.4871],[32.7132,-27.4321],[32.7751,-27.2615],[32.7935,-27.2307],[32.814,-27.1579],[32.8424,-27.1087],[32.8676,-27.0135],[32.881,-26.8924],[32.8913,-26.8584],[32.8203,-26.8687],[32.5657,-26.8645],[32.3311,-26.8639],[32.2192,-26.8328],[32.182,-26.8631],[32.1202,-26.8388],[32.093,-26.8048],[32.0159,-26.8199],[31.996,-26.9242],[31.9746,-27.1164],[31.9778,-27.3175],[31.4937,-27.3152],[31.1506,-27.2021],[31.0613,-27.0963],[30.9848,-27.037],[30.9583,-26.9921],[30.9737,-26.9645],[30.9736,-26.9082],[30.9023,-26.8518],[30.8873,-26.8036],[30.8218,-26.8418],[30.8028,-26.8245],[30.7909,-26.7151],[30.7918,-26.5691],[30.8051,-26.4667],[30.831,-26.4112],[30.8576,-26.3838],[30.8919,-26.3208],[30.9614,-26.2617],[31.071,-26.0673],[31.1127,-25.9826],[31.1266,-25.9212],[31.2636,-25.8096],[31.3159,-25.743],[31.4163,-25.7188],[31.8679,-25.9996],[31.9737,-25.9532],[31.9305,-25.8408],[31.9786,-25.6937],[32.0061,-25.6452],[31.9958,-25.5263],[31.9774,-25.5098],[31.9796,-25.4571],[32.0153,-25.3825],[32.0288,-25.2414],[32.0336,-25.1325],[32.0155,-24.9251],[31.9983,-24.6897],[32.0089,-24.5751],[32.0131,-24.4546],[31.9871,-24.3022],[31.908,-24.1824],[31.8807,-23.955],[31.7692,-23.8878],[31.6974,-23.7219],[31.6905,-23.6294],[31.6658,-23.5914],[31.561,-23.482],[31.5507,-23.4103],[31.5559,-23.2691],[31.5636,-23.1982],[31.5458,-23.1372],[31.3074,-22.4235],[31.2738,-22.3751],[31.2209,-22.3698],[31.1565,-22.3286],[31.0884,-22.349],[30.9997,-22.3164],[30.9463,-22.3151],[30.9002,-22.2964],[30.8362,-22.292],[30.7086,-22.3171],[30.6694,-22.3106],[30.6391,-22.3323],[30.5809,-22.3189],[30.5528,-22.3316],[30.4894,-22.3164],[30.3822,-22.3509],[30.3163,-22.3477],[30.2902,-22.3563],[30.2311,-22.2959],[30.1216,-22.3087],[30.0198,-22.2334],[29.9819,-22.2235],[29.9257,-22.1899],[29.8903,-22.1952],[29.8599,-22.1752],[29.8052,-22.1655],[29.7736,-22.1414],[29.6726,-22.1388],[29.653,-22.1255],[29.6019,-22.1544],[29.5802,-22.1409],[29.5392,-22.1527],[29.5265,-22.1782],[29.4641,-22.1661],[29.4168,-22.1751],[29.3629,-22.1996],[29.2842,-22.1861],[29.2577,-22.1934],[29.2189,-22.1781],[29.1555,-22.2143],[29.0359,-22.2166],[29.0128,-22.2379],[29.0028,-22.2747],[28.9666,-22.3075],[28.9715,-22.377],[28.9219,-22.4584],[28.8787,-22.4475],[28.8325,-22.4618],[28.8311,-22.4883],[28.7381,-22.5043],[28.6413,-22.558],[28.5641,-22.561],[28.5083,-22.5888],[28.4791,-22.5709],[28.343,-22.5735],[28.3062,-22.609],[28.2777,-22.6155],[28.2463,-22.6566],[28.2097,-22.6645],[28.1592,-22.7195],[28.1628,-22.7548],[28.0948,-22.8137],[28.0392,-22.8425],[28.05,-22.8891],[28.0138,-22.931],[27.9354,-22.9626],[27.9431,-23.0282],[27.9201,-23.0683],[27.8346,-23.1085],[27.7819,-23.1431],[27.7851,-23.1708],[27.7596,-23.1906],[27.7416,-23.2304],[27.7037,-23.2037],[27.6587,-23.2222],[27.5997,-23.2176],[27.6012,-23.2472],[27.5729,-23.2653],[27.5628,-23.3496],[27.5287,-23.3853],[27.4484,-23.3865],[27.4283,-23.4247],[27.3877,-23.39],[27.352,-23.4272],[27.3252,-23.4066],[27.303,-23.4627],[27.1924,-23.4981],[27.1722,-23.5219],[27.1348,-23.5336],[27.1458,-23.5748],[27.0594,-23.6126],[27.0812,-23.6433],[27.0706,-23.6707],[27.0311,-23.6757],[26.9711,-23.7028],[26.9519,-23.794],[26.9553,-23.8736],[26.9278,-23.9224],[26.9093,-24.0284],[26.8838,-24.0916],[26.8632,-24.0997],[26.8787,-24.1656],[26.8668,-24.2427],[26.8427,-24.2744],[26.7978,-24.3009],[26.7201,-24.3198],[26.6724,-24.3512],[26.6466,-24.3818],[26.5677,-24.4364],[26.5103,-24.488],[26.4711,-24.589],[26.4518,-24.6106],[26.3933,-24.6366],[26.187,-24.6875],[26.0074,-24.7243],[25.9644,-24.7494],[25.8583,-24.7572],[25.8424,-24.7903],[25.8733,-24.8291],[25.8829,-24.8759],[25.7291,-25.2569],[25.6998,-25.291],[25.6882,-25.376],[25.6598,-25.4744],[25.5809,-25.6388],[25.5001,-25.6907],[25.4695,-25.6959],[25.4238,-25.7314],[25.347,-25.7666],[25.2614,-25.7686],[25.2035,-25.7584],[25.1349,-25.7577],[25.0809,-25.7304],[25.0375,-25.7222],[24.9338,-25.7766],[24.8969,-25.8108],[24.8696,-25.8054],[24.7784,-25.8197],[24.729,-25.804],[24.6859,-25.8233],[24.6089,-25.8006],[24.5781,-25.7774],[24.4543,-25.7406],[24.3808,-25.7649],[24.3242,-25.7317],[24.3279,-25.7144],[24.2589,-25.7027],[24.1951,-25.6218],[24.1708,-25.6311],[24.1043,-25.6304],[24.0858,-25.6434],[24.0357,-25.6369],[23.966,-25.6153],[23.9462,-25.6384],[23.9016,-25.6224],[23.8802,-25.5774],[23.8445,-25.5708],[23.7855,-25.5125],[23.758,-25.4687],[23.7093,-25.4599],[23.6684,-25.4161],[23.5844,-25.3916],[23.4784,-25.2985],[23.4422,-25.277],[23.4199,-25.3137],[23.3622,-25.2878],[23.2897,-25.2911],[23.278,-25.2741],[23.1875,-25.279],[23.1656,-25.3039],[23.1136,-25.3036],[23.0033,-25.3399],[22.9779,-25.3399],[22.97,-25.3811],[22.91,-25.4223],[22.8986,-25.4551],[22.8477,-25.4966],[22.8526,-25.5355],[22.8148,-25.5788],[22.8535,-25.6116],[22.7995,-25.6352],[22.8277,-25.6551],[22.7999,-25.7231],[22.7693,-25.7328],[22.7634,-25.781],[22.7382,-25.7983],[22.7814,-25.8288],[22.736,-25.8565],[22.7229,-25.9084],[22.7294,-25.9754],[22.7211,-26.0186],[22.6692,-26.0139],[22.6731,-26.0737],[22.6375,-26.0907],[22.6369,-26.1163],[22.5875,-26.1416],[22.5777,-26.1916],[22.5574,-26.2218],[22.5292,-26.2268],[22.4789,-26.2012],[22.4023,-26.2441],[22.4027,-26.2729],[22.3623,-26.2902],[22.3668,-26.3192],[22.3127,-26.3412],[22.2472,-26.347],[22.2387,-26.3706],[22.1948,-26.3941],[22.2002,-26.4248],[22.1331,-26.5261],[22.0767,-26.5828],[22.0514,-26.6335],[21.9845,-26.6503],[21.949,-26.67],[21.8832,-26.6707],[21.8241,-26.6597],[21.7874,-26.6761],[21.7931,-26.7708],[21.781,-26.8023],[21.7033,-26.8574],[21.6269,-26.8666],[21.6031,-26.8451],[21.5409,-26.8431],[21.5254,-26.8618],[21.4854,-26.8414],[21.4049,-26.8221],[21.3327,-26.8256],[21.2885,-26.849],[21.2217,-26.8438],[21.1769,-26.8666],[21.1342,-26.8738],[21.0789,-26.8485],[21.0066,-26.8443],[20.9778,-26.8115],[20.9466,-26.8139],[20.8852,-26.7973],[20.8178,-26.823],[20.7635,-26.8664],[20.7082,-26.8754],[20.6761,-26.861],[20.6504,-26.8095],[20.6224,-26.7869],[20.6367,-26.7636],[20.617,-26.6772],[20.6292,-26.6428],[20.6304,-26.5825],[20.6133,-26.5651],[20.6048,-26.5147],[20.6174,-26.4437],[20.6462,-26.4351],[20.7594,-26.2865],[20.7904,-26.2712],[20.8152,-26.1924],[20.8633,-26.1327],[20.8187,-26.0586],[20.8319,-26.0227],[20.8153,-26.0059],[20.8374,-25.9508],[20.8029,-25.921],[20.8131,-25.8697],[20.7867,-25.8606],[20.7901,-25.8083],[20.7622,-25.791],[20.7078,-25.7076],[20.6779,-25.6904],[20.6879,-25.6355],[20.6654,-25.604],[20.6969,-25.5896],[20.67,-25.5498],[20.6288,-25.5128],[20.6434,-25.498],[20.5983,-25.4216],[20.566,-25.3948],[20.5392,-25.3448],[20.5427,-25.2928],[20.4997,-25.2722],[20.4464,-25.199],[20.4697,-25.1618],[20.4274,-25.1479],[20.4126,-25.0829],[20.3788,-25.0619],[20.3842,-25.0343],[20.2965,-24.9806],[20.2662,-24.9293],[20.2036,-24.8964],[20.1817,-24.9118],[20.1502,-24.8795],[20.1152,-24.88],[20.0902,-24.8328],[20.0381,-24.8095],[19.9989,-24.7659],[20.0005,-27.9841],[19.9992,-28.4278],[19.8476,-28.4596],[19.8133,-28.5083],[19.7386,-28.4857],[19.6709,-28.5294],[19.633,-28.5125],[19.546,-28.544],[19.5361,-28.5871],[19.5068,-28.5978],[19.4915,-28.6796],[19.4668,-28.7061],[19.4036,-28.7368],[19.3509,-28.743],[19.2959,-28.7326],[19.2688,-28.7427],[19.2399,-28.8055],[19.2828,-28.9092],[19.2315,-28.9107],[19.1967,-28.947],[19.1189,-28.9694],[19.015,-28.9312],[18.993,-28.8872],[18.9356,-28.8572],[18.8449,-28.8491],[18.73,-28.8316],[18.5322,-28.8687],[18.5122,-28.8895],[18.462,-28.8857],[18.4235,-28.9008],[18.3503,-28.8807],[18.2635,-28.8794],[18.188,-28.9161],[18.0778,-28.8702],[18.0461,-28.8743],[18.0124,-28.828],[17.9628,-28.785],[17.9262,-28.7695],[17.6926,-28.7503],[17.6471,-28.7737],[17.6161,-28.7607],[17.61,-28.7129],[17.5684,-28.6856],[17.542,-28.7011],[17.4967,-28.6932],[17.4225,-28.7232],[17.414,-28.6712],[17.4263,-28.6563],[17.4321,-28.5832],[17.4128,-28.5626],[17.3763,-28.562],[17.3664,-28.5101],[17.3331,-28.4755],[17.3553,-28.4368],[17.3848,-28.437],[17.4142,-28.3763],[17.3758,-28.3214],[17.383,-28.3012],[17.3333,-28.2258],[17.2826,-28.2438],[17.2146,-28.2478],[17.1824,-28.2034],[17.1932,-28.1517],[17.186,-28.1021],[17.1382,-28.0931],[17.1255,-28.0673],[17.0825,-28.0331],[17.026,-28.0505],[17.0031,-28.0752],[16.9048,-28.0709],[16.8814,-28.0985],[16.8879,-28.1729],[16.8454,-28.1652],[16.848,-28.2161],[16.8204,-28.2739],[16.7602,-28.2626],[16.755,-28.302],[16.8029,-28.365],[16.7692,-28.3964],[16.7765,-28.4417],[16.734,-28.4943],[16.7022,-28.4976],[16.6724,-28.4723],[16.6211,-28.5001],[16.5958,-28.5339],[16.483,-28.5644],[16.4556,-28.5928],[16.4519,-28.6321],[16.4851,-28.6499],[16.5407,-28.7101],[16.5693,-28.7276],[16.561,-28.759],[16.5824,-28.8015],[16.601,-28.8774],[16.6885,-28.9279],[16.7179,-29.0037],[16.7465,-29.0426],[16.8179,-29.0965],[16.8457,-29.2279],[16.8665,-29.2474],[16.8732,-29.2901],[16.9407,-29.3718],[16.9662,-29.4318],[17.0032,-29.5499],[16.9968,-29.5682],[17.0332,-29.6151],[17.0551,-29.6876],[17.0568,-29.7435],[17.0743,-29.8118],[17.099,-29.8596],[17.1121,-29.9151],[17.1557,-29.9776],[17.1815,-30.0621],[17.1851,-30.1029],[17.2218,-30.1624],[17.2346,-30.226],[17.2612,-30.2601],[17.2718,-30.3349],[17.4429,-30.5976],[17.4332,-30.619],[17.4699,-30.6829],[17.5168,-30.7257],[17.5357,-30.7826],[17.5729,-30.8457],[17.5946,-30.9013],[17.6818,-31.0024],[17.7024,-31.0671],[17.7726,-31.1726],[17.8632,-31.2579],[17.8774,-31.321],[18.0421,-31.5107],[18.1165,-31.5829],[18.1513,-31.6565],[18.2257,-31.7507],[18.2329,-31.8179],[18.2801,-31.8965],[18.2651,-31.9338],[18.3149,-32.0718],[18.3021,-32.1035],[18.3101,-32.1743],[18.3263,-32.2038],[18.3457,-32.281],[18.3146,-32.314],[18.3349,-32.4382],[18.3332,-32.4879],[18.3124,-32.5701],[18.2485,-32.6768],[18.2007,-32.7135],[18.1599,-32.7599],[18.129,-32.7774],[18.0554,-32.7843],[18.0054,-32.7346],[17.931,-32.7201],[17.901,-32.7351],[17.9071,-32.7899],[17.8443,-32.8265],[17.8835,-32.8743],[17.8585,-32.9124],[17.8851,-32.9501],[17.871,-32.991],[17.939,-33.0387],[17.961,-32.9976],[18.019,-33.0137],[18.0424,-33.0479],[18.0279,-33.0982],[18.0932,-33.151],[18.0868,-33.1751],[18.024,-33.1401],[17.9968,-33.0718],[17.9726,-33.0674],[17.9771,-33.1432],[18.0088,-33.1504],[18.0974,-33.2301],[18.1593,-33.3271],[18.1624,-33.369],[18.2582,-33.4293],[18.3076,-33.4835],[18.3201,-33.516],[18.3076,-33.5662],[18.3576,-33.581],[18.3974,-33.626],[18.4396,-33.6976],[18.4474,-33.7776],[18.4779,-33.8246],[18.489,-33.8699],[18.4724,-33.9074],[18.4399,-33.9201],[18.401,-33.9001],[18.3737,-33.9324],[18.3707,-33.9729],[18.3474,-33.9863],[18.3101,-34.044],[18.354,-34.0762],[18.3571,-34.1096],[18.3182,-34.1476],[18.3357,-34.1774],[18.3707,-34.1951],[18.3807,-34.2713],[18.4279,-34.3307],[18.4604,-34.3199],[18.4754,-34.2799],[18.476,-34.2301],[18.4265,-34.1771],[18.4321,-34.1387],[18.4701,-34.1082],[18.6299,-34.0732],[18.7126,-34.0721],[18.7646,-34.0796],[18.8132,-34.1007],[18.8674,-34.161],[18.8221,-34.1818],[18.851,-34.2657],[18.8121,-34.304],[18.8304,-34.3393],[18.8151,-34.3657],[18.8524,-34.3843],[18.911,-34.3574],[18.9674,-34.364],[18.9954,-34.3432],[19.0443,-34.3413],[19.0993,-34.3685],[19.1257,-34.4218],[19.1804,-34.4201],[19.2201,-34.4393],[19.2712,-34.4093],[19.3049,-34.4238],[19.354,-34.4774],[19.3785,-34.544],[19.3404,-34.5779],[19.3568,-34.616],[19.4093,-34.6049],[19.4485,-34.6551],[19.5171,-34.6704],[19.549,-34.7132],[19.6521,-34.7882],[19.6904,-34.7626],[19.7554,-34.7693],[19.8751,-34.7668],[19.9443,-34.8149],[20.0026,-34.8338],[20.0551,-34.8146],[20.0493,-34.7699],[20.0829,-34.7332],[20.1651,-34.6954],[20.231,-34.6874],[20.241,-34.6501],[20.3279,-34.611],[20.3451,-34.5915],[20.4029,-34.5679],[20.4271,-34.5265],[20.4796,-34.489],[20.6188,-34.4521],[20.7332,-34.4535],[20.8474,-34.4751],[20.8721,-34.4507]],[[27.8239,-28.9156],[27.8963,-28.9086],[27.9298,-28.8529],[27.9701,-28.8743],[28.0048,-28.8716],[28.0749,-28.815],[28.1001,-28.7685],[28.167,-28.7055],[28.2943,-28.7051],[28.3494,-28.6991],[28.4019,-28.6243],[28.4763,-28.6058],[28.506,-28.615],[28.5557,-28.6024],[28.5907,-28.6084],[28.6519,-28.5733],[28.7036,-28.6181],[28.7047,-28.6714],[28.7935,-28.699],[28.8117,-28.7207],[28.809,-28.772],[28.8415,-28.7586],[28.9438,-28.7827],[28.951,-28.8492],[28.9802,-28.9147],[29.0291,-28.888],[29.1517,-28.9878],[29.2153,-29.0261],[29.2119,-29.0461],[29.2548,-29.0895],[29.3078,-29.0766],[29.3494,-29.1187],[29.3446,-29.1875],[29.4083,-29.2123],[29.4209,-29.2601],[29.4556,-29.3412],[29.4195,-29.3968],[29.4,-29.4451],[29.2933,-29.49],[29.3056,-29.5543],[29.2852,-29.5845],[29.2823,-29.6427],[29.235,-29.6397],[29.1629,-29.6769],[29.1516,-29.7336],[29.1311,-29.7732],[29.1388,-29.861],[29.1694,-29.9163],[29.109,-29.937],[29.0674,-29.9721],[29.0042,-30.005],[28.9901,-30.0274],[28.8789,-30.0698],[28.8594,-30.0873],[28.7912,-30.1094],[28.7498,-30.1065],[28.6676,-30.1407],[28.5469,-30.1231],[28.4998,-30.151],[28.4515,-30.1578],[28.3998,-30.1437],[28.3651,-30.1686],[28.3403,-30.2346],[28.3032,-30.2562],[28.2597,-30.2565],[28.2069,-30.291],[28.2479,-30.3233],[28.2708,-30.3708],[28.2283,-30.4305],[28.1796,-30.4389],[28.1549,-30.4712],[28.1779,-30.4884],[28.1512,-30.584],[28.1131,-30.5999],[28.1232,-30.6634],[28.0846,-30.654],[28.0037,-30.659],[27.9405,-30.6441],[27.9155,-30.6013],[27.8812,-30.6137],[27.7955,-30.6191],[27.7419,-30.6039],[27.6934,-30.5448],[27.6246,-30.507],[27.6043,-30.4499],[27.5714,-30.4286],[27.5334,-30.3841],[27.5069,-30.3876],[27.4747,-30.3561],[27.4536,-30.3136],[27.3937,-30.3396],[27.3934,-30.3036],[27.3669,-30.2738],[27.3654,-30.218],[27.4073,-30.1445],[27.3269,-30.1481],[27.2965,-30.0561],[27.2229,-29.9968],[27.0966,-29.7299],[27.0139,-29.6618],[27.0572,-29.6371],[27.1194,-29.5777],[27.1542,-29.561],[27.2439,-29.5545],[27.3566,-29.4527],[27.4246,-29.4041],[27.4363,-29.3342],[27.4546,-29.2977],[27.5145,-29.2819],[27.5514,-29.1962],[27.6142,-29.1642],[27.6749,-29.0651],[27.6824,-29.0066],[27.7136,-29.0101],[27.7296,-28.9466],[27.7667,-28.917],[27.8239,-28.9156]]]},"properties":{"GID_0":"ZAF","ISO_A2":"ZA","ISO_A3":"ZAF","NAME_EN":"South Africa","NAME_IT":"Sudafrica"}}
]}