{"type":"FeatureCollection", "features": [
{"type":"Feature","geometry":{"type":"MultiPolygon","coordinates":[[[[44.4557,-19.5393],[44.4499,-19.5657],[44.434,-19.5982],[44.3943,-19.6182],[44.4151,-19.6354],[44.4274,-19.6326],[44.4599,-19.6457],[44.4624,-19.6646],[44.4821,-19.6826],[44.504,-19.6576],[44.4754,-19.6335],[44.4665,-19.6157],[44.4768,-19.5985],[44.4663,-19.5865],[44.4637,-19.554],[44.4557,-19.5393]]],[[[44.3949,-19.7987],[44.4024,-19.8235],[44.4185,-19.8196],[44.421,-19.8082],[44.4063,-19.8057],[44.3949,-19.7987]]],[[[49.9129,-16.9318],[49.9476,-16.8921],[49.9499,-16.8693],[49.9696,-16.8176],[50.0224,-16.7076],[49.9918,-16.7087],[49.9663,-16.7424],[49.9726,-16.7726],[49.9529,-16.8035],[49.9307,-16.8149],[49.8999,-16.8751],[49.8851,-16.8743],[49.8571,-16.9287],[49.8537,-16.9499],[49.8624,-16.9654],[49.8493,-17.0082],[49.8329,-17.0165],[49.824,-17.0726],[49.8096,-17.0965],[49.8204,-17.1046],[49.8404,-17.0587],[49.8521,-17.0499],[49.8776,-17.0121],[49.9038,-16.9607],[49.9129,-16.9318]]],[[[45.8176,-15.7957],[45.7868,-15.801],[45.8043,-15.824],[45.8129,-15.8257],[45.8121,-15.8057],[45.8176,-15.7957]]],[[[45.7821,-15.7982],[45.7738,-15.8013],[45.7774,-15.8263],[45.7796,-15.8274],[45.7726,-15.8479],[45.7863,-15.8571],[45.8101,-15.8313],[45.7821,-15.7982]]],[[[44.40653870967742,-20.108251612903224],[44.406549315068496,-20.108156164383562],[44.3824,-20.1232],[44.3701,-20.1557],[44.3501,-20.1743],[44.3168,-20.2237],[44.3001,-20.2415],[44.2912,-20.274],[44.2715,-20.2901],[44.244,-20.3801],[44.1829,-20.4374],[44.1699,-20.4401],[44.1326,-20.4865],[44.1138,-20.4865],[44.1035,-20.5393],[44.0893,-20.5665],[44.0863,-20.606],[44.0701,-20.6351],[44.0654,-20.6701],[44.0451,-20.716],[43.9963,-20.7329],[43.9804,-20.7465],[43.9562,-20.786],[43.9362,-20.7932],[43.903,-20.8554],[43.8846,-20.9007],[43.8796,-20.9363],[43.8707,-20.9518],[43.874,-20.9846],[43.8568,-21.0532],[43.8499,-21.099],[43.8393,-21.1171],[43.8362,-21.1488],[43.8238,-21.1665],[43.8021,-21.2237],[43.7829,-21.2474],[43.7557,-21.2693],[43.7245,-21.2845],[43.7029,-21.2671],[43.6437,-21.2712],[43.6096,-21.2812],[43.5774,-21.2774],[43.5376,-21.306],[43.5021,-21.3062],[43.4946,-21.3415],[43.4774,-21.3751],[43.4679,-21.4249],[43.4504,-21.4512],[43.4615,-21.4813],[43.4599,-21.5118],[43.4721,-21.5954],[43.4635,-21.6499],[43.4299,-21.6535],[43.4271,-21.6696],[43.3913,-21.7204],[43.3529,-21.7443],[43.3324,-21.796],[43.3332,-21.8454],[43.3274,-21.8699],[43.3438,-21.8865],[43.3424,-21.9035],[43.3179,-21.914],[43.307,-21.8735],[43.2762,-21.9063],[43.2863,-21.9343],[43.2849,-21.9521],[43.259,-21.956],[43.2629,-21.9976],[43.2429,-22.0371],[43.2354,-22.0976],[43.2432,-22.1243],[43.2365,-22.1588],[43.2493,-22.1618],[43.259,-22.1893],[43.2951,-22.1887],[43.3135,-22.2154],[43.3099,-22.231],[43.2401,-22.2251],[43.2199,-22.2512],[43.2393,-22.2915],[43.2279,-22.326],[43.261,-22.3715],[43.2693,-22.451],[43.2757,-22.4793],[43.2885,-22.4934],[43.2835,-22.5535],[43.2912,-22.5949],[43.3079,-22.6435],[43.3301,-22.6832],[43.3476,-22.7496],[43.3549,-22.8107],[43.3713,-22.8471],[43.4015,-22.8865],[43.4368,-22.9193],[43.4496,-22.951],[43.4743,-22.976],[43.4851,-23.0043],[43.5132,-23.0093],[43.5393,-23.0326],[43.5643,-23.0432],[43.5924,-23.0668],[43.6107,-23.1046],[43.6049,-23.1335],[43.6129,-23.1551],[43.6215,-23.2065],[43.6237,-23.2482],[43.6129,-23.2563],[43.6237,-23.2954],[43.619,-23.3124],[43.6432,-23.3457],[43.6665,-23.3576],[43.6954,-23.396],[43.7096,-23.3946],[43.7235,-23.4235],[43.7496,-23.4345],[43.7668,-23.4618],[43.7654,-23.4857],[43.7457,-23.5293],[43.7593,-23.571],[43.7271,-23.5943],[43.6876,-23.5985],[43.659,-23.6126],[43.6437,-23.6626],[43.6512,-23.6826],[43.6415,-23.6937],[43.6488,-23.7385],[43.6382,-23.761],[43.6649,-23.819],[43.6521,-23.8415],[43.6657,-23.8596],[43.6757,-23.8937],[43.6604,-23.9132],[43.6651,-23.9349],[43.6618,-23.9654],[43.6688,-23.9821],[43.6635,-24.0026],[43.6774,-24.0393],[43.6699,-24.0943],[43.6729,-24.1187],[43.6665,-24.1529],[43.6676,-24.2082],[43.6626,-24.2393],[43.6679,-24.2615],[43.6679,-24.316],[43.6832,-24.3757],[43.6968,-24.3988],[43.7365,-24.4435],[43.7621,-24.4662],[43.8049,-24.491],[43.8421,-24.5221],[43.8582,-24.5499],[43.8907,-24.5735],[43.9174,-24.6049],[43.9362,-24.6399],[43.9435,-24.6896],[43.9193,-24.714],[43.9204,-24.736],[43.9532,-24.7868],[43.954,-24.8082],[43.9712,-24.8315],[44.0199,-24.8721],[44.0229,-24.9243],[44.0379,-24.964],[44.0246,-24.986],[44.0268,-25.001],[44.0488,-25.0079],[44.0882,-25.0607],[44.1115,-25.0801],[44.1374,-25.0693],[44.1629,-25.0674],[44.2029,-25.0835],[44.2415,-25.1104],[44.2551,-25.126],[44.2982,-25.1513],[44.319,-25.1546],[44.3465,-25.1785],[44.4201,-25.2268],[44.4154,-25.2546],[44.4324,-25.2696],[44.5104,-25.2893],[44.6443,-25.3021],[44.7129,-25.3132],[44.8068,-25.3401],[44.8126,-25.3487],[44.8876,-25.3849],[44.9382,-25.419],[44.9418,-25.4399],[44.9621,-25.4685],[45.0201,-25.4982],[45.056,-25.5079],[45.1063,-25.5279],[45.1338,-25.5557],[45.1301,-25.5782],[45.1387,-25.5954],[45.1626,-25.606],[45.2149,-25.6015],[45.2746,-25.5851],[45.3965,-25.579],[45.4787,-25.5796],[45.5238,-25.5726],[45.5996,-25.5454],[45.6785,-25.4985],[45.7151,-25.4607],[45.7785,-25.4271],[45.8296,-25.3924],[45.889,-25.3568],[45.9643,-25.3199],[46.0879,-25.2676],[46.1251,-25.256],[46.2163,-25.2207],[46.3346,-25.186],[46.3812,-25.1774],[46.4415,-25.1749],[46.5082,-25.1646],[46.5407,-25.1704],[46.5707,-25.184],[46.624,-25.1835],[46.6351,-25.1996],[46.6924,-25.1799],[46.719,-25.1804],[46.7549,-25.1462],[46.7799,-25.141],[46.8049,-25.1215],[46.8254,-25.1213],[46.8449,-25.0957],[46.9063,-25.0699],[46.9201,-25.054],[46.9607,-25.0774],[46.9584,-25.0537],[47.0187,-24.9854],[47.0699,-24.9638],[47.1076,-24.9649],[47.1085,-24.926],[47.1351,-24.9276],[47.121,-24.8824],[47.1312,-24.8504],[47.1471,-24.8312],[47.1746,-24.784],[47.2012,-24.7732],[47.1888,-24.7362],[47.1976,-24.7082],[47.2268,-24.6604],[47.2424,-24.6171],[47.2607,-24.5874],[47.2826,-24.5324],[47.2993,-24.4776],[47.3051,-24.4271],[47.3385,-24.3299],[47.3401,-24.3079],[47.3526,-24.2718],[47.3682,-24.2685],[47.3804,-24.249],[47.4059,-24.1562],[47.4379,-24.1037],[47.4585,-24.0585],[47.4568,-24.0415],[47.4793,-24.0404],[47.4924,-24.0049],[47.5879,-23.7985],[47.5957,-23.7318],[47.619,-23.6154],[47.5804,-23.6063],[47.6024,-23.5865],[47.5843,-23.5646],[47.606,-23.5587],[47.6282,-23.589],[47.6296,-23.5493],[47.6485,-23.474],[47.6826,-23.3896],[47.6985,-23.3568],[47.6899,-23.3443],[47.711,-23.3285],[47.7521,-23.1801],[47.7532,-23.1421],[47.7696,-23.0721],[47.7993,-23.0001],[47.8251,-22.899],[47.839,-22.826],[47.8393,-22.7943],[47.856,-22.7515],[47.8599,-22.6607],[47.8688,-22.6232],[47.8929,-22.4837],[47.9388,-22.3599],[47.9593,-22.2907],[47.989,-22.2268],[47.9971,-22.2018],[48.0274,-22.1421],[48.0235,-22.1349],[48.051,-22.0812],[48.1001,-21.9743],[48.1029,-21.941],[48.1304,-21.8979],[48.1515,-21.8388],[48.1951,-21.7337],[48.2149,-21.6662],[48.2574,-21.561],[48.3096,-21.4099],[48.3432,-21.2732],[48.3496,-21.2329],[48.3882,-21.1399],[48.4229,-21.0429],[48.4301,-21.0026],[48.4132,-20.989],[48.4368,-20.9721],[48.4463,-20.9546],[48.4707,-20.8449],[48.4857,-20.8013],[48.491,-20.7593],[48.5076,-20.6874],[48.531,-20.6226],[48.5624,-20.5057],[48.5751,-20.484],[48.6057,-20.3924],[48.6465,-20.2935],[48.6338,-20.2796],[48.6526,-20.269],[48.6893,-20.1804],[48.7001,-20.1774],[48.7307,-20.1251],[48.7568,-20.0579],[48.774,-20.0285],[48.7699,-19.9851],[48.7901,-19.989],[48.8165,-19.9218],[48.8118,-19.9132],[48.8132,-19.8551],[48.8354,-19.7449],[48.8626,-19.6301],[48.8657,-19.5993],[48.9107,-19.5079],[48.9199,-19.4782],[48.9399,-19.4365],[48.9376,-19.4262],[48.9554,-19.4004],[48.9851,-19.3301],[48.9837,-19.3046],[48.9907,-19.2585],[49.0046,-19.2093],[49.0299,-19.1399],[49.0529,-19.089],[49.0804,-19.0174],[49.1021,-18.9854],[49.1188,-18.9312],[49.1779,-18.7868],[49.2238,-18.6524],[49.2554,-18.5874],[49.2843,-18.5196],[49.299,-18.4724],[49.3379,-18.4085],[49.3438,-18.334],[49.3651,-18.279],[49.3707,-18.2237],[49.386,-18.1904],[49.4124,-18.1643],[49.4196,-18.1382],[49.401,-18.1035],[49.4035,-18.0768],[49.4193,-18.0329],[49.431,-17.9701],[49.474,-17.8476],[49.4907,-17.7907],[49.5018,-17.7671],[49.4993,-17.7504],[49.5207,-17.6946],[49.5201,-17.6746],[49.4965,-17.6643],[49.4879,-17.6343],[49.4863,-17.6007],[49.4754,-17.5724],[49.4829,-17.536],[49.4663,-17.5221],[49.4676,-17.4943],[49.4473,-17.4504],[49.4538,-17.4149],[49.4104,-17.3696],[49.4207,-17.314],[49.4496,-17.2351],[49.4671,-17.2087],[49.5024,-17.1249],[49.5193,-17.0921],[49.5332,-17.0318],[49.5582,-16.9888],[49.5704,-16.9782],[49.586,-16.946],[49.5871,-16.9199],[49.6032,-16.9007],[49.6307,-16.8854],[49.6937,-16.8676],[49.8051,-16.8504],[49.7613,-16.8101],[49.7421,-16.7868],[49.7243,-16.7532],[49.7212,-16.7165],[49.7415,-16.6907],[49.7668,-16.6951],[49.7754,-16.6629],[49.7954,-16.6415],[49.8071,-16.5987],[49.8299,-16.5793],[49.8399,-16.5615],[49.841,-16.5082],[49.8618,-16.4471],[49.8329,-16.4299],[49.8276,-16.3896],[49.8143,-16.351],[49.8226,-16.3065],[49.8413,-16.279],[49.8396,-16.2682],[49.859,-16.2235],[49.8285,-16.181],[49.7826,-16.159],[49.7624,-16.1637],[49.7251,-16.1465],[49.7068,-16.1265],[49.696,-16.0729],[49.6846,-16.0693],[49.6735,-16.0418],[49.6942,-15.9704],[49.7313,-15.906],[49.7137,-15.8949],[49.7032,-15.8718],[49.7046,-15.8476],[49.6871,-15.8235],[49.6882,-15.8029],[49.676,-15.7826],[49.6521,-15.7087],[49.6379,-15.6951],[49.6515,-15.6671],[49.6507,-15.6379],[49.6429,-15.6057],[49.6224,-15.6054],[49.6165,-15.5513],[49.6257,-15.5326],[49.6779,-15.4718],[49.7076,-15.4507],[49.7276,-15.4443],[49.7557,-15.4571],[49.7843,-15.4399],[49.8407,-15.4365],[49.8671,-15.424],[49.8871,-15.4312],[49.9043,-15.4479],[49.8921,-15.4718],[49.9057,-15.5015],[49.8924,-15.5293],[49.8904,-15.5604],[49.9224,-15.5932],[49.9232,-15.6043],[49.9487,-15.6129],[49.9671,-15.6324],[49.9551,-15.671],[49.9624,-15.7107],[49.9599,-15.7413],[49.9932,-15.7624],[50.0199,-15.7879],[50.0099,-15.8221],[50.0224,-15.8618],[50.024,-15.8854],[50.0799,-15.9268],[50.1113,-15.9393],[50.1424,-15.9399],[50.1443,-15.9596],[50.164,-15.9926],[50.2212,-15.989],[50.2335,-15.9632],[50.2454,-15.9099],[50.2701,-15.8857],[50.2871,-15.884],[50.301,-15.8585],[50.2968,-15.8415],[50.3207,-15.8107],[50.3262,-15.7768],[50.359,-15.7087],[50.3593,-15.6921],[50.3885,-15.6404],[50.396,-15.6107],[50.4149,-15.5807],[50.4276,-15.5493],[50.4376,-15.5082],[50.4379,-15.4771],[50.4624,-15.4554],[50.4504,-15.4368],[50.4637,-15.4101],[50.461,-15.3799],[50.474,-15.3607],[50.4826,-15.3324],[50.4721,-15.2815],[50.4865,-15.2651],[50.4671,-15.2493],[50.4635,-15.229],[50.4721,-15.2154],[50.4371,-15.1904],[50.4307,-15.1446],[50.4143,-15.1235],[50.3654,-15.0774],[50.3465,-15.0418],[50.3346,-15.0321],[50.3288,-14.9904],[50.3201,-14.981],[50.316,-14.9504],[50.3026,-14.9474],[50.2935,-14.9149],[50.2637,-14.8707],[50.2526,-14.8043],[50.2404,-14.7793],[50.2246,-14.7643],[50.2254,-14.7118],[50.2088,-14.6393],[50.1943,-14.6254],[50.1829,-14.5846],[50.1885,-14.5165],[50.1763,-14.4693],[50.1821,-14.4004],[50.1929,-14.3765],[50.2018,-14.3062],[50.1885,-14.2821],[50.1454,-14.2418],[50.1451,-14.1863],[50.1587,-14.1296],[50.1657,-14.066],[50.1471,-14.036],[50.1374,-14.0063],[50.1374,-13.9432],[50.1421,-13.9054],[50.1374,-13.884],[50.1426,-13.8487],[50.1399,-13.7963],[50.1271,-13.7529],[50.1137,-13.7476],[50.1063,-13.7157],[50.0832,-13.6857],[50.086,-13.6332],[50.0801,-13.6151],[50.0604,-13.6076],[50.0557,-13.5565],[50.0288,-13.5279],[50.0199,-13.4921],[50.0232,-13.4651],[50.0124,-13.4526],[50.009,-13.4215],[50.0232,-13.3865],[50.0171,-13.3557],[49.994,-13.366],[49.9776,-13.3612],[49.9696,-13.3263],[49.9768,-13.2943],[49.9554,-13.2668],[49.941,-13.2251],[49.9199,-13.2015],[49.9324,-13.0896],[49.9224,-13.0624],[49.929,-13.0449],[49.9063,-13.0293],[49.8879,-13.0021],[49.8774,-12.9599],[49.8482,-12.9576],[49.8343,-12.9251],[49.859,-12.9001],[49.839,-12.889],[49.8179,-12.8976],[49.8007,-12.8854],[49.7818,-12.8485],[49.7785,-12.8251],[49.7869,-12.8087],[49.7621,-12.7946],[49.7263,-12.754],[49.6949,-12.7415],[49.6857,-12.7676],[49.6882,-12.786],[49.6729,-12.7963],[49.6471,-12.7388],[49.6324,-12.6946],[49.6068,-12.6729],[49.6018,-12.6599],[49.576,-12.6637],[49.544,-12.6315],[49.5571,-12.6135],[49.5615,-12.5751],[49.5563,-12.559],[49.5857,-12.5454],[49.5846,-12.5154],[49.5624,-12.4571],[49.5301,-12.4462],[49.5149,-12.4254],[49.4813,-12.4229],[49.5038,-12.4001],[49.5271,-12.4315],[49.5374,-12.3915],[49.5137,-12.3638],[49.4787,-12.3554],[49.4596,-12.366],[49.414,-12.341],[49.4126,-12.309],[49.3965,-12.2921],[49.3876,-12.2457],[49.3568,-12.2293],[49.3379,-12.2537],[49.3565,-12.2815],[49.349,-12.3062],[49.3285,-12.3149],[49.3026,-12.309],[49.314,-12.2879],[49.3099,-12.2743],[49.2768,-12.2793],[49.2676,-12.3007],[49.2337,-12.301],[49.2187,-12.321],[49.1921,-12.2954],[49.1985,-12.2699],[49.2174,-12.2501],[49.2337,-12.2788],[49.2521,-12.2943],[49.2704,-12.2718],[49.2824,-12.2413],[49.2562,-12.2421],[49.2157,-12.2271],[49.2407,-12.2043],[49.2224,-12.181],[49.2471,-12.1482],[49.2715,-12.1815],[49.2976,-12.1757],[49.3129,-12.1624],[49.3318,-12.1707],[49.3371,-12.186],[49.3563,-12.1876],[49.3524,-12.1565],[49.3415,-12.1462],[49.3424,-12.1215],[49.3593,-12.1074],[49.3426,-12.0888],[49.3387,-12.0632],[49.314,-12.0301],[49.3112,-12.0068],[49.2954,-11.971],[49.2682,-11.9565],[49.244,-11.9521],[49.2051,-11.9899],[49.2287,-11.9985],[49.2249,-12.0182],[49.2032,-12.0037],[49.1835,-12.0124],[49.1732,-12.0462],[49.1993,-12.0449],[49.1965,-12.0743],[49.2129,-12.0976],[49.1879,-12.1029],[49.169,-12.0771],[49.1429,-12.0735],[49.109,-12.0832],[49.0859,-12.1037],[49.1207,-12.1099],[49.1424,-12.1024],[49.1524,-12.1176],[49.1734,-12.1257],[49.194,-12.1457],[49.1865,-12.1729],[49.1679,-12.1715],[49.1437,-12.209],[49.1568,-12.2368],[49.1496,-12.2607],[49.1371,-12.2724],[49.1082,-12.2624],[49.0863,-12.2657],[49.0943,-12.2879],[49.0838,-12.3021],[49.0593,-12.3146],[49.0187,-12.309],[49.0113,-12.3379],[48.9863,-12.3329],[48.9715,-12.3424],[48.9529,-12.3749],[48.9643,-12.3815],[48.9535,-12.406],[48.949,-12.4487],[48.9382,-12.4918],[48.8887,-12.4893],[48.8876,-12.474],[48.8654,-12.4521],[48.8513,-12.4157],[48.7832,-12.4115],[48.7596,-12.3962],[48.7404,-12.4049],[48.7426,-12.4546],[48.7782,-12.4699],[48.7938,-12.4999],[48.8246,-12.5368],[48.8201,-12.5662],[48.8607,-12.5474],[48.8849,-12.5513],[48.8832,-12.5657],[48.8626,-12.5796],[48.8524,-12.6149],[48.8682,-12.6193],[48.8538,-12.6471],[48.8554,-12.6635],[48.8851,-12.6676],[48.8882,-12.6949],[48.8982,-12.7149],[48.9063,-12.7765],[48.9246,-12.7843],[48.9451,-12.8285],[48.9382,-12.8876],[48.912,-12.9423],[48.9065,-12.9635],[48.8754,-13.0032],[48.8635,-13.0346],[48.8429,-13.0532],[48.8279,-13.0796],[48.8054,-13.1335],[48.8076,-13.1749],[48.7976,-13.2046],[48.8046,-13.2468],[48.8154,-13.2679],[48.7985,-13.2862],[48.7782,-13.3468],[48.7926,-13.3635],[48.7615,-13.4051],[48.7376,-13.4193],[48.6765,-13.446],[48.6299,-13.4524],[48.609,-13.4485],[48.5901,-13.4571],[48.5457,-13.4382],[48.5082,-13.409],[48.4924,-13.3738],[48.469,-13.3757],[48.4676,-13.3943],[48.5262,-13.5274],[48.5213,-13.5465],[48.4924,-13.5188],[48.4451,-13.5279],[48.4401,-13.5424],[48.416,-13.529],[48.3685,-13.5513],[48.3518,-13.5343],[48.3274,-13.5504],[48.3229,-13.5649],[48.3451,-13.6082],[48.3204,-13.6346],[48.3213,-13.6637],[48.3138,-13.6837],[48.319,-13.6987],[48.3096,-13.7471],[48.3207,-13.7696],[48.3004,-13.7993],[48.2549,-13.8143],[48.2307,-13.8118],[48.2101,-13.7843],[48.1651,-13.7493],[48.1862,-13.7313],[48.1613,-13.7218],[48.1649,-13.6815],[48.1446,-13.6626],[48.1526,-13.6329],[48.1393,-13.6299],[48.1468,-13.6012],[48.1171,-13.6029],[48.0846,-13.5815],[48.0615,-13.5326],[48.0349,-13.5232],[48.0196,-13.5262],[48.0315,-13.559],[48.0238,-13.5801],[48.0104,-13.5865],[47.9954,-13.5635],[47.971,-13.554],[47.9999,-13.5274],[47.9776,-13.5146],[47.9499,-13.5435],[47.9535,-13.5851],[47.9324,-13.5979],[47.9065,-13.5885],[47.8932,-13.5926],[47.8779,-13.7051],[47.8849,-13.7112],[47.8582,-13.7635],[47.8737,-13.8138],[47.8915,-13.899],[47.9165,-13.916],[47.982377013521464,-13.938966196355093],[47.982394314748696,-13.939082751991192],[48.0165,-13.9729],[47.9857,-13.9801],[47.9657,-14.0032],[47.9226,-14.0026],[47.9754,-14.0504],[48.0024,-14.0662],[48.0288,-14.0699],[48.0299,-14.0896],[48.0455,-14.1199],[48.034,-14.1399],[48.0415,-14.1812],[48.0124,-14.1943],[48.0099,-14.2446],[48.034,-14.2726],[48.0001,-14.2837],[47.9863,-14.3046],[47.9996,-14.3276],[47.9665,-14.3263],[47.9668,-14.2785],[47.9804,-14.2093],[48.0015,-14.149],[47.9885,-14.1268],[47.9615,-14.1207],[47.9404,-14.1026],[47.9087,-14.0882],[47.9087,-14.1215],[47.9338,-14.1457],[47.9471,-14.1679],[47.934,-14.2457],[47.9107,-14.2593],[47.9029,-14.2401],[47.8787,-14.2629],[47.8449,-14.2579],[47.8043,-14.2174],[47.7912,-14.2382],[47.7635,-14.2482],[47.7743,-14.2985],[47.7412,-14.3229],[47.7071,-14.3643],[47.6968,-14.3987],[47.6926,-14.4529],[47.7054,-14.456],[47.7126,-14.4976],[47.7268,-14.5149],[47.7293,-14.5454],[47.7157,-14.5574],[47.7343,-14.6132],[47.7468,-14.6129],[47.7776,-14.5954],[47.7868,-14.5635],[47.8029,-14.5574],[47.8076,-14.5799],[47.8229,-14.6046],[47.8426,-14.6012],[47.8621,-14.611],[47.8832,-14.5846],[47.9065,-14.5779],[47.9782,-14.6107],[48.0038,-14.6287],[48.006,-14.6704],[48.0015,-14.6965],[48.0132,-14.7137],[48.0137,-14.7393],[48.0007,-14.7743],[47.9787,-14.769],[47.9912,-14.7435],[47.9835,-14.7007],[47.9918,-14.6707],[47.9782,-14.6671],[47.9704,-14.6432],[47.9751,-14.6237],[47.9543,-14.6201],[47.9396,-14.6507],[47.9221,-14.6696],[47.9165,-14.6876],[47.8368,-14.639],[47.8304,-14.6226],[47.7893,-14.5949],[47.7518,-14.6196],[47.7329,-14.6457],[47.7254,-14.6763],[47.7126,-14.6949],[47.6912,-14.6949],[47.6793,-14.7371],[47.661,-14.754],[47.629,-14.7993],[47.6413,-14.8104],[47.6274,-14.8363],[47.5871,-14.891],[47.5771,-14.9285],[47.5488,-14.9551],[47.5632,-14.981],[47.5454,-14.9826],[47.5204,-14.9979],[47.4971,-15.029],[47.496,-15.046],[47.4776,-15.0871],[47.4457,-15.1093],[47.4224,-15.1174],[47.3963,-15.1029],[47.4012,-15.0557],[47.4115,-15.039],[47.3988,-14.984],[47.4329,-14.936],[47.4799,-14.8826],[47.5154,-14.8193],[47.4888,-14.8135],[47.4976,-14.7965],[47.4787,-14.7712],[47.4832,-14.7404],[47.5009,-14.7182],[47.4726,-14.7051],[47.451,-14.6768],[47.4076,-14.7124],[47.3518,-14.7654],[47.3115,-14.8149],[47.2788,-14.8613],[47.306,-14.8871],[47.3424,-14.884],[47.3382,-14.8649],[47.3518,-14.8543],[47.3804,-14.8757],[47.3779,-14.8912],[47.3568,-14.9065],[47.3029,-14.9307],[47.2854,-14.9337],[47.259,-14.9582],[47.2521,-14.9796],[47.2165,-14.996],[47.2201,-15.0129],[47.2107,-15.0382],[47.1901,-15.0599],[47.1365,-15.104],[47.1035,-15.1076],[47.0504,-15.1749],[47.0418,-15.1976],[47.0432,-15.2326],[47.0668,-15.2451],[47.066,-15.2676],[47.0907,-15.2821],[47.094,-15.3149],[47.1332,-15.2974],[47.1437,-15.316],[47.1404,-15.3585],[47.161,-15.3829],[47.1813,-15.4199],[47.2249,-15.4221],[47.2165,-15.4446],[47.186,-15.4643],[47.179,-15.4782],[47.1451,-15.4579],[47.0979,-15.4501],[47.0879,-15.4607],[47.0882,-15.5032],[47.0554,-15.4879],[47.0537,-15.5424],[47.0404,-15.5599],[47.0213,-15.5363],[46.9982,-15.4965],[46.974,-15.5063],[46.949,-15.5635],[46.9463,-15.5865],[46.9324,-15.5979],[46.9051,-15.5943],[46.9165,-15.5735],[46.9413,-15.5604],[46.9551,-15.5004],[46.9676,-15.4843],[46.9712,-15.4618],[46.9871,-15.4271],[47.0129,-15.3988],[47.0318,-15.3874],[47.0629,-15.3529],[47.046,-15.3165],[47.0107,-15.309],[46.9707,-15.2896],[46.9579,-15.2415],[46.9663,-15.229],[46.9576,-15.2004],[46.9437,-15.1985],[46.8696,-15.2299],[46.8418,-15.2551],[46.8121,-15.2735],[46.7543,-15.3163],[46.7485,-15.326],[46.6832,-15.3763],[46.6465,-15.3963],[46.6754,-15.4021],[46.6724,-15.4321],[46.6443,-15.4146],[46.6168,-15.4271],[46.5871,-15.4532],[46.5729,-15.4557],[46.5051,-15.5118],[46.4782,-15.5271],[46.4635,-15.5162],[46.4376,-15.5537],[46.4043,-15.5762],[46.3704,-15.6062],[46.3251,-15.6635],[46.3143,-15.6963],[46.2985,-15.7171],[46.3068,-15.7265],[46.3646,-15.7274],[46.3679,-15.7346],[46.3262,-15.7988],[46.2999,-15.806],[46.3032,-15.826],[46.2557,-15.8496],[46.2332,-15.8199],[46.234,-15.7776],[46.246,-15.7629],[46.2424,-15.7379],[46.231,-15.7165],[46.1904,-15.7057],[46.1207,-15.711],[46.0904,-15.7199],[46.0024,-15.8143],[46.0329,-15.8187],[46.054,-15.7968],[46.0621,-15.8174],[46.0421,-15.8443],[46.0696,-15.8557],[46.0462,-15.8687],[46.0276,-15.8479],[46.0068,-15.8457],[45.969,-15.8615],[45.9515,-15.8251],[45.9651,-15.7885],[45.9496,-15.7879],[45.8843,-15.7635],[45.8613,-15.7779],[45.829,-15.784],[45.8132,-15.8046],[45.8138,-15.8263],[45.811,-15.8346],[45.7946,-15.8501],[45.7918,-15.8563],[45.7835,-15.8576],[45.7715,-15.8487],[45.7765,-15.8313],[45.7654,-15.7982],[45.7074,-15.7943],[45.6751,-15.7871],[45.6413,-15.8218],[45.6107,-15.8457],[45.6182,-15.8793],[45.6332,-15.8907],[45.6204,-15.924],[45.616,-15.9654],[45.5946,-16.0088],[45.6126,-16.0285],[45.6054,-16.0438],[45.5824,-16.0249],[45.5629,-16.0493],[45.5379,-16.0496],[45.5762,-16.0076],[45.5815,-15.9926],[45.5588,-15.9624],[45.5412,-15.9515],[45.5054,-15.9663],[45.4538,-15.9746],[45.4168,-15.9868],[45.3804,-15.9815],[45.3613,-15.9874],[45.3626,-16.0224],[45.391,-16.0118],[45.4115,-16.0232],[45.4076,-16.0393],[45.3865,-16.0521],[45.3812,-16.071],[45.3357,-16.081],[45.3299,-16.0985],[45.3065,-16.1254],[45.2882,-16.131],[45.2668,-16.1068],[45.2818,-16.0837],[45.2938,-16.0404],[45.2687,-16.0093],[45.2632,-15.9693],[45.2676,-15.9365],[45.2493,-15.9365],[45.2146,-15.949],[45.1579,-15.9946],[45.134,-16.0035],[45.0829,-16.0524],[45.0683,-16.0751],[45.0315,-16.1043],[45.0146,-16.1254],[44.9476,-16.1626],[44.9443,-16.1887],[44.9257,-16.1807],[44.8779,-16.1915],[44.8424,-16.2404],[44.8365,-16.2574],[44.814,-16.2446],[44.7513,-16.2296],[44.7557,-16.2029],[44.6954,-16.2054],[44.6771,-16.1999],[44.609,-16.1976],[44.6063,-16.1924],[44.5054,-16.1837],[44.4493,-16.1876],[44.4413,-16.1987],[44.4399,-16.2537],[44.4224,-16.3024],[44.4085,-16.3154],[44.4071,-16.3479],[44.4301,-16.409],[44.4679,-16.4882],[44.4718,-16.5263],[44.4668,-16.5482],[44.4293,-16.5701],[44.4226,-16.5829],[44.4396,-16.6601],[44.4229,-16.7188],[44.4115,-16.7188],[44.3843,-16.7499],[44.3763,-16.7724],[44.3465,-16.7962],[44.3349,-16.829],[44.3185,-16.8385],[44.309,-16.8629],[44.2168,-17.0237],[44.1971,-17.0438],[44.1813,-17.0721],[44.1454,-17.1001],[44.1307,-17.1174],[44.1135,-17.1535],[44.0993,-17.1649],[44.1079,-17.1799],[44.0876,-17.2337],[44.0668,-17.2543],[44.0246,-17.3196],[44.0146,-17.3524],[44.0018,-17.3424],[43.984,-17.3857],[43.9732,-17.3974],[43.9521,-17.4646],[43.9365,-17.4887],[43.9404,-17.5071],[43.9282,-17.5176],[43.9365,-17.5924],[43.9474,-17.6171],[43.9576,-17.699],[43.9771,-17.7224],[44.0229,-17.7615],[44.0365,-17.8062],[44.0318,-17.8601],[44.0176,-17.8671],[44.0107,-17.9482],[44.0124,-18.0376],[44.0199,-18.069],[44.0176,-18.1115],[44.0313,-18.1424],[44.0438,-18.2104],[44.0404,-18.2296],[44.0488,-18.2671],[44.049,-18.3354],[44.0393,-18.3563],[44.0446,-18.396],[44.0579,-18.4351],[44.0785,-18.4643],[44.1126,-18.4957],[44.1213,-18.5179],[44.1646,-18.5857],[44.1629,-18.6049],[44.199,-18.6729],[44.2301,-18.7407],[44.2501,-18.7926],[44.2607,-18.854],[44.2393,-18.8724],[44.2538,-18.9088],[44.2449,-18.9221],[44.2351,-18.9801],[44.2435,-19.069],[44.2635,-19.1371],[44.2813,-19.1726],[44.2965,-19.1879],[44.3271,-19.2329],[44.3518,-19.2826],[44.3587,-19.314],[44.3985,-19.3435],[44.4063,-19.3407],[44.4449,-19.3954],[44.4674,-19.459],[44.459,-19.4988],[44.4726,-19.5349],[44.4682,-19.559],[44.4707,-19.5862],[44.4785,-19.5968],[44.4779,-19.6037],[44.4729,-19.6282],[44.4946,-19.6312],[44.5057,-19.6585],[44.5049,-19.6885],[44.4585,-19.6826],[44.449,-19.6435],[44.4168,-19.6515],[44.4115,-19.6982],[44.4207,-19.7213],[44.4104,-19.7604],[44.3907,-19.7796],[44.3976,-19.7971],[44.4093,-19.8057],[44.4207,-19.8076],[44.4279,-19.8115],[44.4212,-19.8199],[44.4118,-19.8224],[44.4099,-19.8401],[44.4257,-19.8493],[44.4418,-19.8321],[44.4693,-19.8285],[44.4582,-19.8621],[44.4776,-19.8785],[44.4679,-19.8943],[44.479,-19.9154],[44.4876,-19.951],[44.4865,-19.981],[44.4679,-20.0118],[44.4549,-20.0076],[44.4465,-20.0457],[44.4232,-20.0749],[44.40653870967742,-20.108251612903224]]],[[[47.0088,-15.4985],[47.0065,-15.5065],[47.029,-15.5435],[47.0388,-15.5346],[47.0088,-15.4985]]],[[[47.5965,-14.5074],[47.5771,-14.5232],[47.5762,-14.5796],[47.6274,-14.5718],[47.626,-14.5565],[47.6032,-14.5379],[47.5965,-14.5074]]],[[[47.9413,-14.6324],[47.9029,-14.6349],[47.9063,-14.6507],[47.936,-14.6501],[47.9413,-14.6324]]],[[[47.8032,-14.1435],[47.7988,-14.1679],[47.8229,-14.184],[47.8312,-14.1768],[47.8032,-14.1435]]],[[[47.7893,-13.9715],[47.7818,-13.9812],[47.7857,-14.0385],[47.8315,-14.0543],[47.8032,-13.9932],[47.7893,-13.9715]]],[[[48.4732,-13.3054],[48.4549,-13.3093],[48.4801,-13.3462],[48.4921,-13.3162],[48.4732,-13.3054]]],[[[48.2776,-13.1996],[48.2568,-13.204],[48.2443,-13.2215],[48.2629,-13.2649],[48.2393,-13.2785],[48.2115,-13.2674],[48.1993,-13.2526],[48.1729,-13.2593],[48.1993,-13.2835],[48.1826,-13.3026],[48.184,-13.339],[48.1926,-13.386],[48.2463,-13.4049],[48.2618,-13.416],[48.296,-13.4004],[48.3101,-13.4235],[48.3329,-13.419],[48.3493,-13.3818],[48.3354,-13.3804],[48.3143,-13.3599],[48.3218,-13.3451],[48.3462,-13.3468],[48.346,-13.3212],[48.3235,-13.311],[48.3257,-13.2749],[48.2951,-13.2576],[48.3096,-13.2185],[48.2776,-13.1996]]],[[[48.3485,-13.4424],[48.3321,-13.4471],[48.3243,-13.4724],[48.3454,-13.4996],[48.3676,-13.4907],[48.3724,-13.4679],[48.3485,-13.4424]]],[[[48.6207,-12.8215],[48.6051,-12.8729],[48.581,-12.9001],[48.5632,-12.8874],[48.551,-12.896],[48.5865,-12.9371],[48.606,-12.9265],[48.6162,-12.8985],[48.6087,-12.8735],[48.6296,-12.8346],[48.6207,-12.8215]]]]},"properties":{"GID_0":"MDG","ISO_A2":"MG","ISO_A3":"MDG","NAME_EN":"Madagascar","NAME_IT":"Madagascar"}}
]}