{"type":"FeatureCollection", "features": [
{"type":"Feature","geometry":{"type":"MultiPolygon","coordinates":[[[[-2.5813,49.4243],[-2.5674,49.4229],[-2.5274,49.424],[-2.5332,49.4446],[-2.5251,49.4518],[-2.5357,49.4663],[-2.5257,49.4751],[-2.5021,49.4885],[-2.5013,49.4982],[-2.5101,49.5051],[-2.5729,49.4979],[-2.5912,49.4882],[-2.5918,49.4768],[-2.6063,49.4762],[-2.6099,49.4651],[-2.6332,49.4654],[-2.6518,49.4535],[-2.6512,49.4415],[-2.6571,49.4343],[-2.676,49.4357],[-2.6676,49.4235],[-2.6487,49.4254],[-2.6271,49.4201],[-2.5851,49.419],[-2.5813,49.4243]]],[[[-2.3682,49.4518],[-2.3663,49.4415],[-2.3754,49.4349],[-2.374,49.4204],[-2.3646,49.4193],[-2.3429,49.4271],[-2.3415,49.4329],[-2.3535,49.444],[-2.3682,49.4518]]],[[[-2.176,49.7326],[-2.1843,49.7326],[-2.2329,49.7118],[-2.2349,49.7038],[-2.2126,49.7004],[-2.1751,49.7135],[-2.1557,49.726],[-2.1624,49.7326],[-2.176,49.7326]]]]},"properties":{"GID_0":"GGY","ISO_A2":"GG","ISO_A3":"GGY","NAME_EN":"Guernsey","NAME_IT":"Guernsey"}}
]}