{"type":"FeatureCollection", "features": [
{"type":"Feature","geometry":{"type":"MultiPolygon","coordinates":[[[[52.4856,41.8613],[52.4531,41.7707],[52.9594,42.1033],[53.4202,42.2588],[53.5861,42.2927],[53.9225,42.3335],[54.1663,42.3435],[54.2872,42.3054],[54.836,42.0224],[54.9577,41.9096],[54.9685,41.8014],[55.0712,41.7088],[55.146,41.5766],[55.2834,41.4158],[55.4662,41.2757],[56.0006,41.318],[55.9981,45],[57.0636,45.2478],[58.5697,45.5711],[58.9672,45.3628],[59.4576,45.1136],[59.7927,44.923],[60.1083,44.7159],[61.0361,44.1371],[61.2754,44.1368],[61.9756,43.5123],[62.0287,43.4865],[62.9389,43.6167],[63.3814,43.6734],[63.9119,43.6281],[64.5365,43.6033],[65.0103,43.7669],[65.1702,43.7435],[65.2941,43.5453],[65.6511,43.3035],[65.8272,42.8681],[66.0992,42.9622],[66.1057,42.3473],[66.0353,42.3699],[66.0134,42.2463],[66.0085,41.9435],[66.5308,41.8963],[66.6061,41.2514],[67.3112,41.2118],[67.7363,41.2028],[67.9016,41.0868],[67.9935,41.0637],[67.9931,40.8974],[67.8894,40.8575],[68.0982,40.7575],[68.4168,40.5752],[68.5221,40.5517],[68.6849,40.5957],[68.5191,40.7802],[68.5379,40.9025],[68.5158,40.9815],[68.6017,41.0158],[68.6453,40.9363],[68.7448,40.9875],[68.8626,41.1493],[68.9882,41.2532],[69.0332,41.3422],[69.2315,41.4617],[69.4051,41.5016],[69.6211,41.658],[69.8435,41.7191],[69.9521,41.7188],[69.9846,41.7808],[70.1597,41.8443],[70.2403,41.9412],[70.3309,41.9756],[70.3226,42.0344],[70.4333,42.1301],[70.627,42.0008],[70.6936,42.1268],[70.801,42.2099],[70.9073,42.2263],[70.8718,42.3185],[70.9648,42.4731],[71.0958,42.5002],[71.0312,42.595],[71.1768,42.6011],[71.1747,42.672],[71.4105,42.797],[71.5349,42.8018],[71.6372,42.7671],[71.8636,42.8328],[72.0886,42.7443],[72.282,42.7593],[72.4989,42.6851],[72.7443,42.6389],[72.818,42.5591],[72.9754,42.5276],[73.0911,42.5364],[73.2981,42.5061],[73.3462,42.4272],[73.5111,42.4162],[73.4385,42.51],[73.4279,42.6406],[73.5037,42.7832],[73.5002,42.9069],[73.5713,43.0342],[73.7783,43.1088],[73.8971,43.1017],[73.9544,43.192],[74.0519,43.1582],[74.2943,43.2382],[74.4157,43.1688],[74.5673,43.1319],[74.7405,42.9944],[74.8442,43.0044],[75.2324,42.8377],[75.322,42.8565],[75.4278,42.822],[75.614,42.8208],[75.7163,42.7972],[75.7992,42.9149],[75.933,42.9526],[76.0354,42.9099],[76.2685,42.9192],[76.3406,42.864],[76.5141,42.9187],[76.7232,42.9052],[76.8597,42.9851],[77.1758,42.9598],[77.233,42.9155],[77.4503,42.9357],[78.079,42.8546],[78.2045,42.874],[78.3178,42.8564],[78.5005,42.9004],[78.6923,42.8206],[78.937,42.7747],[79.1663,42.7488],[79.2515,42.6322],[79.3702,42.5804],[79.5095,42.4564],[79.6646,42.4769],[79.9516,42.4296],[80.0848,42.3284],[80.1183,42.2056],[80.289,42.2601],[80.2085,42.4277],[80.2213,42.5363],[80.1673,42.6366],[80.2583,42.8284],[80.3981,42.8274],[80.5683,42.924],[80.3949,42.9954],[80.4097,43.0573],[80.5931,43.1318],[80.7165,43.1323],[80.7994,43.1754],[80.7588,43.2933],[80.6607,43.3128],[80.746,43.4485],[80.5901,43.7414],[80.5197,43.8342],[80.4028,44.198],[80.4001,44.2894],[80.3428,44.4813],[80.4041,44.6092],[80.3602,44.6539],[80.4897,44.7114],[80.3406,44.8203],[80.2467,44.8396],[80.0402,44.8004],[79.9604,44.8789],[79.9953,44.9691],[80.0818,45.0496],[80.363,45.042],[80.4451,45.1027],[80.606,45.1103],[80.7514,45.1577],[80.8541,45.128],[81.0752,45.1744],[81.1126,45.2197],[81.4528,45.2687],[81.6896,45.3666],[81.7881,45.3069],[81.8278,45.2],[82.0082,45.1585],[82.2408,45.2354],[82.3268,45.2158],[82.4862,45.1207],[82.5925,45.2315],[82.6309,45.3597],[82.5901,45.4456],[82.417,45.4715],[82.2757,45.5454],[82.2891,45.6325],[82.4188,45.8664],[82.5044,45.9834],[82.529,46.184],[82.739,46.5177],[82.8073,46.7496],[82.8902,46.8764],[82.9364,47.0124],[82.9799,47.0307],[83.0309,47.2121],[83.1747,47.2237],[83.3435,47.1761],[83.5553,47.0683],[84.0382,46.9654],[84.2148,46.9996],[84.4204,47.0109],[84.507,46.9778],[84.7047,46.9962],[84.8267,46.8323],[84.9626,46.8716],[85.1902,47.0069],[85.2194,47.0514],[85.5297,47.0594],[85.5765,47.1907],[85.6907,47.2182],[85.6983,47.3978],[85.6035,47.5197],[85.6212,47.6076],[85.5416,47.9394],[85.6121,48.0833],[85.6104,48.1567],[85.7355,48.371],[85.8394,48.4255],[86.0148,48.4493],[86.2144,48.4355],[86.3181,48.501],[86.4482,48.4991],[86.5885,48.543],[86.6341,48.6247],[86.7631,48.7148],[86.752,48.7944],[86.8104,48.8503],[86.7389,48.9062],[86.7232,48.9907],[86.8552,49.1075],[86.986,49.1031],[87.1347,49.1508],[87.3127,49.1163],[87.2684,49.2165],[87.0471,49.2547],[86.902,49.3508],[86.8214,49.4445],[86.796,49.5475],[86.6342,49.5817],[86.618,49.6316],[86.7834,49.711],[86.8032,49.8032],[86.6236,49.7732],[86.4265,49.6387],[85.9797,49.4862],[85.9313,49.5524],[85.6513,49.5612],[85.5257,49.6048],[85.4208,49.5637],[85.2123,49.6268],[85.1965,49.7376],[85.1048,49.8747],[84.981,49.9208],[84.998,50.0561],[84.8342,50.0967],[84.6668,50.1824],[84.4776,50.2502],[84.3364,50.2198],[84.2626,50.2697],[84.2189,50.5323],[83.9597,50.7286],[83.944,50.7902],[83.8119,50.8849],[83.5608,50.9609],[83.1197,51.0354],[82.9597,50.9179],[82.7588,50.9516],[82.7021,50.8527],[82.5483,50.7692],[82.2617,50.786],[82.12,50.751],[81.9873,50.8099],[81.7744,50.8144],[81.593,50.7531],[81.4792,50.8208],[81.391,50.9963],[81.0615,50.9594],[81.1447,51.2017],[81.0515,51.1898],[80.9039,51.2565],[80.6824,51.3082],[80.6225,51.207],[80.4409,51.2058],[80.4688,50.9745],[80.251,50.927],[80.1926,50.832],[80.092,50.8317],[79.9481,50.9012],[79.5905,51.3745],[79.074,52.0417],[78.5496,52.6162],[78.2499,52.9543],[77.9115,53.2785],[77.5703,53.481],[76.762,53.8691],[76.5838,53.9678],[76.4267,54.1682],[76.7486,54.1604],[76.8425,54.2346],[76.913,54.4579],[76.7452,54.4197],[76.6518,54.3464],[76.5041,54.3268],[76.234,54.3561],[76.2273,54.2743],[75.6009,54.1051],[75.3972,54.0823],[75.4825,54.0107],[75.3841,53.9472],[75.0168,53.7845],[74.8032,53.8159],[74.6861,53.7568],[74.6413,53.667],[74.4719,53.6837],[74.4848,53.5801],[74.4039,53.4611],[74.1514,53.5511],[74.0745,53.6255],[73.9034,53.6484],[73.8337,53.5863],[73.6749,53.6243],[73.6494,53.5593],[73.449,53.4448],[73.4008,53.5316],[73.246,53.5753],[73.3295,53.6879],[73.3475,53.7928],[73.4562,53.8135],[73.4743,53.8829],[73.6913,53.8621],[73.7504,54.0543],[73.6313,54.0424],[73.2893,53.9533],[73.0844,53.9905],[72.9811,54.0983],[72.6009,54.134],[72.5197,54.0501],[72.5541,53.9896],[72.4934,53.9138],[72.3775,53.9533],[72.4181,54.1495],[72.2985,54.1956],[72.2633,54.32],[72.1772,54.3587],[72.0822,54.2359],[71.7671,54.2485],[71.7466,54.1385],[71.5249,54.1086],[71.354,54.1835],[71.2104,54.1109],[71.073,54.2161],[71.0152,54.3404],[71.2031,54.3233],[71.2321,54.3943],[71.1989,54.5853],[71.2972,54.6655],[71.1369,54.7082],[70.9995,54.8788],[71.015,55.0729],[70.8305,55.2573],[70.471,55.2806],[70.4115,55.2092],[70.2179,55.1333],[69.9196,55.2156],[69.8315,55.3024],[69.668,55.3429],[69.3302,55.3626],[69.1857,55.3392],[69.1397,55.3892],[68.9499,55.4318],[68.9213,55.3585],[68.7247,55.3403],[68.6174,55.189],[68.2915,55.1975],[68.1769,55.1823],[68.2853,55.0644],[68.2014,54.9579],[68.0094,54.9446],[67.8844,54.9786],[67.7523,54.8787],[67.5525,54.8384],[67.3016,54.8592],[67.2804,54.8208],[66.7817,54.7604],[66.3445,54.689],[66.0201,54.6181],[65.9707,54.6922],[65.8325,54.6884],[65.7419,54.603],[65.5013,54.6512],[65.2008,54.5246],[65.2402,54.3675],[65.1208,54.3378],[64.9779,54.4196],[64.8096,54.3668],[64.7426,54.4046],[64.4156,54.3278],[64.0308,54.2815],[63.8804,54.2859],[63.5165,54.2055],[63.1683,54.1924],[63.0621,54.1004],[62.8513,54.1123],[62.4541,53.9259],[62.3359,54.0347],[62.0884,54.0579],[61.9496,53.9458],[61.7376,54.0294],[61.5815,53.9954],[61.4611,54.084],[61.3313,54.0798],[61.2757,53.9848],[61.0277,53.9519],[61.2183,53.8159],[61.1108,53.7161],[60.916,53.6167],[61.1722,53.5679],[61.556,53.5749],[61.5852,53.5046],[61.4813,53.4613],[61.3014,53.5072],[61.1611,53.3921],[61.1827,53.2962],[61.3953,53.2671],[61.4629,53.2238],[61.7165,53.232],[61.799,53.1609],[62.1106,53.1168],[62.1373,53.0057],[62.008,52.9516],[61.8929,53.0105],[61.6415,52.963],[61.4597,53.035],[61.3713,52.9867],[61.2368,53.0318],[61.0252,52.98],[61.0739,52.9122],[60.8258,52.7625],[60.7169,52.7415],[60.7145,52.6538],[60.8412,52.6189],[60.8434,52.5264],[60.9667,52.5061],[61.0719,52.3377],[60.9642,52.2736],[60.7949,52.2314],[60.7219,52.1687],[60.4899,52.1484],[60.3249,52.0395],[60.073,51.9934],[60.06,51.919],[60.1809,51.9036],[60.5226,51.7822],[60.3919,51.7016],[60.5986,51.6152],[60.9051,51.6141],[61.0027,51.4651],[61.1812,51.4566],[61.2888,51.4102],[61.5105,51.4139],[61.5527,51.3403],[61.6763,51.2648],[61.5798,51.232],[61.4508,50.8073],[61.008,50.6861],[60.8279,50.661],[60.3549,50.6794],[60.069,50.8656],[60.0038,50.829],[59.8327,50.5843],[59.5407,50.517],[59.4844,50.6561],[59.3899,50.6482],[59.0312,50.7011],[58.8834,50.7091],[58.7683,50.838],[58.5988,50.8267],[58.5665,50.941],[58.5996,51.0224],[58.5458,51.0751],[58.3573,51.0908],[58.25,51.149],[58.1703,51.0677],[57.7543,51.1297],[57.7392,50.958],[57.4269,50.8957],[57.319,50.955],[57.1835,51.0953],[57.0524,51.0566],[56.7224,51.0755],[56.744,50.9783],[56.4779,50.9803],[56.3836,50.926],[56.1739,50.9186],[56.1384,50.7712],[55.9733,50.6851],[55.6637,50.5722],[55.4991,50.6465],[55.355,50.6599],[55.0611,50.8326],[54.7063,50.8942],[54.6554,50.8105],[54.7286,50.6346],[54.625,50.5508],[54.5081,50.54],[54.4258,50.6194],[54.4731,50.789],[54.4433,50.872],[54.3155,50.8786],[54.166,51.0201],[54.1295,51.1188],[53.9063,51.1971],[53.7499,51.2035],[53.6147,51.2928],[53.5703,51.4316],[53.3788,51.514],[53.2743,51.4915],[53.1484,51.5255],[52.9582,51.4719],[52.8021,51.505],[52.5456,51.4674],[52.5043,51.547],[52.383,51.6568],[52.3543,51.7598],[52.1412,51.668],[52.0194,51.6541],[51.8573,51.6833],[51.7615,51.6027],[51.7939,51.5307],[51.6491,51.4687],[51.586,51.5339],[51.4289,51.4826],[51.2756,51.5003],[51.3642,51.5767],[51.3586,51.6533],[51.2668,51.6897],[51.0617,51.6678],[50.8895,51.6805],[50.8626,51.7394],[50.7431,51.7649],[50.7168,51.6284],[50.5676,51.6424],[50.5142,51.6013],[50.4606,51.4393],[50.3623,51.4366],[50.3676,51.3403],[49.9523,51.2406],[49.736,51.1147],[49.4205,51.1296],[49.3248,50.9896],[49.4109,50.8584],[49.093,50.7835],[48.9387,50.6588],[48.8247,50.6003],[48.7005,50.6232],[48.6361,50.5423],[48.7168,50.256],[48.7794,50.1802],[48.7619,50.1019],[48.8775,50.0234],[48.735,49.9268],[48.4333,49.838],[48.2169,49.9094],[48.0965,50.0914],[47.8166,50.3313],[47.5515,50.4627],[47.3196,50.3318],[47.2609,50.1989],[47.3394,50.1053],[47.2241,49.9664],[47.1087,49.9032],[46.8929,49.8393],[46.8596,49.6082],[46.8199,49.5569],[46.7827,49.3327],[47.0215,49.2089],[47.0528,49.1649],[46.9376,49.0037],[46.7785,48.9385],[46.4919,48.443],[46.7718,48.3562],[46.9087,48.339],[47.0976,48.211],[47.1394,48.0399],[47.0177,48],[47.1619,47.8368],[47.1743,47.7607],[47.3713,47.6769],[47.4067,47.8126],[47.6873,47.745],[48.044,47.7647],[48.1823,47.678],[48.3807,47.4336],[48.6078,47.4145],[48.6614,47.2091],[48.7813,47.0109],[48.971,46.8351],[49.0053,46.7672],[48.9141,46.6931],[48.7513,46.6879],[48.657,46.7713],[48.5115,46.7332],[48.4807,46.6577],[48.5587,46.6083],[48.7759,46.5359],[48.8162,46.4802],[49.151,46.3697],[49.3122,46.4166],[49.362,46.2973],[49.447,46.3461],[49.6188,46.27],[49.6364,46.3463],[49.882,46.4913],[49.9669,46.5942],[50.0355,46.5814],[50.1196,46.6863],[50.2172,46.7502],[50.4996,46.7873],[50.6044,46.846],[50.735,46.8543],[50.7904,46.9226],[50.913,46.9582],[51.1028,46.9381],[51.2067,47.0088],[51.38,47.0094],[51.5107,46.9831],[51.7422,46.8532],[52.1823,46.7739],[52.3417,46.7641],[52.4744,46.8513],[52.6553,46.8635],[52.7261,46.7527],[52.9792,46.6801],[52.9906,46.4791],[53.0693,46.417],[52.9761,46.3484],[52.8238,46.064],[52.9055,45.9113],[52.818,45.8327],[52.8103,45.683],[52.7246,45.618],[52.7784,45.5717],[52.7112,45.4566],[52.7752,45.3677],[52.6236,45.368],[52.5708,45.4208],[52.4383,45.4356],[52.3049,45.4104],[51.9649,45.3924],[51.7351,45.4452],[51.6914,45.3984],[51.5412,45.3435],[51.4078,45.3577],[51.2823,45.2483],[51.1721,45.0647],[51.0452,44.989],[50.9609,44.9826],[50.8666,44.8962],[50.8747,44.8114],[51,44.8288],[51.1677,44.7418],[51.3041,44.5875],[51.1936,44.4748],[51.0869,44.4763],[50.8995,44.6115],[50.7299,44.6064],[50.3087,44.6446],[50.2329,44.5393],[50.2648,44.3516],[50.4037,44.2934],[50.5904,44.2829],[50.7729,44.2353],[50.8712,44.0936],[50.8636,44.0274],[50.9853,43.9429],[51.0165,43.8053],[51.1548,43.6256],[51.2667,43.5613],[51.3072,43.4693],[51.3111,43.3341],[51.2683,43.1512],[51.6521,43.1776],[51.666,43.0935],[51.7746,43.0142],[51.894,42.8413],[52.1303,42.875],[52.2327,42.8531],[52.2822,42.7916],[52.4308,42.8386],[52.6098,42.8039],[52.7374,42.7266],[52.7279,42.5962],[52.5686,42.3108],[52.434,42.161],[52.4189,42.0825],[52.4898,41.9406],[52.4856,41.8613]]],[[[52.6926,45.473],[52.6534,45.5306],[52.544,45.4755],[52.6293,45.3848],[52.6926,45.473]]],[[[50.2205,45.0172],[50.2698,44.8991],[50.3648,44.9928],[50.3504,45.0653],[50.2205,45.0172]]]]},"properties":{"GID_0":"KAZ","ISO_A2":"KZ","ISO_A3":"KAZ","NAME_EN":"Kazakhstan","NAME_IT":"Kazakistan"}}
]}