{"type":"FeatureCollection", "features": [
{"type":"Feature","geometry":{"type":"Polygon","coordinates":[[[-62.8445,17.8865],[-62.8381,17.8784],[-62.828,17.8801],[-62.8192,17.8879],[-62.8103,17.8833],[-62.8088,17.8916],[-62.7962,17.8975],[-62.796,17.9054],[-62.8174,17.9137],[-62.8289,17.9094],[-62.8365,17.9031],[-62.8362,17.893],[-62.8445,17.8865]]]},"properties":{"NAME_1":"AuVent","GID_1":"BLM.1_1"}},
{"type":"Feature","geometry":{"type":"Polygon","coordinates":[[[-62.8365,17.9031],[-62.8486,17.9173],[-62.8635,17.9199],[-62.8698,17.9159],[-62.8563,17.9083],[-62.8505,17.8929],[-62.8445,17.8865],[-62.8362,17.893],[-62.8365,17.9031]]]},"properties":{"NAME_1":"SousleVent","GID_1":"BLM.2_1"}}
]}