{"type":"FeatureCollection", "features": [
{"type":"Feature","geometry":{"type":"Polygon","coordinates":[[[-55.9868,2.5013],[-55.9388,2.5316],[-55.8318,2.464],[-55.7684,2.4456],[-55.7389,2.4012],[-55.5917,2.4334],[-55.4285,2.4394],[-55.3647,2.4127],[-55.3579,2.4872],[-55.2993,2.522],[-55.212,2.5121],[-55.129,2.5698],[-55.1027,2.5224],[-54.9726,2.6047],[-54.9596,2.5444],[-54.8568,2.4348],[-54.7431,2.4787],[-54.6922,2.4558],[-54.7233,2.3968],[-54.7032,2.3413],[-54.6419,2.3268],[-54.5485,2.3379],[-54.5228,2.3071],[-54.433,2.3403],[-54.4446,2.4229],[-54.3628,2.4994],[-54.2658,2.7109],[-54.1841,2.8373],[-54.1679,2.9699],[-54.2102,3.129],[-54.1179,3.2819],[-54.0623,3.3198],[-54.014,3.4252],[-53.9785,3.6089],[-54.0776,3.6884],[-54.123,3.7989],[-54.1928,3.8094],[-54.3012,3.9851],[-54.3627,4.0575],[-54.3212,4.143],[-54.3837,4.182],[-54.3908,4.333],[-54.4188,4.373],[-54.4464,4.5219],[-54.4132,4.6107],[-54.4256,4.7142],[-54.4664,4.7391],[-54.4742,4.9036],[-54.4481,4.9383],[-54.4154,5.0662],[-54.3008,5.2395],[-54.1361,5.3655],[-54.1267,5.4053],[-54.0145,5.5438],[-54.0116,5.6214],[-54.0378,5.663],[-53.9841,5.7493],[-54.0349,5.8404],[-54.1971,5.8854],[-54.4765,5.9432],[-54.6815,5.9785],[-55.041,5.9935],[-55.131,5.9763],[-55.1815,5.8965],[-55.2276,5.9037],[-55.3649,5.9718],[-55.6029,5.9921],[-55.8229,5.9837],[-55.8896,5.9671],[-55.9574,5.8951],[-55.9365,5.8054],[-56.321,5.8924],[-56.5701,5.9424],[-56.6482,5.9771],[-56.8507,5.9868],[-56.961,6.0151],[-57.0624,5.9493],[-57.1782,5.8042],[-57.1807,5.6135],[-57.2793,5.4571],[-57.2775,5.4121],[-57.3308,5.3487],[-57.2976,5.2922],[-57.2952,5.2209],[-57.34,5.071],[-57.4157,5.0055],[-57.5394,5.028],[-57.6138,5.0068],[-57.6905,5.0179],[-57.8736,4.9047],[-57.9286,4.833],[-57.8832,4.7606],[-57.8458,4.631],[-57.9246,4.4614],[-58,4.3264],[-58.0018,4.2686],[-58.0864,4.1312],[-58.0572,4.0748],[-58.0507,3.982],[-58,3.8936],[-57.9286,3.8896],[-57.8573,3.7775],[-57.8282,3.652],[-57.7409,3.6041],[-57.6742,3.5065],[-57.6924,3.4022],[-57.6106,3.3854],[-57.478,3.3335],[-57.3051,3.3735],[-57.2946,3.1292],[-57.2137,3.0684],[-57.2258,2.902],[-57.2076,2.8418],[-57.1098,2.7705],[-57.0599,2.6443],[-56.996,2.5539],[-56.9948,2.5035],[-56.8811,2.3552],[-56.8838,2.3009],[-56.8256,2.2707],[-56.8196,2.2047],[-56.707,2.034],[-56.5871,2.0206],[-56.3975,1.9224],[-56.3642,1.939],[-56.254,1.8869],[-56.1886,1.8918],[-55.995,1.8311],[-55.9058,1.8911],[-55.9228,1.9764],[-55.9099,2.0327],[-56.0476,2.2281],[-56.1272,2.2536],[-56.0902,2.352],[-56.0443,2.3449],[-55.9873,2.4276],[-55.9868,2.5013]]]},"properties":{"GID_0":"SUR","ISO_A2":"SR","ISO_A3":"SUR","NAME_EN":"Suriname","NAME_IT":"Suriname"}}
]}