{"type":"FeatureCollection", "features": [
{"type":"Feature","geometry":{"type":"MultiPolygon","coordinates":[[[[8.6774,3.2093],[8.7129,3.2646],[8.7643,3.3171],[8.7699,3.3974],[8.8082,3.4235],[8.8104,3.4543],[8.8357,3.4832],[8.8687,3.5574],[8.9321,3.6363],[8.9337,3.7157],[8.8985,3.7651],[8.8065,3.754],[8.7329,3.759],[8.7149,3.7887],[8.6415,3.6968],[8.6132,3.6707],[8.6093,3.5671],[8.5707,3.5213],[8.5735,3.4685],[8.4568,3.4649],[8.4176,3.381],[8.4168,3.3421],[8.4443,3.2746],[8.5579,3.239],[8.5899,3.2462],[8.6774,3.2093]]],[[[9.9967,0.9976],[10.4468,0.9983],[10.9863,0.9983],[11.3167,0.9971],[11.3348,0.9993],[11.3336,1.3031],[11.3374,1.3811],[11.3337,1.7454],[11.3344,2.1724],[10.1901,2.1717],[10.1661,2.1507],[9.9889,2.1673],[9.9556,2.1886],[9.8975,2.2022],[9.8776,2.2313],[9.8461,2.2446],[9.83,2.2902],[9.8352,2.3275],[9.8096,2.3357],[9.7751,2.3154],[9.7901,2.2679],[9.7968,2.1679],[9.7865,2.1235],[9.7676,2.1099],[9.8118,1.9438],[9.8093,1.9124],[9.7846,1.8779],[9.7429,1.8454],[9.7399,1.7982],[9.7054,1.756],[9.6818,1.7465],[9.6571,1.7074],[9.6087,1.6676],[9.6043,1.634],[9.6268,1.5951],[9.596,1.574],[9.561,1.4874],[9.5399,1.4613],[9.4788,1.4193],[9.4585,1.3932],[9.4618,1.334],[9.3899,1.2493],[9.3693,1.1862],[9.3407,1.1732],[9.411,1.1049],[9.5068,1.1379],[9.5338,1.1296],[9.5701,1.0796],[9.5854,1.031],[9.6712,1.0636],[9.7363,1.069],[9.7861,1.0248],[9.7902,0.9984],[9.842,0.998],[9.8782,0.9824],[9.8948,0.9547],[9.9426,0.9254],[9.9922,0.9292],[9.9967,0.9976]]]]},"properties":{"GID_0":"GNQ","ISO_A2":"GQ","ISO_A3":"GNQ","NAME_EN":"Eq. Guinea","NAME_IT":"Guinea Equatoriale"}}
]}