{"type":"FeatureCollection", "features": [
{"type":"Feature","geometry":{"type":"MultiPolygon","coordinates":[[[[43.659,-12.2493],[43.626,-12.2629],[43.634,-12.319],[43.6607,-12.3307],[43.6749,-12.3646],[43.7068,-12.359],[43.756,-12.3624],[43.8371,-12.3851],[43.8674,-12.3862],[43.8701,-12.3624],[43.8521,-12.341],[43.7762,-12.3051],[43.7268,-12.2724],[43.659,-12.2493]]],[[[44.469,-12.0688],[44.4174,-12.094],[44.4338,-12.1196],[44.4168,-12.1562],[44.4001,-12.1579],[44.3749,-12.1835],[44.3076,-12.1971],[44.2432,-12.1818],[44.2329,-12.1682],[44.2057,-12.1763],[44.2401,-12.1999],[44.3193,-12.2396],[44.3393,-12.2371],[44.3851,-12.254],[44.404,-12.2851],[44.4304,-12.2971],[44.4374,-12.3137],[44.4724,-12.3318],[44.4929,-12.356],[44.4901,-12.376],[44.5276,-12.3821],[44.534,-12.3501],[44.5243,-12.2826],[44.5335,-12.2657],[44.521,-12.1982],[44.4865,-12.1126],[44.4924,-12.0968],[44.469,-12.0688]]],[[[43.4085,-11.4654],[43.4107,-11.4099],[43.3963,-11.3779],[43.3563,-11.3649],[43.3021,-11.3782],[43.279,-11.3965],[43.2632,-11.4512],[43.276,-11.491],[43.2651,-11.5351],[43.2676,-11.5799],[43.2596,-11.6004],[43.266,-11.6737],[43.2535,-11.6843],[43.2287,-11.7376],[43.239,-11.781],[43.2618,-11.7968],[43.2696,-11.824],[43.2899,-11.8482],[43.3251,-11.861],[43.3593,-11.8562],[43.3832,-11.8629],[43.3965,-11.8885],[43.4565,-11.9387],[43.4979,-11.9254],[43.514,-11.9004],[43.4679,-11.824],[43.4524,-11.7854],[43.4554,-11.7487],[43.4212,-11.6751],[43.3999,-11.6546],[43.3915,-11.6121],[43.4029,-11.5712],[43.4085,-11.4654]]]]},"properties":{"GID_0":"COM","ISO_A2":"KM","ISO_A3":"COM","NAME_EN":"Comoros","NAME_IT":"Comore"}}
]}