{"type":"FeatureCollection", "features": [
{"type":"Feature","geometry":{"type":"MultiPolygon","coordinates":[[[[15.1371,36.6879],[15.1226,36.7021],[15.1226,36.7335],[15.1015,36.7615],[15.0943,36.7976],[15.106,36.8054],[15.1068,36.8404],[15.1376,36.8671],[15.1585,36.9196],[15.2057,36.9607],[15.2618,36.9743],[15.2679,37.0024],[15.3013,37.0151],[15.269,37.0546],[15.2993,37.059],[15.2965,37.106],[15.2626,37.1063],[15.2199,37.1304],[15.2024,37.1779],[15.1849,37.1957],[15.1904,37.2324],[15.2304,37.244],[15.241,37.2613],[15.2065,37.2935],[15.1946,37.2826],[15.1626,37.2885],[15.1351,37.3099],[15.0993,37.3165],[15.0907,37.344],[15.0915,37.4076],[15.0843,37.4826],[15.1196,37.5307],[15.1432,37.5429],[15.1768,37.576],[15.1749,37.6326],[15.1996,37.6549],[15.1993,37.6768],[15.2196,37.7104],[15.2046,37.7396],[15.2435,37.7962],[15.2654,37.8154],[15.3051,37.8774],[15.3446,37.9093],[15.3468,37.9199],[15.4407,38.0243],[15.4768,38.0537],[15.5026,38.089],[15.5224,38.1301],[15.5626,38.1838],[15.5724,38.2349],[15.6057,38.2746],[15.5504,38.301],[15.5212,38.2985],[15.4529,38.2529],[15.399,38.2304],[15.3507,38.2163],[15.2879,38.2062],[15.2285,38.2088],[15.2157,38.1885],[15.1718,38.1512],[15.0896,38.1199],[15.0554,38.1329],[15.0454,38.1521],[14.969,38.1526],[14.9468,38.1771],[14.9151,38.1926],[14.8879,38.1712],[14.8565,38.1693],[14.7921,38.1524],[14.7463,38.1654],[14.6838,38.104],[14.6307,38.0704],[14.5871,38.0593],[14.5562,38.0601],[14.5338,38.0451],[14.4737,38.0329],[14.4235,38.0401],[14.3963,38.0232],[14.3137,38.0088],[14.2287,38.0104],[14.1543,38.0246],[14.1071,38.0149],[14.064,38.019],[14.0215,38.0421],[13.9915,38.0304],[13.941,38.0246],[13.8604,37.9901],[13.7985,37.9751],[13.7435,37.9707],[13.7049,37.9899],[13.649,37.9996],[13.5657,38.0393],[13.5407,38.0582],[13.5401,38.0968],[13.5065,38.1201],[13.4904,38.1018],[13.446,38.0949],[13.3843,38.1085],[13.3665,38.1268],[13.3768,38.1518],[13.3585,38.1921],[13.3324,38.1971],[13.3182,38.2251],[13.2707,38.1999],[13.2435,38.199],[13.2335,38.1824],[13.1932,38.1696],[13.1643,38.1707],[13.1046,38.1915],[13.0849,38.1601],[13.056,38.1318],[13.0771,38.0874],[12.9926,38.0454],[12.9496,38.031],[12.8915,38.0251],[12.829,38.0651],[12.7901,38.1101],[12.791,38.1363],[12.771,38.1507],[12.769,38.1793],[12.7321,38.1793],[12.7176,38.169],[12.7374,38.1399],[12.7115,38.1104],[12.6607,38.1126],[12.6629,38.0935],[12.6104,38.0654],[12.5782,38.0704],[12.5215,38.0235],[12.536,37.9904],[12.4938,37.9768],[12.4879,37.9435],[12.466,37.914],[12.484,37.8579],[12.4649,37.8479],[12.4638,37.8168],[12.424,37.8018],[12.444,37.7876],[12.4738,37.7346],[12.471,37.7049],[12.4996,37.6751],[12.5365,37.6579],[12.5601,37.6629],[12.614,37.636],[12.629,37.6012],[12.6729,37.5596],[12.7807,37.581],[12.9163,37.5776],[12.9468,37.5713],[12.9904,37.5393],[13.0143,37.5093],[13.039,37.4951],[13.0776,37.5057],[13.1682,37.4924],[13.196,37.4649],[13.2179,37.459],[13.2535,37.4246],[13.2712,37.396],[13.2943,37.3893],[13.3221,37.3635],[13.3524,37.3593],[13.4038,37.3321],[13.4271,37.304],[13.4787,37.2874],[13.5112,37.2921],[13.5579,37.2843],[13.6204,37.2346],[13.641,37.2282],[13.6613,37.1935],[13.7251,37.1701],[13.7504,37.149],[13.8235,37.1446],[13.8585,37.1115],[13.9057,37.0946],[13.9393,37.0965],[13.9768,37.109],[14.084,37.1096],[14.1487,37.0974],[14.2454,37.0651],[14.2974,37.0357],[14.3793,36.961],[14.4449,36.8688],[14.4571,36.8193],[14.4929,36.7863],[14.5565,36.7824],[14.631,36.7651],[14.6721,36.7418],[14.6876,36.7215],[14.7468,36.7204],[14.7571,36.7099],[14.7957,36.706],[14.8529,36.7296],[14.9121,36.7238],[14.956,36.6935],[15.0121,36.7038],[15.0465,36.6857],[15.0535,36.6626],[15.0807,36.6496],[15.1371,36.6879]]],[[[15.7968,37.9182],[15.839,37.9193],[15.9196,37.9296],[15.9979,37.9154],[16.0635,37.924],[16.1065,37.9665],[16.1446,38.031],[16.1601,38.1274],[16.2696,38.2357],[16.3237,38.294],[16.4457,38.3318],[16.4979,38.3599],[16.5751,38.4337],[16.5832,38.4565],[16.5724,38.5324],[16.5682,38.6024],[16.5557,38.6538],[16.5588,38.6821],[16.5362,38.7029],[16.5393,38.7246],[16.5613,38.7432],[16.571,38.7726],[16.6046,38.8129],[16.6779,38.846],[16.7771,38.8965],[16.841,38.9171],[16.959,38.9396],[16.9843,38.9379],[17.0088,38.9121],[17.0429,38.9193],[17.1015,38.9054],[17.1485,38.9437],[17.1643,38.9951],[17.1993,39.0268],[17.1729,39.0335],[17.1349,39.0579],[17.1074,39.1115],[17.121,39.1551],[17.1474,39.2062],[17.1054,39.2537],[17.1112,39.3174],[17.1362,39.376],[17.1551,39.4007],[17.1176,39.4057],[17.0476,39.4429],[17.0301,39.4768],[16.9754,39.4912],[16.8707,39.536],[16.8385,39.556],[16.8154,39.5904],[16.7735,39.6199],[16.7388,39.6157],[16.6901,39.6213],[16.6362,39.6193],[16.604,39.6249],[16.5271,39.6604],[16.5285,39.7243],[16.506,39.7349],[16.4876,39.7607],[16.4871,39.7921],[16.5024,39.8265],[16.5562,39.8899],[16.6024,39.9276],[16.6301,39.9663],[16.619,39.9757],[16.5996,40.0365],[16.6068,40.0812],[16.6307,40.1085],[16.6935,40.1538],[16.731,40.2026],[16.7507,40.2513],[16.7857,40.304],[16.8501,40.3732],[16.8782,40.4137],[16.941,40.4654],[17.0204,40.506],[17.0904,40.5207],[17.1543,40.5093],[17.1932,40.4757],[17.2215,40.4751],[17.256,40.501],[17.2793,40.4901],[17.3146,40.4999],[17.3218,40.4796],[17.2993,40.4685],[17.241,40.4774],[17.251,40.4518],[17.2249,40.4082],[17.311,40.3654],[17.3746,40.3485],[17.3951,40.3318],[17.4279,40.3329],[17.459,40.3162],[17.494,40.3104],[17.509,40.294],[17.6707,40.3051],[17.7421,40.2943],[17.7896,40.2935],[17.8682,40.274],[17.9038,40.2574],[17.9224,40.2254],[17.9185,40.1926],[17.9635,40.1471],[17.9863,40.139],[18.0096,40.1101],[18.0121,40.0887],[17.991,40.0532],[18.0165,40.0354],[18.0207,40.016],[17.9996,39.9865],[18.0243,39.9643],[18.0457,39.9296],[18.0765,39.9065],[18.2057,39.8365],[18.2607,39.8363],[18.3271,39.8071],[18.3451,39.7896],[18.371,39.7962],[18.391,39.8168],[18.3854,39.8413],[18.4001,39.8896],[18.3915,39.9038],[18.4032,39.9615],[18.4349,40.0235],[18.4779,40.0488],[18.4857,40.0788],[18.5207,40.1079],[18.4576,40.2032],[18.4649,40.2215],[18.424,40.2943],[18.3857,40.3151],[18.366,40.3401],[18.3057,40.3826],[18.3057,40.3924],[18.201,40.4693],[18.1276,40.4924],[18.079,40.526],[18.0362,40.5651],[18.0454,40.5979],[18.016,40.6204],[18.0146,40.6368],[17.9538,40.651],[17.9415,40.6829],[17.9171,40.6804],[17.8415,40.6904],[17.776,40.7199],[17.7357,40.7457],[17.6885,40.7657],[17.5601,40.7976],[17.4724,40.8318],[17.4704,40.8421],[17.4221,40.8657],[17.3832,40.8965],[17.3499,40.906],[17.3349,40.9296],[17.2818,40.9707],[17.2013,41.0093],[17.1765,41.029],[17.1235,41.0454],[17.0457,41.081],[16.9604,41.0979],[16.8343,41.1362],[16.7796,41.1599],[16.6974,41.1768],[16.6621,41.1924],[16.6268,41.194],[16.5821,41.2088],[16.5568,41.2268],[16.4815,41.2571],[16.4515,41.2607],[16.4199,41.2824],[16.3543,41.3065],[16.2563,41.3301],[16.2065,41.3596],[16.159,41.3729],[16.0457,41.421],[15.9818,41.4449],[15.9257,41.4926],[15.8985,41.5474],[15.8924,41.5863],[15.9007,41.616],[15.9426,41.6415],[16.0371,41.6779],[16.0654,41.6932],[16.1215,41.7385],[16.1446,41.7421],[16.1896,41.7746],[16.1929,41.8301],[16.1749,41.8601],[16.1749,41.8843],[16.1529,41.909],[16.121,41.9146],[16.0918,41.9379],[16.0112,41.9507],[15.9865,41.9429],[15.7796,41.9182],[15.6718,41.916],[15.644,41.9268],[15.4199,41.9001],[15.3635,41.9024],[15.3443,41.9154],[15.2918,41.9212],[15.2224,41.9179],[15.1488,41.924],[15.0849,41.9393],[14.9982,41.996],[14.966,42.0079],[14.8893,42.024],[14.8363,42.0432],[14.7949,42.066],[14.7401,42.0857],[14.7179,42.1057],[14.7176,42.1724],[14.6174,42.1999],[14.5112,42.2501],[14.5024,42.2726],[14.4415,42.3124],[14.4101,42.3601],[14.3079,42.4115],[14.1999,42.4821],[14.1113,42.5607],[14.0735,42.6029],[14.0387,42.6563],[13.9971,42.7049],[13.9376,42.8162],[13.9218,42.8765],[13.8893,42.9426],[13.8507,43.0601],[13.8449,43.0985],[13.8026,43.1738],[13.779,43.2337],[13.7351,43.3074],[13.714,43.3301],[13.6657,43.436],[13.624,43.4996],[13.6282,43.549],[13.5718,43.5713],[13.5657,43.589],[13.5288,43.6218],[13.5079,43.6304],[13.481,43.6071],[13.4129,43.6237],[13.2818,43.681],[13.1318,43.7743],[13.0688,43.8215],[12.9846,43.8657],[12.9082,43.9221],[12.8957,43.9215],[12.8015,43.9643],[12.7171,43.9726],[12.6351,44.0224],[12.574,44.076],[12.5418,44.0863],[12.3915,44.2129],[12.359,44.2649],[12.3313,44.3399],[12.3154,44.4068],[12.2885,44.4615],[12.2793,44.5171],[12.2824,44.5921],[12.276,44.6188],[12.2493,44.6599],[12.2396,44.6957],[12.2493,44.7649],[12.2763,44.8071],[12.2668,44.8243],[12.3162,44.8429],[12.3393,44.8171],[12.3754,44.7996],[12.4185,44.8051],[12.3932,44.8307],[12.4054,44.8515],[12.3885,44.8654],[12.4004,44.8896],[12.4413,44.8946],[12.4324,44.8518],[12.4549,44.8376],[12.4796,44.8654],[12.4663,44.9007],[12.4435,44.9107],[12.4357,44.916],[12.4313,44.9251],[12.4346,44.9437],[12.4293,44.956],[12.444,44.9551],[12.4568,44.9629],[12.491,44.966],[12.4613,44.9974],[12.4187,45.0135],[12.3915,45.006],[12.3593,45.0221],[12.3762,45.0432],[12.3582,45.0726],[12.2801,45.0779],[12.2693,45.114],[12.3129,45.136],[12.3254,45.1726],[12.2499,45.1821],[12.2193,45.1924],[12.2279,45.2104],[12.2188,45.2729],[12.1721,45.2524],[12.1557,45.2588],[12.1551,45.3026],[12.2001,45.3363],[12.186,45.3501],[12.2015,45.3901],[12.2201,45.4087],[12.2582,45.4129],[12.2582,45.4596],[12.3218,45.4807],[12.3635,45.5115],[12.3976,45.5071],[12.4632,45.5407],[12.4826,45.564],[12.5396,45.5749],[12.5746,45.551],[12.6315,45.5349],[12.5757,45.4951],[12.5096,45.4718],[12.4921,45.4813],[12.4465,45.4712],[12.4224,45.4457],[12.4582,45.4415],[12.591,45.4829],[12.6349,45.5004],[12.7635,45.5424],[12.7993,45.5621],[12.9212,45.6132],[12.9921,45.6304],[13.0987,45.6354],[13.1068,45.6862],[13.0776,45.6915],[13.0696,45.7124],[13.1088,45.7343],[13.1168,45.7599],[13.161,45.751],[13.1837,45.7729],[13.2218,45.7713],[13.2279,45.7549],[13.3071,45.7479],[13.384,45.7246],[13.3865,45.6743],[13.4335,45.6821],[13.5507,45.7299],[13.5174,45.7449],[13.521,45.7629],[13.5479,45.7904],[13.634,45.766],[13.7526,45.6801],[13.7679,45.6554],[13.7435,45.6404],[13.799,45.6099],[13.7883,45.58],[13.8307,45.5794],[13.8705,45.5939],[13.9061,45.6265],[13.8919,45.6689],[13.8521,45.6943],[13.8242,45.7285],[13.7508,45.7727],[13.6662,45.8031],[13.6099,45.8167],[13.5903,45.8361],[13.5933,45.8618],[13.6306,45.9206],[13.6533,45.9837],[13.6157,45.9953],[13.5468,45.984],[13.4792,45.993],[13.501,46.0322],[13.4986,46.0601],[13.5706,46.0877],[13.6604,46.1516],[13.6524,46.1827],[13.5553,46.1962],[13.5215,46.2196],[13.463,46.2368],[13.4405,46.2139],[13.3821,46.2933],[13.4286,46.3296],[13.4594,46.3639],[13.5014,46.3871],[13.5449,46.4007],[13.5768,46.441],[13.5942,46.4485],[13.6668,46.4557],[13.685,46.438],[13.7122,46.476],[13.7143,46.5232],[13.6738,46.5235],[13.6287,46.5417],[13.5617,46.5523],[13.5156,46.549],[13.5049,46.5667],[13.4467,46.5569],[13.4082,46.5619],[13.3729,46.5797],[13.3212,46.5516],[13.2982,46.5607],[13.2532,46.5609],[13.1939,46.5728],[13.093,46.6008],[13.0473,46.5957],[12.9878,46.5999],[12.9337,46.6104],[12.8343,46.6103],[12.8196,46.6286],[12.7765,46.6471],[12.732,46.6347],[12.6912,46.6574],[12.6316,46.6618],[12.5706,46.6519],[12.5166,46.679],[12.4818,46.6775],[12.4291,46.6951],[12.3797,46.7209],[12.3597,46.7738],[12.3098,46.7854],[12.2835,46.8154],[12.3065,46.8337],[12.2667,46.8879],[12.2365,46.8892],[12.216,46.8745],[12.1909,46.9066],[12.1533,46.9176],[12.1692,46.9378],[12.1385,46.957],[12.1387,46.9825],[12.1219,47.0075],[12.2053,47.0274],[12.2275,47.0826],[12.1865,47.0927],[12.0772,47.0594],[12.0446,47.0619],[12.0218,47.0478],[11.9799,47.0505],[11.9336,47.0381],[11.8455,47.0022],[11.8367,46.9935],[11.7814,46.9895],[11.7661,46.974],[11.7282,46.9729],[11.7119,46.9937],[11.6652,46.9923],[11.6277,47.0138],[11.539,46.9846],[11.5025,47.0102],[11.4179,46.9669],[11.3827,46.9711],[11.3591,46.9911],[11.3208,46.9929],[11.2421,46.9702],[11.1648,46.9663],[11.1555,46.9346],[11.1153,46.9319],[11.098,46.9145],[11.0969,46.8841],[11.0718,46.8538],[11.0837,46.8228],[11.0396,46.8055],[11.0226,46.7659],[10.9441,46.7759],[10.8689,46.7663],[10.841,46.7823],[10.8144,46.7756],[10.7963,46.7918],[10.7307,46.7889],[10.7639,46.824],[10.6944,46.8527],[10.6908,46.8682],[10.5527,46.8506],[10.4991,46.848],[10.479,46.8596],[10.4513,46.8011],[10.4263,46.7862],[10.444,46.7527],[10.4053,46.7315],[10.4207,46.7184],[10.3927,46.6808],[10.4126,46.6377],[10.4489,46.6428],[10.487,46.62],[10.4909,46.5918],[10.4732,46.5471],[10.4531,46.5356],[10.4176,46.5547],[10.3987,46.5492],[10.3545,46.5605],[10.3125,46.5514],[10.2427,46.5962],[10.2588,46.6146],[10.1835,46.6288],[10.129,46.6108],[10.1004,46.6146],[10.0982,46.5888],[10.0494,46.5359],[10.0389,46.4461],[10.0984,46.4255],[10.1288,46.4349],[10.1655,46.4129],[10.1628,46.3928],[10.1284,46.3826],[10.1277,46.3654],[10.1033,46.3386],[10.1153,46.32],[10.1537,46.2971],[10.1749,46.2602],[10.1455,46.2366],[10.0924,46.2339],[10.0689,46.2231],[10.0443,46.237],[10.0548,46.2704],[9.9947,46.2906],[9.9917,46.3473],[9.945,46.3819],[9.9024,46.3856],[9.8688,46.3681],[9.8307,46.3667],[9.7776,46.3406],[9.7384,46.3557],[9.7187,46.3312],[9.7085,46.2983],[9.6787,46.31],[9.6207,46.295],[9.5493,46.3103],[9.5185,46.3343],[9.4976,46.3709],[9.471,46.3786],[9.4539,46.4284],[9.4647,46.4747],[9.4644,46.5143],[9.3904,46.4748],[9.3729,46.5026],[9.2852,46.5043],[9.2557,46.4296],[9.2835,46.4116],[9.2801,46.3655],[9.2983,46.3526],[9.2999,46.3236],[9.2839,46.2936],[9.2588,46.2737],[9.2454,46.2279],[9.2206,46.2208],[9.193,46.1679],[9.1649,46.1692],[9.1217,46.1337],[9.0735,46.1168],[9.0902,46.0857],[9.0781,46.0653],[9.0212,46.0525],[9.0098,46.0287],[9.0269,45.9951],[8.9948,45.9823],[9.0206,45.9392],[9.0756,45.915],[9.075,45.8878],[9.0534,45.8778],[9.0269,45.8223],[8.9922,45.8227],[8.9313,45.8641],[8.9162,45.9157],[8.8864,45.9323],[8.8887,45.9554],[8.8593,45.9636],[8.8295,45.9891],[8.7941,45.9938],[8.7915,46.0096],[8.8199,46.028],[8.8516,46.0757],[8.8082,46.1024],[8.7865,46.0971],[8.7438,46.1249],[8.7175,46.1027],[8.6836,46.1003],[8.6467,46.1203],[8.6102,46.1133],[8.5773,46.1611],[8.5768,46.1739],[8.5431,46.1967],[8.5331,46.2199],[8.4639,46.2261],[8.4379,46.2457],[8.4527,46.2619],[8.425,46.2959],[8.4656,46.335],[8.4716,46.3633],[8.462,46.387],[8.4698,46.4116],[8.4561,46.4242],[8.4693,46.452],[8.4354,46.4605],[8.3959,46.4487],[8.3755,46.4535],[8.2913,46.4102],[8.3172,46.4006],[8.3135,46.3803],[8.2298,46.3335],[8.216,46.3059],[8.1859,46.296],[8.1448,46.2992],[8.0947,46.2611],[8.0957,46.2486],[8.1444,46.222],[8.1689,46.1803],[8.148,46.1339],[8.1212,46.1276],[8.1115,46.1088],[8.0401,46.0951],[8.0271,46.0653],[8.0378,46.0423],[7.9928,45.998],[7.9188,45.9968],[7.8812,45.9764],[7.8729,45.9274],[7.8222,45.9327],[7.8012,45.9242],[7.754,45.9442],[7.7363,45.9294],[7.7126,45.9527],[7.6597,45.9785],[7.6125,45.9732],[7.5787,45.9901],[7.5503,45.986],[7.5438,45.9594],[7.5004,45.9654],[7.4366,45.9224],[7.3844,45.9],[7.3486,45.9173],[7.2962,45.9257],[7.2809,45.9047],[7.2219,45.8918],[7.1906,45.8632],[7.1575,45.8827],[7.1221,45.8624],[7.0504,45.9256],[7.0131,45.9054],[7.0062,45.8755],[6.9057,45.8432],[6.8767,45.824],[6.8209,45.8269],[6.8122,45.7605],[6.8243,45.7219],[6.8671,45.6841],[6.9068,45.6785],[6.926,45.6525],[7.0118,45.6484],[6.9855,45.6204],[6.9919,45.5563],[7.0065,45.5108],[7.0538,45.5],[7.057,45.4785],[7.0928,45.4748],[7.1216,45.4375],[7.1789,45.4132],[7.1851,45.4037],[7.1132,45.322],[7.1319,45.2856],[7.1351,45.2546],[7.0664,45.2113],[7.0512,45.2253],[6.9763,45.2083],[6.9539,45.1758],[6.9009,45.1643],[6.8965,45.1402],[6.8543,45.1286],[6.8022,45.1509],[6.7728,45.1543],[6.7459,45.1387],[6.6906,45.1385],[6.6722,45.1225],[6.6309,45.1089],[6.6707,45.0607],[6.6865,45.0209],[6.7396,45.0236],[6.7642,44.9665],[6.7623,44.9136],[6.8254,44.8723],[6.8695,44.8539],[6.912,44.8455],[6.9487,44.8636],[7.0036,44.8398],[7.022,44.823],[7.0091,44.793],[7.0255,44.7736],[7.0243,44.7472],[7.0648,44.7118],[7.0769,44.6847],[6.9996,44.6868],[6.9535,44.6536],[6.9615,44.6215],[6.9415,44.576],[6.9205,44.5587],[6.8895,44.5538],[6.8673,44.5311],[6.8891,44.4856],[6.9175,44.471],[6.9534,44.4292],[6.9075,44.4198],[6.9,44.366],[6.9324,44.3544],[6.9395,44.3331],[6.9684,44.299],[7.0033,44.2795],[7.011,44.2439],[7.0377,44.2256],[7.0764,44.2318],[7.1419,44.2018],[7.1957,44.1977],[7.2195,44.1721],[7.2422,44.1708],[7.2641,44.1477],[7.3452,44.146],[7.3604,44.1171],[7.4328,44.1293],[7.4621,44.1274],[7.5069,44.1457],[7.5695,44.1564],[7.6147,44.1546],[7.6341,44.1763],[7.6842,44.1773],[7.6678,44.1302],[7.7143,44.0878],[7.7016,44.043],[7.6653,44.0294],[7.6688,43.9976],[7.6527,43.976],[7.5715,43.9453],[7.5613,43.8996],[7.4989,43.8724],[7.5296,43.7837],[7.5587,43.781],[7.5904,43.7915],[7.6732,43.7757],[7.6974,43.7971],[7.739,43.7949],[7.7537,43.8071],[7.806,43.8229],[7.8335,43.8157],[7.8724,43.8357],[7.9118,43.8357],[7.9696,43.8596],[8.0185,43.8732],[8.0307,43.8843],[8.074,43.891],[8.0974,43.9185],[8.1287,43.9257],[8.1374,43.9426],[8.1749,43.9588],[8.1607,43.9715],[8.1685,44.0007],[8.2257,44.0429],[8.231,44.091],[8.2682,44.1382],[8.2949,44.1535],[8.3354,44.1613],[8.3846,44.1807],[8.4071,44.1807],[8.4185,44.226],[8.4563,44.2574],[8.4412,44.276],[8.4635,44.2962],[8.5424,44.3349],[8.5724,44.3576],[8.626,44.3724],[8.6421,44.3871],[8.6804,44.3926],[8.6943,44.409],[8.7463,44.4274],[8.7763,44.419],[8.8232,44.424],[8.8401,44.414],[8.9507,44.391],[9.0821,44.3751],[9.1421,44.3601],[9.1576,44.3149],[9.2174,44.2982],[9.2143,44.3343],[9.2371,44.3449],[9.3901,44.2815],[9.4432,44.2379],[9.4949,44.2351],[9.5293,44.2071],[9.5499,44.2062],[9.5674,44.1826],[9.6062,44.1718],[9.6065,44.1568],[9.6385,44.1357],[9.6674,44.1424],[9.726,44.1118],[9.7396,44.0915],[9.8182,44.0601],[9.8268,44.0982],[9.8512,44.1093],[9.8693,44.0874],[9.9257,44.0629],[9.9637,44.0371],[9.9946,44.0515],[10.0662,44.0274],[10.1171,43.9968],[10.171,43.9549],[10.2026,43.9224],[10.2404,43.8721],[10.2535,43.8351],[10.2776,43.7399],[10.2835,43.6882],[10.2679,43.6774],[10.2887,43.6335],[10.3021,43.561],[10.2938,43.5474],[10.3429,43.464],[10.3815,43.4463],[10.4001,43.416],[10.4251,43.3988],[10.456,43.3443],[10.4551,43.3296],[10.5026,43.2901],[10.5221,43.2529],[10.5374,43.1929],[10.5382,43.0899],[10.5157,42.9971],[10.4832,42.9888],[10.4851,42.9574],[10.5215,42.9215],[10.5435,42.9204],[10.5599,42.9507],[10.6482,42.9532],[10.7121,42.9401],[10.7743,42.9087],[10.7843,42.8846],[10.7688,42.869],[10.7729,42.8307],[10.7424,42.7988],[10.7763,42.7793],[10.8704,42.7643],[10.9279,42.7482],[10.9635,42.7313],[10.9868,42.7096],[11.009,42.6613],[11.086,42.6274],[11.116,42.5654],[11.1574,42.5621],[11.1915,42.5135],[11.1871,42.471],[11.1587,42.4343],[11.1163,42.4399],[11.0876,42.4196],[11.1004,42.3929],[11.1504,42.371],[11.1885,42.3721],[11.2137,42.3882],[11.2099,42.4093],[11.2424,42.4185],[11.3796,42.3963],[11.4449,42.3796],[11.5504,42.3424],[11.6365,42.2926],[11.706,42.2204],[11.7338,42.156],[11.7857,42.0893],[11.8079,42.0762],[11.8401,42.0288],[11.916,42.039],[11.966,42.0135],[11.9768,41.9974],[12.024,41.9837],[12.0504,41.9562],[12.1346,41.921],[12.1635,41.894],[12.1915,41.8554],[12.2129,41.8135],[12.2299,41.7521],[12.2485,41.739],[12.351,41.699],[12.4365,41.6421],[12.5513,41.5363],[12.6043,41.4726],[12.6226,41.444],[12.6676,41.4571],[12.7188,41.4393],[12.7643,41.411],[12.781,41.4182],[12.8457,41.414],[12.924,41.3796],[12.9654,41.3504],[13.014,41.2921],[13.046,41.2262],[13.0938,41.224],[13.1065,41.2421],[13.166,41.2735],[13.2071,41.2835],[13.2587,41.2821],[13.2826,41.2976],[13.3771,41.281],[13.4587,41.2454],[13.5707,41.2093],[13.5729,41.239],[13.6196,41.2604],[13.6507,41.2582],[13.6815,41.2438],[13.7051,41.2537],[13.7282,41.2446],[13.8118,41.1871],[13.9004,41.084],[13.9215,41.0249],[13.9774,40.9774],[14.0254,40.9154],[14.0474,40.8557],[14.0468,40.7896],[14.076,40.7882],[14.0824,40.8285],[14.1599,40.8168],[14.1915,40.7946],[14.2318,40.8321],[14.2888,40.8393],[14.3337,40.8121],[14.3526,40.7915],[14.4143,40.7513],[14.439,40.7549],[14.4635,40.7407],[14.4812,40.6971],[14.4388,40.6824],[14.4038,40.6557],[14.3999,40.6379],[14.3507,40.6349],[14.3274,40.5946],[14.336,40.5762],[14.4076,40.5988],[14.4182,40.6101],[14.4951,40.6263],[14.5276,40.6065],[14.5765,40.6138],[14.6268,40.6485],[14.6918,40.6329],[14.7196,40.6665],[14.759,40.6774],[14.8246,40.6401],[14.884,40.5799],[14.9085,40.5465],[14.9471,40.4743],[14.9846,40.4243],[15.0004,40.389],[14.9985,40.3579],[14.9446,40.336],[14.9443,40.2768],[14.9049,40.2535],[14.9329,40.2285],[14.9554,40.2324],[14.9918,40.2182],[15.0235,40.1807],[15.0649,40.1646],[15.1174,40.1771],[15.1432,40.1637],[15.181,40.1268],[15.2049,40.1237],[15.2418,40.0899],[15.2629,40.0824],[15.2821,40.0576],[15.2851,40.034],[15.3171,40.0313],[15.3535,39.9996],[15.3837,40.0007],[15.4204,39.9901],[15.461,40.0337],[15.5176,40.0704],[15.5712,40.0782],[15.6163,40.0685],[15.6474,40.039],[15.6629,40.0399],[15.6843,40.0018],[15.7349,39.9573],[15.7799,39.8943],[15.789,39.849],[15.7688,39.8354],[15.7865,39.8157],[15.8079,39.7379],[15.8143,39.6776],[15.8326,39.6671],[15.874,39.5535],[15.9262,39.5257],[15.9618,39.4751],[15.9954,39.4437],[16.0382,39.3451],[16.0568,39.2715],[16.0665,39.136],[16.084,39.0935],[16.0993,39.031],[16.1301,39.0007],[16.154,38.9538],[16.219,38.9226],[16.2229,38.8551],[16.211,38.7996],[16.1849,38.7496],[16.1346,38.7174],[16.1049,38.7115],[16.0549,38.7262],[15.9851,38.7232],[15.9493,38.6918],[15.8721,38.6738],[15.8351,38.6443],[15.8271,38.6221],[15.9282,38.5504],[15.9051,38.4412],[15.8821,38.431],[15.8482,38.3704],[15.8363,38.3643],[15.8293,38.324],[15.7963,38.281],[15.7354,38.2532],[15.7001,38.2532],[15.6351,38.2315],[15.6329,38.191],[15.6554,38.1526],[15.6482,38.114],[15.6307,38.1018],[15.6349,38.076],[15.6521,38.0657],[15.6574,38.0412],[15.6379,38.0201],[15.6388,38.0015],[15.6776,37.9538],[15.7637,37.9162],[15.7968,37.9182]],[[12.4539,43.9708],[12.49,43.9856],[12.514,43.9455],[12.4863,43.8999],[12.4174,43.8983],[12.4012,43.9498],[12.4338,43.9552],[12.4539,43.9708]]],[[[13.8957,40.6996],[13.9221,40.6971],[13.9654,40.7121],[13.9554,40.7412],[13.8718,40.7618],[13.8537,40.7371],[13.8801,40.6971],[13.8957,40.6996]]],[[[15.2249,38.8107],[15.1888,38.7962],[15.2124,38.7713],[15.2426,38.8054],[15.2249,38.8107]]],[[[14.9632,38.5207],[14.9254,38.5232],[14.9049,38.5124],[14.8985,38.4782],[14.9329,38.4607],[14.9632,38.4901],[14.9632,38.5207]]],[[[14.8432,38.5396],[14.8721,38.5371],[14.8737,38.5815],[14.8062,38.5829],[14.7957,38.561],[14.8432,38.5396]]],[[[14.9632,38.431],[14.936,38.404],[14.9499,38.3832],[14.9763,38.3685],[15.0071,38.3757],[14.9968,38.3982],[14.9599,38.4182],[14.9632,38.431]]],[[[12.5437,35.5288],[12.6051,35.4929],[12.6335,35.4932],[12.6274,35.521],[12.5437,35.5288]]],[[[12.3101,37.951],[12.2751,37.9401],[12.2863,37.9149],[12.3346,37.9193],[12.3463,37.9376],[12.3101,37.951]]],[[[11.9601,36.8396],[11.9274,36.8265],[11.926,36.8024],[11.9687,36.7668],[11.9807,36.7454],[12.0246,36.7343],[12.0551,36.7618],[12.0521,36.7996],[12.0135,36.8257],[12.0026,36.8199],[11.9601,36.8396]]],[[[12.0646,37.9901],[12.0379,37.9749],[12.0557,37.9518],[12.079,37.9479],[12.0646,37.9901]]],[[[9.6268,40.2251],[9.6312,40.2749],[9.6663,40.3204],[9.714,40.366],[9.7668,40.3921],[9.7707,40.4176],[9.7929,40.4435],[9.821,40.4943],[9.8285,40.5288],[9.7968,40.5426],[9.7935,40.5632],[9.7513,40.5979],[9.7399,40.6401],[9.7496,40.681],[9.7143,40.7079],[9.7151,40.7532],[9.6899,40.7624],[9.6621,40.8051],[9.6882,40.8379],[9.6237,40.8951],[9.6087,40.9171],[9.5774,40.9007],[9.5604,40.9182],[9.5071,40.9113],[9.5207,40.9338],[9.5443,40.926],[9.5935,40.9685],[9.6115,41.0035],[9.5512,41.0079],[9.5549,41.0313],[9.5212,41.0313],[9.5282,41.0696],[9.5604,41.0818],[9.5701,41.1015],[9.5446,41.1354],[9.4826,41.144],[9.4615,41.1188],[9.4412,41.1213],[9.4232,41.1776],[9.4021,41.1751],[9.3649,41.2071],[9.3274,41.1896],[9.2696,41.1963],[9.2818,41.2174],[9.272,41.2399],[9.2368,41.246],[9.1624,41.236],[9.1535,41.1971],[9.1732,41.1763],[9.1532,41.1551],[9.1207,41.1554],[9.1126,41.1357],[9.0604,41.1265],[9.0443,41.1385],[9.0118,41.1251],[8.9793,41.086],[8.9207,41.0343],[8.8793,41.0285],[8.8735,40.9951],[8.8126,40.9362],[8.7704,40.916],[8.6993,40.9151],[8.6315,40.8807],[8.6226,40.8615],[8.5801,40.8374],[8.5374,40.8249],[8.4504,40.821],[8.4179,40.8376],[8.3582,40.8368],[8.2879,40.856],[8.2312,40.9087],[8.2271,40.9529],[8.2043,40.9715],[8.1757,40.934],[8.1918,40.9132],[8.2196,40.8999],[8.2188,40.8688],[8.1876,40.8124],[8.1601,40.7907],[8.1618,40.7612],[8.136,40.7388],[8.1749,40.6946],[8.206,40.6865],[8.1843,40.6368],[8.1438,40.6235],[8.1493,40.5826],[8.1907,40.6065],[8.2196,40.6021],[8.1979,40.571],[8.2435,40.5707],[8.2465,40.5826],[8.2979,40.5924],[8.3182,40.5715],[8.3157,40.5521],[8.3382,40.5007],[8.374,40.4907],[8.3979,40.4296],[8.3999,40.4007],[8.3874,40.364],[8.3957,40.3401],[8.459,40.3196],[8.4846,40.2729],[8.4613,40.2115],[8.4585,40.1518],[8.4846,40.1182],[8.4899,40.0788],[8.4524,40.0499],[8.3982,40.0432],[8.414,40.0129],[8.3929,39.9771],[8.4015,39.9626],[8.3993,39.9012],[8.476,39.9138],[8.4604,39.9429],[8.4982,39.951],[8.5238,39.9376],[8.5271,39.9024],[8.5526,39.8679],[8.5565,39.8449],[8.5424,39.7718],[8.5138,39.7351],[8.5307,39.7054],[8.5024,39.706],[8.461,39.7679],[8.4435,39.7588],[8.459,39.6688],[8.4524,39.621],[8.471,39.6004],[8.4535,39.5504],[8.3824,39.4624],[8.4135,39.4385],[8.4021,39.4035],[8.3763,39.3679],[8.3949,39.3385],[8.4157,39.3357],[8.4374,39.2879],[8.3665,39.2285],[8.3754,39.2032],[8.4004,39.1943],[8.4379,39.1557],[8.4332,39.1293],[8.4632,39.1213],[8.4885,39.0841],[8.4779,39.0607],[8.5229,39.0618],[8.5685,39.0421],[8.5726,38.9782],[8.6104,38.9604],[8.6232,38.9399],[8.6068,38.8924],[8.6707,38.8971],[8.6932,38.9185],[8.7238,38.9315],[8.8049,38.9043],[8.8432,38.8757],[8.9038,38.9049],[8.9182,38.9235],[8.9704,38.9565],[8.9996,38.9879],[9.0135,38.9899],[9.046,39.0568],[9.0162,39.0871],[9.009,39.1235],[9.0387,39.1732],[9.0921,39.2129],[9.0618,39.2385],[9.0751,39.2468],[9.1415,39.186],[9.1818,39.2168],[9.226,39.2285],[9.2424,39.2185],[9.2924,39.2143],[9.3232,39.2029],[9.3468,39.1799],[9.3938,39.1568],[9.3926,39.1435],[9.4615,39.1268],[9.484,39.1357],[9.509,39.126],[9.556,39.134],[9.5796,39.176],[9.5626,39.1943],[9.5699,39.2399],[9.5832,39.2713],[9.6032,39.2921],[9.596,39.3399],[9.6035,39.3818],[9.6465,39.461],[9.631,39.5004],[9.639,39.5404],[9.6538,39.5521],[9.6579,39.6018],[9.6471,39.6521],[9.6774,39.711],[9.6679,39.7765],[9.6832,39.8385],[9.6826,39.9085],[9.716,39.9332],[9.6868,39.9449],[9.6868,39.9837],[9.7001,39.9999],[9.7065,40.0351],[9.7221,40.0493],[9.7304,40.0907],[9.6854,40.1118],[9.6296,40.1907],[9.6268,40.2251]]],[[[9.8299,43.071],[9.8004,43.0543],[9.791,43.0232],[9.8024,43.0076],[9.8421,43.0257],[9.846,43.0429],[9.8299,43.071]]],[[[10.3163,42.349],[10.2882,42.3346],[10.2926,42.3174],[10.3318,42.3238],[10.3163,42.349]]],[[[10.418,42.7707],[10.4329,42.774],[10.4329,42.8276],[10.4443,42.8471],[10.4151,42.8724],[10.3593,42.8176],[10.3571,42.799],[10.3168,42.8037],[10.316,42.8213],[10.2774,42.8229],[10.2663,42.8001],[10.2437,42.7876],[10.2068,42.8071],[10.1418,42.8071],[10.1051,42.7904],[10.1024,42.766],[10.1368,42.7313],[10.2354,42.736],[10.2432,42.7504],[10.2865,42.7343],[10.2912,42.7529],[10.3435,42.7637],[10.384,42.7135],[10.4354,42.7174],[10.4343,42.7351],[10.4085,42.7454],[10.418,42.7707]]],[[[10.8926,42.3868],[10.8821,42.3521],[10.9032,42.3254],[10.9293,42.3246],[10.9257,42.3571],[10.8926,42.3868]]],[[[13.2862,45.7357],[13.2776,45.7051],[13.3182,45.7149],[13.2862,45.7357]]],[[[8.4274,39.1051],[8.3804,39.0993],[8.3596,39.109],[8.3493,39.076],[8.3601,39.0379],[8.3937,38.9888],[8.4029,38.9618],[8.4451,38.9685],[8.4529,39.0251],[8.4676,39.0465],[8.456,39.0849],[8.4274,39.1051]]],[[[8.3087,39.1826],[8.2665,39.1782],[8.2238,39.1607],[8.2493,39.1329],[8.249,39.1065],[8.2743,39.0935],[8.3062,39.101],[8.3135,39.136],[8.3087,39.1826]]],[[[8.3196,41.1171],[8.2849,41.1024],[8.2496,41.0504],[8.2246,41.0438],[8.2107,41.0035],[8.2215,40.9899],[8.2557,40.9846],[8.2651,41.0029],[8.2454,41.0282],[8.281,41.0604],[8.3393,41.0599],[8.3454,41.0976],[8.3196,41.1171]]],[[[9.474,41.241],[9.4429,41.2026],[9.4793,41.199],[9.474,41.241]]],[[[9.4238,41.2671],[9.3896,41.2332],[9.381,41.2101],[9.4399,41.216],[9.4412,41.2371],[9.4238,41.2671]]],[[[12.5438,44.964],[12.5337,44.9668],[12.504,44.9599],[12.4576,44.9599],[12.4351,44.9504],[12.436,44.9385],[12.4332,44.9304],[12.4399,44.9146],[12.4663,44.9051],[12.4888,44.9418],[12.5232,44.9643],[12.5438,44.964]]],[[[12.2929,45.2304],[12.2713,45.2135],[12.2585,45.1835],[12.3126,45.1821],[12.2929,45.2304]]],[[[12.2313,45.3607],[12.251,45.3613],[12.2604,45.4046],[12.2263,45.4026],[12.2051,45.3763],[12.2313,45.3607]]]]},"properties":{"GID_0":"ITA","ISO_A2":"IT","ISO_A3":"ITA","NAME_EN":"Italy","NAME_IT":"Italia"}}
]}