{"type":"FeatureCollection", "features": [
{"type":"Feature","geometry":{"type":"MultiPolygon","coordinates":[[[[145.6492,15.0969],[145.5961,15.0533],[145.5817,15.0172],[145.6269,14.9628],[145.64,14.9222],[145.6659,14.9506],[145.6739,15.0056],[145.6469,15.0444],[145.6592,15.0578],[145.6492,15.0969]]],[[[145.6683,16.3703],[145.6381,16.3708],[145.6453,16.3311],[145.7003,16.3331],[145.705,16.3706],[145.6683,16.3703]]],[[[145.8167,15.2878],[145.7787,15.2542],[145.7158,15.2186],[145.7164,15.1946],[145.6894,15.1203],[145.7081,15.1053],[145.7569,15.1122],[145.7431,15.1434],[145.7931,15.1636],[145.7794,15.2078],[145.8314,15.2728],[145.8167,15.2878]]],[[[145.782,18.1673],[145.7565,18.1571],[145.7562,18.0991],[145.7206,18.0812],[145.7298,18.0494],[145.7614,18.097],[145.8093,18.1305],[145.8079,18.1552],[145.782,18.1673]]],[[[145.2511,14.2008],[145.1969,14.1744],[145.1594,14.1697],[145.1386,14.1406],[145.1839,14.1158],[145.2144,14.1156],[145.2427,14.1513],[145.285,14.1622],[145.29,14.1917],[145.2511,14.2008]]],[[[145.6887,18.7966],[145.6505,18.8096],[145.6354,18.7781],[145.6512,18.7343],[145.6679,18.7251],[145.7011,18.7617],[145.6887,18.7966]]],[[[145.4078,19.7072],[145.4115,19.6787],[145.4342,19.6545],[145.4528,19.6845],[145.4078,19.7072]]]]},"properties":{"GID_0":"MNP","ISO_A2":"MP","ISO_A3":"MNP","NAME_EN":"N. Mariana Is.","NAME_IT":"Isole Marianne Settentrionali"}}
]}