{"type":"FeatureCollection", "features": [
{"type":"Feature","geometry":{"type":"MultiPolygon","coordinates":[[[[44.4116,12.6802],[44.419,12.6693],[44.4815,12.7515],[44.5249,12.7907],[44.5938,12.8168],[44.6735,12.8054],[44.7046,12.7879],[44.7276,12.7535],[44.7699,12.7713],[44.8204,12.7651],[44.8257,12.734],[44.8868,12.7343],[44.911,12.7676],[44.8499,12.7724],[44.8729,12.7974],[44.9401,12.8315],[44.9879,12.8299],[45.0199,12.8399],[45.0263,12.8065],[44.9738,12.7896],[45.0112,12.7537],[45.0346,12.7537],[45.0596,12.8654],[45.1054,12.9518],[45.1551,12.9951],[45.254,13.0332],[45.3768,13.0554],[45.4021,13.0732],[45.4607,13.1382],[45.5207,13.2268],[45.576,13.2826],[45.646,13.3429],[45.8368,13.3876],[45.8649,13.3982],[45.9082,13.3965],[45.9385,13.4068],[46.0412,13.4201],[46.0726,13.4135],[46.159,13.4199],[46.249,13.434],[46.349,13.4179],[46.4304,13.4154],[46.4446,13.406],[46.6079,13.4382],[46.6924,13.4257],[46.8243,13.4799],[46.8929,13.526],[46.9232,13.5396],[47.0785,13.5704],[47.166,13.5971],[47.2154,13.6032],[47.3232,13.6407],[47.3737,13.6471],[47.4604,13.7026],[47.5799,13.8099],[47.6421,13.8721],[47.7071,13.9124],[47.8088,13.9338],[47.919,14.0243],[47.9951,14.0543],[48.0454,14.0529],[48.126,14.0265],[48.2135,13.9749],[48.3135,13.9982],[48.3338,14.0249],[48.3593,14.014],[48.4007,14.0218],[48.4901,14.0049],[48.5462,14.0426],[48.5899,14.0482],[48.6679,14.0446],[48.6963,14.0501],[48.7324,14.0821],[48.7546,14.1154],[48.7943,14.1349],[48.8343,14.1729],[48.8668,14.2154],[48.8676,14.2446],[48.9185,14.2632],[48.9326,14.2968],[48.9807,14.3107],[48.9882,14.3788],[49.0224,14.4443],[49.0607,14.4924],[49.1118,14.5313],[49.1668,14.5212],[49.1785,14.5482],[49.3485,14.6421],[49.4185,14.6651],[49.4951,14.6979],[49.5604,14.7343],[49.6321,14.7604],[49.7443,14.7826],[49.8507,14.8137],[49.9343,14.8504],[50.0093,14.8515],[50.0374,14.8224],[50.1085,14.8499],[50.179,14.8451],[50.1882,14.8657],[50.261,14.9096],[50.3315,14.9265],[50.3835,14.9724],[50.4751,15.0235],[50.5507,15.0443],[50.721,15.0699],[50.8165,15.0896],[51.0221,15.1479],[51.1229,15.166],[51.2224,15.1929],[51.3221,15.2343],[51.3693,15.2443],[51.539,15.3204],[51.6021,15.334],[51.629,15.3293],[51.6432,15.3893],[51.6871,15.4168],[51.7549,15.4429],[51.8471,15.4707],[51.8682,15.4929],[51.9468,15.5285],[52.1843,15.6107],[52.2226,15.634],[52.1963,15.7193],[52.1896,15.7738],[52.2007,15.7804],[52.1868,15.8407],[52.1601,15.8565],[52.1688,15.9226],[52.1465,15.9651],[52.2024,16.0976],[52.2062,16.1376],[52.2376,16.2024],[52.2804,16.2565],[52.3571,16.3424],[52.4326,16.4051],[52.479,16.4326],[52.5812,16.4737],[52.7071,16.514],[52.754,16.5376],[52.8387,16.5649],[52.8432,16.5729],[52.9476,16.6129],[53.0385,16.6313],[53.107,16.6544],[53.0379,16.8028],[52.9704,16.7948],[52.9479,16.8007],[52.7126,17.0803],[52.7356,17.2445],[52.8277,17.2525],[52.8123,17.2855],[52.7458,17.2944],[52.7822,17.3497],[52,19],[50.7833,18.7889],[49.1167,18.6167],[48.1833,18.1667],[47.6,17.45],[47.4667,17.1167],[47.1833,16.95],[47,16.95],[46.75,17.2833],[46.3667,17.2333],[46.1,17.25],[45.4,17.3333],[45.2167,17.4333],[44.65,17.4333],[44.5667,17.4056],[44.4667,17.4333],[44.3661,17.4333],[44.1381,17.4089],[44.1308,17.3836],[44.1006,17.3661],[44.0667,17.4058],[44.0233,17.3913],[44.0114,17.4025],[43.9667,17.3306],[43.9056,17.3417],[43.8319,17.3389],[43.7889,17.375],[43.6833,17.3667],[43.6178,17.4261],[43.5665,17.4834],[43.4846,17.5451],[43.4454,17.55],[43.4196,17.5658],[43.3547,17.5564],[43.2854,17.5173],[43.2408,17.4805],[43.2565,17.4578],[43.2255,17.4262],[43.2471,17.4015],[43.228,17.3855],[43.326,17.3284],[43.3365,17.304],[43.2672,17.2922],[43.2559,17.2785],[43.2017,17.2588],[43.2163,17.2104],[43.1708,17.1727],[43.1779,17.1307],[43.158,17.1141],[43.2272,17.0754],[43.2397,17.0474],[43.2027,17.0101],[43.1795,17.0302],[43.1781,16.9633],[43.1947,16.9445],[43.1381,16.9176],[43.1516,16.8801],[43.18,16.8491],[43.2213,16.8382],[43.2518,16.7793],[43.2556,16.7374],[43.2305,16.7305],[43.2347,16.6428],[43.1286,16.6715],[43.1463,16.6364],[43.1295,16.5926],[43.1207,16.5286],[42.9922,16.5217],[42.9448,16.4898],[42.9373,16.4414],[42.95,16.4076],[42.8898,16.3817],[42.8205,16.3647],[42.7782,16.3692],[42.7971,16.324],[42.8015,16.2365],[42.8251,16.1804],[42.8182,16.1301],[42.8354,16.0749],[42.8343,16.0185],[42.8249,16.0021],[42.8246,15.9474],[42.8104,15.8693],[42.7788,15.8221],[42.7465,15.7901],[42.7374,15.7557],[42.6832,15.7274],[42.6743,15.6921],[42.7085,15.6818],[42.6937,15.6446],[42.7199,15.6057],[42.6993,15.5529],[42.7426,15.5332],[42.7735,15.4421],[42.759,15.4238],[42.7932,15.361],[42.7882,15.3185],[42.8099,15.2863],[42.7746,15.2351],[42.7557,15.2774],[42.6896,15.331],[42.6674,15.301],[42.6882,15.2743],[42.6676,15.2346],[42.5968,15.2279],[42.6301,15.1832],[42.6596,15.181],[42.6832,15.2143],[42.7885,15.1865],[42.8368,15.1607],[42.8715,15.1071],[42.861,15.0821],[42.8693,15.0215],[42.9151,14.9832],[42.9449,14.9163],[42.9417,14.8463],[42.9215,14.8388],[42.9538,14.7557],[42.9479,14.7199],[42.9837,14.6618],[42.981,14.6363],[42.9971,14.5626],[43.0143,14.5349],[42.9843,14.4496],[42.9974,14.3976],[43.0229,14.3582],[43.0354,14.2979],[43.0707,14.2301],[43.0885,14.1251],[43.1085,14.0882],[43.1132,14.0557],[43.1454,14.009],[43.1599,13.9535],[43.1899,13.9335],[43.2001,13.9057],[43.2357,13.8732],[43.2315,13.8304],[43.2865,13.6876],[43.2837,13.6182],[43.2926,13.5985],[43.2713,13.5565],[43.2579,13.5079],[43.2499,13.4226],[43.2496,13.3396],[43.2399,13.3271],[43.2438,13.2612],[43.2538,13.216],[43.309,13.1218],[43.3446,13.0818],[43.3765,13.0126],[43.3951,12.9893],[43.4351,12.9018],[43.4946,12.8174],[43.4738,12.7671],[43.4621,12.676],[43.5257,12.6818],[43.5701,12.7349],[43.6015,12.7482],[43.654,12.7257],[43.6868,12.7243],[43.7718,12.689],[43.7985,12.6901],[43.849,12.659],[43.9126,12.6399],[43.9287,12.5971],[44.0488,12.6032],[44.1524,12.6563],[44.1899,12.6388],[44.2535,12.6249],[44.2882,12.6293],[44.3607,12.6688],[44.4116,12.6802]]],[[[42.781,13.781],[42.7065,13.7343],[42.7021,13.6988],[42.6651,13.664],[42.6926,13.656],[42.7324,13.6774],[42.7701,13.7343],[42.781,13.781]]],[[[42.7635,14.071],[42.7324,14.0601],[42.6796,14.0104],[42.7279,13.9532],[42.7546,13.9535],[42.7463,13.9113],[42.7813,13.906],[42.7796,13.9738],[42.7904,13.9893],[42.7868,14.0438],[42.7635,14.071]]],[[[42.6307,15.4567],[42.5946,15.4418],[42.5535,15.3882],[42.5654,15.3385],[42.5482,15.2832],[42.5929,15.2638],[42.6182,15.3029],[42.6207,15.359],[42.6399,15.4035],[42.6182,15.4251],[42.6307,15.4567]]],[[[42.3918,15.746],[42.3849,15.7001],[42.4393,15.7207],[42.3918,15.746]]],[[[53.039,12.1785],[53.011,12.1774],[53.0265,12.1393],[53.084,12.1313],[53.0863,12.1618],[53.039,12.1785]]],[[[52.0846,12.244],[52.0938,12.2082],[52.1451,12.2018],[52.1518,12.1868],[52.2271,12.1804],[52.2376,12.1571],[52.324,12.1482],[52.3699,12.1646],[52.3399,12.1951],[52.2154,12.206],[52.2026,12.2024],[52.1501,12.2354],[52.0846,12.244]]],[[[53.741,12.6349],[53.6515,12.7018],[53.604,12.6971],[53.5435,12.7137],[53.4876,12.6982],[53.4674,12.6715],[53.3976,12.6557],[53.4001,12.579],[53.3849,12.5501],[53.3063,12.5301],[53.4063,12.4679],[53.4613,12.4429],[53.4774,12.4165],[53.5076,12.3985],[53.5582,12.341],[53.679,12.3038],[53.7301,12.301],[53.8293,12.3099],[53.9293,12.3337],[54.0099,12.3282],[54.0246,12.3474],[54.0957,12.356],[54.1415,12.3515],[54.1943,12.3901],[54.2268,12.4008],[54.2329,12.4232],[54.2796,12.4451],[54.324,12.4446],[54.3899,12.4601],[54.4454,12.4901],[54.4487,12.5182],[54.5268,12.5424],[54.5115,12.5571],[54.4799,12.5435],[54.4207,12.5793],[54.354,12.6054],[54.2943,12.6143],[54.1976,12.6685],[54.1665,12.664],[54.1285,12.6921],[54.0901,12.7021],[54.0785,12.6776],[54.0065,12.649],[53.9585,12.6387],[53.9126,12.6526],[53.8779,12.6404],[53.8404,12.5965],[53.8043,12.6021],[53.741,12.6349]]]]},"properties":{"GID_0":"YEM","ISO_A2":"YE","ISO_A3":"YEM","NAME_EN":"Yemen","NAME_IT":"Yemen"}}
]}