{"type":"FeatureCollection", "features": [
{"type":"Feature","geometry":{"type":"MultiPolygon","coordinates":[[[[48.8782,38.4708],[48.8681,38.7325],[48.8253,38.8248],[48.9283,38.9216],[48.9279,39.0622],[48.9493,39.1611],[49.0178,39.1945],[49.2069,39.0796],[49.2404,39.1642],[49.2455,39.2928],[49.2928,39.3318],[49.4223,39.2726],[49.3853,39.3839],[49.3023,39.4469],[49.2804,39.5146],[49.3328,39.6447],[49.4198,39.6966],[49.3874,39.7767],[49.4423,39.8585],[49.4135,39.9269],[49.4784,39.9856],[49.4211,40.0505],[49.469,40.1701],[49.6802,40.2754],[49.8296,40.3079],[49.8528,40.3721],[49.9953,40.3322],[50.1072,40.3696],[50.2255,40.3497],[50.3521,40.2971],[50.3572,40.3555],[50.2196,40.501],[50.1152,40.5211],[50.0442,40.5894],[49.8078,40.5633],[49.6955,40.5793],[49.6594,40.613],[49.5434,40.6315],[49.5144,40.6734],[49.4985,40.8262],[49.4121,40.8431],[49.205,41.0156],[49.1588,41.1163],[49.0952,41.3313],[48.9364,41.5197],[48.6606,41.7935],[48.5338,41.885],[48.4398,41.7214],[48.4144,41.6266],[48.1936,41.5032],[48.0511,41.4912],[48.0251,41.4323],[47.9409,41.3599],[47.8788,41.2192],[47.7199,41.1974],[47.6137,41.2364],[47.5359,41.2072],[47.4782,41.2681],[47.4049,41.2663],[47.2624,41.3247],[47.1652,41.5233],[47.1009,41.5872],[47.0098,41.556],[46.8958,41.7316],[46.7812,41.7854],[46.7612,41.853],[46.5768,41.8066],[46.5397,41.8738],[46.4426,41.8893],[46.2959,41.7862],[46.2478,41.6548],[46.3519,41.4926],[46.4888,41.4235],[46.6094,41.3895],[46.6756,41.3365],[46.6902,41.2435],[46.6514,41.2048],[46.6261,41.0657],[46.4666,41.0385],[46.2735,41.1399],[46.2454,41.1758],[45.9439,41.1804],[45.7172,41.2648],[45.7055,41.3404],[45.4369,41.4492],[45.3919,41.4257],[45.3069,41.4681],[45.1787,41.4079],[45.0912,41.3327],[45.0041,41.3014],[45.1306,41.209],[45.1935,41.0717],[45.3183,41.0032],[45.4023,41.0283],[45.5258,40.9119],[45.5941,40.8866],[45.57,40.8245],[45.4084,40.7364],[45.3567,40.6684],[45.4512,40.5834],[45.4358,40.514],[45.546,40.4691],[45.6452,40.3698],[45.9055,40.2989],[45.9772,40.2129],[45.9552,40.1456],[45.8949,40.0992],[45.8848,40.0304],[45.8187,40.0025],[45.6533,40.0409],[45.6337,39.9741],[45.8062,39.931],[45.829,39.8358],[45.996,39.7784],[46.0405,39.7201],[46.1679,39.6396],[46.1759,39.588],[46.3682,39.6387],[46.4365,39.5737],[46.5293,39.5873],[46.4671,39.4518],[46.3866,39.4251],[46.4304,39.3548],[46.5356,39.3135],[46.5785,39.2023],[46.4445,39.1565],[46.5519,39.0493],[46.5136,38.9474],[46.6092,38.9155],[46.8527,39.1396],[46.9548,39.1325],[47.0332,39.1758],[47.0647,39.2431],[47.3106,39.3719],[47.3849,39.4576],[47.5419,39.4996],[47.7419,39.598],[47.8078,39.6501],[47.8997,39.6549],[47.9908,39.6963],[48.1483,39.5636],[48.1779,39.5183],[48.353,39.3825],[48.2079,39.3217],[48.1318,39.2648],[48.1404,39.204],[48.3014,39.1089],[48.3578,39.0405],[48.2917,38.965],[48.0866,38.9361],[48.0135,38.9046],[48.0177,38.8452],[48.116,38.7678],[48.2496,38.7216],[48.2552,38.6614],[48.3157,38.6014],[48.4614,38.5972],[48.6474,38.3984],[48.7327,38.4067],[48.8782,38.4708]]],[[[45.9963,39.2253],[46,39.2969],[45.7958,39.4003],[45.8405,39.4711],[45.8175,39.5466],[45.7089,39.6065],[45.4532,39.5073],[45.3399,39.5545],[45.3037,39.601],[45.186,39.6082],[45.1928,39.6779],[45.0819,39.7855],[44.9534,39.73],[44.8009,39.7206],[44.8202,39.6252],[44.9201,39.5688],[44.9464,39.4606],[45.088,39.3494],[45.1613,39.2369],[45.2954,39.1833],[45.45,39.0477],[45.4364,38.9984],[45.6172,38.9384],[45.7675,38.9215],[45.921,38.8698],[46.0755,38.8676],[46.1509,38.8856],[46.101,39.0228],[46.0378,39.0858],[45.9963,39.2253]]]]},"properties":{"GID_0":"AZE","ISO_A2":"AZ","ISO_A3":"AZE","NAME_EN":"Azerbaijan","NAME_IT":"Azerbaigian"}}
]}