{"type":"FeatureCollection", "features": [
{"type":"Feature","geometry":{"type":"MultiPolygon","coordinates":[[[[6.0071,50.7566],[6.0159,50.8388],[6.074,50.8468],[6.0925,50.9178],[6.0182,50.9344],[6.0264,50.9833],[5.9055,51.0022],[6.0099,51.091],[6.0919,51.135],[6.1754,51.1585],[6.0733,51.183],[6.0727,51.2426],[6.1245,51.2746],[6.1686,51.333],[6.2261,51.3605],[6.2052,51.3995],[6.2234,51.4749],[6.2121,51.5134],[6.157,51.5667],[6.0912,51.6059],[6.1182,51.6561],[6.0369,51.6728],[5.9925,51.7386],[5.9782,51.7972],[5.945,51.8237],[6.0553,51.8523],[6.1664,51.8408],[6.1255,51.8983],[6.1572,51.9052],[6.2154,51.8678],[6.2989,51.8679],[6.3895,51.8333],[6.3908,51.8739],[6.4996,51.8618],[6.5524,51.8862],[6.6745,51.9159],[6.7217,51.8962],[6.8285,51.9641],[6.8266,51.9935],[6.7526,52.0286],[6.6877,52.0399],[6.6947,52.0698],[6.7512,52.0855],[6.7606,52.1187],[6.8554,52.1204],[6.9121,52.1772],[6.9513,52.181],[6.9851,52.2253],[7.061,52.2348],[7.0267,52.2922],[7.0722,52.3523],[6.9918,52.4675],[6.9417,52.4355],[6.8543,52.4596],[6.7746,52.4596],[6.6977,52.4863],[6.742,52.6453],[6.8731,52.6531],[6.9384,52.6379],[7.0556,52.6434],[7.072,52.8109],[7.1047,52.8642],[7.1816,52.9413],[7.2128,53.011],[7.2028,53.1133],[7.1789,53.1381],[7.2176,53.199],[7.2106,53.2369],[7.0803,53.2637],[7.0247,53.3021],[6.8981,53.3501],[6.8736,53.4226],[6.8153,53.4635],[6.6525,53.456],[6.5525,53.4335],[6.3803,53.4193],[6.3108,53.3965],[6.2458,53.4154],[6.0914,53.4082],[5.8903,53.3901],[5.5992,53.3043],[5.4458,53.2171],[5.4092,53.1724],[5.4103,53.1307],[5.3808,53.0926],[5.2914,53.066],[5.0419,52.9351],[4.9653,52.9293],[4.8736,52.8885],[4.8119,52.9101],[4.7858,52.9632],[4.7197,52.9524],[4.7097,52.8801],[4.6403,52.7343],[4.5919,52.5051],[4.5497,52.4596],[4.5547,52.4224],[4.4458,52.2635],[4.3731,52.1846],[4.1325,52.0015],[4.0882,51.9731],[4.0094,51.9874],[3.9609,51.9614],[3.9841,51.9148],[4.0681,51.844],[3.9858,51.8435],[3.8675,51.8185],[3.8658,51.7782],[3.8158,51.7396],[3.7636,51.7421],[3.6897,51.7212],[3.6831,51.684],[3.7215,51.6501],[3.6831,51.599],[3.5581,51.5896],[3.4392,51.5426],[3.5753,51.4385],[3.6658,51.4593],[3.7264,51.4151],[3.8114,51.3857],[3.9003,51.3951],[3.9253,51.4385],[3.9736,51.4618],[4.0625,51.4137],[4.2212,51.3761],[4.3374,51.3813],[4.3967,51.36],[4.4246,51.386],[4.3923,51.4172],[4.409,51.4588],[4.5378,51.4848],[4.5372,51.4236],[4.6791,51.4254],[4.7521,51.4975],[4.8386,51.4798],[4.8329,51.4093],[4.9361,51.3975],[5.0066,51.4391],[5.0224,51.4757],[5.0821,51.4669],[5.0975,51.4285],[5.0758,51.3951],[5.1224,51.3601],[5.1367,51.3155],[5.21,51.3235],[5.2284,51.2731],[5.4207,51.2611],[5.5129,51.293],[5.5515,51.2665],[5.5769,51.2169],[5.7096,51.1813],[5.7492,51.19],[5.8588,51.146],[5.825,51.1293],[5.8019,51.0639],[5.7641,51.0375],[5.7573,50.953],[5.7235,50.9091],[5.652,50.8725],[5.6497,50.8369],[5.7011,50.8054],[5.6913,50.7631],[5.7734,50.785],[5.8134,50.7601],[6.0071,50.7566]]],[[[5.4814,53.4182],[5.3714,53.421],[5.1958,53.3949],[5.1542,53.3613],[5.2958,53.3701],[5.3953,53.4038],[5.4814,53.4182]]],[[[6.3525,53.5071],[6.1653,53.5029],[6.1281,53.4604],[6.2631,53.4799],[6.3525,53.5071]]],[[[3.773,51.2637],[3.7887,51.2152],[3.9021,51.1989],[3.9997,51.2413],[4.057,51.248],[4.1835,51.3055],[4.2371,51.3513],[4.2058,51.3751],[4.1514,51.3629],[4.0503,51.366],[4.0158,51.4015],[3.9586,51.3665],[3.8431,51.3351],[3.7197,51.3501],[3.6869,51.3713],[3.5431,51.4054],[3.4231,51.3896],[3.3708,51.3721],[3.3826,51.2773],[3.4562,51.2448],[3.525,51.2488],[3.514,51.2889],[3.5919,51.3076],[3.773,51.2637]]],[[[5.0831,53.3063],[5.0325,53.2999],[4.8547,53.224],[4.9164,53.2157],[5.0831,53.3063]]],[[[4.8608,53.1818],[4.8286,53.1696],[4.7308,53.0774],[4.7097,53.0315],[4.7308,52.9857],[4.8481,53.0343],[4.8981,53.0799],[4.9081,53.136],[4.8608,53.1818]]]]},"properties":{"GID_0":"NLD","ISO_A2":"NL","ISO_A3":"NLD","NAME_EN":"Netherlands","NAME_IT":"Paesi Bassi"}}
]}