{"type":"FeatureCollection", "features": [
{"type":"Feature","geometry":{"type":"Polygon","coordinates":[[[35.8398,32.8222],[35.797,32.7748],[35.8263,32.7311],[35.9368,32.7241],[36.0704,32.5758],[36.0908,32.5179],[36.2007,32.5285],[36.4097,32.3822],[36.5207,32.3549],[36.8458,32.3125],[36.9562,32.3908],[37.5361,32.7026],[38.4211,33.1732],[38.8041,33.3719],[39.472,33.7003],[40.0321,33.968],[40.6037,34.2368],[41.0124,34.4199],[41.1395,34.6641],[41.2345,34.7772],[41.2181,35.1322],[41.2424,35.2855],[41.2749,35.3849],[41.2826,35.4861],[41.3943,35.6303],[41.3811,35.8353],[41.258,36.0546],[41.2918,36.2636],[41.2945,36.3562],[41.423,36.5247],[41.8283,36.5932],[41.9385,36.6703],[42.1348,36.8577],[42.3847,37.0672],[42.3371,37.1749],[42.3574,37.2275],[42.3073,37.2613],[42.1939,37.2822],[42.1061,37.2129],[41.9751,37.1596],[41.7586,37.1175],[41.6574,37.1124],[41.5009,37.0795],[41.2711,37.0792],[40.9211,37.1271],[40.7817,37.1206],[40.5463,37.0267],[40.4618,37.0149],[40.1809,36.8787],[39.8418,36.7553],[39.2273,36.665],[39.0202,36.7033],[38.8471,36.6967],[38.7315,36.7075],[38.5634,36.8388],[38.3985,36.8972],[38.2005,36.908],[37.7912,36.7486],[37.6551,36.7314],[37.4611,36.6381],[37.2664,36.6649],[37.1268,36.6617],[36.9444,36.7812],[36.9027,36.7777],[36.739,36.8242],[36.6328,36.7663],[36.6387,36.7116],[36.5919,36.6501],[36.6042,36.5791],[36.553,36.5011],[36.5932,36.3942],[36.706,36.2552],[36.6093,36.2175],[36.5426,36.2381],[36.4353,36.2113],[36.3767,36.1694],[36.3978,36.0838],[36.3684,35.9948],[36.3172,36.0041],[36.2127,35.9515],[36.1164,35.8655],[36.0187,35.8811],[35.9937,35.9393],[35.8876,35.9035],[35.8065,35.8354],[35.8385,35.7846],[35.8301,35.7151],[35.7329,35.5638],[35.9151,35.4171],[35.924,35.2624],[35.9507,35.1893],[35.8868,35.0982],[35.8982,35.0079],[35.8732,34.8968],[35.9687,34.6521],[36.0336,34.6276],[36.1218,34.6419],[36.2767,34.6283],[36.3199,34.6897],[36.451,34.5923],[36.347,34.5102],[36.4166,34.4935],[36.549,34.4244],[36.5281,34.3693],[36.5621,34.3259],[36.5815,34.232],[36.6159,34.2088],[36.4802,34.0386],[36.4249,34.0547],[36.2767,33.9037],[36.3897,33.8548],[36.0701,33.822],[35.9707,33.7203],[35.9334,33.6507],[36.0315,33.6089],[36.0263,33.5415],[35.9437,33.5242],[35.9531,33.4797],[35.8273,33.3982],[35.8175,33.2858],[35.8501,33.2532],[35.9009,32.9387],[35.8398,32.8222]]]},"properties":{"GID_0":"SYR","ISO_A2":"SY","ISO_A3":"SYR","NAME_EN":"Syria","NAME_IT":"Siria"}}
]}