{"type":"FeatureCollection", "features": [
{"type":"Feature","geometry":{"type":"Polygon","coordinates":[[[18.8226,4.5318],[18.906,4.656],[19.01,4.753],[19.098,4.922],[19.212,4.9498],[19.2413,5.0069],[19.3589,5.073],[19.4034,5.1211],[19.5075,5.1252],[19.5549,5.1457],[19.696,5.133],[19.848,5.074],[19.915,4.98],[20.024,4.966],[20.1626,4.8702],[20.1963,4.8273],[20.3579,4.737],[20.453,4.627],[20.4534,4.525],[20.5329,4.4425],[20.6127,4.4016],[20.656,4.4217],[20.7833,4.4125],[20.857,4.4455],[21.054,4.401],[21.1189,4.3361],[21.2113,4.287],[21.279,4.338],[21.3275,4.2978],[21.4278,4.2607],[21.5519,4.2471],[21.651,4.309],[21.7345,4.3039],[21.7718,4.2701],[21.9547,4.224],[22.007,4.239],[22.095,4.212],[22.164,4.154],[22.2813,4.1121],[22.445,4.124],[22.5504,4.2154],[22.5462,4.2708],[22.59,4.3893],[22.5967,4.4634],[22.6882,4.4613],[22.7337,4.556],[22.7426,4.6284],[22.7905,4.7145],[22.8701,4.7131],[22.9067,4.8179],[22.9748,4.847],[23.0323,4.7658],[23.1133,4.708],[23.1716,4.7382],[23.2752,4.6304],[23.3312,4.6022],[23.4209,4.5889],[23.4259,4.6446],[23.5007,4.6733],[23.5821,4.733],[23.7092,4.7823],[23.7803,4.7836],[23.8335,4.8294],[23.9498,4.8094],[23.9491,4.8523],[24.096,4.912],[24.1632,4.8972],[24.2983,5.0029],[24.3808,5.0107],[24.4073,5.1106],[24.5344,5.0805],[24.6105,5.0321],[24.6682,4.9163],[24.7845,4.9055],[25,5],[25.1364,5],[25.318,5.0362],[25.3552,5.1491],[25.3207,5.1874],[25.3762,5.3209],[25.4198,5.3189],[25.4975,5.3641],[25.5879,5.3699],[25.6034,5.3202],[25.6587,5.328],[25.7497,5.2378],[25.862,5.2198],[25.9167,5.1833],[25.9852,5.2397],[26.0631,5.1943],[26.1339,5.2506],[26.208,5.237],[26.2159,5.2041],[26.3017,5.1417],[26.3909,5.1474],[26.4637,5.0585],[26.6194,5.0881],[26.6555,5.0762],[26.75,5.1035],[26.8722,5.0338],[26.9351,5.1342],[27.0787,5.2041],[27.1574,5.1996],[27.2318,5.1523],[27.3941,5.0961],[27.3966,5.1526],[27.3238,5.1993],[27.2489,5.3269],[27.2332,5.4268],[27.2834,5.587],[27.1883,5.7275],[27.1059,5.7998],[27.0466,5.7949],[27.0027,5.8567],[26.9631,5.8472],[26.9047,5.8947],[26.833,5.9039],[26.8192,5.9808],[26.7518,6.0132],[26.655,6.005],[26.5602,6.0333],[26.5097,6.1579],[26.5337,6.1946],[26.4725,6.2371],[26.4756,6.2773],[26.3966,6.3058],[26.2979,6.3877],[26.2972,6.4939],[26.4151,6.6374],[26.3575,6.689],[26.2628,6.709],[26.2162,6.7411],[26.1676,6.8132],[26.1147,6.8153],[26.0411,6.9318],[26.0541,6.9853],[25.9293,7.0421],[25.9066,7.0831],[25.8116,7.1147],[25.69,7.1968],[25.6044,7.216],[25.5345,7.2738],[25.3611,7.3445],[25.3494,7.3907],[25.2874,7.4609],[25.2064,7.4851],[25.174,7.5696],[25.2878,7.6389],[25.2868,7.7815],[25.1801,7.9029],[25.1004,7.8844],[24.9717,7.9837],[24.9095,8.0472],[24.8647,8.1805],[24.7793,8.1818],[24.7297,8.2098],[24.6219,8.223],[24.554,8.2043],[24.4788,8.2723],[24.3715,8.2514],[24.2036,8.304],[24.1534,8.3699],[24.1712,8.4815],[24.2559,8.5789],[24.2321,8.6318],[24.2599,8.6838],[24.1645,8.7078],[24.1318,8.6924],[23.9944,8.708],[23.9406,8.73],[23.8298,8.7349],[23.7389,8.7161],[23.6377,8.7425],[23.5201,8.727],[23.5085,8.8148],[23.5696,8.879],[23.5863,8.9973],[23.5313,8.9635],[23.4635,8.984],[23.4508,9.0258],[23.492,9.1727],[23.5458,9.1776],[23.611,9.2305],[23.6537,9.2939],[23.6508,9.394],[23.6774,9.4387],[23.6335,9.4739],[23.6502,9.5721],[23.6979,9.6677],[23.6682,9.8915],[23.3019,10.4746],[23.2638,10.4946],[23.1367,10.6342],[23.0074,10.7161],[22.8853,10.8947],[22.8813,10.9309],[22.7612,10.9496],[22.7343,10.9745],[22.5207,11.0076],[22.4243,10.9707],[22.3269,10.9558],[22.1955,10.9086],[22.1518,10.876],[22.0816,10.895],[21.934,10.8534],[21.8808,10.8699],[21.7912,10.7981],[21.7886,10.6694],[21.7336,10.654],[21.7175,10.5079],[21.7666,10.404],[21.7374,10.3202],[21.6757,10.2376],[21.5613,10.2104],[21.5368,10.2269],[21.4681,10.1522],[21.4534,10.0831],[21.3938,10.0012],[21.3406,9.9637],[21.2628,9.9937],[21.1331,9.8479],[21.1153,9.7919],[21.0249,9.7585],[20.9501,9.6138],[20.9516,9.5679],[20.8773,9.5252],[20.7608,9.4011],[20.6628,9.3953],[20.6379,9.3178],[20.5286,9.3371],[20.4559,9.1735],[20.3532,9.1282],[20.2736,9.1221],[20.2387,9.1459],[20.0578,9.1417],[19.9271,9.0608],[19.7729,9.0574],[19.672,9.0208],[19.4011,9.026],[19.3092,9.0078],[19.2184,9.0315],[19.1352,9.0045],[19.0777,9.0149],[18.9927,8.9792],[18.8683,8.8757],[18.923,8.8004],[19.0196,8.7614],[19.1206,8.6687],[19.0658,8.6374],[19.0423,8.5543],[18.989,8.5107],[18.8509,8.3054],[18.8044,8.2607],[18.6736,8.2122],[18.63,8.1464],[18.6371,8.091],[18.6016,8.0467],[18.1641,8.0147],[18.032,8.0093],[17.9216,7.9586],[17.6717,7.9828],[17.6489,7.9457],[17.5423,7.9147],[17.5151,7.8687],[17.4499,7.8719],[17.3147,7.8284],[17.1692,7.7069],[17.1604,7.6667],[17.0403,7.635],[16.9053,7.6163],[16.8699,7.5414],[16.8229,7.5324],[16.7268,7.6502],[16.6672,7.6687],[16.668,7.7382],[16.5945,7.7689],[16.5837,7.8339],[16.5161,7.8429],[16.4891,7.7903],[16.4146,7.7741],[16.4305,7.7187],[16.3755,7.6659],[16.2355,7.6067],[16.0567,7.5776],[16.039,7.5338],[15.9748,7.4833],[15.8096,7.4411],[15.743,7.4785],[15.728,7.5191],[15.5465,7.5112],[15.5075,7.5275],[15.4262,7.4169],[15.2841,7.3039],[15.2157,7.2292],[15.2124,7.1215],[15.1602,7.0587],[15.0635,6.7841],[14.9616,6.7499],[14.851,6.4926],[14.8014,6.4011],[14.8128,6.3641],[14.7398,6.2509],[14.5314,6.1659],[14.508,6.1282],[14.4293,6.0798],[14.4343,5.9981],[14.5135,5.8942],[14.607,5.9153],[14.6204,5.8894],[14.6281,5.7131],[14.5919,5.6061],[14.6305,5.511],[14.5731,5.4],[14.5295,5.2738],[14.5692,5.2368],[14.6497,5.2164],[14.6935,5.0998],[14.6829,4.9323],[14.7146,4.8688],[14.7133,4.7712],[14.7304,4.6133],[14.8893,4.4707],[15.0178,4.4154],[15.1005,4.2631],[15.1127,4.1227],[15.1399,4.0381],[15.0763,4.0217],[15.1088,3.9432],[15.2489,3.7107],[15.4943,3.4577],[15.8,3.1008],[15.8904,3.0944],[15.9582,3.0009],[16.0321,2.984],[16.093,2.8298],[16.052,2.7936],[16.0651,2.641],[16.0835,2.5834],[16.0724,2.4646],[16.1419,2.3585],[16.1952,2.2235],[16.5201,2.8423],[16.4902,2.9093],[16.4934,3.0043],[16.5445,3.0657],[16.5058,3.1599],[16.5584,3.2534],[16.5965,3.4773],[16.672,3.5418],[16.7545,3.5571],[16.8607,3.5115],[16.8698,3.5534],[17.0581,3.5481],[17.2483,3.5833],[17.2988,3.6301],[17.3659,3.6102],[17.4052,3.6694],[17.4741,3.7031],[17.5437,3.6859],[17.6063,3.6413],[17.733,3.6512],[17.829,3.6267],[17.8591,3.533],[17.9193,3.5735],[18.1235,3.5661],[18.189,3.4812],[18.2499,3.5141],[18.2647,3.5881],[18.4197,3.609],[18.4909,3.6517],[18.6184,3.5334],[18.587,3.751],[18.602,3.896],[18.652,3.978],[18.6488,4.0764],[18.6184,4.1667],[18.546,4.302],[18.6068,4.3576],[18.6761,4.3531],[18.794,4.423],[18.8226,4.5318]]]},"properties":{"GID_0":"CAF","ISO_A2":"CF","ISO_A3":"CAF","NAME_EN":"Central African Rep.","NAME_IT":"Repubblica Centrafricana"}}
]}