{"type":"FeatureCollection", "features": [
{"type":"Feature","geometry":{"type":"Polygon","coordinates":[[[22.1207,42.3035],[22.2748,42.3379],[22.3196,42.3068],[22.4464,42.3385],[22.503,42.3903],[22.5337,42.4854],[22.419,42.5819],[22.4783,42.7054],[22.4237,42.7856],[22.6049,42.8749],[22.7319,42.8719],[22.7702,42.962],[22.8747,43.0246],[22.9558,43.1004],[22.9577,43.1929],[22.8739,43.2142],[22.8035,43.3198],[22.6301,43.4201],[22.5126,43.4617],[22.47,43.5478],[22.4626,43.6482],[22.3907,43.6867],[22.3438,43.793],[22.3988,43.9258],[22.4044,43.9943],[22.5162,44.0095],[22.6177,44.0572],[22.6122,44.1047],[22.6868,44.2657],[22.5271,44.3379],[22.4755,44.481],[22.5498,44.4821],[22.6224,44.552],[22.6858,44.5201],[22.7584,44.5619],[22.6697,44.6196],[22.5738,44.6353],[22.463,44.7156],[22.3332,44.6756],[22.2759,44.6258],[22.1832,44.4815],[22.1399,44.4709],[22.0394,44.5415],[21.9932,44.6335],[21.919,44.6478],[21.6394,44.6599],[21.5877,44.7597],[21.4224,44.7738],[21.3736,44.8672],[21.5617,44.8894],[21.5482,44.9309],[21.4083,44.9789],[21.3618,45.0207],[21.4492,45.0579],[21.4845,45.1924],[21.2044,45.2658],[21.1816,45.3128],[21.0981,45.2963],[21.0182,45.325],[20.8803,45.455],[20.7703,45.5006],[20.8341,45.5362],[20.7672,45.613],[20.8066,45.6575],[20.8043,45.7382],[20.7023,45.7508],[20.662,45.8295],[20.5174,45.8924],[20.4845,45.9538],[20.3501,45.9998],[20.3475,46.0478],[20.2608,46.1267],[20.0941,46.1781],[19.9344,46.1773],[19.8164,46.1303],[19.6577,46.1894],[19.5605,46.1714],[19.4119,46.0478],[19.3665,46.0555],[19.2745,45.998],[19.1487,45.998],[19.0943,46.0336],[18.9864,45.9361],[18.8992,45.9378],[18.8099,45.8873],[18.8905,45.7172],[18.9438,45.6909],[18.8867,45.6282],[18.92,45.5493],[19.0116,45.5525],[18.9667,45.3907],[19.0765,45.3477],[19.0914,45.3093],[19.2715,45.247],[19.4021,45.2398],[19.4028,45.1796],[19.2206,45.1921],[19.0701,45.1379],[19.1043,45.0191],[19.1498,44.9502],[19.366,44.897],[19.3304,44.7589],[19.2152,44.5902],[19.1222,44.5266],[19.139,44.4516],[19.1017,44.3937],[19.1538,44.2946],[19.3133,44.279],[19.3518,44.1978],[19.4656,44.1516],[19.51,44.0896],[19.6124,44.024],[19.5103,43.9646],[19.3521,43.9783],[19.2404,44.0135],[19.2789,43.9219],[19.3827,43.814],[19.5105,43.7199],[19.4801,43.594],[19.3934,43.5669],[19.3601,43.6045],[19.2486,43.584],[19.1952,43.4566],[19.3669,43.3779],[19.475,43.3007],[19.4945,43.2465],[19.6488,43.1566],[19.95,43.0437],[20.0739,42.9551],[20.1094,42.9678],[20.3108,42.8912],[20.3137,42.8262],[20.4012,42.8192],[20.5087,42.8682],[20.4512,42.9111],[20.6336,43.016],[20.6561,43.0909],[20.5572,43.1849],[20.6397,43.1886],[20.69,43.2284],[20.8402,43.2054],[20.8043,43.151],[20.9227,43.1036],[21.113,43.0907],[21.1452,42.9893],[21.2129,42.9908],[21.2594,42.8781],[21.3776,42.8508],[21.4256,42.7357],[21.5877,42.6865],[21.7505,42.6742],[21.793,42.6401],[21.7272,42.5846],[21.7405,42.548],[21.6116,42.4478],[21.6152,42.3742],[21.5251,42.3633],[21.5939,42.2475],[21.6843,42.2276],[21.8722,42.2793],[21.9424,42.3204],[22.0384,42.286],[22.1207,42.3035]]]},"properties":{"GID_0":"SRB","ISO_A2":"RS","ISO_A3":"SRB","NAME_EN":"Serbia","NAME_IT":"Serbia"}}
]}