{"type":"FeatureCollection", "features": [
{"type":"Feature","geometry":{"type":"Polygon","coordinates":[[[-56.1649,-34.9278],[-56.1177,-34.8981],[-56.0635,-34.8996],[-55.8787,-34.7992],[-55.7896,-34.7718],[-55.7529,-34.7815],[-55.697,-34.7633],[-55.65,-34.7797],[-55.5976,-34.7726],[-55.5341,-34.7965],[-55.4103,-34.7901],[-55.3186,-34.8241],[-55.2726,-34.8899],[-55.2363,-34.9051],[-55.1634,-34.8821],[-55.0872,-34.8777],[-55.0426,-34.9112],[-54.9819,-34.916],[-54.9414,-34.9562],[-54.861,-34.9171],[-54.801,-34.9012],[-54.7,-34.851],[-54.6171,-34.8252],[-54.4693,-34.7568],[-54.2134,-34.6637],[-54.1521,-34.6704],[-54.1538,-34.634],[-54.1133,-34.5788],[-54.0004,-34.5035],[-53.7818,-34.3946],[-53.7619,-34.3586],[-53.7906,-34.3321],[-53.7782,-34.2768],[-53.6998,-34.185],[-53.556,-34.0687],[-53.5364,-34.0449],[-53.5304,-33.9732],[-53.5062,-33.944],[-53.5033,-33.8877],[-53.4766,-33.8488],[-53.3773,-33.7463],[-53.4244,-33.7337],[-53.4395,-33.6935],[-53.5237,-33.6861],[-53.5286,-33.613],[-53.5001,-33.3998],[-53.5315,-33.2077],[-53.5171,-33.1304],[-53.4844,-33.0781],[-53.2985,-32.9484],[-53.2478,-32.8635],[-53.1675,-32.7995],[-53.0942,-32.7242],[-53.1701,-32.6521],[-53.2806,-32.6207],[-53.3345,-32.5843],[-53.3882,-32.5869],[-53.4334,-32.5563],[-53.4709,-32.4807],[-53.5552,-32.4734],[-53.6452,-32.3838],[-53.6428,-32.297],[-53.7115,-32.1985],[-53.7457,-32.0793],[-53.8069,-32.0702],[-53.9132,-31.9657],[-53.9662,-31.9499],[-53.963,-31.923],[-54.0405,-31.8969],[-54.067,-31.923],[-54.1404,-31.8949],[-54.1583,-31.8735],[-54.4564,-31.6517],[-54.457,-31.6067],[-54.5157,-31.5102],[-54.5758,-31.4814],[-54.5868,-31.4566],[-54.6706,-31.4538],[-54.7391,-31.4256],[-54.8367,-31.442],[-54.8581,-31.4081],[-54.9352,-31.3565],[-54.9829,-31.3115],[-55.0024,-31.2693],[-55.0745,-31.3322],[-55.1523,-31.2933],[-55.1741,-31.2682],[-55.2467,-31.2523],[-55.2501,-31.2061],[-55.3599,-31.0675],[-55.3492,-31.0428],[-55.4373,-31.0047],[-55.4414,-30.9597],[-55.4783,-30.9536],[-55.5101,-30.9018],[-55.5458,-30.8906],[-55.5789,-30.8395],[-55.6583,-30.864],[-55.6486,-30.923],[-55.7807,-31.017],[-55.8135,-31.016],[-55.8705,-31.0703],[-55.9335,-31.0872],[-56.0071,-31.0751],[-56.0184,-31.0481],[-56.0082,-30.8943],[-55.9896,-30.8585],[-56.0224,-30.7856],[-56.0618,-30.7746],[-56.1505,-30.7048],[-56.1883,-30.6046],[-56.2258,-30.5783],[-56.3818,-30.4996],[-56.4394,-30.4321],[-56.4916,-30.3974],[-56.5369,-30.3344],[-56.6068,-30.2826],[-56.6619,-30.1977],[-56.6974,-30.2049],[-56.7797,-30.1275],[-56.8505,-30.089],[-56.9564,-30.1009],[-57.0821,-30.0946],[-57.168,-30.1981],[-57.1683,-30.2494],[-57.203,-30.2849],[-57.284,-30.294],[-57.3057,-30.264],[-57.3977,-30.3045],[-57.4163,-30.2783],[-57.4883,-30.2679],[-57.5007,-30.2892],[-57.5676,-30.2517],[-57.5609,-30.2113],[-57.6072,-30.1901],[-57.6474,-30.1948],[-57.6156,-30.2525],[-57.6478,-30.349],[-57.7067,-30.3929],[-57.8592,-30.477],[-57.8927,-30.5205],[-57.8852,-30.5858],[-57.8471,-30.6126],[-57.8336,-30.6667],[-57.8038,-30.7092],[-57.8096,-30.9133],[-57.9011,-30.9321],[-57.9031,-30.9623],[-57.8663,-31.0193],[-57.8792,-31.0882],[-57.9083,-31.1185],[-57.9071,-31.2045],[-57.9392,-31.2761],[-57.9811,-31.3191],[-57.9803,-31.3877],[-58.079,-31.4516],[-58.0806,-31.4848],[-58.004,-31.529],[-57.9819,-31.5909],[-58.0388,-31.7576],[-58.0857,-31.8193],[-58.1878,-31.8495],[-58.2068,-31.8688],[-58.1385,-32.001],[-58.1428,-32.0565],[-58.1673,-32.0883],[-58.1837,-32.155],[-58.1064,-32.24],[-58.0985,-32.2859],[-58.1234,-32.3383],[-58.1823,-32.3722],[-58.2046,-32.4605],[-58.1877,-32.5298],[-58.1605,-32.5685],[-58.1451,-32.6684],[-58.1504,-32.727],[-58.1193,-32.8152],[-58.1115,-32.9279],[-58.0841,-32.9978],[-58.1781,-33.0751],[-58.2569,-33.0999],[-58.3488,-33.113],[-58.3589,-33.2185],[-58.344,-33.3256],[-58.4178,-33.3542],[-58.4394,-33.5188],[-58.4152,-33.6481],[-58.4406,-33.6786],[-58.4157,-33.7411],[-58.4271,-33.813],[-58.4119,-33.854],[-58.4195,-33.9092],[-58.3293,-33.9685],[-58.2365,-34.0713],[-58.21,-34.1653],[-58.1515,-34.166],[-58.079,-34.1871],[-58.0335,-34.2468],[-57.9574,-34.3026],[-57.8971,-34.3785],[-57.8849,-34.4376],[-57.8454,-34.4743],[-57.7599,-34.4688],[-57.5807,-34.426],[-57.5379,-34.4557],[-57.4805,-34.4297],[-57.4393,-34.4413],[-57.3893,-34.427],[-57.3249,-34.4432],[-57.2703,-34.4355],[-57.1383,-34.4487],[-57.0904,-34.4789],[-57.064,-34.5229],[-56.992,-34.564],[-56.9105,-34.6276],[-56.895,-34.6556],[-56.8192,-34.6888],[-56.6758,-34.7115],[-56.5593,-34.7596],[-56.4559,-34.7515],[-56.3929,-34.7746],[-56.3906,-34.8452],[-56.3171,-34.8979],[-56.2029,-34.9104],[-56.1649,-34.9278]]]},"properties":{"GID_0":"URY","ISO_A2":"UY","ISO_A3":"URY","NAME_EN":"Uruguay","NAME_IT":"Uruguay"}}
]}