{"type":"FeatureCollection", "features": [
{"type":"Feature","geometry":{"type":"MultiPolygon","coordinates":[[[[-61.7332,17.0901],[-61.7296,17.1107],[-61.7765,17.1113],[-61.7885,17.1265],[-61.7729,17.1399],[-61.7879,17.1476],[-61.7896,17.1585],[-61.8012,17.1701],[-61.8221,17.1679],[-61.8326,17.1732],[-61.8474,17.1663],[-61.8615,17.1318],[-61.8979,17.121],[-61.8963,17.1024],[-61.8749,17.1035],[-61.8815,17.0871],[-61.894,17.0846],[-61.8882,17.0629],[-61.8965,17.046],[-61.8907,17.0263],[-61.8587,17.0165],[-61.8315,17.0146],[-61.831,17.0054],[-61.8085,17.0146],[-61.7871,17.0115],[-61.7743,17.0015],[-61.754,16.9971],[-61.7329,17.0032],[-61.7296,17.0185],[-61.744,17.0396],[-61.7324,17.0424],[-61.7107,17.031],[-61.6854,17.0326],[-61.6776,17.0474],[-61.679,17.0674],[-61.6993,17.0713],[-61.6893,17.0987],[-61.7043,17.1015],[-61.7174,17.0929],[-61.7332,17.0901]]],[[[-61.8435,17.7288],[-61.8624,17.7171],[-61.8637,17.7082],[-61.8601,17.7013],[-61.8621,17.6951],[-61.8429,17.6937],[-61.8318,17.681],[-61.8362,17.6629],[-61.8268,17.6474],[-61.8349,17.6318],[-61.8343,17.6129],[-61.851,17.6101],[-61.8596,17.5924],[-61.8568,17.5804],[-61.8349,17.5932],[-61.819,17.5907],[-61.7951,17.5729],[-61.7743,17.5657],[-61.7674,17.5554],[-61.7363,17.5504],[-61.7324,17.6054],[-61.7382,17.6315],[-61.7487,17.6521],[-61.7724,17.6721],[-61.7949,17.701],[-61.821,17.7015],[-61.8435,17.7288]]],[[[-61.8662,17.7154],[-61.8865,17.6968],[-61.8757,17.689],[-61.866,17.6935],[-61.861,17.7001],[-61.8662,17.7154]]]]},"properties":{"GID_0":"ATG","ISO_A2":"AG","ISO_A3":"ATG","NAME_EN":"Antigua and Barb.","NAME_IT":"Antigua e Barbuda"}}
]}