{"type":"FeatureCollection", "features": [
{"type":"Feature","geometry":{"type":"MultiPolygon","coordinates":[[[[68.1856,23.8379],[68.0854,23.8054],[68.0851,23.7104],[68.149,23.7046],[68.1929,23.7776],[68.1856,23.8379]]],[[[67.694,23.8871],[67.6443,23.8643],[67.6612,23.8135],[67.7268,23.8129],[67.694,23.8871]]],[[[67.9971,24.016],[67.9638,24.0085],[67.9482,23.9832],[67.9182,23.9799],[67.8637,23.9024],[67.9504,23.7924],[68.0338,23.7776],[68.0462,23.8324],[68.0376,23.904],[68.0101,23.9351],[68.0254,24.0004],[67.9971,24.016]]],[[[68.1079,23.966],[68.1018,23.9301],[68.0529,23.8935],[68.0846,23.8426],[68.1115,23.8582],[68.1251,23.904],[68.1079,23.966]]],[[[67.8507,24.0865],[67.7929,24.059],[67.7385,24.0513],[67.7526,23.9882],[67.6968,23.9315],[67.7549,23.8382],[67.8243,23.8213],[67.8385,23.9179],[67.9018,23.9751],[67.8651,23.9926],[67.8712,24.076],[67.8507,24.0865]]],[[[67.7182,24.0124],[67.656,23.9912],[67.659,23.9799],[67.6762,23.971],[67.6907,23.9363],[67.7182,24.0124]]],[[[67.6787,24.0857],[67.6696,24.086],[67.6535,24.0771],[67.646,24.0588],[67.546,24.0738],[67.4751,24.0071],[67.5151,23.919],[67.5579,23.9562],[67.6085,23.9204],[67.6651,23.9496],[67.656,23.9793],[67.6543,23.9907],[67.6638,23.9993],[67.7188,24.0218],[67.6904,24.0557],[67.6843,24.0782],[67.6787,24.0857]]],[[[67.3532,24.339],[67.3154,24.3307],[67.2996,24.2818],[67.3368,24.2521],[67.396,24.2968],[67.3532,24.339]]],[[[67.3943,24.3926],[67.3613,24.3696],[67.4051,24.3249],[67.4332,24.3801],[67.3943,24.3926]]],[[[67.8849,24.0721],[67.8701,23.9976],[67.9124,23.9854],[67.9515,23.9946],[67.9313,24.046],[67.8849,24.0721]]],[[[73.6686,36.8813],[73.4457,36.8827],[73.3525,36.8532],[73.2971,36.8526],[73.1882,36.8769],[73.0888,36.8731],[72.8826,36.8411],[72.6562,36.8498],[72.5661,36.8324],[72.4952,36.7776],[72.4112,36.7767],[72.3026,36.745],[72.2414,36.7535],[72.1969,36.6936],[72.2133,36.6649],[72.1029,36.6485],[72.1062,36.6057],[72.0129,36.5677],[71.9353,36.5609],[71.9091,36.5053],[71.8321,36.5055],[71.7958,36.4006],[71.657,36.4779],[71.6275,36.4058],[71.5792,36.3788],[71.6143,36.3213],[71.4648,36.2607],[71.4625,36.232],[71.3571,36.1582],[71.3183,36.1535],[71.234,36.0721],[71.2647,36.0129],[71.376,35.972],[71.4055,35.9109],[71.4803,35.8577],[71.5178,35.7944],[71.4951,35.768],[71.5733,35.7172],[71.5254,35.6179],[71.6162,35.5893],[71.6452,35.5646],[71.6202,35.5113],[71.6709,35.4306],[71.5669,35.3118],[71.5903,35.2803],[71.6902,35.2144],[71.6173,35.1398],[71.5358,35.0904],[71.561,35.0216],[71.5255,34.9602],[71.3012,34.8655],[71.2444,34.7478],[71.1124,34.6829],[71.128,34.6283],[71.0911,34.575],[71.0268,34.5378],[71.0068,34.4611],[71.0873,34.3891],[71.1695,34.3636],[71.1221,34.2672],[71.1401,34.1553],[71.0728,34.1057],[71.0763,34.0625],[70.9179,34.0098],[70.8849,33.9768],[70.8243,33.9818],[70.7679,33.9549],[70.5939,33.9643],[70.5055,33.9289],[70.4303,33.9584],[70.2388,33.9731],[70.1351,33.9985],[70.0766,33.9991],[70.0103,34.0301],[69.912,34.0225],[69.9106,33.9841],[69.8716,33.934],[69.9124,33.9048],[69.9704,33.8235],[69.9732,33.7668],[70.0544,33.7311],[70.155,33.7256],[70.1652,33.6588],[70.2181,33.6433],[70.1978,33.524],[70.2291,33.4785],[70.3146,33.4327],[70.3402,33.392],[70.3309,33.3274],[70.2905,33.3267],[70.1556,33.1979],[70.0673,33.2135],[70.0239,33.1446],[69.9459,33.1287],[69.8755,33.0957],[69.7865,33.1275],[69.7225,33.0931],[69.5892,33.0839],[69.5139,33.0139],[69.492,32.9427],[69.5305,32.8612],[69.4845,32.8477],[69.4417,32.7895],[69.4659,32.6676],[69.3852,32.5666],[69.2852,32.533],[69.2407,32.4614],[69.2808,32.3564],[69.27,32.2721],[69.2728,32.151],[69.3003,31.9919],[69.3235,31.9442],[69.2626,31.8866],[69.1976,31.8484],[69.1179,31.7033],[69.0242,31.6421],[68.9492,31.6458],[68.9169,31.6047],[68.8049,31.61],[68.7735,31.661],[68.717,31.6966],[68.7018,31.7699],[68.6322,31.7783],[68.5701,31.828],[68.4672,31.7747],[68.4637,31.7481],[68.582,31.7503],[68.5563,31.7148],[68.4218,31.7574],[68.2866,31.757],[68.2594,31.8015],[68.1775,31.8145],[68.0756,31.7124],[68.0697,31.6903],[67.9679,31.629],[67.8611,31.6085],[67.7107,31.5001],[67.5757,31.5051],[67.5947,31.4343],[67.6601,31.3972],[67.7409,31.4148],[67.7855,31.3439],[67.6204,31.2764],[67.5392,31.2636],[67.4458,31.2093],[67.3063,31.1826],[67.1027,31.2147],[67.0618,31.2035],[67.0166,31.2304],[67.0423,31.2871],[67.0131,31.3116],[66.9023,31.2962],[66.835,31.2643],[66.8021,31.2192],[66.7407,31.1918],[66.6968,31.0621],[66.6521,31.0344],[66.5922,30.9606],[66.4697,30.9429],[66.4292,30.8549],[66.389,30.8379],[66.3595,30.7874],[66.3841,30.7555],[66.3218,30.6446],[66.2981,30.5245],[66.3752,30.4744],[66.3533,30.3878],[66.3488,30.2953],[66.2967,30.1763],[66.2972,30.1372],[66.2384,30.0841],[66.2417,30.0551],[66.3601,29.9732],[66.3302,29.925],[66.2745,29.8789],[66.2665,29.842],[65.9988,29.7662],[65.7869,29.7253],[65.4413,29.6362],[65.0971,29.5428],[65.0434,29.5346],[64.9614,29.5671],[64.9179,29.5568],[64.6319,29.5811],[64.4876,29.5718],[64.4462,29.5372],[64.3261,29.5051],[64.2633,29.5034],[64.1887,29.4619],[64.174,29.3983],[64.1408,29.3621],[63.9695,29.4258],[63.6649,29.4764],[63.3748,29.4623],[63.2974,29.4422],[63.1715,29.4467],[62.8424,29.4116],[62.4801,29.3765],[62.4024,29.3869],[62.2968,29.4248],[62.0038,29.5078],[61.9982,29.5185],[61.7233,29.6031],[61.5694,29.6416],[61.474,29.6749],[61.0455,29.8003],[60.8994,29.8375],[61.1259,29.5729],[61.1926,29.5025],[61.3726,29.3487],[61.3577,29.2828],[61.3835,29.2215],[61.4287,29.1938],[61.4158,29.1356],[61.4586,29.1224],[61.5032,29.0564],[61.5043,29.0075],[61.681,28.7706],[61.7775,28.6799],[61.8042,28.6402],[61.9576,28.5487],[62.1158,28.4851],[62.1705,28.4875],[62.2963,28.4635],[62.4397,28.4071],[62.5029,28.3313],[62.5923,28.2551],[62.7869,28.2812],[62.7966,28.2089],[62.7682,28.0324],[62.7901,27.9781],[62.83,27.7353],[62.8554,27.4651],[62.8074,27.3401],[62.8232,27.2862],[62.7815,27.2514],[62.8214,27.2123],[62.8783,27.2171],[62.9772,27.1951],[63.0586,27.2332],[63.1842,27.2414],[63.2992,27.1789],[63.3175,27.1387],[63.2559,27.083],[63.2567,26.9287],[63.2755,26.8648],[63.1921,26.8435],[63.1997,26.738],[63.1692,26.6473],[63.0514,26.6376],[63.0019,26.6519],[62.9195,26.6461],[62.7787,26.6523],[62.7214,26.6199],[62.6609,26.6165],[62.6081,26.585],[62.4345,26.5681],[62.3971,26.5383],[62.3151,26.5289],[62.3088,26.4767],[62.2647,26.4127],[62.2825,26.3584],[62.1281,26.3804],[62.1211,26.3168],[62.0611,26.3154],[61.8479,26.2281],[61.833,26.1711],[61.7688,25.8018],[61.6892,25.7992],[61.6899,25.7179],[61.6672,25.5124],[61.6698,25.4219],[61.6556,25.2975],[61.6105,25.195],[61.744,25.1418],[61.769,25.0912],[61.736,25.0724],[61.7321,25.0221],[61.8451,25.0332],[61.8729,25.0987],[61.9715,25.1113],[62.066,25.1038],[62.0604,25.1785],[62.1004,25.2062],[62.1676,25.2207],[62.2507,25.2113],[62.3301,25.1507],[62.366,25.1921],[62.461,25.2271],[62.4863,25.2615],[62.614,25.269],[62.7551,25.2476],[62.7926,25.2518],[63.0101,25.211],[63.1251,25.2579],[63.4951,25.2054],[63.4743,25.2501],[63.4963,25.326],[63.5735,25.3682],[63.6929,25.386],[63.8901,25.3415],[64.0574,25.3271],[64.0721,25.351],[64.0163,25.436],[64.094,25.4643],[64.1643,25.4354],[64.1338,25.3976],[64.0718,25.3879],[64.0912,25.3246],[64.1496,25.3246],[64.3363,25.2715],[64.4021,25.2363],[64.4546,25.2401],[64.5121,25.2746],[64.5818,25.2588],[64.6176,25.206],[64.6915,25.3043],[64.8493,25.3262],[65.0166,25.3205],[65.1151,25.3021],[65.2215,25.3129],[65.2701,25.3793],[65.3674,25.3851],[65.4179,25.3732],[65.4604,25.3915],[65.6307,25.3537],[65.7726,25.3838],[65.8268,25.4199],[65.9135,25.4143],[66.0276,25.4251],[66.109,25.4482],[66.2851,25.4682],[66.3712,25.4568],[66.5068,25.4018],[66.524,25.491],[66.4254,25.4851],[66.394,25.5204],[66.2768,25.546],[66.2765,25.5871],[66.3429,25.5974],[66.3982,25.5785],[66.4065,25.5293],[66.484,25.5204],[66.5504,25.4946],[66.5857,25.4307],[66.5468,25.3804],[66.5599,25.3479],[66.6849,25.2599],[66.7499,25.1754],[66.7012,25.0868],[66.7124,25.051],[66.6879,24.9024],[66.6646,24.8257],[66.7513,24.8521],[66.8146,24.8385],[66.854,24.8613],[66.9729,24.8137],[67.0126,24.811],[67.0813,24.7476],[67.1501,24.7935],[67.2604,24.7921],[67.386,24.7732],[67.4212,24.7426],[67.4362,24.6868],[67.4129,24.6399],[67.3118,24.5535],[67.3701,24.5279],[67.3749,24.4713],[67.4679,24.3913],[67.4179,24.3385],[67.4726,24.3251],[67.4557,24.251],[67.3765,24.2143],[67.4493,24.1488],[67.4318,24.089],[67.4768,24.0393],[67.5324,24.0757],[67.6274,24.0749],[67.6682,24.0885],[67.6799,24.0882],[67.6851,24.0832],[67.711,24.0432],[67.7529,24.0849],[67.7871,24.0643],[67.8435,24.094],[67.9315,24.0585],[67.9465,24.0238],[68.0254,24.0124],[68.0518,24.0279],[68.0954,23.9901],[68.1229,23.9471],[68.1265,23.9029],[68.1143,23.8563],[68.1918,23.8551],[68.2868,23.9449],[68.3285,23.9301],[68.3454,23.9826],[68.4962,24.0121],[68.5135,23.9504],[68.5471,23.9632],[68.7492,23.962],[68.7596,24.0358],[68.7641,24.2841],[68.8264,24.3084],[68.8477,24.2084],[68.8979,24.1989],[68.922,24.2587],[69.0137,24.2291],[69.0929,24.2691],[69.19,24.2357],[69.3103,24.2767],[69.4316,24.2737],[69.5012,24.255],[69.6007,24.2778],[69.7246,24.1751],[69.8703,24.1647],[70.0241,24.1694],[70.0773,24.2156],[70.1101,24.2849],[70.3703,24.3535],[70.5749,24.4203],[70.6119,24.4005],[70.5721,24.3445],[70.5936,24.2403],[70.6553,24.2251],[70.8058,24.2227],[70.8941,24.2571],[70.8851,24.2908],[70.9597,24.3462],[71.0664,24.3557],[71.1341,24.4138],[71.0931,24.4359],[71.0076,24.4422],[71.0153,24.5228],[71.0006,24.5992],[71.0205,24.6305],[71.085,24.6614],[71.0353,24.7988],[70.9455,24.9345],[70.8943,25.1441],[70.7591,25.275],[70.7443,25.321],[70.6742,25.3893],[70.6879,25.5173],[70.6762,25.5239],[70.6811,25.6608],[70.666,25.6972],[70.6017,25.7033],[70.5362,25.6767],[70.3997,25.6638],[70.2796,25.7013],[70.2445,25.7663],[70.178,25.8195],[70.1067,25.9242],[70.0805,26.0582],[70.1452,26.1662],[70.1727,26.2451],[70.1839,26.4868],[70.1677,26.5507],[70.1069,26.5895],[70.0248,26.5987],[69.8556,26.5829],[69.7719,26.6137],[69.7219,26.6538],[69.5224,26.736],[69.4837,26.8062],[69.5132,27.0169],[69.5867,27.178],[69.6659,27.2514],[69.862,27.4028],[69.9362,27.5021],[70.0163,27.556],[70.1078,27.7669],[70.2076,27.8854],[70.3029,27.9462],[70.3662,28.0082],[70.4838,28.034],[70.5626,28.0198],[70.6721,27.9143],[70.6784,27.8391],[70.7577,27.7172],[70.9069,27.7006],[71.034,27.7573],[71.2087,27.8244],[71.4097,27.8658],[71.6583,27.8689],[71.8974,27.9574],[71.9333,28.1269],[71.9959,28.207],[72.1261,28.3035],[72.2088,28.4],[72.302,28.6648],[72.3847,28.7639],[72.5199,28.8286],[72.7414,28.9483],[72.9417,29.0272],[73,29.1474],[73.0785,29.2334],[73.2713,29.557],[73.3403,29.7689],[73.3854,29.926],[73.4128,29.9492],[73.6112,30.0224],[73.7941,30.0697],[73.9663,30.195],[73.9578,30.2617],[73.8732,30.3834],[73.9627,30.4576],[73.9837,30.5005],[74.0926,30.5753],[74.1184,30.6322],[74.1968,30.6718],[74.2663,30.7624],[74.3161,30.8476],[74.4161,30.906],[74.4706,30.966],[74.5381,30.9935],[74.5534,31.0626],[74.6002,31.0435],[74.656,31.0545],[74.6944,31.0954],[74.6791,31.129],[74.5924,31.1334],[74.5445,31.117],[74.5046,31.1385],[74.5222,31.2475],[74.5946,31.3971],[74.6402,31.4645],[74.573,31.5196],[74.6009,31.5678],[74.5173,31.7229],[74.5991,31.8851],[74.8014,31.9618],[74.8793,32.0519],[74.9259,32.0657],[74.9984,32.0287],[75.1163,32.0828],[75.2392,32.0872],[75.3094,32.1546],[75.3228,32.2013],[75.3635,32.2392],[75.3304,32.3317],[75.1795,32.4254],[75.1476,32.4134],[75.0826,32.48],[75.0302,32.4918],[74.9879,32.4496],[74.8997,32.4661],[74.8564,32.4927],[74.6984,32.4849],[74.6524,32.5602],[74.6422,32.611],[74.6756,32.6658],[74.6501,32.7184],[74.7004,32.827],[74.642,32.8229],[74.6142,32.7577],[74.5315,32.7407],[74.472,32.7784],[74.388,32.8034],[74.3115,32.786],[74.2534,32.8463],[74.1835,32.8657],[74.144,32.9002],[73.9638,32.9434],[73.926,33.0015],[73.8499,33.0164],[73.8202,33.0173],[73.7538,32.9796],[73.7438,33.035],[73.6796,33.0831],[73.6068,33.0886],[73.5813,33.1201],[73.5918,33.1703],[73.6058,33.2181],[73.5792,33.3148],[73.5392,33.3879],[73.583,33.464],[73.5966,33.5441],[73.536,33.6652],[73.5626,33.7511],[73.5243,33.8123],[73.5332,33.9279],[73.4916,33.9833],[73.5131,34.0416],[73.4866,34.1372],[73.4782,34.222],[73.4097,34.3231],[73.3977,34.374],[73.4069,34.4244],[73.4427,34.555],[73.4647,34.5719],[73.5597,34.5844],[73.625,34.5639],[73.6725,34.635],[73.6611,34.6842],[73.7205,34.7672],[73.7397,34.7872],[73.8339,34.8269],[73.9078,34.8267],[73.9372,34.8494],[73.9755,34.8619],[73.9941,34.8825],[74.0517,34.9556],[74.0872,35.025],[74.0658,35.09],[74.1244,35.1275],[74.0278,35.1455],[73.9303,35.203],[73.8397,35.2111],[73.7811,35.2405],[73.7214,35.2294],[73.6978,35.3119],[73.7019,35.3947],[73.803,35.5031],[73.7803,35.5225],[73.6603,35.5344],[73.493,35.5686],[73.4144,35.5733],[73.2958,35.6075],[73.1361,35.7089],[73.1116,35.76],[73.1253,35.8339],[73.0636,35.8628],[72.9714,35.8339],[72.8111,35.8572],[72.6708,35.8183],[72.575,35.8458],[72.5158,35.915],[72.5669,36.0075],[72.5219,36.0722],[72.5672,36.2483],[72.6633,36.2594],[72.7091,36.3033],[72.8508,36.3757],[72.8691,36.4468],[72.955,36.4693],[72.9641,36.4984],[73.0355,36.5375],[73.073,36.6053],[73.0475,36.6711],[73.1419,36.7188],[73.2303,36.7096],[73.3714,36.7493],[73.4578,36.731],[73.5686,36.7274],[73.6602,36.7027],[73.6911,36.7171],[73.7069,36.7207],[73.8547,36.7138],[73.8403,36.7913],[73.7808,36.8288],[73.6964,36.8469],[73.6686,36.8813]]]]},"properties":{"GID_0":"PAK","ISO_A2":"PK","ISO_A3":"PAK","NAME_EN":"Pakistan","NAME_IT":"Pakistan"}},
{"type":"Feature","geometry":{"type":"Polygon","coordinates":[[[73.5813,33.1201],[73.6068,33.0886],[73.6796,33.0831],[73.7438,33.035],[73.7538,32.9796],[73.8202,33.0173],[73.8499,33.0164],[73.926,33.0015],[73.9638,32.9434],[74.144,32.9002],[74.1835,32.8657],[74.2534,32.8463],[74.3115,32.786],[74.388,32.8034],[74.472,32.7784],[74.4061,32.907],[74.318,32.9197],[74.3517,33.0131],[74.255,33.0488],[74.2052,33.0433],[74.1762,33.1072],[74.0828,33.1807],[74.0143,33.1982],[74.0244,33.2625],[74.103,33.2705],[74.1851,33.3835],[74.1781,33.4817],[74.0957,33.5704],[74.0284,33.5747],[74,33.6237],[73.9665,33.7403],[74.049,33.8088],[74.1701,33.8399],[74.2197,33.8672],[74.2611,33.9248],[74.2487,34.0138],[74.2147,34.0386],[74.115,34.0538],[74.087,34.0378],[73.8982,34.0328],[73.9041,34.1222],[73.9766,34.2118],[73.9762,34.2648],[73.8994,34.3598],[73.8418,34.3383],[73.7632,34.3596],[73.777,34.4163],[73.8987,34.4958],[73.8953,34.5467],[73.9481,34.5731],[73.9273,34.6459],[73.9602,34.6967],[74.1418,34.6912],[74.203,34.7366],[74.2699,34.7627],[74.3028,34.7975],[74.3755,34.8034],[74.5802,34.7701],[74.6713,34.7007],[74.8356,34.6776],[74.8938,34.6845],[75.0187,34.6415],[75.1423,34.6624],[75.2661,34.6395],[75.2619,34.6109],[75.3505,34.5622],[75.5061,34.5373],[75.5919,34.5401],[75.7492,34.5158],[75.9322,34.6244],[76.0004,34.6358],[76.0365,34.6703],[76.0858,34.6715],[76.1579,34.6434],[76.2751,34.6936],[76.3161,34.7316],[76.3859,34.736],[76.4692,34.7917],[76.5618,34.7583],[76.6716,34.7574],[76.7447,34.8447],[76.7389,34.9019],[76.8632,34.9708],[76.9503,34.9409],[77.0101,34.9563],[77.0109,35.0276],[77.0684,35.0241],[77.1568,35.0547],[77.2808,35.1383],[77.4425,35.2344],[77.6506,35.3671],[77.8147,35.4852],[77.7975,35.517],[77.7115,35.4849],[77.6232,35.4766],[77.5361,35.4959],[77.4273,35.469],[77.3837,35.4729],[77.3464,35.513],[77.2669,35.5354],[77.1867,35.5283],[77.0941,35.5665],[77.0567,35.5994],[76.933,35.6159],[76.8303,35.6773],[76.7638,35.6696],[76.6754,35.7506],[76.6162,35.7702],[76.5785,35.8131],[76.5905,35.8931],[76.5554,35.9177],[76.506,35.8873],[76.4021,35.8732],[76.3584,35.837],[76.2218,35.8509],[76.169,35.8382],[76.166,35.9166],[76.0919,36.0145],[76.0016,36.0182],[75.9463,36.0693],[75.9331,36.1253],[76.053,36.2373],[75.9831,36.3375],[76.0252,36.3894],[76.0083,36.4534],[75.9288,36.5582],[75.9189,36.6205],[75.8524,36.6753],[75.7297,36.7465],[75.6525,36.7688],[75.5462,36.7666],[75.4545,36.7216],[75.423,36.7717],[75.4173,36.8776],[75.3724,36.9436],[75.2988,36.9655],[75.2303,36.9597],[75.1469,37.0199],[75.0398,37.0155],[74.9224,36.9346],[74.8513,36.988],[74.8216,37.0603],[74.7295,37.0249],[74.6767,37.097],[74.6198,37.089],[74.5174,36.9989],[74.4279,36.9976],[74.3541,36.9647],[74.264,36.9045],[74.152,36.9098],[74.1274,36.8481],[74.063,36.8404],[73.8401,36.9088],[73.7352,36.9015],[73.6686,36.8813],[73.6964,36.8469],[73.7808,36.8288],[73.8403,36.7913],[73.8547,36.7138],[73.7069,36.7207],[73.6911,36.7171],[73.6602,36.7027],[73.5686,36.7274],[73.4578,36.731],[73.3714,36.7493],[73.2303,36.7096],[73.1419,36.7188],[73.0475,36.6711],[73.073,36.6053],[73.0355,36.5375],[72.9641,36.4984],[72.955,36.4693],[72.8691,36.4468],[72.8508,36.3757],[72.7091,36.3033],[72.6633,36.2594],[72.5672,36.2483],[72.5219,36.0722],[72.5669,36.0075],[72.5158,35.915],[72.575,35.8458],[72.6708,35.8183],[72.8111,35.8572],[72.9714,35.8339],[73.0636,35.8628],[73.1253,35.8339],[73.1116,35.76],[73.1361,35.7089],[73.2958,35.6075],[73.4144,35.5733],[73.493,35.5686],[73.6603,35.5344],[73.7803,35.5225],[73.803,35.5031],[73.7019,35.3947],[73.6978,35.3119],[73.7214,35.2294],[73.7811,35.2405],[73.8397,35.2111],[73.9303,35.203],[74.0278,35.1455],[74.1244,35.1275],[74.0658,35.09],[74.0872,35.025],[74.0517,34.9556],[73.9941,34.8825],[73.9755,34.8619],[73.9372,34.8494],[73.9078,34.8267],[73.8339,34.8269],[73.7397,34.7872],[73.7205,34.7672],[73.6611,34.6842],[73.6725,34.635],[73.625,34.5639],[73.5597,34.5844],[73.4647,34.5719],[73.4427,34.555],[73.4069,34.4244],[73.3977,34.374],[73.4097,34.3231],[73.4782,34.222],[73.4866,34.1372],[73.5131,34.0416],[73.4916,33.9833],[73.5332,33.9279],[73.5243,33.8123],[73.5626,33.7511],[73.536,33.6652],[73.5966,33.5441],[73.583,33.464],[73.5392,33.3879],[73.5792,33.3148],[73.6058,33.2181],[73.5918,33.1703],[73.5813,33.1201]]]},"properties":{"GID_0":"PAK","ISO_A2":"PK","ISO_A3":"PAK","NAME_EN":"Pakistan","NAME_IT":"Pakistan"}}
]}