{"type":"FeatureCollection", "features": [
{"type":"Feature","geometry":{"type":"MultiPolygon","coordinates":[[[[33.6794,35.0339],[33.5915,35.0339],[33.5352,35.0566],[33.4768,35.0574],[33.4768,35.0948],[33.4003,35.1978],[33.3745,35.1743],[33.3153,35.1619],[33.2402,35.1713],[33.1903,35.1899],[33.0958,35.1697],[32.9891,35.1314],[32.9227,35.0987],[32.8884,35.1026],[32.842,35.0798],[32.8143,35.1166],[32.7315,35.1432],[32.7087,35.1848],[32.651,35.1965],[32.5485,35.1732],[32.4979,35.096],[32.4574,35.059],[32.4015,35.0393],[32.3582,35.0479],[32.2824,35.1049],[32.2757,35.0371],[32.3132,34.9957],[32.316,34.8996],[32.3476,34.8565],[32.3887,34.8401],[32.3932,34.7901],[32.4226,34.7457],[32.4924,34.7043],[32.5568,34.6977],[32.6135,34.6671],[32.7046,34.6413],[32.7443,34.646],[32.7668,34.6761],[32.7986,34.671],[32.8597,34.7006],[32.8845,34.6666],[32.9361,34.6577],[32.9547,34.6773],[33.0176,34.654],[33.0635,34.686],[33.166,34.7124],[33.2604,34.7051],[33.3704,34.7313],[33.4301,34.7649],[33.501,34.7882],[33.5601,34.8204],[33.5979,34.8162],[33.6399,34.8651],[33.6418,34.9335],[33.6635,34.9651],[33.7115,34.9856],[33.6794,35.0339]]],[[[33.874,34.9613],[33.9604,34.9854],[34.014,34.9832],[34.076,34.964],[34.0308,35.0474],[33.9629,35.0683],[33.8801,35.0731],[33.8302,35.023],[33.874,34.9613]]]]},"properties":{"GID_0":"CYP","ISO_A2":"CY","ISO_A3":"CYP","NAME_EN":"Cyprus","NAME_IT":"Cipro"}}
]}