{"type":"FeatureCollection", "features": [
{"type":"Feature","geometry":{"type":"Polygon","coordinates":[[[5.4663,49.4989],[5.7013,49.5395],[5.8129,49.548],[5.8745,49.5768],[5.8691,49.7272],[5.8319,49.7258],[5.7461,49.8388],[5.7451,49.8984],[5.8433,49.9871],[5.8591,50.0617],[5.9541,50.1347],[5.9676,50.1708],[6.1204,50.1632],[6.1903,50.1876],[6.1757,50.2354],[6.2779,50.2664],[6.3055,50.3176],[6.3975,50.3462],[6.3422,50.38],[6.3776,50.4394],[6.3091,50.5014],[6.2307,50.4975],[6.1744,50.5575],[6.2691,50.6192],[6.1833,50.6323],[6.1153,50.7221],[6.0116,50.7569],[5.8134,50.7601],[5.6497,50.8369],[5.652,50.8725],[5.7573,50.953],[5.7641,51.0375],[5.825,51.1293],[5.7492,51.19],[5.7096,51.1813],[5.5769,51.2169],[5.5129,51.293],[5.4207,51.2611],[5.2284,51.2731],[5.21,51.3235],[5.1367,51.3155],[5.0758,51.3951],[5.0821,51.4669],[4.9361,51.3975],[4.8329,51.4093],[4.8386,51.4798],[4.7521,51.4975],[4.6791,51.4254],[4.5372,51.4236],[4.5378,51.4848],[4.409,51.4588],[4.3967,51.36],[4.3374,51.3813],[4.2371,51.3513],[4.1835,51.3055],[4.057,51.248],[3.9021,51.1989],[3.7887,51.2152],[3.7993,51.2576],[3.5919,51.3076],[3.514,51.2889],[3.4562,51.2448],[3.3826,51.2773],[3.3608,51.3676],[3.0769,51.3021],[2.7842,51.1751],[2.5554,51.0919],[2.58,51.003],[2.6301,50.9458],[2.5992,50.8533],[2.635,50.8128],[2.725,50.7957],[2.8133,50.7169],[2.9099,50.6944],[2.9377,50.7426],[3.0587,50.7807],[3.1471,50.7899],[3.2618,50.676],[3.2865,50.5276],[3.3773,50.491],[3.4749,50.5332],[3.5215,50.4946],[3.6079,50.4965],[3.6688,50.4365],[3.6737,50.3349],[3.8401,50.3539],[3.8861,50.3271],[4.0252,50.3579],[4.2208,50.2543],[4.1659,50.2151],[4.1532,50.1604],[4.2243,50.0644],[4.1373,50.0218],[4.1974,49.9545],[4.3106,49.9686],[4.4458,49.9372],[4.6861,50.0049],[4.7028,50.0957],[4.8025,50.1511],[4.8749,50.1534],[4.8724,50.0922],[4.7909,49.9584],[4.8829,49.8984],[4.8515,49.8627],[4.9314,49.7867],[5.0897,49.7648],[5.1662,49.6929],[5.2684,49.696],[5.3469,49.6308],[5.431,49.5924],[5.4663,49.4989]]]},"properties":{"GID_0":"BEL","ISO_A2":"BE","ISO_A3":"BEL","NAME_EN":"Belgium","NAME_IT":"Belgio"}}
]}