{"type":"FeatureCollection", "features": [
{"type":"Feature","geometry":{"type":"MultiPolygon","coordinates":[[[[-171.4324,-14.033],[-171.4238,-14.0041],[-171.4804,-13.9548],[-171.5164,-13.9492],[-171.5631,-13.9094],[-171.5839,-13.8781],[-171.6217,-13.8847],[-171.6674,-13.8618],[-171.7114,-13.8548],[-171.7489,-13.8286],[-171.7917,-13.8269],[-171.8306,-13.7928],[-171.9081,-13.7983],[-171.9719,-13.8283],[-172.0375,-13.8303],[-172.0732,-13.8659],[-172.0544,-13.9033],[-172.0047,-13.918],[-171.9917,-13.9469],[-171.9614,-13.9478],[-171.9497,-13.9786],[-171.9175,-14.0047],[-171.8631,-13.9894],[-171.8281,-14.0082],[-171.7901,-14.0092],[-171.7675,-14.0428],[-171.7021,-14.0301],[-171.654,-14.0441],[-171.6152,-14.0346],[-171.5597,-14.046],[-171.4675,-14.0469],[-171.4324,-14.033]]],[[[-172.2211,-13.7966],[-172.2197,-13.7364],[-172.1792,-13.6784],[-172.2108,-13.5783],[-172.3057,-13.4593],[-172.357,-13.4398],[-172.4148,-13.4496],[-172.4247,-13.4681],[-172.4785,-13.461],[-172.5783,-13.4885],[-172.6137,-13.4922],[-172.638,-13.5181],[-172.662,-13.5053],[-172.701,-13.5194],[-172.7573,-13.4899],[-172.804,-13.5159],[-172.7863,-13.5452],[-172.6841,-13.62],[-172.6674,-13.6484],[-172.5994,-13.7097],[-172.5777,-13.7658],[-172.5278,-13.8038],[-172.4742,-13.7872],[-172.4044,-13.7853],[-172.3224,-13.761],[-172.2893,-13.7592],[-172.2719,-13.7945],[-172.2211,-13.7966]]]]},"properties":{"GID_0":"WSM","ISO_A2":"WS","ISO_A3":"WSM","NAME_EN":"Samoa","NAME_IT":"Samoa"}}
]}