{"type":"FeatureCollection", "features": [
{"type":"Feature","geometry":{"type":"MultiPolygon","coordinates":[[[[-73.0163,21.336],[-73.0321,21.3368],[-73.0668,21.3213],[-73.0726,21.2979],[-73.0857,21.2818],[-73.0926,21.2632],[-73.1174,21.2379],[-73.1382,21.1876],[-73.1487,21.1757],[-73.1724,21.1632],[-73.2126,21.1585],[-73.2357,21.1432],[-73.246,21.1437],[-73.2626,21.1351],[-73.2824,21.1413],[-73.3085,21.1449],[-73.3412,21.161],[-73.3579,21.1776],[-73.3726,21.204],[-73.3851,21.2326],[-73.3974,21.2293],[-73.3996,21.2188],[-73.4126,21.2035],[-73.4251,21.1996],[-73.4374,21.1893],[-73.4732,21.1899],[-73.4976,21.1813],[-73.5176,21.1863],[-73.5182,21.1771],[-73.5324,21.1585],[-73.5454,21.1518],[-73.5451,21.1363],[-73.5679,21.1271],[-73.5779,21.1162],[-73.586,21.1215],[-73.5951,21.1101],[-73.619,21.1093],[-73.6279,21.0987],[-73.6446,21.1001],[-73.6679,21.1126],[-73.6651,21.0963],[-73.6521,21.0935],[-73.6443,21.0826],[-73.6479,21.0468],[-73.6704,21.0279],[-73.6971,21.0263],[-73.7026,21.0176],[-73.6818,20.9871],[-73.6782,20.9413],[-73.6643,20.9215],[-73.6462,20.9121],[-73.6326,20.9346],[-73.6235,20.9432],[-73.6021,20.9474],[-73.5846,20.944],[-73.5629,20.9479],[-73.5368,20.9443],[-73.5182,20.9374],[-73.4999,20.9226],[-73.4915,20.9224],[-73.4715,20.9315],[-73.4496,20.9326],[-73.4376,20.9371],[-73.4124,20.9315],[-73.3832,20.936],[-73.3524,20.9624],[-73.3335,20.966],[-73.3007,20.9579],[-73.2849,20.9676],[-73.2579,20.9585],[-73.2538,20.9524],[-73.2315,20.9535],[-73.2218,20.9604],[-73.1849,20.9696],[-73.1626,20.9643],[-73.1387,21.0193],[-73.1249,21.0263],[-73.1015,21.0788],[-73.0857,21.1063],[-73.0665,21.1232],[-73.0515,21.1321],[-73.0371,21.1513],[-73.0179,21.196],[-73.0135,21.2276],[-73.0146,21.2399],[-73.0085,21.2738],[-73.0113,21.2971],[-73.0093,21.3338],[-73.0163,21.336]]],[[[-72.9899,21.5593],[-72.9971,21.5607],[-73.0146,21.5418],[-73.0354,21.5271],[-73.0768,21.5079],[-73.0732,21.4876],[-73.0529,21.4518],[-73.054,21.4265],[-73.046,21.4251],[-73.0182,21.4476],[-72.9935,21.4501],[-72.9715,21.4693],[-72.9474,21.4737],[-72.9365,21.4724],[-72.9243,21.4813],[-72.9129,21.5074],[-72.9362,21.5235],[-72.9565,21.5301],[-72.9779,21.5513],[-72.9899,21.5593]]],[[[-73.1268,22.4554],[-73.1299,22.4338],[-73.1404,22.4107],[-73.1421,22.3982],[-73.1626,22.3779],[-73.1693,22.3618],[-73.1496,22.3585],[-73.1135,22.3657],[-73.0868,22.3546],[-73.059,22.3318],[-73.0476,22.3368],[-73.011,22.3665],[-72.9943,22.3721],[-72.9768,22.3693],[-72.9679,22.3538],[-72.9307,22.3649],[-72.9046,22.3646],[-72.8732,22.3576],[-72.8538,22.3443],[-72.8185,22.311],[-72.7821,22.2826],[-72.7621,22.2988],[-72.7465,22.3057],[-72.7349,22.319],[-72.7404,22.3415],[-72.7601,22.354],[-72.779,22.3524],[-72.799,22.3738],[-72.8099,22.3701],[-72.8279,22.3851],[-72.8471,22.3907],[-72.8557,22.3874],[-72.8707,22.3954],[-72.9335,22.4068],[-72.956,22.4015],[-72.9971,22.4121],[-73.0296,22.4346],[-73.0515,22.439],[-73.0721,22.4482],[-73.0726,22.4365],[-73.0813,22.4301],[-73.0985,22.4329],[-73.1162,22.4507],[-73.1268,22.4554]]],[[[-75.7499,22.2707],[-75.7524,22.2388],[-75.7396,22.2396],[-75.7499,22.2707]]],[[[-75.7626,22.3226],[-75.7585,22.2774],[-75.7501,22.2813],[-75.7626,22.3226]]],[[[-74.0249,22.6165],[-74.0185,22.6068],[-73.9965,22.6157],[-74.0021,22.5921],[-73.9899,22.5885],[-73.9318,22.6026],[-73.9246,22.6001],[-73.9079,22.581],[-73.8904,22.5707],[-73.8849,22.5513],[-73.876,22.536],[-73.8749,22.5187],[-73.8857,22.5088],[-73.8949,22.4876],[-73.9046,22.474],[-73.9251,22.464],[-73.9799,22.4599],[-74.0035,22.4493],[-73.999,22.4276],[-74.0082,22.406],[-74.0488,22.3963],[-74.0751,22.3968],[-74.0937,22.3907],[-74.0926,22.3771],[-74.0818,22.3712],[-74.0821,22.3571],[-74.0899,22.3429],[-74.1082,22.3312],[-74.1487,22.3276],[-74.1724,22.3101],[-74.1824,22.3113],[-74.1862,22.2971],[-74.1757,22.2824],[-74.1843,22.2682],[-74.1865,22.2538],[-74.1946,22.2371],[-74.2151,22.221],[-74.2404,22.226],[-74.2574,22.2329],[-74.2826,22.2226],[-74.2793,22.1949],[-74.2918,22.1693],[-74.2832,22.1643],[-74.2679,22.1885],[-74.2518,22.2001],[-74.2349,22.1999],[-74.2213,22.2051],[-74.2129,22.2015],[-74.1971,22.2088],[-74.1663,22.2376],[-74.1507,22.2746],[-74.1351,22.2907],[-74.101,22.2949],[-74.0724,22.306],[-74.046,22.3107],[-74.0137,22.321],[-73.9976,22.329],[-73.9743,22.3574],[-73.9632,22.3935],[-73.9493,22.4082],[-73.9368,22.4332],[-73.9276,22.4451],[-73.914,22.4449],[-73.904,22.4593],[-73.891,22.4685],[-73.8724,22.4879],[-73.8646,22.5163],[-73.8485,22.546],[-73.8615,22.5893],[-73.8693,22.6257],[-73.8718,22.6521],[-73.891,22.6579],[-73.9015,22.6538],[-73.9107,22.6707],[-73.9032,22.681],[-73.9137,22.6896],[-73.899,22.6979],[-73.8924,22.6843],[-73.8913,22.6668],[-73.8776,22.6743],[-73.881,22.6818],[-73.8776,22.7018],[-73.8907,22.7062],[-73.8882,22.7182],[-73.9051,22.7215],[-73.9082,22.7107],[-73.9287,22.7054],[-73.954,22.719],[-73.9626,22.7049],[-73.9846,22.6882],[-73.9868,22.681],[-74.0104,22.6724],[-74.0051,22.6549],[-74.0429,22.6346],[-74.0418,22.6099],[-74.0249,22.6165]]],[[[-75.7029,22.1749],[-75.7132,22.1665],[-75.6985,22.1504],[-75.6896,22.1513],[-75.7029,22.1749]]],[[[-75.7346,22.2301],[-75.7401,22.2101],[-75.7535,22.209],[-75.7393,22.1754],[-75.7213,22.1782],[-75.7135,22.1885],[-75.7293,22.2076],[-75.7346,22.2301]]],[[[-73.5946,22.6071],[-73.6038,22.611],[-73.6196,22.6051],[-73.626,22.5901],[-73.6232,22.5721],[-73.6038,22.5857],[-73.5946,22.6071]]],[[[-73.5099,22.6126],[-73.5371,22.6135],[-73.5032,22.5985],[-73.4826,22.6021],[-73.5099,22.6126]]],[[[-74.2826,22.666],[-74.2879,22.6674],[-74.2971,22.6465],[-74.3104,22.6265],[-74.3288,22.6115],[-74.356,22.5974],[-74.3726,22.5804],[-74.3799,22.5663],[-74.3807,22.5421],[-74.3637,22.5496],[-74.3526,22.5743],[-74.3326,22.5918],[-74.324,22.5949],[-74.3138,22.6143],[-74.2971,22.6321],[-74.2826,22.666]]],[[[-73.8676,22.7288],[-73.8704,22.714],[-73.856,22.7101],[-73.8485,22.7282],[-73.8568,22.7379],[-73.8676,22.7288]]],[[[-74.3051,22.8365],[-74.3468,22.8335],[-74.341,22.8029],[-74.3296,22.7813],[-74.319,22.7696],[-74.3035,22.7624],[-74.2868,22.7365],[-74.284,22.7182],[-74.2896,22.6921],[-74.2712,22.6879],[-74.2582,22.7057],[-74.2479,22.7074],[-74.2229,22.7018],[-74.209,22.6943],[-74.204,22.6854],[-74.1849,22.6871],[-74.1693,22.6743],[-74.1499,22.671],[-74.121,22.6854],[-74.1035,22.6751],[-74.104,22.6643],[-74.0871,22.6626],[-74.0612,22.6851],[-74.0499,22.6863],[-74.0418,22.7026],[-74.0249,22.7132],[-74.0426,22.7243],[-74.0635,22.7329],[-74.0729,22.7426],[-74.1026,22.7382],[-74.1279,22.7379],[-74.1401,22.7276],[-74.1532,22.7365],[-74.156,22.7499],[-74.1874,22.7501],[-74.1999,22.7643],[-74.1974,22.7696],[-74.2162,22.7951],[-74.2337,22.8085],[-74.2426,22.8074],[-74.2571,22.8168],[-74.2718,22.8163],[-74.3051,22.8365]]],[[[-75.1432,23.1924],[-75.1593,23.1887],[-75.1626,23.179],[-75.1413,23.181],[-75.1432,23.1924]]],[[[-75.3254,23.6835],[-75.3471,23.6749],[-75.3276,23.6618],[-75.3376,23.6349],[-75.3337,23.614],[-75.3068,23.6313],[-75.3004,23.6221],[-75.3063,23.6126],[-75.3021,23.5851],[-75.2876,23.5907],[-75.2737,23.5793],[-75.2771,23.5576],[-75.2574,23.5429],[-75.251,23.5263],[-75.2496,23.4912],[-75.2288,23.4715],[-75.2226,23.4543],[-75.2299,23.4499],[-75.2276,23.4363],[-75.2118,23.4321],[-75.2029,23.4221],[-75.2038,23.4082],[-75.1971,23.3988],[-75.1874,23.4015],[-75.1821,23.3904],[-75.1468,23.3815],[-75.1215,23.3376],[-75.1176,23.3201],[-75.1282,23.3151],[-75.1101,23.2926],[-75.1032,23.2757],[-75.1174,23.2607],[-75.1457,23.2393],[-75.1418,23.2104],[-75.146,23.1993],[-75.1349,23.1776],[-75.1199,23.1754],[-75.1188,23.164],[-75.0926,23.1571],[-75.089,23.1429],[-75.0693,23.1326],[-75.0624,23.1188],[-75.0715,23.1026],[-75.0893,23.106],[-75.1007,23.1013],[-75.129,23.1224],[-75.1485,23.1418],[-75.1593,23.164],[-75.1701,23.1588],[-75.1774,23.1701],[-75.1646,23.1832],[-75.1954,23.1799],[-75.2032,23.2021],[-75.2165,23.1957],[-75.2187,23.1776],[-75.2121,23.1646],[-75.1807,23.1529],[-75.1318,23.1229],[-75.1068,23.0971],[-75.0951,23.0951],[-75.054,23.0796],[-75.0118,23.0799],[-74.9982,23.0713],[-74.9785,23.0668],[-74.9582,23.0535],[-74.939,23.0213],[-74.9349,23.0068],[-74.9238,22.999],[-74.9074,22.9626],[-74.9018,22.9379],[-74.8887,22.9157],[-74.8796,22.881],[-74.8643,22.8699],[-74.8596,22.8496],[-74.8368,22.861],[-74.8265,22.8801],[-74.8346,22.9004],[-74.8426,22.939],[-74.8507,22.9493],[-74.8487,22.9629],[-74.8576,22.9876],[-74.849,22.9888],[-74.8596,23.0099],[-74.8826,23.0287],[-74.9024,23.059],[-74.9121,23.0654],[-74.9371,23.0974],[-74.9549,23.0929],[-74.9629,23.1007],[-74.9926,23.1079],[-75.0029,23.1035],[-75.0215,23.1082],[-75.0532,23.1349],[-75.0679,23.1532],[-75.0829,23.1943],[-75.0885,23.2468],[-75.0835,23.2707],[-75.0993,23.3257],[-75.1176,23.3549],[-75.1346,23.3762],[-75.1546,23.409],[-75.1837,23.4468],[-75.1946,23.4671],[-75.2007,23.491],[-75.2018,23.5251],[-75.239,23.5693],[-75.2688,23.5987],[-75.2751,23.6121],[-75.2763,23.6338],[-75.2904,23.6471],[-75.3037,23.6657],[-75.3254,23.6835]]],[[[-73.7121,23.1021],[-73.7329,23.0963],[-73.7832,23.0999],[-73.8112,23.0963],[-73.8224,23.0901],[-73.7951,23.0799],[-73.7763,23.0665],[-73.754,23.0746],[-73.7499,23.0657],[-73.7276,23.0735],[-73.7115,23.0826],[-73.6862,23.086],[-73.6807,23.0932],[-73.7121,23.1021]]],[[[-74.8304,23.7121],[-74.8613,23.7054],[-74.8712,23.6982],[-74.8976,23.6965],[-74.901,23.6921],[-74.924,23.689],[-74.9257,23.681],[-74.9499,23.6718],[-74.9463,23.6537],[-74.9118,23.6588],[-74.8962,23.6537],[-74.8749,23.661],[-74.8607,23.6518],[-74.8371,23.6449],[-74.8329,23.6349],[-74.7982,23.6507],[-74.7913,23.6854],[-74.7949,23.7043],[-74.8029,23.709],[-74.8304,23.7121]]],[[[-75.8238,23.4985],[-75.844,23.4732],[-75.8343,23.4626],[-75.8112,23.4718],[-75.8074,23.489],[-75.8182,23.4915],[-75.8229,23.4951],[-75.8238,23.4985]]],[[[-76.0271,23.6893],[-76.0276,23.6701],[-76.0396,23.6396],[-76.029,23.619],[-76.0268,23.606],[-75.9757,23.5904],[-75.9532,23.586],[-75.8985,23.5618],[-75.8826,23.5474],[-75.8668,23.5251],[-75.8599,23.534],[-75.8418,23.5126],[-75.8307,23.5193],[-75.8265,23.5051],[-75.8224,23.5032],[-75.8221,23.4951],[-75.8179,23.4924],[-75.8057,23.4907],[-75.8035,23.466],[-75.7724,23.4582],[-75.746,23.4615],[-75.7265,23.4599],[-75.711,23.4538],[-75.6985,23.4429],[-75.6704,23.4338],[-75.6449,23.4407],[-75.6468,23.4324],[-75.6246,23.4249],[-75.6132,23.414],[-75.5879,23.4224],[-75.5649,23.4065],[-75.5357,23.4107],[-75.5271,23.4157],[-75.5485,23.4268],[-75.5851,23.4393],[-75.6038,23.4404],[-75.6243,23.4532],[-75.6368,23.4557],[-75.6657,23.4713],[-75.6849,23.4543],[-75.6937,23.4535],[-75.7012,23.4671],[-75.7418,23.4782],[-75.7565,23.4843],[-75.7585,23.4982],[-75.7757,23.5088],[-75.801,23.5338],[-75.8096,23.5301],[-75.829,23.5407],[-75.8532,23.5604],[-75.9065,23.6168],[-75.9201,23.6379],[-75.9293,23.6329],[-75.9621,23.6599],[-75.9765,23.6682],[-75.9912,23.6824],[-76.0024,23.676],[-76.0182,23.6793],[-76.0271,23.6893]]],[[[-75.1187,23.8557],[-75.119,23.8469],[-75.1299,23.8335],[-75.1151,23.809],[-75.1074,23.8271],[-75.094,23.8401],[-75.1187,23.8557]]],[[[-75.7774,23.4546],[-75.7979,23.4571],[-75.8001,23.4463],[-75.7774,23.4546]]],[[[-76.0651,23.7204],[-76.0646,23.7082],[-76.0718,23.7018],[-76.0651,23.6893],[-76.0685,23.676],[-76.0468,23.6521],[-76.0488,23.6743],[-76.0379,23.6793],[-76.0468,23.7001],[-76.0651,23.7204]]],[[[-76.174,23.729],[-76.1787,23.7174],[-76.1632,23.7088],[-76.1585,23.7176],[-76.174,23.729]]],[[[-76.1918,23.8376],[-76.1868,23.8182],[-76.176,23.8232],[-76.1918,23.8376]]],[[[-76.2219,23.8599],[-76.236,23.851],[-76.2232,23.8376],[-76.2176,23.8457],[-76.2219,23.8599]]],[[[-76.291,23.9293],[-76.2868,23.9327],[-76.3035,23.9557],[-76.3124,23.9543],[-76.291,23.9293]]],[[[-76.4008,24.1163],[-76.3962,24.1035],[-76.4096,24.0885],[-76.3987,24.0815],[-76.3863,24.0874],[-76.4008,24.1163]]],[[[-74.4568,24.1296],[-74.4579,24.1232],[-74.4865,24.116],[-74.5079,24.1207],[-74.5301,24.0851],[-74.5265,24.0785],[-74.5393,24.0671],[-74.5385,24.0557],[-74.5257,24.0365],[-74.5246,24.0179],[-74.5385,24.0012],[-74.5468,23.976],[-74.5596,23.9549],[-74.551,23.9496],[-74.5324,23.954],[-74.5171,23.9463],[-74.489,23.9474],[-74.4857,23.964],[-74.4751,23.9707],[-74.4765,23.9804],[-74.4557,24.0121],[-74.4437,24.036],[-74.436,24.0613],[-74.4357,24.0799],[-74.4413,24.1021],[-74.4568,24.1296]]],[[[-75.704,24.6949],[-75.7221,24.6935],[-75.7332,24.6818],[-75.7621,24.674],[-75.7438,24.666],[-75.7368,24.6565],[-75.7379,24.6424],[-75.7121,24.6454],[-75.7029,24.6351],[-75.6715,24.6193],[-75.6537,24.6024],[-75.6426,24.5851],[-75.639,24.5637],[-75.641,24.5499],[-75.6496,24.5365],[-75.6449,24.5279],[-75.626,24.531],[-75.6046,24.5293],[-75.5868,24.5138],[-75.576,24.4999],[-75.5729,24.484],[-75.5504,24.4579],[-75.5304,24.4063],[-75.521,24.3893],[-75.4965,24.3576],[-75.4801,24.341],[-75.4687,24.304],[-75.459,24.2943],[-75.4388,24.299],[-75.4179,24.2913],[-75.4096,24.2812],[-75.4029,24.2585],[-75.3926,24.2379],[-75.3968,24.2101],[-75.4151,24.1968],[-75.4268,24.199],[-75.4526,24.1921],[-75.5104,24.1585],[-75.5321,24.1493],[-75.4979,24.1229],[-75.4799,24.126],[-75.4599,24.1188],[-75.4318,24.1446],[-75.4143,24.1468],[-75.3929,24.1393],[-75.3846,24.1465],[-75.3349,24.1565],[-75.3249,24.146],[-75.3021,24.1454],[-75.3021,24.1674],[-75.3171,24.1996],[-75.341,24.2379],[-75.3535,24.2457],[-75.3649,24.2721],[-75.3793,24.289],[-75.3818,24.3018],[-75.3901,24.3049],[-75.4046,24.3232],[-75.4157,24.3276],[-75.4721,24.3635],[-75.4885,24.3799],[-75.5226,24.4263],[-75.5563,24.4849],[-75.5699,24.5224],[-75.5857,24.5349],[-75.6135,24.5665],[-75.624,24.5893],[-75.626,24.6085],[-75.6243,24.6382],[-75.6349,24.6424],[-75.6401,24.6529],[-75.6649,24.6715],[-75.6754,24.6849],[-75.704,24.6949]]],[[[-75.9676,24.5893],[-75.9532,24.5812],[-75.9501,24.5724],[-75.9351,24.5626],[-75.8921,24.5671],[-75.8904,24.5757],[-75.9112,24.5749],[-75.944,24.5851],[-75.9676,24.5893]]],[[[-76.7849,24.5593],[-76.7971,24.5357],[-76.7949,24.5243],[-76.774,24.5138],[-76.7726,24.5462],[-76.7849,24.5593]]],[[[-76.1396,24.9904],[-76.1296,25.0101],[-76.1263,25.0443],[-76.1182,25.0601],[-76.1137,25.0857],[-76.1288,25.0888],[-76.1332,25.1129],[-76.1157,25.1171],[-76.1326,25.1429],[-76.1346,25.1535],[-76.151,25.1646],[-76.1668,25.1688],[-76.1813,25.1785],[-76.2001,25.1843],[-76.2293,25.1993],[-76.2451,25.2143],[-76.2549,25.2185],[-76.3032,25.2613],[-76.3404,25.304],[-76.3526,25.3338],[-76.3679,25.3496],[-76.3868,25.3385],[-76.4182,25.3365],[-76.441,25.3424],[-76.4635,25.3574],[-76.4851,25.3668],[-76.4999,25.3693],[-76.5312,25.3851],[-76.5651,25.4196],[-76.5974,25.4335],[-76.6082,25.4424],[-76.6224,25.4635],[-76.6349,25.456],[-76.6496,25.4646],[-76.6629,25.4829],[-76.6674,25.5082],[-76.6815,25.5129],[-76.6829,25.5012],[-76.6943,25.4965],[-76.7074,25.5088],[-76.7074,25.5204],[-76.7004,25.5426],[-76.6829,25.5476],[-76.6946,25.5588],[-76.7201,25.5629],[-76.7387,25.5521],[-76.7246,25.5401],[-76.7276,25.5226],[-76.744,25.501],[-76.7618,25.4671],[-76.7646,25.4421],[-76.799,25.3985],[-76.8001,25.3913],[-76.8404,25.3393],[-76.8318,25.3393],[-76.8001,25.3726],[-76.7887,25.3907],[-76.7862,25.4026],[-76.7726,25.4185],[-76.7476,25.434],[-76.7182,25.4449],[-76.7018,25.4476],[-76.6557,25.4351],[-76.6438,25.4346],[-76.6087,25.4399],[-76.5912,25.4193],[-76.5899,25.4118],[-76.5687,25.3943],[-76.5393,25.3779],[-76.5149,25.3565],[-76.4849,25.3429],[-76.4774,25.3493],[-76.4554,25.344],[-76.4465,25.3368],[-76.4229,25.3318],[-76.3799,25.3296],[-76.361,25.3226],[-76.3463,25.3079],[-76.3365,25.2899],[-76.3199,25.271],[-76.3176,25.2557],[-76.2979,25.2468],[-76.276,25.2218],[-76.256,25.2104],[-76.2457,25.1921],[-76.2249,25.1754],[-76.221,25.164],[-76.1985,25.1521],[-76.1776,25.1479],[-76.1518,25.124],[-76.1579,25.1079],[-76.1476,25.1054],[-76.1404,25.0901],[-76.141,25.0393],[-76.1457,25.0051],[-76.1615,24.9868],[-76.1899,24.9704],[-76.1996,24.9599],[-76.2076,24.9154],[-76.2162,24.886],[-76.2151,24.8757],[-76.2038,24.8582],[-76.1924,24.8515],[-76.1918,24.886],[-76.1787,24.8913],[-76.1657,24.8849],[-76.156,24.8499],[-76.1643,24.8299],[-76.1813,24.8221],[-76.2065,24.8213],[-76.1949,24.8065],[-76.2218,24.784],[-76.2551,24.7835],[-76.2721,24.7951],[-76.2924,24.7999],[-76.3087,24.8168],[-76.3288,24.8321],[-76.3463,24.8301],[-76.3376,24.8037],[-76.3276,24.7835],[-76.2862,24.7729],[-76.2793,24.7754],[-76.2615,24.7524],[-76.2487,24.7485],[-76.2304,24.7349],[-76.224,24.7129],[-76.2038,24.6763],[-76.186,24.6599],[-76.1749,24.6315],[-76.159,24.6171],[-76.1454,24.6157],[-76.1543,24.6574],[-76.1615,24.6796],[-76.1732,24.6893],[-76.1751,24.7007],[-76.189,24.7096],[-76.1901,24.7412],[-76.1876,24.7654],[-76.179,24.7793],[-76.1663,24.7874],[-76.1654,24.7988],[-76.1562,24.8182],[-76.1376,24.8418],[-76.1335,24.8699],[-76.1426,24.9176],[-76.1588,24.916],[-76.1643,24.9268],[-76.1579,24.9451],[-76.1607,24.954],[-76.1421,24.9749],[-76.1396,24.9904]]],[[[-76.8101,24.6465],[-76.8174,24.6374],[-76.8196,24.6079],[-76.8093,24.6099],[-76.8049,24.6232],[-76.8101,24.6465]]],[[[-77.7685,23.7896],[-77.7749,23.7771],[-77.7749,23.7629],[-77.7465,23.7615],[-77.7551,23.7721],[-77.7549,23.7826],[-77.7685,23.7896]]],[[[-77.7179,23.719],[-77.7187,23.7001],[-77.7307,23.6899],[-77.7351,23.6743],[-77.7229,23.6726],[-77.7035,23.6807],[-77.7057,23.7071],[-77.7179,23.719]]],[[[-77.7354,23.7793],[-77.7499,23.7526],[-77.7693,23.7568],[-77.7807,23.7679],[-77.7904,23.7601],[-77.7746,23.7479],[-77.7712,23.739],[-77.7085,23.7326],[-77.6954,23.7343],[-77.6762,23.7304],[-77.6504,23.7026],[-77.6401,23.7057],[-77.6432,23.7329],[-77.6554,23.7426],[-77.6562,23.7588],[-77.6657,23.7638],[-77.6821,23.7596],[-77.7121,23.7615],[-77.7243,23.7799],[-77.7354,23.7793]]],[[[-77.5768,23.8365],[-77.5946,23.826],[-77.6113,23.8063],[-77.6299,23.8096],[-77.6379,23.7996],[-77.6551,23.7885],[-77.6549,23.7493],[-77.6415,23.749],[-77.6293,23.7424],[-77.6271,23.7118],[-77.616,23.7129],[-77.6035,23.7237],[-77.5782,23.7185],[-77.5587,23.7332],[-77.5501,23.7454],[-77.5338,23.779],[-77.5415,23.7996],[-77.5696,23.8174],[-77.5768,23.8365]]],[[[-77.6815,23.8226],[-77.7207,23.8201],[-77.7274,23.8118],[-77.7468,23.8168],[-77.7582,23.8135],[-77.7635,23.8043],[-77.7468,23.7957],[-77.7332,23.7974],[-77.7196,23.7821],[-77.7068,23.7738],[-77.679,23.7782],[-77.6518,23.8035],[-77.6562,23.8176],[-77.6707,23.8168],[-77.6815,23.8226]]],[[[-77.646,24.1729],[-77.6726,24.1688],[-77.6699,24.1585],[-77.6576,24.1543],[-77.646,24.1729]]],[[[-77.6354,24.211],[-77.6699,24.2057],[-77.694,24.1729],[-77.6857,24.166],[-77.6724,24.1704],[-77.6576,24.1718],[-77.6429,24.2046],[-77.6354,24.211]]],[[[-77.3632,25.0874],[-77.3832,25.0726],[-77.3954,25.0718],[-77.4049,25.0785],[-77.4426,25.0738],[-77.4565,25.066],[-77.4957,25.0626],[-77.4996,25.0496],[-77.5115,25.0451],[-77.5324,25.0296],[-77.5429,25.029],[-77.5515,25.0082],[-77.5343,24.9996],[-77.5021,25.0015],[-77.4804,24.9926],[-77.4735,24.9807],[-77.4426,24.9779],[-77.4282,24.9832],[-77.4068,24.9849],[-77.3854,24.9815],[-77.3565,24.9951],[-77.3421,25.0057],[-77.314,25.006],[-77.3035,25.0151],[-77.2768,25.0165],[-77.2668,25.0215],[-77.2549,25.0399],[-77.2765,25.0493],[-77.3043,25.0654],[-77.3068,25.0746],[-77.3271,25.0751],[-77.3343,25.0796],[-77.3551,25.0793],[-77.3632,25.0874]]],[[[-77.3232,25.0882],[-77.3171,25.0779],[-77.2918,25.0765],[-77.2935,25.0868],[-77.3143,25.0846],[-77.3232,25.0882]]],[[[-77.1162,26.2808],[-77.0843,26.3013],[-77.0454,26.3065],[-77.0418,26.2949],[-77.0543,26.2846],[-77.0499,26.2699],[-77.0338,26.279],[-77.0287,26.294],[-77.0129,26.2968],[-76.9999,26.3121],[-77.0038,26.3285],[-77.0246,26.3201],[-77.0285,26.326],[-77.0287,26.3593],[-77.0124,26.3554],[-76.9976,26.3607],[-76.999,26.3799],[-77.0107,26.3724],[-77.0299,26.3804],[-77.0421,26.3968],[-77.0393,26.4154],[-77.046,26.421],[-77.056,26.4754],[-77.0376,26.4938],[-77.0501,26.5063],[-77.0537,26.5274],[-77.051,26.5412],[-77.0801,26.5454],[-77.1054,26.5599],[-77.1224,26.5776],[-77.1435,26.5785],[-77.1626,26.5915],[-77.1704,26.6046],[-77.1943,26.5965],[-77.2204,26.599],[-77.2487,26.6132],[-77.2796,26.6396],[-77.2879,26.6393],[-77.296,26.6532],[-77.2954,26.666],[-77.2735,26.6676],[-77.2696,26.6779],[-77.2871,26.6787],[-77.3001,26.6865],[-77.3018,26.7018],[-77.341,26.7218],[-77.3601,26.7374],[-77.3768,26.746],[-77.4071,26.7846],[-77.436,26.8146],[-77.484,26.8496],[-77.5349,26.894],[-77.5829,26.9207],[-77.5882,26.9065],[-77.6012,26.9007],[-77.6374,26.8965],[-77.7326,26.9107],[-77.7715,26.9182],[-77.8007,26.9199],[-77.8012,26.9065],[-77.7779,26.9071],[-77.7501,26.9015],[-77.749,26.889],[-77.7346,26.8832],[-77.709,26.8974],[-77.6951,26.8968],[-77.6732,26.8843],[-77.6643,26.8729],[-77.6501,26.8662],[-77.6326,26.8665],[-77.6226,26.8613],[-77.5813,26.869],[-77.5801,26.8807],[-77.5665,26.8854],[-77.5301,26.8812],[-77.4962,26.8482],[-77.4749,26.8249],[-77.4676,26.8085],[-77.4546,26.7954],[-77.4504,26.7579],[-77.4551,26.7276],[-77.4374,26.7115],[-77.4332,26.6982],[-77.4129,26.6824],[-77.3807,26.6863],[-77.3735,26.7007],[-77.359,26.706],[-77.3485,26.6926],[-77.3463,26.6746],[-77.3315,26.6793],[-77.3335,26.6471],[-77.3482,26.6351],[-77.3435,26.6096],[-77.3362,26.6093],[-77.3199,26.5929],[-77.2971,26.5971],[-77.2904,26.5815],[-77.2701,26.5715],[-77.249,26.5793],[-77.2337,26.5735],[-77.2057,26.5757],[-77.1837,26.5735],[-77.1782,26.5615],[-77.1338,26.5565],[-77.1282,26.5349],[-77.1335,26.5182],[-77.1643,26.4954],[-77.1612,26.5174],[-77.1721,26.5265],[-77.1976,26.5368],[-77.2232,26.5354],[-77.2271,26.5287],[-77.2193,26.5051],[-77.2101,26.501],[-77.1865,26.5063],[-77.179,26.504],[-77.1815,26.4826],[-77.1888,26.4654],[-77.1896,26.4513],[-77.204,26.4376],[-77.1885,26.4354],[-77.1707,26.4413],[-77.1718,26.4246],[-77.1921,26.4251],[-77.2126,26.4037],[-77.2165,26.3729],[-77.2029,26.3554],[-77.1904,26.3599],[-77.1571,26.3557],[-77.164,26.3474],[-77.1921,26.3479],[-77.2096,26.354],[-77.2135,26.3357],[-77.231,26.3199],[-77.2426,26.3163],[-77.2138,26.294],[-77.204,26.276],[-77.2124,26.2679],[-77.204,26.2557],[-77.2298,26.2374],[-77.2435,26.209],[-77.224,26.2007],[-77.2243,26.1846],[-77.2321,26.1574],[-77.2129,26.1601],[-77.2043,26.1499],[-77.221,26.1346],[-77.2387,26.1263],[-77.2624,26.1001],[-77.271,26.0943],[-77.2937,26.0885],[-77.3071,26.0718],[-77.3246,26.0713],[-77.3321,26.0543],[-77.3507,26.0485],[-77.3646,26.0379],[-77.3562,26.0246],[-77.3768,26.0132],[-77.4057,26.0057],[-77.4035,25.9965],[-77.3751,25.9913],[-77.3632,25.9857],[-77.3479,25.9912],[-77.3176,25.9796],[-77.2879,25.981],[-77.276,25.9601],[-77.2812,25.9443],[-77.2782,25.9279],[-77.2482,25.896],[-77.2243,25.8596],[-77.2201,25.8482],[-77.2107,25.844],[-77.1874,25.8576],[-77.1821,25.9082],[-77.1779,25.9185],[-77.1821,25.9468],[-77.1893,25.966],[-77.1888,25.9988],[-77.1957,26.0263],[-77.1954,26.054],[-77.1823,26.0799],[-77.1782,26.1046],[-77.1846,26.1437],[-77.1757,26.1629],[-77.1804,26.1682],[-77.179,26.2032],[-77.1615,26.2351],[-77.1446,26.2504],[-77.1162,26.2808]]],[[[-77.2301,26.3963],[-77.2526,26.3846],[-77.2626,26.3854],[-77.2576,26.3643],[-77.2349,26.3457],[-77.2174,26.3532],[-77.2185,26.3735],[-77.2324,26.3749],[-77.2365,26.3885],[-77.2301,26.3963]]],[[[-77.2857,26.3526],[-77.2915,26.3385],[-77.2826,26.3304],[-77.291,26.3099],[-77.2838,26.306],[-77.279,26.3351],[-77.2857,26.3526]]],[[[-77.2374,26.4474],[-77.2449,26.4438],[-77.2504,26.4443],[-77.2576,26.4387],[-77.2624,26.4413],[-77.2654,26.4329],[-77.2743,26.4274],[-77.279,26.4182],[-77.2585,26.4168],[-77.2624,26.4268],[-77.2435,26.429],[-77.2374,26.4474]]],[[[-77.2396,26.4143],[-77.2288,26.4201],[-77.2268,26.4346],[-77.2462,26.4221],[-77.2396,26.4143]]],[[[-77.2351,26.4946],[-77.2435,26.4863],[-77.2626,26.4982],[-77.294,26.5115],[-77.3004,26.4965],[-77.2849,26.4882],[-77.2737,26.4885],[-77.2646,26.4771],[-77.2657,26.4588],[-77.2568,26.4432],[-77.249,26.4457],[-77.2457,26.444],[-77.2396,26.4504],[-77.2365,26.4582],[-77.2382,26.4724],[-77.2282,26.4824],[-77.2351,26.4946]]],[[[-78.4507,24.6779],[-78.4574,24.6632],[-78.4721,24.6576],[-78.4837,24.6465],[-78.4687,24.6343],[-78.4385,24.6437],[-78.4265,24.6543],[-78.4351,24.6671],[-78.4449,24.6665],[-78.4507,24.6779]]],[[[-77.8799,24.2696],[-77.896,24.264],[-77.8915,24.2449],[-77.8938,24.2207],[-77.8918,24.2043],[-77.9274,24.1976],[-77.9488,24.2007],[-77.9571,24.1821],[-77.9668,24.1815],[-77.9871,24.1901],[-77.9949,24.174],[-77.9807,24.1679],[-77.9746,24.156],[-77.9615,24.1457],[-77.9413,24.1488],[-77.9365,24.1588],[-77.9176,24.1607],[-77.8587,24.1821],[-77.8554,24.1921],[-77.8626,24.2065],[-77.851,24.2118],[-77.8446,24.224],[-77.8654,24.2335],[-77.8446,24.2482],[-77.8351,24.2376],[-77.819,24.2349],[-77.8024,24.2557],[-77.8207,24.2635],[-77.846,24.2599],[-77.8799,24.2696]]],[[[-77.9576,24.2799],[-77.9768,24.2807],[-77.994,24.2704],[-78.014,24.2657],[-78.0287,24.244],[-78.0329,24.2576],[-78.0479,24.254],[-78.0229,24.2301],[-77.9857,24.1985],[-77.9774,24.2088],[-77.9512,24.2085],[-77.9446,24.221],[-77.9521,24.2337],[-77.9362,24.2463],[-77.9251,24.2632],[-77.9504,24.2693],[-77.964,24.2632],[-77.9615,24.2549],[-77.981,24.2437],[-77.9871,24.2357],[-78.0004,24.2324],[-78.0163,24.2376],[-77.996,24.2615],[-77.9799,24.2663],[-77.9576,24.2799]]],[[[-77.8429,24.3524],[-77.8662,24.3465],[-77.8829,24.3496],[-77.8874,24.3296],[-77.8763,24.3168],[-77.8665,24.3154],[-77.8393,24.329],[-77.8349,24.3476],[-77.8429,24.3524]]],[[[-77.7588,24.6021],[-77.7426,24.6288],[-77.7418,24.6471],[-77.7518,24.6638],[-77.7479,24.6782],[-77.7588,24.6985],[-77.7915,24.7363],[-77.8096,24.7435],[-77.8121,24.7515],[-77.826,24.761],[-77.8304,24.7732],[-77.8579,24.7996],[-77.8685,24.8171],[-77.8799,24.824],[-77.9021,24.8579],[-77.9062,24.8765],[-77.9199,24.8815],[-77.9221,24.8924],[-77.9315,24.899],[-77.9296,24.909],[-77.9404,24.9374],[-77.946,24.944],[-77.9429,24.9818],[-77.9571,24.9754],[-77.9749,24.9804],[-77.9863,24.9996],[-77.9749,25.0388],[-77.9718,25.0579],[-77.9576,25.0582],[-77.9735,25.0857],[-77.9851,25.079],[-78.0024,25.0888],[-78.0049,25.1129],[-77.9893,25.1262],[-78.0137,25.161],[-78.0354,25.1776],[-78.0471,25.1718],[-78.0629,25.181],[-78.0726,25.1596],[-78.0921,25.1582],[-78.1029,25.151],[-78.1126,25.1563],[-78.1274,25.1526],[-78.1293,25.1674],[-78.1546,25.179],[-78.1643,25.1968],[-78.2018,25.206],[-78.2226,25.2024],[-78.2299,25.1879],[-78.2171,25.1643],[-78.2115,25.1407],[-78.2007,25.1285],[-78.1996,25.1174],[-78.1799,25.0924],[-78.184,25.0796],[-78.1654,25.0493],[-78.1718,25.0226],[-78.1663,25.0074],[-78.1724,24.9971],[-78.1707,24.9768],[-78.1974,24.9429],[-78.1829,24.9199],[-78.1846,24.9054],[-78.2099,24.8699],[-78.2104,24.8632],[-78.2254,24.8435],[-78.2407,24.8435],[-78.2546,24.8335],[-78.2529,24.8235],[-78.2771,24.7918],[-78.2943,24.7904],[-78.2876,24.779],[-78.3054,24.7751],[-78.3149,24.7624],[-78.3051,24.7412],[-78.3154,24.7288],[-78.331,24.7199],[-78.3321,24.7004],[-78.3468,24.7038],[-78.3574,24.6996],[-78.3796,24.7001],[-78.3915,24.6835],[-78.3688,24.6715],[-78.3965,24.6604],[-78.389,24.6515],[-78.434,24.614],[-78.4437,24.6135],[-78.4612,24.5996],[-78.4496,24.5868],[-78.4371,24.5807],[-78.4032,24.5515],[-78.3932,24.5504],[-78.3751,24.5249],[-78.3249,24.4988],[-78.3082,24.4843],[-78.2707,24.4626],[-78.2499,24.4468],[-78.2082,24.4338],[-78.1963,24.4418],[-78.1757,24.4638],[-78.1349,24.486],[-78.1276,24.4796],[-78.1537,24.4596],[-78.1721,24.4382],[-78.1815,24.4135],[-78.1768,24.4013],[-78.1335,24.3707],[-78.1038,24.364],[-78.096,24.3482],[-78.0699,24.3207],[-78.0626,24.2896],[-78.0476,24.2696],[-78.0212,24.2729],[-78.0149,24.286],[-78.0282,24.289],[-78.0376,24.3026],[-78.0146,24.3093],[-78.004,24.3221],[-77.9785,24.3296],[-77.9765,24.3435],[-77.9626,24.3407],[-77.9632,24.329],[-77.9435,24.3215],[-77.8993,24.3426],[-77.8901,24.3651],[-77.864,24.3832],[-77.8643,24.3926],[-77.8779,24.406],[-77.8546,24.4207],[-77.8257,24.4435],[-77.791,24.4449],[-77.7693,24.4496],[-77.7457,24.4651],[-77.7307,24.4668],[-77.7187,24.4782],[-77.7176,24.5154],[-77.7265,24.531],[-77.7351,24.5249],[-77.7485,24.5504],[-77.7454,24.5635],[-77.7507,24.5849],[-77.7588,24.6021]]],[[[-77.5968,24.2101],[-77.6093,24.209],[-77.6226,24.1963],[-77.6243,24.1832],[-77.6374,24.1482],[-77.6607,24.119],[-77.6774,24.1126],[-77.6776,24.1013],[-77.6865,24.0896],[-77.6849,24.0779],[-77.6999,24.0593],[-77.7015,24.0471],[-77.7207,24.0279],[-77.7543,24.034],[-77.7826,24.0215],[-77.7943,24.0065],[-77.7965,23.9926],[-77.8087,23.986],[-77.816,23.996],[-77.8368,23.9799],[-77.8238,23.9762],[-77.8087,23.9635],[-77.8224,23.9415],[-77.8126,23.9368],[-77.8218,23.921],[-77.8063,23.9124],[-77.7915,23.9149],[-77.7718,23.911],[-77.7999,23.8838],[-77.7637,23.8818],[-77.7879,23.8721],[-77.8029,23.8776],[-77.8071,23.8657],[-77.801,23.8449],[-77.7774,23.8388],[-77.7607,23.8424],[-77.7412,23.841],[-77.7126,23.8538],[-77.686,23.8288],[-77.6537,23.8176],[-77.6476,23.8021],[-77.6268,23.8135],[-77.6132,23.8126],[-77.6029,23.8268],[-77.5774,23.8424],[-77.5612,23.831],[-77.5651,23.8185],[-77.5449,23.8093],[-77.531,23.7954],[-77.5196,23.834],[-77.5115,23.8532],[-77.514,23.8796],[-77.5043,23.899],[-77.5174,23.9171],[-77.5215,23.9513],[-77.5282,23.9732],[-77.524,23.9954],[-77.5324,24.0332],[-77.541,24.0585],[-77.5462,24.1021],[-77.5601,24.1282],[-77.5682,24.1346],[-77.5818,24.164],[-77.5899,24.189],[-77.5899,24.2018],[-77.5968,24.2101]]],[[[-77.6968,24.1457],[-77.7126,24.126],[-77.6935,24.1188],[-77.6801,24.1276],[-77.6796,24.1401],[-77.6968,24.1457]]],[[[-77.6851,24.164],[-77.7079,24.1635],[-77.7035,24.1479],[-77.681,24.1413],[-77.6746,24.1618],[-77.6851,24.164]]],[[[-77.7171,24.1388],[-77.7412,24.1382],[-77.7374,24.1238],[-77.7226,24.1232],[-77.7171,24.1388]]],[[[-77.6724,24.299],[-77.6862,24.2999],[-77.7224,24.2865],[-77.736,24.2729],[-77.7637,24.2685],[-77.7926,24.2432],[-77.8207,24.2288],[-77.8238,24.2082],[-77.8471,24.1935],[-77.8385,24.1821],[-77.8446,24.1624],[-77.8632,24.1493],[-77.8665,24.1379],[-77.8887,24.1338],[-77.9176,24.1421],[-77.9165,24.1282],[-77.9076,24.1093],[-77.8935,24.1018],[-77.8915,24.0865],[-77.9149,24.0899],[-77.9307,24.086],[-77.9254,24.0763],[-77.9007,24.0624],[-77.8751,24.0579],[-77.8629,24.0629],[-77.8551,24.0535],[-77.8646,24.0321],[-77.8385,24.019],[-77.8235,24.001],[-77.8054,23.9996],[-77.7896,24.0176],[-77.769,24.0318],[-77.7743,24.0393],[-77.7882,24.0318],[-77.8074,24.0424],[-77.7993,24.0493],[-77.7663,24.0438],[-77.7604,24.0537],[-77.7318,24.0393],[-77.7165,24.0443],[-77.7093,24.0646],[-77.704,24.1065],[-77.6957,24.1174],[-77.7096,24.1204],[-77.7229,24.1149],[-77.7407,24.1165],[-77.7579,24.1313],[-77.736,24.1421],[-77.7237,24.1518],[-77.7279,24.1638],[-77.7193,24.1726],[-77.7015,24.1729],[-77.6837,24.1915],[-77.6801,24.201],[-77.6635,24.2104],[-77.6326,24.2138],[-77.634,24.2204],[-77.6212,24.2368],[-77.6399,24.2379],[-77.6585,24.2529],[-77.6668,24.2721],[-77.6724,24.299]]],[[[-77.7487,24.2962],[-77.7876,24.2899],[-77.8049,24.2838],[-77.8213,24.2721],[-77.7965,24.2674],[-77.7821,24.279],[-77.7487,24.2962]]],[[[-77.7115,24.4238],[-77.7162,24.4254],[-77.7368,24.4085],[-77.7443,24.3946],[-77.7613,24.3896],[-77.7771,24.374],[-77.7824,24.3563],[-77.7932,24.3576],[-77.8107,24.3468],[-77.8174,24.3371],[-77.8085,24.3312],[-77.8057,24.3171],[-77.7907,24.3168],[-77.7765,24.3074],[-77.7538,24.324],[-77.7357,24.3318],[-77.6826,24.3371],[-77.6896,24.3688],[-77.7035,24.3976],[-77.7115,24.4238]]],[[[-77.8254,24.4112],[-77.836,24.409],[-77.8301,24.3937],[-77.8163,24.4074],[-77.8254,24.4112]]],[[[-77.7576,25.4432],[-77.7635,25.4382],[-77.7676,25.4307],[-77.7676,25.4188],[-77.8001,25.4068],[-77.801,25.394],[-77.7829,25.4015],[-77.7712,25.4154],[-77.7585,25.4151],[-77.7613,25.4387],[-77.7576,25.4432]]],[[[-77.5293,26.1068],[-77.5449,26.0935],[-77.5307,26.0751],[-77.5218,26.084],[-77.5293,26.1068]]],[[[-77.5685,26.3318],[-77.5821,26.3282],[-77.5751,26.3076],[-77.5626,26.2985],[-77.5607,26.2776],[-77.5396,26.2871],[-77.5376,26.309],[-77.5685,26.3318]]],[[[-77.8876,25.8152],[-77.8865,25.766],[-77.8721,25.7754],[-77.8726,25.7501],[-77.8535,25.7365],[-77.851,25.7182],[-77.8365,25.7154],[-77.8251,25.7038],[-77.8163,25.7126],[-77.8182,25.7399],[-77.8329,25.7376],[-77.8435,25.7438],[-77.849,25.7641],[-77.8687,25.7765],[-77.8876,25.8152]]],[[[-77.8257,26.5926],[-77.8326,26.579],[-77.8529,26.5635],[-77.8621,26.5524],[-77.8449,26.5338],[-77.8249,26.5696],[-77.8257,26.5926]]],[[[-78.1224,25.2976],[-78.1312,25.2938],[-78.1332,25.2754],[-78.1235,25.274],[-78.1126,25.2824],[-78.1224,25.2976]]],[[[-78.1368,25.3276],[-78.136,25.2979],[-78.1265,25.3032],[-78.1368,25.3276]]],[[[-79.2515,25.7771],[-79.2632,25.776],[-79.2785,25.7599],[-79.2812,25.7507],[-79.3015,25.7213],[-79.3024,25.7013],[-79.2712,25.6963],[-79.2582,25.6876],[-79.2465,25.6968],[-79.2696,25.7068],[-79.2824,25.7082],[-79.2985,25.721],[-79.2679,25.7676],[-79.2579,25.7593],[-79.2676,25.7412],[-79.2535,25.7365],[-79.2401,25.7399],[-79.2515,25.7771]]],[[[-78.1937,26.7099],[-78.2024,26.701],[-78.2221,26.6999],[-78.2401,26.7143],[-78.2507,26.7118],[-78.2674,26.7171],[-78.2843,26.6988],[-78.3099,26.694],[-78.3154,26.6871],[-78.3349,26.7018],[-78.3399,26.6899],[-78.3737,26.6907],[-78.3907,26.6968],[-78.4196,26.7126],[-78.4299,26.7038],[-78.4526,26.7168],[-78.4704,26.7176],[-78.4835,26.7382],[-78.504,26.7351],[-78.5076,26.7282],[-78.5357,26.7215],[-78.5457,26.7412],[-78.5537,26.7729],[-78.5629,26.776],[-78.5624,26.7949],[-78.5732,26.7965],[-78.5912,26.7732],[-78.5951,26.7474],[-78.5762,26.7388],[-78.5735,26.7257],[-78.5893,26.7243],[-78.5937,26.7363],[-78.614,26.7265],[-78.5815,26.7176],[-78.5796,26.6929],[-78.5899,26.6771],[-78.5918,26.6643],[-78.6035,26.661],[-78.614,26.6421],[-78.6274,26.6257],[-78.6312,26.6087],[-78.6429,26.5954],[-78.6604,26.6001],[-78.676,26.5954],[-78.6813,26.5696],[-78.6996,26.5679],[-78.7071,26.5726],[-78.7221,26.5624],[-78.7337,26.5651],[-78.744,26.5535],[-78.7457,26.5335],[-78.756,26.5435],[-78.7854,26.5549],[-78.7982,26.5537],[-78.8071,26.5646],[-78.8251,26.5651],[-78.8246,26.5788],[-78.8126,26.5857],[-78.829,26.6082],[-78.839,26.5965],[-78.8493,26.614],[-78.8593,26.6115],[-78.8688,26.6251],[-78.8718,26.639],[-78.8935,26.6404],[-78.8957,26.6524],[-78.9143,26.6682],[-78.9171,26.6574],[-78.9521,26.6735],[-78.9774,26.6988],[-78.9954,26.7046],[-78.9946,26.6913],[-78.9704,26.6749],[-78.9507,26.6554],[-78.9165,26.6324],[-78.8915,26.6085],[-78.8876,26.5999],[-78.8682,26.586],[-78.8562,26.5693],[-78.8165,26.5415],[-78.7949,26.5321],[-78.7646,26.5057],[-78.7474,26.5035],[-78.7304,26.4946],[-78.6899,26.4904],[-78.6496,26.5021],[-78.631,26.5151],[-78.609,26.5226],[-78.5818,26.5407],[-78.569,26.5421],[-78.4818,26.5746],[-78.4668,26.5835],[-78.4374,26.5946],[-78.419,26.596],[-78.3929,26.6037],[-78.3846,26.6013],[-78.3543,26.6085],[-78.2968,26.6168],[-78.2838,26.6212],[-78.264,26.6215],[-78.2482,26.6165],[-78.1915,26.6321],[-78.1215,26.6449],[-78.1143,26.6421],[-78.0643,26.6518],[-78.0429,26.6501],[-78.0351,26.6546],[-77.9982,26.6579],[-77.9804,26.6565],[-77.9737,26.6501],[-77.9479,26.6482],[-77.9271,26.6399],[-77.9204,26.6285],[-77.9068,26.619],[-77.889,26.6276],[-77.8621,26.6338],[-77.8485,26.6454],[-77.8601,26.6568],[-77.866,26.6707],[-77.8815,26.6735],[-77.8954,26.6818],[-77.9051,26.699],[-77.906,26.7118],[-77.9015,26.7424],[-77.9151,26.7649],[-77.9224,26.7463],[-77.9515,26.7268],[-77.9618,26.7304],[-77.9751,26.7232],[-78.0001,26.7237],[-78.0099,26.7332],[-78.0318,26.7287],[-78.0512,26.734],[-78.0682,26.7229],[-78.0829,26.7204],[-78.0982,26.711],[-78.1254,26.7021],[-78.134,26.7132],[-78.1454,26.7165],[-78.1937,26.7099]]],[[[-77.829,26.6238],[-77.8487,26.6107],[-77.8812,26.606],[-77.896,26.6079],[-77.8868,26.5893],[-77.864,26.5576],[-77.8574,26.5629],[-77.8271,26.6113],[-77.829,26.6238]]],[[[-77.841,26.6301],[-77.8532,26.6315],[-77.8807,26.6185],[-77.8799,26.6076],[-77.8535,26.6124],[-77.8382,26.6215],[-77.841,26.6301]]],[[[-77.2399,26.5385],[-77.2501,26.5357],[-77.2585,26.519],[-77.2496,26.5051],[-77.229,26.5362],[-77.2399,26.5385]]],[[[-76.9596,26.5568],[-76.9596,26.5418],[-76.9751,26.5268],[-76.9754,26.5065],[-76.9574,26.5354],[-76.9596,26.5568]]],[[[-77.2988,26.5404],[-77.3221,26.5376],[-77.321,26.5282],[-77.3024,26.526],[-77.2988,26.5404]]],[[[-77.0212,26.6149],[-77.0088,26.5924],[-77.0029,26.5982],[-77.0212,26.6149]]],[[[-77.3376,26.7971],[-77.3346,26.7738],[-77.3243,26.7765],[-77.3376,26.7971]]],[[[-77.5387,26.8685],[-77.5421,26.8532],[-77.5257,26.8563],[-77.5387,26.8685]]],[[[-78.7415,26.5871],[-78.7574,26.5788],[-78.7646,26.581],[-78.7682,26.5699],[-78.7657,26.5626],[-78.7688,26.5513],[-78.7468,26.5424],[-78.7493,26.5585],[-78.7585,26.5643],[-78.756,26.5788],[-78.7415,26.5871]]],[[[-78.7674,26.5754],[-78.7746,26.5774],[-78.7876,26.5615],[-78.7704,26.5515],[-78.7665,26.5607],[-78.769,26.5696],[-78.7674,26.5754]]],[[[-78.2926,26.7463],[-78.3043,26.7493],[-78.2993,26.7299],[-78.2896,26.7221],[-78.2701,26.7157],[-78.2626,26.7226],[-78.2715,26.7379],[-78.2926,26.7463]]],[[[-78.5226,26.7499],[-78.5304,26.7349],[-78.5126,26.7382],[-78.5226,26.7499]]],[[[-78.5029,26.7776],[-78.5143,26.766],[-78.5101,26.7507],[-78.4946,26.7571],[-78.5029,26.7776]]],[[[-78.1717,27.0306],[-78.1922,27.0142],[-78.2161,27.0019],[-78.2207,26.9946],[-78.2096,26.9843],[-78.2035,27.0001],[-78.1744,27.0194],[-78.1717,27.0306]]],[[[-78.0267,27.0911],[-78.0208,27.0758],[-78.0053,27.0875],[-78.0267,27.0911]]]]},"properties":{"GID_0":"BHS","ISO_A2":"BS","ISO_A3":"BHS","NAME_EN":"Bahamas","NAME_IT":"Bahamas"}}
]}