{"type":"FeatureCollection", "features": [
{"type":"Feature","geometry":{"type":"Polygon","coordinates":[[[-4.1777,9.7781],[-4.1234,9.8317],[-4.0429,9.8016],[-3.9004,9.9006],[-3.8092,9.8883],[-3.7086,9.9425],[-3.5993,9.9197],[-3.3972,9.9165],[-3.2789,9.853],[-3.2143,9.9209],[-3.1842,9.8429],[-3.1206,9.8396],[-3.0662,9.7233],[-3.0172,9.7433],[-2.9012,9.531],[-2.7632,9.4011],[-2.6871,9.4914],[-2.7622,9.5576],[-2.7473,9.6317],[-2.7786,9.757],[-2.7305,9.8381],[-2.7449,9.9482],[-2.7823,10.027],[-2.7978,10.1909],[-2.7633,10.264],[-2.8502,10.3186],[-2.8314,10.3881],[-2.9406,10.6366],[-2.8583,10.8912],[-2.8179,10.9385],[-2.834,11.0041],[-2.755,11.0192],[-2.4523,11.0233],[-2.3776,11.0088],[-2.2202,11.0207],[-2.0063,11.004],[-1.7434,11.0081],[-1.7445,11.038],[-1.5458,11.0402],[-1.3961,10.9906],[-1.1146,10.9858],[-1.1148,11.0039],[-0.6841,10.9986],[-0.5932,10.9237],[-0.5658,10.9929],[-0.4336,11.0371],[-0.4281,11.1142],[-0.2734,11.1235],[-0.276,11.1748],[0.2915,11.0504],[0.5039,11.0127],[0.5092,10.9526],[0.6391,10.9996],[0.9122,10.9965],[1.0092,11.0857],[1.0866,11.1133],[1.1505,11.1756],[1.1595,11.2612],[1.2739,11.2599],[1.3409,11.3113],[1.4431,11.4722],[1.5789,11.4435],[1.5997,11.3947],[1.7141,11.4291],[1.8727,11.4458],[2.0192,11.4277],[2.1854,11.5972],[2.3057,11.6744],[2.2992,11.7208],[2.3724,11.7931],[2.4054,11.9016],[2.0664,12.3509],[2.2712,12.4678],[2.1606,12.688],[1.9775,12.7372],[1.8739,12.6182],[1.5761,12.6331],[1.3882,12.7793],[1.1234,12.9995],[0.9975,12.9997],[0.9918,13.3709],[1.0531,13.3686],[1.1865,13.317],[1.281,13.3586],[1.1367,13.414],[1.0141,13.4874],[1.0059,13.5583],[0.9071,13.6187],[0.8272,13.6187],[0.7726,13.693],[0.6355,13.6934],[0.6194,13.7777],[0.5269,13.8471],[0.4832,13.9513],[0.3988,14.0279],[0.357,14.1484],[0.4038,14.2497],[0.3229,14.362],[0.192,14.4606],[0.1663,14.5334],[0.2361,14.7495],[0.202,14.8394],[0.2357,14.8861],[0.2294,14.9897],[-0.0092,14.9852],[-0.2538,15.077],[-0.3764,15.0114],[-0.4621,15.0826],[-0.7015,15.0815],[-0.8238,15.0133],[-0.9517,14.8849],[-1.0879,14.7901],[-1.3149,14.7336],[-1.6749,14.5069],[-1.746,14.4858],[-1.9754,14.4809],[-1.9937,14.1958],[-2.1058,14.1503],[-2.292,14.2522],[-2.4765,14.2979],[-2.6723,14.1342],[-2.837,14.0606],[-2.8324,13.9979],[-2.8959,13.8256],[-2.903,13.7244],[-2.872,13.6553],[-2.9537,13.6268],[-3.103,13.6937],[-3.1856,13.6853],[-3.2616,13.7185],[-3.2606,13.5757],[-3.282,13.5341],[-3.2561,13.2839],[-3.4248,13.2672],[-3.4488,13.1579],[-3.5998,13.2022],[-3.7226,13.2832],[-3.7977,13.3585],[-3.9124,13.3791],[-3.9568,13.4953],[-4.0058,13.4335],[-4.0925,13.3954],[-4.1334,13.3118],[-4.2583,13.2297],[-4.3533,13.1163],[-4.2302,12.9372],[-4.2272,12.8016],[-4.2945,12.6992],[-4.3696,12.7314],[-4.4792,12.7218],[-4.4779,12.634],[-4.3935,12.5319],[-4.4509,12.4267],[-4.4379,12.3415],[-4.5866,12.1965],[-4.6583,12.0539],[-4.7343,11.9968],[-4.8566,12.0145],[-5.1565,11.9478],[-5.2677,11.8356],[-5.2651,11.7462],[-5.2994,11.6268],[-5.2413,11.6049],[-5.2039,11.5292],[-5.2163,11.3957],[-5.2594,11.3684],[-5.2721,11.2345],[-5.3414,11.1366],[-5.4907,11.0719],[-5.4869,10.9704],[-5.4223,10.8526],[-5.4739,10.7584],[-5.4659,10.5925],[-5.5189,10.4333],[-5.4726,10.3522],[-5.3651,10.2875],[-5.2321,10.3156],[-5.1188,10.2564],[-5.0747,10.1829],[-5.0765,10.1066],[-4.9717,10.0422],[-4.9727,9.9077],[-4.7868,9.8302],[-4.8002,9.7552],[-4.7377,9.747],[-4.708,9.688],[-4.6147,9.7222],[-4.5079,9.6467],[-4.4376,9.6624],[-4.3944,9.597],[-4.2909,9.6379],[-4.2672,9.7373],[-4.1777,9.7781]]]},"properties":{"GID_0":"BFA","ISO_A2":"BF","ISO_A3":"BFA","NAME_EN":"Burkina Faso","NAME_IT":"Burkina Faso"}}
]}