{"type":"FeatureCollection", "features": [
{"type":"Feature","geometry":{"type":"MultiPolygon","coordinates":[[[[34.2293,31.3343],[34.3575,31.2856],[34.4079,31.4206],[34.5461,31.5426],[34.489,31.5944],[34.2293,31.3343]]],[[[35.1246,31.7199],[34.9537,31.583],[34.9139,31.3498],[35.224,31.3672],[35.4783,31.5743],[35.5557,31.7585],[35.5256,32.0722],[35.5755,32.206],[35.5597,32.3904],[35.4443,32.4098],[35.3906,32.5171],[35.2167,32.5481],[35.098,32.4788],[34.969,32.2142],[34.992,31.9425],[35.1246,31.7199]]]]},"properties":{"GID_0":"PSE","ISO_A2":"PS","ISO_A3":"PSE","NAME_EN":"Palestine","NAME_IT":"Palestina"}}
]}