{"type":"FeatureCollection", "features": [
{"type":"Feature","geometry":{"type":"MultiPolygon","coordinates":[[[[-27.1515,-59.4658],[-27.1594,-59.4483],[-27.2201,-59.4447],[-27.2495,-59.4512],[-27.2538,-59.4743],[-27.1806,-59.4838],[-27.1515,-59.4658]]],[[[-27.3843,-59.4669],[-27.3361,-59.4638],[-27.3446,-59.4301],[-27.3826,-59.4317],[-27.4184,-59.4456],[-27.3843,-59.4669]]],[[[-26.6334,-59.0622],[-26.5795,-59.0809],[-26.5473,-59.072],[-26.5085,-59.0503],[-26.53,-59.0262],[-26.597,-59.0039],[-26.6661,-59.0371],[-26.6334,-59.0622]]],[[[-26.3057,-58.3929],[-26.3967,-58.3901],[-26.4314,-58.3958],[-26.4489,-58.4407],[-26.4194,-58.4607],[-26.3417,-58.4792],[-26.2899,-58.4831],[-26.2356,-58.5048],[-26.2302,-58.4764],[-26.2469,-58.466],[-26.2482,-58.4285],[-26.2391,-58.4072],[-26.2678,-58.3935],[-26.3057,-58.3929]]],[[[-26.4089,-57.8145],[-26.3654,-57.8038],[-26.4179,-57.7853],[-26.4287,-57.753],[-26.4631,-57.7426],[-26.5122,-57.7728],[-26.4965,-57.7997],[-26.4457,-57.8161],[-26.4089,-57.8145]]],[[[-26.6642,-57.0647],[-26.7032,-57.0753],[-26.6845,-57.0975],[-26.6479,-57.0945],[-26.6642,-57.0647]]],[[[-27.1983,-56.7209],[-27.1528,-56.7364],[-27.078,-56.7193],[-27.0972,-56.7011],[-27.1607,-56.6867],[-27.2022,-56.7077],[-27.1983,-56.7209]]],[[[-27.529,-56.3048],[-27.5488,-56.2748],[-27.6106,-56.3062],[-27.5584,-56.3272],[-27.529,-56.3048]]],[[[-35.7724,-54.8016],[-35.8116,-54.8097],[-35.7856,-54.8275],[-35.7724,-54.8016]]],[[[-37.021,-54.4987],[-37.0523,-54.4782],[-37.0835,-54.4699],[-37.1133,-54.4736],[-37.1028,-54.4926],[-37.0719,-54.5166],[-37.021,-54.4987]]],[[[-37.6804,-53.9867],[-37.7495,-53.9783],[-37.7509,-54.0037],[-37.8079,-54.0183],[-37.8732,-53.997],[-37.9143,-53.9964],[-38.0104,-54.0245],[-38.0182,-54.0471],[-37.9986,-54.0704],[-37.9656,-54.0461],[-37.9247,-54.0465],[-37.9012,-54.0571],[-37.8644,-54.058],[-37.8383,-54.0494],[-37.7617,-54.0575],[-37.7001,-54.0363],[-37.6689,-54.0503],[-37.6379,-54.0507],[-37.6444,-54.0768],[-37.6954,-54.0802],[-37.7305,-54.1014],[-37.7154,-54.1144],[-37.6571,-54.1076],[-37.6483,-54.1172],[-37.7155,-54.1378],[-37.6728,-54.1805],[-37.6219,-54.187],[-37.5434,-54.1711],[-37.5116,-54.1425],[-37.4757,-54.1344],[-37.4139,-54.1531],[-37.3166,-54.1491],[-37.2994,-54.1681],[-37.3477,-54.1703],[-37.4094,-54.1833],[-37.4039,-54.2056],[-37.3378,-54.2239],[-37.3371,-54.2376],[-37.4095,-54.2449],[-37.4189,-54.2611],[-37.3644,-54.277],[-37.2689,-54.2608],[-37.2541,-54.2437],[-37.2113,-54.2485],[-37.208,-54.2663],[-37.1578,-54.2686],[-37.1328,-54.2833],[-37.0872,-54.2896],[-37.0891,-54.31],[-37.1105,-54.3252],[-37.0133,-54.3608],[-36.95,-54.3608],[-36.9339,-54.3427],[-36.8978,-54.3486],[-36.8917,-54.3878],[-36.8066,-54.4099],[-36.8161,-54.4603],[-36.7674,-54.4628],[-36.7065,-54.4867],[-36.6555,-54.4844],[-36.6633,-54.5069],[-36.6144,-54.5216],[-36.5839,-54.5047],[-36.5221,-54.5087],[-36.5205,-54.5211],[-36.4772,-54.5308],[-36.4994,-54.5614],[-36.4594,-54.5853],[-36.4233,-54.5928],[-36.4212,-54.6105],[-36.3706,-54.6514],[-36.3522,-54.6811],[-36.3055,-54.7328],[-36.315,-54.7431],[-36.2685,-54.7747],[-36.2372,-54.8036],[-36.1364,-54.8501],[-36.1239,-54.8872],[-36.0971,-54.8908],[-36.0471,-54.8789],[-35.9867,-54.8839],[-35.9317,-54.8545],[-35.9699,-54.8277],[-35.9717,-54.8141],[-35.9139,-54.8155],[-35.9055,-54.7951],[-35.8622,-54.8019],[-35.8205,-54.798],[-35.7921,-54.7569],[-35.8374,-54.7584],[-35.8584,-54.7384],[-35.9381,-54.7038],[-35.9125,-54.696],[-35.923,-54.6457],[-35.9454,-54.6293],[-35.9185,-54.6145],[-35.9168,-54.5888],[-35.8889,-54.5575],[-35.9244,-54.5556],[-35.9942,-54.5769],[-36.0157,-54.5605],[-36.0693,-54.566],[-36.0926,-54.5464],[-36.0813,-54.5184],[-36.0394,-54.5206],[-36.0036,-54.5003],[-36.0339,-54.4927],[-36.0706,-54.4671],[-36.1032,-54.4544],[-36.1412,-54.4574],[-36.1818,-54.4342],[-36.156,-54.397],[-36.2172,-54.3781],[-36.2567,-54.3756],[-36.2217,-54.3542],[-36.2472,-54.3342],[-36.2601,-54.292],[-36.2919,-54.2754],[-36.3724,-54.2552],[-36.4067,-54.2531],[-36.3972,-54.2844],[-36.3571,-54.3111],[-36.3327,-54.3506],[-36.3495,-54.3673],[-36.3855,-54.358],[-36.4249,-54.3153],[-36.4905,-54.3394],[-36.4902,-54.2855],[-36.4687,-54.2735],[-36.4639,-54.2437],[-36.5234,-54.2328],[-36.5861,-54.2625],[-36.6389,-54.2779],[-36.679,-54.2555],[-36.6625,-54.2401],[-36.6202,-54.2346],[-36.5856,-54.2127],[-36.5903,-54.19],[-36.5444,-54.2003],[-36.5198,-54.1829],[-36.554,-54.1614],[-36.5967,-54.164],[-36.664,-54.1874],[-36.634,-54.1184],[-36.6646,-54.1197],[-36.7319,-54.1026],[-36.7872,-54.1159],[-36.7846,-54.1463],[-36.8164,-54.1433],[-36.8211,-54.1271],[-36.8062,-54.109],[-36.8246,-54.0921],[-36.8737,-54.0866],[-36.9119,-54.0719],[-36.9642,-54.1072],[-36.9744,-54.0551],[-37.0498,-54.0675],[-37.0904,-54.0878],[-37.1211,-54.1151],[-37.15,-54.1093],[-37.1461,-54.0819],[-37.1284,-54.0602],[-37.129,-54.041],[-37.1727,-54.0381],[-37.199,-54.0598],[-37.221,-54.0518],[-37.2327,-54.0834],[-37.2464,-54.0841],[-37.2789,-54.0547],[-37.3155,-54.0551],[-37.3598,-54.0432],[-37.3898,-54.06],[-37.4575,-54.057],[-37.4316,-54.0116],[-37.3831,-54.0063],[-37.3661,-53.9854],[-37.4011,-53.9807],[-37.4456,-53.9908],[-37.5003,-54.0193],[-37.5457,-54.0178],[-37.5682,-54.0093],[-37.6115,-54.01],[-37.6804,-53.9867]]],[[[-38.1884,-54.0062],[-38.2293,-54.0005],[-38.2355,-54.0183],[-38.1991,-54.0179],[-38.1884,-54.0062]]]]},"properties":{"GID_0":"SGS","ISO_A2":"GS","ISO_A3":"SGS","NAME_EN":"S. Geo. and the Is.","NAME_IT":"Georgia del Sud e isole Sandwich meridionali"}}
]}