{"type":"FeatureCollection", "features": [
{"type":"Feature","geometry":{"type":"MultiPolygon","coordinates":[[[[119.4449,23.2213],[119.4101,23.2157],[119.4282,23.1893],[119.4424,23.1999],[119.4449,23.2213]]],[[[119.4954,23.3965],[119.4904,23.3515],[119.5157,23.3665],[119.5085,23.3913],[119.4954,23.3965]]],[[[120.1457,23.5251],[120.1199,23.5182],[120.1204,23.4918],[120.1454,23.4737],[120.161,23.4443],[120.1501,23.424],[120.156,23.3846],[120.1774,23.3729],[120.179,23.341],[120.1643,23.3432],[120.1462,23.3593],[120.1324,23.3588],[120.1243,23.3218],[120.0979,23.2938],[120.0954,23.2765],[120.1074,23.2571],[120.0857,23.2249],[120.0696,23.1835],[120.0885,23.1696],[120.0807,23.1243],[120.0354,23.1026],[120.0318,23.076],[120.0532,23.0785],[120.0574,23.0471],[120.1096,23.0204],[120.1621,22.9843],[120.1629,22.9682],[120.1762,22.9385],[120.1743,22.9143],[120.2096,22.8163],[120.2621,22.7007],[120.2726,22.6849],[120.2507,22.6626],[120.2496,22.6507],[120.2665,22.6168],[120.2765,22.6185],[120.2946,22.5879],[120.3213,22.5571],[120.314,22.5468],[120.336,22.5324],[120.3729,22.4976],[120.4118,22.4757],[120.4243,22.4793],[120.4524,22.4479],[120.4629,22.4585],[120.4893,22.4429],[120.4793,22.431],[120.549,22.3963],[120.5876,22.3699],[120.6076,22.3388],[120.6363,22.3135],[120.6521,22.2685],[120.6496,22.2543],[120.671,22.2357],[120.6862,22.2076],[120.7099,22.124],[120.7165,22.0912],[120.7029,22.086],[120.7074,22.0626],[120.6854,22.0282],[120.6943,22.004],[120.7129,21.9835],[120.7113,21.9338],[120.7271,21.9179],[120.7393,21.919],[120.7457,21.9432],[120.7607,21.959],[120.7829,21.9438],[120.8213,21.9354],[120.8365,21.916],[120.8615,21.9165],[120.8424,21.9474],[120.8446,21.9865],[120.8757,21.9996],[120.8771,22.0118],[120.8999,22.0338],[120.8932,22.0482],[120.8913,22.0863],[120.8985,22.1021],[120.8846,22.1315],[120.8965,22.1421],[120.8901,22.1957],[120.8988,22.2313],[120.8915,22.2699],[120.894,22.334],[120.9088,22.3588],[120.9146,22.3851],[120.9454,22.4543],[120.959,22.5049],[120.9846,22.5682],[121.009,22.589],[121.011,22.616],[121.0263,22.6582],[121.0713,22.6921],[121.1229,22.7157],[121.1585,22.749],[121.1735,22.756],[121.1815,22.7851],[121.2007,22.7949],[121.1901,22.8482],[121.2007,22.8588],[121.2485,22.8812],[121.2785,22.9301],[121.2826,22.9479],[121.314,22.9751],[121.3285,23.0154],[121.3396,23.0271],[121.3479,23.0654],[121.3665,23.0963],[121.3838,23.0935],[121.3962,23.1163],[121.4079,23.1663],[121.3957,23.1968],[121.4142,23.2312],[121.4299,23.2849],[121.4468,23.3088],[121.4621,23.3165],[121.4782,23.3963],[121.496,23.4315],[121.5085,23.4929],[121.5038,23.5204],[121.5118,23.5532],[121.5268,23.5771],[121.531,23.6318],[121.5437,23.6543],[121.5507,23.6929],[121.5499,23.7174],[121.5735,23.7607],[121.5699,23.7818],[121.6018,23.8738],[121.6046,23.9099],[121.6118,23.9321],[121.6062,23.9563],[121.6165,23.9749],[121.6476,24.0068],[121.6329,24.0263],[121.616,24.0621],[121.6176,24.0851],[121.6274,24.1021],[121.6518,24.1188],[121.6651,24.1415],[121.6579,24.1768],[121.6715,24.2057],[121.7057,24.2246],[121.7146,24.2413],[121.7443,24.261],[121.7521,24.2871],[121.7729,24.3076],[121.7707,24.3365],[121.7874,24.3726],[121.7901,24.4071],[121.7996,24.4321],[121.8224,24.454],[121.824,24.4643],[121.8487,24.4793],[121.8399,24.4988],[121.8429,24.521],[121.8743,24.5351],[121.8696,24.574],[121.8582,24.6162],[121.8429,24.6488],[121.8371,24.7074],[121.8226,24.7399],[121.8182,24.7938],[121.8271,24.8412],[121.8515,24.891],[121.8854,24.9176],[121.8857,24.9324],[121.9171,24.9532],[121.9276,24.9699],[121.9721,24.9863],[122.006,25.0126],[121.9765,25.0257],[121.9404,25.0246],[121.9279,25.0407],[121.9326,25.064],[121.914,25.0846],[121.9235,25.1038],[121.9163,25.1274],[121.899,25.1201],[121.829,25.1279],[121.7879,25.1443],[121.7646,25.1638],[121.7501,25.1474],[121.6604,25.2082],[121.6338,25.2379],[121.6343,25.259],[121.6174,25.2785],[121.5771,25.299],[121.5399,25.2929],[121.4779,25.2665],[121.4735,25.2543],[121.4501,25.2479],[121.4337,25.2157],[121.4154,25.1946],[121.414,25.1688],[121.3546,25.1315],[121.3196,25.1213],[121.289,25.1176],[121.2499,25.121],[121.2126,25.1087],[121.1726,25.0849],[121.1032,25.066],[121.074,25.0451],[121.0499,25.0368],[121.0151,24.9899],[121.0137,24.9715],[120.9887,24.9479],[120.9679,24.919],[120.9662,24.9054],[120.9474,24.8732],[120.9135,24.8326],[120.9138,24.7676],[120.9037,24.7476],[120.8665,24.7249],[120.8532,24.6946],[120.8143,24.6682],[120.7815,24.6626],[120.761,24.6396],[120.7554,24.614],[120.7262,24.6093],[120.6643,24.4804],[120.616,24.4274],[120.5921,24.4057],[120.5746,24.3582],[120.5507,24.3351],[120.5496,24.3085],[120.526,24.311],[120.5079,24.2663],[120.494,24.2699],[120.4685,24.2118],[120.4837,24.2071],[120.479,24.1868],[120.456,24.1596],[120.4301,24.1593],[120.3796,24.0963],[120.4001,24.0926],[120.4107,24.0901],[120.421,24.0838],[120.4068,24.0565],[120.3737,24.0401],[120.3496,24.0038],[120.3299,23.9885],[120.304,23.9401],[120.3182,23.936],[120.2865,23.8743],[120.2618,23.8687],[120.2643,23.8271],[120.2496,23.8207],[120.1988,23.8176],[120.1843,23.8096],[120.1738,23.7596],[120.1693,23.7057],[120.1632,23.6835],[120.1424,23.6407],[120.139,23.5488],[120.1457,23.5251]]],[[[119.6524,23.6099],[119.6485,23.5974],[119.6057,23.606],[119.5946,23.5757],[119.574,23.5863],[119.5615,23.5621],[119.5926,23.5316],[119.5582,23.5329],[119.5568,23.5229],[119.6076,23.5074],[119.6065,23.5287],[119.646,23.5618],[119.6799,23.5499],[119.6833,23.584],[119.6624,23.5901],[119.6524,23.6099]]],[[[119.5857,23.6768],[119.5543,23.6696],[119.5354,23.6385],[119.514,23.6551],[119.5015,23.631],[119.5026,23.5788],[119.5143,23.5693],[119.524,23.6043],[119.5179,23.6279],[119.5396,23.6318],[119.5546,23.6571],[119.5779,23.6615],[119.594,23.6401],[119.6118,23.6474],[119.6057,23.669],[119.5857,23.6768]]],[[[118.2493,24.4532],[118.2301,24.4479],[118.2265,24.4051],[118.2685,24.4437],[118.2493,24.4532]]],[[[118.409,24.5282],[118.3918,24.5104],[118.3951,24.4932],[118.3796,24.4624],[118.3404,24.4699],[118.3118,24.4907],[118.2893,24.4724],[118.3012,24.4593],[118.3096,24.426],[118.2954,24.396],[118.3196,24.3857],[118.3554,24.4249],[118.3999,24.4357],[118.4268,24.4249],[118.4354,24.4077],[118.4524,24.4151],[118.4596,24.4368],[118.4604,24.4779],[118.4437,24.5101],[118.4274,24.5257],[118.409,24.5282]]],[[[121.5699,22.0843],[121.499,22.081],[121.5107,22.0657],[121.5082,22.0479],[121.5382,22.0232],[121.5493,22.0257],[121.5701,22.0024],[121.594,22.0038],[121.6021,22.0199],[121.5682,22.0415],[121.5643,22.0546],[121.5699,22.0843]]],[[[121.4929,22.6774],[121.4629,22.6729],[121.4732,22.6454],[121.4957,22.6324],[121.511,22.6682],[121.4929,22.6774]]],[[[120.3821,22.3551],[120.3688,22.3526],[120.354,22.3304],[120.3657,22.3238],[120.3879,22.3424],[120.3821,22.3551]]],[[[120.4187,24.0849],[120.3765,24.0854],[120.3676,24.0571],[120.4007,24.0582],[120.4187,24.0849]]],[[[119.9207,26.1735],[119.9168,26.141],[119.9432,26.1438],[119.9207,26.1735]]]]},"properties":{"GID_0":"TWN","ISO_A2":"CN-TW","ISO_A3":"TWN","NAME_EN":"Taiwan","NAME_IT":"Taiwan"}}
]}