{"type":"FeatureCollection", "features": [
{"type":"Feature","geometry":{"type":"MultiPolygon","coordinates":[[[[-68.2829,10.8579],[-68.2399,10.8493],[-68.2404,10.8904],[-68.3204,10.9157],[-68.3201,10.9368],[-68.2679,10.9263],[-68.3037,10.9763],[-68.3393,11.0671],[-68.3885,11.1457],[-68.3796,11.164],[-68.4535,11.1785],[-68.5315,11.2651],[-68.6029,11.2821],[-68.6535,11.341],[-68.6896,11.3554],[-68.7068,11.341],[-68.7665,11.3737],[-68.8293,11.444],[-68.8913,11.4415],[-68.9485,11.451],[-68.9882,11.4349],[-69.0512,11.4393],[-69.1071,11.4937],[-69.1537,11.4913],[-69.1765,11.5085],[-69.2074,11.5032],[-69.266,11.5346],[-69.284,11.5332],[-69.3688,11.4826],[-69.5137,11.5057],[-69.561,11.4796],[-69.5754,11.4557],[-69.6074,11.4587],[-69.6385,11.4799],[-69.6871,11.5407],[-69.7515,11.6682],[-69.7943,11.7924],[-69.8135,11.8776],[-69.8074,11.9429],[-69.8235,12.0046],[-69.8851,12.1212],[-69.9326,12.1721],[-69.9701,12.1724],[-70.0232,12.1957],[-70.1149,12.1379],[-70.1479,12.1065],[-70.2093,12.0996],[-70.216,12.0463],[-70.2579,11.9812],[-70.259,11.9579],[-70.291,11.9018],[-70.2768,11.8174],[-70.261,11.819],[-70.2049,11.7601],[-70.2193,11.6932],[-70.2132,11.6726],[-70.2357,11.6354],[-70.2199,11.6062],[-70.1843,11.6049],[-70.0524,11.6354],[-69.9607,11.666],[-69.9204,11.6507],[-69.8699,11.6637],[-69.8437,11.6915],[-69.8235,11.6768],[-69.7949,11.6976],[-69.8071,11.7432],[-69.7851,11.7479],[-69.7721,11.6904],[-69.7026,11.5468],[-69.6562,11.4804],[-69.6926,11.4501],[-69.7368,11.4554],[-69.8104,11.4196],[-69.8443,11.4221],[-69.876,11.4415],[-69.8954,11.4929],[-69.9151,11.4901],[-69.9499,11.5226],[-69.9762,11.499],[-70.0046,11.5188],[-70.0418,11.509],[-70.0301,11.4829],[-70.0987,11.4243],[-70.1413,11.4638],[-70.1493,11.4121],[-70.1857,11.3624],[-70.2401,11.3412],[-70.2793,11.3543],[-70.3112,11.3285],[-70.3876,11.306],[-70.4238,11.2793],[-70.4946,11.2863],[-70.4996,11.2532],[-70.5287,11.2318],[-70.6065,11.2257],[-70.7115,11.2276],[-70.7857,11.2013],[-70.8432,11.1954],[-70.9526,11.1285],[-71.1443,11.0257],[-71.2482,10.9838],[-71.3329,10.9599],[-71.4362,10.9682],[-71.4885,10.946],[-71.4413,10.9035],[-71.4476,10.8643],[-71.4332,10.8226],[-71.4496,10.791],[-71.514,10.7993],[-71.579,10.794],[-71.5232,10.7243],[-71.5321,10.634],[-71.4965,10.6057],[-71.5307,10.5893],[-71.5318,10.5593],[-71.504,10.5154],[-71.4696,10.4985],[-71.4524,10.4479],[-71.4799,10.3915],[-71.4326,10.3585],[-71.414,10.3043],[-71.3771,10.2688],[-71.3665,10.2263],[-71.2793,10.1535],[-71.2401,10.0749],[-71.2376,10.0374],[-71.2113,9.974],[-71.1654,9.9626],[-71.1043,9.8921],[-71.0771,9.836],[-71.0896,9.8015],[-71.0382,9.7415],[-71.0599,9.6001],[-71.0854,9.5485],[-71.0685,9.481],[-71.0682,9.3682],[-71.0532,9.3474],[-71.0626,9.3135],[-71.1346,9.2738],[-71.184,9.2368],[-71.2174,9.1976],[-71.2371,9.1488],[-71.3274,9.0979],[-71.4693,9.0515],[-71.5454,9.0363],[-71.6179,9.0393],[-71.624,9.0724],[-71.6865,9.0638],[-71.7176,9.0796],[-71.756,9.1238],[-71.7393,9.1599],[-71.7699,9.2815],[-71.7301,9.294],[-71.7365,9.3518],[-71.7696,9.3615],[-71.8193,9.4207],[-71.8838,9.4201],[-71.8818,9.4546],[-71.9226,9.4732],[-71.9613,9.5179],[-71.9815,9.5654],[-71.9818,9.6176],[-72.0921,9.7504],[-72.1271,9.8124],[-72.1271,9.834],[-72.0837,9.8657],[-72.0371,9.9412],[-71.9882,10.076],[-71.9571,10.1015],[-71.9021,10.1207],[-71.8932,10.1454],[-71.8396,10.2074],[-71.8201,10.2712],[-71.7904,10.3276],[-71.7343,10.3793],[-71.6396,10.4396],[-71.6268,10.4704],[-71.6332,10.5149],[-71.6101,10.5718],[-71.6032,10.6365],[-71.5868,10.6687],[-71.586,10.7051],[-71.6674,10.7771],[-71.7049,10.856],[-71.7207,10.9543],[-71.7549,10.991],[-71.7396,11.0187],[-71.6612,10.976],[-71.6293,10.9768],[-71.6146,10.999],[-71.706,11.0462],[-71.7574,11.0807],[-71.8351,11.1604],[-71.8962,11.2526],[-71.9332,11.3343],[-71.9604,11.4254],[-71.969,11.521],[-71.9579,11.5835],[-71.874,11.624],[-71.7613,11.659],[-71.7082,11.6643],[-71.6604,11.6824],[-71.4626,11.7143],[-71.4079,11.741],[-71.3557,11.7968],[-71.3863,11.8141],[-71.4957,11.7784],[-71.6107,11.7473],[-71.7292,11.7076],[-71.9661,11.6501],[-71.9718,11.6435],[-72.249,11.1397],[-72.3491,11.1509],[-72.439,11.1158],[-72.4899,11.0892],[-72.4812,11.0592],[-72.5251,11.0068],[-72.5531,10.9401],[-72.607,10.8873],[-72.6478,10.8797],[-72.6749,10.82],[-72.6894,10.7569],[-72.7122,10.7511],[-72.7482,10.6375],[-72.7805,10.6132],[-72.8396,10.5345],[-72.8443,10.4869],[-72.8962,10.4499],[-72.907,10.3511],[-72.8995,10.3129],[-72.9071,10.2673],[-72.8973,10.217],[-72.9219,10.1372],[-72.9114,10.1127],[-72.9578,10.0517],[-72.9528,10.0273],[-72.9845,9.9731],[-72.9984,9.9222],[-72.9928,9.875],[-72.9448,9.8414],[-73.0109,9.7605],[-73.0477,9.656],[-73.0674,9.6452],[-73.0944,9.5717],[-73.1445,9.5431],[-73.1768,9.5007],[-73.1867,9.448],[-73.24,9.4045],[-73.2595,9.3462],[-73.2894,9.3115],[-73.2971,9.2763],[-73.3484,9.1774],[-73.2504,9.1588],[-73.2226,9.1797],[-73.1769,9.1776],[-73.1332,9.2237],[-73.0897,9.2262],[-73.0717,9.2647],[-73.0098,9.2921],[-72.9852,9.2236],[-72.9619,9.1858],[-72.9719,9.1365],[-72.932,9.0835],[-72.8866,9.1042],[-72.8829,9.1306],[-72.8243,9.1357],[-72.7654,9.1054],[-72.7012,8.8137],[-72.6794,8.7532],[-72.6745,8.704],[-72.6538,8.6137],[-72.6282,8.6059],[-72.4271,8.3821],[-72.3929,8.3578],[-72.381,8.3106],[-72.3914,8.255],[-72.3554,8.1657],[-72.3749,8.1074],[-72.3508,8.0802],[-72.351,8.0034],[-72.3837,8.034],[-72.4155,8.0336],[-72.4276,7.9894],[-72.4756,7.9601],[-72.4878,7.9374],[-72.4587,7.9089],[-72.4447,7.8584],[-72.4672,7.7943],[-72.4755,7.6317],[-72.4518,7.5586],[-72.4734,7.5182],[-72.473,7.4864],[-72.4462,7.4603],[-72.427,7.4004],[-72.3032,7.3908],[-72.2513,7.381],[-72.2211,7.3955],[-72.1954,7.3852],[-72.1536,7.3284],[-72.174,7.2575],[-72.085,7.1275],[-72.0123,7.0113],[-71.9725,7.0094],[-71.8433,7.0172],[-71.8248,7.056],[-71.783,7.0678],[-71.7219,7.0567],[-71.7088,7.0326],[-71.6613,7.0335],[-71.6474,7.0527],[-71.5852,7.0458],[-71.5922,7.0237],[-71.4599,7.0389],[-71.3978,7.0368],[-71.3803,7.0193],[-71.3265,7.0183],[-71.2669,7.0327],[-71.1915,7.0195],[-71.1305,7.0336],[-71.1144,6.9947],[-71.022,6.9743],[-70.9954,6.9836],[-70.9706,7.0164],[-70.9224,7.0238],[-70.8883,7.0641],[-70.8462,7.0749],[-70.7743,7.08],[-70.6988,7.0938],[-70.607,7.0643],[-70.5709,7.0812],[-70.5439,7.0693],[-70.5026,7.006],[-70.4306,7.0079],[-70.4137,6.9817],[-70.3723,6.9817],[-70.3599,6.9562],[-70.3238,6.9354],[-70.265,6.942],[-70.224,6.9751],[-70.1217,6.9792],[-69.9919,6.8184],[-69.7907,6.5632],[-69.7387,6.5003],[-69.4269,6.1022],[-69.346,6.1392],[-69.2806,6.0614],[-69.257,6.0634],[-69.2101,6.0957],[-69.2008,6.1287],[-69.149,6.1502],[-69.1279,6.2039],[-69.1103,6.2142],[-68.9886,6.2057],[-68.9387,6.1692],[-68.8362,6.1819],[-68.7968,6.1569],[-68.7422,6.1664],[-68.6887,6.1366],[-68.6438,6.1282],[-68.6024,6.1617],[-68.5769,6.1653],[-68.5446,6.1457],[-68.4704,6.1817],[-68.4383,6.1862],[-68.3202,6.1629],[-68.2757,6.1688],[-68.2461,6.2],[-68.1683,6.2117],[-68.1185,6.236],[-68.0601,6.2099],[-68.0111,6.2096],[-67.9885,6.1934],[-67.902,6.2318],[-67.8763,6.2695],[-67.8449,6.2799],[-67.8235,6.3066],[-67.7766,6.3188],[-67.7706,6.2983],[-67.7165,6.288],[-67.6654,6.302],[-67.5802,6.2739],[-67.5475,6.2791],[-67.5353,6.2535],[-67.4843,6.219],[-67.4629,6.1917],[-67.4932,6.1312],[-67.4581,6.0634],[-67.4057,6.0072],[-67.4346,5.9674],[-67.4811,5.9419],[-67.4917,5.9187],[-67.538,5.8935],[-67.5928,5.8401],[-67.6277,5.734],[-67.6388,5.6507],[-67.6014,5.5439],[-67.6329,5.4666],[-67.7151,5.4129],[-67.7393,5.3874],[-67.8229,5.3406],[-67.8506,5.2878],[-67.8169,5.271],[-67.8082,5.2044],[-67.8413,5.1672],[-67.8403,5.1148],[-67.8094,5.0471],[-67.8245,5.0215],[-67.8255,4.9705],[-67.8411,4.9453],[-67.8392,4.8814],[-67.827,4.8518],[-67.8219,4.7011],[-67.8484,4.635],[-67.8422,4.5649],[-67.8507,4.5106],[-67.795,4.4643],[-67.7989,4.435],[-67.7682,4.3394],[-67.8061,4.3239],[-67.7938,4.2689],[-67.8057,4.24],[-67.7741,4.1665],[-67.7435,4.139],[-67.702,4.0201],[-67.6913,3.9333],[-67.6648,3.898],[-67.6434,3.8383],[-67.6481,3.8219],[-67.6149,3.7568],[-67.5963,3.7493],[-67.4976,3.7705],[-67.4621,3.6859],[-67.4431,3.6788],[-67.4392,3.5885],[-67.4049,3.5402],[-67.4065,3.5062],[-67.3915,3.4726],[-67.337,3.4536],[-67.3074,3.3821],[-67.3266,3.3402],[-67.3743,3.2949],[-67.3736,3.25],[-67.43,3.2472],[-67.7017,3.0054],[-67.855,2.8672],[-67.857,2.7903],[-67.8182,2.8328],[-67.7423,2.8407],[-67.7358,2.8177],[-67.6576,2.7963],[-67.6316,2.8131],[-67.5659,2.7691],[-67.5476,2.7227],[-67.5538,2.6691],[-67.5405,2.6486],[-67.5084,2.6679],[-67.47,2.6539],[-67.4579,2.6161],[-67.4372,2.6121],[-67.3827,2.5585],[-67.379,2.5379],[-67.3447,2.52],[-67.2949,2.4349],[-67.2212,2.3896],[-67.1852,2.3389],[-67.2119,2.3008],[-67.2217,2.2415],[-67.193,2.1666],[-67.1591,2.1188],[-67.1103,2.1095],[-67.0991,2.0446],[-67.1254,1.9648],[-67.0922,1.9449],[-67.0666,1.9076],[-67.0418,1.8327],[-67.0359,1.7723],[-66.9995,1.7032],[-66.9888,1.6651],[-66.9627,1.6279],[-66.9665,1.5842],[-66.9452,1.5725],[-66.9093,1.4847],[-66.9105,1.4425],[-66.8984,1.41],[-66.8718,1.404],[-66.8496,1.373],[-66.8495,1.3168],[-66.8676,1.2835],[-66.8596,1.2335],[-66.5994,0.9997],[-66.3185,0.755],[-66.213,0.7806],[-66.1511,0.7444],[-66.0886,0.759],[-66.0701,0.805],[-66.0173,0.8],[-65.9714,0.806],[-65.9366,0.8821],[-65.8816,0.9016],[-65.8623,0.9309],[-65.7672,0.964],[-65.7394,0.9996],[-65.6528,1.0117],[-65.5856,1.0089],[-65.5419,0.9755],[-65.5364,0.948],[-65.5084,0.9155],[-65.5214,0.8401],[-65.5486,0.7746],[-65.5736,0.7643],[-65.5914,0.7216],[-65.5642,0.6757],[-65.5306,0.6679],[-65.4528,0.6854],[-65.4236,0.7079],[-65.3975,0.7499],[-65.398,0.8213],[-65.3736,0.8646],[-65.3519,0.873],[-65.3292,0.9315],[-65.3028,0.9421],[-65.2408,0.921],[-65.165,0.9505],[-65.1669,1.0113],[-65.154,1.0563],[-65.1551,1.1249],[-65.1031,1.1566],[-65.0222,1.1149],[-64.9608,1.1896],[-64.9066,1.2416],[-64.8707,1.2386],[-64.8616,1.2693],[-64.8105,1.3144],[-64.7639,1.2307],[-64.7225,1.2385],[-64.7019,1.2912],[-64.6602,1.2913],[-64.635,1.3202],[-64.5908,1.3374],[-64.5827,1.3755],[-64.5313,1.4352],[-64.5005,1.4426],[-64.4536,1.4802],[-64.4386,1.4718],[-64.3974,1.5268],[-64.3513,1.5182],[-64.3572,1.4838],[-64.3788,1.4635],[-64.4,1.3948],[-64.3427,1.3843],[-64.3261,1.436],[-64.3022,1.4683],[-64.2402,1.5113],[-64.2155,1.5085],[-64.1938,1.5427],[-64.1441,1.5824],[-64.1122,1.5893],[-64.0652,1.676],[-64.0613,1.7016],[-64.078,1.759],[-64.0624,1.7896],[-64.0561,1.841],[-64.0619,1.9307],[-64.0191,1.9513],[-63.9755,1.9913],[-63.9227,1.9829],[-63.9066,1.9915],[-63.8297,1.9682],[-63.8238,1.991],[-63.7849,1.9815],[-63.7033,2.0462],[-63.668,2.0169],[-63.6174,2.1065],[-63.5619,2.1323],[-63.4924,2.1154],[-63.4666,2.141],[-63.4441,2.1251],[-63.3977,2.1469],[-63.3723,2.2117],[-63.4012,2.2456],[-63.4014,2.2966],[-63.4255,2.3642],[-63.3948,2.4071],[-63.4068,2.4359],[-63.4459,2.4424],[-63.4999,2.436],[-63.5908,2.4149],[-63.6559,2.3939],[-63.7279,2.3862],[-63.7808,2.3912],[-63.9612,2.4546],[-64.0005,2.4782],[-64.0208,2.4665],[-64.0572,2.5129],[-64.0291,2.576],[-63.9916,2.6362],[-63.9866,2.7307],[-64.0141,2.7954],[-64.0133,2.819],[-64.0472,2.8363],[-64.0669,2.8796],[-64.0716,2.9376],[-64.1024,2.9515],[-64.1305,3.0043],[-64.178,3.0632],[-64.2352,3.1143],[-64.2083,3.1888],[-64.2138,3.2463],[-64.2413,3.3149],[-64.2344,3.384],[-64.2552,3.411],[-64.2399,3.4429],[-64.1869,3.4996],[-64.1858,3.5596],[-64.2061,3.5904],[-64.2811,3.6693],[-64.2891,3.6996],[-64.3427,3.7349],[-64.4286,3.7799],[-64.4725,3.7815],[-64.5245,3.8419],[-64.5684,3.8817],[-64.5802,3.9283],[-64.6199,3.9513],[-64.6739,4.0046],[-64.6839,4.0401],[-64.7086,4.0665],[-64.7322,4.1201],[-64.8105,4.1746],[-64.825,4.244],[-64.7969,4.2857],[-64.7805,4.2865],[-64.6914,4.2446],[-64.6586,4.2115],[-64.6275,4.1385],[-64.5605,4.1015],[-64.5002,4.1126],[-64.4316,4.1346],[-64.3355,4.129],[-64.2897,4.1438],[-64.2188,4.1154],[-64.1719,4.1288],[-64.1127,4.0913],[-64.0972,4.0251],[-64.0357,3.9342],[-64.0019,3.9329],[-63.9972,3.9035],[-63.9499,3.8865],[-63.9261,3.926],[-63.8502,3.9499],[-63.7966,3.9326],[-63.7552,3.9401],[-63.7388,3.9151],[-63.6969,3.9132],[-63.7005,3.9443],[-63.6855,4.009],[-63.6527,4.0018],[-63.5922,3.9282],[-63.5716,3.8832],[-63.5124,3.8474],[-63.4825,3.8736],[-63.4527,3.8582],[-63.4119,3.9118],[-63.4522,3.9554],[-63.4288,3.9771],[-63.3933,3.9804],[-63.3534,3.9602],[-63.311,3.9818],[-63.2808,3.9551],[-63.2049,3.9513],[-63.2335,3.8815],[-63.2266,3.8354],[-63.2044,3.8115],[-63.1233,3.8046],[-63.0608,3.7518],[-63.073,3.6854],[-63.0324,3.6657],[-62.9849,3.6096],[-62.9525,3.6118],[-62.9191,3.6724],[-62.8869,3.6835],[-62.8358,3.7385],[-62.7899,3.7176],[-62.7485,3.6726],[-62.731,3.7076],[-62.7399,3.7563],[-62.7354,3.8002],[-62.7713,3.834],[-62.7538,3.8496],[-62.7888,3.8932],[-62.783,3.9343],[-62.7432,3.9743],[-62.7688,4.0062],[-62.7322,4.0358],[-62.6866,4.0323],[-62.6414,4.0516],[-62.6068,4.0502],[-62.5562,4.0292],[-62.5353,4.0342],[-62.5098,4.0872],[-62.3878,4.1287],[-62.3555,4.1503],[-62.3321,4.141],[-62.2697,4.1419],[-62.2331,4.1319],[-62.154,4.0901],[-62.1346,4.0913],[-62.0758,4.1347],[-62.0607,4.1567],[-62.004,4.164],[-61.9656,4.1149],[-61.928,4.122],[-61.9031,4.165],[-61.8352,4.1941],[-61.7717,4.2342],[-61.7567,4.2554],[-61.6703,4.2594],[-61.5905,4.2504],[-61.5233,4.2823],[-61.5442,4.3599],[-61.5379,4.3838],[-61.4821,4.4364],[-61.3909,4.4302],[-61.3528,4.4414],[-61.3293,4.4637],[-61.3276,4.4943],[-61.3447,4.5318],[-61.3099,4.5428],[-61.2225,4.5271],[-61.1442,4.4836],[-61.0824,4.5136],[-61.0464,4.5218],[-60.9913,4.5161],[-60.9569,4.5462],[-60.929,4.6073],[-60.9408,4.6451],[-60.9099,4.6963],[-60.8895,4.7121],[-60.8345,4.7126],[-60.8048,4.7371],[-60.7315,4.7654],[-60.7162,4.7963],[-60.6778,4.828],[-60.6444,4.8806],[-60.5939,4.9331],[-60.5879,4.9658],[-60.6414,5.0682],[-60.6427,5.0985],[-60.6742,5.17],[-60.7363,5.1975],[-60.7732,5.2542],[-60.8284,5.3189],[-60.995,5.5033],[-61.1328,5.663],[-61.2452,5.7833],[-61.3867,5.9463],[-61.3781,5.97],[-61.3247,5.999],[-61.3048,6.0526],[-61.2514,6.1124],[-61.2031,6.117],[-61.1795,6.1478],[-61.1763,6.1867],[-61.1346,6.1772],[-61.1402,6.2168],[-61.1311,6.2534],[-61.1737,6.33],[-61.167,6.3828],[-61.1452,6.421],[-61.1565,6.457],[-61.182,6.4754],[-61.1692,6.5212],[-61.1942,6.53],[-61.2161,6.562],[-61.1755,6.6769],[-61.146,6.6907],[-61.1321,6.7238],[-61.0789,6.706],[-61.0702,6.73],[-61.035,6.7164],[-60.9952,6.7291],[-60.9795,6.7172],[-60.9337,6.7215],[-60.8915,6.761],[-60.9164,6.7965],[-60.904,6.8214],[-60.8725,6.816],[-60.8321,6.7869],[-60.8116,6.7973],[-60.7206,6.7479],[-60.6816,6.767],[-60.6518,6.818],[-60.6092,6.8441],[-60.5458,6.8566],[-60.5087,6.8796],[-60.4435,6.9369],[-60.3979,6.9476],[-60.3743,6.9337],[-60.3637,7.0023],[-60.3428,7.0356],[-60.3423,7.0834],[-60.3596,7.0972],[-60.3542,7.1384],[-60.3827,7.1833],[-60.4286,7.2017],[-60.4766,7.1992],[-60.5219,7.1726],[-60.548,7.1407],[-60.574,7.183],[-60.6286,7.2292],[-60.6327,7.27],[-60.5886,7.3234],[-60.594,7.3498],[-60.6361,7.4366],[-60.6438,7.493],[-60.6265,7.5227],[-60.6379,7.6022],[-60.6173,7.6457],[-60.5906,7.6457],[-60.5775,7.7303],[-60.5647,7.7662],[-60.5026,7.8411],[-60.4451,7.8444],[-60.4032,7.8269],[-60.3323,7.8453],[-60.3104,7.874],[-60.2769,7.8886],[-60.2169,7.9605],[-60.1871,7.9653],[-60.1334,8.0001],[-60.1145,8.031],[-60.0649,8.0274],[-60.0311,8.0375],[-59.9992,8.0789],[-59.9937,8.1589],[-59.9465,8.2229],[-59.8352,8.2403],[-59.8072,8.272],[-59.8213,8.3121],[-59.9995,8.5297],[-60.0418,8.5765],[-60.1015,8.5929],[-60.1599,8.6218],[-60.214,8.6268],[-60.411,8.6265],[-60.4115,8.584],[-60.459,8.5268],[-60.6221,8.5474],[-60.6721,8.5846],[-60.7185,8.6079],[-60.7193,8.6379],[-60.6721,8.6443],[-60.669,8.6801],[-60.6924,8.6979],[-60.6779,8.7515],[-60.6846,8.7918],[-60.7287,8.8521],[-60.7618,8.8415],[-60.8126,8.8676],[-60.8493,8.899],[-60.824,8.9263],[-60.8168,8.9888],[-60.759,9.0513],[-60.8124,9.0726],[-60.8165,9.1215],[-60.8454,9.1001],[-60.8688,9.1124],[-60.856,9.136],[-60.8488,9.1904],[-60.8735,9.1968],[-60.9262,9.176],[-60.9593,9.2026],[-60.8462,9.2687],[-60.8232,9.2707],[-60.7887,9.3104],[-60.7829,9.3354],[-60.8187,9.4065],[-60.8918,9.4768],[-60.966,9.506],[-61.0085,9.539],[-61.1015,9.5615],[-61.1888,9.599],[-61.2171,9.6046],[-61.2415,9.6354],[-61.3104,9.6882],[-61.3963,9.7685],[-61.449,9.8249],[-61.4637,9.7907],[-61.5701,9.8668],[-61.6407,9.8999],[-61.6565,9.8737],[-61.6071,9.8343],[-61.6282,9.8043],[-61.669,9.7949],[-61.7749,9.8296],[-61.814,9.8307],[-61.8251,9.7996],[-61.864,9.8074],[-61.9171,9.8732],[-62.0363,9.9651],[-62.1043,9.9954],[-62.1963,10.021],[-62.2979,9.9365],[-62.3143,9.9499],[-62.3674,9.8837],[-62.4212,9.9321],[-62.4157,9.9679],[-62.4257,9.9804],[-62.4337,10.0063],[-62.4349,10.0282],[-62.461,10.0596],[-62.4843,10.1451],[-62.5046,10.1832],[-62.5393,10.2124],[-62.5943,10.2335],[-62.6688,10.2343],[-62.679,10.296],[-62.6499,10.3315],[-62.6595,10.3596],[-62.6921,10.3896],[-62.7779,10.5013],[-62.8354,10.4999],[-62.8299,10.5357],[-62.7696,10.5621],[-62.6899,10.5604],[-62.6579,10.5779],[-62.5782,10.5657],[-62.5276,10.5435],[-62.4674,10.5526],[-62.4299,10.5346],[-62.3915,10.5546],[-62.3599,10.5324],[-62.3221,10.5388],[-62.2493,10.6351],[-62.1568,10.6385],[-62.0887,10.6304],[-62.0226,10.6446],[-61.9732,10.6418],[-61.8932,10.6726],[-61.8765,10.7296],[-61.9399,10.7146],[-62.006,10.7082],[-62.0515,10.7171],[-62.0707,10.7004],[-62.1074,10.7085],[-62.1857,10.686],[-62.3107,10.7071],[-62.4996,10.726],[-62.5926,10.7415],[-62.674,10.7424],[-62.7124,10.766],[-62.7574,10.7376],[-62.9032,10.6921],[-62.9643,10.6996],[-63.0007,10.7196],[-63.0526,10.7179],[-63.1193,10.7004],[-63.1618,10.7143],[-63.2732,10.6763],[-63.324,10.6804],[-63.3396,10.6685],[-63.3854,10.686],[-63.4449,10.6546],[-63.4649,10.6624],[-63.4985,10.6343],[-63.5321,10.6271],[-63.6832,10.6412],[-63.7121,10.6571],[-63.7621,10.6588],[-63.8101,10.7065],[-63.8335,10.6468],[-63.9162,10.6251],[-64.0413,10.6338],[-64.0607,10.6499],[-64.1207,10.619],[-64.1549,10.619],[-64.1907,10.6401],[-64.2465,10.6443],[-64.259,10.6646],[-64.2951,10.6368],[-64.2832,10.5993],[-64.2585,10.5721],[-64.2632,10.5446],[-64.241,10.5121],[-64.2185,10.5165],[-64.2071,10.5524],[-64.1276,10.5793],[-64.1176,10.5649],[-64.0482,10.5774],[-63.9721,10.5804],[-63.9118,10.5543],[-63.8182,10.5501],[-63.7679,10.5254],[-63.7043,10.4801],[-63.8004,10.441],[-63.8332,10.4399],[-63.9576,10.4532],[-63.9718,10.4451],[-64.0568,10.4407],[-64.1271,10.4757],[-64.1924,10.4757],[-64.196,10.4426],[-64.2343,10.4132],[-64.3063,10.4104],[-64.3451,10.381],[-64.3768,10.3932],[-64.3924,10.3751],[-64.3654,10.3021],[-64.4443,10.2768],[-64.4832,10.2424],[-64.5488,10.2504],[-64.5779,10.2379],[-64.5974,10.2571],[-64.6443,10.2154],[-64.7024,10.2043],[-64.7001,10.1765],[-64.7174,10.1287],[-64.7665,10.0974],[-64.8443,10.0835],[-64.9563,10.096],[-65.0626,10.0529],[-65.1499,10.0393],[-65.1815,10.0638],[-65.1774,10.0918],[-65.2374,10.1062],[-65.3321,10.1185],[-65.4449,10.1435],[-65.5735,10.1804],[-65.716,10.2312],[-65.8054,10.2693],[-65.8729,10.3043],[-65.9582,10.364],[-65.9882,10.3954],[-66.071,10.4507],[-66.1043,10.4907],[-66.116,10.5238],[-66.0462,10.5676],[-66.174,10.609],[-66.2363,10.6493],[-66.3032,10.6379],[-66.3485,10.6068],[-66.411,10.6313],[-66.4949,10.6321],[-66.7215,10.6199],[-66.7874,10.6121],[-66.8412,10.6215],[-66.9076,10.6021],[-66.9599,10.6004],[-67.0163,10.6154],[-67.0529,10.5935],[-67.1407,10.5701],[-67.3099,10.5404],[-67.4587,10.5312],[-67.4701,10.5374],[-67.604,10.5124],[-67.6624,10.4968],[-67.711,10.504],[-67.7365,10.4929],[-67.8763,10.4776],[-67.9201,10.4546],[-67.951,10.4621],[-67.9737,10.4868],[-68.0232,10.4743],[-68.0604,10.4982],[-68.106,10.4807],[-68.1651,10.501],[-68.2071,10.5421],[-68.2757,10.6376],[-68.3215,10.7529],[-68.3304,10.8332],[-68.2829,10.8579]]],[[[-60.6374,8.6835],[-60.6615,8.6768],[-60.6643,8.6415],[-60.5968,8.6385],[-60.574,8.664],[-60.6374,8.6835]]],[[[-60.7835,8.9854],[-60.8174,8.9546],[-60.8207,8.9232],[-60.7737,8.9251],[-60.7707,8.9685],[-60.7835,8.9854]]],[[[-60.7079,9.1599],[-60.7454,9.1179],[-60.746,9.0829],[-60.7165,9.0785],[-60.6849,9.1057],[-60.6815,9.1296],[-60.7079,9.1599]]],[[[-60.769,9.1718],[-60.7879,9.1657],[-60.8107,9.1263],[-60.774,9.1138],[-60.7529,9.1399],[-60.769,9.1718]]],[[[-60.7696,9.2335],[-60.8401,9.201],[-60.8554,9.1268],[-60.8104,9.1351],[-60.789,9.1707],[-60.7313,9.1824],[-60.7696,9.2335]]],[[[-62.4313,10.0512],[-62.4301,10.0024],[-62.4124,9.9649],[-62.3724,9.976],[-62.4179,10.044],[-62.4313,10.0512]]],[[[-62.2501,10.0579],[-62.2915,10.0329],[-62.3057,9.9613],[-62.2701,9.9796],[-62.2282,10.0193],[-62.2501,10.0579]]],[[[-65.3063,10.9854],[-65.3671,10.9757],[-65.3935,10.9582],[-65.4035,10.9249],[-65.3096,10.891],[-65.2685,10.891],[-65.1982,10.9065],[-65.2279,10.9518],[-65.2499,10.9535],[-65.3063,10.9854]]],[[[-63.9901,10.8157],[-63.9771,10.7704],[-63.9182,10.7362],[-63.8887,10.7543],[-63.9051,10.7907],[-63.9901,10.8157]]],[[[-64.1829,10.8312],[-64.2115,10.8312],[-64.2151,10.799],[-64.1513,10.806],[-64.1829,10.8312]]],[[[-63.8063,10.9807],[-63.7843,11.0093],[-63.8218,11.0671],[-63.8488,11.1326],[-63.8932,11.1565],[-63.9235,11.1262],[-63.9776,11.111],[-63.9721,11.0818],[-64.0115,11.0688],[-64.0212,11.0007],[-64.0585,10.9826],[-64.1274,10.9932],[-64.206,11.0515],[-64.2162,11.0863],[-64.2476,11.0676],[-64.296,11.069],[-64.3451,11.049],[-64.4057,10.9824],[-64.3968,10.9707],[-64.2076,10.934],[-64.1696,10.9651],[-64.1354,10.946],[-64.1087,10.901],[-64.0754,10.8982],[-64.049,10.866],[-64.0143,10.8721],[-63.9899,10.8932],[-63.8874,10.8904],[-63.8846,10.9335],[-63.8307,10.9585],[-63.8063,10.9807]]],[[[-64.6171,11.8979],[-64.6493,11.8479],[-64.6399,11.8221],[-64.5687,11.8096],[-64.5579,11.8401],[-64.5693,11.8732],[-64.6171,11.8979]]],[[[-66.1093,11.8229],[-66.1982,11.8024],[-66.1465,11.7688],[-66.1212,11.7688],[-66.0993,11.8015],[-66.1093,11.8229]]]]},"properties":{"GID_0":"VEN","ISO_A2":"VE","ISO_A3":"VEN","NAME_EN":"Venezuela","NAME_IT":"Venezuela"}}
]}