{"type":"FeatureCollection", "features": [
{"type":"Feature","geometry":{"type":"MultiPolygon","coordinates":[[[[172.1372,5.9358],[172.1312,5.9366],[172.1323,5.9271],[172.1398,5.9138],[172.1419,5.9162],[172.1384,5.9252],[172.1372,5.9358]]],[[[171.9536,6.0352],[171.961,6.0315],[171.9743,6.0384],[171.9941,6.0399],[172.0189,6.0331],[172.0197,6.0356],[171.9936,6.0426],[171.9691,6.0391],[171.9606,6.0345],[171.9536,6.0352]]],[[[171.7525,6.0764],[171.7448,6.0781],[171.738,6.0863],[171.7345,6.0945],[171.7285,6.0911],[171.7245,6.0808],[171.7269,6.0772],[171.7525,6.0764]]],[[[171.8275,6.2386],[171.8151,6.2372],[171.8108,6.2298],[171.8275,6.2386]]],[[[171.5678,7.0481],[171.5586,7.0583],[171.5539,7.07],[171.545,7.0644],[171.5528,7.0553],[171.5578,7.0536],[171.5703,7.0439],[171.58,7.0267],[171.5825,7.0175],[171.5889,7.0072],[171.6001,6.9987],[171.6099,6.9934],[171.621,6.9925],[171.631,6.9963],[171.6431,6.9972],[171.6505,7.0042],[171.6674,7.0044],[171.6744,7],[171.679,6.9908],[171.6823,6.9935],[171.672,7.0044],[171.6666,7.0067],[171.6488,7.0053],[171.6415,6.9992],[171.6325,6.9986],[171.6222,6.9948],[171.6076,6.9962],[171.5925,7.0067],[171.577,7.0361],[171.5678,7.0481]]],[[[171.9297,7.1256],[171.9308,7.1153],[171.9244,7.1078],[171.922,7.1017],[171.9144,7.0967],[171.9078,7.0894],[171.8956,7.0919],[171.8819,7.0844],[171.8733,7.09],[171.8581,7.0769],[171.8453,7.0731],[171.8464,7.0703],[171.8586,7.0736],[171.865,7.0811],[171.8711,7.085],[171.8822,7.0822],[171.8995,7.0904],[171.9078,7.085],[171.9158,7.0961],[171.9242,7.1008],[171.9261,7.1072],[171.9336,7.1144],[171.9353,7.1219],[171.9297,7.1256]]],[[[171.2053,7.0625],[171.1437,7.0867],[171.1061,7.0999],[171.0965,7.1019],[171.0645,7.1146],[171.0511,7.1242],[171.0422,7.1371],[171.0384,7.1496],[171.0397,7.1637],[171.0278,7.1487],[171.0278,7.1444],[171.0416,7.1342],[171.051,7.1217],[171.0638,7.1134],[171.0958,7.1006],[171.1055,7.0986],[171.1158,7.0938],[171.1485,7.0834],[171.1686,7.0752],[171.1888,7.0648],[171.1987,7.0629],[171.2286,7.0522],[171.2483,7.055],[171.2569,7.0597],[171.2861,7.0672],[171.2975,7.0672],[171.327,7.0739],[171.3361,7.0792],[171.3769,7.0844],[171.3844,7.0917],[171.3789,7.1039],[171.37,7.1122],[171.3625,7.1267],[171.3447,7.1261],[171.3633,7.1197],[171.3667,7.1119],[171.3786,7.0983],[171.3772,7.0886],[171.3614,7.085],[171.3317,7.08],[171.3022,7.0706],[171.2828,7.0697],[171.2389,7.0553],[171.2297,7.0542],[171.2119,7.0617],[171.2053,7.0625]]],[[[171.6405,7.235],[171.6452,7.2493],[171.6375,7.2494],[171.6357,7.2244],[171.6405,7.235]]],[[[171.174,8.1549],[171.1677,8.1497],[171.17,8.1443],[171.1789,8.1365],[171.174,8.1549]]],[[[169.715,6.0222],[169.7206,6.0103],[169.7244,6.0148],[169.715,6.0222]]],[[[169.3176,9.8261],[169.3064,9.8297],[169.3047,9.8219],[169.3176,9.8261]]],[[[171.1632,8.3125],[171.155,8.3102],[171.1606,8.3002],[171.1676,8.3085],[171.1632,8.3125]]],[[[171.1881,8.5003],[171.1854,8.4925],[171.1894,8.4909],[171.1951,8.4986],[171.1881,8.5003]]],[[[171.0455,8.3593],[171.0471,8.3625],[171.0383,8.3684],[171.041,8.3571],[171.0455,8.3593]]],[[[171.2365,8.7091],[171.2309,8.7125],[171.2241,8.7096],[171.2257,8.6983],[171.2368,8.7042],[171.2365,8.7091]]],[[[170.8531,8.8994],[170.8503,8.9028],[170.8394,8.9031],[170.8335,8.8893],[170.8333,8.884],[170.8397,8.8828],[170.8458,8.8944],[170.8531,8.8994]]],[[[170.2325,9.4669],[170.2286,9.4644],[170.235,9.4556],[170.2361,9.4456],[170.2403,9.4447],[170.2447,9.4581],[170.2408,9.4656],[170.2325,9.4669]]],[[[168.7717,4.6133],[168.7646,4.606],[168.7586,4.6036],[168.7431,4.5925],[168.7369,4.5858],[168.7261,4.58],[168.7078,4.5758],[168.7008,4.5794],[168.6911,4.5903],[168.6872,4.5836],[168.6936,4.5756],[168.7069,4.5725],[168.7253,4.5775],[168.7372,4.5839],[168.7505,4.5965],[168.7611,4.6009],[168.7717,4.6133]]],[[[168.7571,7.2818],[168.7553,7.2781],[168.7756,7.2778],[168.7872,7.28],[168.7944,7.2758],[168.8081,7.2769],[168.8225,7.2722],[168.8225,7.2803],[168.7997,7.2781],[168.7842,7.2814],[168.7714,7.2797],[168.7571,7.2818]]],[[[169.5653,6.1212],[169.5562,6.1355],[169.5534,6.1339],[169.5606,6.1234],[169.5653,6.1212]]],[[[168.6539,4.635],[168.6525,4.6447],[168.6444,4.6389],[168.6453,4.6358],[168.6567,4.6244],[168.6589,4.6267],[168.6539,4.635]]],[[[168.1333,5.6283],[168.1356,5.6349],[168.1219,5.6336],[168.13,5.6278],[168.1255,5.6175],[168.1245,5.6061],[168.1197,5.5933],[168.1072,5.5961],[168.1031,5.6017],[168.0994,5.5944],[168.1116,5.5905],[168.1225,5.5928],[168.1272,5.6058],[168.1292,5.6183],[168.1333,5.6283]]],[[[168.1026,5.6368],[168.0878,5.6408],[168.0903,5.6347],[168.0969,5.6292],[168.1026,5.6368]]],[[[168.5547,7.4511],[168.5522,7.4553],[168.5458,7.4447],[168.5462,7.4337],[168.5511,7.4192],[168.5567,7.3928],[168.5592,7.3914],[168.5514,7.4258],[168.5508,7.4431],[168.5547,7.4511]]],[[[168.7594,7.5092],[168.7511,7.5092],[168.7519,7.4992],[168.7594,7.5092]]],[[[168.9442,7.6006],[168.9367,7.6017],[168.9358,7.5944],[168.9442,7.5975],[168.9603,7.5933],[168.9695,7.5833],[168.9692,7.5789],[168.9542,7.5556],[168.9553,7.5539],[168.9703,7.5778],[168.9711,7.5908],[168.9675,7.5947],[168.9553,7.5989],[168.9442,7.6006]]],[[[167.38,8.3172],[167.3761,8.3108],[167.3842,8.3072],[167.3853,8.3161],[167.38,8.3172]]],[[[167.7411,8.7347],[167.7314,8.7236],[167.7253,8.7219],[167.7144,8.7278],[167.7178,8.7183],[167.7289,8.7164],[167.7385,8.7186],[167.7428,8.7258],[167.7411,8.7347]]],[[[167.9842,8.1869],[167.9847,8.1894],[167.9692,8.2044],[167.9756,8.1903],[167.9842,8.1869]]],[[[167.3807,9.1189],[167.3806,9.1216],[167.3649,9.1202],[167.3571,9.1169],[167.3472,9.1086],[167.3421,9.1069],[167.3295,9.1099],[167.3291,9.1062],[167.3425,9.104],[167.3613,9.1155],[167.3707,9.1183],[167.3807,9.1189]]],[[[166.8283,9.33],[166.8233,9.3325],[166.8204,9.3255],[166.8333,9.3206],[166.8283,9.33]]],[[[166.2689,8.9306],[166.2669,8.9214],[166.275,8.9236],[166.2689,8.9306]]],[[[167.3003,9.1003],[167.302,9.1021],[167.3206,9.107],[167.3187,9.1096],[167.3092,9.1072],[167.2942,9.0994],[167.2852,9.097],[167.2738,9.0987],[167.2774,9.0937],[167.2815,9.0934],[167.2966,9.097],[167.3003,9.1003]]],[[[167.2145,9.1292],[167.209,9.1382],[167.2059,9.1348],[167.2145,9.1292]]],[[[166.0267,10.0153],[166.0284,10.0264],[166.0194,10.0239],[166.0267,10.0153]]],[[[166.0114,10.1719],[166.0076,10.1781],[166.0014,10.1772],[165.9981,10.1708],[166.01,10.1636],[166.0147,10.1539],[166.0181,10.1594],[166.0157,10.1763],[166.0114,10.1719]]],[[[162.3317,11.34],[162.3361,11.3475],[162.3217,11.3431],[162.3222,11.335],[162.3317,11.34]]],[[[170.1542,9.5542],[170.1478,9.556],[170.1472,9.5494],[170.1547,9.5475],[170.1542,9.5542]]],[[[169.9875,10.2317],[169.9815,10.232],[169.9814,10.2233],[169.9767,10.2208],[169.98,10.2142],[169.9864,10.2174],[169.9875,10.2317]]],[[[170.8778,10.2947],[170.8742,10.3003],[170.8656,10.2939],[170.8675,10.2847],[170.864,10.2824],[170.8625,10.273],[170.8655,10.2684],[170.8747,10.2706],[170.8728,10.2833],[170.8778,10.2947]]],[[[169.0108,10.0372],[169.0014,10.0353],[169.0114,10.0269],[169.0195,10.034],[169.0108,10.0372]]],[[[168.9967,10.0503],[168.9914,10.0533],[168.9892,10.0461],[168.9953,10.0364],[169.0053,10.0442],[168.9967,10.0503]]],[[[169.9764,10.3653],[169.9706,10.3558],[169.9775,10.3547],[169.9764,10.3653]]],[[[169.9697,10.4211],[169.9625,10.4225],[169.9631,10.4119],[169.9669,10.4119],[169.9697,10.4211]]],[[[169.9588,10.4428],[169.9638,10.443],[169.9605,10.4521],[169.9555,10.4495],[169.9588,10.4428]]],[[[169.9486,10.4694],[169.9444,10.4706],[169.9411,10.4633],[169.9492,10.4608],[169.9486,10.4694]]],[[[169.7669,11.2061],[169.76,11.2131],[169.7558,11.2092],[169.7647,11.2039],[169.7669,11.2061]]],[[[169.8522,11.2306],[169.8464,11.235],[169.8433,11.2233],[169.8547,11.2211],[169.86,11.2258],[169.8581,11.2306],[169.8522,11.2306]]],[[[165.5667,11.5356],[165.5636,11.5233],[165.56,11.5189],[165.5628,11.5136],[165.5708,11.5264],[165.5667,11.5356]]],[[[162.3122,11.6222],[162.313,11.6186],[162.3256,11.6097],[162.3289,11.6153],[162.3225,11.6186],[162.3183,11.625],[162.3122,11.6222]]],[[[165.5339,11.6361],[165.5506,11.6194],[165.5575,11.6178],[165.5522,11.6286],[165.5478,11.6333],[165.5339,11.6361]]],[[[162.2444,11.6667],[162.2317,11.6647],[162.2432,11.6553],[162.2444,11.6667]]],[[[165.2892,11.6989],[165.295,11.6997],[165.2947,11.7072],[165.2867,11.7028],[165.2892,11.6989]]],[[[167.4755,9.4006],[167.4677,9.4031],[167.4648,9.3911],[167.4739,9.3923],[167.4864,9.3916],[167.4833,9.3989],[167.4755,9.4006]]],[[[167.5194,11.3819],[167.5106,11.3833],[167.5119,11.375],[167.5175,11.3756],[167.5194,11.3819]]],[[[169.0065,14.6116],[169.0158,14.6253],[169.0114,14.6319],[169.0069,14.6181],[169.0011,14.6117],[168.9626,14.5878],[168.97,14.5888],[168.9778,14.5944],[168.9974,14.6043],[169.0065,14.6116]]],[[[169.0106,14.6472],[169.0153,14.6473],[169.0171,14.661],[169.0108,14.6617],[169.0089,14.6563],[169.0106,14.6472]]]]},"properties":{"GID_0":"MHL","ISO_A2":"MH","ISO_A3":"MHL","NAME_EN":"Marshall Is.","NAME_IT":"Isole Marshall"}}
]}