{"type":"FeatureCollection", "features": [
{"type":"Feature","geometry":{"type":"Polygon","coordinates":[[[1.786445079552151,6.33282916912198],[1.786457586837294,6.332808226691042],[1.7972,6.2789],[1.9746,6.3024],[2.1288,6.3299],[2.4737,6.3604],[2.6182,6.3629],[2.7093,6.3754],[2.7063,6.4256],[2.7293,6.5344],[2.7531,6.5705],[2.7314,6.6308],[2.7866,6.6948],[2.7897,6.7389],[2.7326,6.7792],[2.7492,6.8393],[2.7479,6.9283],[2.7206,6.9865],[2.7926,7.0413],[2.7507,7.1058],[2.7849,7.1592],[2.7743,7.2344],[2.7495,7.2612],[2.7476,7.4174],[2.7992,7.4265],[2.7982,7.4826],[2.7548,7.5213],[2.7303,7.5802],[2.7301,7.7048],[2.7324,7.7722],[2.6758,7.8932],[2.6955,7.9308],[2.7299,8.1283],[2.7541,8.2113],[2.733795553759093,8.235203476151982],[2.7209,8.2464],[2.733795039224733,8.23520430702969],[2.6982,8.3072],[2.7069,8.4203],[2.7345,8.4366],[2.7619,8.5225],[2.75,8.5779],[2.7504,8.7003],[2.7327,8.7812],[2.7581,8.8301],[2.7888,8.9703],[2.7809,9.0651],[2.8792,9.0647],[2.9564,9.0924],[2.9841,9.0723],[3.0835,9.0979],[3.1237,9.1922],[3.1222,9.2384],[3.1543,9.2952],[3.151627131782946,9.333574418604652],[3.1515,9.3352],[3.151625984251968,9.333625196850395],[3.1518,9.3757],[3.1334,9.4261],[3.1548,9.4931],[3.1948,9.5151],[3.2716,9.659],[3.3486,9.6854],[3.3295,9.7984],[3.3566,9.8257],[3.4564,9.8612],[3.5387,9.8688],[3.5958,9.9457],[3.6116,10.0624],[3.6628,10.1069],[3.679,10.1698],[3.5977,10.2418],[3.5842,10.2784],[3.6461,10.4351],[3.6877,10.4564],[3.786,10.4054],[3.801,10.4853],[3.8517,10.6058],[3.841,10.7049],[3.7975,10.7352],[3.7522,10.8159],[3.7691,10.8981],[3.7595,10.9972],[3.7169,11.0243],[3.7275,11.1177],[3.6919,11.1282],[3.496,11.2921],[3.566,11.617],[3.6051,11.697],[3.5484,11.7438],[3.5586,11.7766],[3.4867,11.8569],[3.3709,11.891],[3.3076,11.8877],[3.2486,11.9942],[3.2618,12.0162],[3.1278,12.1544],[3.0822,12.1767],[3.0136,12.2664],[2.9585,12.2945],[2.8725,12.3878],[2.7946,12.4184],[2.6634,12.3061],[2.5361,12.2746],[2.4383,12.2628],[2.3855,12.2355],[2.3998,12.1427],[2.4637,12.0238],[2.4684,11.9946],[2.3918,11.9308],[2.4114,11.9063],[2.3792,11.8541],[2.3724,11.7931],[2.3404,11.7854],[2.2992,11.7208],[2.3057,11.6744],[2.1854,11.5972],[2.0192,11.4277],[1.9563,11.4202],[1.8727,11.4458],[1.7736,11.4193],[1.7141,11.4291],[1.6631,11.3964],[1.5997,11.3947],[1.5789,11.4435],[1.4431,11.4722],[1.3844,11.4422],[1.3883,11.3995],[1.318,11.3591],[1.3409,11.3113],[1.2904,11.2932],[1.2739,11.2599],[1.1595,11.2612],[1.1505,11.1756],[1.1183,11.1716],[1.0866,11.1133],[1.0996,11.0566],[1.0298,11.0527],[1.0092,11.0857],[0.9216,11.0175],[0.8902,10.9202],[0.9008,10.8869],[0.8737,10.8064],[0.8127,10.6914],[0.8065,10.5812],[0.7835,10.5126],[0.7743,10.3851],[1,10.22],[1.3641,10.0121],[1.3666,9.6115],[1.3425,9.5458],[1.4003,9.4443],[1.4031,9.355],[1.4214,9.3069],[1.5263,9.1904],[1.5594,9.1699],[1.6177,9.0716],[1.6327,8.8603],[1.6327,8.5923],[1.6492,8.4908],[1.6253,8.3516],[1.6413,8.3004],[1.6296,7.8266],[1.6309,7.6766],[1.6508,7.6134],[1.6357,7.4166],[1.6416,6.994],[1.5576,6.998],[1.5767,6.9221],[1.6052,6.906],[1.603295177956372,6.827573938002296],[1.603298601398601,6.82756993006993],[1.6083,6.7704],[1.5902,6.6842],[1.6124,6.6109],[1.6963,6.5534],[1.7024,6.513],[1.7508,6.4641],[1.786445079552151,6.33282916912198]]]},"properties":{"GID_0":"BEN","ISO_A2":"BJ","ISO_A3":"BEN","NAME_EN":"Benin","NAME_IT":"Benin"}}
]}