{"type":"FeatureCollection", "features": [
{"type":"Feature","geometry":{"type":"MultiPolygon","coordinates":[[[[9.2846,41.4785],[9.276,41.5046],[9.2951,41.5388],[9.3315,41.5601],[9.3676,41.5893],[9.3196,41.6051],[9.3551,41.6432],[9.3868,41.6604],[9.3724,41.6793],[9.4082,41.7137],[9.4085,41.7665],[9.3985,41.7779],[9.4065,41.8268],[9.3968,41.8754],[9.416,41.931],[9.4126,41.9538],[9.4563,42.0004],[9.5279,42.084],[9.549,42.1032],[9.5549,42.1243],[9.5562,42.2157],[9.5521,42.2321],[9.5604,42.2826],[9.5393,42.3368],[9.5324,42.3838],[9.5432,42.4268],[9.5418,42.459],[9.5293,42.4912],[9.5346,42.5215],[9.5274,42.5654],[9.4754,42.6229],[9.4465,42.6693],[9.456,42.7207],[9.4718,42.7699],[9.4932,42.8074],[9.4724,42.9243],[9.4576,42.9496],[9.4432,43.0001],[9.3835,43.0101],[9.3432,43.0004],[9.3457,42.9582],[9.3576,42.9407],[9.3543,42.9162],[9.329,42.9043],[9.3385,42.8679],[9.3096,42.8332],[9.3426,42.7971],[9.3451,42.7351],[9.3221,42.7165],[9.3224,42.6965],[9.2882,42.6743],[9.2607,42.6999],[9.2568,42.7188],[9.1999,42.7251],[9.1676,42.7371],[9.1235,42.7326],[9.0807,42.7012],[9.0568,42.6929],[9.0601,42.6613],[9.0087,42.6399],[8.8796,42.6293],[8.869,42.6079],[8.8099,42.6051],[8.8051,42.5721],[8.7693,42.5557],[8.7276,42.5618],[8.7099,42.5363],[8.7196,42.5254],[8.6646,42.5126],[8.6765,42.4762],[8.6615,42.4251],[8.6079,42.4176],[8.6082,42.3932],[8.5724,42.3718],[8.5476,42.3657],[8.5624,42.3321],[8.6012,42.3529],[8.6274,42.3318],[8.6043,42.324],[8.6396,42.299],[8.6704,42.296],[8.6882,42.2635],[8.5793,42.2454],[8.5682,42.2135],[8.5818,42.2068],[8.5737,42.1521],[8.6474,42.121],[8.6582,42.1007],[8.7004,42.1129],[8.7107,42.0871],[8.7426,42.0412],[8.6857,42.0276],[8.6554,42.0101],[8.6685,41.9826],[8.6424,41.9676],[8.5943,41.966],[8.6099,41.939],[8.6093,41.9071],[8.6726,41.9043],[8.7185,41.9074],[8.7832,41.9254],[8.8026,41.8904],[8.7807,41.8732],[8.7915,41.856],[8.7715,41.8349],[8.7743,41.8124],[8.7476,41.8112],[8.7129,41.7607],[8.7093,41.7218],[8.7638,41.7396],[8.7724,41.7107],[8.8124,41.7146],[8.8432,41.6965],[8.9146,41.691],[8.8826,41.6718],[8.8721,41.6463],[8.8512,41.6482],[8.8204,41.6296],[8.8029,41.6335],[8.7818,41.584],[8.7874,41.5568],[8.8324,41.5482],[8.8846,41.5171],[8.9115,41.5088],[8.9265,41.489],[8.9604,41.4918],[8.9924,41.4824],[9.0276,41.4626],[9.091,41.4457],[9.1054,41.4285],[9.0918,41.4043],[9.1696,41.3838],[9.1799,41.3654],[9.221,41.3662],[9.264,41.4224],[9.226,41.4171],[9.2215,41.4399],[9.2435,41.4465],[9.2846,41.4785]]],[[[-1.4807,46.2012],[-1.4618,46.2024],[-1.3704,46.1671],[-1.3532,46.154],[-1.311,46.141],[-1.2782,46.1435],[-1.2932,46.1882],[-1.3179,46.1865],[-1.3635,46.2065],[-1.4276,46.2057],[-1.4146,46.2315],[-1.4632,46.2276],[-1.4813,46.2482],[-1.5135,46.2596],[-1.5596,46.2313],[-1.536,46.2012],[-1.5026,46.1926],[-1.4807,46.2012]]],[[[-2.3718,46.7354],[-2.3993,46.7157],[-2.3651,46.6946],[-2.3276,46.686],[-2.2937,46.7032],[-2.3199,46.7199],[-2.3718,46.7354]]],[[[-2.2004,46.9529],[-2.1774,46.9315],[-2.1571,46.9507],[-2.2329,46.9774],[-2.2176,47.0079],[-2.2521,47.0288],[-2.2907,47.0113],[-2.3035,46.9926],[-2.2629,46.959],[-2.2182,46.9635],[-2.2004,46.9529]]],[[[-3.1126,47.3246],[-3.1463,47.3335],[-3.1554,47.3626],[-3.1921,47.3651],[-3.219,47.3796],[-3.2635,47.3715],[-3.2451,47.3082],[-3.2199,47.2935],[-3.1735,47.3012],[-3.1371,47.2871],[-3.0746,47.2865],[-3.0665,47.3168],[-3.1126,47.3246]]],[[[6.5085,43.051],[6.4732,43.049],[6.4326,43.0085],[6.471,43.016],[6.4857,43.0396],[6.5085,43.051]]],[[[-1.3074,45.9012],[-1.2629,45.8729],[-1.2446,45.8096],[-1.2279,45.8063],[-1.1957,45.8282],[-1.2071,45.8493],[-1.1876,45.886],[-1.2279,45.9185],[-1.2265,45.9412],[-1.2424,45.9565],[-1.236,45.9849],[-1.2879,45.9874],[-1.321,45.9971],[-1.3679,46.0385],[-1.4137,46.0493],[-1.3879,45.9999],[-1.3971,45.9776],[-1.3887,45.954],[-1.3526,45.9243],[-1.3074,45.9012]]],[[[-5.0704,48.4826],[-5.0996,48.456],[-5.0874,48.4443],[-5.0499,48.4588],[-5.0704,48.4826]]],[[[-3.4904,47.6526],[-3.4865,47.6282],[-3.4207,47.6224],[-3.4357,47.6451],[-3.4904,47.6526]]],[[[-3.647842084942087,48.66766274131274],[-3.6563,48.6974],[-3.6843,48.6885],[-3.7229,48.7074],[-3.7646,48.7101],[-3.7846,48.7024],[-3.8213,48.7132],[-3.8507,48.6957],[-3.8465,48.6726],[-3.8585,48.6501],[-3.8971,48.6457],[-3.9032,48.6646],[-3.9524,48.6507],[-3.9687,48.6754],[-3.9793,48.7224],[-4.0363,48.7124],[-4.0629,48.6882],[-4.1149,48.6968],[-4.1904,48.6843],[-4.2276,48.6551],[-4.276,48.6504],[-4.324,48.6771],[-4.3504,48.6765],[-4.396,48.6557],[-4.439,48.6529],[-4.4635,48.6274],[-4.5224,48.6368],[-4.5615,48.6301],[-4.5754,48.6113],[-4.6071,48.6057],[-4.6129,48.5732],[-4.6993,48.571],[-4.7657,48.5318],[-4.781,48.4957],[-4.7651,48.4676],[-4.7843,48.4457],[-4.7918,48.4185],[-4.7626,48.3787],[-4.7818,48.3535],[-4.7724,48.3288],[-4.7085,48.3301],[-4.6804,48.3557],[-4.6082,48.3376],[-4.5382,48.3571],[-4.4801,48.3829],[-4.436,48.3826],[-4.4179,48.369],[-4.4451,48.3499],[-4.4174,48.324],[-4.3762,48.3254],[-4.366,48.3446],[-4.3212,48.3349],[-4.3279,48.3151],[-4.2615,48.3082],[-4.2282,48.2918],[-4.2649,48.2793],[-4.2707,48.296],[-4.309,48.2974],[-4.3646,48.2788],[-4.4093,48.276],[-4.4265,48.291],[-4.464,48.294],[-4.496,48.2815],[-4.5151,48.2946],[-4.5549,48.2971],[-4.5451,48.3251],[-4.5793,48.3251],[-4.5682,48.2846],[-4.6212,48.2626],[-4.5618,48.236],[-4.5504,48.194],[-4.5185,48.1913],[-4.4907,48.2357],[-4.4482,48.2354],[-4.3701,48.2049],[-4.3168,48.2038],[-4.2746,48.1557],[-4.2701,48.1338],[-4.3049,48.0893],[-4.3629,48.1099],[-4.4176,48.1074],[-4.4332,48.0968],[-4.4771,48.0974],[-4.5365,48.0901],[-4.5471,48.0776],[-4.5901,48.0807],[-4.6724,48.0618],[-4.7162,48.0654],[-4.6982,48.0251],[-4.664,48.026],[-4.5982,48.0149],[-4.5807,48.0032],[-4.5374,48.0115],[-4.4518,47.9815],[-4.3871,47.926],[-4.3629,47.8893],[-4.3463,47.8346],[-4.3912,47.8093],[-4.3682,47.7932],[-4.3112,47.8007],[-4.266,47.7899],[-4.2112,47.7999],[-4.1846,47.7982],[-4.164,47.8135],[-4.1649,47.8482],[-4.1121,47.8721],[-4.0682,47.8626],[-4.0426,47.8471],[-3.9768,47.8521],[-3.989,47.8826],[-3.9585,47.8965],[-3.9076,47.864],[-3.9035,47.8338],[-3.8849,47.8271],[-3.8429,47.7926],[-3.8185,47.796],[-3.7601,47.7899],[-3.7326,47.8024],[-3.6785,47.7751],[-3.646,47.7738],[-3.5224,47.7574],[-3.501,47.7304],[-3.4532,47.6954],[-3.3826,47.7018],[-3.376,47.7215],[-3.3426,47.7088],[-3.2874,47.6993],[-3.2815,47.6865],[-3.2149,47.644],[-3.1974,47.6243],[-3.1601,47.6074],[-3.1399,47.579],[-3.1357,47.5443],[-3.1529,47.5274],[-3.1457,47.4885],[-3.1199,47.501],[-3.1335,47.5446],[-3.1246,47.5668],[-3.0985,47.5662],[-3.0438,47.5782],[-3.0054,47.5665],[-2.9812,47.5782],[-2.9629,47.5579],[-2.936,47.5618],[-2.9629,47.5896],[-2.9057,47.5907],[-2.8743,47.5982],[-2.8543,47.6188],[-2.7821,47.6207],[-2.709,47.5921],[-2.7507,47.5382],[-2.7765,47.539],[-2.8079,47.556],[-2.8387,47.5438],[-2.8785,47.5568],[-2.9099,47.5568],[-2.8471,47.5118],[-2.8504,47.4982],[-2.8163,47.4854],[-2.7396,47.4996],[-2.6876,47.4982],[-2.6618,47.5171],[-2.5529,47.5137],[-2.5174,47.5276],[-2.4446,47.4996],[-2.489,47.4726],[-2.4957,47.449],[-2.446,47.4385],[-2.4493,47.4118],[-2.489,47.411],[-2.559,47.3743],[-2.5269,47.3626],[-2.4924,47.3126],[-2.4743,47.3257],[-2.4196,47.2979],[-2.436,47.2785],[-2.4935,47.2829],[-2.524,47.3032],[-2.5499,47.2929],[-2.4504,47.2612],[-2.4201,47.2762],[-2.3801,47.2799],[-2.2974,47.2343],[-2.2618,47.2424],[-2.2479,47.2554],[-2.1412,47.3004],[-2.0899,47.3063],[-2.041,47.3024],[-2.0563,47.2832],[-2.1337,47.2751],[-2.1715,47.264],[-2.1799,47.2318],[-2.159,47.2088],[-2.1671,47.1665],[-2.2268,47.1526],[-2.2449,47.1301],[-2.0971,47.1063],[-2.0526,47.0932],[-2.0054,47.0618],[-1.9815,47.0268],[-2.0293,47.0082],[-2.0457,46.9665],[-2.1554,46.8838],[-2.1415,46.8176],[-2.0629,46.7779],[-1.9796,46.7174],[-1.9657,46.6913],[-1.9301,46.681],[-1.8912,46.6346],[-1.8529,46.6029],[-1.8282,46.544],[-1.8132,46.4938],[-1.7788,46.4932],[-1.7585,46.4751],[-1.6254,46.4124],[-1.5132,46.4035],[-1.4871,46.3804],[-1.4676,46.3424],[-1.4024,46.3407],[-1.3704,46.346],[-1.326,46.3262],[-1.311,46.3037],[-1.2774,46.3085],[-1.2315,46.2785],[-1.2124,46.2818],[-1.1785,46.3112],[-1.134,46.3054],[-1.1232,46.2635],[-1.1729,46.2229],[-1.2007,46.2124],[-1.2304,46.1526],[-1.1718,46.1401],[-1.1004,46.0938],[-1.0901,46.0535],[-1.0604,46.0451],[-1.0526,46.0112],[-1.0607,45.9943],[-1.0968,45.9932],[-1.0712,45.9499],[-1.0801,45.9004],[-1.1224,45.8585],[-1.1632,45.8504],[-1.1365,45.8185],[-1.1882,45.7901],[-1.2143,45.7935],[-1.2446,45.7829],[-1.2393,45.7137],[-1.2146,45.6971],[-1.1593,45.6751],[-1.1151,45.6457],[-1.0718,45.6338],[-1.0421,45.6168],[-1.0179,45.6204],[-0.9954,45.5999],[-0.9704,45.5604],[-0.916,45.5504],[-0.896,45.5276],[-0.8299,45.489],[-0.7774,45.436],[-0.7418,45.3871],[-0.7021,45.2843],[-0.6885,45.2193],[-0.6701,45.1701],[-0.6687,45.1293],[-0.6374,45.0749],[-0.5851,45.0174],[-0.611,45.0168],[-0.6862,45.0832],[-0.7446,45.1982],[-0.7468,45.236],[-0.7682,45.2912],[-0.8043,45.3474],[-0.846,45.3807],[-0.9032,45.4085],[-0.9346,45.4415],[-0.9693,45.4524],[-1.0535,45.5029],[-1.0685,45.519],[-1.0379,45.5349],[-1.0888,45.5654],[-1.1013,45.5401],[-1.1313,45.5143],[-1.1526,45.4854],[-1.151,45.4424],[-1.161,45.4107],[-1.1618,45.299],[-1.1876,45.1271],[-1.2085,44.9549],[-1.2232,44.8587],[-1.2532,44.7024],[-1.2215,44.7099],[-1.1526,44.7665],[-1.046,44.7001],[-1.0501,44.6818],[-1.0193,44.6676],[-1.0307,44.6543],[-1.0679,44.6449],[-1.1385,44.6479],[-1.1432,44.6604],[-1.1918,44.661],[-1.2051,44.6143],[-1.2237,44.5796],[-1.251,44.5482],[-1.2576,44.5235],[-1.2507,44.4868],[-1.2707,44.3596],[-1.3099,44.1546],[-1.3699,43.9307],[-1.4246,43.7557],[-1.4399,43.6957],[-1.4468,43.6437],[-1.4985,43.5621],[-1.5457,43.4949],[-1.5665,43.4799],[-1.6004,43.431],[-1.629,43.4132],[-1.7426,43.3796],[-1.7885,43.3715],[-1.7863,43.35],[-1.7388,43.329],[-1.7289,43.2961],[-1.6947,43.3118],[-1.6694,43.3142],[-1.6239,43.304],[-1.6302,43.2849],[-1.608,43.2523],[-1.5669,43.2592],[-1.5617,43.2884],[-1.5059,43.2933],[-1.494,43.2824],[-1.4383,43.2667],[-1.4132,43.2734],[-1.3842,43.2532],[-1.3849,43.1883],[-1.4019,43.1785],[-1.4157,43.1285],[-1.463,43.0984],[-1.4722,43.0816],[-1.4414,43.0462],[-1.3537,43.028],[-1.3441,43.0559],[-1.3452,43.093],[-1.3196,43.1128],[-1.2705,43.1183],[-1.2995,43.0923],[-1.3085,43.0692],[-1.2475,43.0424],[-1.2124,43.0514],[-1.1811,43.0322],[-1.1133,43.0212],[-1.072,42.9979],[-1.0147,42.9928],[-0.9963,42.9749],[-0.9451,42.9535],[-0.8975,42.9558],[-0.8088,42.9515],[-0.7844,42.9643],[-0.7528,42.967],[-0.7333,42.9462],[-0.733,42.898],[-0.6984,42.879],[-0.6794,42.8829],[-0.6487,42.8551],[-0.6023,42.8301],[-0.6004,42.8025],[-0.5736,42.8074],[-0.5677,42.7809],[-0.5297,42.7915],[-0.5241,42.8113],[-0.4929,42.8167],[-0.4449,42.796],[-0.4146,42.8054],[-0.3842,42.8039],[-0.3508,42.8334],[-0.3064,42.8413],[-0.2388,42.8178],[-0.2374,42.8077],[-0.1477,42.7739],[-0.1031,42.7216],[-0.0688,42.7161],[-0.0616,42.6947],[0.0007,42.6852],[0.0153,42.7008],[0.0495,42.6957],[0.087,42.7164],[0.1071,42.71],[0.1563,42.7235],[0.176,42.7356],[0.227,42.7174],[0.2596,42.7158],[0.2635,42.6938],[0.2932,42.6762],[0.327,42.6909],[0.3277,42.7053],[0.3604,42.7237],[0.3923,42.7119],[0.3961,42.6939],[0.4353,42.6896],[0.4681,42.6949],[0.5162,42.6917],[0.5259,42.7021],[0.6646,42.6911],[0.682,42.7091],[0.6599,42.7522],[0.66,42.7984],[0.6701,42.8244],[0.6626,42.8411],[0.7082,42.8613],[0.7788,42.8361],[0.8015,42.8405],[0.8583,42.8257],[0.9258,42.7897],[0.9604,42.8052],[0.9845,42.7862],[1.0071,42.7902],[1.0441,42.7808],[1.0732,42.7824],[1.107,42.7715],[1.1292,42.7527],[1.1332,42.7283],[1.165,42.7095],[1.2293,42.7277],[1.2519,42.7148],[1.3574,42.7194],[1.3518,42.7029],[1.3879,42.6873],[1.3928,42.6674],[1.413,42.6526],[1.4209,42.6249],[1.442,42.5993],[1.4795,42.6109],[1.4789,42.6347],[1.553,42.6521],[1.6102,42.622],[1.6904,42.6223],[1.7229,42.6117],[1.7282,42.5896],[1.7842,42.5757],[1.7387,42.5655],[1.7241,42.5208],[1.7309,42.4925],[1.8052,42.4887],[1.8473,42.4683],[1.9157,42.4462],[1.9338,42.4542],[1.9644,42.3826],[1.9858,42.3622],[2.0235,42.3552],[2.0859,42.3637],[2.1164,42.3834],[2.1332,42.4143],[2.1569,42.4234],[2.207,42.4187],[2.2571,42.4385],[2.2912,42.4229],[2.3106,42.4284],[2.3608,42.4029],[2.4333,42.392],[2.4355,42.3753],[2.4669,42.3595],[2.4832,42.3399],[2.542,42.3339],[2.5552,42.3527],[2.5822,42.3571],[2.6118,42.3461],[2.66,42.3408],[2.6739,42.4045],[2.724,42.4227],[2.7519,42.4254],[2.7712,42.4122],[2.7993,42.4183],[2.8399,42.459],[2.9184,42.4562],[2.9471,42.4818],[2.9675,42.4655],[2.9868,42.4731],[3.0474,42.4568],[3.0858,42.4258],[3.1081,42.4336],[3.1741,42.4352],[3.1554,42.4779],[3.1319,42.4827],[3.131,42.5182],[3.0582,42.5367],[3.0513,42.5454],[3.0374,42.6107],[3.0338,42.6732],[3.0396,42.7246],[3.0363,42.7615],[3.0468,42.8657],[3.014,42.8279],[3.0268,42.8112],[2.9951,42.7999],[2.9732,42.806],[2.9571,42.8476],[2.989,42.8643],[3.0165,42.8946],[3.0488,42.9018],[3.061,42.9182],[3.0321,42.9388],[3.0315,42.9626],[3.0657,43.0174],[3.0104,43.0296],[3.0063,43.0571],[2.9849,43.0554],[2.9776,43.0929],[2.9882,43.119],[3.0813,43.076],[3.1485,43.141],[3.2093,43.1932],[3.2629,43.2301],[3.309,43.2546],[3.3676,43.2785],[3.4329,43.2896],[3.4676,43.2765],[3.5065,43.2726],[3.5654,43.3271],[3.6368,43.3807],[3.6615,43.3924],[3.7149,43.3982],[3.7257,43.4165],[3.799,43.4418],[3.8332,43.4749],[3.9043,43.5154],[4.0074,43.5526],[4.0643,43.5579],[4.1013,43.5551],[4.141,43.5293],[4.1135,43.5088],[4.1376,43.4815],[4.1857,43.4663],[4.234,43.459],[4.4296,43.4487],[4.4418,43.4554],[4.5146,43.4549],[4.579,43.4338],[4.5935,43.4043],[4.5563,43.3876],[4.5893,43.359],[4.6524,43.3479],[4.7532,43.3507],[4.8235,43.3363],[4.8563,43.3349],[4.8751,43.3607],[4.8457,43.3732],[4.8593,43.4024],[4.9237,43.4326],[4.9679,43.4265],[4.9776,43.4007],[5.0118,43.3624],[5.0182,43.3426],[5.0621,43.331],[5.1524,43.326],[5.179,43.331],[5.2299,43.3285],[5.2579,43.3365],[5.2937,43.3599],[5.3138,43.3607],[5.3488,43.3312],[5.3629,43.2976],[5.3451,43.2818],[5.3807,43.2549],[5.3482,43.2307],[5.3624,43.2068],[5.4035,43.2129],[5.4265,43.2026],[5.4557,43.2113],[5.4988,43.196],[5.5315,43.2124],[5.5707,43.1735],[5.6079,43.1601],[5.6232,43.1868],[5.649,43.1882],[5.6951,43.1682],[5.6949,43.1435],[5.7565,43.1312],[5.8107,43.1124],[5.8065,43.0807],[5.8296,43.0488],[5.8585,43.0476],[5.8871,43.0768],[5.9288,43.0715],[5.9246,43.1035],[5.9565,43.1079],[6.0065,43.1037],[6.0215,43.0782],[6.0876,43.0871],[6.126,43.0788],[6.1326,43.0582],[6.1201,43.0382],[6.1493,43.026],[6.1504,43.064],[6.1599,43.0876],[6.2054,43.1168],[6.2387,43.1129],[6.2765,43.121],[6.3165,43.1068],[6.3415,43.0882],[6.3676,43.1026],[6.359,43.1168],[6.3826,43.1429],[6.4624,43.1574],[6.4938,43.1499],[6.5504,43.1874],[6.6007,43.1829],[6.6229,43.1587],[6.6596,43.1963],[6.6643,43.2646],[6.6329,43.2724],[6.5921,43.2621],[6.5832,43.2776],[6.6651,43.3193],[6.6799,43.3407],[6.7165,43.3468],[6.7126,43.3668],[6.7315,43.4082],[6.761,43.4243],[6.7882,43.4079],[6.8051,43.4143],[6.8607,43.416],[6.919,43.4476],[6.9318,43.4837],[6.9546,43.5051],[6.9376,43.5143],[6.956,43.5382],[6.991,43.549],[7.0554,43.5474],[7.0963,43.571],[7.1215,43.559],[7.1337,43.5896],[7.1346,43.6287],[7.166,43.6568],[7.2129,43.6474],[7.2404,43.6876],[7.2785,43.694],[7.3196,43.6899],[7.3577,43.7212],[7.4068,43.7185],[7.4363,43.7509],[7.4893,43.7655],[7.5298,43.784],[7.4989,43.8724],[7.5613,43.8996],[7.5715,43.9453],[7.612,43.9565],[7.6527,43.976],[7.6688,43.9976],[7.6653,44.0294],[7.7016,44.043],[7.7143,44.0878],[7.6678,44.1302],[7.6842,44.1773],[7.6341,44.1763],[7.6147,44.1546],[7.5695,44.1564],[7.5069,44.1457],[7.4621,44.1274],[7.4328,44.1293],[7.3604,44.1171],[7.3452,44.146],[7.2641,44.1477],[7.2422,44.1708],[7.2195,44.1721],[7.1957,44.1977],[7.1419,44.2018],[7.0764,44.2318],[7.0377,44.2256],[7.011,44.2439],[7.0033,44.2795],[6.9684,44.299],[6.9676,44.313],[6.9395,44.3331],[6.9324,44.3544],[6.9,44.366],[6.9081,44.3797],[6.9075,44.4198],[6.9534,44.4292],[6.9175,44.471],[6.8891,44.4856],[6.8673,44.5311],[6.8895,44.5538],[6.9205,44.5587],[6.9415,44.576],[6.9615,44.6215],[6.9535,44.6536],[6.9996,44.6868],[7.0306,44.6905],[7.0769,44.6847],[7.0648,44.7118],[7.0243,44.7472],[7.0255,44.7736],[7.0091,44.793],[7.022,44.823],[7.0036,44.8398],[6.9487,44.8636],[6.912,44.8455],[6.8695,44.8539],[6.8254,44.8723],[6.8124,44.8866],[6.7623,44.9136],[6.7642,44.9665],[6.7396,45.0236],[6.6865,45.0209],[6.6707,45.0607],[6.6309,45.1089],[6.6722,45.1225],[6.6906,45.1385],[6.7459,45.1387],[6.7728,45.1543],[6.8022,45.1509],[6.8543,45.1286],[6.8965,45.1402],[6.9009,45.1643],[6.9539,45.1758],[6.9763,45.2083],[7.0512,45.2253],[7.0664,45.2113],[7.1114,45.2446],[7.1351,45.2546],[7.1319,45.2856],[7.1132,45.322],[7.1851,45.4037],[7.1789,45.4132],[7.1216,45.4375],[7.0928,45.4748],[7.057,45.4785],[7.0538,45.5],[7.0065,45.5108],[6.9919,45.5563],[6.9855,45.6204],[7.0118,45.6484],[6.9679,45.6545],[6.926,45.6525],[6.9068,45.6785],[6.8671,45.6841],[6.8243,45.7219],[6.8122,45.7605],[6.8209,45.8269],[6.8767,45.824],[6.9057,45.8432],[7.0062,45.8755],[7.0131,45.9054],[7.042,45.9248],[7.0463,45.9552],[7.0202,45.9645],[7.0107,45.9984],[6.9294,46.0672],[6.8933,46.0459],[6.8806,46.0531],[6.8983,46.0861],[6.8906,46.0966],[6.9061,46.127],[6.8205,46.1329],[6.8025,46.1414],[6.798,46.1656],[6.8194,46.185],[6.81,46.2068],[6.8691,46.2842],[6.8011,46.321],[6.7713,46.3601],[6.8061,46.38],[6.8228,46.4235],[6.7946,46.4359],[6.6867,46.4565],[6.5234,46.457],[6.4317,46.4181],[6.3384,46.4061],[6.2546,46.3628],[6.2216,46.313],[6.2442,46.3056],[6.2388,46.2753],[6.2645,46.2498],[6.2949,46.2578],[6.3092,46.2425],[6.2945,46.2249],[6.2338,46.206],[6.1861,46.1782],[6.1753,46.1583],[6.1354,46.1413],[6.057,46.1511],[6.0354,46.1362],[5.9647,46.1447],[5.9932,46.1848],[5.9637,46.197],[6.0345,46.2372],[6.1225,46.2533],[6.1024,46.2848],[6.1685,46.3675],[6.0975,46.4083],[6.064,46.4162],[6.0862,46.4431],[6.0738,46.4644],[6.0973,46.4825],[6.1208,46.5169],[6.1555,46.5456],[6.113,46.5751],[6.1377,46.5964],[6.1751,46.614],[6.2678,46.6768],[6.2705,46.6832],[6.3427,46.7108],[6.4241,46.7545],[6.4572,46.7886],[6.4345,46.8024],[6.4419,46.83],[6.4598,46.8516],[6.4645,46.8899],[6.433,46.9278],[6.4967,46.9742],[6.506,46.9661],[6.6339,46.9986],[6.6542,47.0224],[6.716,47.051],[6.6963,47.0665],[6.7405,47.107],[6.8021,47.1295],[6.853,47.1599],[6.8444,47.1721],[6.8822,47.201],[6.9551,47.2432],[6.9409,47.2866],[7.0084,47.3027],[7.0097,47.3244],[7.0439,47.327],[7.0603,47.3419],[7.0482,47.3605],[6.9993,47.3649],[6.9205,47.3556],[6.8838,47.3713],[6.94,47.4097],[6.9392,47.4337],[6.9982,47.4516],[6.9829,47.4943],[7.0244,47.5042],[7.0788,47.4891],[7.1303,47.503],[7.1689,47.4895],[7.1747,47.4427],[7.2359,47.4369],[7.2471,47.4211],[7.304,47.4383],[7.3389,47.4406],[7.3863,47.432],[7.4225,47.4478],[7.4535,47.4736],[7.5079,47.4962],[7.5235,47.517],[7.5174,47.5458],[7.5843,47.5757],[7.5914,47.6042],[7.5641,47.6349],[7.5211,47.6638],[7.5138,47.7028],[7.5404,47.7185],[7.5481,47.7395],[7.5298,47.7813],[7.5629,47.8427],[7.5556,47.8688],[7.5828,47.9014],[7.5806,47.9241],[7.622,47.9728],[7.6102,47.9987],[7.5685,48.0352],[7.577,48.1191],[7.6005,48.1407],[7.6006,48.1577],[7.6441,48.2073],[7.6657,48.2205],[7.6936,48.3017],[7.7371,48.3196],[7.7452,48.3351],[7.7332,48.3972],[7.765,48.4566],[7.7669,48.4871],[7.8068,48.5202],[7.8048,48.5926],[7.8397,48.6413],[7.89,48.6626],[7.9633,48.7215],[7.972,48.7581],[8.0143,48.761],[8.0258,48.7822],[8.0722,48.7924],[8.1038,48.8201],[8.1304,48.8805],[8.2151,48.9752],[8.1399,48.9785],[8.0877,48.9898],[8.0639,49.0055],[7.9963,49.0291],[7.9328,49.0581],[7.917,49.0409],[7.8891,49.049],[7.8668,49.0329],[7.7944,49.0657],[7.7693,49.0476],[7.7314,49.0555],[7.6747,49.045],[7.6312,49.0549],[7.6308,49.0726],[7.601,49.0832],[7.5636,49.0802],[7.5287,49.0971],[7.4976,49.1346],[7.494,49.1694],[7.4597,49.1628],[7.4359,49.1797],[7.3651,49.1718],[7.3627,49.1431],[7.3298,49.1448],[7.2984,49.1173],[7.2451,49.1301],[7.1594,49.1205],[7.1356,49.1284],[7.1072,49.1526],[7.0894,49.1302],[7.0572,49.1119],[7.0276,49.1703],[7.0332,49.188],[6.9596,49.2031],[6.9187,49.2227],[6.8933,49.2091],[6.8589,49.2228],[6.859,49.1746],[6.8341,49.1511],[6.7827,49.1682],[6.7386,49.1637],[6.7112,49.1883],[6.7314,49.206],[6.6958,49.2153],[6.6601,49.2837],[6.5891,49.3221],[6.5657,49.3477],[6.5875,49.383],[6.5408,49.4012],[6.5508,49.4254],[6.4994,49.4504],[6.4204,49.4764],[6.3934,49.4641],[6.3338,49.4669],[6.2956,49.4817],[6.2762,49.5035],[6.2356,49.5081],[6.1568,49.5028],[6.1446,49.4877],[6.1,49.4668],[6.0563,49.4654],[6.0422,49.4478],[5.9742,49.4664],[5.9702,49.4902],[5.9454,49.4996],[5.864,49.5013],[5.836,49.52],[5.8362,49.5418],[5.7727,49.5626],[5.7572,49.5426],[5.7013,49.5395],[5.6608,49.5524],[5.5938,49.5214],[5.554,49.5279],[5.5315,49.5125],[5.4848,49.5067],[5.4472,49.5179],[5.4653,49.5363],[5.4414,49.5521],[5.431,49.5924],[5.3935,49.6171],[5.3469,49.6308],[5.3326,49.6535],[5.2684,49.696],[5.2462,49.6869],[5.2087,49.6944],[5.1662,49.6929],[5.1436,49.7093],[5.0897,49.7648],[5.069,49.7616],[5.0149,49.7795],[4.9915,49.8002],[4.9557,49.8005],[4.9314,49.7867],[4.8551,49.7946],[4.8736,49.819],[4.8515,49.8627],[4.8829,49.8984],[4.8787,49.9219],[4.8452,49.9489],[4.7909,49.9584],[4.7956,49.9822],[4.8152,49.9925],[4.8206,50.0237],[4.8401,50.0403],[4.8402,50.093],[4.8724,50.0922],[4.8749,50.1534],[4.8025,50.1511],[4.7652,50.1374],[4.7513,50.1117],[4.7028,50.0957],[4.6819,50.0676],[4.697,50.0593],[4.6861,50.0049],[4.6332,49.9875],[4.596,49.986],[4.5408,49.9682],[4.5113,49.9468],[4.4458,49.9372],[4.3808,49.9537],[4.3494,49.9522],[4.3106,49.9686],[4.1974,49.9545],[4.1954,49.9674],[4.1541,49.9751],[4.161,49.9998],[4.1373,50.0218],[4.1608,50.0475],[4.1906,50.0494],[4.2243,50.0644],[4.2275,50.0797],[4.2054,50.098],[4.1952,50.1346],[4.1269,50.1349],[4.1532,50.1604],[4.15,50.1766],[4.1659,50.2151],[4.2208,50.2543],[4.206,50.2725],[4.1796,50.2768],[4.1637,50.2573],[4.124,50.2728],[4.1184,50.3023],[4.0771,50.3205],[4.0252,50.3579],[3.9869,50.3425],[3.9618,50.3481],[3.8861,50.3271],[3.8401,50.3539],[3.7428,50.3481],[3.7317,50.3119],[3.7104,50.3032],[3.6737,50.3349],[3.6578,50.3706],[3.673,50.3891],[3.6688,50.4365],[3.6079,50.4965],[3.5686,50.5001],[3.5215,50.4946],[3.5172,50.518],[3.4749,50.5332],[3.4356,50.5091],[3.3773,50.491],[3.2865,50.5276],[3.276,50.5585],[3.2783,50.5942],[3.2444,50.6409],[3.2439,50.6698],[3.2618,50.676],[3.2485,50.7095],[3.2109,50.7128],[3.199,50.734],[3.1471,50.7899],[3.0807,50.7729],[3.0587,50.7807],[2.9377,50.7426],[2.9301,50.7117],[2.9099,50.6944],[2.8702,50.7029],[2.8486,50.7218],[2.8133,50.7169],[2.725,50.7957],[2.7198,50.8121],[2.6702,50.821],[2.635,50.8128],[2.6248,50.8361],[2.5992,50.8533],[2.6067,50.9127],[2.59,50.9191],[2.6301,50.9458],[2.6065,50.9889],[2.5783,51],[2.5592,51.0701],[2.546,51.0894],[2.4164,51.0543],[2.3825,51.049],[2.3281,51.0526],[2.2575,51.0426],[2.1242,51.0149],[1.9769,50.9974],[1.9386,51.0004],[1.8936,50.9799],[1.7319,50.9401],[1.6392,50.8771],[1.5797,50.8685],[1.6053,50.7968],[1.6064,50.7671],[1.5592,50.6985],[1.5764,50.6407],[1.5764,50.571],[1.6053,50.5465],[1.5836,50.5365],[1.5681,50.431],[1.5553,50.3985],[1.5919,50.3657],[1.5525,50.3621],[1.5381,50.2793],[1.5486,50.2574],[1.5869,50.2568],[1.6158,50.2185],[1.6208,50.1965],[1.5531,50.2163],[1.5231,50.2088],[1.4814,50.1707],[1.4553,50.1121],[1.3769,50.0632],[1.3286,50.0462],[1.2049,49.9724],[1.1057,49.9365],[1.0199,49.9157],[0.9582,49.9196],[0.9307,49.9068],[0.8346,49.8899],[0.7882,49.8751],[0.694,49.8721],[0.5815,49.8529],[0.5224,49.824],[0.3826,49.7701],[0.3199,49.7415],[0.2863,49.739],[0.2512,49.7235],[0.206,49.7146],[0.1626,49.6865],[0.1532,49.6454],[0.0812,49.5479],[0.0651,49.5174],[0.0957,49.4865],[0.1574,49.4557],[0.2868,49.4426],[0.2929,49.4299],[0.2235,49.4285],[0.1285,49.4032],[0.0512,49.351],[-0.0132,49.3212],[-0.0968,49.2985],[-0.1538,49.2871],[-0.2135,49.286],[-0.2971,49.2965],[-0.3599,49.3232],[-0.4121,49.336],[-0.4501,49.3354],[-0.5537,49.3468],[-0.5946,49.3399],[-0.6501,49.3474],[-0.7237,49.3474],[-0.7946,49.3537],[-0.8621,49.3646],[-0.9243,49.3929],[-1.0087,49.3963],[-1.0707,49.3907],[-1.1176,49.3593],[-1.1762,49.3665],[-1.1588,49.3915],[-1.1854,49.4268],[-1.2554,49.484],[-1.304,49.5374],[-1.304,49.574],[-1.2665,49.5932],[-1.2546,49.6124],[-1.2282,49.6232],[-1.2396,49.6546],[-1.2626,49.6685],[-1.2732,49.6937],[-1.3032,49.6932],[-1.3835,49.7062],[-1.4543,49.691],[-1.4871,49.6682],[-1.5226,49.6565],[-1.5701,49.6565],[-1.6035,49.6457],[-1.6299,49.6599],[-1.6721,49.6579],[-1.7168,49.6799],[-1.7743,49.6807],[-1.8249,49.6907],[-1.8393,49.7115],[-1.9418,49.7268],[-1.9485,49.7068],[-1.9407,49.671],[-1.8757,49.6585],[-1.8476,49.6263],[-1.8412,49.5726],[-1.8893,49.5335],[-1.8757,49.5146],[-1.8501,49.5076],[-1.8449,49.471],[-1.8276,49.4568],[-1.8229,49.3999],[-1.8099,49.3724],[-1.7846,49.3743],[-1.7074,49.3185],[-1.6618,49.261],[-1.6401,49.2196],[-1.6068,49.196],[-1.5924,49.1362],[-1.6101,49.0999],[-1.6101,49.0768],[-1.5868,49.0082],[-1.5579,48.9932],[-1.5624,48.9285],[-1.584,48.8501],[-1.5696,48.7835],[-1.5715,48.7429],[-1.534,48.7307],[-1.5051,48.6846],[-1.4626,48.6724],[-1.4374,48.656],[-1.4507,48.6396],[-1.4832,48.6435],[-1.5051,48.6332],[-1.554,48.6446],[-1.604,48.639],[-1.6221,48.624],[-1.7093,48.6065],[-1.8371,48.6135],[-1.8679,48.6418],[-1.8626,48.6671],[-1.8351,48.6804],[-1.8499,48.699],[-1.9001,48.6907],[-1.9318,48.6937],[-1.971,48.6865],[-1.9896,48.664],[-2.0296,48.6512],[-2.0318,48.634],[-2.0093,48.5974],[-1.9871,48.5846],[-1.9607,48.5501],[-1.9851,48.5451],[-1.9957,48.5843],[-2.0287,48.6082],[-2.029,48.6237],[-2.0562,48.641],[-2.1171,48.6387],[-2.1649,48.6079],[-2.1632,48.5868],[-2.2021,48.581],[-2.2554,48.6357],[-2.3124,48.6329],[-2.2935,48.6601],[-2.3296,48.6726],[-2.3599,48.656],[-2.4188,48.641],[-2.4376,48.654],[-2.4679,48.6507],[-2.4724,48.624],[-2.4957,48.6085],[-2.5532,48.5913],[-2.641,48.5238],[-2.6832,48.5318],[-2.7154,48.524],[-2.7129,48.5524],[-2.7646,48.5671],[-2.7785,48.5851],[-2.8201,48.5943],[-2.8126,48.6146],[-2.8365,48.6563],[-2.8826,48.6899],[-2.9251,48.7076],[-2.9521,48.7654],[-3.0129,48.7668],[-3.029,48.784],[-3.0121,48.8221],[-3.054,48.8157],[-3.0896,48.8401],[-3.0857,48.8699],[-3.1299,48.8651],[-3.1904,48.8387],[-3.2179,48.8679],[-3.2935,48.8346],[-3.3232,48.8382],[-3.3929,48.8018],[-3.4251,48.7982],[-3.4832,48.8387],[-3.5415,48.8218],[-3.5374,48.8049],[-3.5843,48.8054],[-3.5882,48.7713],[-3.5496,48.7465],[-3.5499,48.7276],[-3.5815,48.7224],[-3.5807,48.6704],[-3.647842084942087,48.66766274131274]],[[1.9703,42.4812],[2.0051,42.448],[1.9569,42.4581],[1.9703,42.4812]]]]},"properties":{"GID_0":"FRA","ISO_A2":"FR","ISO_A3":"FRA","NAME_EN":"France","NAME_IT":"Francia"}}
]}