{"type":"FeatureCollection", "features": [
{"type":"Feature","geometry":{"type":"MultiPolygon","coordinates":[[[[-109.9214,24.3634],[-109.9353,24.3481],[-109.9378,24.3232],[-109.9184,24.2914],[-109.9222,24.2629],[-109.8936,24.1881],[-109.8632,24.1477],[-109.8025,24.1367],[-109.7994,24.1566],[-109.8197,24.2048],[-109.8425,24.2272],[-109.8698,24.2704],[-109.8888,24.3111],[-109.9214,24.3634]]],[[[-97.6863,24.4561],[-97.6962,24.4553],[-97.7011,24.3851],[-97.7164,24.3551],[-97.7062,24.3241],[-97.6863,24.4561]]],[[[-86.7319,20.5665],[-86.7316,20.591],[-86.7592,20.5754],[-86.7687,20.5606],[-86.8146,20.553],[-86.8215,20.5425],[-86.8806,20.5448],[-86.8968,20.5654],[-86.9269,20.551],[-87.016,20.4126],[-87.0245,20.3669],[-87.0209,20.3403],[-86.9878,20.272],[-86.9323,20.3122],[-86.9081,20.3433],[-86.8982,20.3446],[-86.8789,20.3784],[-86.8306,20.4381],[-86.8181,20.4383],[-86.7634,20.5071],[-86.7319,20.5665]]],[[[-106.6447,21.6942],[-106.6503,21.6822],[-106.6439,21.644],[-106.6295,21.6185],[-106.629,21.5986],[-106.5915,21.5784],[-106.5462,21.5632],[-106.5213,21.5609],[-106.5121,21.5975],[-106.5374,21.6328],[-106.5355,21.657],[-106.5751,21.6819],[-106.6079,21.6917],[-106.6447,21.6942]]],[[[-106.6704,21.7662],[-106.6875,21.7458],[-106.678,21.7287],[-106.6589,21.7395],[-106.6704,21.7662]]],[[[-106.4241,21.4899],[-106.4605,21.4944],[-106.492,21.4699],[-106.4828,21.4537],[-106.4221,21.4329],[-106.3967,21.4199],[-106.3803,21.4484],[-106.3599,21.4605],[-106.3719,21.4815],[-106.4241,21.4899]]],[[[-87.1183,21.5916],[-87.148,21.5706],[-87.2078,21.5462],[-87.2725,21.5395],[-87.3127,21.5498],[-87.3168,21.5307],[-87.2733,21.5254],[-87.2189,21.5294],[-87.2149,21.5231],[-87.1576,21.5624],[-87.1248,21.5735],[-87.1183,21.5916]]],[[[-97.4506,21.3763],[-97.4261,21.4154],[-97.4244,21.4355],[-97.4049,21.4761],[-97.4294,21.4685],[-97.4877,21.4295],[-97.4722,21.4126],[-97.473,21.3846],[-97.4506,21.3763]]],[[[-97.3331,21.5437],[-97.3277,21.5667],[-97.3431,21.5864],[-97.4497,21.6647],[-97.4729,21.6899],[-97.5257,21.7322],[-97.5623,21.7681],[-97.6161,21.8349],[-97.6928,21.9471],[-97.6964,21.9172],[-97.6779,21.9217],[-97.6192,21.7847],[-97.6001,21.7626],[-97.5614,21.7303],[-97.5438,21.6983],[-97.5056,21.6676],[-97.4942,21.6405],[-97.4585,21.5957],[-97.4063,21.558],[-97.3869,21.5364],[-97.3798,21.4772],[-97.3993,21.4443],[-97.4175,21.4299],[-97.4169,21.4021],[-97.4383,21.3777],[-97.4454,21.3505],[-97.4369,21.3146],[-97.4418,21.2749],[-97.4224,21.2815],[-97.4066,21.3498],[-97.3773,21.3956],[-97.3506,21.4566],[-97.3294,21.521],[-97.3331,21.5437]]],[[[-97.6734,21.8192],[-97.6919,21.8224],[-97.6535,21.7467],[-97.6369,21.7614],[-97.6645,21.7938],[-97.6734,21.8192]]],[[[-111.9775,24.5207],[-111.9968,24.5072],[-111.9472,24.489],[-111.9261,24.4691],[-111.8759,24.4427],[-111.7991,24.3835],[-111.7453,24.3486],[-111.7129,24.3125],[-111.6945,24.3497],[-111.7089,24.3847],[-111.7418,24.4179],[-111.7535,24.4435],[-111.7815,24.463],[-111.8191,24.4674],[-111.8419,24.5028],[-111.8703,24.5213],[-111.8978,24.5159],[-111.9775,24.5207]]],[[[-110.3446,24.5286],[-110.3806,24.5228],[-110.3893,24.4977],[-110.352,24.4784],[-110.3623,24.4372],[-110.347,24.43],[-110.3522,24.4073],[-110.3275,24.4028],[-110.3079,24.4562],[-110.2891,24.4729],[-110.3023,24.4942],[-110.3262,24.5063],[-110.3446,24.5286]]],[[[-97.5505,24.9521],[-97.5887,24.8813],[-97.5875,24.8497],[-97.598,24.8274],[-97.6193,24.7462],[-97.6369,24.7344],[-97.6272,24.7188],[-97.6398,24.6771],[-97.6479,24.6284],[-97.6606,24.6195],[-97.6702,24.5517],[-97.6904,24.5275],[-97.6907,24.4865],[-97.6807,24.4797],[-97.664,24.5617],[-97.6403,24.6537],[-97.5798,24.8648],[-97.5505,24.9521]]],[[[-97.6163,24.899],[-97.6163,24.9127],[-97.5948,24.941],[-97.6115,24.9523],[-97.6183,24.9184],[-97.6163,24.899]]],[[[-108.0836,25.0075],[-108.0937,25.0019],[-108.1446,25.0427],[-108.131,25.0004],[-108.1458,24.9669],[-108.1313,24.937],[-108.1067,24.9207],[-108.091,24.8621],[-108.0903,24.8371],[-108.0544,24.8223],[-108.0423,24.8439],[-108.044,24.9058],[-108.0373,24.9254],[-108.0603,24.9609],[-108.0575,24.9946],[-108.0836,25.0075]]],[[[-108.3291,25.1207],[-108.3325,25.1057],[-108.2869,25.0771],[-108.2325,25.0265],[-108.18,24.9449],[-108.1362,24.8721],[-108.123,24.8334],[-108.0998,24.8292],[-108.1076,24.8605],[-108.1024,24.8823],[-108.1328,24.9262],[-108.1802,24.9734],[-108.2408,25.0539],[-108.2544,25.0601],[-108.2757,25.0911],[-108.3291,25.1207]]],[[[-110.7008,25.1008],[-110.712,25.086],[-110.7171,25.054],[-110.7127,25.0305],[-110.6833,25.0212],[-110.6727,24.9903],[-110.6579,24.9709],[-110.6537,24.9461],[-110.6173,24.9153],[-110.5736,24.888],[-110.5693,24.8724],[-110.5308,24.8773],[-110.5699,24.9527],[-110.569,24.9978],[-110.5893,25.0312],[-110.6813,25.0614],[-110.7008,25.1008]]],[[[-114.6844,18.3575],[-114.7405,18.3655],[-114.7408,18.3438],[-114.7027,18.3488],[-114.6844,18.3575]]],[[[-91.6605,18.6612],[-91.6948,18.6759],[-91.7054,18.6521],[-91.6851,18.6364],[-91.6605,18.6612]]],[[[-91.4306,18.8215],[-91.4545,18.8146],[-91.4635,18.7953],[-91.4337,18.7957],[-91.4191,18.801],[-91.4315,18.8115],[-91.4306,18.8215]]],[[[-91.3978,18.8165],[-91.3947,18.8278],[-91.4322,18.8325],[-91.4286,18.8218],[-91.4294,18.813],[-91.3978,18.8165]]],[[[-91.5171,18.762],[-91.5336,18.7799],[-91.5499,18.7691],[-91.6386,18.7331],[-91.6595,18.7185],[-91.6994,18.7053],[-91.7181,18.6888],[-91.7844,18.6686],[-91.8401,18.6643],[-91.8509,18.6494],[-91.8313,18.6312],[-91.7677,18.638],[-91.7308,18.6623],[-91.7075,18.6712],[-91.6416,18.7102],[-91.6233,18.7087],[-91.6195,18.7334],[-91.572,18.7471],[-91.5493,18.7394],[-91.54,18.7575],[-91.5171,18.762]]],[[[-110.9794,18.8473],[-110.9974,18.8521],[-111.0167,18.8167],[-111.0452,18.8092],[-111.0415,18.7805],[-111.0235,18.7726],[-111.019,18.7536],[-110.9729,18.7424],[-110.9438,18.7187],[-110.922,18.729],[-110.9186,18.7908],[-110.9409,18.8153],[-110.9794,18.8473]]],[[[-118.3294,29.1643],[-118.3665,29.1465],[-118.352,29.1143],[-118.361,29.0726],[-118.3183,29.0385],[-118.3049,29.0052],[-118.3051,28.9863],[-118.29,28.9614],[-118.2933,28.9198],[-118.2769,28.8848],[-118.25,28.9186],[-118.2456,28.9658],[-118.2557,28.9906],[-118.248,29.0145],[-118.261,29.0682],[-118.297,29.1012],[-118.3219,29.1085],[-118.3352,29.1397],[-118.3294,29.1643]]],[[[-97.5303,25.0077],[-97.484,25.122],[-97.4461,25.2044],[-97.4294,25.2326],[-97.4475,25.2401],[-97.4597,25.2229],[-97.49,25.1575],[-97.4961,25.1355],[-97.5121,25.1264],[-97.522,25.089],[-97.5162,25.0509],[-97.5383,25.0391],[-97.543,25.0154],[-97.5303,25.0077]]],[[[-112.1228,25.2526],[-112.1402,25.2544],[-112.1636,25.1511],[-112.1987,25.0344],[-112.2367,24.9322],[-112.2748,24.8402],[-112.3043,24.7949],[-112.2727,24.7718],[-112.2488,24.7889],[-112.2161,24.7873],[-112.1898,24.7757],[-112.1521,24.745],[-112.1352,24.7007],[-112.1419,24.6714],[-112.161,24.6729],[-112.1746,24.6533],[-112.1575,24.6443],[-112.1456,24.6209],[-112.1159,24.6023],[-112.0893,24.5509],[-112.0685,24.5409],[-112.0577,24.5556],[-112.1042,24.6171],[-112.135,24.6307],[-112.1429,24.6518],[-112.1161,24.6884],[-112.1346,24.7364],[-112.1714,24.7663],[-112.1654,24.7769],[-112.2091,24.8252],[-112.2173,24.8523],[-112.1798,24.87],[-112.1659,24.9117],[-112.1846,24.9313],[-112.1889,24.954],[-112.186,24.9627],[-112.1737,24.9697],[-112.1536,24.9717],[-112.1621,24.9858],[-112.1621,25.0204],[-112.1714,25.0307],[-112.163,25.0583],[-112.1672,25.0898],[-112.1538,25.1451],[-112.1226,25.2163],[-112.1228,25.2526]]],[[[-110.30932618110235,27.157767322834644],[-110.2541,27.1395],[-110.1972,27.1299],[-110.1156,27.1118],[-110.0809,27.0978],[-110.0608,27.0824],[-110.034,27.1113],[-110.0179,27.1173],[-109.9723,27.0993],[-109.9195,27.0651],[-109.909,27.0116],[-109.8939,26.9635],[-109.9013,26.9487],[-109.8732,26.8791],[-109.8467,26.7849],[-109.8184,26.7502],[-109.7668,26.708],[-109.6997,26.6811],[-109.6688,26.6733],[-109.6385,26.695],[-109.6009,26.6944],[-109.592,26.7287],[-109.5756,26.7211],[-109.5831,26.7012],[-109.5398,26.6913],[-109.5554,26.7225],[-109.5255,26.7601],[-109.4982,26.7372],[-109.4844,26.7424],[-109.4707,26.7164],[-109.4378,26.7127],[-109.4303,26.6725],[-109.3819,26.6339],[-109.358,26.5992],[-109.3122,26.5683],[-109.2738,26.5151],[-109.2581,26.4695],[-109.2426,26.4436],[-109.2363,26.3989],[-109.2216,26.3915],[-109.1894,26.3581],[-109.1831,26.3794],[-109.1552,26.3611],[-109.1579,26.3375],[-109.148,26.3147],[-109.1214,26.309],[-109.125,26.285],[-109.1005,26.2661],[-109.1211,26.2447],[-109.108,26.2278],[-109.1302,26.2176],[-109.1542,26.2342],[-109.1739,26.2636],[-109.1555,26.2987],[-109.1929,26.3409],[-109.2161,26.3339],[-109.2209,26.2638],[-109.26,26.1899],[-109.2741,26.1559],[-109.2874,26.1502],[-109.2984,26.1823],[-109.2778,26.2741],[-109.2645,26.2693],[-109.2434,26.2931],[-109.2486,26.3161],[-109.2874,26.2783],[-109.3025,26.2178],[-109.3323,26.1645],[-109.37,26.1065],[-109.3882,26.0879],[-109.4175,26.0379],[-109.4354,25.996],[-109.4427,25.9621],[-109.4281,25.9455],[-109.4181,25.8931],[-109.4201,25.8234],[-109.3939,25.8127],[-109.3839,25.7878],[-109.4233,25.7826],[-109.399,25.7652],[-109.3709,25.7779],[-109.3626,25.7656],[-109.3263,25.7518],[-109.314,25.7337],[-109.2866,25.7283],[-109.2874,25.6567],[-109.244,25.6429],[-109.2532,25.6877],[-109.2149,25.676],[-109.2068,25.6606],[-109.1721,25.6319],[-109.1464,25.5869],[-109.1204,25.6065],[-109.0846,25.5941],[-109.0442,25.6022],[-109.0157,25.6579],[-108.9974,25.6583],[-108.9733,25.6765],[-108.9375,25.6757],[-108.9193,25.6351],[-108.9248,25.6181],[-108.9683,25.6123],[-108.9876,25.5709],[-109.0152,25.5606],[-109.0353,25.5864],[-109.0501,25.5914],[-109.0495,25.5349],[-109.0645,25.5438],[-109.1182,25.5435],[-109.0884,25.5146],[-109.0799,25.4929],[-109.0517,25.4702],[-109.0182,25.4626],[-109.0242,25.501],[-108.9696,25.5064],[-108.9429,25.4915],[-108.9551,25.4719],[-108.9262,25.4568],[-108.8862,25.5049],[-108.9079,25.5514],[-108.8989,25.5663],[-108.8751,25.5612],[-108.8376,25.5664],[-108.8229,25.5307],[-108.7861,25.5411],[-108.7703,25.525],[-108.7654,25.4983],[-108.7846,25.4742],[-108.7788,25.4379],[-108.7645,25.4327],[-108.7383,25.3985],[-108.6707,25.4027],[-108.657,25.3849],[-108.6628,25.3682],[-108.6521,25.3442],[-108.5337,25.3017],[-108.4639,25.2658],[-108.4351,25.2436],[-108.387,25.1853],[-108.3718,25.22],[-108.3849,25.2293],[-108.3633,25.2554],[-108.3145,25.2426],[-108.3179,25.2028],[-108.2954,25.195],[-108.274,25.205],[-108.2513,25.1982],[-108.2379,25.1675],[-108.2229,25.1615],[-108.1627,25.1069],[-108.1304,25.1007],[-108.1323,25.1203],[-108.1,25.1082],[-108.0827,25.0863],[-108.0523,25.0736],[-108.0441,25.048],[-108.0456,25.0032],[-108.0327,24.987],[-108.0049,24.973],[-107.9934,24.9565],[-107.9968,24.9351],[-108.0188,24.9005],[-107.9986,24.8916],[-107.9922,24.868],[-108.0018,24.8356],[-107.9918,24.816],[-107.9601,24.7859],[-107.9849,24.7636],[-107.9856,24.7389],[-108.0134,24.7563],[-108.0469,24.7862],[-108.0703,24.7789],[-108.0362,24.752],[-108.0164,24.7264],[-108.019,24.6854],[-108.0026,24.6564],[-107.9385,24.608],[-107.9277,24.6284],[-107.8695,24.6037],[-107.8332,24.5935],[-107.7727,24.5493],[-107.7474,24.5173],[-107.7519,24.501],[-107.7087,24.4998],[-107.6896,24.512],[-107.663,24.4804],[-107.6368,24.4644],[-107.5951,24.4706],[-107.5894,24.4914],[-107.6066,24.5045],[-107.6017,24.5198],[-107.5697,24.5278],[-107.5369,24.5153],[-107.4908,24.447],[-107.478,24.4137],[-107.4933,24.3391],[-107.5127,24.329],[-107.5404,24.368],[-107.5703,24.3678],[-107.5882,24.3946],[-107.6238,24.3993],[-107.6446,24.4271],[-107.6605,24.4284],[-107.7383,24.4796],[-107.7677,24.4884],[-107.7847,24.5123],[-107.8075,24.4953],[-107.7272,24.4545],[-107.6191,24.3876],[-107.475,24.2922],[-107.4159,24.2453],[-107.3994,24.2537],[-107.3826,24.2328],[-107.3422,24.2292],[-107.3328,24.2134],[-107.3019,24.1907],[-107.2477,24.1594],[-107.2064,24.121],[-107.1836,24.1255],[-107.1787,24.1464],[-107.1431,24.1423],[-107.1609,24.119],[-107.1279,24.0945],[-107.1744,24.0827],[-107.095,24.0209],[-107.0117,23.9529],[-106.8909,23.8389],[-106.8815,23.7951],[-106.8455,23.7568],[-106.8468,23.7399],[-106.8154,23.7101],[-106.7929,23.6773],[-106.8108,23.6529],[-106.6952,23.5695],[-106.6757,23.5386],[-106.6275,23.4969],[-106.6301,23.4837],[-106.5594,23.4221],[-106.5239,23.3851],[-106.4835,23.3314],[-106.4842,23.3085],[-106.4657,23.2599],[-106.4534,23.242],[-106.4221,23.2168],[-106.4301,23.2001],[-106.3906,23.1807],[-106.3256,23.1269],[-106.2926,23.0931],[-106.2336,23.0483],[-106.1748,22.9917],[-106.0647,22.8698],[-106.0375,22.8343],[-105.964,22.7906],[-105.9061,22.7422],[-105.8477,22.6852],[-105.8244,22.6581],[-105.7895,22.607],[-105.763,22.552],[-105.7586,22.5271],[-105.7098,22.4379],[-105.6765,22.3487],[-105.6641,22.3006],[-105.649,22.2123],[-105.637,22.1834],[-105.646,22.172],[-105.6539,22.0539],[-105.6463,22.0001],[-105.6279,21.9571],[-105.5942,21.9007],[-105.5316,21.8092],[-105.4557,21.6578],[-105.4446,21.6247],[-105.4106,21.6],[-105.3261,21.5533],[-105.265,21.5121],[-105.2329,21.5279],[-105.1973,21.4921],[-105.1878,21.4597],[-105.2178,21.4103],[-105.22,21.3879],[-105.2371,21.3708],[-105.2443,21.3465],[-105.226,21.285],[-105.2164,21.205],[-105.2332,21.1809],[-105.2258,21.1534],[-105.2353,21.1453],[-105.2299,21.1178],[-105.2312,21.0794],[-105.2436,21.0482],[-105.2693,21.0251],[-105.3131,21.0349],[-105.3183,21.0065],[-105.3452,20.9791],[-105.3591,20.9553],[-105.4017,20.9314],[-105.4357,20.8736],[-105.4529,20.8742],[-105.4655,20.8363],[-105.4882,20.7955],[-105.511,20.7723],[-105.4759,20.7524],[-105.4659,20.7558],[-105.3994,20.7354],[-105.3589,20.7629],[-105.3438,20.7578],[-105.3124,20.7279],[-105.2841,20.6735],[-105.2453,20.6534],[-105.233,20.6154],[-105.2585,20.557],[-105.2874,20.5449],[-105.2921,20.5321],[-105.3441,20.5073],[-105.3989,20.5074],[-105.4944,20.4894],[-105.5279,20.4919],[-105.5744,20.4834],[-105.6143,20.4711],[-105.6544,20.4281],[-105.6943,20.4097],[-105.6865,20.3677],[-105.674,20.3437],[-105.6476,20.3123],[-105.5902,20.2631],[-105.5784,20.2397],[-105.5543,20.2248],[-105.5427,20.1848],[-105.5481,20.1685],[-105.5445,20.0913],[-105.5124,20.0253],[-105.4906,19.9891],[-105.4102,19.8816],[-105.3583,19.8227],[-105.3279,19.7711],[-105.2912,19.7201],[-105.2757,19.7095],[-105.2497,19.6715],[-105.2087,19.6354],[-105.1527,19.6035],[-105.1523,19.5871],[-105.1195,19.5873],[-105.089,19.5605],[-105.0815,19.5054],[-105.0658,19.4966],[-105.0591,19.4711],[-105.0246,19.4353],[-105.0187,19.4007],[-105.0318,19.3881],[-104.9954,19.3636],[-104.9534,19.3219],[-104.8781,19.2847],[-104.8469,19.2881],[-104.8327,19.3071],[-104.8034,19.3018],[-104.7887,19.2818],[-104.8103,19.2352],[-104.769,19.2307],[-104.7327,19.2394],[-104.7338,19.2216],[-104.7027,19.2221],[-104.6816,19.1966],[-104.6789,19.1757],[-104.604,19.1509],[-104.5629,19.144],[-104.4894,19.1246],[-104.4515,19.1085],[-104.4443,19.0879],[-104.3874,19.118],[-104.3667,19.1191],[-104.3241,19.0976],[-104.2992,19.063],[-104.3297,19.0513],[-104.3353,19.0222],[-104.2998,19.0142],[-104.1608,18.9627],[-104.1088,18.9386],[-104.0455,18.902],[-103.9832,18.8726],[-103.9484,18.8428],[-103.8367,18.7728],[-103.8022,18.7479],[-103.7227,18.6757],[-103.6935,18.6432],[-103.6856,18.6254],[-103.6995,18.6014],[-103.6534,18.5642],[-103.6258,18.5469],[-103.5761,18.4956],[-103.5564,18.4525],[-103.5298,18.4059],[-103.5294,18.3832],[-103.5141,18.3528],[-103.477,18.3228],[-103.3714,18.2771],[-103.3616,18.2649],[-103.3384,18.2707],[-103.2959,18.2497],[-103.2493,18.2345],[-103.2191,18.2339],[-103.1116,18.191],[-103.0629,18.1945],[-103.0312,18.1881],[-102.9856,18.1716],[-102.7811,18.0818],[-102.7296,18.0718],[-102.6916,18.0554],[-102.6097,18.0489],[-102.5589,18.0332],[-102.4838,18.0187],[-102.3842,17.9888],[-102.3101,17.9698],[-102.2609,17.9509],[-102.1864,17.9151],[-102.1766,17.927],[-102.1398,17.9362],[-102.1,17.9833],[-102.0332,17.988],[-101.9371,17.9559],[-101.9275,17.9482],[-101.8214,17.8955],[-101.7904,17.8719],[-101.7695,17.8452],[-101.7706,17.8304],[-101.747,17.8083],[-101.7462,17.7925],[-101.6777,17.7462],[-101.6476,17.7013],[-101.6425,17.6674],[-101.6064,17.6607],[-101.5944,17.6351],[-101.5463,17.6301],[-101.5036,17.6196],[-101.4503,17.5745],[-101.4353,17.5237],[-101.3423,17.4846],[-101.287,17.4662],[-101.2207,17.4365],[-101.1795,17.4088],[-101.1698,17.3892],[-101.1195,17.3596],[-101.0567,17.3076],[-101.058,17.2747],[-101.0071,17.2526],[-100.988,17.2505],[-100.9158,17.2219],[-100.8719,17.2106],[-100.7613,17.1721],[-100.6751,17.1374],[-100.5984,17.1182],[-100.4863,17.0795],[-100.4186,17.0586],[-100.192,16.9781],[-100.1216,16.949],[-100.0698,16.9371],[-99.9886,16.9088],[-99.9614,16.8949],[-99.9238,16.8494],[-99.911,16.8419],[-99.8825,16.8597],[-99.8524,16.8464],[-99.8695,16.8186],[-99.8086,16.7834],[-99.7578,16.7435],[-99.698,16.712],[-99.6565,16.696],[-99.6027,16.6839],[-99.5553,16.6892],[-99.4336,16.6785],[-99.2862,16.648],[-99.1547,16.6144],[-99.139,16.6236],[-99.1312,16.6439],[-99.0878,16.6289],[-99.0569,16.6312],[-99.0499,16.5982],[-99.026,16.5774],[-98.9209,16.5415],[-98.8583,16.5284],[-98.8467,16.5459],[-98.8068,16.5583],[-98.773,16.5549],[-98.7395,16.517],[-98.7003,16.4637],[-98.657,16.4286],[-98.575,16.3491],[-98.5698,16.3261],[-98.4582,16.2815],[-98.4055,16.267],[-98.3362,16.2594],[-98.2291,16.2378],[-98.1829,16.2468],[-98.1659,16.2189],[-98.1313,16.2138],[-98.1098,16.2302],[-98.0866,16.1909],[-98.1419,16.2133],[-98.1846,16.2122],[-98.1054,16.1784],[-97.9636,16.1021],[-97.8602,16.0294],[-97.773,15.9777],[-97.6795,15.963],[-97.6637,15.9768],[-97.6236,15.9797],[-97.5867,16.0146],[-97.5541,15.9955],[-97.5512,15.9781],[-97.4775,15.9534],[-97.4214,15.9418],[-97.3682,15.9368],[-97.3284,15.9454],[-97.273,15.9385],[-97.2108,15.9234],[-97.1429,15.8982],[-97.1031,15.8688],[-97.0697,15.856],[-97.0486,15.8282],[-97.0142,15.806],[-96.9697,15.7955],[-96.905,15.7685],[-96.8604,15.7398],[-96.806,15.734],[-96.705,15.7178],[-96.6593,15.7022],[-96.616,15.6801],[-96.5599,15.6615],[-96.5523,15.6656],[-96.4954,15.6591],[-96.4406,15.692],[-96.4262,15.6964],[-96.3616,15.6826],[-96.3498,15.6904],[-96.2859,15.6842],[-96.2444,15.6853],[-96.1329,15.7397],[-96.1317,15.7533],[-96.0945,15.7738],[-96.0843,15.7679],[-96.0551,15.7876],[-96.0303,15.7928],[-96.0062,15.8092],[-95.9699,15.8173],[-95.9585,15.8288],[-95.8906,15.8431],[-95.8802,15.8519],[-95.8028,15.8699],[-95.7772,15.8711],[-95.77,15.8946],[-95.7062,15.9088],[-95.6625,15.9124],[-95.6201,15.9276],[-95.6056,15.9425],[-95.5846,15.9445],[-95.5685,15.9578],[-95.4986,15.9656],[-95.4858,15.9758],[-95.4356,15.9761],[-95.4265,15.9969],[-95.3711,16.019],[-95.378,16.0463],[-95.3626,16.0699],[-95.34,16.0873],[-95.3056,16.0943],[-95.2774,16.1071],[-95.281,16.1205],[-95.2476,16.1335],[-95.232,16.1597],[-95.1923,16.1674],[-95.1519,16.1678],[-95.1389,16.1887],[-95.0701,16.1834],[-95.0277,16.1884],[-94.9291,16.2077],[-94.8308,16.2157],[-94.8412,16.2322],[-94.8746,16.2365],[-94.9268,16.2348],[-95.0547,16.2246],[-95.1002,16.2319],[-95.0913,16.2559],[-95.075,16.2662],[-95.0303,16.3299],[-94.975,16.3294],[-94.9652,16.3389],[-94.9547,16.3845],[-94.9233,16.4197],[-94.844,16.4307],[-94.8412,16.4132],[-94.8103,16.3954],[-94.8166,16.3682],[-94.799,16.3463],[-94.7743,16.3339],[-94.7883,16.3101],[-94.8133,16.2985],[-94.8122,16.2808],[-94.7909,16.2768],[-94.7776,16.3007],[-94.7343,16.3044],[-94.7275,16.3307],[-94.6794,16.3633],[-94.6144,16.3535],[-94.5813,16.3367],[-94.5914,16.3025],[-94.5623,16.2995],[-94.5599,16.2579],[-94.6124,16.2155],[-94.6304,16.2296],[-94.6132,16.2477],[-94.6277,16.2668],[-94.6595,16.2512],[-94.7318,16.2314],[-94.7153,16.2104],[-94.6841,16.2085],[-94.54,16.1919],[-94.4801,16.1817],[-94.384,16.1583],[-94.2948,16.1306],[-94.2024,16.0968],[-94.0918,16.044],[-94.0368,16.0225],[-94.0562,16.0488],[-94.0648,16.0728],[-94.088,16.092],[-94.1222,16.0994],[-94.1641,16.1155],[-94.1624,16.1267],[-94.2172,16.1634],[-94.3029,16.1543],[-94.3514,16.1697],[-94.4211,16.1835],[-94.4224,16.1983],[-94.4419,16.2145],[-94.4437,16.2362],[-94.4094,16.2577],[-94.4176,16.2804],[-94.3725,16.2963],[-94.3506,16.2743],[-94.3362,16.238],[-94.3212,16.2458],[-94.2956,16.2349],[-94.2928,16.2188],[-94.2598,16.2044],[-94.2414,16.21],[-94.2202,16.1899],[-94.1694,16.1979],[-94.1404,16.222],[-94.123,16.2225],[-94.1111,16.1747],[-94.115,16.1598],[-94.0858,16.1241],[-94.035,16.1065],[-94.009,16.1084],[-93.9818,16.0938],[-93.9355,16.0943],[-93.9008,16.0852],[-93.8723,16.0536],[-93.8697,16.0305],[-93.854,16.0131],[-93.8719,15.9856],[-93.894,15.9893],[-93.8959,16.0092],[-93.9249,16.0066],[-93.9165,15.9829],[-93.8684,15.9625],[-93.7726,15.911],[-93.6904,15.8586],[-93.543,15.7562],[-93.4271,15.6664],[-93.3242,15.5898],[-93.3197,15.5803],[-93.261,15.5312],[-93.1623,15.4447],[-93.0212,15.3166],[-92.864,15.1676],[-92.8412,15.1806],[-92.807,15.1881],[-92.7569,15.1666],[-92.771,15.1503],[-92.7995,15.163],[-92.8328,15.1687],[-92.8517,15.1505],[-92.7788,15.0789],[-92.6409,14.9362],[-92.5127,14.8019],[-92.4106,14.7054],[-92.4098,14.6963],[-92.3605,14.6568],[-92.2295,14.5351],[-92.2166,14.5547],[-92.1833,14.5777],[-92.1814,14.6142],[-92.1683,14.6406],[-92.1462,14.6619],[-92.143,14.6912],[-92.1478,14.7187],[-92.1702,14.7446],[-92.1609,14.773],[-92.1785,14.8036],[-92.1848,14.8301],[-92.1706,14.8617],[-92.1481,14.8689],[-92.1364,14.8913],[-92.1508,14.9869],[-92.1355,15.0122],[-92.1008,15.0114],[-92.0861,15.0222],[-92.0705,15.0532],[-92.0747,15.0893],[-92.2106,15.2614],[-91.9568,15.6943],[-91.7314,16.074],[-90.442,16.0743],[-90.4589,16.1096],[-90.4542,16.1243],[-90.4304,16.1207],[-90.4302,16.1398],[-90.448,16.155],[-90.4286,16.1748],[-90.4541,16.1864],[-90.458,16.2078],[-90.4503,16.2591],[-90.4243,16.264],[-90.4417,16.2867],[-90.4346,16.3053],[-90.4162,16.3056],[-90.3998,16.3395],[-90.3981,16.3861],[-90.4208,16.4249],[-90.4588,16.421],[-90.4883,16.4287],[-90.4795,16.4429],[-90.5014,16.4663],[-90.5278,16.4577],[-90.5481,16.4682],[-90.5867,16.4695],[-90.6087,16.4956],[-90.6178,16.5219],[-90.6462,16.5187],[-90.6493,16.5455],[-90.6413,16.5681],[-90.66,16.5772],[-90.6547,16.5959],[-90.6584,16.6407],[-90.676,16.6603],[-90.68,16.6833],[-90.7097,16.7042],[-90.7086,16.7188],[-90.7547,16.7492],[-90.7625,16.7624],[-90.8041,16.7738],[-90.8125,16.7969],[-90.8554,16.7956],[-90.8804,16.8226],[-90.9173,16.8192],[-90.9352,16.8409],[-90.9329,16.8537],[-90.9593,16.8631],[-90.9589,16.895],[-91.0072,16.8838],[-91.0672,16.9012],[-91.0657,16.9209],[-91.1001,16.963],[-91.1226,16.977],[-91.1232,17.0035],[-91.1549,17.0047],[-91.1753,17.0157],[-91.2137,17.0529],[-91.2225,17.0886],[-91.2345,17.1006],[-91.2675,17.1083],[-91.2733,17.1388],[-91.2641,17.1561],[-91.2791,17.1796],[-91.3245,17.1827],[-91.3356,17.1612],[-91.3553,17.1909],[-91.3764,17.2049],[-91.4034,17.2046],[-91.4286,17.2183],[-91.4397,17.251],[-90.9875,17.2514],[-90.9876,17.8155],[-90.2855,17.8154],[-90.1267,17.8166],[-89.1522,17.8156],[-89.1522,17.9403],[-89.134,17.9712],[-89.1116,17.9698],[-89.0764,17.9938],[-89.0285,18.0026],[-89.0006,17.9844],[-88.993,17.9597],[-88.9599,17.9518],[-88.9476,17.9589],[-88.9206,17.9186],[-88.8776,17.8944],[-88.8603,17.8941],[-88.8522,17.9335],[-88.8152,17.9503],[-88.7847,17.9829],[-88.7831,18.0002],[-88.7669,18.016],[-88.7667,18.0343],[-88.7168,18.0605],[-88.7186,18.1088],[-88.6892,18.1558],[-88.6802,18.16],[-88.6867,18.1947],[-88.6735,18.1942],[-88.641,18.2167],[-88.616,18.2231],[-88.6047,18.241],[-88.6066,18.2641],[-88.5984,18.297],[-88.5445,18.3599],[-88.5516,18.3761],[-88.532,18.4082],[-88.5186,18.4622],[-88.4764,18.4947],[-88.4425,18.4814],[-88.4024,18.4967],[-88.387,18.4816],[-88.3511,18.4845],[-88.3163,18.4956],[-88.2857,18.4937],[-88.272,18.5142],[-88.2258,18.611],[-88.2053,18.6378],[-88.1916,18.6803],[-88.1604,18.7046],[-88.1559,18.7257],[-88.1293,18.7646],[-88.1257,18.7838],[-88.1088,18.8022],[-88.0679,18.8616],[-88.0368,18.8502],[-88.0471,18.8114],[-88.0277,18.8029],[-88.0069,18.7715],[-88.0022,18.7409],[-88.0173,18.6966],[-87.9996,18.6661],[-88.0177,18.618],[-88.0344,18.605],[-88.0362,18.5686],[-88.0493,18.5264],[-88.0758,18.5132],[-88.0749,18.4787],[-88.054,18.4769],[-88.0232,18.4578],[-87.9341,18.4382],[-87.9358,18.3995],[-87.8953,18.3729],[-87.8893,18.3515],[-87.8745,18.2607],[-87.8953,18.228],[-87.8441,18.1935],[-87.8343,18.2843],[-87.8196,18.3318],[-87.8021,18.3523],[-87.7876,18.385],[-87.7641,18.4178],[-87.7623,18.496],[-87.74,18.5455],[-87.7395,18.5815],[-87.7252,18.6685],[-87.7107,18.7124],[-87.6808,18.7424],[-87.6683,18.7706],[-87.6631,18.8265],[-87.6417,18.8616],[-87.642,18.8845],[-87.6315,18.903],[-87.6274,18.9397],[-87.6172,18.9504],[-87.6053,18.9877],[-87.5494,19.0866],[-87.5486,19.1444],[-87.5408,19.1551],[-87.5372,19.208],[-87.4456,19.3117],[-87.4827,19.3021],[-87.5062,19.3219],[-87.5156,19.3084],[-87.5387,19.3068],[-87.5666,19.2847],[-87.5921,19.2419],[-87.607,19.2299],[-87.6253,19.1804],[-87.6546,19.1806],[-87.6736,19.1935],[-87.6899,19.2371],[-87.6612,19.2607],[-87.6683,19.2913],[-87.655,19.3198],[-87.6655,19.3436],[-87.6333,19.3846],[-87.5887,19.4037],[-87.5546,19.4268],[-87.5206,19.3999],[-87.4913,19.437],[-87.4711,19.4449],[-87.4401,19.4692],[-87.4242,19.5506],[-87.4143,19.5641],[-87.4104,19.5984],[-87.4457,19.6255],[-87.4586,19.5948],[-87.5028,19.5901],[-87.5072,19.5647],[-87.4744,19.5692],[-87.4595,19.5865],[-87.4447,19.5752],[-87.4849,19.5546],[-87.5237,19.5489],[-87.5617,19.5556],[-87.6093,19.5539],[-87.6328,19.5384],[-87.6506,19.5048],[-87.676,19.5345],[-87.6765,19.5509],[-87.7021,19.5502],[-87.7199,19.5777],[-87.7438,19.5898],[-87.7387,19.6416],[-87.7423,19.6637],[-87.6979,19.68],[-87.6508,19.6756],[-87.6064,19.7392],[-87.5787,19.7906],[-87.5419,19.8112],[-87.5292,19.7962],[-87.4975,19.8072],[-87.4597,19.8882],[-87.469,19.957],[-87.4894,19.9599],[-87.4887,19.996],[-87.5229,20.0942],[-87.4964,20.1207],[-87.4736,20.1008],[-87.4529,20.1641],[-87.4235,20.2262],[-87.3647,20.2943],[-87.3412,20.3435],[-87.2846,20.4431],[-87.2463,20.4849],[-87.1691,20.5359],[-87.101,20.5909],[-87.0218,20.6745],[-87.0102,20.7024],[-86.9627,20.7301],[-86.9642,20.7478],[-86.9202,20.808],[-86.9047,20.8124],[-86.8743,20.8474],[-86.8605,20.8912],[-86.8469,20.904],[-86.8218,21.0018],[-86.8091,21.0301],[-86.7788,21.0323],[-86.7819,21.0501],[-86.7611,21.1085],[-86.7459,21.1332],[-86.7973,21.1542],[-86.8071,21.1836],[-86.8015,21.2389],[-86.8166,21.2849],[-86.8307,21.2769],[-86.8312,21.248],[-86.8496,21.2517],[-86.8643,21.2762],[-86.8701,21.3072],[-86.8656,21.3279],[-86.8755,21.3454],[-86.8875,21.4047],[-86.9185,21.4385],[-86.9492,21.4915],[-86.9658,21.5295],[-86.9827,21.5189],[-87.0157,21.5508],[-87.0624,21.5671],[-87.0855,21.5893],[-87.1286,21.5541],[-87.1036,21.5462],[-87.11,21.519],[-87.1113,21.4711],[-87.1323,21.4596],[-87.1574,21.4634],[-87.1858,21.4395],[-87.2213,21.4382],[-87.2345,21.419],[-87.2499,21.4338],[-87.2713,21.4319],[-87.3153,21.441],[-87.3277,21.4323],[-87.3554,21.4468],[-87.4025,21.4569],[-87.4303,21.468],[-87.4638,21.4564],[-87.4872,21.4681],[-87.4897,21.4848],[-87.5517,21.4909],[-87.748,21.5327],[-87.8155,21.5532],[-87.8892,21.5844],[-87.9591,21.6089],[-88.0255,21.6094],[-88.1391,21.6241],[-88.1602,21.6007],[-88.2156,21.5691],[-88.2773,21.5605],[-88.3211,21.5503],[-88.3583,21.5639],[-88.3976,21.5654],[-88.4632,21.5523],[-88.5232,21.5346],[-88.547,21.5351],[-88.6064,21.525],[-88.6288,21.5151],[-88.627,21.4883],[-88.6394,21.4685],[-88.6644,21.4656],[-88.7375,21.4311],[-88.7948,21.4204],[-88.7997,21.4138],[-88.8569,21.3961],[-89.0434,21.372],[-89.11,21.3578],[-89.2102,21.3494],[-89.4,21.3305],[-89.5525,21.3079],[-89.5689,21.3024],[-89.665,21.2886],[-89.6785,21.2662],[-89.762,21.2467],[-89.7764,21.2572],[-89.6997,21.2694],[-89.7027,21.2793],[-89.8058,21.2567],[-89.8313,21.2456],[-89.83,21.2291],[-89.8551,21.213],[-89.899,21.1965],[-89.9262,21.2172],[-89.9922,21.1781],[-90.0495,21.1629],[-90.0946,21.1556],[-90.1476,21.1272],[-90.2052,21.089],[-90.3225,21.0206],[-90.3413,21.0021],[-90.3665,20.9611],[-90.3931,20.8777],[-90.4069,20.8482],[-90.4155,20.8123],[-90.404,20.7891],[-90.3862,20.8547],[-90.3596,20.8932],[-90.345,20.9593],[-90.3276,20.9477],[-90.3413,20.9228],[-90.3585,20.8743],[-90.3822,20.8521],[-90.386,20.8177],[-90.4118,20.7581],[-90.4311,20.7466],[-90.4421,20.7121],[-90.446,20.6478],[-90.4576,20.6039],[-90.4821,20.5578],[-90.5023,20.4978],[-90.5026,20.4643],[-90.4836,20.377],[-90.4933,20.3492],[-90.4896,20.3313],[-90.492,20.273],[-90.4868,20.2267],[-90.4793,20.2082],[-90.4798,20.1734],[-90.4949,20.1614],[-90.4788,20.1135],[-90.491,20.0609],[-90.4786,20.0312],[-90.4626,20.0139],[-90.4706,19.986],[-90.4541,19.9652],[-90.4617,19.9309],[-90.5078,19.867],[-90.5545,19.8346],[-90.6239,19.7933],[-90.6615,19.7585],[-90.6708,19.7175],[-90.7067,19.6758],[-90.705,19.6512],[-90.6861,19.6327],[-90.6879,19.6115],[-90.7115,19.5627],[-90.7039,19.5534],[-90.7104,19.5147],[-90.7041,19.5007],[-90.7054,19.4619],[-90.7252,19.4012],[-90.7245,19.3583],[-90.7406,19.3293],[-90.7735,19.292],[-90.8354,19.2421],[-90.9098,19.176],[-90.9954,19.1182],[-91.0811,19.0675],[-91.128,19.0259],[-91.2232,18.9739],[-91.3156,18.9351],[-91.3881,18.8955],[-91.4434,18.8375],[-91.4964,18.7923],[-91.4721,18.7828],[-91.4676,18.8042],[-91.4234,18.8514],[-91.4007,18.8656],[-91.3548,18.9098],[-91.3065,18.9244],[-91.2808,18.938],[-91.26,18.9379],[-91.2225,18.9544],[-91.1878,18.9807],[-91.1793,18.9953],[-91.151,18.9899],[-91.2149,18.9562],[-91.2947,18.9203],[-91.3625,18.8776],[-91.3605,18.8459],[-91.3834,18.8299],[-91.3888,18.8129],[-91.3629,18.7847],[-91.3271,18.767],[-91.2913,18.7964],[-91.269,18.7817],[-91.2379,18.7456],[-91.2392,18.7088],[-91.2487,18.6831],[-91.2694,18.6742],[-91.2808,18.6492],[-91.231,18.6236],[-91.2942,18.6],[-91.3087,18.5587],[-91.3377,18.5461],[-91.3616,18.5451],[-91.4113,18.53],[-91.4965,18.4939],[-91.4751,18.4776],[-91.4638,18.4476],[-91.4919,18.4548],[-91.5198,18.4465],[-91.581,18.442],[-91.6289,18.4487],[-91.6797,18.4624],[-91.7046,18.4635],[-91.7602,18.4843],[-91.784,18.4687],[-91.7577,18.4586],[-91.7461,18.436],[-91.7702,18.4327],[-91.7584,18.3956],[-91.7629,18.3745],[-91.7881,18.3751],[-91.8215,18.4211],[-91.8327,18.4202],[-91.8105,18.3678],[-91.8231,18.3443],[-91.8423,18.3393],[-91.858,18.352],[-91.8518,18.372],[-91.8279,18.3898],[-91.8407,18.4064],[-91.8331,18.4211],[-91.8128,18.4415],[-91.8193,18.4565],[-91.8003,18.4802],[-91.8003,18.4943],[-91.8506,18.505],[-91.8572,18.5262],[-91.9065,18.5494],[-91.9311,18.5518],[-91.9524,18.5749],[-91.9662,18.5689],[-91.947,18.5292],[-91.9625,18.5138],[-91.9945,18.5151],[-92.0307,18.537],[-92.0229,18.558],[-92.0308,18.5849],[-92.0807,18.5615],[-92.0995,18.5753],[-92.1336,18.5797],[-92.1565,18.5505],[-92.1797,18.5443],[-92.2296,18.5521],[-92.2157,18.601],[-92.195,18.609],[-92.1673,18.6079],[-92.1373,18.5961],[-92.1191,18.6166],[-92.0628,18.6208],[-92.0538,18.5827],[-92.029,18.5872],[-92.0142,18.5741],[-92.0016,18.5989],[-91.9719,18.5827],[-91.9415,18.6158],[-91.9228,18.6009],[-91.919,18.5742],[-91.9029,18.5674],[-91.8914,18.5854],[-91.8694,18.5799],[-91.8555,18.6114],[-91.8795,18.6184],[-91.9106,18.6373],[-91.9551,18.6967],[-92.0075,18.6985],[-92.2099,18.6789],[-92.3447,18.6704],[-92.4017,18.6636],[-92.4667,18.6514],[-92.5846,18.6193],[-92.6643,18.6095],[-92.6876,18.5983],[-92.6756,18.5693],[-92.6595,18.5509],[-92.6631,18.53],[-92.6953,18.5895],[-92.7043,18.5873],[-92.7322,18.5443],[-92.7757,18.5006],[-92.802,18.4817],[-92.8526,18.4569],[-92.9208,18.4378],[-92.9989,18.4314],[-93.0574,18.4328],[-93.0932,18.4424],[-93.132,18.4393],[-93.1196,18.4139],[-93.0749,18.4062],[-93.0635,18.3977],[-93.0786,18.376],[-93.1004,18.3744],[-93.1159,18.3463],[-93.1324,18.37],[-93.1713,18.3707],[-93.1707,18.4118],[-93.1488,18.4276],[-93.1625,18.439],[-93.2125,18.4347],[-93.2272,18.4394],[-93.3318,18.4371],[-93.4115,18.4317],[-93.4875,18.417],[-93.6059,18.3854],[-93.8121,18.3146],[-93.7981,18.3044],[-93.7688,18.3124],[-93.7536,18.3318],[-93.7091,18.3484],[-93.6873,18.351],[-93.6159,18.38],[-93.5694,18.3927],[-93.5687,18.3448],[-93.592,18.3264],[-93.6445,18.3166],[-93.677,18.3203],[-93.6827,18.3346],[-93.7239,18.3296],[-93.7538,18.3147],[-93.7419,18.2775],[-93.7805,18.2577],[-93.8084,18.2499],[-93.87,18.2444],[-93.8822,18.2658],[-93.8567,18.2987],[-94.0577,18.2354],[-94.1325,18.2133],[-94.2932,18.1754],[-94.373,18.1614],[-94.454,18.1515],[-94.4912,18.1511],[-94.5507,18.1654],[-94.6022,18.1912],[-94.6248,18.2088],[-94.6214,18.1647],[-94.6501,18.1836],[-94.6426,18.2058],[-94.6112,18.2194],[-94.6237,18.2503],[-94.6231,18.2871],[-94.6571,18.3116],[-94.6703,18.3392],[-94.7375,18.3952],[-94.7438,18.4217],[-94.7737,18.4492],[-94.7868,18.5043],[-94.8157,18.5378],[-94.8752,18.5489],[-94.9096,18.547],[-94.9734,18.558],[-95.0145,18.5488],[-95.0029,18.5359],[-95.0058,18.5152],[-95.0294,18.5078],[-95.0354,18.5336],[-95.0174,18.5342],[-95.0254,18.5688],[-95.0449,18.5784],[-95.0618,18.6174],[-95.1216,18.6525],[-95.1464,18.681],[-95.1777,18.6937],[-95.1814,18.706],[-95.2278,18.7033],[-95.2948,18.7136],[-95.3599,18.7107],[-95.4399,18.7107],[-95.5731,18.7196],[-95.6402,18.7341],[-95.7192,18.7676],[-95.7428,18.7905],[-95.7515,18.77],[-95.7509,18.7439],[-95.7749,18.7554],[-95.8125,18.7448],[-95.8116,18.7191],[-95.862,18.7161],[-95.8632,18.7342],[-95.8437,18.7436],[-95.8313,18.7648],[-95.8657,18.7824],[-95.8789,18.8022],[-95.8842,18.8326],[-95.9082,18.8265],[-95.9507,18.8405],[-95.9416,18.8704],[-95.9224,18.8711],[-95.8943,18.8367],[-95.867,18.8272],[-95.8536,18.8101],[-95.8194,18.8036],[-95.7584,18.7651],[-95.7522,18.7922],[-95.8023,18.8067],[-95.8623,18.8325],[-95.8849,18.8472],[-95.9282,18.8867],[-95.9409,18.9054],[-95.9419,18.9272],[-95.9596,18.9611],[-95.9699,19.0487],[-95.9926,19.0629],[-96.0289,19.0559],[-96.0668,19.0672],[-96.0984,19.0949],[-96.1061,19.1265],[-96.0941,19.1513],[-96.1245,19.1812],[-96.1379,19.2172],[-96.1744,19.2255],[-96.1822,19.2501],[-96.2311,19.2696],[-96.2646,19.2906],[-96.2967,19.3237],[-96.3112,19.3588],[-96.3073,19.373],[-96.3231,19.4178],[-96.3134,19.4798],[-96.3556,19.5274],[-96.3745,19.5605],[-96.3745,19.6082],[-96.397,19.6455],[-96.3975,19.6808],[-96.4075,19.6987],[-96.4021,19.7231],[-96.4084,19.7463],[-96.4391,19.8068],[-96.4481,19.8442],[-96.4901,19.8838],[-96.5539,19.9562],[-96.5759,20.0057],[-96.6935,20.1397],[-96.7157,20.1711],[-96.7752,20.2283],[-96.7901,20.2483],[-96.9091,20.3662],[-96.9591,20.4211],[-96.9857,20.4638],[-97.024,20.4933],[-97.0987,20.5636],[-97.1439,20.6125],[-97.1775,20.6621],[-97.1954,20.7044],[-97.1941,20.7383],[-97.2303,20.8318],[-97.2608,20.8755],[-97.2971,20.9464],[-97.3437,20.9742],[-97.3668,21.0006],[-97.374,21.0295],[-97.3543,21.0321],[-97.3401,21.0053],[-97.3392,20.9764],[-97.3061,20.9714],[-97.3263,21.0057],[-97.3654,21.0986],[-97.3918,21.1483],[-97.4139,21.2061],[-97.4206,21.2588],[-97.4451,21.2752],[-97.4479,21.3107],[-97.4842,21.3349],[-97.5044,21.402],[-97.489,21.4486],[-97.5006,21.4684],[-97.5205,21.4713],[-97.5687,21.4645],[-97.5934,21.4939],[-97.5992,21.5202],[-97.631,21.5573],[-97.6432,21.5849],[-97.6438,21.6268],[-97.664,21.6336],[-97.6821,21.6689],[-97.6948,21.7131],[-97.696,21.7837],[-97.706,21.7893],[-97.7219,21.8346],[-97.7067,21.8422],[-97.7021,21.8799],[-97.7245,21.9324],[-97.7245,21.9573],[-97.7406,22.0005],[-97.7309,22.0153],[-97.7546,22.0685],[-97.7718,22.1177],[-97.789,22.1827],[-97.7927,22.2575],[-97.784,22.2639],[-97.8082,22.2979],[-97.8246,22.3363],[-97.844,22.4035],[-97.8549,22.4537],[-97.8651,22.5627],[-97.899,22.5805],[-97.8951,22.6321],[-97.8881,22.6534],[-97.8537,22.7021],[-97.8516,22.7252],[-97.8178,22.7739],[-97.8042,22.7792],[-97.7914,22.8224],[-97.7899,22.8531],[-97.7661,22.8937],[-97.761,23.0007],[-97.7619,23.0583],[-97.7698,23.2555],[-97.7703,23.3336],[-97.7653,23.4296],[-97.7421,23.6688],[-97.7383,23.7581],[-97.756,23.7507],[-97.744,23.7312],[-97.7493,23.6822],[-97.7509,23.5991],[-97.7729,23.5927],[-97.7712,23.6269],[-97.7613,23.6596],[-97.7686,23.6724],[-97.767,23.7205],[-97.7553,23.766],[-97.7338,23.7734],[-97.736,23.7968],[-97.7373,23.9536],[-97.7238,24.1403],[-97.7113,24.2762],[-97.7278,24.2226],[-97.7251,24.1766],[-97.7337,24.1648],[-97.7307,24.1203],[-97.7382,24.093],[-97.7322,24.0785],[-97.7398,24.0478],[-97.7451,23.9589],[-97.7516,23.9479],[-97.7407,23.9195],[-97.7443,23.8727],[-97.7591,23.862],[-97.7701,23.913],[-97.7612,23.9644],[-97.7701,23.9764],[-97.7746,24.1103],[-97.7607,24.1739],[-97.7667,24.1825],[-97.7567,24.2318],[-97.7485,24.3228],[-97.7532,24.3731],[-97.7492,24.4504],[-97.7692,24.4417],[-97.7867,24.4146],[-97.7922,24.3407],[-97.8193,24.3567],[-97.8052,24.3746],[-97.8317,24.3898],[-97.8259,24.4082],[-97.8529,24.4458],[-97.8572,24.465],[-97.8416,24.4957],[-97.8496,24.5231],[-97.8298,24.5464],[-97.7784,24.5594],[-97.775,24.51],[-97.7457,24.49],[-97.7376,24.5172],[-97.7108,24.6371],[-97.7156,24.6605],[-97.736,24.6801],[-97.7187,24.7253],[-97.7183,24.7979],[-97.7088,24.8088],[-97.7468,24.8286],[-97.7429,24.8536],[-97.7221,24.8708],[-97.7098,24.8636],[-97.679,24.8678],[-97.6546,24.9103],[-97.6196,24.9288],[-97.6453,24.9496],[-97.673,24.9532],[-97.6968,24.9947],[-97.7254,25.0195],[-97.7226,25.056],[-97.6996,25.0891],[-97.7067,25.1175],[-97.7023,25.1377],[-97.7625,25.1384],[-97.7408,25.1563],[-97.6882,25.1539],[-97.6715,25.1757],[-97.7045,25.195],[-97.6982,25.2225],[-97.7045,25.2403],[-97.7474,25.2468],[-97.7631,25.2661],[-97.7172,25.261],[-97.7197,25.2813],[-97.703,25.3069],[-97.7246,25.3376],[-97.7105,25.3637],[-97.6748,25.3781],[-97.6617,25.3656],[-97.6281,25.3624],[-97.6209,25.329],[-97.6056,25.3086],[-97.5767,25.3177],[-97.5656,25.3101],[-97.5699,25.284],[-97.5325,25.2886],[-97.5495,25.3093],[-97.5545,25.3362],[-97.5511,25.3725],[-97.5402,25.3807],[-97.4926,25.3642],[-97.5125,25.4007],[-97.5396,25.4234],[-97.5662,25.4306],[-97.5563,25.4593],[-97.5303,25.4764],[-97.5182,25.453],[-97.4742,25.4433],[-97.435,25.4187],[-97.4049,25.4176],[-97.3926,25.402],[-97.4184,25.3764],[-97.3776,25.363],[-97.4026,25.346],[-97.4032,25.3216],[-97.4464,25.2432],[-97.4251,25.2371],[-97.414,25.2633],[-97.3275,25.4193],[-97.2409,25.5624],[-97.2025,25.631],[-97.1748,25.704],[-97.1958,25.693],[-97.2158,25.6491],[-97.2458,25.6445],[-97.2622,25.629],[-97.2894,25.653],[-97.26,25.7104],[-97.2258,25.7194],[-97.1917,25.7087],[-97.1854,25.7242],[-97.2375,25.7494],[-97.2153,25.7771],[-97.2162,25.7942],[-97.1917,25.7953],[-97.1559,25.8211],[-97.1461,25.8727],[-97.1461,25.9536],[-97.158,25.9612],[-97.2764,25.9522],[-97.2768,25.9352],[-97.3032,25.937],[-97.3246,25.9183],[-97.3683,25.9155],[-97.3618,25.869],[-97.3726,25.84],[-97.4251,25.8405],[-97.4459,25.8512],[-97.4555,25.8841],[-97.4972,25.8799],[-97.5213,25.8863],[-97.5462,25.9342],[-97.5781,25.9421],[-97.6021,25.9574],[-97.6219,25.9892],[-97.6577,26.02],[-97.7092,26.0346],[-97.7353,26.0284],[-97.7692,26.0365],[-97.7917,26.0338],[-97.7928,26.0532],[-97.861,26.053],[-97.8768,26.0646],[-97.937,26.053],[-97.9802,26.0672],[-98.0211,26.0586],[-98.0387,26.0414],[-98.0622,26.0463],[-98.0763,26.0675],[-98.1368,26.063],[-98.1434,26.0506],[-98.1723,26.0716],[-98.1924,26.0533],[-98.2192,26.0759],[-98.2495,26.0722],[-98.2847,26.1011],[-98.2912,26.1208],[-98.3216,26.1183],[-98.3356,26.1383],[-98.3664,26.1577],[-98.387,26.1577],[-98.4418,26.1982],[-98.4418,26.2217],[-98.4606,26.2261],[-98.5039,26.2084],[-98.5473,26.2344],[-98.5796,26.2345],[-98.5828,26.2564],[-98.612,26.2531],[-98.6563,26.2356],[-98.6791,26.245],[-98.7017,26.266],[-98.7507,26.3312],[-98.7784,26.3259],[-98.8046,26.3676],[-98.8248,26.3707],[-98.843,26.3583],[-98.8608,26.3662],[-98.897,26.3531],[-98.9012,26.3708],[-98.9545,26.3945],[-98.9783,26.4001],[-99.0128,26.3931],[-99.0363,26.4135],[-99.0623,26.3973],[-99.0815,26.3966],[-99.1103,26.4257],[-99.0916,26.4756],[-99.1284,26.5255],[-99.1669,26.536],[-99.1788,26.6219],[-99.2019,26.6588],[-99.21,26.6927],[-99.209,26.7247],[-99.2408,26.7475],[-99.2424,26.7864],[-99.262,26.8149],[-99.2699,26.845],[-99.2946,26.865],[-99.3171,26.8655],[-99.3288,26.8796],[-99.3285,26.9195],[-99.3849,26.9388],[-99.3949,26.9622],[-99.3816,26.9724],[-99.4136,27.0119],[-99.4445,27.0193],[-99.4527,27.0641],[-99.4287,27.0926],[-99.44,27.1511],[-99.4262,27.1761],[-99.4327,27.2096],[-99.4454,27.2232],[-99.4418,27.2508],[-99.462,27.2684],[-99.4826,27.2594],[-99.4966,27.2729],[-99.4946,27.3038],[-99.5279,27.3048],[-99.5045,27.3388],[-99.5079,27.3535],[-99.4923,27.3806],[-99.4876,27.411],[-99.4955,27.438],[-99.4788,27.4795],[-99.5013,27.5001],[-99.5282,27.4982],[-99.522,27.5443],[-99.5115,27.5641],[-99.529,27.5792],[-99.5403,27.6044],[-99.5771,27.6183],[-99.6034,27.6419],[-99.6387,27.6267],[-99.6663,27.6364],[-99.6704,27.66],[-99.7105,27.6574],[-99.7747,27.7334],[-99.7999,27.7396],[-99.808,27.7653],[-99.8423,27.7676],[-99.8508,27.7939],[-99.8708,27.794],[-99.8768,27.8408],[-99.9011,27.864],[-99.8937,27.8998],[-99.9373,27.9409],[-99.9315,27.9803],[-99.9905,27.9936],[-100.0073,28.0202],[-100.0182,28.0657],[-100.0464,28.0791],[-100.0561,28.1039],[-100.0862,28.1462],[-100.1589,28.1676],[-100.2095,28.1913],[-100.2173,28.2263],[-100.2555,28.2384],[-100.2942,28.2836],[-100.2866,28.3122],[-100.3427,28.3864],[-100.3495,28.4034],[-100.3365,28.4285],[-100.3407,28.4488],[-100.3604,28.4665],[-100.3339,28.4993],[-100.3883,28.5147],[-100.411,28.5498],[-100.3985,28.5851],[-100.4472,28.6092],[-100.4472,28.6421],[-100.4615,28.6408],[-100.4973,28.6587],[-100.512,28.7065],[-100.5074,28.7402],[-100.5381,28.7813],[-100.5351,28.8047],[-100.5476,28.8262],[-100.5703,28.8258],[-100.573,28.8488],[-100.6108,28.9007],[-100.6515,28.9429],[-100.6457,28.9878],[-100.6637,29.0505],[-100.6644,29.0747],[-100.6846,29.1112],[-100.7088,29.1189],[-100.7761,29.1727],[-100.767,29.1957],[-100.7943,29.2421],[-100.8129,29.2612],[-100.8351,29.2616],[-100.8803,29.2827],[-100.8862,29.3074],[-100.941,29.3335],[-100.9498,29.3477],[-101.0047,29.3653],[-101.0371,29.4065],[-101.0601,29.4585],[-101.0886,29.4695],[-101.1476,29.4745],[-101.1856,29.518],[-101.2363,29.5237],[-101.2609,29.5382],[-101.243,29.5662],[-101.2523,29.6032],[-101.2479,29.6195],[-101.2685,29.6297],[-101.2798,29.6154],[-101.2789,29.5877],[-101.305,29.5773],[-101.3133,29.6038],[-101.3013,29.6353],[-101.3057,29.6542],[-101.3477,29.662],[-101.3735,29.6775],[-101.373,29.6997],[-101.3977,29.7138],[-101.3972,29.7352],[-101.4149,29.7526],[-101.451,29.7533],[-101.4534,29.7847],[-101.4795,29.7835],[-101.5022,29.7642],[-101.5398,29.7646],[-101.5353,29.7982],[-101.5441,29.8115],[-101.57,29.796],[-101.5749,29.7693],[-101.604,29.7735],[-101.6306,29.7681],[-101.6439,29.7541],[-101.6623,29.7712],[-101.7101,29.7618],[-101.7753,29.7891],[-101.8044,29.78],[-101.814,29.7935],[-101.8382,29.7937],[-101.8562,29.807],[-101.8748,29.794],[-101.9359,29.7995],[-101.9544,29.7957],[-101.9817,29.815],[-102.0155,29.7974],[-102.0727,29.7866],[-102.0841,29.7949],[-102.116,29.7919],[-102.1435,29.8033],[-102.1785,29.8401],[-102.2232,29.8405],[-102.264,29.8553],[-102.3008,29.8777],[-102.3415,29.8694],[-102.3642,29.8452],[-102.3628,29.8321],[-102.3899,29.7828],[-102.4071,29.7642],[-102.435,29.7768],[-102.4808,29.7762],[-102.5133,29.7654],[-102.548,29.7446],[-102.5723,29.7592],[-102.6122,29.7482],[-102.6225,29.7363],[-102.659,29.7352],[-102.674,29.7446],[-102.6986,29.6971],[-102.6933,29.6767],[-102.7362,29.6417],[-102.7402,29.5979],[-102.7621,29.5795],[-102.7762,29.5472],[-102.8083,29.5226],[-102.8064,29.4942],[-102.8189,29.4508],[-102.8304,29.444],[-102.8251,29.3969],[-102.8392,29.3589],[-102.8775,29.3546],[-102.8927,29.3085],[-102.8894,29.2881],[-102.9059,29.2615],[-102.8715,29.2416],[-102.8678,29.2231],[-102.8991,29.2089],[-102.9172,29.1915],[-102.9504,29.1783],[-102.9786,29.1862],[-103.0338,29.1012],[-103.0796,29.0878],[-103.077,29.0756],[-103.1007,29.0603],[-103.098,29.0268],[-103.1164,29.0003],[-103.1538,28.9715],[-103.1706,28.9803],[-103.2279,28.9917],[-103.2382,28.9812],[-103.2671,28.996],[-103.3153,29.009],[-103.335,29.0281],[-103.3835,29.0241],[-103.4156,29.0376],[-103.4506,29.0659],[-103.4943,29.1085],[-103.5249,29.1213],[-103.5251,29.1374],[-103.5575,29.1558],[-103.5935,29.1503],[-103.6116,29.1652],[-103.6501,29.1567],[-103.6568,29.1694],[-103.7041,29.1849],[-103.7186,29.1809],[-103.7435,29.2156],[-103.7763,29.2207],[-103.7754,29.248],[-103.8137,29.2743],[-103.9017,29.2872],[-103.9178,29.2843],[-103.9734,29.2961],[-104.0379,29.3199],[-104.056,29.3369],[-104.0831,29.3466],[-104.1229,29.3803],[-104.1679,29.3955],[-104.1955,29.4414],[-104.2175,29.4561],[-104.2091,29.4814],[-104.2731,29.5163],[-104.3121,29.5238],[-104.3365,29.5199],[-104.3932,29.5535],[-104.4097,29.5697],[-104.4597,29.5982],[-104.4767,29.6277],[-104.5159,29.641],[-104.5251,29.6659],[-104.5444,29.6816],[-104.5506,29.7391],[-104.5702,29.7523],[-104.5667,29.7721],[-104.6105,29.8194],[-104.6101,29.8398],[-104.6593,29.9016],[-104.6777,29.9138],[-104.685,29.9566],[-104.6808,29.9773],[-104.6945,30.0032],[-104.6967,30.0394],[-104.7066,30.0506],[-104.6862,30.0848],[-104.6973,30.1354],[-104.6873,30.1799],[-104.711,30.2232],[-104.7068,30.2342],[-104.7338,30.2612],[-104.7578,30.2714],[-104.7605,30.2959],[-104.8113,30.3327],[-104.8117,30.3667],[-104.8373,30.3739],[-104.8592,30.3904],[-104.8608,30.4398],[-104.8742,30.4955],[-104.8722,30.5107],[-104.909,30.5843],[-104.927,30.6046],[-104.9717,30.61],[-104.9834,30.6324],[-104.9869,30.6628],[-105.0069,30.6858],[-105.0546,30.6821],[-105.0878,30.7154],[-105.0985,30.7165],[-105.1188,30.7497],[-105.1617,30.7524],[-105.1857,30.7835],[-105.2201,30.7892],[-105.2178,30.8058],[-105.2564,30.7944],[-105.2799,30.8162],[-105.3491,30.8359],[-105.3951,30.8624],[-105.3946,30.8767],[-105.4162,30.9003],[-105.4416,30.9084],[-105.4519,30.9244],[-105.4993,30.9508],[-105.533,30.9846],[-105.5576,30.99],[-105.5789,31.0212],[-105.585,31.0559],[-105.6041,31.0833],[-105.6485,31.1155],[-105.711,31.137],[-105.7431,31.1646],[-105.7726,31.1662],[-105.7823,31.1963],[-105.797,31.2048],[-105.8749,31.2912],[-105.8942,31.2905],[-105.908,31.3124],[-105.9325,31.3127],[-105.9541,31.3645],[-105.9705,31.3659],[-106.0048,31.3927],[-106.0802,31.3985],[-106.1083,31.4226],[-106.1331,31.4255],[-106.1761,31.4559],[-106.2014,31.4629],[-106.2196,31.4815],[-106.2471,31.5425],[-106.2811,31.5626],[-106.3032,31.6218],[-106.335,31.6643],[-106.3494,31.6959],[-106.3721,31.7122],[-106.3816,31.7324],[-106.4507,31.7642],[-106.4876,31.7477],[-106.5285,31.7838],[-108.2084,31.7838],[-108.2085,31.3334],[-108.957,31.3322],[-109.5106,31.3343],[-111.075,31.3324],[-112.0007,31.6272],[-113.2108,32.0001],[-113.9713,32.2378],[-114.8136,32.4939],[-114.8032,32.53],[-114.8123,32.5572],[-114.807,32.6227],[-114.7655,32.6435],[-114.7202,32.7186],[-115.9952,32.6271],[-116.5948,32.5791],[-117.1237,32.5339],[-117.1242,32.4865],[-117.102,32.4398],[-117.0905,32.3976],[-117.051,32.323],[-117.0393,32.2856],[-117.0244,32.2688],[-116.9774,32.2585],[-116.9339,32.2409],[-116.9158,32.21],[-116.9078,32.1652],[-116.8866,32.1234],[-116.8815,32.062],[-116.8868,32.0345],[-116.8548,31.9912],[-116.8236,31.9781],[-116.8002,31.9824],[-116.7684,31.9712],[-116.7562,31.9468],[-116.7556,31.914],[-116.7463,31.903],[-116.6998,31.8954],[-116.6694,31.8649],[-116.6211,31.8589],[-116.6096,31.8158],[-116.6198,31.7814],[-116.6105,31.7713],[-116.638,31.723],[-116.6403,31.7072],[-116.7279,31.7492],[-116.72448604651163,31.726923255813954],[-116.6819,31.703],[-116.6488,31.6618],[-116.6672,31.6186],[-116.6504,31.5862],[-116.6888,31.5693],[-116.6691,31.5535],[-116.6514,31.5219],[-116.6078,31.497],[-116.6028,31.4647],[-116.5709,31.4658],[-116.5213,31.4349],[-116.5002,31.4115],[-116.4848,31.3758],[-116.4514,31.3327],[-116.4151,31.2951],[-116.3925,31.2847],[-116.3547,31.233],[-116.3091,31.1507],[-116.3124,31.0964],[-116.338,30.9735],[-116.3198,30.9568],[-116.2857,30.9701],[-116.2665,30.9644],[-116.2448,30.9332],[-116.2272,30.9284],[-116.2073,30.8923],[-116.1762,30.8628],[-116.1411,30.8547],[-116.1032,30.8221],[-116.0642,30.8077],[-116.0512,30.7795],[-116.0467,30.7186],[-116.0328,30.7],[-116.0266,30.6476],[-116.0325,30.5646],[-116.0471,30.4711],[-116.0232,30.4505],[-116.0032,30.4549],[-115.9793,30.4276],[-115.957,30.4458],[-115.9474,30.4043],[-115.9085,30.3976],[-115.8662,30.3711],[-115.8373,30.3442],[-115.8028,30.2799],[-115.7951,30.2379],[-115.7946,30.1937],[-115.8017,30.1343],[-115.7811,30.0914],[-115.8044,29.9747],[-115.7881,29.9594],[-115.7429,29.948],[-115.701,29.8988],[-115.6856,29.8433],[-115.6855,29.81],[-115.6984,29.7543],[-115.6788,29.744],[-115.6197,29.6953],[-115.5846,29.6922],[-115.5633,29.6636],[-115.5054,29.617],[-115.4571,29.6249],[-115.4147,29.5925],[-115.4068,29.578],[-115.3784,29.5599],[-115.3415,29.5562],[-115.2996,29.5412],[-115.2503,29.5144],[-115.2118,29.4732],[-115.1916,29.4316],[-115.1537,29.4207],[-115.1055,29.4214],[-115.0725,29.4166],[-115.0118,29.3854],[-114.9832,29.3826],[-114.9508,29.3615],[-114.9109,29.3144],[-114.8636,29.2759],[-114.8374,29.237],[-114.8232,29.2365],[-114.8055,29.2093],[-114.7434,29.1818],[-114.7336,29.1432],[-114.7032,29.1014],[-114.6777,29.1136],[-114.6541,29.0978],[-114.6361,29.098],[-114.608,29.0584],[-114.6007,28.9856],[-114.5731,28.9763],[-114.5483,28.9573],[-114.5448,28.9343],[-114.489,28.9334],[-114.449,28.9069],[-114.4353,28.88],[-114.4194,28.8814],[-114.4047,28.8602],[-114.3973,28.8178],[-114.3722,28.8119],[-114.3426,28.7554],[-114.3424,28.7323],[-114.3145,28.7273],[-114.2947,28.7038],[-114.2697,28.6896],[-114.2698,28.6603],[-114.2373,28.6671],[-114.178,28.6542],[-114.1633,28.6395],[-114.1542,28.5977],[-114.1616,28.5702],[-114.1242,28.5615],[-114.0967,28.5466],[-114.0862,28.5229],[-114.0688,28.5141],[-114.0692,28.4896],[-114.0447,28.4586],[-114.0605,28.3959],[-114.0888,28.3274],[-114.125,28.2568],[-114.1047,28.2397],[-114.0793,28.2563],[-114.0523,28.2247],[-114.0502,28.1928],[-114.0637,28.1528],[-114.06572436548223,28.106298477157363],[-114.0743,28.1084],[-114.0835,28.1638],[-114.1128,28.1239],[-114.1029,28.1059],[-114.0999,28.0577],[-114.0683,28.0556],[-114.0391,28.0251],[-114.063,27.9987],[-114.0789,27.9953],[-114.1056,27.9279],[-114.1293,27.9729],[-114.1504,28.0012],[-114.1498,28.018],[-114.116,28.0475],[-114.1191,28.0786],[-114.1343,28.0845],[-114.2063,27.9971],[-114.2668,27.9386],[-114.2714,27.8946],[-114.2558,27.8931],[-114.2337,27.9174],[-114.2059,27.9185],[-114.1654,27.954],[-114.166,27.929],[-114.129,27.898],[-114.141,27.8689],[-114.1786,27.8229],[-114.1738,27.7872],[-114.1479,27.7485],[-114.1451,27.7256],[-114.1168,27.7062],[-114.0293,27.7414],[-113.9921,27.7487],[-113.9825,27.7592],[-113.9529,27.7344],[-113.92,27.7163],[-113.957,27.6641],[-113.9799,27.6571],[-114.0162,27.6683],[-114.0432,27.6646],[-114.0669,27.6331],[-114.0996,27.61],[-114.13,27.6442],[-114.1742,27.6802],[-114.2349,27.6975],[-114.2645,27.7257],[-114.2838,27.7345],[-114.3126,27.7695],[-114.3072,27.8112],[-114.2951,27.8369],[-114.3008,27.87],[-114.3286,27.8713],[-114.3497,27.8599],[-114.3336,27.8272],[-114.3814,27.806],[-114.4016,27.8193],[-114.458,27.7887],[-114.5031,27.7723],[-114.5333,27.7861],[-114.5697,27.7833],[-114.6053,27.7735],[-114.6915,27.7866],[-114.7371,27.8085],[-114.7684,27.8078],[-114.7872,27.8156],[-114.8396,27.8101],[-114.851,27.8248],[-114.9226,27.8342],[-114.972,27.8254],[-115.0165,27.832],[-115.0269,27.8467],[-115.0568,27.8597],[-115.078,27.8426],[-115.052,27.8198],[-115.023,27.7449],[-115.0065,27.718],[-114.9909,27.7323],[-114.9412,27.7064],[-114.9331,27.6787],[-114.9035,27.6739],[-114.8775,27.6991],[-114.8458,27.6712],[-114.852,27.64],[-114.8419,27.6293],[-114.8111,27.6268],[-114.7772,27.5991],[-114.7578,27.5479],[-114.7373,27.5242],[-114.7145,27.5221],[-114.6637,27.5048],[-114.6323,27.487],[-114.5958,27.4755],[-114.5722,27.4507],[-114.5266,27.4291],[-114.507,27.409],[-114.4886,27.3504],[-114.4846,27.26],[-114.488,27.2287],[-114.4349,27.2098],[-114.4154,27.1689],[-114.3963,27.1826],[-114.3622,27.1634],[-114.3324,27.1564],[-114.2946,27.1279],[-114.2918,27.1432],[-114.252,27.1519],[-114.1949,27.1427],[-114.1251,27.1119],[-114.0902,27.0861],[-114.0612,27.052],[-114.0522,27.0208],[-114.0133,26.9806],[-113.9836,26.9734],[-113.9773,26.9918],[-113.947,26.9994],[-113.8719,26.9797],[-113.8082,26.9404],[-113.7818,26.9122],[-113.7415,26.8271],[-113.7373,26.8049],[-113.7151,26.7902],[-113.687,26.7944],[-113.6646,26.7793],[-113.6578,26.7564],[-113.6374,26.7293],[-113.5767,26.7052],[-113.5475,26.7202],[-113.5489,26.7384],[-113.5237,26.751],[-113.5105,26.7901],[-113.4659,26.8047],[-113.465,26.8292],[-113.4169,26.8323],[-113.4217,26.8125],[-113.3326,26.7837],[-113.2831,26.7519],[-113.2684,26.7508],[-113.2687,26.8111],[-113.258,26.839],[-113.2233,26.8371],[-113.2031,26.8511],[-113.196,26.8951],[-113.2016,26.9175],[-113.1865,26.9722],[-113.163,26.9875],[-113.1496,26.9701],[-113.1375,26.9348],[-113.1309,26.8932],[-113.1382,26.8578],[-113.148,26.8453],[-113.2001,26.8058],[-113.2354,26.7872],[-113.2097,26.7624],[-113.18,26.7661],[-113.174,26.7868],[-113.1401,26.8133],[-113.121,26.7999],[-113.1505,26.772],[-113.1302,26.7262],[-113.1161,26.7167],[-113.0729,26.6598],[-113.0737,26.636],[-113.0595,26.6164],[-113.0618,26.5992],[-113.0276,26.5689],[-112.9943,26.554],[-112.9751,26.5333],[-112.8854,26.4834],[-112.7899,26.4075],[-112.7129,26.3585],[-112.6731,26.3197],[-112.6431,26.3239],[-112.5913,26.2934],[-112.5768,26.2789],[-112.5406,26.2617],[-112.4975,26.2315],[-112.4606,26.2624],[-112.4152,26.2486],[-112.3868,26.2262],[-112.3396,26.17],[-112.3182,26.1232],[-112.3083,26.0721],[-112.2895,26.0553],[-112.2602,26.0538],[-112.2342,26.0367],[-112.1889,25.9832],[-112.1616,25.8982],[-112.1372,25.8506],[-112.1289,25.8149],[-112.1117,25.7951],[-112.0998,25.7488],[-112.0987,25.6923],[-112.0692,25.6616],[-112.0711,25.6262],[-112.0619,25.5886],[-112.0765,25.5584],[-112.0635,25.5424],[-112.0784,25.499],[-112.091,25.4809],[-112.0889,25.4431],[-112.0675,25.4316],[-112.0887,25.4019],[-112.0949,25.3777],[-112.0722,25.322],[-112.0803,25.289],[-112.0774,25.2422],[-112.1053,25.2383],[-112.133,25.1698],[-112.1465,25.1468],[-112.1569,25.0962],[-112.1409,25.0751],[-112.1201,25.0726],[-112.1307,25.0476],[-112.1223,25.0387],[-112.1316,25.0096],[-112.1521,24.977],[-112.1454,24.9657],[-112.171,24.9683],[-112.1837,24.9607],[-112.1782,24.9364],[-112.1595,24.933],[-112.1589,24.9079],[-112.1696,24.87],[-112.189,24.8447],[-112.1415,24.8328],[-112.1353,24.862],[-112.1398,24.8919],[-112.1201,24.9061],[-112.1394,24.9484],[-112.1279,24.9672],[-112.0927,24.9399],[-112.0949,24.9014],[-112.1209,24.8793],[-112.1161,24.8489],[-112.0912,24.833],[-112.099,24.814],[-112.1174,24.8052],[-112.1046,24.7793],[-112.0882,24.7812],[-112.0578,24.7496],[-111.9654,24.7373],[-111.9588,24.7696],[-111.9257,24.7482],[-111.9365,24.739],[-111.9021,24.7092],[-111.8411,24.6387],[-111.8161,24.5732],[-111.8217,24.5234],[-111.7897,24.5172],[-111.7941,24.5457],[-111.6995,24.5378],[-111.6914,24.5544],[-111.6922,24.5846],[-111.6576,24.5699],[-111.6289,24.5159],[-111.6159,24.456],[-111.606,24.4343],[-111.5818,24.4331],[-111.5644,24.4133],[-111.5277,24.4109],[-111.4413,24.3259],[-111.3697,24.2927],[-111.2505,24.2303],[-111.1731,24.1822],[-111.1145,24.1537],[-111.0273,24.0978],[-110.9924,24.0638],[-110.934,24.0181],[-110.853,23.9437],[-110.7817,23.8745],[-110.6833,23.7687],[-110.6122,23.7081],[-110.5516,23.6704],[-110.4608,23.6344],[-110.3861,23.6],[-110.3265,23.5582],[-110.3068,23.5372],[-110.2768,23.4892],[-110.2627,23.4754],[-110.2344,23.427],[-110.2298,23.4039],[-110.215,23.3946],[-110.205,23.3686],[-110.1664,23.3128],[-110.1545,23.2567],[-110.1535,23.2297],[-110.1337,23.1631],[-110.1301,23.1389],[-110.1144,23.1002],[-110.0987,23.0194],[-110.0603,22.9487],[-110.0182,22.9057],[-109.9639,22.8722],[-109.9251,22.872],[-109.8901,22.8963],[-109.8568,22.8986],[-109.8164,22.9268],[-109.7989,22.9608],[-109.7595,22.9847],[-109.7335,22.9897],[-109.7215,23.0018],[-109.714,23.0304],[-109.6688,23.0603],[-109.6081,23.0813],[-109.5766,23.0841],[-109.5362,23.1094],[-109.495,23.1505],[-109.459,23.1961],[-109.4363,23.2456],[-109.4396,23.2736],[-109.4254,23.3048],[-109.4244,23.3382],[-109.4323,23.3771],[-109.4132,23.3874],[-109.432,23.4216],[-109.425,23.4503],[-109.461,23.4874],[-109.4794,23.5192],[-109.4691,23.551],[-109.4752,23.5598],[-109.5159,23.5717],[-109.5276,23.5874],[-109.5756,23.6],[-109.6094,23.6205],[-109.674,23.6441],[-109.6971,23.6626],[-109.7008,23.711],[-109.7122,23.7289],[-109.7096,23.7759],[-109.6994,23.799],[-109.7197,23.8164],[-109.7728,23.8747],[-109.8269,23.9129],[-109.8381,23.9337],[-109.8357,23.9851],[-109.8145,23.9996],[-109.8045,24.0209],[-109.8263,24.0411],[-109.827,24.0607],[-109.8813,24.0385],[-109.9297,24.0287],[-109.9703,24.0382],[-109.9886,24.0502],[-109.9938,24.108],[-110.0082,24.1594],[-110.0405,24.1771],[-110.0894,24.2158],[-110.1752,24.253],[-110.1931,24.2929],[-110.2356,24.3173],[-110.2342,24.3441],[-110.2835,24.3534],[-110.3328,24.329],[-110.3368,24.3094],[-110.3002,24.2154],[-110.3032,24.1785],[-110.3218,24.1562],[-110.3441,24.1441],[-110.3497,24.1145],[-110.3929,24.1044],[-110.4173,24.1093],[-110.4312,24.1466],[-110.4237,24.1748],[-110.3847,24.1618],[-110.375,24.1486],[-110.3269,24.1666],[-110.3372,24.1773],[-110.4002,24.1742],[-110.5064,24.1948],[-110.5602,24.2113],[-110.582,24.2399],[-110.6115,24.2555],[-110.6416,24.3082],[-110.641,24.3156],[-110.6813,24.3569],[-110.6834,24.3952],[-110.6932,24.4063],[-110.687,24.4629],[-110.7292,24.5145],[-110.738,24.5548],[-110.7402,24.6201],[-110.729,24.6687],[-110.7185,24.6878],[-110.6943,24.7013],[-110.6814,24.7465],[-110.6653,24.7655],[-110.6572,24.806],[-110.6848,24.8576],[-110.6853,24.884],[-110.7039,24.9014],[-110.7053,24.9216],[-110.7498,24.966],[-110.7489,24.988],[-110.7598,25.0132],[-110.7899,25.0359],[-110.8155,25.0344],[-110.8287,25.0631],[-110.8631,25.0807],[-110.8799,25.1263],[-110.9076,25.1458],[-110.9206,25.2056],[-110.9343,25.2161],[-110.9462,25.2566],[-110.9368,25.2917],[-110.9467,25.3133],[-110.9796,25.3414],[-110.9989,25.3829],[-111.0039,25.4164],[-111.0251,25.4446],[-111.0192,25.4621],[-111.0221,25.5017],[-111.0168,25.5149],[-111.0743,25.5251],[-111.11,25.5241],[-111.1352,25.5416],[-111.1453,25.5656],[-111.1648,25.5732],[-111.1936,25.6138],[-111.1998,25.6548],[-111.2239,25.7251],[-111.2792,25.7505],[-111.3038,25.7706],[-111.3072,25.8114],[-111.33,25.8324],[-111.3409,25.8727],[-111.3369,25.908],[-111.356,25.9297],[-111.3588,25.9592],[-111.3385,25.9873],[-111.3458,26.0272],[-111.3307,26.0456],[-111.3191,26.0765],[-111.3241,26.1],[-111.3545,26.1296],[-111.3609,26.1674],[-111.378,26.1886],[-111.3771,26.2072],[-111.3977,26.2551],[-111.3835,26.2809],[-111.3869,26.322],[-111.3966,26.3409],[-111.4341,26.3621],[-111.4328,26.3799],[-111.4699,26.4145],[-111.4717,26.4621],[-111.4556,26.488],[-111.4528,26.5155],[-111.4672,26.5353],[-111.5033,26.5304],[-111.5566,26.5511],[-111.5707,26.5726],[-111.5638,26.6209],[-111.5688,26.6458],[-111.5618,26.6902],[-111.5735,26.7044],[-111.6481,26.7454],[-111.6678,26.7729],[-111.7218,26.8068],[-111.7483,26.846],[-111.8221,26.8962],[-111.8461,26.882],[-111.8462,26.8566],[-111.8279,26.8282],[-111.8241,26.7831],[-111.8086,26.7161],[-111.7948,26.6885],[-111.7662,26.6768],[-111.6774,26.5888],[-111.6944,26.5661],[-111.7402,26.5391],[-111.7789,26.5647],[-111.7945,26.6031],[-111.8211,26.6352],[-111.8502,26.6498],[-111.8636,26.694],[-111.9096,26.7201],[-111.8917,26.763],[-111.8621,26.7841],[-111.8717,26.8282],[-111.9127,26.858],[-111.9129,26.8739],[-111.9504,26.8915],[-111.9763,26.9369],[-112.0081,26.9579],[-112.0153,26.9998],[-112.0097,27.0262],[-111.9887,27.0561],[-111.9699,27.0701],[-111.9651,27.0947],[-111.9925,27.096],[-112.0089,27.1157],[-112.0882,27.1308],[-112.1362,27.1596],[-112.1566,27.1616],[-112.2153,27.2146],[-112.1982,27.2416],[-112.2432,27.3259],[-112.262,27.3329],[-112.2705,27.3575],[-112.3032,27.3851],[-112.2981,27.4032],[-112.3155,27.4246],[-112.3185,27.4608],[-112.3312,27.5176],[-112.3556,27.5355],[-112.3588,27.5514],[-112.4238,27.5919],[-112.461,27.5972],[-112.4869,27.6209],[-112.5294,27.6377],[-112.5954,27.6505],[-112.602,27.6693],[-112.6238,27.6788],[-112.644,27.7104],[-112.661,27.7094],[-112.7016,27.7518],[-112.716,27.7859],[-112.7207,27.8182],[-112.7582,27.8462],[-112.7724,27.872],[-112.7622,27.8926],[-112.7668,27.9403],[-112.7568,27.9709],[-112.7632,27.9983],[-112.799,28.0137],[-112.8049,28.0306],[-112.7889,28.0681],[-112.8034,28.0847],[-112.8125,28.116],[-112.8107,28.1457],[-112.7961,28.1876],[-112.8015,28.2033],[-112.8421,28.2527],[-112.8735,28.2822],[-112.8705,28.3329],[-112.8493,28.382],[-112.868,28.4313],[-112.8829,28.4384],[-112.8852,28.463],[-112.9034,28.475],[-112.9701,28.4567],[-113.0021,28.4545],[-113.0387,28.4748],[-113.0753,28.485],[-113.1043,28.5061],[-113.1135,28.5268],[-113.1142,28.5582],[-113.1273,28.5889],[-113.1279,28.6278],[-113.1588,28.6601],[-113.1944,28.7453],[-113.1966,28.7924],[-113.2341,28.8356],[-113.26,28.839],[-113.2864,28.8257],[-113.3116,28.8035],[-113.3471,28.7997],[-113.3709,28.8373],[-113.366,28.8706],[-113.3799,28.9103],[-113.4169,28.924],[-113.4333,28.9522],[-113.4528,28.9395],[-113.4814,28.9418],[-113.479,28.8945],[-113.5262,28.8933],[-113.5579,28.9482],[-113.5462,28.9645],[-113.5605,28.9989],[-113.5619,29.0206],[-113.5392,29.0404],[-113.5388,29.0584],[-113.5672,29.0944],[-113.5714,29.1169],[-113.5925,29.1299],[-113.6125,29.1601],[-113.6433,29.1846],[-113.6395,29.1985],[-113.6569,29.2151],[-113.6251,29.253],[-113.6379,29.2837],[-113.695,29.3244],[-113.7299,29.367],[-113.7607,29.3904],[-113.7738,29.4105],[-113.8318,29.4355],[-113.8361,29.4559],[-113.8623,29.4621],[-113.8969,29.4848],[-113.9304,29.5199],[-113.9422,29.5236],[-113.9955,29.578],[-114.0227,29.5814],[-114.0458,29.5961],[-114.0634,29.6286],[-114.1109,29.6533],[-114.1489,29.6939],[-114.1814,29.7081],[-114.2041,29.7399],[-114.2432,29.7627],[-114.2802,29.7723],[-114.2943,29.7428],[-114.3428,29.7467],[-114.3547,29.7688],[-114.386,29.7771],[-114.3949,29.808],[-114.37137454545456,29.809165454545457],[-114.4011,29.8286],[-114.4151,29.8573],[-114.413,29.8907],[-114.4345,29.9093],[-114.471,29.9133],[-114.4853,29.9466],[-114.5345,29.9681],[-114.5519,30.0019],[-114.5645,30.01],[-114.5839,30.0519],[-114.5828,30.0684],[-114.6039,30.108],[-114.6265,30.1186],[-114.6356,30.1432],[-114.6689,30.1983],[-114.6507,30.225],[-114.6398,30.2605],[-114.6561,30.2784],[-114.6447,30.3365],[-114.6432,30.3708],[-114.6313,30.4199],[-114.6387,30.4587],[-114.6341,30.5011],[-114.649,30.5274],[-114.6523,30.5571],[-114.6779,30.5891],[-114.699,30.6333],[-114.6937,30.6706],[-114.7052,30.7168],[-114.6917,30.744],[-114.7006,30.7784],[-114.6954,30.8177],[-114.7099,30.8447],[-114.704,30.8639],[-114.7109,30.9092],[-114.7208,30.937],[-114.8083,30.9773],[-114.8341,31.0018],[-114.8245,31.0396],[-114.8323,31.0665],[-114.8675,31.0902],[-114.8845,31.1186],[-114.8905,31.1681],[-114.8821,31.2525],[-114.8913,31.2636],[-114.8783,31.3635],[-114.8802,31.3929],[-114.8545,31.4567],[-114.858,31.5011],[-114.8328,31.5785],[-114.8117,31.6118],[-114.7904,31.6167],[-114.7837,31.6355],[-114.7956,31.6901],[-114.817,31.7287],[-114.8182,31.7629],[-114.8058,31.8198],[-114.7602,31.8183],[-114.7161,31.7736],[-114.6774,31.7603],[-114.6192,31.7629],[-114.5938,31.7571],[-114.554,31.7355],[-114.5271,31.7021],[-114.4927,31.6762],[-114.462,31.6688],[-114.4483,31.649],[-114.4266,31.6435],[-114.3343,31.5984],[-114.3267,31.5832],[-114.2715,31.5434],[-114.2303,31.5294],[-114.1992,31.5097],[-114.1536,31.4951],[-114.0259,31.4922],[-114.0167,31.5325],[-113.99,31.5283],[-113.9584,31.5669],[-113.9727,31.5856],[-113.9807,31.6255],[-113.9398,31.6054],[-113.901,31.6064],[-113.8562,31.5951],[-113.8042,31.5651],[-113.7881,31.5663],[-113.7633,31.5506],[-113.6888,31.5193],[-113.6403,31.4805],[-113.6293,31.4523],[-113.6358,31.4298],[-113.6207,31.4028],[-113.6092,31.3564],[-113.6246,31.328],[-113.5584,31.3178],[-113.5456,31.2964],[-113.3536,31.2651],[-113.2551,31.2405],[-113.2245,31.2395],[-113.1204,31.1917],[-113.1015,31.1894],[-113.0896,31.1557],[-113.0775,31.1517],[-113.0655,31.0853],[-113.059,31.0723],[-113.062,31.0334],[-113.0902,31.005],[-113.0965,30.97],[-113.1011,30.8909],[-113.1151,30.8325],[-113.1272,30.812],[-113.1048,30.7577],[-113.0843,30.6785],[-113.0398,30.6072],[-112.9876,30.5361],[-112.9447,30.505],[-112.8991,30.4614],[-112.8762,30.4327],[-112.8566,30.3956],[-112.8467,30.3487],[-112.8469,30.3062],[-112.8597,30.2681],[-112.8168,30.2635],[-112.7759,30.2257],[-112.7596,30.1986],[-112.7523,30.1578],[-112.7537,30.1143],[-112.7615,30.0631],[-112.7445,30.0361],[-112.7327,29.9964],[-112.7472,29.9222],[-112.7386,29.9056],[-112.7077,29.9107],[-112.6665,29.893],[-112.6509,29.8648],[-112.6514,29.8345],[-112.606,29.7792],[-112.586,29.7395],[-112.5799,29.7115],[-112.5523,29.6972],[-112.5256,29.6664],[-112.5226,29.65],[-112.4762,29.5901],[-112.4345,29.5585],[-112.4288,29.5197],[-112.387,29.4975],[-112.3781,29.4814],[-112.3821,29.4486],[-112.4213,29.3758],[-112.4104,29.3459],[-112.379,29.3274],[-112.3478,29.3223],[-112.3026,29.3393],[-112.2584,29.328],[-112.2321,29.3062],[-112.2114,29.2629],[-112.2085,29.2434],[-112.229,29.179],[-112.1995,29.1764],[-112.1648,29.1141],[-112.182,29.0843],[-112.1703,29.0718],[-112.1679,29.0273],[-112.1526,29.0012],[-112.1588,28.9622],[-112.1127,28.9609],[-112.0956,28.9502],[-112.0858,28.9253],[-112.0478,28.8993],[-112.0313,28.8594],[-111.9692,28.8419],[-111.9336,28.8143],[-111.8893,28.8153],[-111.8828,28.7988],[-111.8548,28.7898],[-111.8557,28.7591],[-111.8845,28.7522],[-111.9001,28.7872],[-111.9217,28.7664],[-111.9504,28.758],[-111.9238,28.7296],[-111.9251,28.7188],[-111.885,28.6898],[-111.8569,28.6624],[-111.7974,28.627],[-111.7643,28.5925],[-111.7375,28.5225],[-111.7156,28.4951],[-111.7109,28.4586],[-111.6445,28.4435],[-111.5819,28.4151],[-111.538,28.4043],[-111.487,28.3844],[-111.456,28.36],[-111.4596,28.3366],[-111.4514,28.3079],[-111.4079,28.2731],[-111.3904,28.2709],[-111.3756,28.2401],[-111.3741,28.2171],[-111.3438,28.2097],[-111.3208,28.155],[-111.285,28.1138],[-111.2774,28.0846],[-111.2511,28.0594],[-111.2119,28.042],[-111.1911,28.0231],[-111.1738,27.9917],[-111.1423,27.986],[-111.0993,27.9612],[-111.0772,27.9361],[-111.024,27.9629],[-110.9988,27.9627],[-110.9708,27.9287],[-110.943,27.9277],[-110.9633,27.8973],[-110.9426,27.869],[-110.9062,27.868],[-110.876,27.8515],[-110.8655,27.9031],[-110.9054,27.8916],[-110.8911,27.9204],[-110.8764,27.924],[-110.8446,27.9527],[-110.8618,27.9709],[-110.8484,27.985],[-110.829,27.9675],[-110.8084,27.9244],[-110.7292,27.9088],[-110.6804,27.89],[-110.6551,27.9052],[-110.631,27.8822],[-110.6107,27.8884],[-110.5587,27.8734],[-110.524,27.8396],[-110.5637,27.8346],[-110.5822,27.8392],[-110.6017,27.8086],[-110.591,27.7943],[-110.6127,27.7729],[-110.6105,27.7563],[-110.5726,27.7355],[-110.6042,27.7125],[-110.6009,27.6937],[-110.5662,27.6864],[-110.6078,27.6521],[-110.6218,27.6528],[-110.6262,27.6186],[-110.6202,27.5972],[-110.5969,27.5889],[-110.5992,27.5461],[-110.5803,27.5403],[-110.5877,27.5162],[-110.5842,27.455],[-110.5582,27.4403],[-110.5636,27.4149],[-110.5255,27.391],[-110.4934,27.3792],[-110.4763,27.3528],[-110.4878,27.3174],[-110.5244,27.2981],[-110.4541,27.2783],[-110.4099,27.2497],[-110.332,27.1723],[-110.30932618110235,27.157767322834644]]],[[[-108.2416,25.1753],[-108.273,25.1793],[-108.2572,25.1537],[-108.2416,25.1753]]],[[[-108.3224,25.1925],[-108.3524,25.2083],[-108.3659,25.1911],[-108.3563,25.1667],[-108.3339,25.1649],[-108.2749,25.1433],[-108.2835,25.1641],[-108.3011,25.1655],[-108.3224,25.1925]]],[[[-108.7426,25.3971],[-108.7933,25.3944],[-108.7721,25.3766],[-108.7436,25.382],[-108.7426,25.3971]]],[[[-108.9998,25.4429],[-108.9112,25.4206],[-108.8683,25.4047],[-108.8053,25.3739],[-108.8081,25.3944],[-108.8248,25.415],[-108.8459,25.4167],[-108.8913,25.4366],[-108.9307,25.4359],[-108.9998,25.4429]]],[[[-110.697,25.3053],[-110.7272,25.2921],[-110.7309,25.2767],[-110.7095,25.268],[-110.697,25.3053]]],[[[-109.3159,25.6536],[-109.2509,25.6354],[-109.2153,25.6214],[-109.1748,25.5863],[-109.1696,25.5968],[-109.1888,25.6249],[-109.2225,25.6398],[-109.26,25.6436],[-109.296,25.6547],[-109.3159,25.6536]]],[[[-110.7721,25.7085],[-110.7995,25.6842],[-110.8061,25.6585],[-110.7899,25.6106],[-110.7559,25.6007],[-110.7702,25.6769],[-110.7721,25.7085]]],[[[-111.0345,25.7134],[-111.0596,25.7073],[-111.0373,25.655],[-111.0153,25.6692],[-111.0173,25.6936],[-111.0345,25.7134]]],[[[-111.2639,26.136],[-111.2879,26.1186],[-111.2636,26.1059],[-111.2639,26.136]]],[[[-111.0645,26.0662],[-111.0979,26.053],[-111.1204,26.0585],[-111.1754,26.0417],[-111.1688,26.0161],[-111.1723,25.979],[-111.1979,25.955],[-111.2091,25.9298],[-111.215,25.8746],[-111.2331,25.8483],[-111.2284,25.8226],[-111.2014,25.8115],[-111.204,25.8481],[-111.1822,25.8672],[-111.1803,25.9045],[-111.1556,25.9314],[-111.1225,25.9784],[-111.1021,25.9981],[-111.0793,25.9722],[-111.0822,26.0325],[-111.0645,26.0662]]],[[[-113.0978,26.6486],[-113.1239,26.6369],[-113.089,26.6233],[-113.0978,26.6486]]],[[[-113.2179,26.7275],[-113.2373,26.7333],[-113.2575,26.7011],[-113.1837,26.6853],[-113.1458,26.6623],[-113.1547,26.6936],[-113.1763,26.719],[-113.2179,26.7275]]],[[[-113.2244,26.768],[-113.2147,26.7381],[-113.1909,26.7452],[-113.2244,26.768]]],[[[-112.0725,27.2453],[-112.0914,27.2587],[-112.1052,27.2398],[-112.0855,27.2058],[-112.0849,27.1861],[-112.0591,27.18],[-112.0469,27.2248],[-112.0725,27.2453]]],[[[-110.5941,27.3999],[-110.5962,27.3951],[-110.6061,27.3468],[-110.6014,27.3167],[-110.5869,27.3054],[-110.5378,27.2865],[-110.5314,27.3027],[-110.5709,27.3116],[-110.5796,27.3405],[-110.5916,27.356],[-110.6028,27.3616],[-110.5941,27.3999]]],[[[-112.5498,28.7283],[-112.5923,28.7308],[-112.612,28.7256],[-112.613,28.7044],[-112.6015,28.6768],[-112.5547,28.6722],[-112.5429,28.7111],[-112.5498,28.7283]]],[[[-112.8846,28.6754],[-112.8675,28.6439],[-112.8438,28.6402],[-112.7995,28.611],[-112.7756,28.5774],[-112.7556,28.5915],[-112.8027,28.6345],[-112.8604,28.6721],[-112.8846,28.6754]]],[[[-115.2148,28.3751],[-115.2418,28.3513],[-115.2488,28.3095],[-115.2612,28.2952],[-115.2569,28.2727],[-115.2368,28.23],[-115.2531,28.204],[-115.3157,28.1358],[-115.3513,28.1155],[-115.3536,28.0772],[-115.3037,28.0962],[-115.2763,28.0867],[-115.2591,28.0629],[-115.2506,28.0361],[-115.2287,28.0299],[-115.2094,28.0402],[-115.182,28.0401],[-115.1876,28.0619],[-115.1856,28.1065],[-115.1567,28.1409],[-115.1597,28.1911],[-115.1764,28.2161],[-115.1658,28.261],[-115.1755,28.3065],[-115.1967,28.3336],[-115.1946,28.3546],[-115.2148,28.3751]]],[[[-112.3286,29.2201],[-112.3597,29.2203],[-112.3992,29.1896],[-112.4566,29.1942],[-112.4775,29.1674],[-112.4776,29.1405],[-112.4882,29.1284],[-112.494,29.0734],[-112.5061,29.0141],[-112.4867,28.9613],[-112.5068,28.924],[-112.5527,28.8903],[-112.5685,28.8845],[-112.5479,28.8577],[-112.4724,28.8217],[-112.4615,28.8026],[-112.4068,28.7995],[-112.3859,28.7773],[-112.3286,28.7636],[-112.3134,28.7536],[-112.2777,28.7694],[-112.2719,28.8247],[-112.257,28.8581],[-112.2396,28.8717],[-112.2161,28.9438],[-112.2117,28.9931],[-112.2025,29.0147],[-112.2231,29.0697],[-112.2582,29.1221],[-112.2744,29.1368],[-112.2719,29.1972],[-112.2893,29.2185],[-112.3286,29.2201]]],[[[-114.5945,31.7406],[-114.6089,31.7546],[-114.6323,31.7572],[-114.6674,31.7479],[-114.6225,31.7302],[-114.5945,31.7406]]],[[[-114.7448,31.796],[-114.766,31.8159],[-114.7999,31.8126],[-114.8002,31.7631],[-114.7911,31.73],[-114.7639,31.7057],[-114.7221,31.6946],[-114.693,31.6791],[-114.6498,31.6821],[-114.6669,31.7169],[-114.7174,31.7517],[-114.7381,31.7752],[-114.7448,31.796]]],[[[-113.5031,29.5353],[-113.5123,29.5492],[-113.568,29.5286],[-113.5636,29.5052],[-113.577,29.4698],[-113.5922,29.4511],[-113.5882,29.4089],[-113.5705,29.4015],[-113.5061,29.3228],[-113.4957,29.284],[-113.4409,29.2761],[-113.4292,29.2434],[-113.4042,29.2093],[-113.3639,29.1874],[-113.3506,29.1686],[-113.3007,29.1451],[-113.264,29.1046],[-113.2488,29.0731],[-113.2003,29.048],[-113.1889,29.0287],[-113.1559,29.0158],[-113.1158,28.9871],[-113.1154,29.0279],[-113.1001,29.0563],[-113.1484,29.0662],[-113.1552,29.097],[-113.1747,29.1275],[-113.1728,29.2261],[-113.1834,29.2883],[-113.2323,29.2887],[-113.251,29.2826],[-113.2968,29.282],[-113.304,29.2904],[-113.3446,29.2953],[-113.3666,29.307],[-113.3765,29.3482],[-113.3521,29.3827],[-113.3851,29.4433],[-113.4262,29.4747],[-113.4461,29.5053],[-113.4804,29.5319],[-113.5031,29.5353]]],[[[-112.0953,25.4877],[-112.1155,25.3625],[-112.1273,25.3119],[-112.1053,25.3244],[-112.1096,25.3757],[-112.0967,25.4275],[-112.1008,25.4465],[-112.0953,25.4877]]]]},"properties":{"GID_0":"MEX","ISO_A2":"MX","ISO_A3":"MEX","NAME_EN":"Mexico","NAME_IT":"Messico"}}
]}