{"type":"FeatureCollection", "features": [
{"type":"Feature","geometry":{"type":"Polygon","coordinates":[[[-3.8729,39.909],[-3.8146,39.8859],[-3.6977,39.947],[-3.5896,40.0135],[-3.5294,40.0184],[-3.5152,40.0433],[-3.4296,40.0388],[-3.3763,40.0498],[-3.3769,40.0752],[-3.3273,40.0796],[-3.2767,40.0474],[-3.2084,40.0632],[-3.0886,40.0705],[-3.054,40.1065],[-3.0978,40.1535],[-3.0771,40.1731],[-3.079,40.224],[-3.112,40.2856],[-3.1601,40.2565],[-3.1835,40.2693],[-3.1778,40.3151],[-3.1533,40.3317],[-3.1304,40.4051],[-3.1559,40.4392],[-3.1986,40.4423],[-3.2006,40.5147],[-3.2817,40.5524],[-3.2833,40.5715],[-3.3304,40.5974],[-3.3233,40.6301],[-3.4616,40.6927],[-3.4341,40.7308],[-3.45,40.7722],[-3.5026,40.7891],[-3.4441,40.8879],[-3.4356,40.9337],[-3.3976,41.0074],[-3.4382,41.0426],[-3.4257,41.0733],[-3.4755,41.0957],[-3.5111,41.1342],[-3.5834,41.1611],[-3.6136,41.1491],[-3.6506,41.1073],[-3.7392,41.0539],[-3.7818,41.0002],[-3.895,40.967],[-3.9526,40.8935],[-3.9465,40.8648],[-3.9796,40.7998],[-4.0213,40.7813],[-4.07,40.7938],[-4.1719,40.6796],[-4.1612,40.6234],[-4.2151,40.6049],[-4.2832,40.5953],[-4.2896,40.5644],[-4.3229,40.5511],[-4.3241,40.4186],[-4.432,40.3978],[-4.4554,40.3199],[-4.5043,40.3151],[-4.5691,40.2572],[-4.5358,40.1996],[-4.4798,40.2302],[-4.4373,40.2377],[-4.3775,40.3176],[-4.3568,40.3097],[-4.3478,40.2455],[-4.2711,40.2332],[-4.2457,40.2737],[-4.2037,40.269],[-4.1795,40.2934],[-4.1505,40.2494],[-4.1041,40.2418],[-4.0711,40.2648],[-3.9923,40.2097],[-3.9529,40.2123],[-3.9158,40.1915],[-3.8649,40.1872],[-3.835,40.1613],[-3.8001,40.1757],[-3.7718,40.1396],[-3.7206,40.148],[-3.6064,40.109],[-3.6205,40.0561],[-3.7003,40.0189],[-3.7514,39.9528],[-3.8081,39.9548],[-3.8758,39.9287],[-3.8729,39.909]]]},"properties":{"GID_0":"ESP","GID_1":"ESP.8_1","GID_2":"ESP.8.1_1","NAME_1":"ComunidaddeMadrid","NAME_2":"Madrid"}}
]}