{"type":"FeatureCollection", "features": [
{"type":"Feature","geometry":{"type":"Polygon","coordinates":[[[-6.5567,42.9138],[-6.5104,42.9287],[-6.4422,42.9393],[-6.4249,42.9876],[-6.3942,43.0166],[-6.3969,43.0383],[-6.3578,43.0566],[-6.3264,43.0313],[-6.2267,43.0089],[-6.2138,43.0466],[-6.186,43.0495],[-6.1365,43.021],[-6.0897,43.0381],[-6.0917,43.0669],[-6.0201,43.0548],[-5.974,43.0649],[-5.9566,43.0186],[-5.9195,43.0028],[-5.889,42.979],[-5.8502,42.9674],[-5.7655,42.9692],[-5.7664,42.986],[-5.7283,43.0425],[-5.6882,43.0568],[-5.643,43.0378],[-5.5745,43.0322],[-5.5403,43.0183],[-5.4481,43.0554],[-5.3903,43.0493],[-5.383,43.0872],[-5.282,43.0774],[-5.2684,43.0875],[-5.2201,43.0836],[-5.1885,43.0997],[-5.1016,43.1018],[-5.0948,43.143],[-5.0758,43.1815],[-4.9965,43.1854],[-4.9422,43.2249],[-4.8935,43.2384],[-4.8601,43.2184],[-4.8409,43.1807],[-4.7778,43.192],[-4.7457,43.1841],[-4.7216,43.2295],[-4.7309,43.2573],[-4.7048,43.2653],[-4.6348,43.2687],[-4.5983,43.2985],[-4.5234,43.2781],[-4.519,43.3099],[-4.5394,43.3439],[-4.5344,43.3683],[-4.5105,43.3806],[-4.5346,43.4004],[-4.5568,43.3937],[-4.6538,43.401],[-4.7407,43.4179],[-4.839,43.4465],[-4.8829,43.4485],[-4.9457,43.4615],[-4.9801,43.459],[-5.0735,43.466],[-5.1293,43.484],[-5.2151,43.4735],[-5.2651,43.5176],[-5.2988,43.5357],[-5.3854,43.5326],[-5.396,43.5501],[-5.516,43.5521],[-5.6093,43.5499],[-5.6199,43.5579],[-5.6924,43.5432],[-5.7168,43.5685],[-5.7543,43.5838],[-5.7879,43.619],[-5.8288,43.6404],[-5.9151,43.6243],[-5.9129,43.6079],[-5.9429,43.5857],[-6.0115,43.5796],[-6.1162,43.5549],[-6.1707,43.5696],[-6.1824,43.564],[-6.2407,43.5927],[-6.3035,43.5635],[-6.3465,43.5526],[-6.3962,43.5601],[-6.4299,43.5526],[-6.4713,43.5704],[-6.4815,43.5526],[-6.5226,43.551],[-6.6163,43.5621],[-6.6221,43.5715],[-6.7251,43.5551],[-6.7651,43.5704],[-6.7887,43.556],[-6.824,43.5654],[-6.9421,43.5746],[-6.9568,43.5638],[-7.0304,43.544],[-7.0463,43.4774],[-7.0902,43.4539],[-7.1027,43.427],[-7.1728,43.4304],[-7.1785,43.388],[-7.1274,43.3726],[-7.1326,43.3477],[-7.0973,43.3014],[-7.0651,43.2991],[-7.0651,43.2494],[-7.0199,43.2132],[-6.965,43.187],[-6.9733,43.1495],[-6.9414,43.1318],[-6.9193,43.141],[-6.8716,43.1798],[-6.8388,43.1661],[-6.8214,43.1432],[-6.8275,43.1231],[-6.8902,43.0905],[-6.9517,43.0762],[-6.9689,43.0327],[-6.9948,43.0263],[-6.975,42.9963],[-6.9405,43.0114],[-6.9102,42.9901],[-6.8716,42.9889],[-6.8359,42.9577],[-6.8357,42.9163],[-6.7705,42.8986],[-6.7565,42.883],[-6.7225,42.9175],[-6.6386,42.9254],[-6.5567,42.9138]]]},"properties":{"GID_0":"ESP","GID_1":"ESP.17_1","GID_2":"ESP.17.1_1","NAME_1":"PrincipadodeAsturias","NAME_2":"Asturias"}}
]}