{"type":"FeatureCollection", "features": [
{"type":"Feature","geometry":{"type":"Polygon","coordinates":[[[-0.9289,38.7839],[-0.9614,38.7748],[-0.9157,38.696],[-0.9624,38.657],[-1.0261,38.6557],[-1.0015,38.5729],[-1.0262,38.5225],[-1.0139,38.4971],[-1.0817,38.4419],[-1.0844,38.3465],[-0.989,38.3206],[-0.9677,38.2559],[-0.9887,38.1996],[-1.0366,38.1374],[-1.0222,38.0752],[-0.966,38.0127],[-0.9213,37.9445],[-0.8302,37.8643],[-0.7621,37.8474],[-0.7504,37.8982],[-0.719,37.9115],[-0.6932,37.9721],[-0.6529,37.9965],[-0.6385,38.1368],[-0.5951,38.189],[-0.5104,38.201],[-0.521,38.2899],[-0.5062,38.3326],[-0.4449,38.3632],[-0.4124,38.3515],[-0.4013,38.4121],[-0.3751,38.4426],[-0.2887,38.4876],[-0.1732,38.5154],[-0.1476,38.5368],[-0.0965,38.5235],[-0.0487,38.5632],[-0.0612,38.5832],[-0.0157,38.6265],[0.0676,38.6404],[0.1018,38.6738],[0.1557,38.6871],[0.2024,38.7318],[0.1901,38.8093],[0.0924,38.8543],[-0.0371,38.8806],[-0.0706,38.8858],[-0.148,38.8585],[-0.2305,38.8535],[-0.3108,38.8815],[-0.3823,38.8346],[-0.404,38.8332],[-0.4402,38.8239],[-0.4599,38.8151],[-0.4618,38.8077],[-0.5352,38.8104],[-0.5952,38.7951],[-0.5656,38.7555],[-0.5071,38.743],[-0.618,38.6867],[-0.6434,38.7278],[-0.752,38.7554],[-0.8302,38.7325],[-0.8616,38.7709],[-0.9289,38.7839]]]},"properties":{"GID_0":"ESP","GID_1":"ESP.10_1","GID_2":"ESP.10.1_1","NAME_1":"ComunidadValenciana","NAME_2":"Alicante"}},
{"type":"Feature","geometry":{"type":"Polygon","coordinates":[[[-0.7976,39.8811],[-0.7364,39.8201],[-0.691,39.8525],[-0.6561,39.836],[-0.6523,39.7541],[-0.5882,39.7417],[-0.5483,39.7958],[-0.5137,39.7789],[-0.4609,39.7154],[-0.4095,39.7452],[-0.3779,39.7999],[-0.3085,39.797],[-0.2711,39.7505],[-0.2286,39.7368],[-0.1885,39.7221],[-0.0879,39.8554],[-0.006,39.9146],[0.0493,40.0351],[0.1351,40.0737],[0.1837,40.1632],[0.264,40.2079],[0.2796,40.2446],[0.3257,40.2754],[0.4024,40.3529],[0.4179,40.4012],[0.476,40.4651],[0.5154,40.5229],[0.449,40.5413],[0.4307,40.5797],[0.3892,40.6066],[0.3453,40.6076],[0.2789,40.6301],[0.2171,40.7326],[0.1125,40.7272],[0.0422,40.691],[0.0158,40.7285],[-0.0647,40.7274],[-0.1331,40.758],[-0.1445,40.7855],[-0.1944,40.7818],[-0.224,40.7542],[-0.2359,40.6911],[-0.3061,40.664],[-0.3288,40.6803],[-0.378,40.6674],[-0.3796,40.6236],[-0.322,40.6029],[-0.2932,40.6111],[-0.3018,40.516],[-0.2903,40.4706],[-0.3326,40.4591],[-0.3328,40.4256],[-0.2852,40.3863],[-0.341,40.329],[-0.4001,40.2942],[-0.3836,40.2649],[-0.4945,40.2288],[-0.5441,40.2517],[-0.5869,40.1315],[-0.6286,40.1021],[-0.6272,40.0762],[-0.6641,40.0515],[-0.7622,40.0413],[-0.7896,39.9899],[-0.8379,39.9766],[-0.8299,39.9068],[-0.7976,39.8811]]]},"properties":{"GID_0":"ESP","GID_1":"ESP.10_1","GID_2":"ESP.10.2_1","NAME_1":"ComunidadValenciana","NAME_2":"Castellón"}},
{"type":"Feature","geometry":{"type":"MultiPolygon","coordinates":[[[[-0.4618,38.8077],[-0.4599,38.8151],[-0.4402,38.8239],[-0.404,38.8332],[-0.3823,38.8346],[-0.3108,38.8815],[-0.2305,38.8535],[-0.148,38.8585],[-0.0706,38.8858],[-0.0371,38.8806],[-0.1535,38.991],[-0.2082,39.0724],[-0.2396,39.146],[-0.2199,39.1807],[-0.2926,39.3065],[-0.3343,39.4235],[-0.3162,39.5235],[-0.2812,39.5624],[-0.266,39.6046],[-0.214,39.6468],[-0.1888,39.7221],[-0.2286,39.7368],[-0.2711,39.7505],[-0.3085,39.797],[-0.3779,39.7999],[-0.4095,39.7452],[-0.4609,39.7154],[-0.5137,39.7789],[-0.5483,39.7958],[-0.5882,39.7417],[-0.6523,39.7541],[-0.6561,39.836],[-0.691,39.8525],[-0.7364,39.8201],[-0.7976,39.8811],[-0.8635,39.8474],[-0.9002,39.8919],[-0.9245,39.9593],[-0.9913,39.9819],[-1.105,39.975],[-1.2039,39.9494],[-1.1999,39.8595],[-1.2149,39.8088],[-1.2754,39.737],[-1.2619,39.6989],[-1.3128,39.6705],[-1.3685,39.6896],[-1.4179,39.655],[-1.462,39.5766],[-1.5043,39.5639],[-1.5138,39.458],[-1.5245,39.4431],[-1.4667,39.4012],[-1.4625,39.3794],[-1.3837,39.3663],[-1.3522,39.3398],[-1.318,39.3432],[-1.2501,39.3225],[-1.1781,39.3147],[-1.1763,39.2303],[-1.1944,39.1804],[-1.2557,39.1062],[-1.2638,39.0451],[-1.2265,39.0247],[-1.1466,38.9294],[-0.9593,38.9446],[-0.9408,38.8997],[-0.9289,38.7839],[-0.8616,38.7709],[-0.8302,38.7325],[-0.752,38.7554],[-0.6434,38.7278],[-0.618,38.6867],[-0.5071,38.743],[-0.5656,38.7555],[-0.5952,38.7951],[-0.5352,38.8104],[-0.4618,38.8077]]],[[[-1.2757,40.0041],[-1.248,39.9951],[-1.1361,40.0151],[-1.0842,40.0362],[-1.078,40.0688],[-1.1497,40.1148],[-1.2449,40.1162],[-1.302,40.2058],[-1.3197,40.1464],[-1.357,40.1289],[-1.4488,40.1454],[-1.3768,40.0165],[-1.2757,40.0041]]]]},"properties":{"GID_0":"ESP","GID_1":"ESP.10_1","GID_2":"ESP.10.3_1","NAME_1":"ComunidadValenciana","NAME_2":"Valencia"}}
]}