{"type":"FeatureCollection", "features": [
{"type":"Feature","geometry":{"type":"MultiPolygon","coordinates":[[[[-15.4476,27.7982],[-15.4268,27.8046],[-15.4132,27.8471],[-15.3849,27.8571],[-15.3899,27.881],[-15.384,27.9271],[-15.3687,27.9404],[-15.381,27.9576],[-15.3662,27.9918],[-15.3863,28.0304],[-15.4154,28.0474],[-15.4201,28.0607],[-15.4107,28.1035],[-15.4243,28.1354],[-15.4012,28.1712],[-15.4193,28.1821],[-15.4429,28.1621],[-15.4438,28.1318],[-15.4771,28.1371],[-15.5299,28.156],[-15.5432,28.1476],[-15.6126,28.1474],[-15.6268,28.1657],[-15.6693,28.1596],[-15.6835,28.1712],[-15.7065,28.1568],[-15.6993,28.1349],[-15.7093,28.1207],[-15.711,28.0835],[-15.7382,28.0551],[-15.7865,28.0218],[-15.8135,28.0182],[-15.834,27.9707],[-15.8282,27.949],[-15.8318,27.9093],[-15.8179,27.8926],[-15.7882,27.8343],[-15.754,27.8143],[-15.7257,27.7879],[-15.6901,27.771],[-15.6746,27.7488],[-15.6593,27.7565],[-15.6001,27.734],[-15.569,27.7368],[-15.5632,27.7604],[-15.4951,27.7896],[-15.4476,27.7982]]],[[[-13.8579,28.4296],[-13.8621,28.494],[-13.8421,28.5032],[-13.8221,28.5938],[-13.8285,28.6293],[-13.8299,28.6946],[-13.8404,28.7276],[-13.8868,28.7576],[-13.9251,28.7529],[-14.0176,28.7151],[-14.0099,28.6782],[-14.0393,28.6151],[-14.0337,28.5929],[-14.0668,28.5518],[-14.0718,28.5299],[-14.0985,28.479],[-14.1521,28.4301],[-14.164,28.3674],[-14.2051,28.3282],[-14.2126,28.2951],[-14.209,28.2599],[-14.2154,28.226],[-14.2282,28.2101],[-14.3101,28.1474],[-14.3693,28.1171],[-14.4499,28.101],[-14.4915,28.1113],[-14.4932,28.084],[-14.4087,28.0579],[-14.3624,28.0474],[-14.3257,28.0476],[-14.2735,28.0974],[-14.2257,28.1601],[-14.2015,28.1726],[-14.1576,28.1765],[-14.1237,28.1912],[-14.0751,28.2013],[-14.0121,28.2071],[-13.9876,28.2274],[-13.9354,28.2329],[-13.8962,28.2876],[-13.9026,28.2974],[-13.8857,28.3246],[-13.8629,28.3843],[-13.8485,28.4085],[-13.8579,28.4296]]],[[[-13.6987,28.9176],[-13.6421,28.919],[-13.5751,28.9543],[-13.5474,28.9543],[-13.5318,28.9726],[-13.4854,28.996],[-13.4629,29.0246],[-13.4657,29.0557],[-13.4482,29.101],[-13.4643,29.1282],[-13.4282,29.1537],[-13.4182,29.2021],[-13.439,29.2235],[-13.4657,29.2268],[-13.4971,29.219],[-13.5232,29.169],[-13.5251,29.141],[-13.5513,29.1171],[-13.5846,29.1346],[-13.6585,29.1254],[-13.6651,29.111],[-13.7068,29.0832],[-13.7524,29.0796],[-13.7946,29.0515],[-13.8307,29.0071],[-13.8346,28.9371],[-13.8585,28.8974],[-13.8818,28.8874],[-13.8774,28.8593],[-13.8296,28.8621],[-13.7993,28.8576],[-13.7887,28.8449],[-13.7476,28.8779],[-13.741,28.9021],[-13.6987,28.9176]]],[[[-13.506,29.2904],[-13.5249,29.2676],[-13.5274,29.2415],[-13.504,29.2243],[-13.4718,29.2693],[-13.506,29.2904]]],[[[-13.5026,29.4168],[-13.5237,29.4121],[-13.5304,29.3851],[-13.5063,29.3838],[-13.4887,29.4024],[-13.5026,29.4168]]]]},"properties":{"GID_0":"ESP","GID_1":"ESP.14_1","GID_2":"ESP.14.1_1","NAME_1":"IslasCanarias","NAME_2":"LasPalmas"}},
{"type":"Feature","geometry":{"type":"MultiPolygon","coordinates":[[[[-17.2082,28.0238],[-17.1663,28.0365],[-17.1432,28.0626],[-17.1221,28.0724],[-17.104,28.1038],[-17.1024,28.1285],[-17.1187,28.1529],[-17.1829,28.1796],[-17.1932,28.1976],[-17.2318,28.2015],[-17.2599,28.214],[-17.3182,28.2046],[-17.3457,28.1524],[-17.349,28.0976],[-17.3254,28.0799],[-17.3107,28.0515],[-17.2918,28.0465],[-17.2701,28.0246],[-17.2446,28.0196],[-17.2082,28.0238]]],[[[-17.9615,27.6912],[-17.9562,27.721],[-17.9299,27.7288],[-17.9021,27.786],[-17.8826,27.8029],[-17.9013,27.8421],[-17.936,27.849],[-17.9737,27.8268],[-17.9979,27.7918],[-18.0362,27.7632],[-18.0701,27.7535],[-18.114,27.7601],[-18.1301,27.7724],[-18.1521,27.7588],[-18.1604,27.7143],[-18.0513,27.6926],[-18.0368,27.6857],[-18.0104,27.6499],[-17.9785,27.6385],[-17.9615,27.6912]]],[[[-17.7935,28.5243],[-17.7874,28.5429],[-17.7599,28.569],[-17.7501,28.6265],[-17.7685,28.6774],[-17.7518,28.7065],[-17.7235,28.7382],[-17.7529,28.7787],[-17.7774,28.839],[-17.8035,28.8418],[-17.8526,28.8335],[-17.8957,28.8429],[-17.906,28.8554],[-17.9454,28.8426],[-17.9779,28.8043],[-18.0074,28.7829],[-18.0099,28.749],[-17.9821,28.7293],[-17.9649,28.6679],[-17.939,28.6404],[-17.9115,28.5862],[-17.8849,28.5488],[-17.8682,28.4724],[-17.8329,28.4565],[-17.8174,28.494],[-17.7935,28.5243]]],[[[-16.8526,28.2738],[-16.8371,28.254],[-16.8376,28.2076],[-16.8057,28.1718],[-16.804,28.1574],[-16.7735,28.1132],[-16.7371,28.0863],[-16.7368,28.0557],[-16.7115,28.0476],[-16.7074,28.0104],[-16.6782,27.9979],[-16.646,28.0035],[-16.596,28.0287],[-16.5429,28.0385],[-16.5065,28.0671],[-16.4385,28.1437],[-16.4257,28.1699],[-16.4243,28.2038],[-16.3618,28.3054],[-16.369,28.3557],[-16.3599,28.3799],[-16.3204,28.4001],[-16.254,28.451],[-16.2354,28.4857],[-16.1304,28.5351],[-16.1257,28.5718],[-16.1582,28.589],[-16.2224,28.5663],[-16.2685,28.5746],[-16.2913,28.5701],[-16.3304,28.5771],[-16.3365,28.5565],[-16.3862,28.5468],[-16.4215,28.5176],[-16.4271,28.4912],[-16.4668,28.4601],[-16.4749,28.4418],[-16.5035,28.4246],[-16.5549,28.4193],[-16.604,28.3943],[-16.6754,28.4015],[-16.6807,28.3913],[-16.7249,28.3774],[-16.8101,28.3768],[-16.8332,28.3935],[-16.8946,28.3629],[-16.9237,28.3543],[-16.881,28.3132],[-16.8526,28.2738]]]]},"properties":{"GID_0":"ESP","GID_1":"ESP.14_1","GID_2":"ESP.14.2_1","NAME_1":"IslasCanarias","NAME_2":"SantaCruzdeTenerife"}}
]}