{"type":"FeatureCollection", "features": [
{"type":"Feature","geometry":{"type":"Polygon","coordinates":[[[-5.7374,40.2941],[-5.6925,40.2921],[-5.6261,40.2477],[-5.6099,40.2155],[-5.5309,40.1947],[-5.4708,40.2079],[-5.4297,40.2523],[-5.3431,40.2641],[-5.3626,40.223],[-5.3679,40.1641],[-5.3157,40.107],[-5.2128,40.1069],[-5.202,40.0829],[-5.1247,40.1041],[-5.0627,40.1516],[-5.0184,40.1591],[-5.0061,40.1097],[-4.9253,40.136],[-4.9102,40.1755],[-4.7611,40.2609],[-4.698,40.2822],[-4.6866,40.211],[-4.6168,40.2002],[-4.5606,40.2228],[-4.5691,40.2572],[-4.5043,40.3151],[-4.4554,40.3199],[-4.432,40.3978],[-4.3241,40.4186],[-4.3229,40.5511],[-4.2832,40.5953],[-4.1612,40.6234],[-4.1602,40.6898],[-4.2528,40.6895],[-4.275,40.6763],[-4.3196,40.6475],[-4.4195,40.6334],[-4.431,40.7424],[-4.4805,40.7862],[-4.4937,40.8335],[-4.5463,40.8256],[-4.5352,40.8724],[-4.5595,40.8859],[-4.5663,40.9562],[-4.6066,40.9708],[-4.6394,41.0301],[-4.7164,41.0716],[-4.722,41.1493],[-4.8057,41.1352],[-4.8279,41.0992],[-4.8636,41.094],[-4.9675,41.1523],[-5.0138,41.1622],[-5.0598,41.1386],[-5.1239,41.1356],[-5.1291,41.1054],[-5.1464,41.0436],[-5.1065,41.0295],[-5.0897,40.9966],[-5.1281,40.9486],[-5.1111,40.9149],[-5.1614,40.8622],[-5.1614,40.814],[-5.2927,40.7103],[-5.3647,40.6794],[-5.3828,40.6208],[-5.4475,40.5796],[-5.5161,40.5854],[-5.5174,40.5456],[-5.431,40.5672],[-5.4331,40.5342],[-5.4693,40.4622],[-5.5184,40.452],[-5.5113,40.4435],[-5.5446,40.4231],[-5.5897,40.4673],[-5.6341,40.4604],[-5.6911,40.422],[-5.6862,40.3554],[-5.7374,40.2941]]]},"properties":{"GID_0":"ESP","GID_1":"ESP.5_1","GID_2":"ESP.5.1_1","NAME_1":"CastillayLeón","NAME_2":"Ávila"}},
{"type":"Feature","geometry":{"type":"MultiPolygon","coordinates":[[[[-3.6915,41.5345],[-3.6813,41.552],[-3.6452,41.5721],[-3.5415,41.5776],[-3.5361,41.5865],[-3.4591,41.5896],[-3.4073,41.6756],[-3.3583,41.6934],[-3.3528,41.7379],[-3.2754,41.7687],[-3.2889,41.8425],[-3.279,41.8679],[-3.1944,41.8289],[-3.1713,41.793],[-3.0877,41.8763],[-3.0167,41.8869],[-2.9984,41.9326],[-2.9321,42.018],[-2.9136,42.0228],[-2.9324,42.0809],[-3.0343,42.086],[-3.0589,42.127],[-3.1288,42.2009],[-3.0885,42.2457],[-3.1092,42.3519],[-3.0531,42.3734],[-3.0733,42.4765],[-3.0717,42.5277],[-3.1054,42.5539],[-3.0604,42.6026],[-3.081,42.6313],[-3.0047,42.6443],[-2.8835,42.6244],[-2.9024,42.6936],[-2.987,42.7088],[-3.0178,42.7412],[-3.1006,42.7672],[-3.1592,42.8046],[-3.1498,42.8613],[-3.1906,42.8694],[-3.2258,42.8301],[-3.2826,42.8755],[-3.2247,42.9497],[-3.1477,42.9327],[-3.1265,42.904],[-3.0189,42.9085],[-3.0116,42.9524],[-3.0602,43.0035],[-3.1447,43.0068],[-3.1339,43.0972],[-3.1817,43.1209],[-3.1413,43.1615],[-3.168,43.1786],[-3.2235,43.1722],[-3.2534,43.1986],[-3.4219,43.1323],[-3.4869,43.1332],[-3.5855,43.1545],[-3.651,43.181],[-3.6837,43.1362],[-3.7569,43.085],[-3.8101,43.0866],[-3.8557,43.0393],[-3.9607,42.9924],[-3.9908,42.9308],[-3.9393,42.9102],[-3.8395,42.9398],[-3.8637,42.8898],[-3.8253,42.8686],[-3.8216,42.8003],[-3.9096,42.7864],[-3.9656,42.7586],[-4.0024,42.7684],[-4.0408,42.7673],[-4.0813,42.7614],[-4.1853,42.7362],[-4.276,42.673],[-4.2738,42.6169],[-4.2925,42.6059],[-4.2721,42.52],[-4.2425,42.4562],[-4.3066,42.4551],[-4.3353,42.4306],[-4.3215,42.3799],[-4.279,42.3612],[-4.2518,42.31],[-4.2268,42.2295],[-4.1909,42.181],[-4.2053,42.1346],[-4.1209,42.1283],[-4.0561,42.1009],[-4.104,42.0616],[-3.9824,42.0513],[-3.971,42.0332],[-4.0147,41.9986],[-3.9906,41.9597],[-3.9806,41.9006],[-4.0375,41.8728],[-4.0887,41.8706],[-4.09,41.8309],[-4.0379,41.7898],[-4.0408,41.7683],[-4.0557,41.7407],[-4.0242,41.6755],[-4.0352,41.6206],[-3.9806,41.5834],[-3.9286,41.5687],[-3.8636,41.529],[-3.8238,41.4811],[-3.7697,41.4601],[-3.7323,41.4699],[-3.7282,41.5176],[-3.6915,41.5345]]],[[[-2.7187,42.7887],[-2.8103,42.7915],[-2.8537,42.7682],[-2.8542,42.7364],[-2.7845,42.6989],[-2.7678,42.666],[-2.6539,42.67],[-2.6348,42.6478],[-2.5848,42.6516],[-2.5899,42.7108],[-2.5625,42.7413],[-2.7187,42.7887]]]]},"properties":{"GID_0":"ESP","GID_1":"ESP.5_1","GID_2":"ESP.5.2_1","NAME_1":"CastillayLeón","NAME_2":"Burgos"}},
{"type":"Feature","geometry":{"type":"Polygon","coordinates":[[[-5.7699,42.1359],[-5.7431,42.1134],[-5.6451,42.1321],[-5.5801,42.0584],[-5.5269,42.1043],[-5.5166,42.0934],[-5.4808,42.0524],[-5.4247,42.0356],[-5.4202,42.0292],[-5.3762,42.0415],[-5.3743,42.0432],[-5.3714,42.13],[-5.3884,42.2053],[-5.388,42.2214],[-5.3074,42.1992],[-5.2655,42.2109],[-5.2446,42.2639],[-5.1978,42.2605],[-5.0936,42.3093],[-5.002,42.2891],[-4.9533,42.2971],[-4.9541,42.3442],[-4.9841,42.3379],[-4.9724,42.3744],[-4.9031,42.3865],[-4.8879,42.537],[-4.9144,42.5447],[-4.8946,42.6238],[-4.9003,42.6692],[-4.8799,42.704],[-4.9363,42.7444],[-4.909,42.7794],[-4.8885,42.8411],[-4.8554,42.8917],[-4.8137,42.924],[-4.7947,42.9866],[-4.7369,43.021],[-4.7664,43.0745],[-4.8327,43.1026],[-4.8347,43.1582],[-4.8601,43.2184],[-4.8935,43.2384],[-4.9422,43.2249],[-4.9965,43.1854],[-5.0758,43.1815],[-5.1016,43.1018],[-5.1885,43.0997],[-5.282,43.0774],[-5.383,43.0872],[-5.3903,43.0493],[-5.4481,43.0554],[-5.5403,43.0183],[-5.643,43.0378],[-5.6882,43.0568],[-5.7283,43.0425],[-5.7655,42.9692],[-5.8502,42.9674],[-5.9566,43.0186],[-5.974,43.0649],[-6.0201,43.0548],[-6.0917,43.0669],[-6.0897,43.0381],[-6.1365,43.021],[-6.186,43.0495],[-6.2267,43.0089],[-6.3264,43.0313],[-6.3578,43.0566],[-6.3969,43.0383],[-6.4422,42.9393],[-6.5411,42.9125],[-6.6386,42.9254],[-6.7225,42.9175],[-6.8711,42.8738],[-6.8402,42.8233],[-6.904,42.7595],[-7.0107,42.7236],[-7.045,42.6947],[-7.0089,42.6492],[-7.0469,42.6327],[-7.034,42.5841],[-7.0708,42.5379],[-7.0517,42.5086],[-7.0008,42.5057],[-6.9249,42.5194],[-6.8599,42.4887],[-6.8226,42.4908],[-6.8207,42.3856],[-6.7338,42.3591],[-6.741,42.2986],[-6.7658,42.2455],[-6.7037,42.2094],[-6.6385,42.2173],[-6.6131,42.2032],[-6.5259,42.2033],[-6.4781,42.1822],[-6.4278,42.2019],[-6.3293,42.1998],[-6.2518,42.173],[-6.2123,42.1481],[-6.1703,42.1582],[-6.0287,42.1576],[-5.9533,42.1237],[-5.9115,42.1406],[-5.8667,42.1201],[-5.7878,42.1334],[-5.7699,42.1359]]]},"properties":{"GID_0":"ESP","GID_1":"ESP.5_1","GID_2":"ESP.5.3_1","NAME_1":"CastillayLeón","NAME_2":"León"}},
{"type":"Feature","geometry":{"type":"Polygon","coordinates":[[[-4.4421,41.7586],[-4.3916,41.7873],[-4.3176,41.7634],[-4.2363,41.8114],[-4.1507,41.7989],[-4.0994,41.7744],[-4.0408,41.7683],[-4.0379,41.7898],[-4.09,41.8309],[-4.0887,41.8706],[-4.0375,41.8728],[-3.9806,41.9006],[-3.9906,41.9597],[-4.0147,41.9986],[-3.971,42.0332],[-3.9824,42.0513],[-4.104,42.0616],[-4.0561,42.1009],[-4.1209,42.1283],[-4.2053,42.1346],[-4.1909,42.181],[-4.2268,42.2295],[-4.2518,42.31],[-4.279,42.3612],[-4.3215,42.3799],[-4.3353,42.4306],[-4.3066,42.4551],[-4.2425,42.4562],[-4.2721,42.52],[-4.2925,42.6059],[-4.2738,42.6169],[-4.276,42.673],[-4.1853,42.7362],[-4.0813,42.7614],[-4.0984,42.7912],[-4.1498,42.7893],[-4.1489,42.8657],[-4.1993,42.8447],[-4.2256,42.8589],[-4.2384,42.9543],[-4.3472,42.9721],[-4.398,43.0348],[-4.463,43.06],[-4.5208,43.0473],[-4.5584,43.0195],[-4.606,43.0357],[-4.6381,43.0166],[-4.7369,43.021],[-4.7947,42.9866],[-4.8137,42.924],[-4.8554,42.8917],[-4.8885,42.8411],[-4.909,42.7794],[-4.9363,42.7444],[-4.8799,42.704],[-4.9003,42.6692],[-4.8946,42.6238],[-4.9144,42.5447],[-4.8879,42.537],[-4.9031,42.3865],[-4.9724,42.3744],[-4.9841,42.3379],[-4.9541,42.3442],[-4.9533,42.2971],[-5.002,42.2891],[-5.0246,42.2199],[-5.0203,42.2056],[-5.0269,42.1539],[-4.9274,42.1502],[-4.9167,42.0783],[-4.9496,42.051],[-5.0048,41.9379],[-4.8897,41.9328],[-4.8382,41.8985],[-4.7892,41.818],[-4.6696,41.9005],[-4.566,41.8126],[-4.4873,41.8201],[-4.4936,41.7803],[-4.4542,41.7592],[-4.4421,41.7586]]]},"properties":{"GID_0":"ESP","GID_1":"ESP.5_1","GID_2":"ESP.5.4_1","NAME_1":"CastillayLeón","NAME_2":"Palencia"}},
{"type":"Feature","geometry":{"type":"Polygon","coordinates":[[[-6.4796,41.2942],[-6.5516,41.2456],[-6.6484,41.2475],[-6.6914,41.2096],[-6.7004,41.181],[-6.7679,41.1348],[-6.7542,41.104],[-6.8089,41.0365],[-6.9313,41.0294],[-6.8591,40.9497],[-6.8385,40.8905],[-6.809,40.8824],[-6.8241,40.8401],[-6.8169,40.7971],[-6.8286,40.7385],[-6.794,40.6613],[-6.8454,40.5659],[-6.8009,40.5503],[-6.8108,40.5052],[-6.8497,40.4515],[-6.8387,40.4147],[-6.781,40.3643],[-6.7903,40.3342],[-6.8614,40.2996],[-6.8371,40.2486],[-6.7554,40.2463],[-6.7181,40.2692],[-6.6716,40.2632],[-6.5869,40.2707],[-6.5561,40.2908],[-6.5603,40.3291],[-6.5362,40.3473],[-6.3759,40.4002],[-6.3445,40.4428],[-6.2943,40.452],[-6.2398,40.4859],[-6.1576,40.457],[-6.1294,40.4208],[-6.075,40.4034],[-6.0823,40.3632],[-6.0159,40.3403],[-6.0061,40.3061],[-5.9416,40.2844],[-5.9082,40.2901],[-5.8841,40.3266],[-5.7974,40.3533],[-5.7649,40.2808],[-5.7374,40.2941],[-5.6862,40.3554],[-5.6911,40.422],[-5.6341,40.4604],[-5.5897,40.4673],[-5.5446,40.4231],[-5.5113,40.4435],[-5.5184,40.452],[-5.4693,40.4622],[-5.4331,40.5342],[-5.431,40.5672],[-5.5174,40.5456],[-5.5161,40.5854],[-5.4475,40.5796],[-5.3828,40.6208],[-5.3647,40.6794],[-5.2927,40.7103],[-5.1614,40.814],[-5.1614,40.8622],[-5.1111,40.9149],[-5.1281,40.9486],[-5.0897,40.9966],[-5.1065,41.0295],[-5.1464,41.0436],[-5.1291,41.1054],[-5.1248,41.132],[-5.1282,41.1336],[-5.1363,41.1412],[-5.1796,41.1673],[-5.2222,41.1706],[-5.2529,41.1998],[-5.2886,41.182],[-5.2977,41.1259],[-5.3407,41.1234],[-5.4001,41.1454],[-5.4075,41.1856],[-5.4263,41.1875],[-5.4877,41.1716],[-5.5549,41.2138],[-5.6282,41.2145],[-5.6568,41.2455],[-5.6675,41.2443],[-5.7652,41.2158],[-5.8351,41.2203],[-5.8976,41.2386],[-5.9212,41.2181],[-5.9151,41.1824],[-5.9531,41.1401],[-6.0024,41.1531],[-6.0087,41.2005],[-6.1092,41.2126],[-6.1344,41.1904],[-6.3721,41.2863],[-6.4146,41.276],[-6.4652,41.2862],[-6.4789,41.2884],[-6.4796,41.2942]]]},"properties":{"GID_0":"ESP","GID_1":"ESP.5_1","GID_2":"ESP.5.5_1","NAME_1":"CastillayLeón","NAME_2":"Salamanca"}},
{"type":"Feature","geometry":{"type":"Polygon","coordinates":[[[-4.722,41.1493],[-4.7164,41.0716],[-4.6394,41.0301],[-4.6066,40.9708],[-4.5663,40.9562],[-4.5595,40.8859],[-4.5352,40.8724],[-4.5463,40.8256],[-4.4937,40.8335],[-4.4805,40.7862],[-4.431,40.7424],[-4.4195,40.6334],[-4.3196,40.6475],[-4.275,40.6763],[-4.2528,40.6895],[-4.1602,40.6898],[-4.07,40.7938],[-4.0213,40.7813],[-3.9796,40.7998],[-3.9465,40.8648],[-3.9526,40.8935],[-3.895,40.967],[-3.7818,41.0002],[-3.7392,41.0539],[-3.6506,41.1073],[-3.6136,41.1491],[-3.527,41.1662],[-3.4091,41.2118],[-3.3994,41.2545],[-3.2901,41.2579],[-3.2073,41.3042],[-3.2069,41.3068],[-3.2202,41.3106],[-3.2721,41.3527],[-3.3471,41.397],[-3.3389,41.4529],[-3.424,41.4827],[-3.4206,41.5127],[-3.4796,41.5209],[-3.5383,41.552],[-3.5438,41.5721],[-3.5415,41.5776],[-3.6452,41.5721],[-3.6813,41.552],[-3.6915,41.5345],[-3.7282,41.5176],[-3.7323,41.4699],[-3.7697,41.4601],[-3.8238,41.4811],[-3.8636,41.529],[-3.9286,41.5687],[-3.9806,41.5834],[-3.9998,41.5161],[-4.1364,41.477],[-4.2277,41.46],[-4.3005,41.4577],[-4.3678,41.4392],[-4.4074,41.4418],[-4.4681,41.4131],[-4.5145,41.4096],[-4.4958,41.3639],[-4.6238,41.2343],[-4.6658,41.1803],[-4.722,41.1493]]]},"properties":{"GID_0":"ESP","GID_1":"ESP.5_1","GID_2":"ESP.5.6_1","NAME_1":"CastillayLeón","NAME_2":"Segovia"}},
{"type":"Feature","geometry":{"type":"Polygon","coordinates":[[[-3.2073,41.3042],[-3.0606,41.2765],[-2.9501,41.2926],[-2.9066,41.3276],[-2.8754,41.3214],[-2.8668,41.2745],[-2.7824,41.2538],[-2.7609,41.274],[-2.6548,41.2407],[-2.5781,41.1793],[-2.5812,41.1408],[-2.5169,41.1465],[-2.4694,41.0781],[-2.4021,41.0617],[-2.3553,41.0865],[-2.3233,41.0565],[-2.2635,41.0675],[-2.2321,41.097],[-2.1752,41.0838],[-2.1434,41.1026],[-2.0656,41.0958],[-2.0516,41.1469],[-2.0798,41.171],[-2.1462,41.1844],[-2.1704,41.3188],[-2.1201,41.3797],[-2.1015,41.4458],[-2.0356,41.4269],[-2.0292,41.3842],[-1.9527,41.4075],[-1.9532,41.4625],[-1.981,41.4864],[-1.9673,41.5461],[-1.9933,41.6001],[-1.923,41.5983],[-1.8589,41.6615],[-1.8131,41.6606],[-1.7868,41.6994],[-1.7877,41.7341],[-1.8529,41.7896],[-1.8185,41.83],[-1.8225,41.8654],[-1.8775,41.9524],[-1.982,41.9193],[-2.0281,41.9531],[-2.1004,41.9553],[-2.117,42.0215],[-2.1619,42.0667],[-2.1367,42.1031],[-2.2378,42.1022],[-2.3321,42.146],[-2.4384,42.1373],[-2.4586,42.1153],[-2.5146,42.1145],[-2.5148,42.0689],[-2.549,42.0515],[-2.5798,41.9963],[-2.6735,41.9981],[-2.7575,42.0326],[-2.7084,42.0863],[-2.7284,42.1229],[-2.7748,42.1235],[-2.8033,42.0805],[-2.7979,42.0468],[-2.8838,42.0095],[-2.9136,42.0228],[-2.9321,42.018],[-2.9984,41.9326],[-3.0167,41.8869],[-3.0877,41.8763],[-3.1713,41.793],[-3.1944,41.8289],[-3.279,41.8679],[-3.2889,41.8425],[-3.2754,41.7687],[-3.3528,41.7379],[-3.3583,41.6934],[-3.4073,41.6756],[-3.4591,41.5896],[-3.5361,41.5865],[-3.5438,41.5721],[-3.5383,41.552],[-3.4796,41.5209],[-3.4206,41.5127],[-3.424,41.4827],[-3.3389,41.4529],[-3.3471,41.397],[-3.2721,41.3527],[-3.2202,41.3106],[-3.2069,41.3068],[-3.2073,41.3042]]]},"properties":{"GID_0":"ESP","GID_1":"ESP.5_1","GID_2":"ESP.5.7_1","NAME_1":"CastillayLeón","NAME_2":"Soria"}},
{"type":"Feature","geometry":{"type":"MultiPolygon","coordinates":[[[[-5.4311,42.0024],[-5.443,42.0119],[-5.4215,42.0307],[-5.4247,42.0356],[-5.4808,42.0524],[-5.5166,42.0934],[-5.5208,42.0971],[-5.4727,42.0136],[-5.463,41.9754],[-5.456,41.9757],[-5.4311,42.0024]]],[[[-5.1239,41.1356],[-5.0598,41.1386],[-5.0138,41.1622],[-4.9675,41.1523],[-4.8636,41.094],[-4.8279,41.0992],[-4.8057,41.1352],[-4.722,41.1493],[-4.6658,41.1803],[-4.6238,41.2343],[-4.4958,41.3639],[-4.5145,41.4096],[-4.4681,41.4131],[-4.4074,41.4418],[-4.3678,41.4392],[-4.3005,41.4577],[-4.2277,41.46],[-4.1364,41.477],[-3.9998,41.5161],[-3.9806,41.5834],[-4.0352,41.6206],[-4.0242,41.6755],[-4.0557,41.7407],[-4.0408,41.7683],[-4.0994,41.7744],[-4.1507,41.7989],[-4.2363,41.8114],[-4.3176,41.7634],[-4.3916,41.7873],[-4.4421,41.7586],[-4.4542,41.7592],[-4.4936,41.7803],[-4.4873,41.8201],[-4.566,41.8126],[-4.6696,41.9005],[-4.7892,41.818],[-4.8382,41.8985],[-4.8897,41.9328],[-5.0048,41.9379],[-4.9496,42.051],[-4.9167,42.0783],[-4.9274,42.1502],[-5.0269,42.1539],[-5.0203,42.2056],[-5.0246,42.2199],[-5.002,42.2891],[-5.0936,42.3093],[-5.1978,42.2605],[-5.2446,42.2639],[-5.2655,42.2109],[-5.3074,42.1992],[-5.388,42.2214],[-5.3884,42.2053],[-5.3714,42.13],[-5.3743,42.0432],[-5.3763,42.0396],[-5.3254,42.0204],[-5.2805,41.9788],[-5.3314,41.9426],[-5.2936,41.9199],[-5.3064,41.8578],[-5.3271,41.8353],[-5.2795,41.8134],[-5.3913,41.7605],[-5.3714,41.7213],[-5.3281,41.6818],[-5.3288,41.6159],[-5.2704,41.6011],[-5.293,41.5744],[-5.2288,41.5284],[-5.2618,41.5037],[-5.337,41.4763],[-5.3391,41.4256],[-5.322,41.3263],[-5.2948,41.2825],[-5.3026,41.2241],[-5.2886,41.182],[-5.2529,41.1998],[-5.2222,41.1706],[-5.1796,41.1673],[-5.1363,41.1412],[-5.1282,41.1336],[-5.1248,41.132],[-5.1239,41.1356]]]]},"properties":{"GID_0":"ESP","GID_1":"ESP.5_1","GID_2":"ESP.5.8_1","NAME_1":"CastillayLeón","NAME_2":"Valladolid"}},
{"type":"Feature","geometry":{"type":"Polygon","coordinates":[[[-5.4075,41.1856],[-5.4001,41.1454],[-5.3407,41.1234],[-5.2977,41.1259],[-5.2886,41.182],[-5.3026,41.2241],[-5.2948,41.2825],[-5.322,41.3263],[-5.3391,41.4256],[-5.337,41.4763],[-5.2618,41.5037],[-5.2288,41.5284],[-5.293,41.5744],[-5.2704,41.6011],[-5.3288,41.6159],[-5.3281,41.6818],[-5.3714,41.7213],[-5.3913,41.7605],[-5.2795,41.8134],[-5.3271,41.8353],[-5.3064,41.8578],[-5.2936,41.9199],[-5.3314,41.9426],[-5.2805,41.9788],[-5.3254,42.0204],[-5.3763,42.0396],[-5.3762,42.0415],[-5.4202,42.0292],[-5.4215,42.0307],[-5.443,42.0119],[-5.4311,42.0024],[-5.456,41.9757],[-5.463,41.9754],[-5.4727,42.0136],[-5.5208,42.0971],[-5.5269,42.1043],[-5.5801,42.0584],[-5.6451,42.1321],[-5.7431,42.1134],[-5.7699,42.1359],[-5.7878,42.1334],[-5.8667,42.1201],[-5.9115,42.1406],[-5.9533,42.1237],[-6.0287,42.1576],[-6.1703,42.1582],[-6.2123,42.1481],[-6.2518,42.173],[-6.3293,42.1998],[-6.4278,42.2019],[-6.4781,42.1822],[-6.5259,42.2033],[-6.6131,42.2032],[-6.6385,42.2173],[-6.7037,42.2094],[-6.7658,42.2455],[-6.8867,42.2143],[-6.9382,42.1774],[-6.9563,42.1294],[-6.9897,42.1213],[-7.0125,42.0527],[-6.961,42.0272],[-6.9915,41.9859],[-6.9443,41.9446],[-6.8216,41.946],[-6.8113,41.9925],[-6.7687,41.9841],[-6.7506,41.9436],[-6.7,41.9333],[-6.5994,41.9483],[-6.5488,41.9233],[-6.5712,41.8835],[-6.5176,41.8751],[-6.5438,41.7839],[-6.5647,41.7515],[-6.5538,41.6933],[-6.5125,41.6612],[-6.445,41.6848],[-6.3546,41.6764],[-6.2544,41.633],[-6.1891,41.5748],[-6.3053,41.4497],[-6.3324,41.4052],[-6.3704,41.3925],[-6.4493,41.2988],[-6.4796,41.2942],[-6.4789,41.2884],[-6.4652,41.2862],[-6.4146,41.276],[-6.3721,41.2863],[-6.1344,41.1904],[-6.1092,41.2126],[-6.0087,41.2005],[-6.0024,41.1531],[-5.9531,41.1401],[-5.9151,41.1824],[-5.9212,41.2181],[-5.8976,41.2386],[-5.8351,41.2203],[-5.7652,41.2158],[-5.6675,41.2443],[-5.6568,41.2455],[-5.6282,41.2145],[-5.5549,41.2138],[-5.4877,41.1716],[-5.4263,41.1875],[-5.4075,41.1856]]]},"properties":{"GID_0":"ESP","GID_1":"ESP.5_1","GID_2":"ESP.5.9_1","NAME_1":"CastillayLeón","NAME_2":"Zamora"}}
]}