{"type":"FeatureCollection", "features": [
{"type":"Feature","geometry":{"type":"Polygon","coordinates":[[[-3.1382,43.1632],[-3.1817,43.1209],[-3.1339,43.0972],[-3.1447,43.0068],[-3.0602,43.0035],[-3.0116,42.9524],[-2.9814,42.9388],[-3.0189,42.9085],[-3.0895,42.899],[-3.1265,42.904],[-3.1477,42.9327],[-3.2247,42.9497],[-3.2826,42.8755],[-3.2258,42.8301],[-3.1906,42.8694],[-3.1498,42.8613],[-3.1592,42.8046],[-3.1006,42.7672],[-3.0178,42.7412],[-2.987,42.7088],[-2.9305,42.7082],[-2.9024,42.6936],[-2.896,42.655],[-2.8198,42.6145],[-2.8376,42.5711],[-2.8174,42.5577],[-2.7804,42.5796],[-2.7637,42.6228],[-2.6805,42.5945],[-2.6853,42.5202],[-2.6285,42.4956],[-2.5568,42.4851],[-2.477,42.4868],[-2.3922,42.5169],[-2.3993,42.5979],[-2.4437,42.5747],[-2.4906,42.5854],[-2.45,42.6472],[-2.4157,42.6627],[-2.3472,42.6341],[-2.3093,42.6712],[-2.3237,42.7241],[-2.2624,42.7482],[-2.281,42.7851],[-2.2358,42.8345],[-2.2507,42.8957],[-2.2895,42.9023],[-2.3096,42.9261],[-2.4099,42.9595],[-2.4789,42.9659],[-2.5385,42.9572],[-2.5425,42.9501],[-2.5453,42.9504],[-2.5511,42.9586],[-2.6026,42.9822],[-2.6009,43.0014],[-2.5408,43.0249],[-2.5302,43.0448],[-2.5466,43.0882],[-2.633,43.087],[-2.6612,43.0653],[-2.6668,43.0314],[-2.7297,43.0239],[-2.8219,43.035],[-2.8638,43.0519],[-2.8941,43.0464],[-2.9607,43.0931],[-2.9358,43.1362],[-2.9464,43.1709],[-3.0067,43.1966],[-3.0269,43.1614],[-3.125,43.1557],[-3.1382,43.1632]],[[-2.6318,42.6492],[-2.6539,42.67],[-2.718,42.662],[-2.7678,42.666],[-2.7845,42.6989],[-2.8253,42.7089],[-2.8542,42.7364],[-2.8537,42.7682],[-2.8103,42.7915],[-2.7315,42.7945],[-2.6327,42.7656],[-2.6024,42.7659],[-2.5625,42.7413],[-2.5899,42.7108],[-2.5848,42.6516],[-2.6318,42.6492]]]},"properties":{"GID_0":"ESP","GID_1":"ESP.16_1","GID_2":"ESP.16.1_1","NAME_1":"PaísVasco","NAME_2":"Álava"}},
{"type":"Feature","geometry":{"type":"Polygon","coordinates":[[[-2.2507,42.8957],[-2.2102,42.9499],[-2.1295,42.9394],[-2.0952,42.9725],[-2.0383,42.981],[-2.0414,43.0297],[-2.0123,43.0731],[-1.9731,43.0846],[-1.9236,43.1154],[-1.9044,43.1438],[-1.922,43.1867],[-1.7949,43.2469],[-1.7832,43.2868],[-1.73,43.2992],[-1.7388,43.329],[-1.786,43.3626],[-1.8038,43.3885],[-1.871,43.3688],[-1.8835,43.3493],[-1.9624,43.3376],[-1.9904,43.3149],[-2.0226,43.3221],[-2.1332,43.2915],[-2.1779,43.2876],[-2.2287,43.3112],[-2.2793,43.2954],[-2.3568,43.304],[-2.4155,43.32],[-2.44,43.2881],[-2.4183,43.2681],[-2.4632,43.2235],[-2.4941,43.2257],[-2.4869,43.1694],[-2.5051,43.0971],[-2.5466,43.0882],[-2.5302,43.0448],[-2.5408,43.0249],[-2.6009,43.0014],[-2.6026,42.9822],[-2.5511,42.9586],[-2.5453,42.9504],[-2.5425,42.9501],[-2.5385,42.9572],[-2.4789,42.9659],[-2.4099,42.9595],[-2.3096,42.9261],[-2.2895,42.9023],[-2.2507,42.8957]]]},"properties":{"GID_0":"ESP","GID_1":"ESP.16_1","GID_2":"ESP.16.2_1","NAME_1":"PaísVasco","NAME_2":"Guipúzcoa"}},
{"type":"Feature","geometry":{"type":"Polygon","coordinates":[[[-3.125,43.1557],[-3.0269,43.1614],[-3.0067,43.1966],[-2.9464,43.1709],[-2.9358,43.1362],[-2.9607,43.0931],[-2.8941,43.0464],[-2.8638,43.0519],[-2.8219,43.035],[-2.7297,43.0239],[-2.6668,43.0314],[-2.6612,43.0653],[-2.633,43.087],[-2.5466,43.0882],[-2.5051,43.0971],[-2.4869,43.1694],[-2.4941,43.2257],[-2.4632,43.2235],[-2.4183,43.2681],[-2.44,43.2881],[-2.4155,43.32],[-2.4601,43.336],[-2.5057,43.3746],[-2.5637,43.3913],[-2.6196,43.3921],[-2.636,43.4121],[-2.6815,43.4101],[-2.7385,43.4296],[-2.7521,43.4568],[-2.7965,43.4399],[-2.8657,43.4304],[-2.9471,43.436],[-2.9921,43.3904],[-3.0301,43.3782],[-3.0326,43.3462],[-3.1024,43.3668],[-3.1509,43.3488],[-3.1573,43.3013],[-3.2252,43.3089],[-3.3829,43.2705],[-3.4303,43.2421],[-3.4334,43.171],[-3.4176,43.1334],[-3.2534,43.1986],[-3.2235,43.1722],[-3.168,43.1786],[-3.1382,43.1632],[-3.125,43.1557]],[[-3.2997,43.2489],[-3.2669,43.2669],[-3.265,43.2062],[-3.2979,43.2067],[-3.2997,43.2489]]]},"properties":{"GID_0":"ESP","GID_1":"ESP.16_1","GID_2":"ESP.16.3_1","NAME_1":"PaísVasco","NAME_2":"Vizcaya"}}
]}