{"type":"FeatureCollection", "features": [
{"type":"Feature","geometry":{"type":"Polygon","coordinates":[[[-0.9009,42.7378],[-0.8877,42.6676],[-0.9276,42.6562],[-0.9046,42.6129],[-0.9248,42.588],[-0.8819,42.4571],[-0.842,42.4074],[-0.8427,42.3664],[-0.8934,42.282],[-0.8131,42.2645],[-0.7807,42.3184],[-0.7303,42.2912],[-0.7619,42.2313],[-0.7628,42.0681],[-0.8281,42.0826],[-0.8541,42.0223],[-0.7963,41.9626],[-0.6578,41.9575],[-0.6301,41.9125],[-0.5246,41.8484],[-0.5039,41.7462],[-0.4643,41.7152],[-0.3676,41.6779],[-0.3555,41.6324],[-0.2395,41.5726],[-0.2057,41.6023],[-0.1564,41.59],[-0.1566,41.5353],[-0.1049,41.4855],[-0.07,41.373],[-0.0029,41.3879],[0.0097,41.3605],[0.0803,41.3525],[0.1063,41.3508],[0.131,41.3889],[0.2191,41.4036],[0.2451,41.4287],[0.335,41.4082],[0.3474,41.4878],[0.3979,41.4913],[0.447,41.5423],[0.4021,41.5927],[0.3496,41.5995],[0.3282,41.6811],[0.4006,41.7567],[0.4697,41.7656],[0.4833,41.8015],[0.5424,41.8204],[0.5928,41.8844],[0.5625,41.9327],[0.6517,42.0263],[0.7022,42.1219],[0.6959,42.152],[0.7449,42.3012],[0.7461,42.3848],[0.6969,42.4741],[0.7333,42.5045],[0.7675,42.6113],[0.7084,42.6212],[0.6601,42.691],[0.5259,42.7021],[0.3961,42.6939],[0.3604,42.7237],[0.2932,42.6762],[0.176,42.7356],[0.0007,42.6852],[-0.0616,42.6947],[-0.1477,42.7739],[-0.3064,42.8413],[-0.3842,42.8039],[-0.4449,42.796],[-0.4929,42.8167],[-0.5297,42.7915],[-0.5736,42.8074],[-0.6794,42.8829],[-0.7534,42.9245],[-0.8191,42.9007],[-0.8568,42.8469],[-0.8475,42.7859],[-0.9009,42.7378]]]},"properties":{"GID_0":"ESP","GID_1":"ESP.2_1","GID_2":"ESP.2.1_1","NAME_1":"Aragón","NAME_2":"Huesca"}},
{"type":"Feature","geometry":{"type":"Polygon","coordinates":[[[-1.6174,40.9437],[-1.6202,40.8795],[-1.5423,40.8112],[-1.562,40.7398],[-1.5356,40.687],[-1.5987,40.5621],[-1.6858,40.5799],[-1.7018,40.5382],[-1.6924,40.4868],[-1.7485,40.4629],[-1.7894,40.3974],[-1.7412,40.3496],[-1.5404,40.1908],[-1.4744,40.1851],[-1.4488,40.1454],[-1.357,40.1289],[-1.3197,40.1464],[-1.302,40.2058],[-1.2449,40.1162],[-1.1497,40.1148],[-1.078,40.0688],[-1.0842,40.0362],[-1.1651,40.0101],[-1.105,39.975],[-0.9913,39.9819],[-0.9245,39.9593],[-0.9002,39.8919],[-0.8674,39.8468],[-0.7976,39.8811],[-0.8299,39.9068],[-0.8379,39.9766],[-0.7896,39.9899],[-0.7622,40.0413],[-0.6641,40.0515],[-0.5869,40.1315],[-0.5441,40.2517],[-0.4945,40.2288],[-0.3836,40.2649],[-0.4001,40.2942],[-0.341,40.329],[-0.2852,40.3863],[-0.3328,40.4256],[-0.2903,40.4706],[-0.3018,40.516],[-0.2932,40.6111],[-0.3796,40.6236],[-0.378,40.6674],[-0.3061,40.664],[-0.2359,40.6911],[-0.224,40.7542],[-0.1944,40.7818],[-0.0647,40.7274],[0.0158,40.7285],[0.0422,40.691],[0.1125,40.7272],[0.1414,40.7185],[0.2783,40.8211],[0.246,40.8872],[0.2811,40.9872],[0.2204,41.0715],[0.1459,41.0631],[0.0004,41.0893],[-0.0122,41.1203],[-0.1035,41.1496],[-0.1803,41.1879],[-0.2224,41.1889],[-0.3133,41.2557],[-0.3372,41.2414],[-0.4058,41.2724],[-0.4799,41.346],[-0.5589,41.3543],[-0.6297,41.3118],[-0.6254,41.2482],[-0.6605,41.2297],[-0.6099,41.1917],[-0.6939,41.1123],[-0.7614,41.1697],[-0.799,41.1033],[-0.8285,41.0964],[-0.8836,41.1301],[-0.9572,41.0764],[-1.1047,41.1677],[-1.1215,41.1349],[-1.2099,41.1388],[-1.2713,41.1033],[-1.2874,41.0489],[-1.41,41.0579],[-1.4579,41.0184],[-1.4469,40.9766],[-1.5579,40.9393],[-1.6174,40.9437]]]},"properties":{"GID_0":"ESP","GID_1":"ESP.2_1","GID_2":"ESP.2.2_1","NAME_1":"Aragón","NAME_2":"Teruel"}},
{"type":"Feature","geometry":{"type":"Polygon","coordinates":[[[-0.9009,42.7378],[-0.9486,42.7115],[-1.0279,42.7001],[-1.0386,42.6483],[-1.1524,42.6476],[-1.1576,42.6105],[-1.2261,42.5422],[-1.2881,42.5228],[-1.2727,42.4824],[-1.3415,42.4239],[-1.3597,42.3784],[-1.329,42.3554],[-1.399,42.2913],[-1.4163,42.222],[-1.3917,42.1796],[-1.3988,42.1262],[-1.3048,42.043],[-1.4217,41.9131],[-1.5017,41.9243],[-1.5233,41.9099],[-1.5962,41.9271],[-1.6541,41.9654],[-1.7343,41.9639],[-1.7668,41.9958],[-1.8336,41.9951],[-1.8565,41.9664],[-1.8572,41.9095],[-1.8185,41.83],[-1.8529,41.7896],[-1.7877,41.7341],[-1.8131,41.6606],[-1.8589,41.6615],[-1.923,41.5983],[-1.9933,41.6001],[-1.9673,41.5461],[-1.981,41.4864],[-1.9532,41.4625],[-1.9527,41.4075],[-2.0292,41.3842],[-2.0356,41.4269],[-2.1015,41.4458],[-2.1201,41.3797],[-2.1704,41.3188],[-2.1462,41.1844],[-2.0798,41.171],[-2.0516,41.1469],[-1.959,41.1725],[-1.9324,41.1386],[-1.8164,41.0953],[-1.7147,41.0121],[-1.6174,40.9437],[-1.5579,40.9393],[-1.4469,40.9766],[-1.4579,41.0184],[-1.41,41.0579],[-1.2874,41.0489],[-1.2713,41.1033],[-1.2099,41.1388],[-1.1215,41.1349],[-1.1047,41.1677],[-0.9572,41.0764],[-0.8836,41.1301],[-0.8285,41.0964],[-0.799,41.1033],[-0.7614,41.1697],[-0.6939,41.1123],[-0.6099,41.1917],[-0.6605,41.2297],[-0.6254,41.2482],[-0.6297,41.3118],[-0.5589,41.3543],[-0.4799,41.346],[-0.4058,41.2724],[-0.3372,41.2414],[-0.3133,41.2557],[-0.2224,41.1889],[-0.1803,41.1879],[-0.1035,41.1496],[-0.0122,41.1203],[0.0004,41.0893],[0.1459,41.0631],[0.2204,41.0715],[0.2199,41.1324],[0.3034,41.1644],[0.3224,41.2253],[0.3642,41.2277],[0.3857,41.2789],[0.3486,41.3298],[0.3738,41.3504],[0.335,41.4082],[0.2451,41.4287],[0.2191,41.4036],[0.131,41.3889],[0.1063,41.3508],[0.0803,41.3525],[0.0097,41.3605],[-0.0029,41.3879],[-0.07,41.373],[-0.1049,41.4855],[-0.1566,41.5353],[-0.1564,41.59],[-0.2057,41.6023],[-0.2395,41.5726],[-0.3555,41.6324],[-0.3676,41.6779],[-0.4643,41.7152],[-0.5039,41.7462],[-0.5246,41.8484],[-0.6301,41.9125],[-0.6578,41.9575],[-0.7963,41.9626],[-0.8541,42.0223],[-0.8281,42.0826],[-0.7628,42.0681],[-0.7619,42.2313],[-0.7303,42.2912],[-0.7807,42.3184],[-0.8131,42.2645],[-0.8934,42.282],[-0.8427,42.3664],[-0.842,42.4074],[-0.8819,42.4571],[-0.9248,42.588],[-0.9046,42.6129],[-0.9276,42.6562],[-0.8877,42.6676],[-0.9009,42.7378]]]},"properties":{"GID_0":"ESP","GID_1":"ESP.2_1","GID_2":"ESP.2.3_1","NAME_1":"Aragón","NAME_2":"Zaragoza"}}
]}