{"type":"FeatureCollection", "features": [
{"type":"Feature","geometry":{"type":"Polygon","coordinates":[[[-2.0862,41.9544],[-2.0281,41.9531],[-1.982,41.9193],[-1.8775,41.9524],[-1.844,41.9873],[-1.8866,42.0275],[-1.9057,42.0671],[-1.8216,42.1536],[-1.7819,42.1377],[-1.6902,42.1484],[-1.7085,42.2097],[-1.8197,42.2329],[-1.8706,42.289],[-1.9955,42.3636],[-2.0789,42.3688],[-2.1396,42.4206],[-2.1764,42.4081],[-2.2379,42.4404],[-2.2974,42.4575],[-2.4001,42.4718],[-2.4156,42.4906],[-2.5568,42.4851],[-2.6285,42.4956],[-2.6853,42.5202],[-2.6805,42.5945],[-2.7637,42.6228],[-2.7804,42.5796],[-2.8376,42.5711],[-2.8198,42.6145],[-3.0047,42.6443],[-3.081,42.6313],[-3.0604,42.6026],[-3.1054,42.5539],[-3.0717,42.5277],[-3.0733,42.4765],[-3.0459,42.4451],[-3.0632,42.4249],[-3.0531,42.3734],[-3.1092,42.3519],[-3.0885,42.2457],[-3.1288,42.2009],[-3.0589,42.127],[-3.0343,42.086],[-2.9353,42.0894],[-2.9136,42.0228],[-2.8838,42.0095],[-2.7979,42.0468],[-2.8033,42.0805],[-2.7748,42.1235],[-2.7284,42.1229],[-2.7084,42.0863],[-2.7575,42.0326],[-2.6735,41.9981],[-2.5798,41.9963],[-2.549,42.0515],[-2.5148,42.0689],[-2.5146,42.1145],[-2.4586,42.1153],[-2.4384,42.1373],[-2.3191,42.1452],[-2.2378,42.1022],[-2.1367,42.1031],[-2.1619,42.0667],[-2.117,42.0215],[-2.1099,41.9579],[-2.0862,41.9544]]]},"properties":{"GID_0":"ESP","GID_1":"ESP.15_1","GID_2":"ESP.15.1_1","NAME_1":"LaRioja","NAME_2":"LaRioja"}}
]}