{"type":"FeatureCollection", "features": [
{"type":"Feature","geometry":{"type":"Polygon","coordinates":[[[-1.6109,41.9465],[-1.5233,41.9099],[-1.5017,41.9243],[-1.4182,41.9136],[-1.3048,42.043],[-1.3988,42.1262],[-1.3917,42.1796],[-1.4163,42.222],[-1.399,42.2913],[-1.329,42.3554],[-1.3597,42.3784],[-1.3415,42.4239],[-1.2727,42.4824],[-1.2881,42.5228],[-1.2261,42.5422],[-1.1576,42.6105],[-1.1524,42.6476],[-1.0386,42.6483],[-1.0279,42.7001],[-0.9486,42.7115],[-0.9005,42.7605],[-0.8475,42.7859],[-0.8568,42.8469],[-0.8191,42.9007],[-0.7336,42.9308],[-0.7528,42.967],[-0.8088,42.9515],[-0.9451,42.9535],[-1.0147,42.9928],[-1.1133,43.0212],[-1.2475,43.0424],[-1.3452,43.093],[-1.3537,43.028],[-1.4414,43.0462],[-1.4722,43.0816],[-1.4157,43.1285],[-1.3849,43.1883],[-1.3842,43.2532],[-1.5059,43.2933],[-1.5617,43.2884],[-1.6694,43.3142],[-1.7832,43.2868],[-1.7949,43.2469],[-1.922,43.1867],[-1.9236,43.1154],[-2.0123,43.0731],[-2.0414,43.0297],[-2.0383,42.981],[-2.0952,42.9725],[-2.1295,42.9394],[-2.2102,42.9499],[-2.2378,42.9214],[-2.2358,42.8345],[-2.281,42.7851],[-2.2624,42.7482],[-2.3237,42.7241],[-2.3093,42.6712],[-2.3472,42.6341],[-2.4157,42.6627],[-2.45,42.6472],[-2.4906,42.5854],[-2.4437,42.5747],[-2.3993,42.5979],[-2.4001,42.4718],[-2.2974,42.4575],[-2.1764,42.4081],[-2.1396,42.4206],[-2.0789,42.3688],[-1.9955,42.3636],[-1.8706,42.289],[-1.8197,42.2329],[-1.7085,42.2097],[-1.6902,42.1484],[-1.8402,42.1281],[-1.9057,42.0671],[-1.9015,42.0297],[-1.8336,41.9951],[-1.7668,41.9958],[-1.7343,41.9639],[-1.6541,41.9654],[-1.6109,41.9465]]]},"properties":{"GID_0":"ESP","GID_1":"ESP.9_1","GID_2":"ESP.9.1_1","NAME_1":"ComunidadForaldeNavarra","NAME_2":"Navarra"}}
]}