{"type":"FeatureCollection", "features": [
{"type":"Feature","geometry":{"type":"Polygon","coordinates":[[[-2.762,38.5328],[-2.6726,38.4967],[-2.5987,38.5129],[-2.5665,38.4905],[-2.5714,38.414],[-2.4833,38.3979],[-2.485,38.3003],[-2.4407,38.2851],[-2.4462,38.1852],[-2.5512,38.0841],[-2.4233,38.0337],[-2.3578,38.0225],[-2.3298,38.0654],[-2.2615,38.113],[-2.2134,38.2018],[-2.1136,38.2382],[-2.0637,38.2976],[-1.9781,38.2822],[-1.9075,38.298],[-1.7434,38.3813],[-1.6819,38.3602],[-1.6699,38.3124],[-1.5893,38.3112],[-1.4783,38.3764],[-1.4807,38.4809],[-1.4984,38.5321],[-1.4523,38.5818],[-1.4477,38.6494],[-1.4022,38.6913],[-1.3429,38.6775],[-1.2494,38.7384],[-1.1839,38.7544],[-1.12,38.7379],[-1.1159,38.7102],[-1.0337,38.6566],[-0.9624,38.657],[-0.9157,38.696],[-0.9614,38.7748],[-0.9289,38.7839],[-0.9408,38.8997],[-0.9593,38.9446],[-1.1466,38.9294],[-1.2265,39.0247],[-1.2638,39.0451],[-1.2557,39.1062],[-1.1944,39.1804],[-1.1763,39.2303],[-1.1781,39.3147],[-1.2501,39.3225],[-1.3837,39.3663],[-1.4625,39.3794],[-1.5051,39.418],[-1.6268,39.361],[-1.7392,39.3212],[-1.7698,39.2805],[-1.887,39.3048],[-1.9897,39.2937],[-2.0443,39.3592],[-2.0862,39.3472],[-2.0594,39.2855],[-2.0749,39.2661],[-2.1684,39.2811],[-2.2886,39.2267],[-2.3211,39.2838],[-2.374,39.2328],[-2.511,39.3422],[-2.5508,39.3235],[-2.6192,39.3402],[-2.6623,39.322],[-2.7422,39.3182],[-2.7231,39.2648],[-2.8426,39.1345],[-2.8049,39.079],[-2.8098,39.0239],[-2.8801,38.9532],[-2.8357,38.906],[-2.7618,38.8804],[-2.7502,38.8071],[-2.6378,38.7347],[-2.6688,38.6493],[-2.75,38.6156],[-2.762,38.5328]]]},"properties":{"GID_0":"ESP","GID_1":"ESP.4_1","GID_2":"ESP.4.1_1","NAME_1":"Castilla-LaMancha","NAME_2":"Albacete"}},
{"type":"Feature","geometry":{"type":"MultiPolygon","coordinates":[[[[-4.6876,39.4503],[-4.6694,39.4245],[-4.7099,39.3458],[-4.7609,39.3208],[-4.7051,39.2138],[-4.7143,39.1876],[-4.8102,39.1994],[-4.8535,39.1517],[-4.8743,39.099],[-4.8327,39.0462],[-4.8822,39.0329],[-4.9624,39.0587],[-4.9336,38.9756],[-4.8329,38.9393],[-4.8477,38.8821],[-4.9148,38.8875],[-4.9434,38.8544],[-5.0008,38.6968],[-4.8688,38.681],[-4.8601,38.614],[-4.7874,38.5971],[-4.6222,38.5235],[-4.6085,38.4947],[-4.5058,38.4576],[-4.4351,38.4023],[-4.2897,38.3474],[-4.2554,38.4018],[-4.156,38.3814],[-3.9618,38.3661],[-3.8542,38.3752],[-3.8077,38.4218],[-3.7299,38.4244],[-3.6204,38.394],[-3.5283,38.4087],[-3.4725,38.398],[-3.3766,38.4396],[-3.3749,38.4753],[-3.3052,38.4793],[-3.2799,38.4604],[-3.1301,38.4388],[-3.0649,38.4783],[-2.9934,38.4501],[-2.9383,38.4748],[-2.8897,38.4559],[-2.762,38.5328],[-2.75,38.6156],[-2.6688,38.6493],[-2.6378,38.7347],[-2.7502,38.8071],[-2.7618,38.8804],[-2.8357,38.906],[-2.8801,38.9532],[-2.8098,39.0239],[-2.8049,39.079],[-2.8426,39.1345],[-2.7231,39.2648],[-2.7422,39.3182],[-2.793,39.3978],[-2.8456,39.3493],[-2.8823,39.3509],[-2.8896,39.4219],[-2.9313,39.4715],[-2.9776,39.4447],[-3.0757,39.4581],[-3.1001,39.4754],[-3.1433,39.4956],[-3.21,39.4763],[-3.2941,39.4709],[-3.3495,39.4083],[-3.4102,39.4046],[-3.4704,39.3722],[-3.4768,39.3432],[-3.5561,39.2991],[-3.6751,39.2967],[-3.7224,39.2696],[-3.7928,39.2923],[-3.8416,39.2596],[-3.9654,39.2982],[-3.9721,39.3522],[-4.0733,39.3654],[-4.148,39.3628],[-4.118,39.4569],[-4.0587,39.4722],[-4.0417,39.5754],[-4.1664,39.5669],[-4.1931,39.4954],[-4.242,39.4779],[-4.3205,39.4834],[-4.453,39.5173],[-4.4832,39.4884],[-4.5213,39.5559],[-4.5545,39.5108],[-4.6139,39.4853],[-4.618,39.4544],[-4.6876,39.4503]]],[[[-4.7553,39.4157],[-4.7404,39.4562],[-4.7624,39.514],[-4.863,39.5562],[-4.9029,39.5037],[-4.9108,39.4862],[-4.9406,39.3951],[-4.8708,39.3683],[-4.7553,39.4157]]]]},"properties":{"GID_0":"ESP","GID_1":"ESP.4_1","GID_2":"ESP.4.2_1","NAME_1":"Castilla-LaMancha","NAME_2":"CiudadReal"}},
{"type":"Feature","geometry":{"type":"Polygon","coordinates":[[[-2.7422,39.3182],[-2.6623,39.322],[-2.6192,39.3402],[-2.5508,39.3235],[-2.511,39.3422],[-2.374,39.2328],[-2.3211,39.2838],[-2.2886,39.2267],[-2.1684,39.2811],[-2.0749,39.2661],[-2.0594,39.2855],[-2.0862,39.3472],[-2.0443,39.3592],[-1.9897,39.2937],[-1.887,39.3048],[-1.7698,39.2805],[-1.7392,39.3212],[-1.6268,39.361],[-1.5051,39.418],[-1.5138,39.458],[-1.5043,39.5639],[-1.462,39.5766],[-1.4179,39.655],[-1.3685,39.6896],[-1.3128,39.6705],[-1.2619,39.6989],[-1.2754,39.737],[-1.2149,39.8088],[-1.1999,39.8595],[-1.2039,39.9494],[-1.1539,39.9639],[-1.1729,40.0109],[-1.248,39.9951],[-1.3831,40.039],[-1.4572,40.1351],[-1.4744,40.1851],[-1.5404,40.1908],[-1.8063,40.3983],[-1.8564,40.4288],[-1.9236,40.592],[-1.9384,40.5971],[-2.0345,40.601],[-2.0911,40.6464],[-2.1569,40.6587],[-2.2137,40.6192],[-2.2745,40.6448],[-2.286,40.5922],[-2.3543,40.5927],[-2.3671,40.6013],[-2.4163,40.5806],[-2.3799,40.5436],[-2.5287,40.4984],[-2.5045,40.4487],[-2.5416,40.4253],[-2.5854,40.4501],[-2.6763,40.4358],[-2.7228,40.3971],[-2.8072,40.4073],[-2.8166,40.3347],[-2.8025,40.264],[-2.8259,40.2023],[-2.8875,40.1646],[-2.9469,40.1696],[-2.9981,40.2091],[-3.0144,40.1553],[-3.0677,40.1575],[-3.054,40.1065],[-3.0886,40.0705],[-3.1613,40.0619],[-3.1425,39.985],[-3.0965,39.987],[-3.097,39.9335],[-3.1221,39.886],[-3.0596,39.8375],[-2.9977,39.7189],[-2.9081,39.6424],[-2.9254,39.6018],[-2.9313,39.4715],[-2.8896,39.4219],[-2.8823,39.3509],[-2.8456,39.3493],[-2.793,39.3978],[-2.7422,39.3182]]]},"properties":{"GID_0":"ESP","GID_1":"ESP.4_1","GID_2":"ESP.4.3_1","NAME_1":"Castilla-LaMancha","NAME_2":"Cuenca"}},
{"type":"Feature","geometry":{"type":"Polygon","coordinates":[[[-3.0677,40.1575],[-3.0144,40.1553],[-2.9981,40.2091],[-2.9469,40.1696],[-2.8875,40.1646],[-2.8259,40.2023],[-2.8025,40.264],[-2.8166,40.3347],[-2.8072,40.4073],[-2.7228,40.3971],[-2.6763,40.4358],[-2.5854,40.4501],[-2.5416,40.4253],[-2.5045,40.4487],[-2.5287,40.4984],[-2.3799,40.5436],[-2.4163,40.5806],[-2.3671,40.6013],[-2.3543,40.5927],[-2.286,40.5922],[-2.2745,40.6448],[-2.2137,40.6192],[-2.1569,40.6587],[-2.0911,40.6464],[-2.0345,40.601],[-1.9384,40.5971],[-1.9236,40.592],[-1.8564,40.4288],[-1.8063,40.3983],[-1.7485,40.4629],[-1.6924,40.4868],[-1.6858,40.5799],[-1.5987,40.5621],[-1.5356,40.687],[-1.562,40.7398],[-1.5423,40.8112],[-1.6202,40.8795],[-1.6078,40.9276],[-1.8164,41.0953],[-1.9324,41.1386],[-1.959,41.1725],[-2.0516,41.1469],[-2.0656,41.0958],[-2.2321,41.097],[-2.2635,41.0675],[-2.3233,41.0565],[-2.3553,41.0865],[-2.4021,41.0617],[-2.4694,41.0781],[-2.5169,41.1465],[-2.5812,41.1408],[-2.5781,41.1793],[-2.6548,41.2407],[-2.7609,41.274],[-2.7824,41.2538],[-2.8668,41.2745],[-2.9066,41.3276],[-2.9501,41.2926],[-3.0606,41.2765],[-3.2262,41.2981],[-3.2901,41.2579],[-3.3994,41.2545],[-3.4091,41.2118],[-3.5006,41.1791],[-3.5405,41.1505],[-3.4755,41.0957],[-3.4257,41.0733],[-3.4382,41.0426],[-3.3976,41.0074],[-3.4441,40.8879],[-3.5026,40.7891],[-3.45,40.7722],[-3.4341,40.7308],[-3.4616,40.6927],[-3.3233,40.6301],[-3.3304,40.5974],[-3.2817,40.5524],[-3.2006,40.5147],[-3.1986,40.4423],[-3.1304,40.4051],[-3.1835,40.2693],[-3.112,40.2856],[-3.079,40.224],[-3.0677,40.1575]]]},"properties":{"GID_0":"ESP","GID_1":"ESP.4_1","GID_2":"ESP.4.4_1","NAME_1":"Castilla-LaMancha","NAME_2":"Guadalajara"}},
{"type":"Feature","geometry":{"type":"Polygon","coordinates":[[[-4.6876,39.4503],[-4.618,39.4544],[-4.6139,39.4853],[-4.5545,39.5108],[-4.5213,39.5559],[-4.4832,39.4884],[-4.453,39.5173],[-4.3205,39.4834],[-4.242,39.4779],[-4.1931,39.4954],[-4.1664,39.5669],[-4.0417,39.5754],[-4.0587,39.4722],[-4.118,39.4569],[-4.148,39.3628],[-4.0733,39.3654],[-3.9721,39.3522],[-3.9654,39.2982],[-3.8416,39.2596],[-3.7928,39.2923],[-3.7224,39.2696],[-3.6751,39.2967],[-3.5561,39.2991],[-3.4768,39.3432],[-3.4704,39.3722],[-3.4102,39.4046],[-3.3495,39.4083],[-3.2941,39.4709],[-3.21,39.4763],[-3.1433,39.4956],[-3.1001,39.4754],[-3.0757,39.4581],[-2.9776,39.4447],[-2.9313,39.4715],[-2.9254,39.6018],[-2.9081,39.6424],[-2.9977,39.7189],[-3.0596,39.8375],[-3.1221,39.886],[-3.097,39.9335],[-3.0965,39.987],[-3.1425,39.985],[-3.1613,40.0619],[-3.2767,40.0474],[-3.3273,40.0796],[-3.4296,40.0388],[-3.5152,40.0433],[-3.5896,40.0135],[-3.8146,39.8859],[-3.8758,39.9287],[-3.8081,39.9548],[-3.7514,39.9528],[-3.7003,40.0189],[-3.6205,40.0561],[-3.6064,40.109],[-3.7206,40.148],[-3.7718,40.1396],[-3.8001,40.1757],[-3.9923,40.2097],[-4.0711,40.2648],[-4.1041,40.2418],[-4.2457,40.2737],[-4.2711,40.2332],[-4.3478,40.2455],[-4.3775,40.3176],[-4.4373,40.2377],[-4.5358,40.1996],[-4.6539,40.1982],[-4.6866,40.211],[-4.698,40.2822],[-4.7611,40.2609],[-4.9102,40.1755],[-4.9253,40.136],[-5.0061,40.1097],[-5.0184,40.1591],[-5.0627,40.1516],[-5.1247,40.1041],[-5.3359,40.1158],[-5.3689,40.1001],[-5.365,39.9839],[-5.401,39.8857],[-5.3263,39.892],[-5.2834,39.8572],[-5.3125,39.8243],[-5.3161,39.7728],[-5.2541,39.7526],[-5.206,39.7977],[-5.1719,39.7983],[-5.1377,39.715],[-5.1513,39.6613],[-5.2065,39.5972],[-5.0838,39.4907],[-4.9406,39.3951],[-4.9108,39.4862],[-4.9029,39.5037],[-4.863,39.5562],[-4.7624,39.514],[-4.7404,39.4562],[-4.7553,39.4157],[-4.6876,39.4503]]]},"properties":{"GID_0":"ESP","GID_1":"ESP.4_1","GID_2":"ESP.4.5_1","NAME_1":"Castilla-LaMancha","NAME_2":"Toledo"}}
]}