{"type":"FeatureCollection", "features": [
{"type":"Feature","geometry":{"type":"Polygon","coordinates":[[[-0.8432,37.5785],[-0.7179,37.6065],[-0.7424,37.6327],[-0.8054,37.6596],[-0.8576,37.714],[-0.8401,37.7526],[-0.8001,37.7826],[-0.7708,37.8441],[-0.8302,37.8643],[-0.9213,37.9445],[-0.966,38.0127],[-1.0222,38.0752],[-1.0366,38.1374],[-0.9887,38.1996],[-0.9677,38.2559],[-0.989,38.3206],[-1.0844,38.3465],[-1.0817,38.4419],[-1.0139,38.4971],[-1.0262,38.5225],[-1.0015,38.5729],[-1.016,38.6351],[-1.1159,38.7102],[-1.12,38.7379],[-1.1839,38.7544],[-1.2494,38.7384],[-1.2867,38.7053],[-1.3429,38.6775],[-1.3667,38.7043],[-1.4022,38.6913],[-1.4477,38.6494],[-1.4523,38.5818],[-1.4984,38.5321],[-1.4807,38.4809],[-1.4783,38.3764],[-1.5893,38.3112],[-1.6699,38.3124],[-1.6819,38.3602],[-1.7434,38.3813],[-1.8542,38.3303],[-1.9075,38.298],[-1.9781,38.2822],[-2.0209,38.3004],[-2.0637,38.2976],[-2.1136,38.2382],[-2.169,38.2265],[-2.2134,38.2018],[-2.2615,38.113],[-2.3298,38.0654],[-2.3443,38.03],[-2.2984,38.0022],[-2.2768,37.9601],[-2.1719,37.8887],[-2.1231,37.9005],[-2.0622,37.8835],[-1.9952,37.8414],[-2.0087,37.775],[-1.9957,37.7281],[-2.0118,37.6735],[-1.9539,37.5883],[-1.8452,37.4549],[-1.737,37.4427],[-1.63,37.3753],[-1.6049,37.3954],[-1.5179,37.4319],[-1.4901,37.421],[-1.4724,37.4696],[-1.3635,37.5451],[-1.3257,37.5627],[-1.2596,37.5571],[-1.2024,37.5735],[-1.1668,37.5421],[-1.124,37.5385],[-1.1107,37.5677],[-1.0715,37.5838],[-0.9601,37.5582],[-0.8432,37.5785]]]},"properties":{"GID_0":"ESP","GID_1":"ESP.18_1","GID_2":"ESP.18.1_1","NAME_1":"RegióndeMurcia","NAME_2":"Murcia"}}
]}