{"type":"FeatureCollection", "features": [
{"type":"Feature","geometry":{"type":"Polygon","coordinates":[[[1.6452,41.1957],[1.7843,41.2232],[1.814,41.236],[1.8549,41.2337],[1.9515,41.2649],[2.0274,41.2668],[2.1129,41.2893],[2.151,41.3215],[2.1785,41.3749],[2.201,41.384],[2.2646,41.4585],[2.381,41.4951],[2.4629,41.5435],[2.5521,41.5788],[2.7774,41.6493],[2.7614,41.6693],[2.7743,41.7003],[2.7658,41.7257],[2.7248,41.7443],[2.5376,41.7218],[2.5158,41.7621],[2.4899,41.7655],[2.4266,41.8046],[2.3543,41.8071],[2.326,41.8557],[2.3375,41.8892],[2.3772,41.8728],[2.4071,41.8957],[2.4433,41.888],[2.4801,41.9291],[2.4461,41.944],[2.4568,41.9661],[2.4743,41.9694],[2.4989,42.0015],[2.4963,42.0589],[2.4904,42.0673],[2.4496,42.0774],[2.411,42.0686],[2.366,42.1214],[2.3034,42.1125],[2.2996,42.1342],[2.2151,42.1421],[2.1447,42.1314],[2.0128,42.1493],[2.0605,42.1779],[2.0489,42.2214],[2.0206,42.2319],[2.0304,42.257],[2.0664,42.2902],[2.0185,42.3103],[1.9838,42.2981],[1.9487,42.3157],[1.9031,42.3233],[1.8426,42.3064],[1.6902,42.2771],[1.7032,42.2399],[1.6804,42.2064],[1.7377,42.1895],[1.7343,42.1594],[1.6989,42.1285],[1.7221,42.0911],[1.6744,42.0592],[1.6837,42.0255],[1.6487,42.0034],[1.7148,41.9813],[1.6828,41.9674],[1.6514,41.9787],[1.6432,41.9291],[1.6159,41.906],[1.6303,41.8588],[1.5933,41.812],[1.5998,41.7891],[1.5483,41.7707],[1.4683,41.771],[1.4655,41.7984],[1.4263,41.8019],[1.4074,41.7527],[1.4199,41.7328],[1.382,41.7058],[1.419,41.6765],[1.4483,41.6361],[1.3917,41.6341],[1.3596,41.6136],[1.3927,41.5798],[1.3929,41.5751],[1.3955,41.5775],[1.4106,41.5755],[1.4197,41.5826],[1.4475,41.5738],[1.4467,41.5524],[1.4046,41.5066],[1.4846,41.4749],[1.4685,41.444],[1.4902,41.4015],[1.5694,41.3684],[1.5658,41.3397],[1.5882,41.294],[1.6275,41.2696],[1.6214,41.2232],[1.6452,41.1957]]]},"properties":{"GID_0":"ESP","GID_1":"ESP.6_1","GID_2":"ESP.6.1_1","NAME_1":"Cataluña","NAME_2":"Barcelona"}},
{"type":"Feature","geometry":{"type":"Polygon","coordinates":[[[2.4568,41.9661],[2.4461,41.944],[2.4801,41.9291],[2.4433,41.888],[2.4071,41.8957],[2.3772,41.8728],[2.3375,41.8892],[2.326,41.8557],[2.3543,41.8071],[2.4266,41.8046],[2.4899,41.7655],[2.5158,41.7621],[2.5376,41.7218],[2.7248,41.7443],[2.7658,41.7257],[2.7743,41.7003],[2.7614,41.6693],[2.7929,41.6738],[2.8487,41.6987],[2.9129,41.7074],[2.9776,41.7576],[3.0487,41.7818],[3.071,41.8193],[3.1051,41.8465],[3.146,41.8504],[3.2026,41.8913],[3.2318,41.9688],[3.1971,42.0015],[3.2063,42.0743],[3.1712,42.1149],[3.1401,42.1146],[3.1143,42.149],[3.1096,42.1937],[3.119,42.229],[3.1468,42.2585],[3.2179,42.2321],[3.2763,42.2524],[3.3168,42.3238],[3.2304,42.3521],[3.1879,42.3518],[3.1554,42.3812],[3.171,42.434],[3.0858,42.4258],[3.0474,42.4568],[2.9471,42.4818],[2.9184,42.4562],[2.8399,42.459],[2.7993,42.4183],[2.7712,42.4122],[2.724,42.4227],[2.6739,42.4045],[2.66,42.3408],[2.5822,42.3571],[2.542,42.3339],[2.4832,42.3399],[2.4355,42.3753],[2.4333,42.392],[2.3608,42.4029],[2.3106,42.4284],[2.2571,42.4385],[2.207,42.4187],[2.1569,42.4234],[2.1332,42.4143],[2.1164,42.3834],[2.0859,42.3637],[2.0235,42.3552],[1.9858,42.3622],[1.9644,42.3826],[1.9338,42.4542],[1.9157,42.4462],[1.8052,42.4887],[1.7309,42.4925],[1.7319,42.4404],[1.8016,42.4249],[1.811,42.4111],[1.8001,42.378],[1.851,42.3735],[1.8332,42.3268],[1.8426,42.3064],[1.9031,42.3233],[1.9487,42.3157],[1.9838,42.2981],[2.0185,42.3103],[2.0664,42.2902],[2.0304,42.257],[2.0206,42.2319],[2.0489,42.2214],[2.0605,42.1779],[2.0128,42.1493],[2.1447,42.1314],[2.2151,42.1421],[2.2996,42.1342],[2.3034,42.1125],[2.366,42.1214],[2.411,42.0686],[2.4496,42.0774],[2.4904,42.0673],[2.4963,42.0589],[2.4989,42.0015],[2.4743,41.9694],[2.4568,41.9661]]]},"properties":{"GID_0":"ESP","GID_1":"ESP.6_1","GID_2":"ESP.6.2_1","NAME_1":"Cataluña","NAME_2":"Girona"}},
{"type":"Feature","geometry":{"type":"Polygon","coordinates":[[[1.7309,42.4925],[1.6626,42.4936],[1.6559,42.4682],[1.567,42.459],[1.5526,42.4335],[1.5123,42.4296],[1.4516,42.4375],[1.441,42.4755],[1.4692,42.5108],[1.4262,42.5587],[1.442,42.5993],[1.3879,42.6873],[1.3574,42.7194],[1.2519,42.7148],[1.2293,42.7277],[1.165,42.7095],[1.1332,42.7283],[1.1292,42.7527],[1.0732,42.7824],[1.0071,42.7902],[0.9604,42.8052],[0.9258,42.7897],[0.8583,42.8257],[0.8015,42.8405],[0.7788,42.8361],[0.7082,42.8613],[0.6626,42.8411],[0.6599,42.7522],[0.6802,42.7233],[0.66,42.6884],[0.6951,42.6587],[0.7084,42.6212],[0.7675,42.6113],[0.7481,42.5522],[0.7248,42.5305],[0.7333,42.5045],[0.6969,42.4741],[0.7461,42.3848],[0.7449,42.3012],[0.7335,42.2487],[0.7149,42.2248],[0.6959,42.152],[0.7022,42.1219],[0.6517,42.0263],[0.6573,42.0016],[0.6169,41.9872],[0.5625,41.9327],[0.6029,41.9223],[0.5928,41.8844],[0.5574,41.8542],[0.5424,41.8204],[0.5106,41.8206],[0.4833,41.8015],[0.4697,41.7656],[0.4006,41.7567],[0.3687,41.7142],[0.3282,41.6811],[0.3489,41.6368],[0.3496,41.5995],[0.4021,41.5927],[0.447,41.5423],[0.3979,41.4913],[0.3414,41.4809],[0.3419,41.4138],[0.32,41.3949],[0.3738,41.3504],[0.3486,41.3298],[0.3857,41.2789],[0.4332,41.2761],[0.4348,41.3206],[0.4613,41.3349],[0.5033,41.2898],[0.5252,41.2902],[0.5545,41.3267],[0.5968,41.2936],[0.6697,41.3096],[0.7516,41.3179],[0.7613,41.3338],[0.8195,41.3288],[0.9342,41.3504],[0.9449,41.35],[0.9643,41.3555],[0.9817,41.3922],[1.027,41.4098],[1.0722,41.463],[1.181,41.4881],[1.1647,41.5087],[1.1679,41.5405],[1.2108,41.5486],[1.2199,41.5696],[1.2728,41.5722],[1.3717,41.5654],[1.3846,41.5565],[1.4035,41.5582],[1.3955,41.5673],[1.3927,41.5798],[1.3596,41.6136],[1.3917,41.6341],[1.4483,41.6361],[1.419,41.6765],[1.382,41.7058],[1.4199,41.7328],[1.4074,41.7527],[1.4263,41.8019],[1.4655,41.7984],[1.4683,41.771],[1.5483,41.7707],[1.5998,41.7891],[1.5933,41.812],[1.6303,41.8588],[1.6159,41.906],[1.6432,41.9291],[1.6514,41.9787],[1.6828,41.9674],[1.7148,41.9813],[1.6487,42.0034],[1.6837,42.0255],[1.6744,42.0592],[1.7221,42.0911],[1.6989,42.1285],[1.7343,42.1594],[1.7377,42.1895],[1.6804,42.2064],[1.7032,42.2399],[1.6902,42.2771],[1.8426,42.3064],[1.8332,42.3268],[1.851,42.3735],[1.8001,42.378],[1.811,42.4111],[1.8016,42.4249],[1.7319,42.4404],[1.7309,42.4925]]]},"properties":{"GID_0":"ESP","GID_1":"ESP.6_1","GID_2":"ESP.6.3_1","NAME_1":"Cataluña","NAME_2":"Lleida"}},
{"type":"Feature","geometry":{"type":"Polygon","coordinates":[[[0.3857,41.2789],[0.3642,41.2277],[0.3224,41.2253],[0.3034,41.1644],[0.2199,41.1324],[0.2009,41.1027],[0.2343,41.0346],[0.2811,40.9872],[0.2743,40.9366],[0.246,40.8872],[0.26,40.8392],[0.2783,40.8211],[0.1708,40.7329],[0.2171,40.7326],[0.2419,40.7004],[0.2919,40.6886],[0.2683,40.6596],[0.2789,40.6301],[0.3453,40.6076],[0.3892,40.6066],[0.4307,40.5797],[0.449,40.5413],[0.5151,40.523],[0.5382,40.5671],[0.601,40.6221],[0.6635,40.6263],[0.769,40.6474],[0.846,40.6785],[0.8696,40.696],[0.8743,40.7318],[0.8304,40.7335],[0.7826,40.7724],[0.7335,40.7682],[0.6996,40.8021],[0.7418,40.8229],[0.7451,40.8385],[0.7932,40.8674],[0.8571,40.9374],[0.9162,40.9893],[0.9835,41.039],[1.0507,41.0649],[1.1232,41.0749],[1.1724,41.0546],[1.1904,41.0874],[1.224,41.091],[1.3007,41.129],[1.344,41.1246],[1.4018,41.1321],[1.4374,41.156],[1.5321,41.1821],[1.6452,41.1957],[1.6214,41.2232],[1.6275,41.2696],[1.5882,41.294],[1.5658,41.3397],[1.5694,41.3684],[1.4902,41.4015],[1.4685,41.444],[1.4846,41.4749],[1.4046,41.5066],[1.4467,41.5524],[1.4475,41.5738],[1.4197,41.5826],[1.4106,41.5755],[1.3955,41.5775],[1.3929,41.5751],[1.3955,41.5673],[1.4035,41.5582],[1.3846,41.5565],[1.3717,41.5654],[1.2728,41.5722],[1.2199,41.5696],[1.2108,41.5486],[1.1679,41.5405],[1.1647,41.5087],[1.181,41.4881],[1.0722,41.463],[1.027,41.4098],[0.9817,41.3922],[0.9643,41.3555],[0.9449,41.35],[0.9342,41.3504],[0.8195,41.3288],[0.7613,41.3338],[0.7516,41.3179],[0.6697,41.3096],[0.5968,41.2936],[0.5545,41.3267],[0.5252,41.2902],[0.5033,41.2898],[0.4613,41.3349],[0.4348,41.3206],[0.4332,41.2761],[0.3857,41.2789]]]},"properties":{"GID_0":"ESP","GID_1":"ESP.6_1","GID_2":"ESP.6.4_1","NAME_1":"Cataluña","NAME_2":"Tarragona"}}
]}