{"type":"FeatureCollection", "features": [
{"type":"Feature","geometry":{"type":"Polygon","coordinates":[[[-7.7052,43.7078],[-7.6885,43.756],[-7.7149,43.766],[-7.7287,43.7507],[-7.8126,43.7268],[-7.8285,43.7132],[-7.8813,43.6918],[-7.8587,43.7626],[-7.8679,43.7707],[-7.9085,43.7615],[-7.9635,43.7212],[-8.006,43.7043],[-8.0399,43.714],[-8.0624,43.7054],[-8.0818,43.6526],[-8.1388,43.6354],[-8.1604,43.6143],[-8.1987,43.6124],[-8.2174,43.5821],[-8.2626,43.5563],[-8.326,43.5599],[-8.2937,43.5335],[-8.3232,43.5257],[-8.3251,43.4837],[-8.3099,43.4543],[-8.2579,43.4193],[-8.2371,43.4285],[-8.204,43.4201],[-8.2215,43.3921],[-8.2082,43.3379],[-8.241,43.3429],[-8.2721,43.3865],[-8.3287,43.4029],[-8.3476,43.3479],[-8.3626,43.341],[-8.3918,43.3585],[-8.3996,43.3904],[-8.4385,43.3824],[-8.4596,43.3626],[-8.4951,43.3499],[-8.5087,43.3262],[-8.556,43.3112],[-8.591,43.3218],[-8.6207,43.3171],[-8.6968,43.2915],[-8.7749,43.3001],[-8.8068,43.3271],[-8.914,43.3193],[-8.9071,43.2951],[-8.9524,43.2949],[-8.9865,43.2768],[-8.9563,43.2643],[-8.9479,43.241],[-9.034,43.2143],[-9.0601,43.1835],[-9.0982,43.194],[-9.174,43.1876],[-9.1896,43.1607],[-9.214,43.1646],[-9.2051,43.129],[-9.1651,43.1279],[-9.1662,43.1046],[-9.1979,43.1043],[-9.2207,43.0904],[-9.2568,43.0921],[-9.2504,43.0721],[-9.2599,43.0515],[-9.2879,43.0435],[-9.2793,43.0124],[-9.2582,43.0029],[-9.2607,42.9721],[-9.2849,42.9551],[-9.2982,42.9218],[-9.2649,42.9151],[-9.2265,42.9396],[-9.1876,42.9149],[-9.1274,42.9065],[-9.1512,42.8743],[-9.1362,42.8457],[-9.1154,42.8457],[-9.1099,42.8146],[-9.1515,42.8063],[-9.1154,42.7588],[-9.0757,42.7579],[-9.0193,42.801],[-9.0151,42.7824],[-8.981,42.7785],[-8.9504,42.784],[-8.936,42.8029],[-8.9101,42.7912],[-8.9404,42.7738],[-8.9568,42.7454],[-8.9896,42.7415],[-9.026,42.709],[-9.0429,42.6699],[-9.0404,42.6413],[-9.081,42.5968],[-9.0824,42.566],[-9.0518,42.5749],[-9.0351,42.5593],[-9.0454,42.5251],[-9.0232,42.5165],[-8.9832,42.5435],[-8.9821,42.5685],[-8.9537,42.5843],[-8.9201,42.5865],[-8.9371,42.6071],[-8.8993,42.6407],[-8.8879,42.6201],[-8.8601,42.6113],[-8.861,42.6463],[-8.8415,42.664],[-8.7999,42.6365],[-8.7463,42.6585],[-8.726,42.6794],[-8.7172,42.7063],[-8.6775,42.7118],[-8.6543,42.7267],[-8.6141,42.7147],[-8.5998,42.7431],[-8.5716,42.7421],[-8.5459,42.7537],[-8.493,42.7564],[-8.4697,42.7436],[-8.4302,42.7466],[-8.4,42.7804],[-8.3542,42.7788],[-8.3334,42.7999],[-8.3296,42.8234],[-8.3118,42.8339],[-8.2884,42.8179],[-8.2551,42.8364],[-8.2102,42.8237],[-8.1835,42.86],[-8.1162,42.8411],[-8.0716,42.8524],[-8.0458,42.8315],[-8.0241,42.8471],[-7.9996,42.8489],[-7.9777,42.8774],[-7.9353,42.9034],[-7.9432,42.9173],[-7.9161,42.9323],[-7.9051,42.9854],[-7.9428,43.0676],[-7.918,43.0924],[-7.9369,43.1118],[-7.9612,43.1898],[-7.9217,43.2694],[-7.9469,43.286],[-7.8925,43.33],[-7.8814,43.3524],[-7.898,43.3897],[-7.8798,43.4073],[-7.8229,43.4007],[-7.8071,43.4373],[-7.7799,43.4489],[-7.7485,43.5134],[-7.7521,43.5527],[-7.7461,43.5807],[-7.7176,43.584],[-7.7265,43.6243],[-7.6908,43.6546],[-7.7065,43.6722],[-7.7052,43.7078]]]},"properties":{"GID_0":"ESP","GID_1":"ESP.12_1","GID_2":"ESP.12.1_1","NAME_1":"Galicia","NAME_2":"ACoruña"}},
{"type":"Feature","geometry":{"type":"Polygon","coordinates":[[[-7.0769,42.5082],[-7.0546,42.5716],[-7.034,42.5841],[-7.0469,42.6327],[-7.0089,42.6492],[-7.045,42.6947],[-7.0107,42.7236],[-6.969,42.7294],[-6.904,42.7595],[-6.8691,42.8008],[-6.8402,42.8233],[-6.8711,42.8738],[-6.8276,42.8886],[-6.8479,42.9143],[-6.8359,42.9577],[-6.8716,42.9889],[-6.9102,42.9901],[-6.9405,43.0114],[-6.975,42.9963],[-6.9948,43.0263],[-6.9689,43.0327],[-6.966,43.0613],[-6.9517,43.0762],[-6.8902,43.0905],[-6.8275,43.1231],[-6.8214,43.1432],[-6.8388,43.1661],[-6.8716,43.1798],[-6.9193,43.141],[-6.9414,43.1318],[-6.9733,43.1495],[-6.9806,43.1668],[-6.965,43.187],[-7.0199,43.2132],[-7.0651,43.2494],[-7.0714,43.2712],[-7.0651,43.2991],[-7.0973,43.3014],[-7.1326,43.3477],[-7.1274,43.3726],[-7.1561,43.3745],[-7.1785,43.388],[-7.1684,43.4035],[-7.1728,43.4304],[-7.1027,43.427],[-7.0902,43.4539],[-7.054,43.4854],[-7.0496,43.5201],[-7.0351,43.5507],[-7.061,43.5599],[-7.0918,43.5557],[-7.1704,43.556],[-7.1801,43.5624],[-7.2454,43.5651],[-7.246,43.5765],[-7.2954,43.594],[-7.3093,43.6174],[-7.3432,43.6404],[-7.3554,43.6701],[-7.3957,43.6799],[-7.479,43.7088],[-7.5232,43.7363],[-7.5857,43.7051],[-7.5768,43.6926],[-7.6118,43.6724],[-7.6149,43.7021],[-7.6304,43.7224],[-7.6379,43.7532],[-7.691,43.7301],[-7.7052,43.7078],[-7.7065,43.6722],[-7.6908,43.6546],[-7.7265,43.6243],[-7.7176,43.584],[-7.7461,43.5807],[-7.7521,43.5527],[-7.7485,43.5134],[-7.7799,43.4489],[-7.8071,43.4373],[-7.8229,43.4007],[-7.8798,43.4073],[-7.898,43.3897],[-7.8814,43.3524],[-7.8925,43.33],[-7.9469,43.286],[-7.9217,43.2694],[-7.9612,43.1898],[-7.9369,43.1118],[-7.918,43.0924],[-7.9428,43.0676],[-7.9051,42.9854],[-7.9161,42.9323],[-7.9432,42.9173],[-7.9353,42.9034],[-7.9777,42.8774],[-7.9996,42.8489],[-7.9562,42.8397],[-7.9803,42.8113],[-7.9784,42.7789],[-7.9352,42.7397],[-7.8727,42.7202],[-7.8613,42.7062],[-7.8924,42.6776],[-7.8924,42.6296],[-7.9191,42.5843],[-7.9278,42.5785],[-7.8886,42.5381],[-7.9118,42.5273],[-7.8777,42.5026],[-7.8613,42.5041],[-7.7996,42.48],[-7.7526,42.451],[-7.713,42.4524],[-7.7013,42.4326],[-7.6307,42.4066],[-7.6165,42.3842],[-7.5746,42.4048],[-7.5494,42.387],[-7.501,42.3887],[-7.4657,42.4071],[-7.4474,42.407],[-7.403,42.4288],[-7.3697,42.4213],[-7.3441,42.4296],[-7.3068,42.4294],[-7.2693,42.4149],[-7.2297,42.376],[-7.2175,42.3369],[-7.1717,42.3792],[-7.1479,42.4371],[-7.0999,42.4586],[-7.0769,42.5082]]]},"properties":{"GID_0":"ESP","GID_1":"ESP.12_1","GID_2":"ESP.12.2_1","NAME_1":"Galicia","NAME_2":"Lugo"}},
{"type":"Feature","geometry":{"type":"Polygon","coordinates":[[[-8.1806,42.1584],[-8.1995,42.1541],[-8.1964,42.1527],[-8.1954,42.1482],[-8.1876,42.1375],[-8.1935,42.1291],[-8.1859,42.0982],[-8.1881,42.0739],[-8.1704,42.0673],[-8.1214,42.0828],[-8.0966,42.0723],[-8.0844,42.0473],[-8.086,42.0165],[-8.1278,42.0056],[-8.1979,41.9395],[-8.2168,41.9135],[-8.2,41.8737],[-8.1717,41.8791],[-8.1617,41.861],[-8.165,41.8181],[-8.1309,41.8089],[-8.0576,41.8157],[-8.0387,41.83],[-8.014,41.829],[-7.9877,41.8692],[-7.9488,41.871],[-7.9213,41.8818],[-7.9063,41.9271],[-7.8879,41.9268],[-7.8844,41.8891],[-7.8922,41.8595],[-7.8415,41.8665],[-7.8452,41.8813],[-7.7783,41.8869],[-7.7635,41.899],[-7.7333,41.8923],[-7.7008,41.9077],[-7.6538,41.8812],[-7.5915,41.8807],[-7.6115,41.8467],[-7.5739,41.8297],[-7.5213,41.8419],[-7.4852,41.8613],[-7.4525,41.8651],[-7.4467,41.8433],[-7.4088,41.8167],[-7.3862,41.8413],[-7.3153,41.8425],[-7.2578,41.8659],[-7.1967,41.88],[-7.1735,41.9191],[-7.1838,41.933],[-7.1866,41.9694],[-7.1414,41.9907],[-7.0875,41.9735],[-7.0683,41.949],[-7.0062,41.9506],[-6.9834,41.9729],[-6.9869,41.997],[-6.961,42.0272],[-6.9746,42.0551],[-7.0125,42.0527],[-7.0334,42.0742],[-7.0031,42.0839],[-6.9897,42.1213],[-6.9563,42.1294],[-6.9382,42.1774],[-6.9009,42.1896],[-6.8867,42.2143],[-6.8435,42.2283],[-6.787,42.2157],[-6.803,42.2387],[-6.741,42.2986],[-6.7338,42.3591],[-6.774,42.3788],[-6.8207,42.3856],[-6.8434,42.4058],[-6.8145,42.4269],[-6.8113,42.4612],[-6.8226,42.4908],[-6.8599,42.4887],[-6.9249,42.5194],[-6.9599,42.5177],[-6.9734,42.494],[-7.0008,42.5057],[-7.0285,42.4978],[-7.0769,42.5082],[-7.0999,42.4586],[-7.1479,42.4371],[-7.1717,42.3792],[-7.2175,42.3369],[-7.2297,42.376],[-7.2693,42.4149],[-7.3068,42.4294],[-7.3441,42.4296],[-7.3697,42.4213],[-7.403,42.4288],[-7.4474,42.407],[-7.4657,42.4071],[-7.501,42.3887],[-7.5494,42.387],[-7.5746,42.4048],[-7.6165,42.3842],[-7.6307,42.4066],[-7.7013,42.4326],[-7.713,42.4524],[-7.7526,42.451],[-7.7996,42.48],[-7.8613,42.5041],[-7.8777,42.5026],[-7.9118,42.5273],[-7.8886,42.5381],[-7.9278,42.5785],[-7.9647,42.5666],[-7.992,42.5725],[-8.0162,42.5427],[-8.0483,42.5549],[-8.0893,42.5577],[-8.1467,42.5487],[-8.1737,42.572],[-8.2174,42.5338],[-8.2393,42.5382],[-8.2712,42.5207],[-8.3026,42.4902],[-8.3341,42.4912],[-8.3525,42.4807],[-8.3357,42.448],[-8.3381,42.4334],[-8.317,42.3828],[-8.3243,42.3692],[-8.311,42.3438],[-8.2819,42.3165],[-8.2618,42.315],[-8.2644,42.2528],[-8.2329,42.2336],[-8.2033,42.2445],[-8.1649,42.246],[-8.1806,42.1584]]]},"properties":{"GID_0":"ESP","GID_1":"ESP.12_1","GID_2":"ESP.12.3_1","NAME_1":"Galicia","NAME_2":"Ourense"}},
{"type":"Feature","geometry":{"type":"Polygon","coordinates":[[[-8.726,42.6794],[-8.7413,42.649],[-8.774,42.6218],[-8.766,42.6024],[-8.8365,42.554],[-8.8124,42.4946],[-8.831,42.4849],[-8.8226,42.4646],[-8.869,42.4476],[-8.8562,42.4774],[-8.8715,42.501],[-8.8899,42.4963],[-8.9132,42.4629],[-8.8821,42.4554],[-8.8821,42.424],[-8.8479,42.3976],[-8.8149,42.4012],[-8.7607,42.3949],[-8.7046,42.4343],[-8.6815,42.4071],[-8.7262,42.3849],[-8.7457,42.3662],[-8.7521,42.3424],[-8.7921,42.3271],[-8.7999,42.339],[-8.8374,42.3404],[-8.8185,42.3068],[-8.8315,42.2832],[-8.8576,42.3093],[-8.8629,42.2682],[-8.8271,42.2507],[-8.7876,42.2476],[-8.7354,42.2729],[-8.6899,42.2799],[-8.6518,42.2982],[-8.6621,42.3107],[-8.6363,42.3262],[-8.6112,42.3282],[-8.6285,42.2851],[-8.6468,42.2907],[-8.676,42.2649],[-8.7035,42.2596],[-8.7149,42.2407],[-8.7782,42.219],[-8.7804,42.2032],[-8.8124,42.1915],[-8.8168,42.1351],[-8.8363,42.1124],[-8.8632,42.1215],[-8.9004,42.1126],[-8.8854,42.0507],[-8.8882,41.9782],[-8.886,41.9207],[-8.8749,41.8993],[-8.8821,41.881],[-8.851,41.8771],[-8.8184,41.9113],[-8.7859,41.9173],[-8.7563,41.9331],[-8.7441,41.9659],[-8.6786,41.9913],[-8.6622,42.0026],[-8.6591,42.0255],[-8.6413,42.0443],[-8.5953,42.0569],[-8.546,42.0542],[-8.5281,42.0747],[-8.443,42.0824],[-8.4289,42.0723],[-8.371,42.0883],[-8.3319,42.0838],[-8.2455,42.1398],[-8.2257,42.1329],[-8.2005,42.1537],[-8.1806,42.1584],[-8.1649,42.246],[-8.2033,42.2445],[-8.2329,42.2336],[-8.2644,42.2528],[-8.2618,42.315],[-8.2819,42.3165],[-8.311,42.3438],[-8.3243,42.3692],[-8.317,42.3828],[-8.3381,42.4334],[-8.3357,42.448],[-8.3525,42.4807],[-8.3341,42.4912],[-8.3026,42.4902],[-8.2712,42.5207],[-8.2393,42.5382],[-8.2174,42.5338],[-8.1737,42.572],[-8.1467,42.5487],[-8.0893,42.5577],[-8.0483,42.5549],[-8.0162,42.5427],[-7.992,42.5725],[-7.9647,42.5666],[-7.9191,42.5843],[-7.8924,42.6296],[-7.8924,42.6776],[-7.8613,42.7062],[-7.8727,42.7202],[-7.9352,42.7397],[-7.9784,42.7789],[-7.9803,42.8113],[-7.9562,42.8397],[-7.9996,42.8489],[-8.0241,42.8471],[-8.0458,42.8315],[-8.0716,42.8524],[-8.1162,42.8411],[-8.1835,42.86],[-8.2102,42.8237],[-8.2551,42.8364],[-8.2884,42.8179],[-8.3118,42.8339],[-8.3296,42.8234],[-8.3334,42.7999],[-8.3542,42.7788],[-8.4,42.7804],[-8.4302,42.7466],[-8.4697,42.7436],[-8.493,42.7564],[-8.5459,42.7537],[-8.5716,42.7421],[-8.5998,42.7431],[-8.6141,42.7147],[-8.6543,42.7267],[-8.6775,42.7118],[-8.7172,42.7063],[-8.726,42.6794]]]},"properties":{"GID_0":"ESP","GID_1":"ESP.12_1","GID_2":"ESP.12.4_1","NAME_1":"Galicia","NAME_2":"Pontevedra"}}
]}