{"type":"FeatureCollection", "features": [
{"type":"Feature","geometry":{"type":"Polygon","coordinates":[[[12.9892,43.3028],[13.0247,43.3275],[13.0415,43.337],[13.0928,43.4368],[13.1511,43.4146],[13.2117,43.418],[13.2453,43.4603],[13.3368,43.3924],[13.4486,43.4461],[13.5835,43.4439],[13.6172,43.4181],[13.6433,43.4281],[13.6593,43.435],[13.6045,43.4571],[13.608,43.4642],[13.6418,43.475],[13.6288,43.5482],[13.5718,43.5713],[13.5288,43.6218],[13.481,43.6071],[13.4215,43.6204],[13.2818,43.681],[13.1621,43.7438],[13.1164,43.7281],[12.9872,43.6563],[12.9785,43.6228],[12.8893,43.5442],[12.8068,43.505],[12.8001,43.4798],[12.7707,43.4673],[12.7684,43.4608],[12.7754,43.4029],[12.7478,43.3914],[12.794,43.3365],[12.7899,43.2842],[12.8257,43.2675],[12.8633,43.2122],[12.8846,43.2549],[12.8872,43.2713],[12.9133,43.2714],[12.9703,43.2836],[12.9892,43.3028]],[[13.0921,43.7182],[13.0883,43.7211],[13.0952,43.7233],[13.0921,43.7182]]]},"properties":{"GID_0":"ITA","GID_1":"ITA.11_1","GID_2":"ITA.11.1_1","NAME_1":"Marche","NAME_2":"Ancona"}},
{"type":"Feature","geometry":{"type":"Polygon","coordinates":[[[13.2323,42.8761],[13.2649,42.8092],[13.2465,42.7687],[13.3424,42.7026],[13.3935,42.6883],[13.453,42.7349],[13.4904,42.735],[13.5307,42.7969],[13.7002,42.8236],[13.7234,42.8563],[13.9154,42.8956],[13.8893,42.9426],[13.8496,43.0674],[13.8333,43.0648],[13.7861,43.0807],[13.6321,43.0338],[13.5567,42.9892],[13.4045,42.971],[13.3977,42.9562],[13.3914,42.9543],[13.4058,42.9327],[13.4116,42.9316],[13.4037,42.9161],[13.36,42.9147],[13.3352,42.9173],[13.3294,42.9225],[13.2841,42.9183],[13.2427,42.893],[13.2323,42.8761]]]},"properties":{"GID_0":"ITA","GID_1":"ITA.11_1","GID_2":"ITA.11.2_1","NAME_1":"Marche","NAME_2":"AscoliPiceno"}},
{"type":"Feature","geometry":{"type":"Polygon","coordinates":[[[13.4058,42.9327],[13.3914,42.9543],[13.3977,42.9562],[13.4045,42.971],[13.5567,42.9892],[13.6321,43.0338],[13.7861,43.0807],[13.8333,43.0648],[13.8449,43.0985],[13.779,43.2337],[13.7285,43.2895],[13.6328,43.2692],[13.5763,43.2168],[13.522,43.2102],[13.5192,43.1748],[13.463,43.1646],[13.4377,43.1314],[13.4376,43.118],[13.4637,43.0652],[13.4606,43.0214],[13.3927,43.0126],[13.3793,43.0434],[13.2518,42.9661],[13.2244,42.9591],[13.2427,42.893],[13.2841,42.9183],[13.3294,42.9225],[13.3352,42.9173],[13.36,42.9147],[13.4037,42.9161],[13.4116,42.9316],[13.4058,42.9327]]]},"properties":{"GID_0":"ITA","GID_1":"ITA.11_1","GID_2":"ITA.11.3_1","NAME_1":"Marche","NAME_2":"Fermo"}},
{"type":"Feature","geometry":{"type":"Polygon","coordinates":[[[13.2323,42.8761],[13.2427,42.893],[13.2244,42.9591],[13.2518,42.9661],[13.3793,43.0434],[13.3927,43.0126],[13.4606,43.0214],[13.4637,43.0652],[13.4376,43.118],[13.4377,43.1314],[13.463,43.1646],[13.5192,43.1748],[13.522,43.2102],[13.5763,43.2168],[13.6328,43.2692],[13.7285,43.2895],[13.6418,43.475],[13.608,43.4642],[13.6045,43.4571],[13.6593,43.435],[13.6433,43.4281],[13.6172,43.4181],[13.5835,43.4439],[13.4486,43.4461],[13.3368,43.3924],[13.2453,43.4603],[13.2117,43.418],[13.1511,43.4146],[13.0928,43.4368],[13.0415,43.337],[13.0247,43.3275],[12.9892,43.3028],[12.9703,43.2836],[12.9133,43.2714],[12.8872,43.2713],[12.8846,43.2549],[12.8633,43.2122],[12.8745,43.1248],[12.9076,43.0364],[12.8968,42.9655],[12.9776,42.9271],[12.9771,42.8708],[13.0552,42.9211],[13.1132,42.8903],[13.1618,42.8329],[13.2132,42.8427],[13.2323,42.8761]]]},"properties":{"GID_0":"ITA","GID_1":"ITA.11_1","GID_2":"ITA.11.4_1","NAME_1":"Marche","NAME_2":"Macerata"}},
{"type":"Feature","geometry":{"type":"MultiPolygon","coordinates":[[[[13.1621,43.7438],[13.0688,43.8215],[12.9846,43.8657],[12.9082,43.9221],[12.7965,43.9657],[12.7566,43.9629],[12.7289,43.9251],[12.7246,43.8622],[12.6823,43.829],[12.6242,43.8237],[12.59,43.8865],[12.441,43.9054],[12.3988,43.9632],[12.3238,43.9615],[12.2957,43.9291],[12.2201,43.909],[12.177,43.9214],[12.0972,43.7663],[12.2423,43.7545],[12.2847,43.7659],[12.3694,43.7159],[12.1872,43.6435],[12.2264,43.5943],[12.2624,43.5899],[12.3577,43.6182],[12.3744,43.5852],[12.345,43.5538],[12.4,43.5142],[12.5008,43.5224],[12.5652,43.4608],[12.6237,43.4246],[12.7103,43.4261],[12.7684,43.4608],[12.7707,43.4673],[12.8001,43.4798],[12.8068,43.505],[12.8893,43.5442],[12.9785,43.6228],[12.9872,43.6563],[13.1164,43.7281],[13.1621,43.7438]]],[[[13.0952,43.7233],[13.0883,43.7211],[13.0921,43.7182],[13.0952,43.7233]]]]},"properties":{"GID_0":"ITA","GID_1":"ITA.11_1","GID_2":"ITA.11.5_1","NAME_1":"Marche","NAME_2":"PesaroEUrbino"}}
]}