{"type":"FeatureCollection", "features": [
{"type":"Feature","geometry":{"type":"Polygon","coordinates":[[[10.816,44.1166],[10.9457,44.0826],[10.9794,44.1232],[11.025,44.0984],[11.0904,44.0909],[11.1602,44.1134],[11.2356,44.1594],[11.2817,44.1563],[11.3435,44.2062],[11.3766,44.2003],[11.4221,44.2402],[11.4486,44.2004],[11.5352,44.1785],[11.5798,44.2331],[11.7095,44.2909],[11.7869,44.349],[11.8378,44.415],[11.7823,44.4372],[11.7977,44.4866],[11.7816,44.5239],[11.7929,44.5649],[11.7752,44.5673],[11.8013,44.6355],[11.729,44.6552],[11.675,44.6332],[11.5937,44.7126],[11.4349,44.7608],[11.4002,44.7695],[11.3744,44.7809],[11.3607,44.7751],[11.3218,44.7459],[11.2764,44.7065],[11.2471,44.7593],[11.2943,44.8037],[11.2088,44.8052],[11.1792,44.7971],[11.1531,44.7872],[11.0791,44.648],[11.1288,44.6323],[11.151,44.5846],[11.0601,44.5233],[11.0484,44.4669],[11.0105,44.4462],[10.9977,44.4305],[11.0492,44.417],[11.0371,44.3468],[11.0398,44.3294],[10.9677,44.3032],[10.9681,44.2441],[10.9413,44.2266],[10.8513,44.2288],[10.8492,44.201],[10.824,44.1833],[10.8099,44.1558],[10.816,44.1166]]]},"properties":{"GID_0":"ITA","GID_1":"ITA.6_1","GID_2":"ITA.6.1_1","NAME_1":"Emilia-Romagna","NAME_2":"Bologna"}},
{"type":"Feature","geometry":{"type":"Polygon","coordinates":[[[12.2704,44.6295],[12.2396,44.6951],[12.2493,44.7649],[12.3029,44.8567],[12.2818,44.9427],[12.226,44.9239],[12.1434,44.9288],[12.099,44.9724],[11.962,44.9875],[11.9256,44.9756],[11.8036,44.9774],[11.7458,44.9359],[11.6258,44.8902],[11.533,44.9378],[11.4304,44.93],[11.4273,44.953],[11.3275,44.9632],[11.2472,44.9524],[11.2614,44.934],[11.2443,44.9177],[11.2357,44.9069],[11.2464,44.8991],[11.3486,44.8727],[11.3126,44.8284],[11.2994,44.8073],[11.2471,44.7593],[11.2764,44.7065],[11.3218,44.7459],[11.3607,44.7751],[11.3744,44.7809],[11.4002,44.7695],[11.4349,44.7608],[11.5937,44.7126],[11.675,44.6332],[11.729,44.6552],[11.8013,44.6355],[11.7752,44.5673],[11.7929,44.5649],[11.7902,44.5553],[11.833,44.5625],[11.8613,44.5606],[11.8718,44.5784],[12.0027,44.6011],[12.0291,44.5614],[12.1548,44.5494],[12.2381,44.6215],[12.2704,44.6295]]]},"properties":{"GID_0":"ITA","GID_1":"ITA.6_1","GID_2":"ITA.6.2_1","NAME_1":"Emilia-Romagna","NAME_2":"Ferrara"}},
{"type":"Feature","geometry":{"type":"Polygon","coordinates":[[[11.7169,44.1235],[11.7539,44.1215],[11.6965,44.0371],[11.6465,43.9908],[11.718,43.9228],[11.7112,43.8784],[11.8563,43.8166],[11.9492,43.7913],[11.9875,43.7629],[12.078,43.7416],[12.1318,43.8257],[12.177,43.9214],[12.2201,43.909],[12.3135,43.9412],[12.327,43.9662],[12.3475,43.9749],[12.3644,43.9877],[12.3821,44.0373],[12.36,44.0552],[12.4582,44.0906],[12.4421,44.1606],[12.3835,44.2247],[12.3503,44.1917],[12.2812,44.2341],[12.2141,44.2218],[12.2024,44.2274],[12.1042,44.2729],[12.0366,44.3317],[11.9768,44.2566],[11.9305,44.2203],[11.9225,44.2118],[11.9065,44.1949],[11.8304,44.1999],[11.7212,44.1596],[11.7169,44.1235]]]},"properties":{"GID_0":"ITA","GID_1":"ITA.6_1","GID_2":"ITA.6.3_1","NAME_1":"Emilia-Romagna","NAME_2":"Forli'-Cesena"}},
{"type":"Feature","geometry":{"type":"Polygon","coordinates":[[[10.4711,44.227],[10.5259,44.158],[10.6251,44.1213],[10.6422,44.1608],[10.7443,44.1574],[10.816,44.1166],[10.8099,44.1558],[10.824,44.1833],[10.8492,44.201],[10.8513,44.2288],[10.9413,44.2266],[10.9681,44.2441],[10.9677,44.3032],[11.0398,44.3294],[11.0371,44.3468],[11.0492,44.417],[10.9977,44.4305],[11.0105,44.4462],[11.0484,44.4669],[11.0601,44.5233],[11.151,44.5846],[11.1288,44.6323],[11.0791,44.648],[11.1531,44.7872],[11.1792,44.7971],[11.2088,44.8052],[11.2943,44.8037],[11.3126,44.8284],[11.3486,44.8727],[11.2464,44.8991],[11.2357,44.9069],[11.2443,44.9177],[11.2614,44.934],[11.2472,44.9524],[11.1534,44.9342],[11.0745,44.9639],[10.9985,44.956],[10.88,44.9039],[10.816,44.8082],[10.8431,44.7965],[10.8072,44.6985],[10.8163,44.6575],[10.783,44.6287],[10.7677,44.5436],[10.7417,44.5108],[10.6586,44.4593],[10.6444,44.4309],[10.6225,44.4068],[10.6198,44.3795],[10.5897,44.3622],[10.5522,44.3608],[10.5272,44.3465],[10.5264,44.329],[10.5151,44.3123],[10.5122,44.2949],[10.4879,44.2508],[10.4711,44.227]]]},"properties":{"GID_0":"ITA","GID_1":"ITA.6_1","GID_2":"ITA.6.4_1","NAME_1":"Emilia-Romagna","NAME_2":"Modena"}},
{"type":"Feature","geometry":{"type":"Polygon","coordinates":[[[9.5158,44.5643],[9.4978,44.4837],[9.4592,44.4432],[9.4829,44.418],[9.5602,44.4391],[9.6563,44.4126],[9.676,44.3657],[9.7539,44.4018],[9.821,44.4674],[9.9717,44.4654],[10.008,44.4327],[9.9903,44.4053],[10.0993,44.3472],[10.143,44.3548],[10.168,44.3854],[10.2248,44.4114],[10.2396,44.4395],[10.2564,44.4532],[10.2765,44.4585],[10.3042,44.4711],[10.3409,44.5065],[10.3858,44.5499],[10.4034,44.5764],[10.4155,44.6299],[10.4148,44.6668],[10.4484,44.7203],[10.4245,44.7991],[10.4557,44.8316],[10.4612,44.8875],[10.4952,44.9079],[10.5053,44.9234],[10.2746,45.0001],[10.2569,45.0187],[10.1588,45.045],[10.0845,45.0449],[10.0587,45.0386],[10.0431,45.0175],[9.9884,44.9369],[10.0134,44.8888],[9.9845,44.8585],[9.8832,44.8046],[9.8817,44.7696],[9.7632,44.7064],[9.7662,44.6823],[9.6259,44.6572],[9.5158,44.5643]]]},"properties":{"GID_0":"ITA","GID_1":"ITA.6_1","GID_2":"ITA.6.5_1","NAME_1":"Emilia-Romagna","NAME_2":"Parma"}},
{"type":"Feature","geometry":{"type":"Polygon","coordinates":[[[10.0845,45.0449],[10.0513,45.0422],[10.0296,45.0972],[9.9722,45.1333],[9.8821,45.1279],[9.8365,45.0728],[9.7461,45.1068],[9.7148,45.0593],[9.5687,45.1108],[9.4401,45.0944],[9.3719,45.0491],[9.2912,44.8832],[9.3427,44.8708],[9.3641,44.8234],[9.2876,44.7596],[9.3336,44.736],[9.2605,44.6809],[9.2014,44.6874],[9.2015,44.6163],[9.3015,44.6087],[9.344,44.5786],[9.5158,44.5643],[9.6259,44.6572],[9.7662,44.6823],[9.7632,44.7064],[9.8817,44.7696],[9.8832,44.8046],[9.9845,44.8585],[10.0134,44.8888],[9.9884,44.9369],[10.0431,45.0175],[10.0587,45.0386],[10.0845,45.0449]]]},"properties":{"GID_0":"ITA","GID_1":"ITA.6_1","GID_2":"ITA.6.6_1","NAME_1":"Emilia-Romagna","NAME_2":"Piacenza"}},
{"type":"Feature","geometry":{"type":"Polygon","coordinates":[[[11.9065,44.1949],[11.9225,44.2118],[11.9305,44.2203],[11.9768,44.2566],[12.0366,44.3317],[12.1042,44.2729],[12.2024,44.2274],[12.2141,44.2218],[12.2812,44.2341],[12.3503,44.1917],[12.3835,44.2247],[12.359,44.2649],[12.3154,44.4068],[12.2885,44.4615],[12.2824,44.5921],[12.2704,44.6295],[12.2381,44.6215],[12.1548,44.5494],[12.0291,44.5614],[12.0027,44.6011],[11.8718,44.5784],[11.8613,44.5606],[11.833,44.5625],[11.7902,44.5553],[11.7816,44.5239],[11.7977,44.4866],[11.7823,44.4372],[11.8378,44.415],[11.7869,44.349],[11.7095,44.2909],[11.5798,44.2331],[11.5352,44.1785],[11.6118,44.1609],[11.5983,44.1261],[11.6536,44.1017],[11.7169,44.1235],[11.7212,44.1596],[11.8304,44.1999],[11.9065,44.1949]]]},"properties":{"GID_0":"ITA","GID_1":"ITA.6_1","GID_2":"ITA.6.7_1","NAME_1":"Emilia-Romagna","NAME_2":"Ravenna"}},
{"type":"Feature","geometry":{"type":"Polygon","coordinates":[[[10.5264,44.329],[10.5272,44.3465],[10.5522,44.3608],[10.5897,44.3622],[10.6198,44.3795],[10.6225,44.4068],[10.6444,44.4309],[10.6586,44.4593],[10.7417,44.5108],[10.7677,44.5436],[10.783,44.6287],[10.8163,44.6575],[10.8072,44.6985],[10.8431,44.7965],[10.816,44.8082],[10.88,44.9039],[10.8659,44.9254],[10.6631,44.968],[10.6289,44.9252],[10.5696,44.9092],[10.5053,44.9234],[10.4952,44.9079],[10.4612,44.8875],[10.4557,44.8316],[10.4245,44.7991],[10.4484,44.7203],[10.4148,44.6668],[10.4155,44.6299],[10.4034,44.5764],[10.3858,44.5499],[10.3409,44.5065],[10.3042,44.4711],[10.2765,44.4585],[10.2564,44.4532],[10.2396,44.4395],[10.2248,44.4114],[10.168,44.3854],[10.143,44.3548],[10.2273,44.3009],[10.3726,44.2703],[10.4315,44.228],[10.4711,44.227],[10.4879,44.2508],[10.5122,44.2949],[10.5151,44.3123],[10.5264,44.329]]]},"properties":{"GID_0":"ITA","GID_1":"ITA.6_1","GID_2":"ITA.6.8_1","NAME_1":"Emilia-Romagna","NAME_2":"ReggioNell'Emilia"}},
{"type":"Feature","geometry":{"type":"Polygon","coordinates":[[[12.327,43.9662],[12.4338,43.9552],[12.4672,43.9787],[12.5141,43.9459],[12.4913,43.9213],[12.5436,43.89],[12.5904,43.8863],[12.6242,43.8237],[12.674,43.8246],[12.7246,43.8622],[12.7289,43.9251],[12.7566,43.9629],[12.6857,43.9876],[12.574,44.076],[12.5435,44.0851],[12.4512,44.1632],[12.4421,44.1606],[12.4582,44.0906],[12.36,44.0552],[12.3821,44.0373],[12.3644,43.9877],[12.3475,43.9749],[12.327,43.9662]]]},"properties":{"GID_0":"ITA","GID_1":"ITA.6_1","GID_2":"ITA.6.9_1","NAME_1":"Emilia-Romagna","NAME_2":"Rimini"}}
]}