{"type":"FeatureCollection", "features": [
{"type":"Feature","geometry":{"type":"Polygon","coordinates":[[[8.6126,38.9582],[8.6215,38.9185],[8.6068,38.8924],[8.6474,38.8921],[8.7238,38.9315],[8.8049,38.9043],[8.8282,38.8826],[8.8538,38.8776],[8.9038,38.9049],[8.9182,38.9235],[8.9704,38.9565],[8.9996,38.9879],[9.0135,38.9899],[9.046,39.0568],[9.0162,39.0871],[9.009,39.1235],[9.0387,39.1732],[9.0921,39.2129],[9.0788,39.2276],[9.041,39.2337],[9.0235,39.2568],[9.036,39.2671],[9.0618,39.2385],[9.0751,39.2468],[9.1415,39.186],[9.1818,39.2168],[9.226,39.2285],[9.2424,39.2185],[9.2976,39.2132],[9.3385,39.1935],[9.3504,39.1776],[9.394,39.1565],[9.3926,39.1435],[9.4615,39.1268],[9.484,39.1357],[9.509,39.126],[9.556,39.134],[9.5796,39.176],[9.5638,39.1899],[9.571,39.244],[9.5835,39.2718],[9.6057,39.294],[9.596,39.3399],[9.6035,39.3818],[9.6465,39.461],[9.6454,39.4893],[9.6321,39.4971],[9.639,39.5404],[9.6518,39.5504],[9.6047,39.572],[9.5949,39.5748],[9.5621,39.574],[9.5512,39.5763],[9.5461,39.5808],[9.5465,39.584],[9.5246,39.5897],[9.504,39.6213],[9.4873,39.6179],[9.4579,39.6427],[9.4271,39.6256],[9.4143,39.6167],[9.4074,39.6161],[9.3988,39.6012],[9.369,39.5839],[9.3157,39.5787],[9.2975,39.6039],[9.2386,39.6247],[9.2059,39.6278],[9.1754,39.6505],[9.1646,39.6738],[9.1484,39.6785],[9.1032,39.6707],[9.0752,39.6593],[9.0475,39.6419],[9.0271,39.6194],[9.0007,39.5546],[8.9838,39.5327],[9.011,39.5217],[9.0105,39.508],[9.0095,39.4798],[8.9891,39.4691],[8.958,39.4667],[8.97,39.4519],[8.9793,39.4231],[8.9628,39.413],[8.9302,39.4005],[8.8989,39.3991],[8.8238,39.4084],[8.7733,39.4076],[8.7353,39.3967],[8.7003,39.376],[8.7061,39.373],[8.7036,39.3463],[8.7016,39.3233],[8.7174,39.3114],[8.7219,39.2847],[8.7408,39.2812],[8.7493,39.2329],[8.7718,39.1802],[8.8125,39.1663],[8.8273,39.1497],[8.8232,39.1194],[8.8497,39.1002],[8.8541,39.0852],[8.8329,39.0484],[8.7415,39.0507],[8.6965,39.0297],[8.6824,39.0429],[8.657,39.0283],[8.6602,39.0034],[8.6403,38.9954],[8.6126,38.9582]]]},"properties":{"GID_0":"ITA","GID_1":"ITA.14_1","GID_2":"ITA.14.1_1","NAME_1":"Sardegna","NAME_2":"Cagliari"}},
{"type":"Feature","geometry":{"type":"MultiPolygon","coordinates":[[[[8.4271,39.1082],[8.3804,39.0993],[8.3596,39.109],[8.3493,39.076],[8.3601,39.0379],[8.3937,38.9888],[8.4029,38.9618],[8.4451,38.9685],[8.4529,39.0251],[8.4676,39.0465],[8.4568,39.0838],[8.4271,39.1082]]],[[[8.3096,39.186],[8.2665,39.1782],[8.2238,39.1607],[8.2493,39.1329],[8.249,39.1065],[8.2743,39.0935],[8.3062,39.101],[8.3143,39.1393],[8.3062,39.1604],[8.3096,39.186]]],[[[8.4111,39.4563],[8.4121,39.4201],[8.3854,39.3949],[8.3763,39.3679],[8.3949,39.3385],[8.4157,39.3357],[8.4374,39.2879],[8.3662,39.2265],[8.3754,39.2032],[8.4004,39.1943],[8.4129,39.1735],[8.4379,39.1557],[8.4332,39.1293],[8.4632,39.1213],[8.4885,39.0841],[8.4779,39.0607],[8.5229,39.0618],[8.5685,39.0421],[8.5743,39.0151],[8.5649,38.9993],[8.5726,38.9782],[8.5968,38.9579],[8.6126,38.9582],[8.6403,38.9954],[8.6602,39.0034],[8.657,39.0283],[8.6824,39.0429],[8.6965,39.0297],[8.7415,39.0507],[8.8329,39.0484],[8.8541,39.0855],[8.8497,39.1002],[8.8232,39.1194],[8.8273,39.1497],[8.8125,39.1663],[8.7718,39.1802],[8.7493,39.2329],[8.7408,39.2812],[8.7219,39.2847],[8.7174,39.3114],[8.7016,39.3233],[8.7036,39.3463],[8.7061,39.373],[8.7003,39.376],[8.6514,39.3804],[8.637,39.3886],[8.6186,39.4187],[8.548,39.4597],[8.5356,39.4801],[8.4969,39.4841],[8.4525,39.4634],[8.4368,39.4726],[8.4111,39.4563]]]]},"properties":{"GID_0":"ITA","GID_1":"ITA.14_1","GID_2":"ITA.14.2_1","NAME_1":"Sardegna","NAME_2":"Carbonia-Iglesias"}},
{"type":"Feature","geometry":{"type":"Polygon","coordinates":[[[8.97,39.4519],[8.958,39.4667],[8.9891,39.4691],[9.0095,39.4798],[9.0105,39.508],[9.011,39.5217],[8.9838,39.5327],[9.0007,39.5546],[9.0271,39.6194],[9.0475,39.6419],[9.0486,39.6905],[9.0603,39.7033],[9.0538,39.7307],[9.0747,39.7513],[9.0612,39.7586],[8.999,39.7621],[8.9797,39.7807],[8.9534,39.779],[8.9368,39.7805],[8.9362,39.7559],[8.9253,39.7594],[8.9137,39.7481],[8.9107,39.7405],[8.9027,39.734],[8.9139,39.7247],[8.9038,39.7139],[8.8806,39.7002],[8.8625,39.669],[8.8327,39.6681],[8.7851,39.6549],[8.7441,39.6281],[8.6893,39.644],[8.6723,39.6322],[8.6325,39.6543],[8.609,39.6909],[8.5917,39.6923],[8.5724,39.6856],[8.556,39.696],[8.521,39.6929],[8.5024,39.706],[8.461,39.7679],[8.4435,39.7588],[8.4543,39.6985],[8.444,39.6787],[8.459,39.6688],[8.4524,39.621],[8.471,39.6004],[8.4535,39.5504],[8.4063,39.4879],[8.3849,39.4718],[8.4111,39.4563],[8.4368,39.4726],[8.4525,39.4634],[8.4969,39.4841],[8.5356,39.4801],[8.548,39.4597],[8.6186,39.4187],[8.637,39.3886],[8.6514,39.3804],[8.7003,39.376],[8.7353,39.3967],[8.7733,39.4076],[8.8238,39.4084],[8.8989,39.3991],[8.9309,39.4006],[8.9628,39.413],[8.9793,39.4231],[8.97,39.4519]]]},"properties":{"GID_0":"ITA","GID_1":"ITA.14_1","GID_2":"ITA.14.3_1","NAME_1":"Sardegna","NAME_2":"MedioCampidano"}},
{"type":"Feature","geometry":{"type":"Polygon","coordinates":[[[9.1646,39.6738],[9.1754,39.6505],[9.2059,39.6278],[9.2386,39.6247],[9.2975,39.6039],[9.3157,39.5787],[9.369,39.5839],[9.3988,39.6012],[9.4074,39.6161],[9.4177,39.6182],[9.4205,39.6276],[9.3991,39.6544],[9.4028,39.6872],[9.3854,39.6963],[9.3101,39.6791],[9.2891,39.7138],[9.2511,39.7356],[9.266,39.7487],[9.2685,39.7871],[9.2855,39.802],[9.2932,39.8303],[9.2739,39.8518],[9.2841,39.8774],[9.2748,39.905],[9.2904,39.9263],[9.2794,39.9467],[9.2966,39.9842],[9.3216,39.9967],[9.3027,40.0177],[9.2997,40.0378],[9.3199,40.0403],[9.3379,40.0734],[9.3694,40.0734],[9.3925,40.0935],[9.4356,40.1057],[9.441,40.1254],[9.4766,40.1514],[9.479,40.1694],[9.5203,40.1973],[9.5269,40.2197],[9.5552,40.1997],[9.5775,40.1961],[9.5983,40.217],[9.6265,40.2252],[9.6312,40.2749],[9.6663,40.3204],[9.714,40.366],[9.7668,40.3921],[9.7707,40.4176],[9.7929,40.4435],[9.821,40.4943],[9.8285,40.5288],[9.7968,40.5426],[9.7935,40.5632],[9.7513,40.5979],[9.7546,40.6135],[9.7399,40.6401],[9.7496,40.681],[9.7143,40.7079],[9.7151,40.7532],[9.6899,40.7624],[9.6638,40.7901],[9.6621,40.8051],[9.6937,40.8462],[9.6645,40.8554],[9.6434,40.8226],[9.5912,40.7967],[9.5845,40.7869],[9.5788,40.733],[9.5841,40.707],[9.5739,40.6968],[9.5521,40.6721],[9.513,40.6499],[9.4934,40.6516],[9.466,40.6568],[9.4216,40.6595],[9.4153,40.6351],[9.3801,40.6118],[9.3945,40.5931],[9.3875,40.5882],[9.372,40.5716],[9.3002,40.5392],[9.2874,40.5269],[9.2183,40.5413],[9.1904,40.5378],[9.1831,40.5097],[9.2284,40.5025],[9.2798,40.5118],[9.2855,40.4775],[9.2522,40.4674],[9.2282,40.429],[9.1708,40.3733],[9.1229,40.3602],[9.0427,40.3272],[9.029,40.2976],[8.9916,40.3247],[8.9495,40.3695],[8.912,40.3826],[8.8981,40.3953],[8.8566,40.3935],[8.8524,40.4083],[8.8153,40.4092],[8.8172,40.3777],[8.7847,40.3558],[8.7383,40.3543],[8.7277,40.343],[8.7079,40.3335],[8.6509,40.3006],[8.6367,40.3127],[8.6213,40.32],[8.6162,40.3184],[8.615,40.2921],[8.6276,40.2652],[8.6687,40.2506],[8.6686,40.2297],[8.683,40.2041],[8.6999,40.2142],[8.783,40.1908],[8.8556,40.2115],[8.9112,40.2091],[8.9591,40.2129],[8.9926,40.2152],[9.0183,40.1947],[8.999,40.1816],[9.02,40.1561],[9.011,40.1376],[9.0364,40.0965],[9.037,40.0514],[8.9895,40.0583],[8.966,40.0439],[8.9466,40.0142],[8.9577,39.9937],[9.0189,39.982],[8.9966,39.961],[8.9891,39.9158],[8.9699,39.8973],[8.9813,39.8755],[8.9548,39.8448],[8.9879,39.8321],[8.9742,39.8026],[8.9555,39.783],[8.9393,39.7913],[8.9059,39.7973],[8.894,39.774],[8.9166,39.7613],[8.9362,39.7559],[8.9368,39.7805],[8.9534,39.779],[8.9797,39.7807],[8.999,39.7621],[9.0612,39.7586],[9.0747,39.7513],[9.0538,39.7307],[9.0603,39.7033],[9.0486,39.6905],[9.0475,39.6419],[9.0752,39.6593],[9.1032,39.6707],[9.1484,39.6785],[9.1646,39.6738]]]},"properties":{"GID_0":"ITA","GID_1":"ITA.14_1","GID_2":"ITA.14.4_1","NAME_1":"Sardegna","NAME_2":"Nuoro"}},
{"type":"Feature","geometry":{"type":"Polygon","coordinates":[[[9.6047,39.572],[9.6515,39.5506],[9.6579,39.6018],[9.6471,39.6521],[9.6646,39.6818],[9.6587,39.6965],[9.6774,39.711],[9.6754,39.7524],[9.6674,39.7707],[9.6843,39.841],[9.6826,39.9085],[9.716,39.9332],[9.6868,39.9449],[9.6868,39.9837],[9.7001,39.9999],[9.7065,40.0351],[9.7221,40.0493],[9.7304,40.0907],[9.6854,40.1118],[9.6346,40.1793],[9.6257,40.2099],[9.5983,40.217],[9.5775,40.1961],[9.5552,40.1997],[9.5269,40.2197],[9.5203,40.1973],[9.479,40.1694],[9.4766,40.1514],[9.441,40.1254],[9.4356,40.1057],[9.3925,40.0935],[9.3694,40.0734],[9.3379,40.0734],[9.3199,40.0403],[9.2997,40.0378],[9.3027,40.0177],[9.3216,39.9967],[9.2966,39.9842],[9.2794,39.9467],[9.2904,39.9263],[9.2748,39.905],[9.2841,39.8774],[9.2739,39.8518],[9.2932,39.8303],[9.2855,39.802],[9.2685,39.7871],[9.266,39.7487],[9.2511,39.7356],[9.2891,39.7138],[9.3101,39.6791],[9.3854,39.6963],[9.4028,39.6872],[9.3991,39.6544],[9.4205,39.6276],[9.4177,39.6182],[9.4271,39.6256],[9.4579,39.6427],[9.4873,39.6179],[9.504,39.6213],[9.5246,39.5897],[9.5465,39.584],[9.5463,39.5805],[9.5544,39.5748],[9.5949,39.5748],[9.6047,39.572]]]},"properties":{"GID_0":"ITA","GID_1":"ITA.14_1","GID_2":"ITA.14.5_1","NAME_1":"Sardegna","NAME_2":"Ogliastra"}},
{"type":"Feature","geometry":{"type":"MultiPolygon","coordinates":[[[[9.3875,40.5882],[9.3945,40.5931],[9.3801,40.6118],[9.4153,40.6351],[9.4216,40.6595],[9.466,40.6568],[9.4934,40.6516],[9.513,40.6499],[9.5521,40.6721],[9.5739,40.6968],[9.5841,40.707],[9.5788,40.733],[9.5845,40.7869],[9.5927,40.7978],[9.6434,40.8226],[9.6645,40.8554],[9.6237,40.8951],[9.6218,40.9196],[9.5774,40.9007],[9.5604,40.9182],[9.5071,40.9113],[9.5207,40.9338],[9.5443,40.926],[9.5935,40.9685],[9.6115,41.0035],[9.5943,41.0224],[9.5779,41.0032],[9.5512,41.0079],[9.5549,41.0313],[9.5212,41.0313],[9.5282,41.0696],[9.5604,41.0818],[9.5701,41.1015],[9.5446,41.1354],[9.5185,41.1437],[9.4826,41.144],[9.4615,41.1188],[9.4412,41.1213],[9.4232,41.1776],[9.4021,41.1751],[9.3649,41.2071],[9.3393,41.2054],[9.3274,41.1896],[9.2696,41.1963],[9.2818,41.2174],[9.272,41.2399],[9.2368,41.246],[9.2243,41.2593],[9.1976,41.2438],[9.1624,41.236],[9.1535,41.1979],[9.1732,41.1763],[9.1532,41.1551],[9.1276,41.1529],[9.1126,41.1357],[9.0604,41.1265],[9.0443,41.1385],[9.0118,41.1251],[8.9793,41.086],[8.9207,41.0343],[8.8793,41.0285],[8.8646,40.984],[8.829,40.9498],[8.8629,40.9402],[8.8972,40.935],[8.9328,40.9528],[8.964,40.9603],[8.9763,40.9508],[8.9902,40.9129],[8.982,40.9041],[8.9011,40.8769],[8.9071,40.8557],[8.9266,40.8505],[8.9511,40.8669],[8.9782,40.8611],[9.0051,40.8245],[8.9903,40.8163],[8.993,40.8089],[9.0266,40.7938],[9.0204,40.7675],[9.0313,40.7468],[9.009,40.6979],[9.0292,40.6764],[9.0598,40.6745],[9.0713,40.6604],[9.1221,40.6473],[9.1344,40.6594],[9.1763,40.6628],[9.1958,40.6273],[9.1863,40.5459],[9.2183,40.5413],[9.2874,40.5269],[9.3002,40.5392],[9.372,40.5716],[9.3875,40.5882]]],[[[9.4224,41.2682],[9.3896,41.2332],[9.381,41.2101],[9.4399,41.216],[9.4412,41.2371],[9.4224,41.2682]]],[[[9.4715,41.244],[9.4429,41.2026],[9.4579,41.181],[9.4793,41.199],[9.4815,41.239],[9.4715,41.244]]]]},"properties":{"GID_0":"ITA","GID_1":"ITA.14_1","GID_2":"ITA.14.6_1","NAME_1":"Sardegna","NAME_2":"Olbia-Tempio"}},
{"type":"Feature","geometry":{"type":"Polygon","coordinates":[[[8.8327,39.6681],[8.8625,39.669],[8.8806,39.7002],[8.9038,39.7139],[8.9139,39.7247],[8.9027,39.734],[8.9107,39.7405],[8.9137,39.7481],[8.9253,39.7594],[8.9166,39.7613],[8.894,39.774],[8.9059,39.7973],[8.9393,39.7913],[8.9555,39.783],[8.9742,39.8026],[8.9879,39.8321],[8.9548,39.8448],[8.9813,39.8755],[8.9699,39.8973],[8.9891,39.9158],[8.9966,39.961],[9.0189,39.982],[8.9577,39.9937],[8.9466,40.0142],[8.966,40.0439],[8.9895,40.0583],[9.037,40.0514],[9.0364,40.0965],[9.011,40.1376],[9.02,40.1561],[8.999,40.1816],[9.0183,40.1947],[8.9926,40.2152],[8.9591,40.2129],[8.9112,40.2091],[8.8556,40.2115],[8.783,40.1908],[8.6999,40.2142],[8.683,40.2041],[8.6686,40.2297],[8.6687,40.2506],[8.6276,40.2652],[8.615,40.2921],[8.6162,40.3184],[8.6213,40.32],[8.5925,40.3337],[8.5914,40.3473],[8.5849,40.3574],[8.5633,40.3834],[8.5256,40.4095],[8.4954,40.4265],[8.4882,40.416],[8.4447,40.3966],[8.4116,40.3997],[8.3929,40.3924],[8.3874,40.364],[8.3957,40.3401],[8.4321,40.3332],[8.459,40.3196],[8.4846,40.2729],[8.4613,40.2115],[8.4585,40.1518],[8.4846,40.1182],[8.4899,40.0788],[8.4524,40.0499],[8.3982,40.0432],[8.414,40.0129],[8.3929,39.9771],[8.4015,39.9626],[8.3996,39.9007],[8.4454,39.9046],[8.476,39.9138],[8.4604,39.9429],[8.4876,39.9746],[8.4982,39.951],[8.5238,39.9376],[8.5271,39.9024],[8.5526,39.8679],[8.5565,39.8449],[8.5424,39.7718],[8.5138,39.7351],[8.5307,39.7054],[8.5554,39.7079],[8.5583,39.6946],[8.572,39.6857],[8.5917,39.6923],[8.609,39.6909],[8.6325,39.6543],[8.6723,39.6322],[8.6893,39.644],[8.7441,39.6281],[8.7851,39.6549],[8.8327,39.6681]]]},"properties":{"GID_0":"ITA","GID_1":"ITA.14_1","GID_2":"ITA.14.7_1","NAME_1":"Sardegna","NAME_2":"Oristano"}},
{"type":"Feature","geometry":{"type":"MultiPolygon","coordinates":[[[[8.9916,40.3247],[9.029,40.2976],[9.0427,40.3272],[9.1229,40.3602],[9.1708,40.3733],[9.2282,40.429],[9.2522,40.4674],[9.2855,40.4775],[9.2798,40.5118],[9.2284,40.5025],[9.1831,40.5097],[9.1904,40.5378],[9.1863,40.5459],[9.1958,40.6273],[9.1763,40.6628],[9.1344,40.6594],[9.1221,40.6473],[9.0713,40.6604],[9.0598,40.6745],[9.0292,40.6764],[9.009,40.6979],[9.0313,40.7468],[9.0204,40.7675],[9.0266,40.7938],[8.993,40.8089],[8.9903,40.8163],[9.0051,40.8245],[8.9782,40.8611],[8.9511,40.8669],[8.9261,40.8507],[8.9071,40.8557],[8.9011,40.8769],[8.982,40.9041],[8.9902,40.9129],[8.9763,40.9508],[8.964,40.9603],[8.9328,40.9528],[8.8972,40.935],[8.8629,40.9402],[8.8287,40.9499],[8.7704,40.916],[8.6993,40.9151],[8.649,40.8937],[8.626,40.8654],[8.5815,40.8379],[8.5374,40.8249],[8.4721,40.8185],[8.4504,40.821],[8.4165,40.8413],[8.3582,40.8368],[8.3146,40.844],[8.2879,40.856],[8.2312,40.9087],[8.2271,40.9529],[8.2043,40.9715],[8.1757,40.934],[8.1918,40.9132],[8.2196,40.8999],[8.2188,40.8688],[8.1876,40.8124],[8.1601,40.7907],[8.1618,40.7612],[8.136,40.7388],[8.1749,40.6946],[8.2065,40.6854],[8.1843,40.6368],[8.1438,40.6235],[8.1493,40.5826],[8.1582,40.5735],[8.1907,40.6065],[8.2196,40.6021],[8.1979,40.571],[8.2435,40.5707],[8.2465,40.5826],[8.2979,40.5924],[8.3182,40.5715],[8.3157,40.5521],[8.3382,40.5007],[8.374,40.4907],[8.4116,40.3997],[8.4447,40.3966],[8.4882,40.416],[8.4954,40.4265],[8.5256,40.4095],[8.5633,40.3834],[8.5849,40.3574],[8.5914,40.3473],[8.5925,40.3337],[8.6213,40.32],[8.6367,40.3127],[8.6509,40.3006],[8.7079,40.3335],[8.7277,40.343],[8.7383,40.3543],[8.7847,40.3558],[8.8172,40.3777],[8.8153,40.4092],[8.8524,40.4083],[8.8566,40.3935],[8.8981,40.3953],[8.912,40.3826],[8.9495,40.3695],[8.9916,40.3247]]],[[[8.3201,41.1188],[8.2849,41.1024],[8.274,41.0768],[8.2496,41.0504],[8.2246,41.0438],[8.2107,41.0035],[8.2215,40.9899],[8.2557,40.9846],[8.2651,41.0029],[8.2454,41.0282],[8.281,41.0604],[8.3393,41.0599],[8.3454,41.0976],[8.3201,41.1188]]]]},"properties":{"GID_0":"ITA","GID_1":"ITA.14_1","GID_2":"ITA.14.8_1","NAME_1":"Sardegna","NAME_2":"Sassari"}}
]}