{"type":"FeatureCollection", "features": [
{"type":"Feature","geometry":{"type":"Polygon","coordinates":[[[8.2626,44.5204],[8.3935,44.478],[8.4049,44.5099],[8.5506,44.505],[8.614,44.5481],[8.6249,44.5873],[8.7198,44.5817],[8.7686,44.5259],[8.8279,44.5628],[8.918,44.5616],[8.8837,44.6397],[8.9322,44.6771],[9.0157,44.667],[9.0559,44.6223],[9.1042,44.6107],[9.1536,44.5752],[9.2063,44.6015],[9.1991,44.6508],[9.2146,44.7533],[9.1728,44.7726],[9.1616,44.8146],[9.11,44.8064],[9.0502,44.8512],[9.0314,44.8894],[8.9267,44.9831],[8.8821,45.055],[8.825,45.0475],[8.7728,45.0077],[8.6358,45.0419],[8.6471,45.0763],[8.5811,45.1537],[8.5379,45.1766],[8.5083,45.175],[8.4919,45.1977],[8.3893,45.2013],[8.36,45.1965],[8.3438,45.1729],[8.2956,45.1738],[8.1871,45.1655],[8.1731,45.1605],[8.1591,45.1706],[8.1529,45.1695],[8.13,45.124],[8.131,45.1202],[8.1143,45.1077],[8.1214,45.0906],[8.16,45.0284],[8.3036,45.0781],[8.3481,45.0346],[8.3595,45.0269],[8.3807,44.9845],[8.3773,44.8478],[8.5031,44.7867],[8.4817,44.7531],[8.4225,44.7329],[8.4216,44.6933],[8.3568,44.6769],[8.3534,44.6344],[8.315,44.6029],[8.3281,44.5923],[8.3388,44.5685],[8.3131,44.5622],[8.2886,44.5582],[8.2626,44.5204]]]},"properties":{"GID_0":"ITA","GID_1":"ITA.13_1","GID_2":"ITA.13.1_1","NAME_1":"Piemonte","NAME_2":"Alessandria"}},
{"type":"Feature","geometry":{"type":"Polygon","coordinates":[[[8.3388,44.5685],[8.3281,44.5923],[8.315,44.6029],[8.3534,44.6344],[8.3568,44.6769],[8.4216,44.6933],[8.4225,44.7329],[8.4817,44.7531],[8.5031,44.7867],[8.3773,44.8478],[8.3807,44.9845],[8.3595,45.0269],[8.3481,45.0346],[8.3036,45.0781],[8.16,45.0284],[8.1214,45.0906],[8.1143,45.1077],[8.131,45.1202],[8.1006,45.1298],[8.0801,45.1002],[8.0579,45.1036],[7.9903,45.1298],[7.9296,45.1057],[7.8941,45.0608],[7.9305,45.0427],[7.8938,44.9159],[7.9444,44.8473],[8.0464,44.8003],[8.0973,44.8229],[8.1316,44.8111],[8.1343,44.7476],[8.2586,44.7222],[8.1955,44.6295],[8.2452,44.5765],[8.2539,44.5297],[8.2626,44.5204],[8.2886,44.5582],[8.3131,44.5622],[8.3388,44.5685]]]},"properties":{"GID_0":"ITA","GID_1":"ITA.13_1","GID_2":"ITA.13.2_1","NAME_1":"Piemonte","NAME_2":"Asti"}},
{"type":"Feature","geometry":{"type":"Polygon","coordinates":[[[8.1313,45.3896],[8.1697,45.4121],[8.1625,45.4252],[8.1676,45.436],[8.2191,45.4548],[8.2975,45.5545],[8.2562,45.6096],[8.329,45.6479],[8.1241,45.7579],[8.0969,45.7387],[7.9377,45.7253],[7.9059,45.6857],[7.9405,45.6442],[7.8969,45.591],[7.8976,45.5803],[7.8917,45.5482],[7.8832,45.5351],[7.8863,45.5313],[7.9698,45.4756],[8.0395,45.4424],[8.0281,45.404],[8.0428,45.3979],[8.1313,45.3896]]]},"properties":{"GID_0":"ITA","GID_1":"ITA.13_1","GID_2":"ITA.13.3_1","NAME_1":"Piemonte","NAME_2":"Biella"}},
{"type":"Feature","geometry":{"type":"MultiPolygon","coordinates":[[[[7.0645,44.7119],[6.9535,44.6536],[6.9415,44.576],[6.8673,44.5311],[6.8891,44.4856],[6.9534,44.4292],[6.9075,44.4198],[6.9,44.366],[6.9324,44.3544],[7.011,44.2439],[7.0764,44.2318],[7.1419,44.2018],[7.1957,44.1977],[7.2641,44.1477],[7.3452,44.146],[7.3604,44.1171],[7.4621,44.1274],[7.5069,44.1457],[7.6147,44.1546],[7.6678,44.1302],[7.7638,44.1419],[7.8322,44.121],[7.9726,44.1141],[8.0105,44.1566],[8.0684,44.1457],[8.0953,44.1764],[8.0665,44.2175],[8.1075,44.3334],[8.1506,44.3858],[8.2229,44.4305],[8.1969,44.4659],[8.2539,44.5297],[8.2452,44.5765],[8.1955,44.6295],[8.2586,44.7222],[8.1343,44.7476],[8.1316,44.8111],[8.0973,44.8229],[8.0464,44.8003],[7.9444,44.8473],[7.9037,44.8225],[7.7798,44.8424],[7.7673,44.8164],[7.6858,44.8112],[7.6214,44.8375],[7.6221,44.8479],[7.6162,44.8404],[7.485,44.7639],[7.4615,44.7601],[7.462,44.7642],[7.4568,44.7617],[7.3505,44.7593],[7.3458,44.7841],[7.1601,44.7614],[7.1258,44.7333],[7.097,44.7219],[7.0881,44.7161],[7.0645,44.7119]]],[[[7.4674,44.7696],[7.4729,44.7636],[7.4678,44.7739],[7.4674,44.7696]]]]},"properties":{"GID_0":"ITA","GID_1":"ITA.13_1","GID_2":"ITA.13.4_1","NAME_1":"Piemonte","NAME_2":"Cuneo"}},
{"type":"Feature","geometry":{"type":"Polygon","coordinates":[[[8.5146,45.3142],[8.5514,45.3557],[8.6146,45.3554],[8.7164,45.303],[8.7276,45.3338],[8.7944,45.3799],[8.844,45.3948],[8.7886,45.4872],[8.7239,45.507],[8.6893,45.6379],[8.5567,45.7759],[8.5949,45.8292],[8.4763,45.8571],[8.4109,45.8314],[8.3785,45.8394],[8.3765,45.8261],[8.3783,45.7991],[8.3759,45.7851],[8.3509,45.7733],[8.3733,45.7452],[8.3828,45.7119],[8.3117,45.6982],[8.3919,45.6176],[8.4043,45.5321],[8.4072,45.4202],[8.4972,45.3751],[8.5079,45.3205],[8.5146,45.3142]]]},"properties":{"GID_0":"ITA","GID_1":"ITA.13_1","GID_2":"ITA.13.5_1","NAME_1":"Piemonte","NAME_2":"Novara"}},
{"type":"Feature","geometry":{"type":"Polygon","coordinates":[[[7.1258,44.7333],[7.1601,44.7614],[7.3458,44.7841],[7.3505,44.7593],[7.4568,44.7617],[7.462,44.7642],[7.4615,44.7601],[7.485,44.7639],[7.6162,44.8404],[7.6221,44.8479],[7.6214,44.8375],[7.6858,44.8112],[7.7673,44.8164],[7.7798,44.8424],[7.9037,44.8225],[7.9444,44.8473],[7.8938,44.9159],[7.9305,45.0427],[7.8941,45.0608],[7.9296,45.1057],[7.9903,45.1298],[8.0579,45.1036],[8.0801,45.1002],[8.1006,45.1298],[8.13,45.124],[8.1529,45.1695],[8.1372,45.1776],[8.051,45.1855],[8.0379,45.2019],[7.9916,45.2308],[7.9911,45.3084],[7.9503,45.3069],[7.9498,45.3106],[8.0254,45.364],[8.0155,45.4076],[8.0281,45.404],[8.0395,45.4424],[7.9698,45.4756],[7.8863,45.5313],[7.8832,45.5351],[7.8917,45.5482],[7.8976,45.5803],[7.8969,45.591],[7.85,45.6032],[7.7338,45.5513],[7.6102,45.5638],[7.5676,45.5926],[7.4661,45.5784],[7.3783,45.5178],[7.2706,45.5156],[7.2238,45.4714],[7.1228,45.5072],[7.1015,45.4653],[7.1851,45.4037],[7.1132,45.322],[7.1351,45.2546],[6.9763,45.2083],[6.9539,45.1758],[6.9009,45.1643],[6.8543,45.1286],[6.7728,45.1543],[6.6906,45.1385],[6.6309,45.1089],[6.6865,45.0209],[6.7396,45.0236],[6.7642,44.9665],[6.7623,44.9136],[6.8254,44.8723],[6.912,44.8455],[6.9487,44.8636],[7.022,44.823],[7.0243,44.7472],[7.0645,44.7119],[7.0881,44.7161],[7.097,44.7219],[7.1258,44.7333]],[[7.4678,44.7739],[7.4729,44.7636],[7.4674,44.7696],[7.4678,44.7739]]]},"properties":{"GID_0":"ITA","GID_1":"ITA.13_1","GID_2":"ITA.13.6_1","NAME_1":"Piemonte","NAME_2":"Torino"}},
{"type":"Feature","geometry":{"type":"Polygon","coordinates":[[[8.3759,45.7851],[8.3783,45.7991],[8.3765,45.8261],[8.3785,45.8394],[8.4109,45.8314],[8.4763,45.8571],[8.5949,45.8292],[8.5716,45.8904],[8.5949,45.9228],[8.73,46.0244],[8.7066,46.0829],[8.6467,46.1203],[8.6096,46.1136],[8.5331,46.2199],[8.4646,46.2255],[8.425,46.2959],[8.4716,46.3633],[8.4334,46.4602],[8.3755,46.4535],[8.2913,46.4102],[8.3135,46.3803],[8.2298,46.3335],[8.216,46.3059],[8.1448,46.2992],[8.0947,46.2611],[8.1689,46.1803],[8.148,46.1339],[8.1115,46.1088],[8.0401,46.0951],[8.0378,46.0423],[7.9928,45.998],[7.9188,45.9968],[7.8697,45.9418],[7.9066,45.9269],[7.9634,45.9017],[8.0129,45.9268],[8.0871,45.9233],[8.1824,45.9503],[8.3033,45.8892],[8.3182,45.8605],[8.3243,45.8411],[8.3181,45.784],[8.3374,45.7771],[8.3509,45.7733],[8.3759,45.7851]]]},"properties":{"GID_0":"ITA","GID_1":"ITA.13_1","GID_2":"ITA.13.7_1","NAME_1":"Piemonte","NAME_2":"Verbano-Cusio-Ossola"}},
{"type":"Feature","geometry":{"type":"Polygon","coordinates":[[[8.5379,45.1766],[8.5641,45.1972],[8.5146,45.3142],[8.5079,45.3205],[8.4972,45.3751],[8.4072,45.4202],[8.4043,45.5321],[8.3919,45.6176],[8.3117,45.6982],[8.3828,45.7119],[8.3733,45.7452],[8.3374,45.7771],[8.3181,45.784],[8.3243,45.8411],[8.3182,45.8605],[8.3033,45.8892],[8.1824,45.9503],[8.0871,45.9233],[8.0129,45.9268],[7.9634,45.9017],[7.9066,45.9269],[7.8625,45.9113],[7.8637,45.7931],[7.9377,45.7253],[8.0969,45.7387],[8.1241,45.7579],[8.329,45.6479],[8.2562,45.6096],[8.2975,45.5545],[8.2191,45.4548],[8.1676,45.436],[8.1625,45.4252],[8.1697,45.4121],[8.1313,45.3896],[8.0428,45.3979],[8.0155,45.4076],[8.0254,45.364],[7.9498,45.3106],[7.9503,45.3069],[7.9911,45.3084],[7.9916,45.2308],[8.0379,45.2019],[8.051,45.1855],[8.1372,45.1776],[8.1591,45.1706],[8.1731,45.1605],[8.1871,45.1655],[8.2956,45.1738],[8.3438,45.1729],[8.36,45.1965],[8.3893,45.2013],[8.4919,45.1977],[8.5083,45.175],[8.5379,45.1766]]]},"properties":{"GID_0":"ITA","GID_1":"ITA.13_1","GID_2":"ITA.13.8_1","NAME_1":"Piemonte","NAME_2":"Vercelli"}}
]}