{"type":"FeatureCollection", "features": [
{"type":"Feature","geometry":{"type":"MultiPolygon","coordinates":[[[[11.7968,43.223],[11.8347,43.2254],[11.8564,43.1813],[11.8891,43.1576],[11.9313,43.1775],[11.9632,43.1679],[12.0282,43.1922],[12.0499,43.2541],[12.0933,43.2369],[12.1495,43.2556],[12.178,43.2827],[12.1327,43.2954],[12.1378,43.3305],[12.1197,43.3653],[12.0743,43.3703],[12.0578,43.4392],[12.1458,43.4805],[12.0961,43.5001],[12.1037,43.5309],[12.1542,43.5344],[12.2109,43.622],[12.2211,43.6517],[12.3067,43.6989],[12.3694,43.7159],[12.328,43.752],[12.2847,43.7659],[12.2423,43.7545],[12.1646,43.7633],[12.078,43.7416],[12.0266,43.7623],[11.9875,43.7629],[11.9492,43.7913],[11.8563,43.8166],[11.7112,43.8784],[11.6614,43.8729],[11.6312,43.8477],[11.6254,43.8167],[11.5839,43.7691],[11.573,43.7353],[11.6121,43.6954],[11.4849,43.6271],[11.5049,43.6068],[11.5225,43.582],[11.512,43.5781],[11.4655,43.5878],[11.3985,43.5492],[11.404,43.5495],[11.4261,43.5307],[11.4369,43.5126],[11.5295,43.4579],[11.5474,43.4272],[11.5353,43.4115],[11.5685,43.3637],[11.659,43.3227],[11.679,43.2865],[11.7549,43.239],[11.7968,43.223]]],[[[12.199,43.7715],[12.2392,43.8005],[12.1717,43.8085],[12.199,43.7715]]]]},"properties":{"GID_0":"ITA","GID_1":"ITA.16_1","GID_2":"ITA.16.1_1","NAME_1":"Toscana","NAME_2":"Arezzo"}},
{"type":"Feature","geometry":{"type":"Polygon","coordinates":[[[10.9603,43.4712],[10.9551,43.4962],[11.0164,43.5395],[11.073,43.5284],[11.1156,43.4936],[11.1556,43.5017],[11.161,43.5088],[11.1941,43.5153],[11.2091,43.4813],[11.2733,43.5307],[11.3384,43.5296],[11.38,43.5334],[11.3869,43.5482],[11.3985,43.5492],[11.4655,43.5878],[11.512,43.5781],[11.5225,43.582],[11.5049,43.6068],[11.4849,43.6271],[11.6121,43.6954],[11.573,43.7353],[11.5839,43.7691],[11.6254,43.8167],[11.6312,43.8477],[11.6614,43.8729],[11.7112,43.8784],[11.718,43.9228],[11.6465,43.9908],[11.6959,44.0363],[11.7536,44.1223],[11.6798,44.1238],[11.6536,44.1017],[11.5983,44.1261],[11.6118,44.1609],[11.5171,44.1585],[11.4486,44.2004],[11.4221,44.2402],[11.3766,44.2003],[11.3435,44.2062],[11.2817,44.1563],[11.2356,44.1594],[11.2009,44.1412],[11.2647,44.1052],[11.2001,44.0845],[11.1804,44.0432],[11.1761,43.9526],[11.1356,43.8857],[11.1453,43.8764],[11.1498,43.8676],[11.1447,43.8595],[11.1238,43.8515],[11.075,43.7948],[11.0289,43.7754],[10.9861,43.7857],[10.9651,43.8134],[10.9219,43.8041],[10.8729,43.7956],[10.8137,43.7898],[10.8189,43.8001],[10.7288,43.8151],[10.7121,43.7873],[10.7199,43.7747],[10.7798,43.7381],[10.7993,43.7046],[10.8782,43.7202],[10.9165,43.6638],[10.875,43.6152],[10.8383,43.6209],[10.8265,43.6214],[10.8234,43.6149],[10.8418,43.5891],[10.8264,43.537],[10.8482,43.4984],[10.8556,43.4837],[10.8542,43.4769],[10.953,43.4533],[10.9603,43.4712]]]},"properties":{"GID_0":"ITA","GID_1":"ITA.16_1","GID_2":"ITA.16.2_1","NAME_1":"Toscana","NAME_2":"Florence"}},
{"type":"Feature","geometry":{"type":"Polygon","coordinates":[[[10.7062,42.9418],[10.7715,42.911],[10.7843,42.8846],[10.7757,42.8413],[10.7424,42.7988],[10.7893,42.774],[10.8704,42.7643],[10.9338,42.746],[10.9868,42.7096],[11.0093,42.661],[11.0846,42.6288],[11.116,42.5654],[11.1579,42.5618],[11.1901,42.5185],[11.1832,42.461],[11.1668,42.4382],[11.1163,42.4399],[11.0876,42.4196],[11.1004,42.3929],[11.1504,42.371],[11.1885,42.3721],[11.2099,42.409],[11.2563,42.4199],[11.4504,42.3779],[11.4898,42.4404],[11.6187,42.437],[11.6178,42.4885],[11.5622,42.5183],[11.6171,42.5609],[11.6824,42.5823],[11.76,42.6391],[11.8199,42.7439],[11.739,42.7908],[11.6982,42.7991],[11.631,42.7974],[11.6245,42.8062],[11.6247,42.9295],[11.5726,42.9712],[11.516,42.9822],[11.4572,42.9583],[11.359,42.9684],[11.3514,42.973],[11.3649,43.0821],[11.2982,43.0781],[11.2334,43.0915],[11.111,43.0913],[11.0834,43.085],[11.0521,43.1446],[11.0578,43.1766],[11.0196,43.1865],[10.9434,43.1613],[10.9125,43.1636],[10.9096,43.1607],[10.8761,43.1581],[10.7513,43.1371],[10.7516,43.1282],[10.7482,43.1233],[10.7182,43.1095],[10.7345,43.0684],[10.7689,43.0703],[10.7846,43.0581],[10.7823,43.0212],[10.7812,43.0052],[10.7388,43.0024],[10.7375,42.9742],[10.7062,42.9418]]]},"properties":{"GID_0":"ITA","GID_1":"ITA.16_1","GID_2":"ITA.16.3_1","NAME_1":"Toscana","NAME_2":"Grosseto"}},
{"type":"Feature","geometry":{"type":"MultiPolygon","coordinates":[[[[10.3638,42.8179],[10.3168,42.8037],[10.2774,42.8229],[10.2429,42.7874],[10.2068,42.8071],[10.1418,42.8071],[10.1051,42.7904],[10.1024,42.766],[10.1368,42.7313],[10.2865,42.7343],[10.2912,42.7529],[10.3435,42.7637],[10.384,42.7135],[10.4354,42.7174],[10.4024,42.7574],[10.4343,42.7749],[10.4443,42.8471],[10.4151,42.8724],[10.3638,42.8179]]],[[[10.7375,42.9742],[10.7388,43.0024],[10.7812,43.0052],[10.7823,43.0212],[10.7846,43.0581],[10.7689,43.0703],[10.7345,43.0684],[10.7182,43.1095],[10.7159,43.1151],[10.7029,43.1247],[10.69,43.1437],[10.6745,43.1436],[10.6618,43.1508],[10.6496,43.1818],[10.6798,43.194],[10.6798,43.2257],[10.6528,43.2845],[10.5825,43.2924],[10.5332,43.3246],[10.4912,43.4042],[10.508,43.4331],[10.4686,43.529],[10.4663,43.5438],[10.5029,43.6297],[10.4353,43.6345],[10.3671,43.6038],[10.3007,43.5821],[10.2935,43.546],[10.3429,43.464],[10.3815,43.4463],[10.4251,43.3988],[10.4551,43.3296],[10.5046,43.2876],[10.5301,43.2299],[10.5407,43.151],[10.5382,43.0899],[10.5157,42.9971],[10.4832,42.9888],[10.4851,42.9574],[10.5215,42.9215],[10.5599,42.9507],[10.6337,42.954],[10.7062,42.9418],[10.7375,42.9742]]],[[[9.8279,43.0724],[9.8004,43.0543],[9.8024,43.0076],[9.8421,43.0257],[9.8279,43.0724]]]]},"properties":{"GID_0":"ITA","GID_1":"ITA.16_1","GID_2":"ITA.16.4_1","NAME_1":"Toscana","NAME_2":"Livorno"}},
{"type":"Feature","geometry":{"type":"Polygon","coordinates":[[[10.7121,43.7873],[10.7288,43.8151],[10.7264,43.8233],[10.7062,43.8438],[10.6557,43.8956],[10.6589,43.917],[10.6723,43.9821],[10.72,44.0448],[10.7233,44.0839],[10.6251,44.1213],[10.5259,44.158],[10.5239,44.1758],[10.4674,44.2306],[10.4315,44.228],[10.3726,44.2703],[10.2978,44.2869],[10.2549,44.2695],[10.2318,44.2293],[10.1878,44.2072],[10.187,44.1344],[10.1951,44.1209],[10.2442,44.0856],[10.1679,43.9833],[10.144,43.9762],[10.2026,43.9224],[10.2415,43.8699],[10.259,43.8167],[10.3081,43.8304],[10.381,43.8135],[10.428,43.8339],[10.4543,43.7663],[10.5019,43.7543],[10.6234,43.7573],[10.6471,43.7974],[10.6922,43.803],[10.7121,43.7873]]]},"properties":{"GID_0":"ITA","GID_1":"ITA.16_1","GID_2":"ITA.16.5_1","NAME_1":"Toscana","NAME_2":"Lucca"}},
{"type":"Feature","geometry":{"type":"Polygon","coordinates":[[[10.2549,44.2695],[10.2273,44.3009],[10.143,44.3548],[10.0993,44.3472],[9.9903,44.4053],[10.0078,44.4309],[9.9717,44.4654],[9.9319,44.4727],[9.821,44.4674],[9.7539,44.4018],[9.7073,44.3671],[9.7305,44.3293],[9.8072,44.2836],[9.8555,44.269],[9.86,44.2384],[9.9675,44.1704],[10.0048,44.1104],[10.0484,44.1161],[10.072,44.0946],[10.0192,44.0446],[10.0701,44.0254],[10.1437,43.9768],[10.1679,43.9833],[10.2442,44.0856],[10.1951,44.1209],[10.187,44.1344],[10.1878,44.2072],[10.2318,44.2293],[10.2549,44.2695]]]},"properties":{"GID_0":"ITA","GID_1":"ITA.16_1","GID_2":"ITA.16.6_1","NAME_1":"Toscana","NAME_2":"MassaCarrara"}},
{"type":"Feature","geometry":{"type":"Polygon","coordinates":[[[10.7516,43.1282],[10.7513,43.1371],[10.8761,43.1581],[10.9096,43.1607],[10.9125,43.1636],[10.9096,43.1735],[10.9247,43.192],[10.9329,43.195],[10.9431,43.2169],[10.9899,43.2321],[10.9922,43.2465],[10.9719,43.2979],[10.9731,43.3452],[10.9987,43.345],[11.0136,43.3776],[10.9526,43.4501],[10.953,43.4533],[10.8542,43.4769],[10.8556,43.4837],[10.8482,43.4984],[10.8264,43.537],[10.8418,43.5891],[10.8234,43.6149],[10.8265,43.6214],[10.8383,43.6209],[10.875,43.6152],[10.9165,43.6638],[10.8782,43.7202],[10.7993,43.7046],[10.7798,43.7381],[10.7199,43.7747],[10.7121,43.7873],[10.6922,43.803],[10.6471,43.7974],[10.6234,43.7573],[10.5019,43.7543],[10.4543,43.7663],[10.428,43.8339],[10.381,43.8135],[10.3081,43.8304],[10.259,43.8167],[10.2835,43.6904],[10.2679,43.6774],[10.2946,43.5887],[10.3671,43.6038],[10.4353,43.6345],[10.5029,43.6297],[10.4663,43.5438],[10.4686,43.529],[10.508,43.4331],[10.4912,43.4042],[10.5332,43.3246],[10.5825,43.2924],[10.6528,43.2845],[10.6798,43.2257],[10.6798,43.194],[10.6496,43.1818],[10.6618,43.1508],[10.6745,43.1436],[10.69,43.1437],[10.7029,43.1247],[10.7159,43.1151],[10.7182,43.1095],[10.7482,43.1233],[10.7516,43.1282]]]},"properties":{"GID_0":"ITA","GID_1":"ITA.16_1","GID_2":"ITA.16.7_1","NAME_1":"Toscana","NAME_2":"Pisa"}},
{"type":"Feature","geometry":{"type":"Polygon","coordinates":[[[10.8189,43.8001],[10.8137,43.7898],[10.8729,43.7956],[10.9219,43.8041],[10.9651,43.8134],[11.0162,43.8367],[11.0192,43.912],[11.0308,43.9437],[11.0716,43.9839],[11.0127,44.0064],[11.0414,44.0352],[11.0504,44.0912],[10.9794,44.1232],[10.9192,44.064],[10.8773,44.1009],[10.8497,44.099],[10.7443,44.1574],[10.6625,44.1553],[10.6251,44.1213],[10.7233,44.0839],[10.72,44.0448],[10.6723,43.9821],[10.6589,43.917],[10.6557,43.8956],[10.7062,43.8438],[10.7264,43.8233],[10.7288,43.8151],[10.8189,43.8001]]]},"properties":{"GID_0":"ITA","GID_1":"ITA.16_1","GID_2":"ITA.16.8_1","NAME_1":"Toscana","NAME_2":"Pistoia"}},
{"type":"Feature","geometry":{"type":"Polygon","coordinates":[[[10.9861,43.7857],[11.0289,43.7754],[11.075,43.7948],[11.1238,43.8515],[11.1447,43.8595],[11.1498,43.8676],[11.1453,43.8764],[11.1356,43.8857],[11.1761,43.9526],[11.1804,44.0432],[11.2001,44.0845],[11.1602,44.1134],[11.0904,44.0909],[11.0504,44.0912],[11.0414,44.0352],[11.0127,44.0064],[11.0716,43.9839],[11.0308,43.9437],[11.0192,43.912],[11.0162,43.8367],[10.9651,43.8134],[10.9861,43.7857]]]},"properties":{"GID_0":"ITA","GID_1":"ITA.16_1","GID_2":"ITA.16.9_1","NAME_1":"Toscana","NAME_2":"Prato"}},
{"type":"Feature","geometry":{"type":"Polygon","coordinates":[[[11.739,42.7908],[11.7768,42.8216],[11.8504,42.8397],[11.8956,42.8353],[11.9598,42.8926],[11.9337,42.9095],[11.9815,43.0578],[11.932,43.0926],[11.9164,43.1266],[11.9313,43.1775],[11.8891,43.1576],[11.8564,43.1813],[11.8347,43.2254],[11.7968,43.223],[11.7549,43.239],[11.679,43.2865],[11.659,43.3227],[11.5685,43.3637],[11.5353,43.4115],[11.5474,43.4272],[11.5295,43.4579],[11.4369,43.5126],[11.4261,43.5307],[11.404,43.5495],[11.3869,43.5482],[11.38,43.5334],[11.3384,43.5296],[11.2733,43.5307],[11.2091,43.4813],[11.1941,43.5153],[11.161,43.5088],[11.1556,43.5017],[11.1156,43.4936],[11.073,43.5284],[11.0164,43.5395],[10.9551,43.4962],[10.9603,43.4712],[10.9526,43.4501],[11.0136,43.3776],[10.9987,43.345],[10.9731,43.3452],[10.9719,43.2979],[10.9922,43.2465],[10.9899,43.2321],[10.9431,43.2169],[10.9329,43.195],[10.9247,43.192],[10.9096,43.1735],[10.9125,43.1636],[10.9434,43.1613],[11.0196,43.1865],[11.0578,43.1766],[11.0521,43.1446],[11.0834,43.085],[11.111,43.0913],[11.2334,43.0915],[11.2982,43.0781],[11.3649,43.0821],[11.3514,42.973],[11.359,42.9684],[11.4572,42.9583],[11.516,42.9822],[11.5726,42.9712],[11.6247,42.9295],[11.6245,42.8062],[11.631,42.7974],[11.6982,42.7991],[11.739,42.7908]]]},"properties":{"GID_0":"ITA","GID_1":"ITA.16_1","GID_2":"ITA.16.10_1","NAME_1":"Toscana","NAME_2":"Siena"}}
]}