{"type":"FeatureCollection", "features": [
{"type":"Feature","geometry":{"type":"Polygon","coordinates":[[[14.8454,40.8007],[14.9182,40.8107],[14.9458,40.7891],[15.0281,40.7828],[15.1331,40.7622],[15.1698,40.7076],[15.2479,40.7187],[15.24,40.7749],[15.2815,40.8005],[15.2964,40.8391],[15.3358,40.8359],[15.3792,40.8417],[15.3844,40.8775],[15.4308,40.8806],[15.5281,40.9088],[15.573,40.9994],[15.5437,41.0568],[15.447,41.079],[15.3972,41.1078],[15.3678,41.0858],[15.3152,41.1049],[15.268,41.1076],[15.2102,41.1687],[15.2622,41.2036],[15.2506,41.2717],[15.2019,41.2873],[15.1468,41.2735],[15.0826,41.2538],[15.0099,41.2719],[14.987,41.2721],[14.9818,41.2623],[14.9984,41.1995],[14.9634,41.178],[15.0117,41.1191],[14.9899,41.1062],[14.9649,41.0903],[14.8715,41.0599],[14.8301,41.0361],[14.7774,41.0418],[14.7372,41.0182],[14.7099,41.0624],[14.5896,41.0357],[14.5689,41.0216],[14.5819,40.9956],[14.5862,40.935],[14.578,40.8816],[14.6064,40.8486],[14.6535,40.8325],[14.7351,40.8405],[14.7453,40.8047],[14.8267,40.7954],[14.8454,40.8007]]]},"properties":{"GID_0":"ITA","GID_1":"ITA.5_1","GID_2":"ITA.5.1_1","NAME_1":"Campania","NAME_2":"Avellino"}},
{"type":"Feature","geometry":{"type":"Polygon","coordinates":[[[14.5689,41.0216],[14.5896,41.0357],[14.7099,41.0624],[14.7372,41.0182],[14.7774,41.0418],[14.8301,41.0361],[14.8715,41.0599],[14.9649,41.0903],[14.9899,41.1062],[15.0117,41.1191],[14.9634,41.178],[14.9984,41.1995],[14.9818,41.2623],[14.987,41.2721],[15.0099,41.2719],[15.0826,41.2538],[15.1468,41.2735],[15.1298,41.3108],[15.0731,41.3334],[15.0593,41.3731],[15.0824,41.3887],[15.0766,41.4339],[15.0312,41.4564],[15.0085,41.4874],[14.9526,41.459],[14.8853,41.4458],[14.8574,41.4257],[14.791,41.4535],[14.7656,41.4184],[14.6997,41.4121],[14.6389,41.3915],[14.6039,41.3649],[14.5053,41.3834],[14.457,41.3728],[14.4398,41.3477],[14.4694,41.3465],[14.49,41.3016],[14.4545,41.2947],[14.4384,41.2826],[14.4233,41.2522],[14.4241,41.2213],[14.4687,41.1734],[14.426,41.1364],[14.3802,41.1626],[14.3675,41.1379],[14.4379,41.0972],[14.4407,41.072],[14.4493,41.0485],[14.4567,41.0437],[14.4804,41.0476],[14.4948,41.0521],[14.5139,41.054],[14.532,41.0143],[14.5728,41.0105],[14.5689,41.0216]]]},"properties":{"GID_0":"ITA","GID_1":"ITA.5_1","GID_2":"ITA.5.2_1","NAME_1":"Campania","NAME_2":"Benevento"}},
{"type":"Feature","geometry":{"type":"Polygon","coordinates":[[[14.0241,40.9522],[14.0935,40.961],[14.2152,40.9503],[14.2854,40.9613],[14.2985,41.0057],[14.4085,41.0025],[14.4057,40.9871],[14.4293,40.9851],[14.5217,40.9881],[14.532,41.0143],[14.5139,41.054],[14.4948,41.0521],[14.4804,41.0476],[14.4567,41.0437],[14.4493,41.0485],[14.4407,41.072],[14.4379,41.0972],[14.3675,41.1379],[14.3802,41.1626],[14.426,41.1364],[14.4687,41.1734],[14.4241,41.2213],[14.4233,41.2522],[14.4384,41.2826],[14.4545,41.2947],[14.49,41.3016],[14.4694,41.3465],[14.4398,41.3477],[14.457,41.3728],[14.5053,41.3834],[14.4562,41.4288],[14.328,41.4544],[14.28,41.4874],[14.2416,41.4982],[14.1262,41.5084],[14.0793,41.4481],[14.1084,41.4174],[14.0433,41.3938],[13.9769,41.4645],[13.9117,41.4297],[13.8621,41.4186],[13.8872,41.3854],[13.8746,41.3366],[13.8832,41.2919],[13.8285,41.2785],[13.8197,41.2468],[13.7746,41.2437],[13.7629,41.2226],[13.826,41.174],[13.8876,41.1018],[13.9215,41.0249],[13.9774,40.9774],[14.0366,40.9009],[14.0325,40.9097],[14.02,40.9425],[14.0241,40.9522]]]},"properties":{"GID_0":"ITA","GID_1":"ITA.5_1","GID_2":"ITA.5.3_1","NAME_1":"Campania","NAME_2":"Caserta"}},
{"type":"Feature","geometry":{"type":"MultiPolygon","coordinates":[[[[13.8954,40.6996],[13.9654,40.7121],[13.9554,40.7412],[13.8718,40.7618],[13.8537,40.7371],[13.8954,40.6996]]],[[[14.0366,40.9009],[14.0471,40.8578],[14.0468,40.7896],[14.076,40.7882],[14.0879,40.8304],[14.1599,40.8168],[14.1915,40.7946],[14.2318,40.8321],[14.2888,40.8393],[14.4143,40.7513],[14.4635,40.7407],[14.4812,40.6971],[14.4388,40.6824],[14.3999,40.6379],[14.3507,40.6349],[14.3274,40.5946],[14.336,40.5762],[14.4707,40.6207],[14.5104,40.6363],[14.5188,40.6229],[14.5647,40.6249],[14.5772,40.6283],[14.5814,40.6378],[14.5731,40.6711],[14.5915,40.695],[14.5616,40.7327],[14.5151,40.7392],[14.5103,40.7697],[14.5079,40.774],[14.5457,40.7791],[14.589,40.8066],[14.5911,40.8192],[14.5664,40.8338],[14.572,40.8482],[14.6064,40.8486],[14.578,40.8816],[14.5862,40.935],[14.5819,40.9956],[14.5728,41.0105],[14.532,41.0143],[14.5217,40.9881],[14.4293,40.9851],[14.4057,40.9871],[14.4085,41.0025],[14.2985,41.0057],[14.2854,40.9613],[14.2152,40.9503],[14.0935,40.961],[14.0241,40.9522],[14.02,40.9425],[14.0325,40.9097],[14.0366,40.9009]]]]},"properties":{"GID_0":"ITA","GID_1":"ITA.5_1","GID_2":"ITA.5.4_1","NAME_1":"Campania","NAME_2":"Napoli"}},
{"type":"Feature","geometry":{"type":"Polygon","coordinates":[[[14.4707,40.6207],[14.5276,40.6065],[14.5765,40.6138],[14.6268,40.6485],[14.6918,40.6329],[14.7196,40.6665],[14.759,40.6774],[14.8246,40.6401],[14.884,40.5799],[15.0004,40.389],[14.9985,40.3579],[14.9446,40.336],[14.9443,40.2768],[14.9049,40.2535],[14.9329,40.2285],[14.9918,40.2182],[15.0235,40.1807],[15.0649,40.1646],[15.1174,40.1771],[15.181,40.1268],[15.2049,40.1237],[15.3535,39.9996],[15.4187,39.9901],[15.5037,40.064],[15.5746,40.0782],[15.6149,40.0687],[15.6421,40.0424],[15.6728,40.0555],[15.7067,40.1187],[15.7019,40.1616],[15.7749,40.2183],[15.8073,40.2733],[15.7446,40.3018],[15.7056,40.3432],[15.711,40.3783],[15.6039,40.4358],[15.5796,40.4699],[15.5397,40.4891],[15.5462,40.5327],[15.511,40.5867],[15.4503,40.6101],[15.5045,40.6647],[15.4298,40.6936],[15.3823,40.7251],[15.3899,40.7686],[15.3802,40.8072],[15.3358,40.8359],[15.2964,40.8391],[15.2815,40.8005],[15.24,40.7749],[15.2479,40.7187],[15.1698,40.7076],[15.1331,40.7622],[15.0281,40.7828],[14.9458,40.7891],[14.9182,40.8107],[14.8454,40.8007],[14.8267,40.7954],[14.7453,40.8047],[14.7351,40.8405],[14.6535,40.8325],[14.572,40.8482],[14.5664,40.8338],[14.5911,40.8192],[14.589,40.8066],[14.5457,40.7791],[14.5079,40.774],[14.5103,40.7697],[14.5151,40.7392],[14.5616,40.7327],[14.5915,40.695],[14.5731,40.6711],[14.5814,40.6378],[14.5772,40.6283],[14.5647,40.6249],[14.5188,40.6229],[14.5104,40.6363],[14.4707,40.6207]]]},"properties":{"GID_0":"ITA","GID_1":"ITA.5_1","GID_2":"ITA.5.5_1","NAME_1":"Campania","NAME_2":"Salerno"}}
]}