{"type":"FeatureCollection", "features": [
{"type":"Feature","geometry":{"type":"Polygon","coordinates":[[[13.3908,45.7246],[13.384,45.6749],[13.4335,45.6821],[13.5507,45.7299],[13.5174,45.7449],[13.5479,45.7904],[13.5797,45.7928],[13.5996,45.827],[13.5933,45.8618],[13.6306,45.9206],[13.6533,45.9837],[13.6157,45.9953],[13.5468,45.984],[13.4792,45.993],[13.501,46.0322],[13.497,46.0518],[13.4857,46.0449],[13.472,46.0126],[13.4691,45.9984],[13.4596,45.9863],[13.3976,45.9095],[13.4251,45.8676],[13.4413,45.7866],[13.4327,45.7591],[13.4617,45.7534],[13.4271,45.7433],[13.3908,45.7246]]]},"properties":{"GID_0":"ITA","GID_1":"ITA.7_1","GID_2":"ITA.7.1_1","NAME_1":"Friuli-VeneziaGiulia","NAME_2":"Gorizia"}},
{"type":"Feature","geometry":{"type":"Polygon","coordinates":[[[12.4997,46.4131],[12.4128,46.3324],[12.3791,46.3325],[12.3307,46.2847],[12.325,46.2558],[12.4073,46.2082],[12.4455,46.2073],[12.449,46.1834],[12.4925,46.1578],[12.4854,46.1054],[12.4288,46.0772],[12.4061,46.0436],[12.4292,45.9967],[12.4233,45.9569],[12.5011,45.9263],[12.5601,45.8469],[12.6067,45.8391],[12.6799,45.7956],[12.731,45.8382],[12.7808,45.8553],[12.8053,45.8455],[12.8622,45.8517],[12.8917,45.8245],[12.9305,45.8182],[12.9853,45.8349],[12.9756,45.8743],[12.9318,45.8958],[12.916,45.9162],[12.9047,45.9653],[12.9179,46.075],[12.9662,46.1958],[12.9387,46.2128],[12.976,46.2368],[12.9776,46.2689],[12.9546,46.3013],[12.9622,46.3379],[12.8765,46.3337],[12.8227,46.3576],[12.709,46.3262],[12.6792,46.3485],[12.6272,46.3486],[12.5959,46.3498],[12.5869,46.3685],[12.5522,46.3636],[12.5302,46.3691],[12.4997,46.4131]]]},"properties":{"GID_0":"ITA","GID_1":"ITA.7_1","GID_2":"ITA.7.2_1","NAME_1":"Friuli-VeneziaGiulia","NAME_2":"Pordenone"}},
{"type":"Feature","geometry":{"type":"Polygon","coordinates":[[[13.5797,45.7928],[13.5824,45.7796],[13.634,45.766],[13.7526,45.6801],[13.7679,45.6554],[13.7435,45.6404],[13.799,45.6099],[13.7851,45.5988],[13.7365,45.611],[13.7196,45.5985],[13.7883,45.58],[13.8307,45.5794],[13.8705,45.5939],[13.9061,45.6265],[13.8919,45.6689],[13.8521,45.6943],[13.8242,45.7285],[13.7508,45.7727],[13.5996,45.827],[13.5797,45.7928]]]},"properties":{"GID_0":"ITA","GID_1":"ITA.7_1","GID_2":"ITA.7.3_1","NAME_1":"Friuli-VeneziaGiulia","NAME_2":"Trieste"}},
{"type":"Feature","geometry":{"type":"Polygon","coordinates":[[[12.9853,45.8349],[12.9752,45.8085],[13.0022,45.7502],[13.0395,45.7181],[13.0696,45.7124],[13.1088,45.7343],[13.1168,45.7599],[13.161,45.751],[13.1837,45.7729],[13.2279,45.7549],[13.3393,45.7404],[13.3908,45.7246],[13.4271,45.7433],[13.4617,45.7534],[13.4327,45.7591],[13.4413,45.7866],[13.4251,45.8676],[13.3976,45.9095],[13.4596,45.9863],[13.4691,45.9984],[13.472,46.0126],[13.4857,46.0449],[13.497,46.0518],[13.5706,46.0877],[13.6604,46.1516],[13.6524,46.1827],[13.5553,46.1962],[13.5215,46.2196],[13.463,46.2368],[13.4405,46.2139],[13.3821,46.2933],[13.4594,46.3639],[13.5449,46.4007],[13.5768,46.441],[13.6668,46.4557],[13.7122,46.476],[13.7143,46.5232],[13.6738,46.5235],[13.6287,46.5417],[13.5617,46.5523],[13.5156,46.549],[13.5049,46.5667],[13.4467,46.5569],[13.3729,46.5797],[13.3212,46.5516],[13.1939,46.5728],[13.093,46.6008],[13.0473,46.5957],[12.9337,46.6104],[12.834,46.6108],[12.7946,46.6434],[12.7631,46.6484],[12.7284,46.6313],[12.7431,46.5966],[12.7337,46.5584],[12.6766,46.527],[12.6316,46.513],[12.6551,46.4853],[12.6078,46.4652],[12.571,46.4764],[12.5069,46.4418],[12.4997,46.4131],[12.5302,46.3691],[12.5522,46.3636],[12.5869,46.3685],[12.5959,46.3498],[12.6272,46.3486],[12.6792,46.3485],[12.709,46.3262],[12.8227,46.3576],[12.8765,46.3337],[12.9622,46.3379],[12.9546,46.3013],[12.9776,46.2689],[12.976,46.2368],[12.9387,46.2128],[12.9662,46.1958],[12.9179,46.075],[12.9047,45.9653],[12.916,45.9162],[12.9318,45.8958],[12.9756,45.8743],[12.9853,45.8349]]]},"properties":{"GID_0":"ITA","GID_1":"ITA.7_1","GID_2":"ITA.7.4_1","NAME_1":"Friuli-VeneziaGiulia","NAME_2":"Udine"}}
]}