{"type":"FeatureCollection", "features": [
{"type":"Feature","geometry":{"type":"Polygon","coordinates":[[[17.3285,40.8126],[17.2961,40.8182],[17.3713,40.887],[17.3349,40.9296],[17.2818,40.9707],[17.2013,41.0093],[17.1765,41.029],[17.1235,41.0454],[17.0485,41.0801],[16.9604,41.0979],[16.8343,41.1362],[16.7796,41.1599],[16.6268,41.194],[16.5396,41.2228],[16.5126,41.1849],[16.5047,41.1523],[16.4716,41.149],[16.4296,41.1913],[16.388,41.195],[16.3386,41.1524],[16.3525,41.1357],[16.3229,41.1074],[16.3,41.0751],[16.264,41.0342],[16.2673,41.0063],[16.2527,40.9632],[16.2033,40.9185],[16.2324,40.855],[16.257,40.824],[16.3171,40.7841],[16.3477,40.753],[16.3812,40.7374],[16.3997,40.7094],[16.4313,40.7057],[16.5092,40.7543],[16.5768,40.7645],[16.6336,40.7546],[16.7336,40.7118],[16.7789,40.7294],[16.8009,40.696],[16.8567,40.7246],[16.9005,40.7086],[16.9128,40.7081],[16.9239,40.727],[16.9478,40.7441],[17.0018,40.7324],[17.0234,40.7141],[17.0543,40.7183],[17.0828,40.7213],[17.1041,40.7151],[17.1235,40.708],[17.1503,40.7117],[17.1569,40.7409],[17.2519,40.776],[17.2436,40.8009],[17.2541,40.8003],[17.3025,40.8031],[17.3042,40.7987],[17.2863,40.7735],[17.2953,40.7611],[17.3023,40.7501],[17.3054,40.7444],[17.3467,40.7444],[17.3527,40.7498],[17.361,40.7482],[17.3945,40.7495],[17.4003,40.7862],[17.3662,40.7878],[17.3285,40.8126]]]},"properties":{"GID_0":"ITA","GID_1":"ITA.2_1","GID_2":"ITA.2.1_1","NAME_1":"Apulia","NAME_2":"Bari"}},
{"type":"Feature","geometry":{"type":"Polygon","coordinates":[[[16.2033,40.9185],[16.2527,40.9632],[16.2673,41.0063],[16.264,41.0342],[16.3,41.0751],[16.3229,41.1074],[16.3525,41.1357],[16.3386,41.1524],[16.388,41.195],[16.4296,41.1913],[16.4716,41.149],[16.5047,41.1523],[16.5126,41.1849],[16.5396,41.2228],[16.5249,41.2418],[16.4515,41.2607],[16.4199,41.2824],[16.3543,41.3065],[16.2563,41.3301],[16.2065,41.3596],[16.159,41.3729],[16.0449,41.4212],[16.0256,41.4224],[15.951,41.4427],[15.9373,41.426],[16.033,41.3876],[16.0396,41.3815],[15.9828,41.3618],[15.9842,41.3057],[16.0244,41.2649],[16.0215,41.2218],[15.9924,41.1964],[15.9276,41.183],[15.8742,41.1447],[15.9218,41.1121],[15.9542,41.1118],[16.0415,41.0372],[16.0328,40.9994],[15.9775,40.9594],[16.0936,40.9216],[16.1219,40.8987],[16.1638,40.9296],[16.2033,40.9185]]]},"properties":{"GID_0":"ITA","GID_1":"ITA.2_1","GID_2":"ITA.2.2_1","NAME_1":"Apulia","NAME_2":"Barletta-Andria-Trani"}},
{"type":"Feature","geometry":{"type":"Polygon","coordinates":[[[18.0968,40.5157],[18.0362,40.5651],[18.0454,40.5979],[18.0146,40.6368],[17.9538,40.651],[17.9415,40.6829],[17.8415,40.6904],[17.6885,40.7657],[17.5601,40.7976],[17.4724,40.8318],[17.3893,40.893],[17.3713,40.887],[17.2961,40.8182],[17.3285,40.8126],[17.3662,40.7878],[17.4003,40.7862],[17.3945,40.7495],[17.361,40.7482],[17.3544,40.7496],[17.351,40.7466],[17.3668,40.7293],[17.3877,40.722],[17.4186,40.6825],[17.4382,40.6255],[17.4742,40.6116],[17.4583,40.582],[17.4531,40.5433],[17.4656,40.5231],[17.4809,40.504],[17.5336,40.448],[17.5728,40.4432],[17.5846,40.4612],[17.626,40.4635],[17.6834,40.4417],[17.6942,40.4128],[17.7294,40.3925],[17.7785,40.3887],[17.7985,40.3856],[17.7991,40.3806],[17.8028,40.3813],[17.805,40.3821],[17.8063,40.3899],[17.8547,40.4128],[17.9364,40.4293],[17.9541,40.4586],[18.0184,40.4636],[18.0578,40.4776],[18.0968,40.5157]]]},"properties":{"GID_0":"ITA","GID_1":"ITA.2_1","GID_2":"ITA.2.3_1","NAME_1":"Apulia","NAME_2":"Brindisi"}},
{"type":"Feature","geometry":{"type":"Polygon","coordinates":[[[16.0256,41.4224],[15.9818,41.4449],[15.9257,41.4926],[15.8985,41.5474],[15.9007,41.616],[15.9426,41.6415],[16.0654,41.6932],[16.1215,41.7385],[16.1446,41.7421],[16.1896,41.7746],[16.1929,41.8301],[16.1765,41.8782],[16.1529,41.909],[16.121,41.9146],[16.0846,41.941],[16.0524,41.9482],[15.7796,41.9182],[15.676,41.9149],[15.644,41.9268],[15.4199,41.9001],[15.3635,41.9024],[15.2924,41.9212],[15.2012,41.9188],[15.1375,41.9263],[15.1397,41.8802],[15.1011,41.8348],[15.116,41.7905],[15.0979,41.7684],[15.1218,41.7214],[15.1179,41.6947],[15.0456,41.6413],[15.0092,41.6233],[14.9608,41.647],[14.935,41.6204],[14.9512,41.5936],[14.9379,41.5288],[14.9673,41.52],[15.0248,41.4779],[15.0312,41.4564],[15.0766,41.4339],[15.0824,41.3887],[15.0593,41.3731],[15.0731,41.3334],[15.1298,41.3108],[15.15,41.2814],[15.2016,41.2873],[15.2499,41.272],[15.247,41.2371],[15.2622,41.2036],[15.2102,41.1687],[15.268,41.1076],[15.3152,41.1049],[15.3678,41.0858],[15.4021,41.107],[15.447,41.079],[15.5437,41.0568],[15.5648,41.0904],[15.6194,41.1001],[15.6826,41.0872],[15.7534,41.0983],[15.7986,41.092],[15.809,41.1147],[15.8742,41.1447],[15.9276,41.183],[15.9924,41.1964],[16.0215,41.2218],[16.0244,41.2649],[15.9842,41.3057],[15.9828,41.3618],[16.0396,41.3815],[16.033,41.3876],[15.9373,41.426],[15.951,41.4427],[16.0256,41.4224]]]},"properties":{"GID_0":"ITA","GID_1":"ITA.2_1","GID_2":"ITA.2.4_1","NAME_1":"Apulia","NAME_2":"Foggia"}},
{"type":"Feature","geometry":{"type":"Polygon","coordinates":[[[17.7687,40.3126],[17.791,40.2932],[17.8682,40.274],[17.9043,40.2568],[17.9221,40.2257],[17.9185,40.1926],[17.9635,40.1471],[17.9863,40.139],[18.0121,40.0887],[17.991,40.0532],[18.0207,40.016],[17.9996,39.9865],[18.0457,39.9296],[18.0765,39.9065],[18.2057,39.8365],[18.2643,39.8357],[18.369,39.7935],[18.3896,39.8151],[18.3854,39.8413],[18.4001,39.8896],[18.3915,39.9038],[18.4032,39.9615],[18.4354,40.024],[18.4779,40.0488],[18.4857,40.0788],[18.5207,40.1063],[18.4587,40.201],[18.4649,40.2246],[18.424,40.2943],[18.3857,40.3151],[18.3057,40.3924],[18.201,40.4693],[18.1276,40.4924],[18.0968,40.5157],[18.0578,40.4776],[18.0184,40.4636],[17.9541,40.4586],[17.9364,40.4293],[17.8547,40.4128],[17.8063,40.3899],[17.805,40.3821],[17.7991,40.3806],[17.8009,40.3705],[17.7935,40.337],[17.7687,40.3126]]]},"properties":{"GID_0":"ITA","GID_1":"ITA.2_1","GID_2":"ITA.2.5_1","NAME_1":"Apulia","NAME_2":"Lecce"}},
{"type":"Feature","geometry":{"type":"Polygon","coordinates":[[[16.7789,40.7294],[16.7359,40.712],[16.6973,40.7036],[16.7265,40.6786],[16.7106,40.6338],[16.7248,40.6034],[16.7073,40.5503],[16.737,40.513],[16.7209,40.4833],[16.7364,40.4689],[16.8036,40.4584],[16.8102,40.4341],[16.8674,40.3991],[16.941,40.4654],[17.0204,40.506],[17.0904,40.5207],[17.1543,40.5093],[17.1932,40.4757],[17.241,40.4774],[17.251,40.4518],[17.2249,40.4082],[17.311,40.3654],[17.494,40.3104],[17.5054,40.2949],[17.6729,40.3051],[17.7638,40.2965],[17.7687,40.3126],[17.7935,40.337],[17.8009,40.3705],[17.7985,40.3856],[17.7785,40.3887],[17.7294,40.3925],[17.6942,40.4128],[17.6834,40.4417],[17.626,40.4635],[17.5846,40.4612],[17.5728,40.4432],[17.5336,40.448],[17.4809,40.504],[17.4656,40.5231],[17.4531,40.5433],[17.4583,40.582],[17.4742,40.6116],[17.4382,40.6255],[17.4186,40.6825],[17.3877,40.722],[17.3668,40.7293],[17.3506,40.7339],[17.351,40.7466],[17.3544,40.7496],[17.3512,40.7491],[17.3467,40.7444],[17.3054,40.7444],[17.3023,40.7501],[17.2953,40.7611],[17.2863,40.7735],[17.3042,40.7987],[17.3025,40.8031],[17.2541,40.8003],[17.2436,40.8009],[17.2519,40.776],[17.1569,40.7409],[17.1235,40.708],[17.1041,40.7151],[17.0828,40.7213],[17.0543,40.7183],[17.0234,40.7141],[17.0018,40.7324],[16.9478,40.7441],[16.9239,40.727],[16.9128,40.7081],[16.9005,40.7086],[16.8567,40.7246],[16.8009,40.696],[16.7789,40.7294]]]},"properties":{"GID_0":"ITA","GID_1":"ITA.2_1","GID_2":"ITA.2.6_1","NAME_1":"Apulia","NAME_2":"Taranto"}}
]}