{"type":"FeatureCollection", "features": [
{"type":"Feature","geometry":{"type":"Polygon","coordinates":[[[9.7093,45.4832],[9.7208,45.4831],[9.7713,45.4403],[9.8411,45.4524],[9.8532,45.4478],[9.8599,45.4343],[9.8655,45.432],[9.8907,45.4282],[9.8887,45.4457],[9.8878,45.4736],[9.8386,45.5512],[9.8561,45.585],[9.8546,45.5967],[9.8501,45.5997],[9.8627,45.606],[9.8885,45.6036],[9.9433,45.6662],[10.0454,45.6759],[10.0666,45.6902],[10.0559,45.7642],[10.1508,45.864],[10.1101,45.8866],[10.0981,45.9299],[10.1262,45.9594],[10.179,45.9735],[10.2072,46.0084],[10.2504,46.0117],[10.2633,46.0217],[10.2443,46.0359],[10.227,46.0423],[10.2291,46.0491],[10.1988,46.0483],[10.1761,46.0526],[10.1706,46.058],[10.1043,46.0895],[10.097,46.0922],[10.0554,46.0861],[10.0366,46.0888],[10.0196,46.0869],[9.9652,46.0689],[9.9344,46.0633],[9.9091,46.0473],[9.8332,46.0476],[9.7675,46.0653],[9.6445,46.0609],[9.5941,46.0284],[9.578,46.0211],[9.5694,46.0238],[9.5569,46.0224],[9.5328,46.0123],[9.4872,46.0039],[9.5413,45.9437],[9.5377,45.9376],[9.4723,45.8599],[9.5008,45.7735],[9.4483,45.7324],[9.4776,45.6702],[9.4961,45.6496],[9.52,45.6245],[9.5318,45.5671],[9.5381,45.5266],[9.5423,45.5024],[9.5191,45.5091],[9.5231,45.501],[9.5489,45.4624],[9.6097,45.4764],[9.6629,45.4381],[9.6999,45.4615],[9.7093,45.4832]]]},"properties":{"GID_0":"ITA","GID_1":"ITA.10_1","GID_2":"ITA.10.1_1","NAME_1":"Lombardia","NAME_2":"Bergamo"}},
{"type":"Feature","geometry":{"type":"Polygon","coordinates":[[[10.2003,45.2291],[10.2209,45.2256],[10.2516,45.2538],[10.2674,45.2517],[10.2704,45.2454],[10.3066,45.2248],[10.3179,45.2156],[10.3174,45.2064],[10.3187,45.2056],[10.3339,45.2063],[10.363,45.247],[10.4326,45.3139],[10.4669,45.3261],[10.4513,45.384],[10.5125,45.4132],[10.5491,45.3868],[10.6147,45.3836],[10.6439,45.3907],[10.6557,45.4167],[10.6439,45.4555],[10.6295,45.603],[10.7066,45.6773],[10.8158,45.805],[10.8264,45.8387],[10.7005,45.8426],[10.6521,45.8134],[10.5621,45.7848],[10.5094,45.8246],[10.5087,45.9063],[10.4593,46.0113],[10.492,46.0677],[10.5424,46.1039],[10.5664,46.1677],[10.5424,46.1895],[10.5868,46.2462],[10.5667,46.3272],[10.4991,46.3357],[10.4721,46.3556],[10.458,46.353],[10.4338,46.338],[10.3713,46.2936],[10.3286,46.288],[10.2957,46.2242],[10.2268,46.1877],[10.1771,46.1692],[10.1654,46.1077],[10.1829,46.0808],[10.1706,46.058],[10.1761,46.0526],[10.1988,46.0483],[10.2291,46.0491],[10.227,46.0423],[10.2443,46.0359],[10.2633,46.0217],[10.2504,46.0117],[10.2072,46.0084],[10.179,45.9735],[10.1262,45.9594],[10.0981,45.9299],[10.1101,45.8866],[10.1508,45.864],[10.0559,45.7642],[10.0666,45.6902],[10.0454,45.6759],[9.9433,45.6662],[9.8885,45.6036],[9.8627,45.606],[9.8501,45.5997],[9.8546,45.5967],[9.8561,45.585],[9.8386,45.5512],[9.8878,45.4736],[9.8887,45.4457],[9.894,45.3955],[9.8844,45.3585],[9.995,45.2914],[10.0506,45.2813],[10.1034,45.2479],[10.2003,45.2291]]]},"properties":{"GID_0":"ITA","GID_1":"ITA.10_1","GID_2":"ITA.10.2_1","NAME_1":"Lombardia","NAME_2":"Brescia"}},
{"type":"Feature","geometry":{"type":"Polygon","coordinates":[[[9.0098,45.6455],[9.0216,45.6468],[9.0372,45.6434],[9.0568,45.6474],[9.057,45.651],[9.0681,45.6861],[9.1964,45.6993],[9.2361,45.7268],[9.2546,45.7588],[9.286,45.8175],[9.2901,45.8281],[9.3333,45.8655],[9.2904,45.8941],[9.2602,45.9605],[9.2856,45.968],[9.2738,45.9999],[9.262,46.0154],[9.265,46.0237],[9.2632,46.0273],[9.2907,46.0603],[9.303,46.1274],[9.3583,46.1513],[9.4152,46.1378],[9.4252,46.1567],[9.4419,46.2154],[9.3907,46.2116],[9.3345,46.2357],[9.2627,46.2342],[9.2462,46.2335],[9.1217,46.1337],[9.0735,46.1168],[9.0771,46.0643],[9.0188,46.051],[9.0267,45.9945],[8.9936,45.9696],[9.0206,45.9392],[9.0756,45.915],[9.0269,45.8223],[8.9529,45.846],[8.9144,45.8353],[8.9135,45.8312],[8.911,45.8252],[8.9072,45.7694],[8.9231,45.7614],[8.9405,45.7381],[8.949,45.7076],[8.8957,45.6855],[8.8997,45.6776],[8.9103,45.6726],[8.922,45.6721],[8.9862,45.6714],[9.0098,45.6455]]]},"properties":{"GID_0":"ITA","GID_1":"ITA.10_1","GID_2":"ITA.10.3_1","NAME_1":"Lombardia","NAME_2":"Como"}},
{"type":"Feature","geometry":{"type":"Polygon","coordinates":[[[9.8921,45.1318],[9.9368,45.1053],[9.99,45.133],[10.0296,45.0972],[10.0513,45.0422],[10.1072,45.0231],[10.1575,45.0447],[10.2551,45.0196],[10.2746,45.0001],[10.3663,44.967],[10.409,44.9848],[10.465,44.9381],[10.5088,44.9734],[10.4567,44.9833],[10.5406,45.0561],[10.4994,45.0758],[10.4474,45.0478],[10.4183,45.0928],[10.4935,45.1333],[10.4464,45.1428],[10.3802,45.1394],[10.3165,45.2057],[10.3187,45.2056],[10.3174,45.2064],[10.3179,45.2156],[10.3066,45.2248],[10.2704,45.2454],[10.2674,45.2517],[10.2516,45.2538],[10.2209,45.2256],[10.2003,45.2291],[10.1034,45.2479],[10.0506,45.2813],[9.995,45.2914],[9.8844,45.3585],[9.894,45.3955],[9.8907,45.4282],[9.8655,45.432],[9.8599,45.4343],[9.8532,45.4478],[9.8411,45.4524],[9.7713,45.4403],[9.7208,45.4831],[9.7093,45.4832],[9.6999,45.4615],[9.6629,45.4381],[9.6097,45.4764],[9.5489,45.4624],[9.5231,45.501],[9.5202,45.5054],[9.496,45.4842],[9.485,45.4496],[9.4896,45.4385],[9.4555,45.3876],[9.4805,45.3778],[9.5277,45.3472],[9.5524,45.3401],[9.5889,45.3572],[9.6175,45.2948],[9.778,45.2141],[9.7683,45.1998],[9.7512,45.1866],[9.7577,45.1821],[9.8921,45.1318]]]},"properties":{"GID_0":"ITA","GID_1":"ITA.10_1","GID_2":"ITA.10.4_1","NAME_1":"Lombardia","NAME_2":"Cremona"}},
{"type":"Feature","geometry":{"type":"Polygon","coordinates":[[[9.3418,45.67],[9.3696,45.6649],[9.4155,45.6774],[9.4776,45.6702],[9.4483,45.7324],[9.5008,45.7735],[9.4723,45.8599],[9.5377,45.9376],[9.5413,45.9437],[9.4872,46.0039],[9.5233,46.0322],[9.5109,46.0634],[9.4161,46.0957],[9.4152,46.1378],[9.3583,46.1513],[9.303,46.1274],[9.2907,46.0603],[9.2632,46.0273],[9.265,46.0237],[9.262,46.0154],[9.2738,45.9999],[9.2856,45.968],[9.2602,45.9605],[9.2904,45.8941],[9.3333,45.8655],[9.2901,45.8281],[9.286,45.8175],[9.2546,45.7588],[9.2482,45.7436],[9.2805,45.7341],[9.2911,45.7275],[9.2959,45.6906],[9.3418,45.67]]]},"properties":{"GID_0":"ITA","GID_1":"ITA.10_1","GID_2":"ITA.10.5_1","NAME_1":"Lombardia","NAME_2":"Lecco"}},
{"type":"Feature","geometry":{"type":"Polygon","coordinates":[[[9.544,45.1383],[9.5885,45.1006],[9.7311,45.0645],[9.78,45.0905],[9.8341,45.0928],[9.8921,45.1318],[9.7577,45.1821],[9.7512,45.1866],[9.7683,45.1998],[9.778,45.2141],[9.6175,45.2948],[9.5889,45.3572],[9.5524,45.3401],[9.5277,45.3472],[9.4805,45.3778],[9.4555,45.3876],[9.4896,45.4385],[9.485,45.4496],[9.4186,45.4525],[9.427,45.423],[9.374,45.387],[9.3574,45.3445],[9.3884,45.3209],[9.3886,45.3137],[9.3557,45.3217],[9.3345,45.3083],[9.3166,45.261],[9.3719,45.246],[9.4037,45.2047],[9.4793,45.1626],[9.5326,45.1663],[9.544,45.1383]]]},"properties":{"GID_0":"ITA","GID_1":"ITA.10_1","GID_2":"ITA.10.6_1","NAME_1":"Lombardia","NAME_2":"Lodi"}},
{"type":"Feature","geometry":{"type":"Polygon","coordinates":[[[10.465,44.9381],[10.5182,44.9144],[10.5709,44.9093],[10.6289,44.9252],[10.6631,44.968],[10.7115,44.9741],[10.7447,44.95],[10.8234,44.9373],[10.8913,44.9134],[10.9424,44.9229],[10.9978,44.9558],[11.1214,44.9545],[11.1523,44.9343],[11.3275,44.9632],[11.3345,44.9923],[11.236,45.0455],[11.1763,45.061],[11.1892,45.1106],[11.1397,45.1248],[11.0739,45.0997],[10.999,45.1595],[10.9914,45.197],[10.948,45.2067],[10.9378,45.2339],[10.8476,45.2575],[10.7838,45.3163],[10.7384,45.2882],[10.6988,45.381],[10.7168,45.4176],[10.6557,45.4167],[10.6439,45.3907],[10.6147,45.3836],[10.5491,45.3868],[10.5125,45.4132],[10.4513,45.384],[10.4669,45.3261],[10.4326,45.3139],[10.363,45.247],[10.3339,45.2063],[10.3165,45.2057],[10.3802,45.1394],[10.4464,45.1428],[10.4935,45.1333],[10.4183,45.0928],[10.4474,45.0478],[10.4994,45.0758],[10.5406,45.0561],[10.4567,44.9833],[10.5088,44.9734],[10.465,44.9381]]]},"properties":{"GID_0":"ITA","GID_1":"ITA.10_1","GID_2":"ITA.10.7_1","NAME_1":"Lombardia","NAME_2":"Mantua"}},
{"type":"Feature","geometry":{"type":"Polygon","coordinates":[[[8.9894,45.3225],[9.0374,45.3046],[9.1306,45.312],[9.152,45.3018],[9.2202,45.3268],[9.2822,45.3319],[9.3041,45.3281],[9.3399,45.3139],[9.3557,45.3217],[9.3886,45.3137],[9.3884,45.3209],[9.3574,45.3445],[9.374,45.387],[9.427,45.423],[9.4186,45.4525],[9.485,45.4496],[9.496,45.4842],[9.5202,45.5054],[9.5191,45.5091],[9.5423,45.5024],[9.5381,45.5266],[9.5318,45.5671],[9.52,45.6245],[9.4969,45.6406],[9.4913,45.6356],[9.4834,45.6068],[9.3625,45.5552],[9.2927,45.5435],[9.2697,45.5522],[9.2188,45.5802],[9.1044,45.5893],[9.1105,45.6218],[9.0952,45.6218],[9.054,45.6241],[9.0592,45.6105],[9.0614,45.6011],[9.065,45.5872],[9.0043,45.5789],[8.9409,45.6436],[8.9235,45.6126],[8.8381,45.5694],[8.8075,45.6026],[8.708,45.5592],[8.7246,45.5063],[8.7886,45.4872],[8.844,45.3948],[8.8671,45.3441],[8.9933,45.3019],[8.9894,45.3225]]]},"properties":{"GID_0":"ITA","GID_1":"ITA.10_1","GID_2":"ITA.10.8_1","NAME_1":"Lombardia","NAME_2":"Milano"}},
{"type":"Feature","geometry":{"type":"Polygon","coordinates":[[[9.2927,45.5435],[9.3625,45.5552],[9.4834,45.6068],[9.4913,45.6356],[9.4969,45.6406],[9.4961,45.6496],[9.4776,45.6702],[9.4155,45.6774],[9.3696,45.6649],[9.3418,45.67],[9.2959,45.6906],[9.2911,45.7275],[9.2805,45.7341],[9.2482,45.7436],[9.2361,45.7268],[9.1964,45.6993],[9.0681,45.6861],[9.057,45.651],[9.0558,45.646],[9.0636,45.6421],[9.0526,45.6343],[9.054,45.6241],[9.0952,45.6218],[9.1105,45.6218],[9.1044,45.5893],[9.2188,45.5802],[9.2697,45.5522],[9.2927,45.5435]]]},"properties":{"GID_0":"ITA","GID_1":"ITA.10_1","GID_2":"ITA.10.9_1","NAME_1":"Lombardia","NAME_2":"MonzaandBrianza"}},
{"type":"Feature","geometry":{"type":"Polygon","coordinates":[[[8.844,45.3948],[8.7944,45.3799],[8.7276,45.3338],[8.7172,45.3038],[8.6677,45.2932],[8.6568,45.3266],[8.6146,45.3554],[8.5281,45.3446],[8.539,45.3182],[8.501,45.2981],[8.5318,45.2681],[8.5811,45.1537],[8.6471,45.0763],[8.6358,45.0419],[8.7728,45.0077],[8.825,45.0475],[8.8821,45.055],[8.9267,44.9831],[8.9792,44.9682],[8.9707,44.9445],[9.0314,44.8894],[9.0502,44.8512],[9.11,44.8064],[9.1616,44.8146],[9.1728,44.7726],[9.2146,44.7533],[9.219,44.6844],[9.2605,44.6809],[9.3336,44.736],[9.2876,44.7596],[9.3641,44.8234],[9.3427,44.8708],[9.2912,44.8832],[9.3719,45.0491],[9.4401,45.0944],[9.4988,45.1048],[9.5522,45.0951],[9.544,45.1383],[9.5326,45.1663],[9.4793,45.1626],[9.4037,45.2047],[9.3719,45.246],[9.3166,45.261],[9.3345,45.3083],[9.3399,45.3139],[9.3041,45.3281],[9.2822,45.3319],[9.2202,45.3268],[9.152,45.3018],[9.1306,45.312],[9.0374,45.3046],[8.9894,45.3225],[8.9933,45.3019],[8.8671,45.3441],[8.844,45.3948]]]},"properties":{"GID_0":"ITA","GID_1":"ITA.10_1","GID_2":"ITA.10.10_1","NAME_1":"Lombardia","NAME_2":"Pavia"}},
{"type":"Feature","geometry":{"type":"Polygon","coordinates":[[[9.4152,46.1378],[9.4161,46.0957],[9.5109,46.0634],[9.5233,46.0322],[9.5328,46.0123],[9.5569,46.0224],[9.5694,46.0238],[9.578,46.0211],[9.5941,46.0284],[9.6445,46.0609],[9.7675,46.0653],[9.8332,46.0476],[9.9091,46.0473],[9.9344,46.0633],[9.9652,46.0689],[10.0196,46.0869],[10.0366,46.0888],[10.0554,46.0861],[10.097,46.0922],[10.1043,46.0895],[10.1706,46.058],[10.1829,46.0808],[10.1654,46.1077],[10.1771,46.1692],[10.2268,46.1877],[10.2957,46.2242],[10.3286,46.288],[10.3713,46.2936],[10.4338,46.338],[10.458,46.353],[10.4721,46.3556],[10.4991,46.3357],[10.5681,46.3788],[10.6315,46.4035],[10.6016,46.4696],[10.553,46.4924],[10.4771,46.4965],[10.4176,46.5547],[10.3125,46.5514],[10.1835,46.6288],[10.129,46.6108],[10.0494,46.5359],[10.0389,46.4461],[10.0806,46.4259],[10.1288,46.4349],[10.1652,46.4137],[10.1284,46.3826],[10.1032,46.3364],[10.1537,46.2971],[10.1734,46.2589],[10.1455,46.2366],[10.0453,46.2382],[10.0538,46.2715],[9.9947,46.2906],[9.9917,46.3473],[9.945,46.3819],[9.7695,46.3413],[9.7392,46.3559],[9.7148,46.3014],[9.6392,46.2942],[9.5487,46.3105],[9.4976,46.3709],[9.4654,46.3828],[9.4539,46.4284],[9.4644,46.5143],[9.3904,46.4748],[9.3729,46.5026],[9.2852,46.5043],[9.2557,46.4296],[9.2835,46.4116],[9.2801,46.3655],[9.2999,46.3236],[9.2588,46.2737],[9.2462,46.2335],[9.2627,46.2342],[9.3345,46.2357],[9.3907,46.2116],[9.4419,46.2154],[9.4252,46.1567],[9.4152,46.1378]]]},"properties":{"GID_0":"ITA","GID_1":"ITA.10_1","GID_2":"ITA.10.11_1","NAME_1":"Lombardia","NAME_2":"Sondrio"}},
{"type":"Feature","geometry":{"type":"Polygon","coordinates":[[[9.0614,45.6011],[9.0592,45.6105],[9.0523,45.6296],[9.0526,45.6343],[9.0636,45.6421],[9.0558,45.646],[9.0568,45.6474],[9.0372,45.6434],[9.0216,45.6468],[9.0098,45.6455],[8.9862,45.6714],[8.922,45.6721],[8.9103,45.6726],[8.8997,45.6776],[8.8957,45.6855],[8.949,45.7076],[8.9405,45.7381],[8.9231,45.7614],[8.9072,45.7694],[8.911,45.8252],[8.9135,45.8312],[8.9144,45.8353],[8.9326,45.8731],[8.9162,45.9157],[8.7915,46.0096],[8.8516,46.0757],[8.7438,46.1249],[8.7068,46.0823],[8.7204,46.0121],[8.5949,45.9228],[8.5716,45.8904],[8.5963,45.8345],[8.5567,45.7759],[8.6032,45.7272],[8.6499,45.7205],[8.642,45.6775],[8.7042,45.601],[8.708,45.5592],[8.8075,45.6026],[8.8381,45.5694],[8.9235,45.6126],[8.9409,45.6436],[9.0043,45.5789],[9.065,45.5872],[9.0614,45.6011]]]},"properties":{"GID_0":"ITA","GID_1":"ITA.10_1","GID_2":"ITA.10.12_1","NAME_1":"Lombardia","NAME_2":"Varese"}}
]}