{"type":"FeatureCollection", "features": [
{"type":"Feature","geometry":{"type":"Polygon","coordinates":[[[7.0538,45.5],[7.2238,45.4714],[7.2706,45.5156],[7.3783,45.5178],[7.4661,45.5784],[7.5676,45.5926],[7.6102,45.5638],[7.7338,45.5513],[7.897,45.6016],[7.9405,45.6442],[7.9377,45.7253],[7.8637,45.7931],[7.8587,45.927],[7.8012,45.9242],[7.6597,45.9785],[7.5503,45.986],[7.3844,45.9],[7.2809,45.9047],[7.1221,45.8624],[7.0504,45.9256],[7.0062,45.8755],[6.8767,45.824],[6.8209,45.8269],[6.8243,45.7219],[6.9855,45.6204],[7.0065,45.5108],[7.0538,45.5]]]},"properties":{"GID_0":"ITA","GID_1":"ITA.19_1","GID_2":"ITA.19.1_1","NAME_1":"Valled'Aosta","NAME_2":"Aosta"}}
]}