{"type":"FeatureCollection", "features": [
{"type":"Feature","geometry":{"type":"Polygon","coordinates":[[[14.2306,41.8781],[14.2851,41.9118],[14.3776,41.8809],[14.4451,41.8408],[14.4862,41.7606],[14.5715,41.8221],[14.6151,41.8902],[14.725,42.0014],[14.7819,42.0316],[14.7797,42.0701],[14.7182,42.1051],[14.7176,42.1724],[14.6174,42.1999],[14.5112,42.2501],[14.4415,42.3124],[14.4101,42.3601],[14.2454,42.4384],[14.2222,42.4204],[14.1997,42.4299],[14.1655,42.4261],[14.1584,42.3952],[14.1154,42.333],[14.1123,42.2416],[14.134,42.2253],[14.116,42.2157],[14.0963,42.2076],[14.0945,42.2019],[14.1301,42.1597],[14.1158,42.1082],[14.0911,42.0997],[14.0861,42.0877],[14.092,42.085],[14.0824,42.0193],[14.1071,41.8943],[14.1841,41.9045],[14.2306,41.8781]]]},"properties":{"GID_0":"ITA","GID_1":"ITA.1_1","GID_2":"ITA.1.1_1","NAME_1":"Abruzzo","NAME_2":"Chieti"}},
{"type":"Feature","geometry":{"type":"Polygon","coordinates":[[[13.3949,42.5922],[13.324,42.5807],[13.1923,42.5885],[13.1583,42.5287],[13.155,42.4633],[13.1171,42.4449],[13.1901,42.4012],[13.1543,42.358],[13.2274,42.3203],[13.2435,42.2699],[13.3685,42.181],[13.3062,42.1392],[13.2497,42.1284],[13.1936,42.1592],[13.088,42.1789],[13.0857,42.1432],[13.0379,42.12],[13.0195,42.0763],[13.0554,42.0174],[13.1409,42.0163],[13.3235,41.9462],[13.3849,41.9052],[13.3607,41.8704],[13.4075,41.8385],[13.506,41.8026],[13.5727,41.7553],[13.663,41.8124],[13.791,41.7439],[13.9202,41.7188],[13.9324,41.6954],[14.0196,41.6831],[14.0705,41.7382],[14.1951,41.7491],[14.1723,41.7794],[14.167,41.8434],[14.2306,41.8781],[14.1841,41.9045],[14.1071,41.8943],[14.0824,42.0193],[14.092,42.085],[14.0314,42.0839],[13.9629,42.1257],[13.95,42.1262],[13.86,42.1604],[13.799,42.15],[13.8013,42.2112],[13.8452,42.2822],[13.8088,42.3336],[13.7773,42.4149],[13.7641,42.4219],[13.7612,42.4288],[13.7339,42.439],[13.5769,42.4549],[13.5586,42.4526],[13.553,42.449],[13.5276,42.4622],[13.4765,42.484],[13.4493,42.5048],[13.427,42.52],[13.4032,42.5626],[13.3935,42.5835],[13.3949,42.5922]]]},"properties":{"GID_0":"ITA","GID_1":"ITA.1_1","GID_2":"ITA.1.2_1","NAME_1":"Abruzzo","NAME_2":"L'Aquila"}},
{"type":"Feature","geometry":{"type":"Polygon","coordinates":[[[13.95,42.1262],[13.9629,42.1257],[14.0314,42.0839],[14.0861,42.0877],[14.0911,42.0997],[14.1158,42.1082],[14.1301,42.1597],[14.0945,42.2019],[14.0963,42.2076],[14.116,42.2157],[14.134,42.2253],[14.1123,42.2416],[14.1154,42.333],[14.1584,42.3952],[14.1655,42.4261],[14.1997,42.4299],[14.2222,42.4204],[14.2454,42.4384],[14.1457,42.531],[13.9909,42.5428],[13.8961,42.5129],[13.7987,42.467],[13.7707,42.4327],[13.7662,42.4211],[13.7773,42.4149],[13.8088,42.3336],[13.8452,42.2822],[13.8013,42.2112],[13.799,42.15],[13.86,42.1604],[13.95,42.1262]]]},"properties":{"GID_0":"ITA","GID_1":"ITA.1_1","GID_2":"ITA.1.3_1","NAME_1":"Abruzzo","NAME_2":"Pescara"}},
{"type":"Feature","geometry":{"type":"Polygon","coordinates":[[[13.7612,42.4288],[13.7662,42.4211],[13.7707,42.4327],[13.7987,42.467],[13.8961,42.5129],[13.9909,42.5428],[14.1457,42.531],[14.0735,42.6029],[13.9971,42.7049],[13.9376,42.8162],[13.9187,42.8937],[13.7234,42.8563],[13.7002,42.8236],[13.5307,42.7969],[13.4904,42.735],[13.453,42.7349],[13.3935,42.6883],[13.4092,42.6438],[13.3949,42.5922],[13.3935,42.5835],[13.4032,42.5626],[13.427,42.52],[13.4493,42.5048],[13.4765,42.484],[13.5276,42.4622],[13.553,42.449],[13.5586,42.4526],[13.5769,42.4549],[13.7339,42.439],[13.7612,42.4288]]]},"properties":{"GID_0":"ITA","GID_1":"ITA.1_1","GID_2":"ITA.1.4_1","NAME_1":"Abruzzo","NAME_2":"Teramo"}}
]}