{"type":"FeatureCollection", "features": [
{"type":"Feature","geometry":{"type":"Polygon","coordinates":[[[13.8207,41.3225],[13.8191,41.3379],[13.824,41.3397],[13.8628,41.335],[13.8872,41.3854],[13.8621,41.4186],[13.9117,41.4297],[13.9937,41.4831],[14.027,41.5268],[14.0025,41.5707],[14.0119,41.6085],[13.9892,41.6548],[13.9202,41.7188],[13.791,41.7439],[13.75,41.7738],[13.663,41.8124],[13.5727,41.7553],[13.5213,41.7739],[13.506,41.8026],[13.4075,41.8385],[13.3607,41.8704],[13.3849,41.9052],[13.3035,41.9554],[13.2813,41.9341],[13.1952,41.8698],[13.1851,41.847],[13.0719,41.8546],[13.0107,41.8265],[12.9936,41.7737],[13.0878,41.72],[13.0921,41.6884],[13.1479,41.6613],[13.1586,41.6117],[13.1512,41.5976],[13.16,41.5875],[13.176,41.5846],[13.2011,41.5578],[13.2733,41.5228],[13.2998,41.4718],[13.2556,41.4336],[13.323,41.4076],[13.4282,41.3983],[13.4292,41.4572],[13.5402,41.4249],[13.5622,41.4013],[13.5799,41.3812],[13.5614,41.369],[13.6033,41.3422],[13.617,41.3221],[13.6288,41.3186],[13.7051,41.3596],[13.7639,41.3023],[13.8207,41.3225]]]},"properties":{"GID_0":"ITA","GID_1":"ITA.8_1","GID_2":"ITA.8.1_1","NAME_1":"Lazio","NAME_2":"Frosinone"}},
{"type":"Feature","geometry":{"type":"Polygon","coordinates":[[[13.6033,41.3422],[13.5614,41.369],[13.5799,41.3812],[13.5622,41.4013],[13.5402,41.4249],[13.4292,41.4572],[13.4282,41.3983],[13.323,41.4076],[13.2556,41.4336],[13.2998,41.4718],[13.2733,41.5228],[13.2011,41.5578],[13.176,41.5846],[13.1311,41.5618],[13.1263,41.5508],[13.1046,41.546],[13.0262,41.6009],[12.944,41.6752],[12.9396,41.7142],[12.8556,41.6926],[12.7645,41.5809],[12.6984,41.611],[12.6534,41.6085],[12.6348,41.6729],[12.5612,41.6238],[12.5443,41.5965],[12.5876,41.5503],[12.5928,41.5422],[12.6547,41.5344],[12.7044,41.5084],[12.7241,41.5034],[12.7728,41.4264],[12.8726,41.4054],[12.9701,41.3462],[13.0021,41.3099],[13.046,41.2262],[13.0938,41.224],[13.1529,41.2682],[13.2924,41.2976],[13.3771,41.281],[13.521,41.2246],[13.6215,41.2607],[13.7079,41.2532],[13.7607,41.2235],[13.8197,41.2468],[13.8285,41.2785],[13.8832,41.2919],[13.8628,41.335],[13.824,41.3397],[13.8191,41.3379],[13.8207,41.3225],[13.7639,41.3023],[13.7051,41.3596],[13.6288,41.3186],[13.617,41.3221],[13.6033,41.3422]]]},"properties":{"GID_0":"ITA","GID_1":"ITA.8_1","GID_2":"ITA.8.2_1","NAME_1":"Lazio","NAME_2":"Latina"}},
{"type":"Feature","geometry":{"type":"Polygon","coordinates":[[[12.9311,42.1098],[12.9576,42.0983],[12.9992,42.1244],[13.0315,42.1164],[13.0617,42.1245],[13.1243,42.178],[13.1936,42.1592],[13.2497,42.1284],[13.3062,42.1392],[13.3685,42.181],[13.2435,42.2699],[13.2274,42.3203],[13.1543,42.358],[13.1901,42.4012],[13.1171,42.4449],[13.155,42.4633],[13.1787,42.5136],[13.1583,42.5287],[13.1923,42.5885],[13.3812,42.5819],[13.4092,42.6438],[13.3506,42.6697],[13.3587,42.6951],[13.2868,42.7415],[13.2551,42.7224],[13.1907,42.7344],[13.1751,42.6671],[13.1464,42.6471],[13.0595,42.6238],[12.9534,42.6199],[12.8815,42.6086],[12.8937,42.5645],[12.7745,42.5141],[12.7121,42.5018],[12.7425,42.4715],[12.6669,42.4419],[12.6234,42.4699],[12.6153,42.4145],[12.5187,42.37],[12.489,42.3996],[12.4858,42.3936],[12.4688,42.3918],[12.4388,42.3967],[12.4398,42.392],[12.4392,42.3849],[12.4901,42.3205],[12.4779,42.3186],[12.4824,42.3051],[12.5066,42.2982],[12.5205,42.2957],[12.5514,42.2941],[12.5595,42.2743],[12.5848,42.2849],[12.584,42.2654],[12.6083,42.2727],[12.6382,42.209],[12.6158,42.1819],[12.6502,42.1578],[12.6565,42.1517],[12.7358,42.1682],[12.758,42.1846],[12.7691,42.1894],[12.7893,42.1871],[12.7961,42.1816],[12.7927,42.1751],[12.8505,42.1443],[12.8677,42.1046],[12.9311,42.1098]]]},"properties":{"GID_0":"ITA","GID_1":"ITA.8_1","GID_2":"ITA.8.3_1","NAME_1":"Lazio","NAME_2":"Rieti"}},
{"type":"Feature","geometry":{"type":"Polygon","coordinates":[[[12.7044,41.5084],[12.6547,41.5344],[12.5928,41.5422],[12.5876,41.5503],[12.5443,41.5965],[12.5612,41.6238],[12.6348,41.6729],[12.6534,41.6085],[12.6984,41.611],[12.7645,41.5809],[12.8556,41.6926],[12.9396,41.7142],[12.944,41.6752],[13.0262,41.6009],[13.1046,41.546],[13.1263,41.5508],[13.1311,41.5618],[13.176,41.5846],[13.16,41.5875],[13.1512,41.5976],[13.1586,41.6117],[13.1479,41.6613],[13.0921,41.6884],[13.0878,41.72],[12.9936,41.7737],[13.0107,41.8265],[13.0719,41.8546],[13.1851,41.847],[13.1952,41.8698],[13.2813,41.9341],[13.2315,41.9831],[13.1409,42.0163],[13.0554,42.0174],[13.0194,42.0759],[13.0315,42.1164],[12.9992,42.1244],[12.9576,42.0983],[12.9311,42.1098],[12.8677,42.1046],[12.8505,42.1443],[12.7927,42.1751],[12.7961,42.1816],[12.7893,42.1871],[12.7691,42.1894],[12.758,42.1846],[12.7358,42.1682],[12.6565,42.1517],[12.6502,42.1578],[12.6158,42.1819],[12.6382,42.209],[12.6083,42.2727],[12.584,42.2654],[12.5848,42.2849],[12.5595,42.2743],[12.5514,42.2941],[12.5205,42.2957],[12.4899,42.271],[12.463,42.2067],[12.3987,42.2328],[12.3712,42.1739],[12.3305,42.1472],[12.2724,42.1829],[12.1778,42.1796],[12.1187,42.1625],[12.0042,42.1589],[11.975,42.2141],[11.8837,42.231],[11.829,42.1679],[11.7481,42.1628],[11.7335,42.1585],[11.8401,42.0288],[11.916,42.039],[12.0504,41.9562],[12.1426,41.9149],[12.1915,41.8554],[12.2299,41.7521],[12.351,41.699],[12.4365,41.6421],[12.5513,41.5363],[12.6168,41.4543],[12.666,41.4571],[12.7728,41.4264],[12.7241,41.5034],[12.7044,41.5084]]]},"properties":{"GID_0":"ITA","GID_1":"ITA.8_1","GID_2":"ITA.8.4_1","NAME_1":"Lazio","NAME_2":"Roma"}},
{"type":"Feature","geometry":{"type":"MultiPolygon","coordinates":[[[[12.4688,42.3918],[12.4858,42.3936],[12.489,42.3996],[12.4688,42.3918]]],[[[11.7481,42.1628],[11.829,42.1679],[11.8837,42.231],[11.975,42.2141],[12.0042,42.1589],[12.1187,42.1625],[12.1778,42.1796],[12.2724,42.1829],[12.3305,42.1472],[12.3712,42.1739],[12.3987,42.2328],[12.463,42.2067],[12.4899,42.271],[12.5205,42.2957],[12.5066,42.2982],[12.4824,42.3051],[12.4779,42.3186],[12.4901,42.3205],[12.4392,42.3849],[12.4398,42.392],[12.4388,42.3967],[12.4135,42.4792],[12.3522,42.4746],[12.3008,42.4885],[12.2396,42.5732],[12.2443,42.6291],[12.162,42.6779],[12.0307,42.6514],[11.9423,42.6843],[11.9272,42.7057],[11.9828,42.7546],[11.9295,42.781],[11.9059,42.8289],[11.8504,42.8397],[11.804,42.8019],[11.747,42.7867],[11.8199,42.7439],[11.76,42.6391],[11.6824,42.5823],[11.6171,42.5609],[11.5622,42.5183],[11.6178,42.4885],[11.6187,42.437],[11.4898,42.4404],[11.4504,42.3776],[11.5504,42.3424],[11.6651,42.2676],[11.7481,42.1628]]]]},"properties":{"GID_0":"ITA","GID_1":"ITA.8_1","GID_2":"ITA.8.5_1","NAME_1":"Lazio","NAME_2":"Viterbo"}}
]}