{"type":"FeatureCollection", "features": [
{"type":"Feature","geometry":{"type":"Polygon","coordinates":[[[16.5824,38.4706],[16.5588,38.6821],[16.5376,38.7224],[16.6046,38.8129],[16.7771,38.8965],[16.8914,38.9282],[16.8929,38.9352],[16.9077,38.9501],[16.9114,38.9598],[16.8967,38.9851],[16.8466,39.0399],[16.7613,39.0674],[16.7346,39.06],[16.6801,39.0933],[16.6138,39.1953],[16.5368,39.1456],[16.4799,39.1233],[16.4819,39.0601],[16.4252,39.0628],[16.3667,39.096],[16.3529,39.1036],[16.351,39.1101],[16.327,39.1105],[16.2596,39.1136],[16.215,39.0839],[16.1529,39.0599],[16.1114,39.0521],[16.1015,39.0268],[16.154,38.9538],[16.2187,38.9232],[16.2154,38.8115],[16.258,38.8209],[16.297,38.8223],[16.3195,38.8075],[16.3451,38.7951],[16.3566,38.7796],[16.3667,38.7605],[16.3712,38.7436],[16.3638,38.7373],[16.3316,38.6467],[16.3408,38.6328],[16.4164,38.589],[16.4293,38.5766],[16.4206,38.555],[16.4408,38.5394],[16.4073,38.5213],[16.4232,38.5104],[16.4587,38.514],[16.5418,38.4644],[16.5824,38.4706]]]},"properties":{"GID_0":"ITA","GID_1":"ITA.4_1","GID_2":"ITA.4.1_1","NAME_1":"Calabria","NAME_2":"Catanzaro"}},
{"type":"Feature","geometry":{"type":"Polygon","coordinates":[[[16.1529,39.0599],[16.215,39.0839],[16.2596,39.1136],[16.327,39.1105],[16.351,39.1101],[16.3529,39.1036],[16.3667,39.096],[16.4252,39.0628],[16.4819,39.0601],[16.4799,39.1233],[16.5368,39.1456],[16.6138,39.1953],[16.6166,39.1974],[16.6389,39.2018],[16.6518,39.1989],[16.6953,39.2035],[16.7202,39.1984],[16.7585,39.1933],[16.7475,39.2467],[16.7618,39.2929],[16.7071,39.3239],[16.7633,39.3633],[16.8358,39.3467],[16.9574,39.3982],[16.958,39.438],[17.024,39.4828],[16.9754,39.4912],[16.8707,39.536],[16.7735,39.6199],[16.6362,39.6193],[16.566,39.6407],[16.5179,39.6696],[16.5285,39.7243],[16.4918,39.7499],[16.5024,39.8265],[16.6301,39.9663],[16.5999,40.0357],[16.6218,40.1331],[16.5308,40.1191],[16.4528,40.1358],[16.4098,40.122],[16.4151,40.0817],[16.3992,40.0179],[16.3386,39.9372],[16.1594,39.9211],[16.0832,39.8973],[16.0234,39.9246],[15.9781,39.988],[15.9288,40.0021],[15.8986,39.9827],[15.8209,40.0029],[15.756,39.9242],[15.7929,39.8638],[15.7865,39.8157],[15.8143,39.6776],[15.8326,39.6671],[15.8737,39.554],[15.9262,39.5257],[15.9954,39.4437],[16.0382,39.3451],[16.0568,39.2715],[16.0665,39.136],[16.0949,39.0501],[16.1114,39.0521],[16.1529,39.0599]]]},"properties":{"GID_0":"ITA","GID_1":"ITA.4_1","GID_2":"ITA.4.2_1","NAME_1":"Calabria","NAME_2":"Cosenza"}},
{"type":"Feature","geometry":{"type":"Polygon","coordinates":[[[16.8967,38.9851],[16.9114,38.9598],[16.9077,38.9501],[16.8929,38.9352],[16.8914,38.9282],[16.9843,38.9379],[17.1015,38.9054],[17.1485,38.9437],[17.1643,38.9951],[17.1993,39.0268],[17.1349,39.0579],[17.1074,39.1115],[17.1474,39.2062],[17.1054,39.2537],[17.1112,39.3174],[17.1362,39.376],[17.1176,39.4057],[17.0476,39.4429],[17.024,39.4828],[16.958,39.438],[16.9574,39.3982],[16.8358,39.3467],[16.7633,39.3633],[16.7071,39.3239],[16.7618,39.2929],[16.7475,39.2467],[16.7585,39.1933],[16.7202,39.1984],[16.6953,39.2035],[16.6518,39.1989],[16.6389,39.2018],[16.6166,39.1974],[16.6138,39.1953],[16.6801,39.0933],[16.7346,39.06],[16.7613,39.0674],[16.8466,39.0399],[16.8967,38.9851]]]},"properties":{"GID_0":"ITA","GID_1":"ITA.4_1","GID_2":"ITA.4.3_1","NAME_1":"Calabria","NAME_2":"Crotone"}},
{"type":"Feature","geometry":{"type":"Polygon","coordinates":[[[15.93,38.5085],[15.9051,38.4412],[15.8821,38.431],[15.8293,38.324],[15.7963,38.281],[15.7354,38.2532],[15.636,38.2326],[15.6329,38.1912],[15.6554,38.1526],[15.6349,38.076],[15.6574,38.0412],[15.6388,38.0015],[15.6776,37.9538],[15.7637,37.9162],[15.9196,37.9296],[15.9979,37.9154],[16.0643,37.9246],[16.1065,37.9665],[16.1446,38.031],[16.1601,38.1274],[16.3262,38.2957],[16.4715,38.3432],[16.5696,38.424],[16.5824,38.4706],[16.5418,38.4644],[16.4587,38.514],[16.4232,38.5104],[16.4073,38.5213],[16.4408,38.5394],[16.3937,38.5748],[16.382,38.5675],[16.3501,38.5384],[16.346,38.5212],[16.3895,38.4769],[16.3537,38.4318],[16.2822,38.4403],[16.266,38.4494],[16.2319,38.5021],[16.1943,38.4986],[16.0808,38.5631],[16.0695,38.5501],[16.0053,38.5178],[15.9596,38.5266],[15.93,38.5085]]]},"properties":{"GID_0":"ITA","GID_1":"ITA.4_1","GID_2":"ITA.4.4_1","NAME_1":"Calabria","NAME_2":"ReggioDiCalabria"}},
{"type":"Feature","geometry":{"type":"Polygon","coordinates":[[[16.2822,38.4403],[16.3537,38.4318],[16.3895,38.4769],[16.346,38.5212],[16.3501,38.5384],[16.382,38.5675],[16.3937,38.5748],[16.4206,38.555],[16.4293,38.5766],[16.4164,38.589],[16.3408,38.6328],[16.3316,38.6467],[16.3638,38.7373],[16.3713,38.7445],[16.3627,38.7688],[16.3489,38.7912],[16.342,38.7963],[16.3234,38.8003],[16.3195,38.8075],[16.297,38.8223],[16.258,38.8209],[16.2154,38.8115],[16.1849,38.7496],[16.1346,38.7174],[15.9851,38.7232],[15.9493,38.6918],[15.8721,38.6738],[15.8357,38.6454],[15.846,38.6126],[15.929,38.5499],[15.93,38.5085],[15.9596,38.5266],[16.0053,38.5178],[16.0695,38.5501],[16.0808,38.5631],[16.1943,38.4986],[16.2319,38.5021],[16.266,38.4494],[16.2822,38.4403]]]},"properties":{"GID_0":"ITA","GID_1":"ITA.4_1","GID_2":"ITA.4.5_1","NAME_1":"Calabria","NAME_2":"ViboValentia"}}
]}