{"type":"FeatureCollection", "features": [
{"type":"Feature","geometry":{"type":"Polygon","coordinates":[[[11.2078,46.3884],[11.2028,46.3754],[11.1926,46.3607],[11.1795,46.3077],[11.1538,46.2765],[11.2075,46.2207],[11.2477,46.2312],[11.3243,46.2935],[11.3598,46.2666],[11.4053,46.3259],[11.4779,46.3651],[11.5583,46.3518],[11.6204,46.4261],[11.6272,46.4703],[11.7168,46.5147],[11.8293,46.5098],[11.9672,46.5456],[11.9994,46.5337],[12.0477,46.5856],[12.0693,46.676],[12.2134,46.6098],[12.2622,46.63],[12.361,46.6205],[12.4351,46.6693],[12.3782,46.7228],[12.3597,46.7738],[12.3098,46.7854],[12.3065,46.8337],[12.2667,46.8879],[12.216,46.8745],[12.1385,46.957],[12.1219,47.0075],[12.2053,47.0274],[12.2275,47.0826],[12.1865,47.0927],[12.0218,47.0478],[11.9799,47.0505],[11.8455,47.0022],[11.7282,46.9729],[11.6277,47.0138],[11.539,46.9846],[11.5025,47.0102],[11.4179,46.9669],[11.3208,46.9929],[11.2421,46.9702],[11.1648,46.9663],[11.1153,46.9319],[11.0226,46.7659],[10.9441,46.7759],[10.8689,46.7663],[10.7963,46.7918],[10.6908,46.8682],[10.4991,46.848],[10.4263,46.7862],[10.4441,46.753],[10.3927,46.6808],[10.4126,46.6377],[10.487,46.62],[10.4909,46.5918],[10.4542,46.5329],[10.4771,46.4965],[10.553,46.4924],[10.6399,46.447],[10.7672,46.4861],[10.8017,46.4438],[10.9135,46.4447],[10.9648,46.483],[11.0757,46.4557],[11.05,46.5079],[11.0645,46.5216],[11.1565,46.4878],[11.1882,46.5096],[11.2133,46.4783],[11.2153,46.4792],[11.2134,46.4562],[11.2078,46.3884]]]},"properties":{"GID_0":"ITA","GID_1":"ITA.17_1","GID_2":"ITA.17.1_1","NAME_1":"Trentino-AltoAdige","NAME_2":"Bolzano"}},
{"type":"Feature","geometry":{"type":"Polygon","coordinates":[[[10.6399,46.447],[10.6304,46.4018],[10.5681,46.3788],[10.5868,46.2462],[10.5424,46.1895],[10.5664,46.1677],[10.5424,46.1039],[10.492,46.0677],[10.4593,46.0113],[10.5087,45.9063],[10.5094,45.8246],[10.5625,45.7848],[10.6521,45.8134],[10.7005,45.8426],[10.8268,45.8386],[10.8844,45.8179],[10.8449,45.7195],[10.9523,45.6854],[11,45.7085],[11.0911,45.6971],[11.1748,45.7331],[11.1898,45.8145],[11.2403,45.8569],[11.2624,45.9174],[11.3254,45.9183],[11.3828,45.9434],[11.3734,45.9741],[11.4478,45.9818],[11.5117,46.0129],[11.5783,46.0074],[11.5886,45.9699],[11.6868,45.9702],[11.6723,46.0153],[11.6845,46.0772],[11.719,46.1042],[11.8147,46.1032],[11.8944,46.122],[11.9404,46.1997],[11.9226,46.2487],[11.839,46.2712],[11.8319,46.3678],[11.8515,46.4352],[11.8878,46.4655],[11.8114,46.4858],[11.8293,46.5098],[11.7168,46.5147],[11.6272,46.4703],[11.6204,46.4261],[11.5583,46.3518],[11.4779,46.3651],[11.4053,46.3259],[11.3598,46.2666],[11.3243,46.2935],[11.2477,46.2312],[11.2075,46.2207],[11.1538,46.2765],[11.1795,46.3077],[11.1926,46.3607],[11.2028,46.3754],[11.2078,46.3884],[11.2134,46.4562],[11.2153,46.4792],[11.2133,46.4783],[11.1882,46.5096],[11.1565,46.4878],[11.0645,46.5216],[11.05,46.5079],[11.0757,46.4557],[10.9648,46.483],[10.9135,46.4447],[10.8017,46.4438],[10.7672,46.4861],[10.6399,46.447]]]},"properties":{"GID_0":"ITA","GID_1":"ITA.17_1","GID_2":"ITA.17.2_1","NAME_1":"Trentino-AltoAdige","NAME_2":"Trento"}}
]}