{"type":"FeatureCollection", "features": [
{"type":"Feature","geometry":{"type":"MultiPolygon","coordinates":[[[[12.5418,35.5288],[12.6051,35.4929],[12.6274,35.521],[12.5418,35.5288]]],[[[12.9046,37.5876],[12.9476,37.571],[13.039,37.4951],[13.0776,37.5057],[13.1682,37.4924],[13.2179,37.459],[13.2579,37.4196],[13.2729,37.3888],[13.2943,37.3893],[13.3221,37.3635],[13.3524,37.3593],[13.4038,37.3321],[13.4271,37.304],[13.4787,37.2874],[13.5529,37.2868],[13.6204,37.2346],[13.6387,37.2301],[13.6613,37.1935],[13.7251,37.1701],[13.7504,37.149],[13.8235,37.1446],[13.8585,37.1115],[13.9057,37.0946],[13.9768,37.109],[14.0371,37.1065],[14.0393,37.1242],[14.0307,37.1557],[14.0107,37.1641],[13.992,37.2216],[14.0288,37.276],[13.9951,37.2963],[13.9649,37.3303],[13.9278,37.3317],[13.8824,37.361],[13.9091,37.3884],[13.8629,37.4044],[13.8273,37.4335],[13.7736,37.4416],[13.7505,37.429],[13.7061,37.4413],[13.6865,37.4609],[13.6513,37.4623],[13.6936,37.5247],[13.6907,37.5567],[13.6686,37.5756],[13.7663,37.5983],[13.7893,37.6246],[13.8303,37.6301],[13.8169,37.6783],[13.7895,37.6894],[13.7886,37.687],[13.7333,37.6841],[13.6962,37.696],[13.6728,37.6899],[13.67,37.671],[13.6575,37.6598],[13.5883,37.6516],[13.5494,37.6405],[13.5124,37.6603],[13.4578,37.6615],[13.4467,37.6596],[13.4271,37.6443],[13.3957,37.6607],[13.3909,37.6313],[13.399,37.6173],[13.3873,37.6131],[13.3825,37.593],[13.3918,37.5744],[13.4048,37.5718],[13.4012,37.5594],[13.398,37.5569],[13.3669,37.5472],[13.3214,37.5892],[13.326,37.625],[13.349,37.6581],[13.3285,37.6635],[13.3013,37.6401],[13.2765,37.6483],[13.2547,37.6193],[13.2132,37.6416],[13.2146,37.6754],[13.1885,37.6928],[13.149,37.6884],[13.1244,37.7026],[13.0805,37.6949],[13.0128,37.7438],[13.0081,37.741],[12.9573,37.7262],[12.9186,37.6904],[12.8878,37.6447],[12.891,37.6417],[12.9157,37.6378],[12.9046,37.5876]],[[13.1596,37.6271],[13.1463,37.6271],[13.1469,37.6326],[13.146,37.6447],[13.184,37.6364],[13.1596,37.6271]]]]},"properties":{"GID_0":"ITA","GID_1":"ITA.15_1","GID_2":"ITA.15.1_1","NAME_1":"Sicily","NAME_2":"Agrigento"}},
{"type":"Feature","geometry":{"type":"MultiPolygon","coordinates":[[[[14.3838,37.2],[14.379,37.2065],[14.3824,37.2872],[14.3535,37.2792],[14.3533,37.3073],[14.3466,37.3092],[14.3404,37.3042],[14.3175,37.328],[14.2658,37.3433],[14.2429,37.3483],[14.2306,37.3485],[14.1947,37.3329],[14.1679,37.3251],[14.1276,37.34],[14.1107,37.336],[14.0915,37.3377],[14.0842,37.3405],[14.0789,37.3809],[14.0607,37.4108],[14.1549,37.4849],[14.1333,37.534],[14.1392,37.5819],[14.16,37.5868],[14.1612,37.5988],[14.1651,37.6133],[14.1357,37.6178],[14.0575,37.6492],[14.0259,37.633],[14.0281,37.6035],[14.0138,37.5976],[13.9912,37.5967],[13.9573,37.5867],[13.9224,37.6101],[13.904,37.6316],[13.9052,37.6586],[13.8642,37.6908],[13.8146,37.7058],[13.8026,37.7438],[13.7333,37.6841],[13.7886,37.687],[13.7895,37.6894],[13.8169,37.6783],[13.8303,37.6301],[13.7893,37.6246],[13.7663,37.5983],[13.6686,37.5756],[13.6907,37.5567],[13.6936,37.5247],[13.6513,37.4623],[13.6865,37.4609],[13.7061,37.4413],[13.7505,37.429],[13.7736,37.4416],[13.8273,37.4335],[13.8629,37.4044],[13.9091,37.3884],[13.8824,37.361],[13.9278,37.3317],[13.9649,37.3303],[13.9951,37.2963],[14.0288,37.276],[13.992,37.2216],[14.0107,37.1641],[14.0307,37.1557],[14.0393,37.1242],[14.0643,37.1104],[14.1487,37.0974],[14.2424,37.0662],[14.2974,37.0357],[14.3382,37.0013],[14.3554,37.0053],[14.414,37.0312],[14.4426,37.0505],[14.4448,37.0541],[14.442,37.0568],[14.4382,37.0736],[14.4685,37.1179],[14.4601,37.1544],[14.4329,37.1841],[14.4029,37.1785],[14.3838,37.2]],[[14.1045,37.5504],[14.1071,37.5409],[14.0901,37.5469],[14.1045,37.5504]]],[[[14.0069,37.673],[14.0199,37.6579],[14.0342,37.6566],[14.0864,37.6778],[14.0914,37.6987],[14.0899,37.7087],[14.0442,37.727],[14.03,37.7055],[14.0069,37.673]]]]},"properties":{"GID_0":"ITA","GID_1":"ITA.15_1","GID_2":"ITA.15.2_1","NAME_1":"Sicily","NAME_2":"Caltanissetta"}},
{"type":"Feature","geometry":{"type":"Polygon","coordinates":[[[14.8676,37.3173],[14.8423,37.3259],[14.8053,37.3167],[14.7801,37.3256],[14.7889,37.3397],[14.8393,37.3589],[14.8436,37.38],[14.8882,37.4089],[14.9169,37.4138],[14.944,37.4056],[14.9831,37.3749],[15.0332,37.3724],[15.0904,37.3597],[15.0851,37.4851],[15.1196,37.5307],[15.1765,37.5754],[15.1749,37.6326],[15.1996,37.6549],[15.2196,37.7104],[15.2046,37.7407],[15.2466,37.8099],[15.2212,37.8518],[15.1543,37.8962],[15.1124,37.9072],[15.0432,37.8949],[15.0029,37.8989],[14.9795,37.9081],[14.9564,37.9125],[14.9299,37.962],[14.8574,37.9279],[14.802,37.9544],[14.7632,37.9346],[14.7593,37.8695],[14.7895,37.854],[14.7918,37.8378],[14.8032,37.8175],[14.7737,37.8134],[14.7628,37.824],[14.7429,37.8192],[14.7452,37.7907],[14.7169,37.7683],[14.707,37.7327],[14.7178,37.7271],[14.7251,37.6825],[14.7527,37.6875],[14.7985,37.7138],[14.7931,37.6539],[14.8223,37.6386],[14.8205,37.6168],[14.8297,37.59],[14.7917,37.5605],[14.8001,37.5338],[14.7957,37.5192],[14.7912,37.5076],[14.7646,37.5055],[14.7483,37.5194],[14.7387,37.5312],[14.7191,37.5431],[14.6819,37.559],[14.6647,37.552],[14.6351,37.537],[14.5804,37.5487],[14.5441,37.5439],[14.524,37.5177],[14.5258,37.4633],[14.554,37.4466],[14.5887,37.4512],[14.6319,37.432],[14.5893,37.4104],[14.5699,37.3615],[14.5149,37.3523],[14.5222,37.3254],[14.4991,37.3097],[14.4563,37.3103],[14.4337,37.2934],[14.3855,37.2974],[14.3533,37.3073],[14.3535,37.2792],[14.3824,37.2872],[14.379,37.2065],[14.3838,37.2],[14.4029,37.1785],[14.4329,37.1841],[14.4601,37.1544],[14.4685,37.1179],[14.4382,37.0736],[14.4429,37.0554],[14.4448,37.0541],[14.4479,37.0577],[14.4717,37.0516],[14.5209,37.0728],[14.5514,37.0573],[14.5771,37.0591],[14.5947,37.0756],[14.61,37.0897],[14.7038,37.1191],[14.7257,37.1031],[14.7662,37.1004],[14.7833,37.1212],[14.7761,37.1406],[14.8091,37.1272],[14.8374,37.1256],[14.8476,37.1411],[14.8353,37.1638],[14.8707,37.1869],[14.872,37.2059],[14.8206,37.2093],[14.7742,37.2232],[14.8119,37.2577],[14.8482,37.2611],[14.8862,37.302],[14.8676,37.3173]]]},"properties":{"GID_0":"ITA","GID_1":"ITA.15_1","GID_2":"ITA.15.3_1","NAME_1":"Sicily","NAME_2":"Catania"}},
{"type":"Feature","geometry":{"type":"MultiPolygon","coordinates":[[[[14.1947,37.3329],[14.2155,37.337],[14.2239,37.3426],[14.2318,37.3487],[14.2533,37.3469],[14.2658,37.3433],[14.3175,37.328],[14.3404,37.3042],[14.3466,37.3092],[14.3855,37.2974],[14.4337,37.2934],[14.4563,37.3103],[14.4991,37.3097],[14.5222,37.3254],[14.5149,37.3523],[14.5699,37.3615],[14.5893,37.4104],[14.6319,37.432],[14.5887,37.4512],[14.554,37.4466],[14.5258,37.4633],[14.524,37.5177],[14.5441,37.5439],[14.5804,37.5487],[14.6351,37.537],[14.6647,37.552],[14.6819,37.559],[14.7191,37.5431],[14.7387,37.5312],[14.7483,37.5194],[14.7646,37.5055],[14.7912,37.5076],[14.7957,37.5192],[14.8001,37.5338],[14.7917,37.5605],[14.8297,37.59],[14.8205,37.6168],[14.8223,37.6386],[14.7931,37.6539],[14.7985,37.7138],[14.7527,37.6875],[14.7251,37.6825],[14.7178,37.7271],[14.707,37.7327],[14.7169,37.7683],[14.7452,37.7907],[14.7429,37.8192],[14.7282,37.8171],[14.705,37.8132],[14.6856,37.7977],[14.6812,37.7965],[14.6438,37.8085],[14.6168,37.8068],[14.5721,37.834],[14.5576,37.8793],[14.5057,37.8519],[14.4656,37.8412],[14.407,37.8675],[14.391,37.8537],[14.3274,37.8388],[14.2807,37.8412],[14.263,37.8215],[14.2696,37.7766],[14.2955,37.7485],[14.28,37.7252],[14.2692,37.7057],[14.2172,37.6788],[14.1764,37.6778],[14.1597,37.6626],[14.1642,37.6383],[14.1357,37.6178],[14.1651,37.6133],[14.1612,37.5988],[14.16,37.5868],[14.1392,37.5819],[14.1333,37.534],[14.1549,37.4849],[14.0607,37.4108],[14.0789,37.3809],[14.0842,37.3405],[14.0915,37.3377],[14.1107,37.336],[14.1276,37.34],[14.1679,37.3251],[14.1947,37.3329]]],[[[14.0901,37.5469],[14.1071,37.5409],[14.1045,37.5504],[14.0901,37.5469]]]]},"properties":{"GID_0":"ITA","GID_1":"ITA.15_1","GID_2":"ITA.15.4_1","NAME_1":"Sicily","NAME_2":"Enna"}},
{"type":"Feature","geometry":{"type":"MultiPolygon","coordinates":[[[[15.0029,37.8989],[15.0432,37.8949],[15.1124,37.9072],[15.1543,37.8962],[15.2212,37.8518],[15.2466,37.8099],[15.3015,37.8524],[15.3051,37.8774],[15.4407,38.0243],[15.4768,38.0537],[15.5224,38.1301],[15.5626,38.1838],[15.5724,38.2349],[15.6057,38.2746],[15.5504,38.301],[15.5212,38.2985],[15.4529,38.2529],[15.3507,38.2163],[15.2879,38.2062],[15.2285,38.2088],[15.1718,38.1512],[15.0904,38.1199],[15.0554,38.1329],[15.0454,38.1521],[14.969,38.1526],[14.9151,38.1926],[14.8879,38.1712],[14.7921,38.1524],[14.7463,38.1654],[14.6838,38.104],[14.6307,38.0704],[14.5562,38.0601],[14.5338,38.0451],[14.4737,38.0329],[14.4235,38.0401],[14.3963,38.0232],[14.3424,38.0196],[14.3096,38.0082],[14.2287,38.0104],[14.1842,38.0199],[14.2149,37.973],[14.2541,37.9358],[14.2536,37.9181],[14.2858,37.9107],[14.2752,37.9054],[14.2807,37.8412],[14.3274,37.8388],[14.391,37.8537],[14.407,37.8675],[14.4656,37.8412],[14.5057,37.8519],[14.5576,37.8793],[14.5721,37.834],[14.6168,37.8068],[14.6438,37.8085],[14.6645,37.801],[14.6824,37.7965],[14.6906,37.8013],[14.705,37.8132],[14.7282,37.8171],[14.7628,37.824],[14.7737,37.8134],[14.8032,37.8175],[14.7918,37.8378],[14.7895,37.854],[14.7593,37.8695],[14.7632,37.9346],[14.802,37.9544],[14.8574,37.9279],[14.9299,37.962],[14.9564,37.9125],[14.9795,37.9081],[15.0029,37.8989]]],[[[14.8446,38.5387],[14.8721,38.5371],[14.8737,38.5815],[14.8062,38.5829],[14.7957,38.561],[14.8446,38.5387]]],[[[14.9615,38.4321],[14.936,38.404],[14.9763,38.3685],[14.9979,38.3965],[14.9615,38.4321]]],[[[14.9615,38.5229],[14.9049,38.5124],[14.8985,38.4782],[14.9329,38.4607],[14.9632,38.4901],[14.9615,38.5229]]]]},"properties":{"GID_0":"ITA","GID_1":"ITA.15_1","GID_2":"ITA.15.5_1","NAME_1":"Sicily","NAME_2":"Messina"}},
{"type":"Feature","geometry":{"type":"MultiPolygon","coordinates":[[[[13.4467,37.6596],[13.4578,37.6615],[13.5124,37.6603],[13.5494,37.6405],[13.5883,37.6516],[13.6575,37.6598],[13.67,37.671],[13.6728,37.6899],[13.6962,37.696],[13.7333,37.6841],[13.8026,37.7438],[13.8146,37.7058],[13.8642,37.6908],[13.9052,37.6586],[13.904,37.6316],[13.9224,37.6101],[13.9573,37.5867],[13.9912,37.5967],[14.0138,37.5976],[14.0281,37.6035],[14.0259,37.633],[14.0575,37.6492],[14.1357,37.6178],[14.1642,37.6383],[14.1597,37.6626],[14.1764,37.6778],[14.2172,37.6788],[14.2692,37.7057],[14.28,37.7252],[14.2955,37.7485],[14.2696,37.7766],[14.263,37.8215],[14.2807,37.8412],[14.2752,37.9054],[14.2858,37.9107],[14.2536,37.9181],[14.2541,37.9358],[14.2149,37.973],[14.1842,38.0199],[14.1543,38.0246],[14.1071,38.0149],[14.064,38.019],[14.0215,38.0421],[13.941,38.0246],[13.8604,37.9901],[13.7985,37.9751],[13.7451,37.9701],[13.6201,38.0115],[13.5407,38.0582],[13.5401,38.0968],[13.5065,38.1201],[13.4904,38.1018],[13.4126,38.0982],[13.3726,38.1229],[13.366,38.1826],[13.3324,38.1971],[13.3182,38.2251],[13.2335,38.1824],[13.1643,38.1707],[13.1046,38.1915],[13.056,38.1318],[13.0779,38.0882],[12.9785,38.041],[13.0045,37.9928],[13.0337,37.9707],[13.0477,37.9403],[13.0381,37.9143],[13.0175,37.9016],[12.9349,37.8995],[12.9365,37.8836],[12.9593,37.8659],[12.9436,37.846],[12.9729,37.8254],[13.0954,37.8096],[13.0639,37.7583],[13.0128,37.7438],[13.0805,37.6949],[13.1244,37.7026],[13.149,37.6884],[13.1885,37.6928],[13.2146,37.6754],[13.2132,37.6416],[13.2547,37.6193],[13.2765,37.6483],[13.3013,37.6401],[13.3285,37.6635],[13.349,37.6581],[13.326,37.625],[13.3214,37.5892],[13.3669,37.5472],[13.3998,37.5576],[13.4046,37.5706],[13.403,37.5724],[13.3922,37.574],[13.3825,37.593],[13.3873,37.6131],[13.399,37.6173],[13.3909,37.6313],[13.3957,37.6607],[13.4271,37.6443],[13.4467,37.6596]],[[14.0864,37.6778],[14.0628,37.6759],[14.0507,37.6692],[14.0332,37.6566],[14.0187,37.6585],[14.0069,37.673],[14.03,37.7055],[14.0442,37.727],[14.0899,37.7087],[14.0914,37.6987],[14.0864,37.6778]]],[[[13.184,37.6364],[13.146,37.6447],[13.1469,37.6326],[13.1463,37.6271],[13.1596,37.6271],[13.184,37.6364]]]]},"properties":{"GID_0":"ITA","GID_1":"ITA.15_1","GID_2":"ITA.15.6_1","NAME_1":"Sicily","NAME_2":"Palermo"}},
{"type":"Feature","geometry":{"type":"Polygon","coordinates":[[[14.3554,37.0053],[14.3793,36.961],[14.4449,36.8688],[14.4571,36.8193],[14.4929,36.7863],[14.5565,36.7824],[14.631,36.7651],[14.6876,36.7215],[14.7468,36.7204],[14.7957,36.706],[14.8529,36.7296],[14.9132,36.7232],[14.956,36.6935],[15.0013,36.7026],[14.9859,36.7819],[14.9543,36.8045],[14.8912,36.8252],[14.8551,36.8288],[14.8699,36.8703],[14.9239,36.8492],[14.9393,36.8648],[14.8847,36.8999],[14.8782,36.9157],[14.9059,36.9412],[14.8872,36.9909],[14.8543,37.0363],[14.8191,37.0546],[14.823,37.0922],[14.8111,37.1125],[14.7967,37.1145],[14.7953,37.1169],[14.7761,37.1406],[14.7833,37.1212],[14.7662,37.1004],[14.7257,37.1031],[14.7038,37.1191],[14.61,37.0897],[14.5947,37.0756],[14.5771,37.0591],[14.5514,37.0573],[14.5209,37.0728],[14.4717,37.0516],[14.4479,37.0577],[14.4387,37.0471],[14.414,37.0312],[14.3554,37.0053]]]},"properties":{"GID_0":"ITA","GID_1":"ITA.15_1","GID_2":"ITA.15.7_1","NAME_1":"Sicily","NAME_2":"Ragusa"}},
{"type":"Feature","geometry":{"type":"Polygon","coordinates":[[[15.0013,36.7026],[15.0432,36.6885],[15.0535,36.6626],[15.0807,36.6496],[15.1326,36.6696],[15.1226,36.7335],[15.1015,36.7615],[15.0943,36.7976],[15.1068,36.8404],[15.1376,36.8671],[15.1585,36.9196],[15.2057,36.9607],[15.2618,36.9743],[15.2679,37.0024],[15.3013,37.0151],[15.269,37.0546],[15.2993,37.059],[15.2965,37.106],[15.2626,37.1063],[15.2204,37.1293],[15.1824,37.2065],[15.1901,37.2349],[15.2304,37.244],[15.241,37.2613],[15.2093,37.2915],[15.1626,37.2885],[15.1343,37.3101],[15.099,37.3171],[15.0904,37.3597],[15.0332,37.3724],[14.9831,37.3749],[14.944,37.4056],[14.9169,37.4138],[14.8882,37.4089],[14.8436,37.38],[14.8393,37.3589],[14.7889,37.3397],[14.7801,37.3256],[14.8053,37.3167],[14.8423,37.3259],[14.8676,37.3173],[14.8862,37.302],[14.8482,37.2611],[14.8119,37.2577],[14.7742,37.2232],[14.8206,37.2093],[14.872,37.2059],[14.8707,37.1869],[14.8353,37.1638],[14.8476,37.1411],[14.8374,37.1256],[14.8091,37.1272],[14.7953,37.1169],[14.7967,37.1145],[14.8111,37.1125],[14.823,37.0922],[14.8191,37.0546],[14.8543,37.0363],[14.8872,36.9909],[14.9059,36.9412],[14.8782,36.9157],[14.8847,36.8999],[14.9393,36.8648],[14.9239,36.8492],[14.8699,36.8703],[14.8551,36.8288],[14.8912,36.8252],[14.9543,36.8045],[14.9859,36.7819],[15.0013,36.7026]]]},"properties":{"GID_0":"ITA","GID_1":"ITA.15_1","GID_2":"ITA.15.8_1","NAME_1":"Sicily","NAME_2":"Syracuse"}},
{"type":"Feature","geometry":{"type":"MultiPolygon","coordinates":[[[[11.9565,36.8396],[11.9274,36.8265],[11.9268,36.8015],[11.9687,36.7668],[11.9807,36.7454],[12.0246,36.7343],[12.0551,36.7618],[12.0515,36.8001],[11.9565,36.8396]]],[[[12.9785,38.041],[12.8949,38.024],[12.829,38.0651],[12.7901,38.1101],[12.791,38.1363],[12.7682,38.1804],[12.7154,38.1785],[12.7374,38.1399],[12.7115,38.1104],[12.6607,38.1126],[12.6629,38.0935],[12.6104,38.0654],[12.5782,38.0704],[12.5215,38.0235],[12.536,37.9904],[12.4938,37.9768],[12.4879,37.9435],[12.466,37.914],[12.484,37.8579],[12.4649,37.8479],[12.4638,37.8168],[12.444,37.7876],[12.4738,37.7346],[12.471,37.7054],[12.5193,37.6601],[12.5643,37.6618],[12.614,37.636],[12.629,37.6012],[12.6729,37.5596],[12.7807,37.581],[12.8962,37.5771],[12.9046,37.5876],[12.9157,37.6378],[12.891,37.6417],[12.8878,37.6447],[12.9186,37.6904],[12.9573,37.7262],[13.0081,37.741],[13.0128,37.7438],[13.0639,37.7583],[13.0954,37.8096],[12.9729,37.8254],[12.9436,37.846],[12.9593,37.8659],[12.9365,37.8836],[12.9349,37.8995],[13.0175,37.9016],[13.0381,37.9143],[13.0477,37.9403],[13.0337,37.9707],[13.0045,37.9928],[12.9785,38.041]]],[[[12.309,37.9526],[12.2751,37.9401],[12.2863,37.9149],[12.3346,37.9193],[12.309,37.9526]]]]},"properties":{"GID_0":"ITA","GID_1":"ITA.15_1","GID_2":"ITA.15.9_1","NAME_1":"Sicily","NAME_2":"Trapani"}}
]}