{"type":"FeatureCollection", "features": [
{"type":"Feature","geometry":{"type":"Polygon","coordinates":[[[40.1633,53.0027],[40.127,53.192],[40.1957,53.3167],[40.0009,53.3884],[39.9085,53.5284],[39.7669,53.5724],[39.5866,53.5065],[39.5615,53.4241],[39.7287,53.3679],[39.7549,53.1527],[39.7113,53.0535],[39.8061,53.089],[40.1633,53.0027]]]},"properties":{"GID_0":"RUS","GID_1":"RUS.39_1","GID_2":"RUS.39.1_1","NAME_1":"Lipetsk","NAME_2":"Chaplyginskiyrayon"}},
{"type":"Feature","geometry":{"type":"Polygon","coordinates":[[[39.1602,53.2375],[39.151,53.2446],[39.1481,53.2377],[39.1602,53.2375]]]},"properties":{"GID_0":"RUS","GID_1":"RUS.39_1","GID_2":"RUS.39.2_1","NAME_1":"Lipetsk","NAME_2":"Dankov"}},
{"type":"Feature","geometry":{"type":"Polygon","coordinates":[[[39.2108,53.1471],[39.3148,53.1987],[39.4799,53.4119],[39.2026,53.3821],[39.0325,53.5635],[38.7274,53.4927],[38.8227,53.3696],[38.5372,53.3202],[38.6937,53.1298],[38.862,53.1119],[39.0975,53.0312],[39.2108,53.1471]],[[39.1602,53.2375],[39.1481,53.2377],[39.151,53.2446],[39.1602,53.2375]]]},"properties":{"GID_0":"RUS","GID_1":"RUS.39_1","GID_2":"RUS.39.3_1","NAME_1":"Lipetsk","NAME_2":"Dankovskiyrayon"}},
{"type":"Feature","geometry":{"type":"Polygon","coordinates":[[[40.1385,52.2152],[40.2012,52.1524],[40.1705,51.9526],[40.6067,51.9359],[40.6995,52.1336],[40.8192,52.1965],[40.6001,52.3268],[40.3808,52.3744],[40.3134,52.462],[40.2555,52.2999],[40.1385,52.2152]]]},"properties":{"GID_0":"RUS","GID_1":"RUS.39_1","GID_2":"RUS.39.4_1","NAME_1":"Lipetsk","NAME_2":"Dobrinskiyrayon"}},
{"type":"Feature","geometry":{"type":"Polygon","coordinates":[[[39.7113,53.0535],[39.6287,52.9757],[39.4256,52.7662],[39.6659,52.8223],[39.7844,52.6885],[39.7693,52.6546],[39.8057,52.6629],[39.875,52.6987],[40.0094,52.7277],[40.1816,52.8007],[40.1145,52.8905],[40.1633,53.0027],[39.8061,53.089],[39.7113,53.0535]]]},"properties":{"GID_0":"RUS","GID_1":"RUS.39_1","GID_2":"RUS.39.5_1","NAME_1":"Lipetsk","NAME_2":"Dobrovskiyrayon"}},
{"type":"Feature","geometry":{"type":"Polygon","coordinates":[[[38.1843,52.484],[38.0212,52.4148],[38.0873,52.3456],[38.0145,52.2472],[38.4129,52.2701],[38.4348,52.2172],[38.6924,52.1801],[38.7437,52.2173],[38.7065,52.3816],[38.3972,52.4214],[38.3463,52.4925],[38.1843,52.484]]]},"properties":{"GID_0":"RUS","GID_1":"RUS.39_1","GID_2":"RUS.39.6_1","NAME_1":"Lipetsk","NAME_2":"Dolgorukovskiyrayon"}},
{"type":"Feature","geometry":{"type":"Polygon","coordinates":[[[38.6416,52.6174],[38.5274,52.6326],[38.5163,52.5734],[38.6416,52.6174]]]},"properties":{"GID_0":"RUS","GID_1":"RUS.39_1","GID_2":"RUS.39.7_1","NAME_1":"Lipetsk","NAME_2":"Elets"}},
{"type":"Feature","geometry":{"type":"Polygon","coordinates":[[[38.7065,52.3816],[38.814,52.4872],[38.8212,52.585],[38.9785,52.6312],[38.9657,52.6568],[38.624,52.7996],[38.3674,52.6427],[38.2436,52.6794],[38.2476,52.6639],[38.3008,52.5534],[38.1843,52.484],[38.3463,52.4925],[38.3972,52.4214],[38.7065,52.3816]],[[38.6416,52.6174],[38.5163,52.5734],[38.5274,52.6326],[38.6416,52.6174]]]},"properties":{"GID_0":"RUS","GID_1":"RUS.39_1","GID_2":"RUS.39.8_1","NAME_1":"Lipetsk","NAME_2":"Eletskiyrayon"}},
{"type":"Feature","geometry":{"type":"Polygon","coordinates":[[[39.961,52.477],[39.9695,52.4811],[39.9616,52.4877],[39.9521,52.484],[39.961,52.477]]]},"properties":{"GID_0":"RUS","GID_1":"RUS.39_1","GID_2":"RUS.39.9_1","NAME_1":"Lipetsk","NAME_2":"Gryazi"}},
{"type":"Feature","geometry":{"type":"Polygon","coordinates":[[[40.3134,52.462],[40.1171,52.5376],[40.0094,52.7277],[39.875,52.6987],[39.8057,52.6629],[39.7693,52.6546],[39.7601,52.6305],[39.7277,52.5512],[39.5241,52.3198],[39.8934,52.337],[40.1385,52.2152],[40.2555,52.2999],[40.3134,52.462]],[[39.961,52.477],[39.9521,52.484],[39.9616,52.4877],[39.9695,52.4811],[39.961,52.477]]]},"properties":{"GID_0":"RUS","GID_1":"RUS.39_1","GID_2":"RUS.39.10_1","NAME_1":"Lipetsk","NAME_2":"Gryazinskiyrayon"}},
{"type":"Feature","geometry":{"type":"Polygon","coordinates":[[[38.1843,52.484],[38.3008,52.5534],[38.2476,52.6639],[38.2343,52.6976],[38.1209,52.7234],[38.1332,52.8279],[37.9779,52.9232],[37.8721,52.9084],[37.8872,52.7706],[37.7869,52.6109],[38.0212,52.4148],[38.1843,52.484]]]},"properties":{"GID_0":"RUS","GID_1":"RUS.39_1","GID_2":"RUS.39.11_1","NAME_1":"Lipetsk","NAME_2":"Izmalkovskiyrayon"}},
{"type":"Feature","geometry":{"type":"Polygon","coordinates":[[[38.8683,52.1007],[39.0475,51.9869],[39.2223,52.0896],[39.4781,52.0746],[39.4965,52.2041],[39.5029,52.2285],[39.2584,52.3114],[39.0303,52.1895],[38.8456,52.142],[38.8725,52.1338],[38.8683,52.1007]]]},"properties":{"GID_0":"RUS","GID_1":"RUS.39_1","GID_2":"RUS.39.12_1","NAME_1":"Lipetsk","NAME_2":"Khlevenskiyrayon"}},
{"type":"Feature","geometry":{"type":"Polygon","coordinates":[[[38.9657,52.6568],[38.9588,52.6732],[39.0168,52.8294],[38.9019,53.0094],[38.6668,53.0558],[38.469,52.9983],[38.624,52.7996],[38.9657,52.6568]]]},"properties":{"GID_0":"RUS","GID_1":"RUS.39_1","GID_2":"RUS.39.13_1","NAME_1":"Lipetsk","NAME_2":"Krasninskiyrayon"}},
{"type":"Feature","geometry":{"type":"Polygon","coordinates":[[[38.6937,53.1298],[38.6668,53.0558],[38.9019,53.0094],[39.0168,52.8294],[39.1382,52.7472],[39.2623,52.717],[39.4256,52.7662],[39.6287,52.9757],[39.5184,53.1184],[39.326,53.0781],[39.2108,53.1471],[39.0975,53.0312],[38.862,53.1119],[38.6937,53.1298]]]},"properties":{"GID_0":"RUS","GID_1":"RUS.39_1","GID_2":"RUS.39.14_1","NAME_1":"Lipetsk","NAME_2":"Lebedyanskiyrayon"}},
{"type":"Feature","geometry":{"type":"Polygon","coordinates":[[[39.5615,53.4241],[39.4799,53.4119],[39.3148,53.1987],[39.2108,53.1471],[39.326,53.0781],[39.5184,53.1184],[39.6287,52.9757],[39.7113,53.0535],[39.7549,53.1527],[39.7287,53.3679],[39.5615,53.4241]]]},"properties":{"GID_0":"RUS","GID_1":"RUS.39_1","GID_2":"RUS.39.15_1","NAME_1":"Lipetsk","NAME_2":"Lev-Tolstovskiyrayon"}},
{"type":"Feature","geometry":{"type":"Polygon","coordinates":[[[39.6641,52.5488],[39.584,52.6758],[39.4367,52.6135],[39.6641,52.5488]]]},"properties":{"GID_0":"RUS","GID_1":"RUS.39_1","GID_2":"RUS.39.16_1","NAME_1":"Lipetsk","NAME_2":"Lipetsk"}},
{"type":"Feature","geometry":{"type":"Polygon","coordinates":[[[39.4256,52.7662],[39.2623,52.717],[39.1382,52.7472],[39.0756,52.6835],[39.115,52.5156],[39.2127,52.4571],[39.2584,52.3114],[39.5029,52.2285],[39.5095,52.2511],[39.5241,52.3198],[39.7277,52.5512],[39.7601,52.6305],[39.7844,52.6885],[39.6659,52.8223],[39.4256,52.7662]],[[39.6641,52.5488],[39.4367,52.6135],[39.584,52.6758],[39.6641,52.5488]]]},"properties":{"GID_0":"RUS","GID_1":"RUS.39_1","GID_2":"RUS.39.17_1","NAME_1":"Lipetsk","NAME_2":"Lipetskiyrayon"}},
{"type":"Feature","geometry":{"type":"Polygon","coordinates":[[[38.624,52.7996],[38.469,52.9983],[38.2781,53.0544],[37.9084,53.067],[37.8721,52.9084],[37.9779,52.9232],[38.1332,52.8279],[38.1209,52.7234],[38.2343,52.6976],[38.2436,52.6794],[38.3674,52.6427],[38.624,52.7996]]]},"properties":{"GID_0":"RUS","GID_1":"RUS.39_1","GID_2":"RUS.39.18_1","NAME_1":"Lipetsk","NAME_2":"Stanovlyanskiyrayon"}},
{"type":"Feature","geometry":{"type":"Polygon","coordinates":[[[38.1581,51.9383],[38.2506,51.9244],[38.7303,52.1014],[38.8683,52.1007],[38.8725,52.1338],[38.8139,52.15],[38.6924,52.1801],[38.4348,52.2172],[38.4129,52.2701],[38.0145,52.2472],[38.1759,52.0491],[38.1581,51.9383]]]},"properties":{"GID_0":"RUS","GID_1":"RUS.39_1","GID_2":"RUS.39.19_1","NAME_1":"Lipetsk","NAME_2":"Terbunskiyrayon"}},
{"type":"Feature","geometry":{"type":"Polygon","coordinates":[[[40.1385,52.2152],[39.8934,52.337],[39.5241,52.3198],[39.5095,52.2511],[39.4965,52.2041],[39.4781,52.0746],[39.5936,51.9517],[39.7922,51.9054],[40.1705,51.9526],[40.2012,52.1524],[40.1385,52.2152]]]},"properties":{"GID_0":"RUS","GID_1":"RUS.39_1","GID_2":"RUS.39.20_1","NAME_1":"Lipetsk","NAME_2":"Usmanskiyrayon"}},
{"type":"Feature","geometry":{"type":"Polygon","coordinates":[[[38.1581,51.9383],[38.1759,52.0491],[38.0145,52.2472],[37.7575,52.1555],[37.8436,51.9555],[38.0035,51.9126],[38.1581,51.9383]]]},"properties":{"GID_0":"RUS","GID_1":"RUS.39_1","GID_2":"RUS.39.21_1","NAME_1":"Lipetsk","NAME_2":"Volovskiyrayon"}},
{"type":"Feature","geometry":{"type":"Polygon","coordinates":[[[38.6924,52.1801],[38.8139,52.15],[38.8456,52.142],[39.0303,52.1895],[39.2584,52.3114],[39.2127,52.4571],[39.115,52.5156],[39.0756,52.6835],[39.1382,52.7472],[39.0168,52.8294],[38.9588,52.6732],[38.9785,52.6312],[38.8212,52.585],[38.814,52.4872],[38.7065,52.3816],[38.7437,52.2173],[38.6924,52.1801]]]},"properties":{"GID_0":"RUS","GID_1":"RUS.39_1","GID_2":"RUS.39.22_1","NAME_1":"Lipetsk","NAME_2":"Zadonskiyrayon"}}
]}