{"type":"FeatureCollection", "features": [
{"type":"Feature","geometry":{"type":"Polygon","coordinates":[[[42.0485,44.2128],[42.1906,44.3225],[42.0306,44.4656],[41.9217,44.4735],[41.6994,44.3498],[41.8126,44.2479],[42.0485,44.2128]],[[42.1629,44.3195],[42.0397,44.2204],[42.0714,44.3533],[42.1629,44.3195]]]},"properties":{"GID_0":"RUS","GID_1":"RUS.25_1","GID_2":"RUS.25.1_1","NAME_1":"Karachay-Cherkess","NAME_2":"Adyge-Khabl'skiyrayon"}},
{"type":"Feature","geometry":{"type":"Polygon","coordinates":[[[42.1629,44.3195],[42.0714,44.3533],[42.0397,44.2204],[42.1629,44.3195]]]},"properties":{"GID_0":"RUS","GID_1":"RUS.25_1","GID_2":"RUS.25.2_1","NAME_1":"Karachay-Cherkess","NAME_2":"Cherkessk"}},
{"type":"Feature","geometry":{"type":"Polygon","coordinates":[[[42.0077,43.7622],[41.952,43.753],[41.9626,43.7168],[42.0077,43.7622]]]},"properties":{"GID_0":"RUS","GID_1":"RUS.25_1","GID_2":"RUS.25.3_1","NAME_1":"Karachay-Cherkess","NAME_2":"Karachayevsk"}},
{"type":"Feature","geometry":{"type":"Polygon","coordinates":[[[41.4969,43.2819],[41.8147,43.2038],[42.2885,43.2084],[42.5385,43.3029],[42.5228,43.3594],[42.5365,43.6044],[42.4243,43.7309],[42.2112,43.7746],[42.1823,43.8277],[41.9559,43.8815],[41.8849,43.6371],[41.7425,43.5064],[41.655,43.4953],[41.4969,43.2819]],[[42.0077,43.7622],[41.9626,43.7168],[41.952,43.753],[42.0077,43.7622]]]},"properties":{"GID_0":"RUS","GID_1":"RUS.25_1","GID_2":"RUS.25.4_1","NAME_1":"Karachay-Cherkess","NAME_2":"Karachayevskiyrayon"}},
{"type":"Feature","geometry":{"type":"Polygon","coordinates":[[[41.8126,44.2479],[41.7906,44.1545],[41.8476,44.0455],[41.6845,43.9133],[41.8682,43.849],[41.9559,43.8815],[41.9495,44.0011],[42.0476,44.0744],[42.0485,44.2128],[41.8126,44.2479]]]},"properties":{"GID_0":"RUS","GID_1":"RUS.25_1","GID_2":"RUS.25.5_1","NAME_1":"Karachay-Cherkess","NAME_2":"Khabezskiyrayon"}},
{"type":"Feature","geometry":{"type":"Polygon","coordinates":[[[42.7685,43.8661],[42.7248,43.9211],[42.6822,43.8701],[42.7685,43.8661]]]},"properties":{"GID_0":"RUS","GID_1":"RUS.25_1","GID_2":"RUS.25.6_1","NAME_1":"Karachay-Cherkess","NAME_2":"Kislovodsk"}},
{"type":"Feature","geometry":{"type":"Polygon","coordinates":[[[42.5228,43.3594],[42.5858,43.5389],[42.8528,43.6655],[42.8093,43.8769],[42.7333,43.97],[42.5783,43.9145],[42.4573,43.9788],[42.4975,43.7776],[42.4243,43.7309],[42.5365,43.6044],[42.5228,43.3594]],[[42.7685,43.8661],[42.6822,43.8701],[42.7248,43.9211],[42.7685,43.8661]]]},"properties":{"GID_0":"RUS","GID_1":"RUS.25_1","GID_2":"RUS.25.7_1","NAME_1":"Karachay-Cherkess","NAME_2":"Malokarachayevskiyrayon"}},
{"type":"Feature","geometry":{"type":"Polygon","coordinates":[[[42.0485,44.2128],[42.0476,44.0744],[42.176,44.0982],[42.4574,44.0472],[42.6159,44.144],[42.4571,44.3007],[42.1906,44.3225],[42.0485,44.2128]]]},"properties":{"GID_0":"RUS","GID_1":"RUS.25_1","GID_2":"RUS.25.8_1","NAME_1":"Karachay-Cherkess","NAME_2":"Prikubanskiyrayon"}},
{"type":"Feature","geometry":{"type":"Polygon","coordinates":[[[41.4442,43.9623],[41.3788,44.0471],[41.0216,44.1173],[40.9524,43.9765],[40.8191,43.9114],[40.7238,43.7308],[40.7162,43.5309],[40.8791,43.4851],[41.0616,43.3823],[41.1952,43.6081],[41.3375,43.601],[41.2853,43.8768],[41.4442,43.9623]]]},"properties":{"GID_0":"RUS","GID_1":"RUS.25_1","GID_2":"RUS.25.9_1","NAME_1":"Karachay-Cherkess","NAME_2":"Urupskiyrayon"}},
{"type":"Feature","geometry":{"type":"Polygon","coordinates":[[[42.4243,43.7309],[42.4975,43.7776],[42.4573,43.9788],[42.4574,44.0472],[42.176,44.0982],[42.0476,44.0744],[41.9495,44.0011],[41.9559,43.8815],[42.1823,43.8277],[42.2112,43.7746],[42.4243,43.7309]]]},"properties":{"GID_0":"RUS","GID_1":"RUS.25_1","GID_2":"RUS.25.10_1","NAME_1":"Karachay-Cherkess","NAME_2":"Ust'-Dzhegutinskiyrayon"}},
{"type":"Feature","geometry":{"type":"Polygon","coordinates":[[[41.4969,43.2819],[41.655,43.4953],[41.7425,43.5064],[41.8849,43.6371],[41.9559,43.8815],[41.8682,43.849],[41.6845,43.9133],[41.8476,44.0455],[41.7906,44.1545],[41.6338,44.0553],[41.5556,43.9467],[41.4442,43.9623],[41.2853,43.8768],[41.3375,43.601],[41.1952,43.6081],[41.0616,43.3823],[41.1392,43.3946],[41.4969,43.2819]]]},"properties":{"GID_0":"RUS","GID_1":"RUS.25_1","GID_2":"RUS.25.11_1","NAME_1":"Karachay-Cherkess","NAME_2":"Zelenchukskiyrayon"}}
]}