{"type":"FeatureCollection", "features": [
{"type":"Feature","geometry":{"type":"Polygon","coordinates":[[[34.9358,52.5033],[35.0503,52.6984],[34.8365,52.8222],[34.729,52.8032],[34.6121,52.6953],[34.4696,52.7052],[34.3735,52.6437],[34.2491,52.4679],[34.5758,52.5404],[34.8301,52.5395],[34.9358,52.5033]]]},"properties":{"GID_0":"RUS","GID_1":"RUS.8_1","GID_2":"RUS.8.1_1","NAME_1":"Bryansk","NAME_2":"Brasovskiyrayon"}},
{"type":"Feature","geometry":{"type":"Polygon","coordinates":[[[34.5178,53.2085],[34.3789,53.354],[34.278,53.2896],[34.4235,53.1972],[34.5178,53.2085]]]},"properties":{"GID_0":"RUS","GID_1":"RUS.8_1","GID_2":"RUS.8.2_1","NAME_1":"Bryansk","NAME_2":"Bryansk"}},
{"type":"Feature","geometry":{"type":"Polygon","coordinates":[[[35.0386,53.3258],[34.7193,53.3992],[34.53,53.4673],[34.3743,53.4344],[34.0262,53.5477],[33.9512,53.3453],[33.7216,53.3155],[33.8463,53.2817],[34.1264,53.2651],[34.3016,53.0819],[34.5613,53.1635],[34.6491,53.1549],[35.0386,53.3258]],[[34.5178,53.2085],[34.4235,53.1972],[34.278,53.2896],[34.3789,53.354],[34.5178,53.2085]]]},"properties":{"GID_0":"RUS","GID_1":"RUS.8_1","GID_2":"RUS.8.3_1","NAME_1":"Bryansk","NAME_2":"Bryanskiyrayon"}},
{"type":"Feature","geometry":{"type":"Polygon","coordinates":[[[33.3976,53.4845],[33.7938,53.6981],[33.3566,53.8158],[33.2375,53.7903],[33.0647,53.6281],[33.3446,53.6316],[33.3976,53.4845]]]},"properties":{"GID_0":"RUS","GID_1":"RUS.8_1","GID_2":"RUS.8.4_1","NAME_1":"Bryansk","NAME_2":"Dubrovskiyrayon"}},
{"type":"Feature","geometry":{"type":"Polygon","coordinates":[[[34.3765,53.5926],[34.3712,53.5982],[34.3671,53.5921],[34.3765,53.5926]]]},"properties":{"GID_0":"RUS","GID_1":"RUS.8_1","GID_2":"RUS.8.5_1","NAME_1":"Bryansk","NAME_2":"Dyat'kovo"}},
{"type":"Feature","geometry":{"type":"Polygon","coordinates":[[[34.53,53.4673],[34.5095,53.683],[34.2299,53.8696],[33.9521,53.8518],[33.902,53.8049],[34.0083,53.7096],[34.0262,53.5477],[34.3743,53.4344],[34.53,53.4673]],[[34.3765,53.5926],[34.3671,53.5921],[34.3712,53.5982],[34.3765,53.5926]]]},"properties":{"GID_0":"RUS","GID_1":"RUS.8_1","GID_2":"RUS.8.6_1","NAME_1":"Bryansk","NAME_2":"Dyat'kovskiyrayon"}},
{"type":"Feature","geometry":{"type":"Polygon","coordinates":[[[31.7876,53.1866],[31.7764,52.9244],[31.7398,52.7469],[31.8384,52.7184],[31.9079,52.857],[32.0851,52.9528],[32.0544,53.0822],[31.8329,53.116],[31.7876,53.1866]]]},"properties":{"GID_0":"RUS","GID_1":"RUS.8_1","GID_2":"RUS.8.7_1","NAME_1":"Bryansk","NAME_2":"Gordeevskiyrayon"}},
{"type":"Feature","geometry":{"type":"Polygon","coordinates":[[[34.6491,53.1549],[34.5908,53.037],[34.7549,52.9262],[34.8634,52.9612],[35.0258,52.9496],[35.247,53.0266],[35.0386,53.3258],[34.6491,53.1549]]]},"properties":{"GID_0":"RUS","GID_1":"RUS.8_1","GID_2":"RUS.8.8_1","NAME_1":"Bryansk","NAME_2":"Karachevskiyrayon"}},
{"type":"Feature","geometry":{"type":"Polygon","coordinates":[[[32.74,53.3625],[32.9097,53.2878],[33.2063,53.1393],[33.2749,53.1659],[33.3929,53.2155],[33.403,53.3637],[33.515,53.3823],[33.3976,53.4845],[33.3446,53.6316],[33.0647,53.6281],[32.74,53.3625]]]},"properties":{"GID_0":"RUS","GID_1":"RUS.8_1","GID_2":"RUS.8.9_1","NAME_1":"Bryansk","NAME_2":"Kletnyanskiyrayon"}},
{"type":"Feature","geometry":{"type":"Polygon","coordinates":[[[31.7294,52.1889],[31.9235,52.0361],[32.0721,52.0228],[32.3512,52.139],[32.3587,52.3358],[32.4817,52.3459],[32.5602,52.4789],[32.4535,52.5403],[32.199,52.547],[32.0677,52.4828],[31.892,52.3566],[31.8488,52.261],[31.7294,52.1889]]]},"properties":{"GID_0":"RUS","GID_1":"RUS.8_1","GID_2":"RUS.8.10_1","NAME_1":"Bryansk","NAME_2":"Klimovskiyrayon"}},
{"type":"Feature","geometry":{"type":"Polygon","coordinates":[[[31.8384,52.7184],[31.998,52.6351],[32.0739,52.6743],[32.199,52.547],[32.4535,52.5403],[32.4798,52.6939],[32.3581,52.7291],[32.3431,52.885],[32.0851,52.9528],[31.9079,52.857],[31.8384,52.7184]],[[32.2619,52.7692],[32.2492,52.7706],[32.2552,52.7777],[32.2643,52.7742],[32.2619,52.7692]]]},"properties":{"GID_0":"RUS","GID_1":"RUS.8_1","GID_2":"RUS.8.11_1","NAME_1":"Bryansk","NAME_2":"Klintsovskiyrayon"}},
{"type":"Feature","geometry":{"type":"Polygon","coordinates":[[[32.2619,52.7692],[32.2643,52.7742],[32.2552,52.7777],[32.2492,52.7706],[32.2619,52.7692]]]},"properties":{"GID_0":"RUS","GID_1":"RUS.8_1","GID_2":"RUS.8.12_1","NAME_1":"Bryansk","NAME_2":"Klintsy"}},
{"type":"Feature","geometry":{"type":"Polygon","coordinates":[[[34.2491,52.4679],[34.4035,52.3546],[34.5219,52.3619],[34.6336,52.202],[34.7748,52.2168],[34.931,52.3695],[34.8394,52.4674],[34.9358,52.5033],[34.8301,52.5395],[34.5758,52.5404],[34.2491,52.4679]]]},"properties":{"GID_0":"RUS","GID_1":"RUS.8_1","GID_2":"RUS.8.13_1","NAME_1":"Bryansk","NAME_2":"Komarichskiyrayon"}},
{"type":"Feature","geometry":{"type":"Polygon","coordinates":[[[31.7876,53.1866],[31.641,53.2314],[31.429,53.1954],[31.3061,53.0281],[31.4144,52.8997],[31.6049,52.7478],[31.7398,52.7469],[31.7764,52.9244],[31.7876,53.1866]]]},"properties":{"GID_0":"RUS","GID_1":"RUS.8_1","GID_2":"RUS.8.14_1","NAME_1":"Bryansk","NAME_2":"Krasnogorskiyrayon"}},
{"type":"Feature","geometry":{"type":"Polygon","coordinates":[[[32.7561,53.3539],[32.6362,53.2626],[32.5844,53.0996],[32.6834,52.9942],[32.7684,53.0263],[32.9164,52.9573],[33.0234,53.0343],[33.1706,53.0567],[33.2063,53.1393],[32.9097,53.2878],[32.7561,53.3539]]]},"properties":{"GID_0":"RUS","GID_1":"RUS.8_1","GID_2":"RUS.8.15_1","NAME_1":"Bryansk","NAME_2":"Mglinskiyrayon"}},
{"type":"Feature","geometry":{"type":"Polygon","coordinates":[[[34.8365,52.8222],[34.7709,52.8888],[34.8634,52.9612],[34.7549,52.9262],[34.5908,53.037],[34.6491,53.1549],[34.5613,53.1635],[34.3016,53.0819],[34.0319,52.9162],[34.0223,52.8004],[34.1094,52.6663],[34.2274,52.6922],[34.3735,52.6437],[34.4696,52.7052],[34.6121,52.6953],[34.729,52.8032],[34.8365,52.8222]]]},"properties":{"GID_0":"RUS","GID_1":"RUS.8_1","GID_2":"RUS.8.16_1","NAME_1":"Bryansk","NAME_2":"Navlinskiyrayon"}},
{"type":"Feature","geometry":{"type":"Polygon","coordinates":[[[31.9706,52.526],[31.9656,52.5347],[31.9592,52.5312],[31.9706,52.526]]]},"properties":{"GID_0":"RUS","GID_1":"RUS.8_1","GID_2":"RUS.8.17_1","NAME_1":"Bryansk","NAME_2":"Novozybkov"}},
{"type":"Feature","geometry":{"type":"Polygon","coordinates":[[[31.6081,52.5757],[31.7131,52.5017],[32.0677,52.4828],[32.199,52.547],[32.0739,52.6743],[31.998,52.6351],[31.8384,52.7184],[31.7398,52.7469],[31.6049,52.7478],[31.5153,52.6893],[31.6081,52.5757]],[[31.9706,52.526],[31.9592,52.5312],[31.9656,52.5347],[31.9706,52.526]]]},"properties":{"GID_0":"RUS","GID_1":"RUS.8_1","GID_2":"RUS.8.18_1","NAME_1":"Bryansk","NAME_2":"Novozybkovskiyrayon"}},
{"type":"Feature","geometry":{"type":"Polygon","coordinates":[[[33.2063,53.1393],[33.1706,53.0567],[33.0234,53.0343],[33.1026,52.9693],[33.1696,52.7738],[33.2814,52.7748],[33.4499,52.6821],[33.6198,52.7349],[33.7741,52.9289],[33.8397,52.9872],[33.7201,53.1247],[33.7641,53.2116],[33.4621,53.1386],[33.2749,53.1659],[33.2063,53.1393]]]},"properties":{"GID_0":"RUS","GID_1":"RUS.8_1","GID_2":"RUS.8.19_1","NAME_1":"Bryansk","NAME_2":"Pochepskiyrayon"}},
{"type":"Feature","geometry":{"type":"Polygon","coordinates":[[[33.1696,52.7738],[33.0333,52.6806],[32.9815,52.559],[33.033,52.3005],[33.1842,52.3631],[33.3927,52.3598],[33.3409,52.4947],[33.4499,52.6821],[33.2814,52.7748],[33.1696,52.7738]]]},"properties":{"GID_0":"RUS","GID_1":"RUS.8_1","GID_2":"RUS.8.20_1","NAME_1":"Bryansk","NAME_2":"Pogarskiyrayon"}},
{"type":"Feature","geometry":{"type":"Polygon","coordinates":[[[33.7938,53.6981],[33.902,53.8049],[33.9521,53.8518],[33.8362,53.972],[33.7019,54.0204],[33.4567,53.9835],[33.2838,53.871],[33.3566,53.8158],[33.7938,53.6981]]]},"properties":{"GID_0":"RUS","GID_1":"RUS.8_1","GID_2":"RUS.8.21_1","NAME_1":"Bryansk","NAME_2":"Rognedinskiyrayon"}},
{"type":"Feature","geometry":{"type":"Polygon","coordinates":[[[34.4035,52.3546],[34.1752,52.2747],[34.2417,52.1815],[34.0962,52.1511],[34.0925,52.0153],[34.2978,51.9622],[34.323,52.0451],[34.448,52.1034],[34.5938,52.0851],[34.6336,52.202],[34.5219,52.3619],[34.4035,52.3546]]]},"properties":{"GID_0":"RUS","GID_1":"RUS.8_1","GID_2":"RUS.8.22_1","NAME_1":"Bryansk","NAME_2":"Sevskiyrayon"}},
{"type":"Feature","geometry":{"type":"Polygon","coordinates":[[[32.4817,52.3459],[32.7066,52.2531],[33.033,52.3005],[32.9815,52.559],[33.0333,52.6806],[33.1696,52.7738],[32.869,52.735],[32.6872,52.7707],[32.5914,52.6626],[32.4798,52.6939],[32.4535,52.5403],[32.5602,52.4789],[32.4817,52.3459]]]},"properties":{"GID_0":"RUS","GID_1":"RUS.8_1","GID_2":"RUS.8.23_1","NAME_1":"Bryansk","NAME_2":"Starodubskiyrayon"}},
{"type":"Feature","geometry":{"type":"Polygon","coordinates":[[[32.0544,53.0822],[32.0851,52.9528],[32.3431,52.885],[32.6834,52.9942],[32.5844,53.0996],[32.6362,53.2626],[32.7561,53.3539],[32.74,53.3625],[32.5298,53.2813],[32.4211,53.184],[32.1701,53.0868],[32.0544,53.0822]]]},"properties":{"GID_0":"RUS","GID_1":"RUS.8_1","GID_2":"RUS.8.24_1","NAME_1":"Bryansk","NAME_2":"Surazhskiyrayon"}},
{"type":"Feature","geometry":{"type":"Polygon","coordinates":[[[34.3735,52.6437],[34.2274,52.6922],[34.1094,52.6663],[34.1209,52.6466],[34.0723,52.4839],[33.7741,52.4756],[33.7252,52.3543],[34.0962,52.1511],[34.2417,52.1815],[34.1752,52.2747],[34.4035,52.3546],[34.2491,52.4679],[34.3735,52.6437]]]},"properties":{"GID_0":"RUS","GID_1":"RUS.8_1","GID_2":"RUS.8.25_1","NAME_1":"Bryansk","NAME_2":"Suzemskiyrayon"}},
{"type":"Feature","geometry":{"type":"Polygon","coordinates":[[[34.0319,52.9162],[33.7741,52.9289],[33.6198,52.7349],[33.4499,52.6821],[33.3409,52.4947],[33.3927,52.3598],[33.5051,52.3158],[33.7252,52.3543],[33.7741,52.4756],[34.0723,52.4839],[34.1209,52.6466],[34.0223,52.8004],[34.0319,52.9162]]]},"properties":{"GID_0":"RUS","GID_1":"RUS.8_1","GID_2":"RUS.8.26_1","NAME_1":"Bryansk","NAME_2":"Trubchevskiyrayon"}},
{"type":"Feature","geometry":{"type":"Polygon","coordinates":[[[32.4798,52.6939],[32.5914,52.6626],[32.6872,52.7707],[32.869,52.735],[33.1696,52.7738],[33.1026,52.9693],[33.0234,53.0343],[32.9164,52.9573],[32.7684,53.0263],[32.6834,52.9942],[32.3431,52.885],[32.3581,52.7291],[32.4798,52.6939]]]},"properties":{"GID_0":"RUS","GID_1":"RUS.8_1","GID_2":"RUS.8.27_1","NAME_1":"Bryansk","NAME_2":"Unechskiyrayon"}},
{"type":"Feature","geometry":{"type":"Polygon","coordinates":[[[33.8463,53.2817],[33.7641,53.2116],[33.7201,53.1247],[33.8397,52.9872],[33.7741,52.9289],[34.0319,52.9162],[34.3016,53.0819],[34.1264,53.2651],[33.8463,53.2817]]]},"properties":{"GID_0":"RUS","GID_1":"RUS.8_1","GID_2":"RUS.8.28_1","NAME_1":"Bryansk","NAME_2":"Vygonichskiyrayon"}},
{"type":"Feature","geometry":{"type":"Polygon","coordinates":[[[33.7216,53.3155],[33.6446,53.4002],[33.515,53.3823],[33.403,53.3637],[33.3929,53.2155],[33.2749,53.1659],[33.4621,53.1386],[33.7641,53.2116],[33.8463,53.2817],[33.7216,53.3155]]]},"properties":{"GID_0":"RUS","GID_1":"RUS.8_1","GID_2":"RUS.8.29_1","NAME_1":"Bryansk","NAME_2":"Zhiryatinskiyrayon"}},
{"type":"Feature","geometry":{"type":"Polygon","coordinates":[[[34.0262,53.5477],[34.0083,53.7096],[33.902,53.8049],[33.7938,53.6981],[33.3976,53.4845],[33.515,53.3823],[33.6446,53.4002],[33.7216,53.3155],[33.9512,53.3453],[34.0262,53.5477]]]},"properties":{"GID_0":"RUS","GID_1":"RUS.8_1","GID_2":"RUS.8.30_1","NAME_1":"Bryansk","NAME_2":"Zhukovskiyrayon"}},
{"type":"Feature","geometry":{"type":"Polygon","coordinates":[[[31.7294,52.1889],[31.8488,52.261],[31.892,52.3566],[32.0677,52.4828],[31.7131,52.5017],[31.6081,52.5757],[31.5946,52.3025],[31.7294,52.1889]]]},"properties":{"GID_0":"RUS","GID_1":"RUS.8_1","GID_2":"RUS.8.31_1","NAME_1":"Bryansk","NAME_2":"Zlynkovskiyrayon"}}
]}