{"type":"FeatureCollection", "features": [
{"type":"Feature","geometry":{"type":"Polygon","coordinates":[[[37.6445,55.7065],[37.6765,55.7079],[37.6965,55.7129],[37.7049,55.7116],[37.72,55.718],[37.7326,55.7228],[37.7061,55.7387],[37.7175,55.7466],[37.7244,55.7552],[37.7313,55.7535],[37.7469,55.7615],[37.7395,55.7679],[37.684,55.7756],[37.6681,55.784],[37.6674,55.7782],[37.6498,55.7719],[37.6217,55.7779],[37.6182,55.7664],[37.6097,55.7612],[37.5806,55.7584],[37.5637,55.7477],[37.558,55.7455],[37.5552,55.7469],[37.5474,55.7434],[37.5556,55.7322],[37.5741,55.7306],[37.5782,55.712],[37.5927,55.6953],[37.6104,55.6992],[37.6146,55.6962],[37.6445,55.7065]]]},"properties":{"GID_0":"RUS","GID_1":"RUS.43_1","GID_2":"RUS.43.1_1","NAME_1":"MoscowCity","NAME_2":"Central"}},
{"type":"Feature","geometry":{"type":"Polygon","coordinates":[[[37.8121,55.7156],[37.8854,55.6913],[37.9046,55.6822],[37.9599,55.694],[37.9667,55.7159],[37.9111,55.7098],[37.8771,55.7342],[37.8801,55.7648],[37.8727,55.8121],[37.768,55.8665],[37.7482,55.8343],[37.7036,55.8253],[37.7033,55.8108],[37.684,55.7756],[37.7395,55.7679],[37.7431,55.7658],[37.7539,55.7528],[37.7509,55.7425],[37.7702,55.7326],[37.8121,55.7156]]]},"properties":{"GID_0":"RUS","GID_1":"RUS.43_1","GID_2":"RUS.43.2_1","NAME_1":"MoscowCity","NAME_2":"Eastern"}},
{"type":"Feature","geometry":{"type":"Polygon","coordinates":[[[37.6681,55.784],[37.684,55.7756],[37.7033,55.8108],[37.7036,55.8253],[37.7482,55.8343],[37.768,55.8665],[37.7416,55.8797],[37.6757,55.8852],[37.5955,55.8973],[37.6064,55.9438],[37.5523,55.9289],[37.5724,55.8902],[37.5961,55.8806],[37.5992,55.8778],[37.6011,55.8651],[37.6167,55.7872],[37.6217,55.7779],[37.6498,55.7719],[37.6674,55.7782],[37.6681,55.784]]]},"properties":{"GID_0":"RUS","GID_1":"RUS.43_1","GID_2":"RUS.43.3_1","NAME_1":"MoscowCity","NAME_2":"North-Eastern"}},
{"type":"Feature","geometry":{"type":"Polygon","coordinates":[[[37.5237,55.7528],[37.5474,55.7434],[37.5552,55.7469],[37.5484,55.7524],[37.5404,55.7629],[37.5361,55.7787],[37.512,55.8121],[37.5116,55.8151],[37.4868,55.8559],[37.4702,55.8654],[37.4426,55.8658],[37.4136,55.8996],[37.4138,55.8616],[37.3655,55.8317],[37.4193,55.7909],[37.4004,55.7752],[37.4033,55.7717],[37.4024,55.7549],[37.4422,55.7608],[37.4847,55.7614],[37.5095,55.749],[37.5237,55.7528]]]},"properties":{"GID_0":"RUS","GID_1":"RUS.43_1","GID_2":"RUS.43.4_1","NAME_1":"MoscowCity","NAME_2":"North-Western"}},
{"type":"Feature","geometry":{"type":"MultiPolygon","coordinates":[[[[37.5361,55.7787],[37.5402,55.7634],[37.552,55.7489],[37.5584,55.7455],[37.6097,55.7612],[37.6182,55.7664],[37.6217,55.7779],[37.6167,55.7872],[37.6011,55.8651],[37.5979,55.8795],[37.5729,55.8898],[37.5559,55.891],[37.5128,55.8729],[37.4702,55.8654],[37.4868,55.8559],[37.5116,55.8151],[37.512,55.8121],[37.5361,55.7787]]],[[[37.4136,55.8996],[37.4257,55.9351],[37.3698,55.9364],[37.4136,55.8996]]],[[[37.4822,55.9563],[37.4624,55.9708],[37.4259,55.9694],[37.3917,55.9501],[37.4822,55.9563]]]]},"properties":{"GID_0":"RUS","GID_1":"RUS.43_1","GID_2":"RUS.43.5_1","NAME_1":"MoscowCity","NAME_2":"Northern"}},
{"type":"Feature","geometry":{"type":"Polygon","coordinates":[[[37.8276,55.6095],[37.8962,55.6606],[37.8997,55.6707],[37.8998,55.6799],[37.8951,55.6837],[37.8982,55.6854],[37.8665,55.6978],[37.8121,55.7156],[37.7702,55.7326],[37.7469,55.7615],[37.7313,55.7535],[37.7244,55.7552],[37.7175,55.7466],[37.7061,55.7387],[37.7326,55.7228],[37.72,55.718],[37.7049,55.7116],[37.7015,55.6915],[37.7008,55.6861],[37.7345,55.68],[37.7431,55.6762],[37.7462,55.6714],[37.7453,55.6677],[37.7412,55.6642],[37.7139,55.6557],[37.7049,55.6395],[37.7265,55.629],[37.7799,55.6255],[37.8094,55.6338],[37.8276,55.6095]]]},"properties":{"GID_0":"RUS","GID_1":"RUS.43_1","GID_2":"RUS.43.6_1","NAME_1":"MoscowCity","NAME_2":"South-Eastern"}},
{"type":"Feature","geometry":{"type":"Polygon","coordinates":[[[37.4897,55.6214],[37.5408,55.5816],[37.581,55.5704],[37.5803,55.5371],[37.5111,55.5214],[37.618,55.4792],[37.6144,55.5066],[37.6253,55.5599],[37.6147,55.5878],[37.6074,55.5929],[37.6096,55.6169],[37.6393,55.626],[37.6386,55.6577],[37.6386,55.6702],[37.631,55.6798],[37.6104,55.6992],[37.5927,55.6953],[37.5447,55.6639],[37.5406,55.6461],[37.4897,55.6214]]]},"properties":{"GID_0":"RUS","GID_1":"RUS.43_1","GID_2":"RUS.43.7_1","NAME_1":"MoscowCity","NAME_2":"South-Western"}},
{"type":"Feature","geometry":{"type":"Polygon","coordinates":[[[37.7265,55.629],[37.7049,55.6395],[37.7139,55.6557],[37.7418,55.6645],[37.7462,55.67],[37.744,55.6754],[37.7309,55.681],[37.7008,55.6861],[37.7015,55.6915],[37.6965,55.7129],[37.6765,55.7079],[37.6445,55.7065],[37.6146,55.6962],[37.631,55.6798],[37.6386,55.6702],[37.6386,55.6577],[37.6393,55.626],[37.6096,55.6169],[37.6074,55.5929],[37.6147,55.5878],[37.6253,55.5599],[37.7046,55.5562],[37.7893,55.5873],[37.8276,55.6095],[37.8094,55.6338],[37.7799,55.6255],[37.7265,55.629]]]},"properties":{"GID_0":"RUS","GID_1":"RUS.43_1","GID_2":"RUS.43.8_1","NAME_1":"MoscowCity","NAME_2":"Southern"}},
{"type":"Feature","geometry":{"type":"MultiPolygon","coordinates":[[[[37.2825,55.5913],[37.2829,55.5647],[37.3464,55.5819],[37.3481,55.5968],[37.2959,55.6018],[37.2825,55.5913]]],[[[37.4024,55.7549],[37.4013,55.7309],[37.4203,55.6947],[37.4501,55.6644],[37.4305,55.6444],[37.3863,55.6475],[37.3611,55.6238],[37.4063,55.6078],[37.4498,55.6228],[37.4897,55.6214],[37.5406,55.6461],[37.5447,55.6639],[37.5927,55.6953],[37.5782,55.712],[37.5741,55.7306],[37.5556,55.7322],[37.5474,55.7434],[37.5237,55.7528],[37.5095,55.749],[37.4847,55.7614],[37.4422,55.7608],[37.4024,55.7549]]]]},"properties":{"GID_0":"RUS","GID_1":"RUS.43_1","GID_2":"RUS.43.9_1","NAME_1":"MoscowCity","NAME_2":"Western"}},
{"type":"Feature","geometry":{"type":"Polygon","coordinates":[[[37.2423,55.954],[37.2927,55.9789],[37.2212,56.0075],[37.1639,55.9998],[37.1848,55.9793],[37.1786,55.9464],[37.2142,55.944],[37.2423,55.954]]]},"properties":{"GID_0":"RUS","GID_1":"RUS.43_1","GID_2":"RUS.43.10_1","NAME_1":"MoscowCity","NAME_2":"Zelenogradsky"}}
]}