{"type":"FeatureCollection", "features": [
{"type":"Feature","geometry":{"type":"Polygon","coordinates":[[[58.8746,53.5491],[59.1112,53.5423],[59.064,53.3857],[58.8701,53.3943],[58.9164,53.1205],[58.9711,53.0669],[59.0635,52.993],[59.3161,53.0648],[59.5531,53.0673],[59.7159,53.1416],[59.7577,53.2203],[59.708,53.3156],[59.5063,53.3902],[59.4396,53.5318],[59.2589,53.5483],[59.147,53.7026],[58.8889,53.6701],[58.8746,53.5491]]]},"properties":{"GID_0":"RUS","GID_1":"RUS.11_1","GID_2":"RUS.11.1_1","NAME_1":"Chelyabinsk","NAME_2":"Agapovskiyrayon"}},
{"type":"Feature","geometry":{"type":"Polygon","coordinates":[[[60.6313,55.1333],[60.9029,55.2403],[60.9641,55.3137],[61.2359,55.4149],[61.2883,55.5784],[61.2166,55.6427],[61.0013,55.7328],[60.8361,55.6697],[60.5211,55.5779],[60.1915,55.4063],[60.2608,55.1868],[60.4528,55.1111],[60.6313,55.1333]]]},"properties":{"GID_0":"RUS","GID_1":"RUS.11_1","GID_2":"RUS.11.2_1","NAME_1":"Chelyabinsk","NAME_2":"Argayashskiyrayon"}},
{"type":"Feature","geometry":{"type":"Polygon","coordinates":[[[57.3153,54.9808],[57.3217,54.9916],[57.2979,54.9967],[57.2942,54.9898],[57.3153,54.9808]]]},"properties":{"GID_0":"RUS","GID_1":"RUS.11_1","GID_2":"RUS.11.3_1","NAME_1":"Chelyabinsk","NAME_2":"Asha"}},
{"type":"Feature","geometry":{"type":"Polygon","coordinates":[[[58.0209,55.0155],[58.0531,55.2798],[57.5501,55.3412],[57.2676,55.249],[57.1279,55.0867],[57.2632,54.9535],[57.2356,54.8325],[57.5442,54.7129],[57.6226,54.8937],[58.0209,55.0155]],[[57.3153,54.9808],[57.2942,54.9898],[57.2979,54.9967],[57.3217,54.9916],[57.3153,54.9808]]]},"properties":{"GID_0":"RUS","GID_1":"RUS.11_1","GID_2":"RUS.11.4_1","NAME_1":"Chelyabinsk","NAME_2":"Ashinskiyrayon"}},
{"type":"Feature","geometry":{"type":"Polygon","coordinates":[[[60.7173,52.7135],[60.3498,52.7353],[60.2018,52.8044],[60.1203,52.7938],[60.0349,52.7995],[60.0501,52.7923],[59.9671,52.6479],[59.8071,52.605],[59.5133,52.6364],[59.391,52.465],[59.4824,52.4984],[60.0854,52.4381],[60.2186,52.3947],[60.2343,52.2769],[60.0259,52.0802],[60.1159,51.9973],[60.3249,52.0395],[60.5031,52.1555],[60.7219,52.1687],[61.0719,52.3377],[60.9667,52.5061],[60.7173,52.7135]]]},"properties":{"GID_0":"RUS","GID_1":"RUS.11_1","GID_2":"RUS.11.5_1","NAME_1":"Chelyabinsk","NAME_2":"Bredinskiyrayon"}},
{"type":"Feature","geometry":{"type":"Polygon","coordinates":[[[60.3799,54.9599],[60.3813,54.9717],[60.3666,54.9713],[60.361,54.9631],[60.3799,54.9599]]]},"properties":{"GID_0":"RUS","GID_1":"RUS.11_1","GID_2":"RUS.11.6_1","NAME_1":"Chelyabinsk","NAME_2":"Chebarkul'"}},
{"type":"Feature","geometry":{"type":"Polygon","coordinates":[[[59.8456,54.6432],[60.0979,54.6169],[60.4093,54.7116],[60.6587,54.5364],[60.8998,54.5131],[60.9044,54.6225],[60.8563,54.6523],[60.7544,54.8302],[60.9287,54.9152],[60.899,55.0289],[60.6313,55.1333],[60.4528,55.1111],[60.2608,55.1868],[60.2684,54.9484],[59.9313,54.9005],[59.8831,54.7916],[59.8456,54.6432]],[[60.3799,54.9599],[60.361,54.9631],[60.3666,54.9713],[60.3813,54.9717],[60.3799,54.9599]]]},"properties":{"GID_0":"RUS","GID_1":"RUS.11_1","GID_2":"RUS.11.7_1","NAME_1":"Chelyabinsk","NAME_2":"Chebarkul'skiyrayon"}},
{"type":"Feature","geometry":{"type":"Polygon","coordinates":[[[61.4733,55.0851],[61.5816,55.2386],[61.5592,55.3202],[61.2371,55.2445],[61.2663,55.0626],[61.4034,55.0602],[61.4733,55.0851]]]},"properties":{"GID_0":"RUS","GID_1":"RUS.11_1","GID_2":"RUS.11.8_1","NAME_1":"Chelyabinsk","NAME_2":"Chelyabinskgorsovet"}},
{"type":"Feature","geometry":{"type":"Polygon","coordinates":[[[60.9979,53.9301],[60.4086,53.9872],[60.3397,53.9174],[60.0605,53.8715],[59.9984,53.8806],[60.2372,53.506],[60.5602,53.3856],[60.7095,53.5393],[60.6111,53.6414],[60.8472,53.7442],[60.9546,53.6702],[61.2183,53.8159],[60.9979,53.9301]]]},"properties":{"GID_0":"RUS","GID_1":"RUS.11_1","GID_2":"RUS.11.9_1","NAME_1":"Chelyabinsk","NAME_2":"Chesmenskiyrayon"}},
{"type":"Feature","geometry":{"type":"Polygon","coordinates":[[[61.476,54.791],[61.3591,54.8433],[61.2636,54.7747],[61.2961,54.7048],[61.476,54.791]]]},"properties":{"GID_0":"RUS","GID_1":"RUS.11_1","GID_2":"RUS.11.10_1","NAME_1":"Chelyabinsk","NAME_2":"Emanzhelinskgorsovet"}},
{"type":"Feature","geometry":{"type":"Polygon","coordinates":[[[60.8787,54.6389],[60.9628,54.7171],[61.6491,54.5918],[61.7993,54.5215],[62.1063,54.5368],[62.1842,54.6836],[61.9561,54.9911],[61.6955,54.9845],[61.5858,55.0438],[61.4733,55.0851],[61.4034,55.0602],[61.382,54.9713],[61.3554,54.948],[61.4572,54.964],[61.5813,54.9867],[61.5756,54.9036],[61.4313,54.852],[61.2943,54.8885],[61.0511,54.8523],[60.9287,54.9152],[60.7544,54.8302],[60.8563,54.6523],[60.8787,54.6389]],[[61.476,54.791],[61.2961,54.7048],[61.2636,54.7747],[61.3591,54.8433],[61.476,54.791]]]},"properties":{"GID_0":"RUS","GID_1":"RUS.11_1","GID_2":"RUS.11.11_1","NAME_1":"Chelyabinsk","NAME_2":"Etkul'skiyrayon"}},
{"type":"Feature","geometry":{"type":"Polygon","coordinates":[[[60.5211,55.5779],[60.2717,55.6288],[60.0516,55.7329],[59.9385,55.6055],[59.9853,55.462],[60.0221,55.4343],[60.1915,55.4063],[60.5211,55.5779]]]},"properties":{"GID_0":"RUS","GID_1":"RUS.11_1","GID_2":"RUS.11.12_1","NAME_1":"Chelyabinsk","NAME_2":"Karabashgorsovet"}},
{"type":"Feature","geometry":{"type":"Polygon","coordinates":[[[61.047,52.9827],[61.0293,53.1553],[60.8984,53.2885],[60.7363,53.2128],[60.5602,53.3856],[60.2372,53.506],[60.162,53.3976],[59.7577,53.2203],[59.7159,53.1416],[59.9977,52.82],[60.0349,52.7995],[60.1203,52.7938],[60.2018,52.8044],[60.3498,52.7353],[60.7173,52.7135],[61.0739,52.9122],[61.047,52.9827]],[[60.6169,53.0748],[60.6036,53.0738],[60.602,53.087],[60.6233,53.0807],[60.6169,53.0748]]]},"properties":{"GID_0":"RUS","GID_1":"RUS.11_1","GID_2":"RUS.11.13_1","NAME_1":"Chelyabinsk","NAME_2":"Kartalinskiyrayon"}},
{"type":"Feature","geometry":{"type":"Polygon","coordinates":[[[60.6169,53.0748],[60.6233,53.0807],[60.602,53.087],[60.6036,53.0738],[60.6169,53.0748]]]},"properties":{"GID_0":"RUS","GID_1":"RUS.11_1","GID_2":"RUS.11.14_1","NAME_1":"Chelyabinsk","NAME_2":"Kartaly"}},
{"type":"Feature","geometry":{"type":"Polygon","coordinates":[[[60.7844,55.8796],[60.7845,55.8873],[60.7677,55.8898],[60.7669,55.88],[60.7844,55.8796]]]},"properties":{"GID_0":"RUS","GID_1":"RUS.11_1","GID_2":"RUS.11.15_1","NAME_1":"Chelyabinsk","NAME_2":"Kasli"}},
{"type":"Feature","geometry":{"type":"Polygon","coordinates":[[[61.0013,55.7328],[61.0435,56.0205],[61.2737,55.9523],[61.6933,56.0215],[61.8303,56.2845],[61.6801,56.3433],[61.2048,56.4087],[61.1402,56.2544],[60.5773,56.2393],[60.5112,55.968],[60.2403,55.9688],[60.2206,55.846],[60.3516,55.8592],[60.6571,55.8407],[60.8361,55.6697],[61.0013,55.7328]],[[60.7844,55.8796],[60.7669,55.88],[60.7677,55.8898],[60.7845,55.8873],[60.7844,55.8796]]]},"properties":{"GID_0":"RUS","GID_1":"RUS.11_1","GID_2":"RUS.11.16_1","NAME_1":"Chelyabinsk","NAME_2":"Kaslinskiyrayon"}},
{"type":"Feature","geometry":{"type":"Polygon","coordinates":[[[58.2279,54.7586],[58.218,54.7678],[58.2088,54.764],[58.2127,54.7559],[58.2279,54.7586]]]},"properties":{"GID_0":"RUS","GID_1":"RUS.11_1","GID_2":"RUS.11.17_1","NAME_1":"Chelyabinsk","NAME_2":"Katav-Ivanovsk"}},
{"type":"Feature","geometry":{"type":"Polygon","coordinates":[[[58.9847,54.6171],[58.7764,54.7103],[58.8439,54.7366],[58.8619,54.8176],[58.6476,54.9083],[58.6404,54.9272],[58.5,54.8722],[58.1509,54.8826],[58.006,54.9515],[58.0209,55.0155],[57.6226,54.8937],[57.5442,54.7129],[57.7253,54.6154],[57.912,54.4364],[58.064,54.4363],[58.2338,54.5351],[58.4131,54.5628],[58.6296,54.4954],[58.9847,54.6171]],[[58.2279,54.7586],[58.2127,54.7559],[58.2088,54.764],[58.218,54.7678],[58.2279,54.7586]]]},"properties":{"GID_0":"RUS","GID_1":"RUS.11_1","GID_2":"RUS.11.18_1","NAME_1":"Chelyabinsk","NAME_2":"Katav-Ivanovskiyrayon"}},
{"type":"Feature","geometry":{"type":"Polygon","coordinates":[[[58.9711,53.0669],[58.8395,52.9723],[58.772,52.6472],[59.0943,52.3723],[59.391,52.465],[59.5133,52.6364],[59.8071,52.605],[59.9671,52.6479],[60.0501,52.7923],[59.9977,52.82],[59.7159,53.1416],[59.5531,53.0673],[59.3161,53.0648],[59.0635,52.993],[58.9711,53.0669]]]},"properties":{"GID_0":"RUS","GID_1":"RUS.11_1","GID_2":"RUS.11.19_1","NAME_1":"Chelyabinsk","NAME_2":"Kizil'skiyrayon"}},
{"type":"Feature","geometry":{"type":"Polygon","coordinates":[[[61.4733,55.0851],[61.5858,55.0438],[61.7527,55.1028],[61.7631,55.23],[61.5816,55.2386],[61.4733,55.0851]]]},"properties":{"GID_0":"RUS","GID_1":"RUS.11_1","GID_2":"RUS.11.20_1","NAME_1":"Chelyabinsk","NAME_2":"Kopeyskgorsovet"}},
{"type":"Feature","geometry":{"type":"Polygon","coordinates":[[[61.3554,54.948],[61.3327,54.928],[61.2943,54.8885],[61.4313,54.852],[61.5756,54.9036],[61.5813,54.9867],[61.4572,54.964],[61.3554,54.948]]]},"properties":{"GID_0":"RUS","GID_1":"RUS.11_1","GID_2":"RUS.11.21_1","NAME_1":"Chelyabinsk","NAME_2":"Korkinogorsovet"}},
{"type":"Feature","geometry":{"type":"Polygon","coordinates":[[[61.5816,55.2386],[61.7631,55.23],[61.7527,55.1028],[61.5858,55.0438],[61.6955,54.9845],[61.9561,54.9911],[62.2425,55.1446],[62.0513,55.2956],[62.5463,55.4912],[62.5412,55.773],[62.2406,55.946],[61.9897,55.8562],[61.8997,55.7448],[61.8283,55.4654],[61.5494,55.4999],[61.5592,55.3202],[61.5816,55.2386]]]},"properties":{"GID_0":"RUS","GID_1":"RUS.11_1","GID_2":"RUS.11.22_1","NAME_1":"Chelyabinsk","NAME_2":"Krasnoarmeyskiyrayon"}},
{"type":"Feature","geometry":{"type":"Polygon","coordinates":[[[61.2166,55.6427],[61.3508,55.6857],[61.5494,55.4999],[61.8283,55.4654],[61.8997,55.7448],[61.9897,55.8562],[62.2406,55.946],[62.2019,56.0512],[61.8303,56.2845],[61.6933,56.0215],[61.2737,55.9523],[61.0435,56.0205],[61.0013,55.7328],[61.2166,55.6427]]]},"properties":{"GID_0":"RUS","GID_1":"RUS.11_1","GID_2":"RUS.11.23_1","NAME_1":"Chelyabinsk","NAME_2":"Kunashakskiyrayon"}},
{"type":"Feature","geometry":{"type":"Polygon","coordinates":[[[59.6524,55.6071],[59.5002,55.4814],[59.2186,55.466],[59.1284,55.328],[59.2906,55.2426],[59.4895,55.2227],[59.7494,55.2943],[59.9853,55.462],[59.9385,55.6055],[59.6524,55.6071]]]},"properties":{"GID_0":"RUS","GID_1":"RUS.11_1","GID_2":"RUS.11.24_1","NAME_1":"Chelyabinsk","NAME_2":"Kusinskiyrayon"}},
{"type":"Feature","geometry":{"type":"Polygon","coordinates":[[[60.8361,55.6697],[60.6571,55.8407],[60.3516,55.8592],[60.3102,55.855],[60.0516,55.7329],[60.2717,55.6288],[60.5211,55.5779],[60.8361,55.6697]]]},"properties":{"GID_0":"RUS","GID_1":"RUS.11_1","GID_2":"RUS.11.25_1","NAME_1":"Chelyabinsk","NAME_2":"Kyshtymgorsovet"}},
{"type":"Feature","geometry":{"type":"Polygon","coordinates":[[[58.8701,53.3943],[59.064,53.3857],[59.1112,53.5423],[58.8746,53.5491],[58.8701,53.3943]]]},"properties":{"GID_0":"RUS","GID_1":"RUS.11_1","GID_2":"RUS.11.26_1","NAME_1":"Chelyabinsk","NAME_2":"Magnitogorskgorsovet"}},
{"type":"Feature","geometry":{"type":"Polygon","coordinates":[[[59.8831,54.7916],[59.9313,54.9005],[60.2684,54.9484],[60.2608,55.1868],[60.1915,55.4063],[60.0221,55.4343],[59.9807,55.2985],[59.6656,54.9866],[59.651,54.9049],[59.8831,54.7916]]]},"properties":{"GID_0":"RUS","GID_1":"RUS.11_1","GID_2":"RUS.11.27_1","NAME_1":"Chelyabinsk","NAME_2":"Miassgorsovet"}},
{"type":"Feature","geometry":{"type":"Polygon","coordinates":[[[59.7577,53.2203],[60.162,53.3976],[60.2372,53.506],[59.9984,53.8806],[59.9627,53.8863],[59.7124,53.7759],[59.4712,53.8704],[59.3289,53.7307],[59.4173,53.6025],[59.2589,53.5483],[59.4396,53.5318],[59.5063,53.3902],[59.708,53.3156],[59.7577,53.2203]]]},"properties":{"GID_0":"RUS","GID_1":"RUS.11_1","GID_2":"RUS.11.28_1","NAME_1":"Chelyabinsk","NAME_2":"Nagaybakskiyrayon"}},
{"type":"Feature","geometry":{"type":"Polygon","coordinates":[[[59.6524,55.6071],[59.9385,55.6055],[60.0516,55.7329],[59.783,55.8706],[60.0646,56.2522],[59.7216,56.2518],[59.6273,56.3376],[59.2697,56.3866],[59.1591,56.3542],[59.2382,55.9567],[59.1342,55.8357],[59.3229,55.7685],[59.3221,55.6389],[59.6524,55.6071]]]},"properties":{"GID_0":"RUS","GID_1":"RUS.11_1","GID_2":"RUS.11.29_1","NAME_1":"Chelyabinsk","NAME_2":"Nyazepetrovskiyrayon"}},
{"type":"Feature","geometry":{"type":"Polygon","coordinates":[[[62.3416,54.0353],[62.4541,53.9259],[62.8513,54.1123],[63.0621,54.1004],[63.1683,54.1924],[63.3781,54.1974],[63.1088,54.369],[63.1199,54.4701],[63.2873,54.5612],[63.1457,54.7324],[62.7757,54.6731],[62.5317,54.6818],[62.415,54.7431],[62.1842,54.6836],[62.1063,54.5368],[62.1839,54.4234],[62.395,54.2252],[62.3416,54.0353]]]},"properties":{"GID_0":"RUS","GID_1":"RUS.11_1","GID_2":"RUS.11.30_1","NAME_1":"Chelyabinsk","NAME_2":"Oktyabr'skiy"}},
{"type":"Feature","geometry":{"type":"Polygon","coordinates":[[[60.6587,54.5364],[60.4454,54.5738],[60.3027,54.1865],[60.5941,54.1703],[60.7895,54.2996],[60.9546,54.3305],[61.072,54.4513],[60.8998,54.5131],[60.6587,54.5364]]]},"properties":{"GID_0":"RUS","GID_1":"RUS.11_1","GID_2":"RUS.11.31_1","NAME_1":"Chelyabinsk","NAME_2":"Plastgorsovet"}},
{"type":"Feature","geometry":{"type":"Polygon","coordinates":[[[59.0501,55.0067],[59.0539,55.0213],[59.0367,55.0215],[59.0283,55.012],[59.0501,55.0067]]]},"properties":{"GID_0":"RUS","GID_1":"RUS.11_1","GID_2":"RUS.11.32_1","NAME_1":"Chelyabinsk","NAME_2":"Satka"}},
{"type":"Feature","geometry":{"type":"Polygon","coordinates":[[[59.1284,55.328],[58.841,55.3306],[58.6365,55.1866],[58.8468,55.0682],[58.61,54.9719],[58.6277,54.957],[58.6476,54.9083],[58.8619,54.8176],[58.8439,54.7366],[58.7764,54.7103],[58.9847,54.6171],[59.0956,54.6515],[59.3415,54.9459],[59.2571,55.1346],[59.2906,55.2426],[59.1284,55.328]],[[59.0501,55.0067],[59.0283,55.012],[59.0367,55.0215],[59.0539,55.0213],[59.0501,55.0067]]]},"properties":{"GID_0":"RUS","GID_1":"RUS.11_1","GID_2":"RUS.11.33_1","NAME_1":"Chelyabinsk","NAME_2":"Satkinskiyrayon"}},
{"type":"Feature","geometry":{"type":"Polygon","coordinates":[[[60.6313,55.1333],[60.899,55.0289],[60.9287,54.9152],[61.0511,54.8523],[61.2943,54.8885],[61.3327,54.928],[61.382,54.9713],[61.4034,55.0602],[61.2663,55.0626],[61.2371,55.2445],[61.5592,55.3202],[61.5494,55.4999],[61.3508,55.6857],[61.2166,55.6427],[61.2883,55.5784],[61.2359,55.4149],[60.9641,55.3137],[60.9029,55.2403],[60.6313,55.1333]]]},"properties":{"GID_0":"RUS","GID_1":"RUS.11_1","GID_2":"RUS.11.34_1","NAME_1":"Chelyabinsk","NAME_2":"Sosnovskiyrayon"}},
{"type":"Feature","geometry":{"type":"Polygon","coordinates":[[[61.4743,54.0727],[61.6806,54.1097],[61.5545,54.253],[61.4092,54.0876],[61.4743,54.0727]]]},"properties":{"GID_0":"RUS","GID_1":"RUS.11_1","GID_2":"RUS.11.35_1","NAME_1":"Chelyabinsk","NAME_2":"Troitskgorod"}},
{"type":"Feature","geometry":{"type":"Polygon","coordinates":[[[61.4092,54.0876],[61.5545,54.253],[61.6806,54.1097],[61.4743,54.0727],[61.7376,54.0294],[62.3416,54.0353],[62.395,54.2252],[62.1839,54.4234],[61.794,54.2753],[61.7488,54.3577],[61.5261,54.4275],[61.4166,54.3189],[61.1863,54.3209],[61.072,54.4513],[60.9546,54.3305],[60.7895,54.2996],[60.5941,54.1703],[60.3027,54.1865],[60.1577,54.1183],[60.3397,53.9174],[60.4086,53.9872],[60.9979,53.9301],[61.2757,53.9848],[61.4092,54.0876]]]},"properties":{"GID_0":"RUS","GID_1":"RUS.11_1","GID_2":"RUS.11.36_1","NAME_1":"Chelyabinsk","NAME_2":"Troitskiyrayon"}},
{"type":"Feature","geometry":{"type":"Polygon","coordinates":[[[58.1618,54.9113],[58.1689,54.9142],[58.1588,54.9198],[58.1514,54.9159],[58.1618,54.9113]]]},"properties":{"GID_0":"RUS","GID_1":"RUS.11_1","GID_2":"RUS.11.37_1","NAME_1":"Chelyabinsk","NAME_2":"Ust'-Katav"}},
{"type":"Feature","geometry":{"type":"Polygon","coordinates":[[[58.006,54.9515],[58.1509,54.8826],[58.5,54.8722],[58.6404,54.9272],[58.6277,54.957],[58.61,54.9719],[58.2656,55.2068],[58.006,54.9515]],[[58.1618,54.9113],[58.1514,54.9159],[58.1588,54.9198],[58.1689,54.9142],[58.1618,54.9113]]]},"properties":{"GID_0":"RUS","GID_1":"RUS.11_1","GID_2":"RUS.11.38_1","NAME_1":"Chelyabinsk","NAME_2":"Ust'-Katavgorsovet"}},
{"type":"Feature","geometry":{"type":"Polygon","coordinates":[[[60.8998,54.5131],[61.072,54.4513],[61.1863,54.3209],[61.4166,54.3189],[61.5261,54.4275],[61.7488,54.3577],[61.794,54.2753],[62.1839,54.4234],[62.1063,54.5368],[61.7993,54.5215],[61.6491,54.5918],[60.9628,54.7171],[60.8787,54.6389],[60.9044,54.6225],[60.8998,54.5131]],[[61.2922,54.4411],[61.2739,54.4402],[61.2714,54.4504],[61.2877,54.4531],[61.2922,54.4411]]]},"properties":{"GID_0":"RUS","GID_1":"RUS.11_1","GID_2":"RUS.11.39_1","NAME_1":"Chelyabinsk","NAME_2":"Uvel'skiyrayon"}},
{"type":"Feature","geometry":{"type":"Polygon","coordinates":[[[59.6582,54.1789],[60.1577,54.1183],[60.3027,54.1865],[60.4454,54.5738],[60.6587,54.5364],[60.4093,54.7116],[60.0979,54.6169],[59.8456,54.6432],[59.6837,54.5208],[59.6512,54.3865],[59.776,54.3298],[59.6582,54.1789]]]},"properties":{"GID_0":"RUS","GID_1":"RUS.11_1","GID_2":"RUS.11.40_1","NAME_1":"Chelyabinsk","NAME_2":"Uyskiyrayon"}},
{"type":"Feature","geometry":{"type":"Polygon","coordinates":[[[61.047,52.9827],[61.4597,53.035],[61.6415,52.963],[61.8929,53.0105],[62.1373,53.0057],[62.1106,53.1168],[61.799,53.1609],[61.7165,53.232],[61.4629,53.2238],[61.1827,53.2962],[61.1611,53.3921],[61.3014,53.5072],[61.4813,53.4613],[61.556,53.5749],[61.1722,53.5679],[60.9546,53.6702],[60.8472,53.7442],[60.6111,53.6414],[60.7095,53.5393],[60.5602,53.3856],[60.7363,53.2128],[60.8984,53.2885],[61.0293,53.1553],[61.047,52.9827]]]},"properties":{"GID_0":"RUS","GID_1":"RUS.11_1","GID_2":"RUS.11.41_1","NAME_1":"Chelyabinsk","NAME_2":"Varnenskiyrayon"}},
{"type":"Feature","geometry":{"type":"Polygon","coordinates":[[[58.8889,53.6701],[59.147,53.7026],[59.2589,53.5483],[59.4173,53.6025],[59.3289,53.7307],[59.4712,53.8704],[59.7124,53.7759],[59.9627,53.8863],[60.0605,53.8715],[60.3397,53.9174],[60.1577,54.1183],[59.6582,54.1789],[59.306,54.1875],[59.1954,54.0257],[58.95,53.9551],[58.8889,53.6701]]]},"properties":{"GID_0":"RUS","GID_1":"RUS.11_1","GID_2":"RUS.11.42_1","NAME_1":"Chelyabinsk","NAME_2":"Verkhneural'skiyrayon"}},
{"type":"Feature","geometry":{"type":"Polygon","coordinates":[[[60.5773,56.2393],[60.4112,56.2955],[60.0646,56.2522],[59.783,55.8706],[60.0516,55.7329],[60.3102,55.855],[60.2206,55.846],[60.2403,55.9688],[60.5112,55.968],[60.5773,56.2393]]]},"properties":{"GID_0":"RUS","GID_1":"RUS.11_1","GID_2":"RUS.11.43_1","NAME_1":"Chelyabinsk","NAME_2":"VerkhniyUfaleygorsovet"}},
{"type":"Feature","geometry":{"type":"Polygon","coordinates":[[[61.2922,54.4411],[61.2877,54.4531],[61.2714,54.4504],[61.2739,54.4402],[61.2922,54.4411]]]},"properties":{"GID_0":"RUS","GID_1":"RUS.11_1","GID_2":"RUS.11.44_1","NAME_1":"Chelyabinsk","NAME_2":"Yuzhnoural'sk"}},
{"type":"Feature","geometry":{"type":"Polygon","coordinates":[[[59.651,54.9049],[59.6656,54.9866],[59.9807,55.2985],[60.0221,55.4343],[59.9853,55.462],[59.7494,55.2943],[59.4895,55.2227],[59.2906,55.2426],[59.2571,55.1346],[59.3415,54.9459],[59.0956,54.6515],[59.2522,54.6337],[59.651,54.9049]]]},"properties":{"GID_0":"RUS","GID_1":"RUS.11_1","GID_2":"RUS.11.45_1","NAME_1":"Chelyabinsk","NAME_2":"Zlatoustgorsovet"}}
]}