{"type":"FeatureCollection", "features": [
{"type":"Feature","geometry":{"type":"Polygon","coordinates":[[[30.7729,57.1449],[30.821,57.2255],[30.4805,57.345],[30.2917,57.2917],[30.0798,57.3471],[29.9475,57.343],[29.8892,57.2291],[29.621,57.2281],[29.6213,57.0956],[29.696,57.003],[29.6299,56.9117],[29.4708,56.8062],[29.3291,56.666],[29.3028,56.6397],[29.4499,56.5799],[29.6054,56.6481],[29.7056,56.6442],[29.8051,56.6651],[29.9518,56.7816],[30.097,56.8491],[30.2908,56.892],[30.3819,56.9561],[30.5262,56.9649],[30.5887,57.0605],[30.7729,57.1449]]]},"properties":{"GID_0":"RUS","GID_1":"RUS.57_1","GID_2":"RUS.57.1_1","NAME_1":"Pskov","NAME_2":"Bezhanitskiyrayon"}},
{"type":"Feature","geometry":{"type":"Polygon","coordinates":[[[30.4805,57.345],[30.5435,57.4385],[30.714,57.5837],[30.509,57.647],[30.2694,57.6071],[30.0616,57.5987],[29.923,57.638],[29.9302,57.5657],[29.8307,57.5196],[29.5003,57.5134],[29.5627,57.3147],[29.5113,57.291],[29.5781,57.2762],[29.621,57.2281],[29.8892,57.2291],[29.9475,57.343],[30.0798,57.3471],[30.2917,57.2917],[30.4805,57.345]]]},"properties":{"GID_0":"RUS","GID_1":"RUS.57_1","GID_2":"RUS.57.2_1","NAME_1":"Pskov","NAME_2":"Dedovichskiyrayon"}},
{"type":"Feature","geometry":{"type":"Polygon","coordinates":[[[29.947,58.0009],[29.782,57.9017],[29.91,57.8643],[29.8744,57.7549],[29.923,57.638],[30.0616,57.5987],[30.2694,57.6071],[30.509,57.647],[30.5745,57.7214],[30.5499,57.8745],[30.3089,57.8709],[30.0602,57.9099],[29.947,58.0009]]]},"properties":{"GID_0":"RUS","GID_1":"RUS.57_1","GID_2":"RUS.57.3_1","NAME_1":"Pskov","NAME_2":"Dnovskiyrayon"}},
{"type":"Feature","geometry":{"type":"Polygon","coordinates":[[[27.7673,58.9297],[27.8182,58.828],[27.7721,58.7162],[27.8717,58.5063],[27.7465,58.4549],[27.6828,58.3282],[27.5773,58.305],[27.6001,58.216],[28.0757,58.2924],[28.4182,58.2773],[28.4811,58.2949],[28.5547,58.3853],[28.4789,58.5529],[28.5654,58.8243],[28.283,58.8507],[28.1854,58.9573],[27.9063,59.0004],[27.7673,58.9297]]]},"properties":{"GID_0":"RUS","GID_1":"RUS.57_1","GID_2":"RUS.57.4_1","NAME_1":"Pskov","NAME_2":"Gdovskiyrayon"}},
{"type":"Feature","geometry":{"type":"Polygon","coordinates":[[[28.1927,56.4075],[28.2821,56.4674],[28.3184,56.6146],[28.4824,56.7382],[28.5932,56.8835],[28.6266,56.9257],[28.4796,57.0635],[28.3035,57.0712],[28.3032,57.0074],[28.1113,56.9196],[27.9773,56.8165],[27.9118,56.7421],[28.141,56.546],[28.1927,56.4075]]]},"properties":{"GID_0":"RUS","GID_1":"RUS.57_1","GID_2":"RUS.57.5_1","NAME_1":"Pskov","NAME_2":"Krasnogorodskiyrayon"}},
{"type":"Feature","geometry":{"type":"Polygon","coordinates":[[[31.0313,55.7166],[31.232,55.718],[31.4574,55.7513],[31.3933,55.872],[31.3964,55.9791],[31.5392,56.0597],[31.4742,56.1601],[31.5067,56.3179],[31.3355,56.3177],[31.2505,56.4373],[31.0392,56.4778],[30.8979,56.4456],[30.7844,56.2158],[30.8933,56.1675],[30.8832,56.0997],[30.952,55.9652],[30.9938,55.7627],[31.0313,55.7166]]]},"properties":{"GID_0":"RUS","GID_1":"RUS.57_1","GID_2":"RUS.57.6_1","NAME_1":"Pskov","NAME_2":"Kun'inskiyrayon"}},
{"type":"Feature","geometry":{"type":"Polygon","coordinates":[[[30.7729,57.1449],[30.5887,57.0605],[30.5262,56.9649],[30.3819,56.9561],[30.2908,56.892],[30.097,56.8491],[29.9518,56.7816],[29.8051,56.6651],[29.7056,56.6442],[29.798,56.5769],[30.0737,56.5607],[30.2683,56.6032],[30.3929,56.5746],[30.4489,56.5904],[30.58,56.6252],[30.6301,56.7461],[30.7841,56.7933],[30.9083,56.7997],[30.9625,56.8775],[30.7416,56.9546],[30.7023,57.0098],[30.7729,57.1449]]]},"properties":{"GID_0":"RUS","GID_1":"RUS.57_1","GID_2":"RUS.57.7_1","NAME_1":"Pskov","NAME_2":"Loknyanskiyrayon"}},
{"type":"Feature","geometry":{"type":"Polygon","coordinates":[[[30.4288,55.8073],[30.411,55.8529],[30.2326,55.9766],[30.2322,56.0546],[30.3406,56.094],[30.3175,56.1732],[30.1746,56.1532],[30.0531,56.1726],[29.8454,56.234],[29.6749,56.2661],[29.4441,56.1725],[29.3878,56.0474],[29.269,56.0278],[29.2165,55.9906],[29.4262,55.9717],[29.371,55.7652],[29.4803,55.7045],[29.9696,55.8897],[30.1196,55.8317],[30.2677,55.87],[30.4288,55.8073]]]},"properties":{"GID_0":"RUS","GID_1":"RUS.57_1","GID_2":"RUS.57.8_1","NAME_1":"Pskov","NAME_2":"Nevel'skiyrayon"}},
{"type":"Feature","geometry":{"type":"Polygon","coordinates":[[[29.621,57.2281],[29.5781,57.2762],[29.4481,57.3038],[29.3524,57.3065],[28.963,57.1544],[29.1162,57.0518],[29.1492,56.8582],[29.1426,56.8206],[29.0833,56.7854],[29.1412,56.7847],[29.3922,56.8277],[29.4708,56.8062],[29.6299,56.9117],[29.696,57.003],[29.6213,57.0956],[29.621,57.2281]]]},"properties":{"GID_0":"RUS","GID_1":"RUS.57_1","GID_2":"RUS.57.9_1","NAME_1":"Pskov","NAME_2":"Novorzhevskiyrayon"}},
{"type":"Feature","geometry":{"type":"Polygon","coordinates":[[[29.4499,56.5799],[29.7599,56.4591],[29.799,56.2443],[29.8454,56.234],[30.0531,56.1726],[30.1746,56.1532],[30.3175,56.1732],[30.4274,56.2567],[30.4136,56.3328],[30.282,56.427],[30.3686,56.5674],[30.3929,56.5746],[30.2683,56.6032],[30.0737,56.5607],[29.798,56.5769],[29.7056,56.6442],[29.6054,56.6481],[29.4499,56.5799]]]},"properties":{"GID_0":"RUS","GID_1":"RUS.57_1","GID_2":"RUS.57.10_1","NAME_1":"Pskov","NAME_2":"Novosokol'nicheskiyrayon"}},
{"type":"Feature","geometry":{"type":"Polygon","coordinates":[[[29.4708,56.8062],[29.3922,56.8277],[29.1412,56.7847],[29.0617,56.7867],[28.8747,56.7228],[28.5932,56.8835],[28.4824,56.7382],[28.3184,56.6146],[28.2821,56.4674],[28.6018,56.4681],[28.7942,56.4332],[28.9108,56.4688],[28.9967,56.4877],[29.2545,56.5944],[29.3291,56.666],[29.4708,56.8062]]]},"properties":{"GID_0":"RUS","GID_1":"RUS.57_1","GID_2":"RUS.57.11_1","NAME_1":"Pskov","NAME_2":"Opochetskiyrayon"}},
{"type":"Feature","geometry":{"type":"Polygon","coordinates":[[[28.3083,57.2956],[28.3077,57.3114],[28.2862,57.3128],[28.2808,57.2972],[28.3083,57.2956]]]},"properties":{"GID_0":"RUS","GID_1":"RUS.57_1","GID_2":"RUS.57.12_1","NAME_1":"Pskov","NAME_2":"Ostrov"}},
{"type":"Feature","geometry":{"type":"Polygon","coordinates":[[[28.4796,57.0635],[28.7638,57.1309],[28.963,57.1544],[29.3524,57.3065],[28.9556,57.3927],[28.7153,57.5086],[28.5842,57.4809],[28.4324,57.5646],[28.2399,57.5313],[28.2075,57.4481],[28.0248,57.3996],[27.9992,57.3877],[28.0388,57.3656],[28.0557,57.3535],[28.0316,57.2903],[28.0779,57.2344],[28.0995,57.106],[28.3035,57.0712],[28.4796,57.0635]],[[28.3083,57.2956],[28.2808,57.2972],[28.2862,57.3128],[28.3077,57.3114],[28.3083,57.2956]]]},"properties":{"GID_0":"RUS","GID_1":"RUS.57_1","GID_2":"RUS.57.13_1","NAME_1":"Pskov","NAME_2":"Ostrovskiyrayon"}},
{"type":"Feature","geometry":{"type":"Polygon","coordinates":[[[27.8387,57.3165],[27.9217,57.3471],[27.9616,57.3689],[28.0248,57.3996],[28.2075,57.4481],[28.2399,57.5313],[28.4324,57.5646],[28.4195,57.6152],[28.2221,57.6877],[27.9816,57.705],[27.7258,57.5668],[27.6287,57.4156],[27.8387,57.3165]]]},"properties":{"GID_0":"RUS","GID_1":"RUS.57_1","GID_2":"RUS.57.14_1","NAME_1":"Pskov","NAME_2":"Palkinskiyrayon"}},
{"type":"Feature","geometry":{"type":"Polygon","coordinates":[[[27.7902,57.9163],[27.7409,57.8277],[27.5579,57.8338],[27.3763,57.6687],[27.3363,57.5463],[27.5468,57.5381],[27.5107,57.4455],[27.6287,57.4156],[27.7258,57.5668],[27.9816,57.705],[28.1192,57.8565],[27.988,57.8644],[27.8959,57.9675],[27.7902,57.9163]]]},"properties":{"GID_0":"RUS","GID_1":"RUS.57_1","GID_2":"RUS.57.15_1","NAME_1":"Pskov","NAME_2":"Pechorskiyrayon"}},
{"type":"Feature","geometry":{"type":"Polygon","coordinates":[[[29.7236,58.2233],[29.9284,58.2865],[29.9283,58.4405],[29.8183,58.4093],[29.6154,58.4439],[29.5574,58.5176],[29.3401,58.5438],[29.269,58.6486],[29.0101,58.7817],[28.8974,58.7765],[28.5654,58.8243],[28.4789,58.5529],[29.0541,58.4187],[29.5037,58.3647],[29.5949,58.2676],[29.7236,58.2233]]]},"properties":{"GID_0":"RUS","GID_1":"RUS.57_1","GID_2":"RUS.57.16_1","NAME_1":"Pskov","NAME_2":"Plyusskiyrayon"}},
{"type":"Feature","geometry":{"type":"Polygon","coordinates":[[[29.7137,58.1195],[29.2206,57.989],[29.2946,57.8797],[29.0988,57.7376],[28.9544,57.5843],[28.7605,57.5656],[28.7153,57.5086],[28.9556,57.3927],[29.3524,57.3065],[29.4481,57.3038],[29.5113,57.291],[29.5627,57.3147],[29.5003,57.5134],[29.8307,57.5196],[29.9302,57.5657],[29.923,57.638],[29.8744,57.7549],[29.91,57.8643],[29.782,57.9017],[29.947,58.0009],[29.7137,58.1195]]]},"properties":{"GID_0":"RUS","GID_1":"RUS.57_1","GID_2":"RUS.57.17_1","NAME_1":"Pskov","NAME_2":"Porkhovskiyrayon"}},
{"type":"Feature","geometry":{"type":"Polygon","coordinates":[[[28.3565,57.792],[28.3644,57.8069],[28.3291,57.8148],[28.3211,57.7982],[28.3565,57.792]]]},"properties":{"GID_0":"RUS","GID_1":"RUS.57_1","GID_2":"RUS.57.18_1","NAME_1":"Pskov","NAME_2":"Pskov"}},
{"type":"Feature","geometry":{"type":"Polygon","coordinates":[[[27.6001,58.216],[27.6525,58.1421],[27.8166,58.1981],[27.9558,58.1839],[28.1486,58.0215],[28.1705,57.9294],[28.1192,57.8565],[27.9816,57.705],[28.2221,57.6877],[28.4195,57.6152],[28.4324,57.5646],[28.5842,57.4809],[28.7153,57.5086],[28.7605,57.5656],[28.9544,57.5843],[29.0988,57.7376],[29.2946,57.8797],[29.2206,57.989],[28.9988,57.9022],[28.841,57.8898],[28.6678,57.9368],[28.5976,58.0051],[28.4811,58.2949],[28.4182,58.2773],[28.0757,58.2924],[27.6001,58.216]],[[28.3565,57.792],[28.3211,57.7982],[28.3291,57.8148],[28.3644,57.8069],[28.3565,57.792]]]},"properties":{"GID_0":"RUS","GID_1":"RUS.57_1","GID_2":"RUS.57.19_1","NAME_1":"Pskov","NAME_2":"Pskovskiyrayon"}},
{"type":"Feature","geometry":{"type":"Polygon","coordinates":[[[28.5932,56.8835],[28.8747,56.7228],[29.0617,56.7867],[29.0833,56.7854],[29.1426,56.8206],[29.1492,56.8582],[29.1162,57.0518],[28.963,57.1544],[28.7638,57.1309],[28.4796,57.0635],[28.6266,56.9257],[28.5932,56.8835]]]},"properties":{"GID_0":"RUS","GID_1":"RUS.57_1","GID_2":"RUS.57.20_1","NAME_1":"Pskov","NAME_2":"Pushkino-Gorskiyrayon"}},
{"type":"Feature","geometry":{"type":"Polygon","coordinates":[[[29.3028,56.6397],[29.2545,56.5944],[28.9967,56.4877],[28.9544,56.4786],[28.993,56.4465],[29.0379,56.4188],[29.1501,56.3829],[29.2058,56.3184],[29.1746,56.1696],[29.269,56.0278],[29.3878,56.0474],[29.4441,56.1725],[29.6749,56.2661],[29.799,56.2443],[29.7599,56.4591],[29.4499,56.5799],[29.3028,56.6397]]]},"properties":{"GID_0":"RUS","GID_1":"RUS.57_1","GID_2":"RUS.57.21_1","NAME_1":"Pskov","NAME_2":"Pustoshkinskiyrayon"}},
{"type":"Feature","geometry":{"type":"Polygon","coordinates":[[[27.8387,57.3165],[27.8168,57.1507],[27.7525,57.1231],[27.7294,56.9347],[27.7998,56.876],[27.9773,56.8165],[28.1113,56.9196],[28.3032,57.0074],[28.3035,57.0712],[28.0995,57.106],[28.0779,57.2344],[28.0316,57.2903],[28.0557,57.3535],[28.0388,57.3656],[27.9992,57.3877],[27.9217,57.3471],[27.8387,57.3165]]]},"properties":{"GID_0":"RUS","GID_1":"RUS.57_1","GID_2":"RUS.57.22_1","NAME_1":"Pskov","NAME_2":"Pytalovskiyrayon"}},
{"type":"Feature","geometry":{"type":"Polygon","coordinates":[[[29.2165,55.9906],[29.269,56.0278],[29.1746,56.1696],[29.2058,56.3184],[29.1501,56.3829],[29.0379,56.4188],[28.993,56.4465],[28.9544,56.4786],[28.9108,56.4688],[28.7942,56.4332],[28.6018,56.4681],[28.2821,56.4674],[28.1927,56.4075],[28.2405,56.2904],[28.1732,56.1683],[28.3079,56.0658],[28.6306,56.0903],[28.7292,55.9669],[29.0329,56.0325],[29.2165,55.9906]]]},"properties":{"GID_0":"RUS","GID_1":"RUS.57_1","GID_2":"RUS.57.23_1","NAME_1":"Pskov","NAME_2":"Sebezhskiyrayon"}},
{"type":"Feature","geometry":{"type":"Polygon","coordinates":[[[29.7236,58.2233],[29.5949,58.2676],[29.5037,58.3647],[29.0541,58.4187],[28.4789,58.5529],[28.5547,58.3853],[28.4811,58.2949],[28.5976,58.0051],[28.6678,57.9368],[28.841,57.8898],[28.9988,57.9022],[29.2206,57.989],[29.7137,58.1195],[29.7236,58.2233]]]},"properties":{"GID_0":"RUS","GID_1":"RUS.57_1","GID_2":"RUS.57.24_1","NAME_1":"Pskov","NAME_2":"Strugo-Krasnenskiyrayon"}},
{"type":"Feature","geometry":{"type":"Polygon","coordinates":[[[30.4288,55.8073],[30.6153,55.7399],[30.6402,55.6798],[30.8076,55.5978],[31.0185,55.6798],[31.0313,55.7166],[30.9938,55.7627],[30.952,55.9652],[30.79,55.9598],[30.411,55.8529],[30.4288,55.8073]]]},"properties":{"GID_0":"RUS","GID_1":"RUS.57_1","GID_2":"RUS.57.25_1","NAME_1":"Pskov","NAME_2":"Usvyatskiyrayon"}},
{"type":"Feature","geometry":{"type":"Polygon","coordinates":[[[30.5547,56.3333],[30.5542,56.3553],[30.5136,56.3543],[30.5077,56.3404],[30.5547,56.3333]]]},"properties":{"GID_0":"RUS","GID_1":"RUS.57_1","GID_2":"RUS.57.26_1","NAME_1":"Pskov","NAME_2":"VelikieLuki"}},
{"type":"Feature","geometry":{"type":"Polygon","coordinates":[[[31.0392,56.4778],[31.0712,56.6149],[30.8311,56.7134],[30.7841,56.7933],[30.6301,56.7461],[30.58,56.6252],[30.4489,56.5904],[30.3686,56.5674],[30.282,56.427],[30.4136,56.3328],[30.4274,56.2567],[30.3175,56.1732],[30.3406,56.094],[30.2322,56.0546],[30.2326,55.9766],[30.411,55.8529],[30.79,55.9598],[30.952,55.9652],[30.8832,56.0997],[30.8933,56.1675],[30.7844,56.2158],[30.8979,56.4456],[31.0392,56.4778]],[[30.5547,56.3333],[30.5077,56.3404],[30.5136,56.3543],[30.5542,56.3553],[30.5547,56.3333]]]},"properties":{"GID_0":"RUS","GID_1":"RUS.57_1","GID_2":"RUS.57.27_1","NAME_1":"Pskov","NAME_2":"Velikolukskiyrayon"}},
{"type":"Feature","geometry":{"type":"Polygon","coordinates":[[[27.7673,58.9297],[27.7093,58.9834],[27.5035,58.8595],[27.4551,58.7906],[27.5537,58.4235],[27.4792,58.2916],[27.569,58.1285],[27.659,58.0953],[27.6813,57.9549],[27.7902,57.9163],[27.8959,57.9675],[27.988,57.8644],[28.1192,57.8565],[28.1705,57.9294],[28.1486,58.0215],[27.9558,58.1839],[27.8166,58.1981],[27.6525,58.1421],[27.6001,58.216],[27.5773,58.305],[27.6828,58.3282],[27.7465,58.4549],[27.8717,58.5063],[27.7721,58.7162],[27.8182,58.828],[27.7673,58.9297]]]},"properties":{"GID_0":"RUS","GID_1":"RUS.57_1","GID_2":"RUS.57.28_1","NAME_1":"Pskov","NAME_2":"Waterbody"}}
]}