{"type":"FeatureCollection", "features": [
{"type":"Feature","geometry":{"type":"Polygon","coordinates":[[[39.3481,56.5433],[39.1407,56.5858],[38.9451,56.5487],[38.7826,56.6071],[38.321,56.5155],[38.4841,56.3802],[38.5259,56.1941],[38.5465,56.2053],[38.6097,56.1779],[38.9176,56.3139],[39.0617,56.2967],[39.2362,56.479],[39.3481,56.5433]]]},"properties":{"GID_0":"RUS","GID_1":"RUS.76_1","GID_2":"RUS.76.1_1","NAME_1":"Vladimir","NAME_2":"Aleksandrovskiyrayon"}},
{"type":"Feature","geometry":{"type":"Polygon","coordinates":[[[42.3797,55.7764],[42.4714,55.9098],[42.6915,55.9772],[42.7182,56.0863],[42.9335,56.2008],[42.7443,56.2433],[42.5971,56.3744],[42.455,56.1388],[42.2006,56.0232],[42.1998,55.8749],[42.3797,55.7764]]]},"properties":{"GID_0":"RUS","GID_1":"RUS.76_1","GID_2":"RUS.76.2_1","NAME_1":"Vladimir","NAME_2":"Gorokhovetskiyrayon"}},
{"type":"Feature","geometry":{"type":"Polygon","coordinates":[[[40.0354,55.6676],[40.1895,55.5085],[40.1681,55.4014],[40.3575,55.2574],[40.5047,55.3096],[40.6049,55.1782],[41.207,55.2108],[41.162,55.3267],[41.3351,55.4543],[41.291,55.5526],[41.2636,55.6292],[41.0551,55.6326],[41.0407,55.7669],[40.7302,55.8016],[40.3367,55.7755],[40.0354,55.6676]]]},"properties":{"GID_0":"RUS","GID_1":"RUS.76_1","GID_2":"RUS.76.3_1","NAME_1":"Vladimir","NAME_2":"Gus'-Khrustal'nyyrayon"}},
{"type":"Feature","geometry":{"type":"Polygon","coordinates":[[[40.8148,56.5792],[40.6307,56.2682],[40.633,56.0892],[40.8866,56.0583],[41.1336,56.108],[41.0615,56.2034],[41.1706,56.3606],[41.1252,56.4751],[40.8498,56.5038],[40.8148,56.5792]]]},"properties":{"GID_0":"RUS","GID_1":"RUS.76_1","GID_2":"RUS.76.4_1","NAME_1":"Vladimir","NAME_2":"Kameshkovskiyrayon"}},
{"type":"Feature","geometry":{"type":"Polygon","coordinates":[[[38.6097,56.1779],[38.6152,55.9884],[38.848,55.9277],[39.1581,56.0733],[39.0267,56.1737],[39.0617,56.2967],[38.9176,56.3139],[38.6097,56.1779]]]},"properties":{"GID_0":"RUS","GID_1":"RUS.76_1","GID_2":"RUS.76.5_1","NAME_1":"Vladimir","NAME_2":"Kirzhachskiyrayon"}},
{"type":"Feature","geometry":{"type":"Polygon","coordinates":[[[39.3917,56.269],[39.365,56.2898],[39.321,56.2824],[39.3206,56.2624],[39.3917,56.269]]]},"properties":{"GID_0":"RUS","GID_1":"RUS.76_1","GID_2":"RUS.76.6_1","NAME_1":"Vladimir","NAME_2":"Kol'chugino"}},
{"type":"Feature","geometry":{"type":"Polygon","coordinates":[[[39.0617,56.2967],[39.0267,56.1737],[39.1581,56.0733],[39.4045,56.0506],[39.6815,56.1223],[39.7717,56.2538],[39.6175,56.288],[39.4785,56.448],[39.2362,56.479],[39.0617,56.2967]],[[39.3917,56.269],[39.3206,56.2624],[39.321,56.2824],[39.365,56.2898],[39.3917,56.269]]]},"properties":{"GID_0":"RUS","GID_1":"RUS.76_1","GID_2":"RUS.76.7_1","NAME_1":"Vladimir","NAME_2":"Kol'chuginskiyrayon"}},
{"type":"Feature","geometry":{"type":"Polygon","coordinates":[[[41.3211,56.308],[41.262,56.3475],[41.2374,56.2979],[41.3211,56.308]]]},"properties":{"GID_0":"RUS","GID_1":"RUS.76_1","GID_2":"RUS.76.8_1","NAME_1":"Vladimir","NAME_2":"Kovrov"}},
{"type":"Feature","geometry":{"type":"Polygon","coordinates":[[[41.1252,56.4751],[41.1706,56.3606],[41.0615,56.2034],[41.1336,56.108],[41.3509,55.925],[41.7596,55.9905],[41.5566,56.0524],[41.7414,56.1967],[41.6066,56.2559],[41.9325,56.4046],[41.9004,56.4972],[41.6085,56.45],[41.1252,56.4751]],[[41.3211,56.308],[41.2374,56.2979],[41.262,56.3475],[41.3211,56.308]]]},"properties":{"GID_0":"RUS","GID_1":"RUS.76_1","GID_2":"RUS.76.9_1","NAME_1":"Vladimir","NAME_2":"Kovrovskiyrayon"}},
{"type":"Feature","geometry":{"type":"Polygon","coordinates":[[[42.1263,55.4363],[41.908,55.4381],[41.6859,55.576],[41.3071,55.5183],[41.3351,55.4543],[41.162,55.3267],[41.207,55.2108],[41.4532,55.1094],[41.8747,55.1318],[41.9801,55.3345],[42.1263,55.4363]]]},"properties":{"GID_0":"RUS","GID_1":"RUS.76_1","GID_2":"RUS.76.10_1","NAME_1":"Vladimir","NAME_2":"Melenkovskiyrayon"}},
{"type":"Feature","geometry":{"type":"Polygon","coordinates":[[[42.0845,55.5332],[42.044,55.5972],[41.9729,55.5728],[42.0845,55.5332]]]},"properties":{"GID_0":"RUS","GID_1":"RUS.76_1","GID_2":"RUS.76.11_1","NAME_1":"Vladimir","NAME_2":"Murom"}},
{"type":"Feature","geometry":{"type":"Polygon","coordinates":[[[42.1263,55.4363],[41.9729,55.5728],[42.044,55.5972],[42.0845,55.5332],[42.0887,55.6081],[42.3797,55.7764],[42.1998,55.8749],[42.0809,55.8891],[41.6727,55.6622],[41.6859,55.576],[41.908,55.4381],[42.1263,55.4363]]]},"properties":{"GID_0":"RUS","GID_1":"RUS.76_1","GID_2":"RUS.76.12_1","NAME_1":"Vladimir","NAME_2":"Muromskiyrayon"}},
{"type":"Feature","geometry":{"type":"Polygon","coordinates":[[[38.848,55.9277],[39.0526,55.9171],[39.363,55.7583],[39.7468,55.8105],[39.8031,55.9259],[39.6815,56.1223],[39.4045,56.0506],[39.1581,56.0733],[38.848,55.9277]]]},"properties":{"GID_0":"RUS","GID_1":"RUS.76_1","GID_2":"RUS.76.13_1","NAME_1":"Vladimir","NAME_2":"Petushinskiyrayon"}},
{"type":"Feature","geometry":{"type":"Polygon","coordinates":[[[41.3071,55.5183],[41.6859,55.576],[41.6727,55.6622],[42.0809,55.8891],[41.9559,55.9737],[41.7596,55.9905],[41.3509,55.925],[41.4204,55.793],[41.2756,55.5972],[41.291,55.5526],[41.3071,55.5183]]]},"properties":{"GID_0":"RUS","GID_1":"RUS.76_1","GID_2":"RUS.76.14_1","NAME_1":"Vladimir","NAME_2":"Selivanovskiyrayon"}},
{"type":"Feature","geometry":{"type":"Polygon","coordinates":[[[40.0331,55.9501],[40.0266,55.965],[39.9783,55.9627],[40.0092,55.9405],[40.0331,55.9501]]]},"properties":{"GID_0":"RUS","GID_1":"RUS.76_1","GID_2":"RUS.76.15_1","NAME_1":"Vladimir","NAME_2":"Sobinka"}},
{"type":"Feature","geometry":{"type":"Polygon","coordinates":[[[40.0354,55.6676],[40.3367,55.7755],[40.2215,55.971],[40.1651,56.1183],[39.9929,56.2851],[39.7717,56.2538],[39.6815,56.1223],[39.8031,55.9259],[39.7468,55.8105],[39.9257,55.8156],[40.0354,55.6676]],[[40.0331,55.9501],[40.0092,55.9405],[39.9783,55.9627],[40.0266,55.965],[40.0331,55.9501]]]},"properties":{"GID_0":"RUS","GID_1":"RUS.76_1","GID_2":"RUS.76.16_1","NAME_1":"Vladimir","NAME_2":"Sobinskiyrayon"}},
{"type":"Feature","geometry":{"type":"Polygon","coordinates":[[[41.2756,55.5972],[41.4204,55.793],[41.3509,55.925],[41.1336,56.108],[40.8866,56.0583],[40.633,56.0892],[40.2215,55.971],[40.3367,55.7755],[40.7302,55.8016],[41.0407,55.7669],[41.0551,55.6326],[41.2636,55.6292],[41.2756,55.5972]]]},"properties":{"GID_0":"RUS","GID_1":"RUS.76_1","GID_2":"RUS.76.17_1","NAME_1":"Vladimir","NAME_2":"Sudogodskiyrayon"}},
{"type":"Feature","geometry":{"type":"Polygon","coordinates":[[[40.4425,56.3643],[40.4443,56.4052],[40.4061,56.4057],[40.4059,56.376],[40.4425,56.3643]]]},"properties":{"GID_0":"RUS","GID_1":"RUS.76_1","GID_2":"RUS.76.18_1","NAME_1":"Vladimir","NAME_2":"Suzdal'"}},
{"type":"Feature","geometry":{"type":"Polygon","coordinates":[[[40.2009,56.4176],[40.0318,56.3918],[39.9929,56.2851],[40.1651,56.1183],[40.2215,55.971],[40.633,56.0892],[40.6307,56.2682],[40.8148,56.5792],[40.7231,56.5952],[40.3142,56.5099],[40.2009,56.4176]],[[40.4425,56.3643],[40.4059,56.376],[40.4061,56.4057],[40.4443,56.4052],[40.4425,56.3643]],[[40.4321,56.0683],[40.2158,56.0464],[40.3354,56.1333],[40.4321,56.0683]]]},"properties":{"GID_0":"RUS","GID_1":"RUS.76_1","GID_2":"RUS.76.19_1","NAME_1":"Vladimir","NAME_2":"Suzdal'skiyrayon"}},
{"type":"Feature","geometry":{"type":"Polygon","coordinates":[[[40.4321,56.0683],[40.3354,56.1333],[40.2158,56.0464],[40.4321,56.0683]]]},"properties":{"GID_0":"RUS","GID_1":"RUS.76_1","GID_2":"RUS.76.20_1","NAME_1":"Vladimir","NAME_2":"Vladimir"}},
{"type":"Feature","geometry":{"type":"Polygon","coordinates":[[[42.1999,56.2041],[42.1273,56.2358],[42.0983,56.2117],[42.1999,56.2041]]]},"properties":{"GID_0":"RUS","GID_1":"RUS.76_1","GID_2":"RUS.76.21_1","NAME_1":"Vladimir","NAME_2":"Vyazniki"}},
{"type":"Feature","geometry":{"type":"Polygon","coordinates":[[[42.5971,56.3744],[42.2815,56.4563],[42.0595,56.3399],[41.9325,56.4046],[41.6066,56.2559],[41.7414,56.1967],[41.5566,56.0524],[41.7596,55.9905],[41.9559,55.9737],[42.0809,55.8891],[42.1998,55.8749],[42.2006,56.0232],[42.455,56.1388],[42.5971,56.3744]],[[42.1999,56.2041],[42.0983,56.2117],[42.1273,56.2358],[42.1999,56.2041]]]},"properties":{"GID_0":"RUS","GID_1":"RUS.76_1","GID_2":"RUS.76.22_1","NAME_1":"Vladimir","NAME_2":"Vyaznikovskiyrayon"}},
{"type":"Feature","geometry":{"type":"Polygon","coordinates":[[[40.2009,56.4176],[40.0067,56.4638],[39.8854,56.765],[39.707,56.8074],[39.4383,56.7606],[39.3481,56.5433],[39.2362,56.479],[39.4785,56.448],[39.6175,56.288],[39.7717,56.2538],[39.9929,56.2851],[40.0318,56.3918],[40.2009,56.4176]]]},"properties":{"GID_0":"RUS","GID_1":"RUS.76_1","GID_2":"RUS.76.23_1","NAME_1":"Vladimir","NAME_2":"Yur'ev-Pol'skiyrayon"}}
]}