{"type":"FeatureCollection", "features": [
{"type":"Feature","geometry":{"type":"Polygon","coordinates":[[[41.101,57.252],[41.0969,57.2594],[41.0886,57.2575],[41.0907,57.251],[41.101,57.252]]]},"properties":{"GID_0":"RUS","GID_1":"RUS.19_1","GID_2":"RUS.19.1_1","NAME_1":"Ivanovo","NAME_2":"Furmanov"}},
{"type":"Feature","geometry":{"type":"Polygon","coordinates":[[[41.356,57.0748],[41.4201,57.1908],[41.0932,57.3381],[40.6371,57.3101],[40.6374,57.1347],[41.356,57.0748]],[[41.101,57.252],[41.0907,57.251],[41.0886,57.2575],[41.0969,57.2594],[41.101,57.252]]]},"properties":{"GID_0":"RUS","GID_1":"RUS.19_1","GID_2":"RUS.19.2_1","NAME_1":"Ivanovo","NAME_2":"Furmanovskiyrayon"}},
{"type":"Feature","geometry":{"type":"Polygon","coordinates":[[[39.8214,56.7803],[40.0067,56.4638],[40.2243,56.4085],[40.3831,56.5306],[40.3444,56.6189],[40.1123,56.8006],[39.8214,56.7803]]]},"properties":{"GID_0":"RUS","GID_1":"RUS.19_1","GID_2":"RUS.19.3_1","NAME_1":"Ivanovo","NAME_2":"Gavrilovo-Posadskiyrayon"}},
{"type":"Feature","geometry":{"type":"Polygon","coordinates":[[[40.1123,56.8006],[40.1771,56.9259],[40.0892,57.0671],[40.1205,57.1985],[39.6476,57.0553],[39.4662,56.8368],[39.5461,56.7899],[39.8214,56.7803],[40.1123,56.8006]]]},"properties":{"GID_0":"RUS","GID_1":"RUS.19_1","GID_2":"RUS.19.4_1","NAME_1":"Ivanovo","NAME_2":"Il’inskiyrayon"}},
{"type":"Feature","geometry":{"type":"Polygon","coordinates":[[[41.0961,57.011],[40.9454,57.0974],[40.8619,57.0162],[41.0961,57.011]]]},"properties":{"GID_0":"RUS","GID_1":"RUS.19_1","GID_2":"RUS.19.5_1","NAME_1":"Ivanovo","NAME_2":"Ivanovo"}},
{"type":"Feature","geometry":{"type":"Polygon","coordinates":[[[40.6374,57.1347],[40.583,57.0226],[40.7591,56.9235],[40.9735,56.8308],[41.133,56.8406],[41.4001,57.0388],[41.356,57.0748],[40.6374,57.1347]],[[41.0961,57.011],[40.8619,57.0162],[40.9454,57.0974],[41.0961,57.011]]]},"properties":{"GID_0":"RUS","GID_1":"RUS.19_1","GID_2":"RUS.19.6_1","NAME_1":"Ivanovo","NAME_2":"Ivanovskiyrayon"}},
{"type":"Feature","geometry":{"type":"Polygon","coordinates":[[[42.1598,57.4412],[42.1006,57.4684],[42.0738,57.4419],[42.1103,57.427],[42.1598,57.4412]]]},"properties":{"GID_0":"RUS","GID_1":"RUS.19_1","GID_2":"RUS.19.7_1","NAME_1":"Ivanovo","NAME_2":"Kineshema"}},
{"type":"Feature","geometry":{"type":"Polygon","coordinates":[[[42.665,57.1884],[42.5843,57.4178],[42.7739,57.4506],[42.8418,57.6657],[42.5927,57.6283],[42.5829,57.4909],[42.3999,57.4339],[41.9946,57.5003],[41.8785,57.4338],[42.0923,57.2611],[42.2718,57.1662],[42.374,57.0924],[42.5426,57.0951],[42.665,57.1884]],[[42.1598,57.4412],[42.1103,57.427],[42.0738,57.4419],[42.1006,57.4684],[42.1598,57.4412]]]},"properties":{"GID_0":"RUS","GID_1":"RUS.19_1","GID_2":"RUS.19.8_1","NAME_1":"Ivanovo","NAME_2":"Kineshemskiyrayon"}},
{"type":"Feature","geometry":{"type":"Polygon","coordinates":[[[40.6371,57.3101],[40.1205,57.1985],[40.0892,57.0671],[40.1771,56.9259],[40.4642,56.9189],[40.583,57.0226],[40.6374,57.1347],[40.6371,57.3101]]]},"properties":{"GID_0":"RUS","GID_1":"RUS.19_1","GID_2":"RUS.19.9_1","NAME_1":"Ivanovo","NAME_2":"Komsomol’skiyrayon"}},
{"type":"Feature","geometry":{"type":"Polygon","coordinates":[[[40.7591,56.9235],[40.8278,56.7105],[40.7651,56.5879],[40.8404,56.5382],[41.0327,56.6474],[40.9735,56.8308],[40.7591,56.9235]]]},"properties":{"GID_0":"RUS","GID_1":"RUS.19_1","GID_2":"RUS.19.10_1","NAME_1":"Ivanovo","NAME_2":"Lezhnevskiyrayon"}},
{"type":"Feature","geometry":{"type":"Polygon","coordinates":[[[42.3342,57.121],[42.0198,57.0288],[42.02,56.9689],[42.2764,56.8539],[42.5649,56.9265],[42.7698,56.9368],[42.7541,57.0922],[42.665,57.1884],[42.5426,57.0951],[42.374,57.0924],[42.3342,57.121]]]},"properties":{"GID_0":"RUS","GID_1":"RUS.19_1","GID_2":"RUS.19.11_1","NAME_1":"Ivanovo","NAME_2":"Lukhskiyrayon"}},
{"type":"Feature","geometry":{"type":"Polygon","coordinates":[[[42.02,56.9689],[41.7589,56.9659],[41.6063,56.7413],[42.0732,56.6814],[42.257,56.7317],[42.2764,56.8539],[42.02,56.9689]]]},"properties":{"GID_0":"RUS","GID_1":"RUS.19_1","GID_2":"RUS.19.12_1","NAME_1":"Ivanovo","NAME_2":"Palekhskiyrayon"}},
{"type":"Feature","geometry":{"type":"Polygon","coordinates":[[[42.4259,56.4389],[42.913,56.4727],[42.9248,56.6214],[42.8004,56.6948],[42.4787,56.7726],[42.2889,56.7038],[42.4259,56.4389]]]},"properties":{"GID_0":"RUS","GID_1":"RUS.19_1","GID_2":"RUS.19.13_1","NAME_1":"Ivanovo","NAME_2":"Pestyakovskiyrayon"}},
{"type":"Feature","geometry":{"type":"Polygon","coordinates":[[[41.4201,57.1908],[41.5728,57.2661],[41.6464,57.4157],[41.534,57.4621],[41.1571,57.3834],[41.0932,57.3381],[41.4201,57.1908]]]},"properties":{"GID_0":"RUS","GID_1":"RUS.19_1","GID_2":"RUS.19.14_1","NAME_1":"Ivanovo","NAME_2":"Privolzhskiyrayon"}},
{"type":"Feature","geometry":{"type":"Polygon","coordinates":[[[42.7698,56.9368],[42.9003,56.8191],[43.2985,56.8606],[43.1201,57.1037],[42.7541,57.0922],[42.7698,56.9368]]]},"properties":{"GID_0":"RUS","GID_1":"RUS.19_1","GID_2":"RUS.19.15_1","NAME_1":"Ivanovo","NAME_2":"Puchezhskiyrayon"}},
{"type":"Feature","geometry":{"type":"Polygon","coordinates":[[[41.356,57.0748],[41.4001,57.0388],[41.7589,56.9659],[42.02,56.9689],[42.0198,57.0288],[41.986,57.0799],[41.5728,57.2661],[41.4201,57.1908],[41.356,57.0748]]]},"properties":{"GID_0":"RUS","GID_1":"RUS.19_1","GID_2":"RUS.19.16_1","NAME_1":"Ivanovo","NAME_2":"Rodnikovskiyrayon"}},
{"type":"Feature","geometry":{"type":"Polygon","coordinates":[[[40.8404,56.5382],[41.1252,56.4751],[41.6085,56.45],[41.8498,56.4835],[41.5465,56.6889],[41.3006,56.6554],[41.191,56.7106],[41.0327,56.6474],[40.8404,56.5382]]]},"properties":{"GID_0":"RUS","GID_1":"RUS.19_1","GID_2":"RUS.19.17_1","NAME_1":"Ivanovo","NAME_2":"Savinskiyrayon"}},
{"type":"Feature","geometry":{"type":"Polygon","coordinates":[[[41.4152,56.8309],[41.3968,56.858],[41.3537,56.8627],[41.3493,56.8253],[41.4152,56.8309]]]},"properties":{"GID_0":"RUS","GID_1":"RUS.19_1","GID_2":"RUS.19.18_1","NAME_1":"Ivanovo","NAME_2":"Shuya"}},
{"type":"Feature","geometry":{"type":"Polygon","coordinates":[[[40.9735,56.8308],[41.0327,56.6474],[41.191,56.7106],[41.3006,56.6554],[41.5465,56.6889],[41.6063,56.7413],[41.7589,56.9659],[41.4001,57.0388],[41.133,56.8406],[40.9735,56.8308]],[[41.4152,56.8309],[41.3493,56.8253],[41.3537,56.8627],[41.3968,56.858],[41.4152,56.8309]]]},"properties":{"GID_0":"RUS","GID_1":"RUS.19_1","GID_2":"RUS.19.19_1","NAME_1":"Ivanovo","NAME_2":"Shuyskiyrayon"}},
{"type":"Feature","geometry":{"type":"Polygon","coordinates":[[[43.2985,56.8606],[43.5152,56.8827],[43.6865,57.0612],[43.4984,57.1139],[43.5568,57.2474],[43.7812,57.3134],[43.7108,57.4959],[43.4708,57.5458],[43.1458,57.4206],[43.1201,57.1037],[43.2985,56.8606]]]},"properties":{"GID_0":"RUS","GID_1":"RUS.19_1","GID_2":"RUS.19.20_1","NAME_1":"Ivanovo","NAME_2":"Sokol’skiyrayon"}},
{"type":"Feature","geometry":{"type":"Polygon","coordinates":[[[40.5793,56.8129],[40.5802,56.8237],[40.5604,56.8186],[40.5793,56.8129]]]},"properties":{"GID_0":"RUS","GID_1":"RUS.19_1","GID_2":"RUS.19.21_1","NAME_1":"Ivanovo","NAME_2":"Teykovo"}},
{"type":"Feature","geometry":{"type":"Polygon","coordinates":[[[40.3831,56.5306],[40.7651,56.5879],[40.8278,56.7105],[40.7591,56.9235],[40.583,57.0226],[40.4642,56.9189],[40.1771,56.9259],[40.1123,56.8006],[40.3444,56.6189],[40.3831,56.5306]],[[40.5793,56.8129],[40.5604,56.8186],[40.5802,56.8237],[40.5793,56.8129]]]},"properties":{"GID_0":"RUS","GID_1":"RUS.19_1","GID_2":"RUS.19.22_1","NAME_1":"Ivanovo","NAME_2":"Teykovskiyrayon"}},
{"type":"Feature","geometry":{"type":"Polygon","coordinates":[[[42.2764,56.8539],[42.257,56.7317],[42.2889,56.7038],[42.4787,56.7726],[42.8004,56.6948],[42.9003,56.8191],[42.7698,56.9368],[42.5649,56.9265],[42.2764,56.8539]]]},"properties":{"GID_0":"RUS","GID_1":"RUS.19_1","GID_2":"RUS.19.23_1","NAME_1":"Ivanovo","NAME_2":"Vernelandekhovskiyrayon"}},
{"type":"Feature","geometry":{"type":"Polygon","coordinates":[[[41.9463,57.1999],[41.9392,57.2297],[41.8729,57.2213],[41.8957,57.1892],[41.9463,57.1999]]]},"properties":{"GID_0":"RUS","GID_1":"RUS.19_1","GID_2":"RUS.19.24_1","NAME_1":"Ivanovo","NAME_2":"Vichuga"}},
{"type":"Feature","geometry":{"type":"Polygon","coordinates":[[[41.8785,57.4338],[41.6464,57.4157],[41.5728,57.2661],[41.986,57.0799],[42.0198,57.0288],[42.3342,57.121],[42.2718,57.1662],[42.0923,57.2611],[41.8785,57.4338]],[[41.9463,57.1999],[41.8957,57.1892],[41.8729,57.2213],[41.9392,57.2297],[41.9463,57.1999]]]},"properties":{"GID_0":"RUS","GID_1":"RUS.19_1","GID_2":"RUS.19.25_1","NAME_1":"Ivanovo","NAME_2":"Vichugskiyrayon"}},
{"type":"Feature","geometry":{"type":"Polygon","coordinates":[[[42.665,57.1884],[42.7541,57.0922],[43.1201,57.1037],[43.1458,57.4206],[42.8815,57.3917],[42.7739,57.4506],[42.5843,57.4178],[42.665,57.1884]]]},"properties":{"GID_0":"RUS","GID_1":"RUS.19_1","GID_2":"RUS.19.26_1","NAME_1":"Ivanovo","NAME_2":"Yur’evskiyrayon"}},
{"type":"Feature","geometry":{"type":"Polygon","coordinates":[[[41.6063,56.7413],[41.5465,56.6889],[41.8498,56.4835],[41.9338,56.3687],[42.0595,56.3399],[42.2815,56.4563],[42.4259,56.4389],[42.2889,56.7038],[42.257,56.7317],[42.0732,56.6814],[41.6063,56.7413]]]},"properties":{"GID_0":"RUS","GID_1":"RUS.19_1","GID_2":"RUS.19.27_1","NAME_1":"Ivanovo","NAME_2":"Yuzhskiyrayon"}},
{"type":"Feature","geometry":{"type":"Polygon","coordinates":[[[42.5927,57.6283],[42.1341,57.5698],[41.8115,57.6928],[41.534,57.4621],[41.6464,57.4157],[41.8785,57.4338],[41.9946,57.5003],[42.3999,57.4339],[42.5829,57.4909],[42.5927,57.6283]]]},"properties":{"GID_0":"RUS","GID_1":"RUS.19_1","GID_2":"RUS.19.28_1","NAME_1":"Ivanovo","NAME_2":"Zavolzhskiyrayon"}}
]}