{"type":"FeatureCollection", "features": [
{"type":"Feature","geometry":{"type":"Polygon","coordinates":[[[80.9889,63.1339],[81.0113,63.1028],[81.0669,63.0469],[81.1793,62.991],[81.3376,62.9183],[81.3056,62.8924],[81.3023,62.8646],[81.3499,62.8359],[81.4398,62.8034],[81.5152,62.7869],[81.6179,62.8069],[81.672,62.7639],[81.757,62.7108],[81.852,62.6854],[81.9314,62.6956],[81.9474,62.7343],[81.9846,62.7796],[82.0406,62.8149],[82.1283,62.8223],[82.317,62.7623],[82.4004,62.7519],[82.583,62.7642],[82.7917,62.7568],[82.7977,62.6458],[82.8394,62.6312],[83.076,62.6053],[83.0963,62.5843],[83.1027,62.5326],[83.2242,62.489],[83.3938,62.4547],[83.4542,62.4571],[83.6078,62.5303],[83.6257,62.5202],[83.622,62.4777],[83.6623,62.4796],[83.7132,62.507],[83.8022,62.5406],[83.8676,62.5341],[83.9241,62.5172],[83.9827,62.4846],[84.0307,62.4367],[84.1102,62.3756],[84.2203,62.3806],[84.3079,62.3344],[84.3258,62.2682],[84.4067,62.2417],[84.4557,62.1977],[84.5145,62.1781],[84.5364,62.2272],[84.5863,62.2653],[84.8335,62.3985],[84.9179,62.4466],[84.9527,62.4876],[84.9697,62.5397],[84.9604,62.5787],[85.0378,62.6418],[85.0431,62.6684],[85.15,62.7103],[85.215,62.7543],[85.2783,62.7766],[85.352,62.8613],[85.4306,62.8869],[85.5087,62.9227],[85.5307,62.9667],[85.535,63.0052],[85.5913,63.0257],[85.6163,63.0755],[85.6035,63.1021],[85.539,63.144],[85.5344,63.1704],[85.5873,63.2035],[85.5646,63.2486],[85.6113,63.3609],[85.5513,63.3773],[85.4558,63.3697],[85.41,63.3939],[85.3745,63.4637],[85.2913,63.5056],[85.2208,63.5068],[85.1506,63.5323],[85.122,63.5787],[85.2257,63.6123],[85.3146,63.6676],[85.3263,63.8015],[85.3565,63.8379],[85.4186,63.8579],[85.5027,63.8745],[85.6865,63.9627],[85.9614,64.0516],[85.9681,64.1031],[85.9488,64.1662],[85.9842,64.1908],[85.9656,64.2658],[85.8903,64.3653],[85.915,64.4028],[85.8185,64.492],[85.8392,64.5272],[85.9214,64.5718],[85.9046,64.6082],[85.8717,64.6339],[85.8554,64.7564],[85.8134,64.7858],[85.7184,64.79],[85.6901,64.8143],[85.6403,64.8282],[85.5627,64.8367],[85.4591,64.8159],[85.3528,64.7725],[85.2551,64.7798],[85.2091,64.7959],[85.1607,64.8274],[85.0175,64.8488],[85.1006,64.8912],[85.0761,64.9231],[84.9855,64.9227],[84.8404,64.904],[84.7147,64.8944],[84.5674,64.9029],[84.4226,64.907],[84.3824,64.9327],[84.4156,64.9556],[84.4495,64.9943],[84.437,65.0265],[84.4039,65.0595],[84.3462,65.0815],[84.3387,65.105],[84.4144,65.1749],[84.5512,65.2163],[84.6534,65.2691],[84.6348,65.3091],[84.5708,65.3902],[84.5838,65.4472],[84.5479,65.4855],[84.513,65.5053],[84.4135,65.5346],[84.2064,65.5558],[84.179,65.567],[84.2032,65.5834],[84.2774,65.5899],[84.3581,65.6109],[84.353,65.63],[84.3113,65.6575],[84.1312,65.6963],[83.9601,65.7573],[83.868,65.7572],[83.7565,65.7374],[83.634,65.7528],[83.5731,65.7866],[83.5399,65.8951],[83.5,65.9246],[83.4049,65.967],[83.3717,66.014],[83.4112,66.0461],[83.4646,66.0535],[83.4669,66.1033],[83.5102,66.1227],[83.6047,66.1426],[83.5538,66.1776],[83.3754,66.3302],[83.2167,66.3951],[83.1174,66.455],[83.1082,66.4999],[83.1642,66.5432],[83.2178,66.5721],[83.3142,66.6027],[83.3521,66.6515],[83.2938,66.6886],[83.2536,66.7378],[83.2396,66.7841],[83.1428,66.8136],[83.0797,66.8248],[83.0618,66.882],[82.8919,66.9441],[82.7878,66.9766],[82.6175,66.9678],[82.3747,66.9494],[82.2309,66.9611],[82.1734,66.9304],[82.166,66.9004],[82.1368,66.8539],[82.0379,66.844],[81.8906,66.8842],[81.786,66.8687],[81.6979,66.8343],[81.6927,66.7433],[81.7764,66.6914],[81.7895,66.6308],[81.7678,66.5558],[81.6914,66.484],[81.561,66.4248],[81.422,66.4228],[81.2547,66.4108],[80.9685,66.4109],[80.5363,66.4202],[80.3241,66.4405],[80.2239,66.4461],[80.1644,66.4425],[80.0176,66.4099],[79.9137,66.375],[79.8809,66.3623],[79.864,66.3411],[79.8219,66.3374],[79.7318,66.2853],[79.6364,66.2169],[79.5888,66.1043],[79.554,66.0827],[79.3675,66.0782],[79.3184,66.0479],[79.3718,65.9969],[79.4714,65.9616],[79.6301,65.9378],[79.7672,65.8902],[80.0516,65.7346],[80.1441,65.6906],[80.1624,65.6731],[80.1245,65.6285],[80.0591,65.5746],[80.0628,65.5307],[80.1179,65.4924],[80.1734,65.4353],[80.0856,65.3568],[80.0533,65.3176],[80.0657,65.2804],[80.0662,65.2257],[80.0196,65.2054],[79.9489,65.2046],[79.9264,65.231],[79.854,65.2233],[79.7955,65.1919],[79.7013,65.168],[79.609,65.1537],[79.5161,65.146],[79.4488,65.1292],[79.5227,65.0966],[79.7612,65.0492],[79.7916,65.0277],[79.7922,64.9644],[79.805,64.915],[79.8627,64.8811],[79.9268,64.8717],[79.8959,64.8165],[79.8181,64.7787],[79.6814,64.7025],[79.6367,64.6367],[79.5978,64.5576],[79.5881,64.4757],[79.5315,64.3788],[79.3651,64.2713],[79.349,64.2368],[79.3638,64.1819],[79.4079,64.1292],[79.4664,64.0747],[79.7298,64.0022],[79.8211,63.9798],[79.8612,63.9578],[79.8576,63.8871],[79.8332,63.8267],[79.8036,63.7979],[79.7991,63.7527],[79.6689,63.6308],[79.5317,63.5647],[79.4141,63.5261],[79.3491,63.4843],[79.3482,63.4318],[79.4885,63.273],[79.4751,63.2196],[79.4972,63.1886],[79.6223,63.1542],[79.7639,63.1507],[79.8835,63.1725],[79.9166,63.2418],[79.9121,63.282],[79.9571,63.3159],[80.0775,63.3375],[80.1554,63.3398],[80.1684,63.315],[80.1434,63.2641],[80.1517,63.2273],[80.1856,63.1997],[80.2564,63.1744],[80.3188,63.1831],[80.4694,63.2446],[80.6409,63.2726],[80.7597,63.2773],[80.871,63.261],[80.9285,63.229],[80.9621,63.1909],[80.9889,63.1339]]]},"properties":{"GID_0":"RUS","GID_1":"RUS.80_1","GID_2":"RUS.80.1_1","NAME_1":"Yamal-Nenets","NAME_2":"Krasnosel'kupskiyrayon"}},
{"type":"Feature","geometry":{"type":"Polygon","coordinates":[[[73.4618,63.7776],[73.5106,63.7822],[73.5458,63.7999],[73.5216,63.8266],[73.4682,63.8289],[73.4299,63.803],[73.4268,63.787],[73.4618,63.7776]]]},"properties":{"GID_0":"RUS","GID_1":"RUS.80_1","GID_2":"RUS.80.2_1","NAME_1":"Yamal-Nenets","NAME_2":"Muravlenko"}},
{"type":"Feature","geometry":{"type":"Polygon","coordinates":[[[72.536,65.4904],[72.5935,65.5007],[72.6391,65.5205],[72.6198,65.5389],[72.5612,65.5566],[72.47,65.5404],[72.4677,65.5173],[72.492,65.4943],[72.536,65.4904]]]},"properties":{"GID_0":"RUS","GID_1":"RUS.80_1","GID_2":"RUS.80.3_1","NAME_1":"Yamal-Nenets","NAME_2":"Nadym"}},
{"type":"Feature","geometry":{"type":"MultiPolygon","coordinates":[[[[70.3726,64.3159],[70.4089,64.2994],[70.5034,64.2427],[70.6377,64.2023],[70.7538,64.1822],[70.8001,64.1447],[70.8133,64.0885],[70.7373,64.0288],[70.6518,64.0051],[70.6928,63.9576],[70.8051,63.879],[70.89,63.8058],[70.9362,63.6937],[70.9856,63.682],[71.1365,63.6803],[71.3595,63.6882],[71.4347,63.6648],[71.5572,63.5686],[71.5783,63.4946],[71.5665,63.4108],[71.594,63.35],[71.6449,63.2751],[71.6789,63.1968],[71.7768,63.202],[71.8923,63.2314],[72.0887,63.2434],[72.1639,63.2576],[72.2197,63.2954],[72.3101,63.2859],[72.4351,63.2841],[72.5693,63.2752],[72.7483,63.2907],[72.8857,63.3618],[72.9338,63.4105],[72.9898,63.4174],[73.1524,63.4114],[73.2148,63.4735],[73.2557,63.5323],[73.7002,63.7453],[73.7534,63.809],[73.8159,63.8587],[73.9094,63.872],[74.1089,63.9231],[74.1938,63.9619],[74.269,64.0251],[74.3613,64.1206],[74.5233,64.2487],[74.6869,64.3572],[74.8556,64.4109],[75.0665,64.4569],[75.2872,64.5003],[75.4346,64.5416],[75.4768,64.6049],[75.5146,64.6954],[75.6269,64.7711],[75.7238,64.8316],[75.857,64.9066],[75.9739,64.9923],[75.9815,65.065],[75.9787,65.1264],[75.9221,65.1646],[75.7269,65.2095],[75.6456,65.2583],[75.3857,65.5268],[75.3721,65.5635],[75.4111,65.6078],[75.4609,65.646],[75.591,65.7009],[75.8423,65.7526],[76.1288,65.8005],[76.6603,65.9248],[76.8449,66.0125],[76.9044,66.0821],[76.8788,66.1421],[76.7823,66.1683],[76.6436,66.1794],[76.3318,66.1884],[76.0865,66.2062],[75.9477,66.2266],[75.8497,66.2834],[75.8364,66.4819],[75.8411,66.7623],[75.7826,66.8588],[75.889,66.9061],[75.9742,66.955],[76.2551,67.1291],[76.5533,67.2833],[76.5888,67.339],[76.5551,67.409],[76.5935,67.4378],[76.6633,67.4604],[76.7374,67.4651],[76.9323,67.4489],[77.0324,67.458],[77.2307,67.4866],[77.4227,67.5362],[77.6378,67.6022],[77.6292,67.6074],[77.5521,67.6521],[77.4021,67.675],[77.3255,67.6943],[77.2708,67.7167],[77.1729,67.7354],[77.0734,67.7714],[77.0693,67.7984],[77.0933,67.8195],[77.0571,67.8024],[76.8747,67.7853],[76.7163,67.7769],[76.6112,67.7903],[76.5737,67.8026],[76.4854,67.8037],[76.4384,67.8205],[76.2865,67.9237],[76.1868,67.9281],[75.8672,67.9556],[75.7395,67.99],[75.6941,68.0275],[75.6807,68.0745],[75.6304,68.1269],[75.5266,68.1648],[75.4167,68.2263],[75.5581,68.3272],[75.5259,68.4206],[75.51,68.485],[75.521,68.5748],[75.5893,68.5756],[75.665,68.5639],[75.8342,68.4888],[75.8992,68.4559],[75.9809,68.443],[76.0763,68.4504],[76.1808,68.4699],[76.352,68.5365],[76.43,68.6125],[76.4378,68.6632],[76.4183,68.7015],[76.3643,68.7264],[76.2816,68.7346],[76.2138,68.7517],[76.1871,68.7861],[76.0559,68.8443],[75.8785,68.9313],[75.8,68.9292],[75.7271,68.9167],[75.6792,68.9],[75.5583,68.8958],[75.5682,68.8797],[75.4625,68.8604],[75.4146,68.8688],[75.3417,68.8625],[75.3292,68.8812],[75.125,68.8354],[74.8979,68.8042],[74.7042,68.7729],[74.5958,68.7479],[74.4859,68.7078],[74.4422,68.6641],[74.4453,68.5984],[74.4359,68.5818],[74.4745,68.5307],[74.4641,68.4922],[74.3411,68.3943],[74.3125,68.3646],[74.3807,68.3349],[74.4646,68.2896],[74.4932,68.2849],[74.5911,68.2391],[74.7286,68.0953],[74.7276,68.0734],[74.7995,68.0245],[74.8203,67.962],[74.812,67.8974],[74.7859,67.7995],[74.7911,67.7693],[74.737,67.6818],[74.6453,67.6318],[74.5349,67.588],[74.3214,67.5162],[74.1193,67.437],[74.0651,67.3974],[74.0224,67.3443],[73.987,67.3172],[73.9234,67.2974],[73.9068,67.2745],[73.9391,67.2328],[73.9542,67.1958],[73.913,67.1401],[73.9026,67.112],[73.9245,67.0807],[73.9182,67.0651],[73.8708,67.0458],[73.8833,67.0146],[73.8536,66.988],[73.7583,66.9563],[73.6068,66.9266],[73.6078,66.9047],[73.5693,66.8786],[73.5557,66.8505],[73.5224,66.8339],[73.4,66.8021],[73.2625,66.7771],[73.1563,66.7521],[73.0396,66.7333],[72.9755,66.7078],[72.9745,66.6713],[72.9213,66.6578],[72.8625,66.6312],[72.8125,66.625],[72.6917,66.6208],[72.4938,66.5979],[72.4526,66.5766],[72.4287,66.5422],[72.3443,66.5036],[72.3953,66.4891],[72.3547,66.4484],[72.3953,66.4099],[72.4109,66.3526],[72.3432,66.3005],[72.2729,66.2896],[72.225,66.2729],[72.212,66.2547],[72.1667,66.2521],[72.088,66.2286],[72.0104,66.2354],[71.9521,66.25],[71.9146,66.2375],[71.8042,66.2354],[71.7589,66.2568],[71.7432,66.2891],[71.7042,66.3042],[71.6375,66.3167],[71.575,66.3187],[71.5125,66.3313],[71.2792,66.35],[71.1333,66.3521],[71.0354,66.3479],[71.0021,66.3562],[70.9146,66.35],[70.8271,66.35],[70.6896,66.3354],[70.6146,66.3313],[70.4896,66.3333],[70.3792,66.3292],[70.2396,66.3583],[70.1646,66.3583],[70.0708,66.3854],[69.9125,66.4],[69.9141,66.4141],[69.8609,66.4234],[69.8495,66.4453],[69.7396,66.4688],[69.5271,66.4875],[69.4271,66.4896],[69.312,66.5349],[69.2068,66.5714],[69.1483,66.606],[68.9587,66.5955],[68.8496,66.6067],[68.755,66.6062],[68.7191,66.5959],[68.7331,66.5442],[68.8224,66.4571],[68.9507,66.3892],[69.0437,66.3657],[69.1069,66.3373],[69.2045,66.2809],[69.3061,66.2806],[69.4716,66.2695],[69.7692,66.2281],[69.8953,66.2069],[69.971,66.1605],[70.0084,66.1291],[69.8983,66.0932],[69.6774,66.0475],[69.5299,66.01],[69.4725,66.0015],[69.4783,65.9863],[69.543,65.9348],[69.5693,65.8839],[69.5587,65.8471],[69.5355,65.825],[69.6939,65.7446],[69.8177,65.6696],[69.9133,65.595],[69.9615,65.5457],[70.033,65.556],[70.0956,65.534],[70.1006,65.5005],[70.1449,65.4667],[70.2375,65.4376],[70.4094,65.3523],[70.6548,65.3101],[70.7587,65.2893],[70.815,65.2631],[70.8287,65.2276],[70.7763,65.1779],[70.6653,65.1247],[70.5779,65.0679],[70.5231,65.0378],[70.4778,65.0247],[70.5049,64.9968],[70.6061,64.9205],[70.6032,64.8978],[70.5339,64.8597],[70.5309,64.8329],[70.5452,64.7633],[70.5445,64.724],[70.4993,64.6735],[70.4206,64.5438],[70.3795,64.4881],[70.3555,64.4279],[70.3968,64.3872],[70.4018,64.3661],[70.3726,64.3159]],[[73.4618,63.7776],[73.4268,63.787],[73.4299,63.803],[73.4682,63.8289],[73.5216,63.8266],[73.5458,63.7999],[73.5106,63.7822],[73.4618,63.7776]],[[72.536,65.4904],[72.492,65.4943],[72.4677,65.5173],[72.47,65.5404],[72.5612,65.5566],[72.6198,65.5389],[72.6391,65.5205],[72.5935,65.5007],[72.536,65.4904]],[[76.6562,66.0389],[76.6324,66.053],[76.6527,66.0917],[76.7111,66.1002],[76.7449,66.0876],[76.7558,66.0625],[76.7117,66.0378],[76.6562,66.0389]]],[[[70.1292,66.4354],[70.0667,66.4458],[69.9745,66.4234],[70.0292,66.4083],[70.0583,66.4187],[70.1203,66.4213],[70.1292,66.4354]]]]},"properties":{"GID_0":"RUS","GID_1":"RUS.80_1","GID_2":"RUS.80.4_1","NAME_1":"Yamal-Nenets","NAME_2":"Nadymskiyrayon"}},
{"type":"Feature","geometry":{"type":"Polygon","coordinates":[[[76.6562,66.0389],[76.7117,66.0378],[76.7558,66.0625],[76.7449,66.0876],[76.7111,66.1002],[76.6527,66.0917],[76.6324,66.053],[76.6562,66.0389]]]},"properties":{"GID_0":"RUS","GID_1":"RUS.80_1","GID_2":"RUS.80.5_1","NAME_1":"Yamal-Nenets","NAME_2":"NovyyUrengoy"}},
{"type":"Feature","geometry":{"type":"Polygon","coordinates":[[[75.3555,63.1722],[75.3295,63.1524],[75.3421,63.1276],[75.4134,63.1245],[75.4422,63.141],[75.3987,63.1719],[75.3555,63.1722]]]},"properties":{"GID_0":"RUS","GID_1":"RUS.80_1","GID_2":"RUS.80.6_1","NAME_1":"Yamal-Nenets","NAME_2":"Noyabr'sk"}},
{"type":"Feature","geometry":{"type":"MultiPolygon","coordinates":[[[[68.5583,66.6729],[68.4672,66.6484],[68.487,66.6276],[68.3729,66.6021],[68.3812,66.5833],[68.4953,66.6234],[68.5583,66.6729]]],[[[69.3672,66.7089],[69.3359,66.7099],[69.288,66.6911],[69.3151,66.6401],[69.3703,66.6349],[69.3568,66.6724],[69.4464,66.6901],[69.4063,66.7104],[69.3672,66.7089]]],[[[68.9519,64.4023],[69.1201,64.4256],[69.2543,64.4291],[69.3409,64.4142],[69.4151,64.3733],[69.4673,64.3531],[69.5794,64.3609],[69.7295,64.3665],[69.83,64.3595],[69.8775,64.3019],[69.9846,64.3033],[70.1868,64.3145],[70.3361,64.3325],[70.3726,64.3159],[70.4018,64.3661],[70.3968,64.3872],[70.3555,64.4279],[70.3795,64.4881],[70.4206,64.5438],[70.4993,64.6735],[70.5445,64.724],[70.5452,64.7633],[70.5309,64.8329],[70.5339,64.8597],[70.6032,64.8978],[70.6061,64.9205],[70.5049,64.9968],[70.4778,65.0247],[70.5231,65.0378],[70.5779,65.0679],[70.6653,65.1247],[70.7763,65.1779],[70.8287,65.2276],[70.815,65.2631],[70.7587,65.2893],[70.6548,65.3101],[70.4094,65.3523],[70.2375,65.4376],[70.1449,65.4667],[70.1006,65.5005],[70.0956,65.534],[70.033,65.556],[69.9615,65.5457],[69.9133,65.595],[69.8177,65.6696],[69.6939,65.7446],[69.5355,65.825],[69.5587,65.8471],[69.5693,65.8839],[69.543,65.9348],[69.4783,65.9863],[69.4725,66.0015],[69.5299,66.01],[69.6774,66.0475],[69.8983,66.0932],[70.0084,66.1291],[69.971,66.1605],[69.8953,66.2069],[69.7692,66.2281],[69.4716,66.2695],[69.3061,66.2806],[69.2045,66.2809],[69.1069,66.3373],[69.0437,66.3657],[68.9507,66.3892],[68.8224,66.4571],[68.7331,66.5442],[68.7191,66.5959],[68.755,66.6062],[68.8496,66.6067],[68.9587,66.5955],[69.1483,66.606],[69.1297,66.613],[69.1438,66.6854],[69.1833,66.7354],[69.1745,66.7599],[69.1479,66.7708],[68.9771,66.7646],[68.8875,66.7688],[68.7896,66.7562],[68.7276,66.7266],[68.6453,66.6734],[68.5609,66.6474],[68.5182,66.6026],[68.388,66.5661],[68.3276,66.5901],[68.3562,66.6208],[68.4063,66.6167],[68.4641,66.6391],[68.3979,66.6542],[68.2833,66.65],[68.2651,66.6651],[68.2995,66.6828],[68.2583,66.6937],[68.1729,66.6937],[68.113,66.712],[68.1484,66.7245],[68.2271,66.7375],[68.2651,66.7276],[68.3375,66.7354],[68.3401,66.7089],[68.3984,66.7172],[68.4396,66.7104],[68.4089,66.7318],[68.4875,66.7729],[68.6,66.7688],[68.6271,66.7604],[68.6979,66.7646],[68.8141,66.7943],[68.8708,66.7958],[68.9354,66.7854],[69.0188,66.7917],[69.0479,66.8146],[69.2875,66.8104],[69.3625,66.7937],[69.3917,66.8125],[69.4952,66.8104],[69.481,66.8381],[69.5013,66.834],[69.5592,66.831],[69.6388,66.7992],[69.5539,66.8063],[69.5297,66.8061],[69.5569,66.7873],[69.553,66.7931],[69.5428,66.8026],[69.6446,66.7916],[69.6702,66.7936],[69.7007,66.7864],[69.7313,66.7956],[69.8083,66.8],[69.8384,66.8141],[69.8256,66.814],[69.7802,66.808],[69.657,66.8098],[69.5774,66.8323],[69.4781,66.8438],[69.4654,66.8684],[69.5058,67.0442],[69.4895,67.2468],[69.4062,67.44],[69.2976,67.6684],[69.1539,67.7983],[68.9342,67.9231],[68.6897,68.0054],[68.6393,68.0411],[68.717,68.0755],[68.7084,68.1029],[68.6712,68.1561],[68.5875,68.2122],[68.5921,68.2572],[68.5104,68.2542],[68.4437,68.2333],[68.3875,68.2042],[68.325,68.2083],[68.3026,68.1964],[68.2396,68.2208],[68.1713,68.2297],[68.1875,68.2729],[68.262,68.3287],[68.2026,68.3568],[68.1911,68.3807],[68.1396,68.4],[68.0771,68.4083],[67.8917,68.45],[67.7734,68.4589],[67.7214,68.4818],[67.7417,68.5021],[67.6964,68.513],[67.6953,68.537],[67.6141,68.5703],[67.5495,68.587],[67.4109,68.6401],[67.3766,68.6661],[67.2667,68.6729],[67.1713,68.7068],[67.1349,68.7495],[67.063,68.7609],[67.0672,68.8016],[67.0896,68.8146],[67.1729,68.7979],[67.2104,68.8042],[67.3146,68.7646],[67.4099,68.7703],[67.387,68.7911],[67.3208,68.8125],[67.2708,68.8187],[67.1104,68.8229],[66.9229,68.8521],[66.7396,68.8667],[66.65,68.8792],[66.4208,68.9292],[66.3833,68.9292],[66.2922,68.963],[66.3057,68.9807],[66.2583,68.9896],[66.2208,68.9812],[66.1813,69.0021],[66.0771,69.0292],[65.9875,69.0313],[65.8896,69.0604],[65.7937,69.05],[65.7625,69.0667],[65.7708,69.0896],[65.8172,69.0839],[65.8667,69.0938],[65.8667,69.1104],[65.7458,69.1271],[65.6479,69.1354],[65.4187,69.1646],[65.2438,69.2021],[65.1625,69.2271],[65.0917,69.2625],[64.9417,69.2562],[64.9089,69.2391],[64.9432,69.212],[64.9411,69.1922],[64.8396,69.1563],[64.7995,69.1599],[64.7577,69.1271],[64.7951,69.0754],[64.7574,69.0475],[64.6558,69.0315],[64.5999,69.0082],[64.6264,68.9682],[64.6839,68.9304],[64.6464,68.9025],[64.6799,68.8804],[64.7704,68.8655],[64.8072,68.9015],[64.8842,68.888],[65.1181,68.807],[65.2151,68.8178],[65.3086,68.8156],[65.4439,68.7847],[65.4425,68.7395],[65.6174,68.704],[65.572,68.6503],[65.5868,68.6246],[65.6778,68.577],[65.7112,68.5304],[65.6746,68.4784],[65.4862,68.4089],[65.4847,68.3636],[65.418,68.3177],[65.3333,68.2846],[65.3275,68.2425],[65.3441,68.131],[65.3442,68.0695],[65.3811,67.9744],[65.4558,67.9524],[65.5747,67.9065],[65.6385,67.9151],[65.7416,67.911],[65.8815,67.9428],[66.0702,67.9472],[66.1284,67.8972],[66.1132,67.8534],[66.0257,67.8074],[66.113,67.7673],[66.2035,67.7483],[66.2479,67.7079],[66.2665,67.6706],[66.2038,67.646],[66.1486,67.6473],[66.0756,67.6616],[65.9818,67.6676],[65.9145,67.6542],[65.8991,67.6265],[65.8246,67.5951],[65.8891,67.5793],[66.0079,67.5784],[66.0638,67.5608],[66.1515,67.4962],[66.1368,67.4523],[66.0463,67.4096],[65.9175,67.3796],[65.7505,67.3622],[65.7111,67.3213],[65.6283,67.3044],[65.5849,67.2666],[65.4459,67.2216],[65.3187,67.1911],[65.223,67.1381],[65.1848,67.0971],[65.0542,67.0696],[65.1205,66.9304],[65.1189,66.9011],[65.1732,66.8106],[65.2044,66.7337],[65.3069,66.6328],[65.4177,66.5423],[65.7789,66.4256],[65.9791,66.3342],[66.0707,66.2999],[66.1682,66.2573],[66.2239,66.1844],[66.2474,66.1254],[66.4043,66.0552],[66.5539,66.0222],[66.634,65.9948],[66.6663,65.9495],[66.7322,65.8981],[66.8637,65.8852],[66.965,65.8605],[67.0638,65.787],[67.109,65.7427],[67.1183,65.7123],[67.1791,65.685],[67.313,65.6768],[67.4028,65.6579],[67.4694,65.6256],[67.5703,65.6153],[67.6455,65.6015],[67.6795,65.5611],[67.6655,65.5092],[67.6217,65.4436],[67.6142,65.4025],[67.849,65.3148],[67.9996,65.2379],[68.1618,65.2462],[68.271,65.2636],[68.3458,65.2828],[68.4133,65.2581],[68.5313,65.2],[68.5076,65.1332],[68.4955,65.003],[68.5676,64.9519],[68.623,64.9043],[68.6569,64.8142],[68.6247,64.7509],[68.6104,64.6627],[68.5784,64.5994],[68.5404,64.5891],[68.3962,64.6363],[68.3341,64.6298],[68.3551,64.575],[68.4063,64.5309],[68.4172,64.4882],[68.5091,64.4461],[68.78,64.4321],[68.9519,64.4023]],[[66.6699,66.5682],[66.6499,66.5346],[66.6002,66.5304],[66.5555,66.5436],[66.5769,66.5776],[66.6211,66.5813],[66.6699,66.5682]]],[[[66.0292,69.0917],[65.9479,69.0813],[66.1162,69.0672],[66.1604,69.0687],[66.2859,69.0172],[66.3562,69.0125],[66.237,69.062],[66.0771,69.0917],[66.0292,69.0917]]],[[[69.4708,66.7958],[69.3792,66.7792],[69.2667,66.775],[69.2911,66.7974],[69.225,66.7979],[69.1583,66.7896],[69.2146,66.7583],[69.2641,66.7432],[69.4521,66.7562],[69.5349,66.7797],[69.4708,66.7958]]]]},"properties":{"GID_0":"RUS","GID_1":"RUS.80_1","GID_2":"RUS.80.7_1","NAME_1":"Yamal-Nenets","NAME_2":"Priural'rayon"}},
{"type":"Feature","geometry":{"type":"MultiPolygon","coordinates":[[[[73.1524,63.4114],[73.2154,63.3263],[73.2908,63.3084],[73.4247,63.2065],[73.531,63.1788],[73.7442,63.1801],[73.9584,63.1871],[74.1719,63.1781],[74.208,63.1604],[74.2574,63.1617],[74.3067,63.1465],[74.434,63.0938],[74.5311,63.0327],[74.7166,63.0355],[75.0422,63.0496],[75.1789,63.0653],[75.2868,63.0914],[75.3972,63.0973],[75.5107,63.0921],[75.6226,63.1088],[75.7993,63.1212],[75.9085,63.0927],[76.0819,63.0624],[76.2415,63.0298],[76.3046,63.0008],[76.3363,62.9705],[76.4053,62.9706],[76.4885,63.0059],[76.5774,63.0344],[76.6411,63.0412],[76.7412,63.0377],[76.8498,63.0104],[76.9661,63.0027],[77.0434,62.9682],[77.0671,62.9277],[77.1532,62.8437],[77.2408,62.7896],[77.3892,62.7283],[77.6771,62.6308],[77.8376,62.5673],[78.0494,62.5215],[78.1789,62.5574],[78.3928,62.5794],[78.5999,62.5848],[78.7998,62.6088],[78.9001,62.5983],[78.9914,62.5826],[79.163,62.575],[79.345,62.5765],[79.4852,62.5925],[79.6373,62.5853],[79.7349,62.5777],[79.8384,62.5889],[79.906,62.7241],[79.9287,62.7959],[79.9628,62.814],[80.0656,62.8182],[80.2291,62.8451],[80.5053,62.9632],[80.501,62.9825],[80.6052,62.9883],[80.6402,63.0121],[80.6514,63.0846],[80.7319,63.1013],[80.8311,63.1118],[80.9525,63.1376],[80.9889,63.1339],[80.9621,63.1909],[80.9285,63.229],[80.871,63.261],[80.7597,63.2773],[80.6409,63.2726],[80.4694,63.2446],[80.3188,63.1831],[80.2564,63.1744],[80.1856,63.1997],[80.1517,63.2273],[80.1434,63.2641],[80.1684,63.315],[80.1554,63.3398],[80.0775,63.3375],[79.9571,63.3159],[79.9121,63.282],[79.9166,63.2418],[79.8835,63.1725],[79.7639,63.1507],[79.6223,63.1542],[79.4972,63.1886],[79.4751,63.2196],[79.4885,63.273],[79.3482,63.4318],[79.3491,63.4843],[79.4141,63.5261],[79.5317,63.5647],[79.6689,63.6308],[79.7991,63.7527],[79.8036,63.7979],[79.8332,63.8267],[79.8576,63.8871],[79.8612,63.9578],[79.8211,63.9798],[79.7298,64.0022],[79.4664,64.0747],[79.4079,64.1292],[79.3638,64.1819],[79.349,64.2368],[79.3651,64.2713],[79.5315,64.3788],[79.5881,64.4757],[79.5978,64.5576],[79.6367,64.6367],[79.6814,64.7025],[79.8181,64.7787],[79.8959,64.8165],[79.9268,64.8717],[79.8627,64.8811],[79.805,64.915],[79.7922,64.9644],[79.7916,65.0277],[79.7612,65.0492],[79.5227,65.0966],[79.4488,65.1292],[79.5161,65.146],[79.609,65.1537],[79.7013,65.168],[79.7955,65.1919],[79.854,65.2233],[79.9264,65.231],[79.9489,65.2046],[80.0196,65.2054],[80.0662,65.2257],[80.0657,65.2804],[80.0533,65.3176],[80.0856,65.3568],[80.1734,65.4353],[80.1179,65.4924],[80.0628,65.5307],[80.0591,65.5746],[80.1245,65.6285],[80.1624,65.6731],[80.1441,65.6906],[80.0516,65.7346],[79.7672,65.8902],[79.6301,65.9378],[79.4714,65.9616],[79.3718,65.9969],[79.3184,66.0479],[79.3675,66.0782],[79.554,66.0827],[79.5888,66.1043],[79.6364,66.2169],[79.7318,66.2853],[79.8219,66.3374],[79.5983,66.3232],[79.4129,66.3068],[79.3511,66.3149],[79.427,66.3924],[79.4234,66.4319],[79.3861,66.4775],[79.4152,66.5185],[79.389,66.5828],[79.3824,66.6439],[79.3474,66.6775],[79.2893,66.6919],[79.2461,66.7206],[79.2037,66.7657],[79.1028,66.8224],[79.0266,66.843],[78.7185,66.8399],[78.6428,66.8653],[78.5204,66.9305],[78.3952,67.0097],[78.3479,67.0754],[78.2648,67.1421],[78.0661,67.3194],[78.0528,67.3484],[78.0658,67.3704],[78.1726,67.3827],[78.3618,67.4125],[78.4485,67.4421],[78.4244,67.4726],[78.4167,67.526],[78.4593,67.5243],[78.5118,67.5318],[78.4652,67.5433],[78.4667,67.5333],[78.3089,67.5297],[78.2505,67.5484],[78.1813,67.5563],[78.1375,67.5458],[78.0167,67.5292],[77.9359,67.5359],[77.8891,67.5318],[77.8255,67.5099],[77.8224,67.4964],[77.738,67.4661],[77.6797,67.4755],[77.6797,67.5026],[77.7417,67.5521],[77.6979,67.5542],[77.7016,67.5787],[77.662,67.6078],[77.6292,67.6074],[77.6378,67.6022],[77.4227,67.5362],[77.2307,67.4866],[77.0324,67.458],[76.9323,67.4489],[76.7374,67.4651],[76.6633,67.4604],[76.5935,67.4378],[76.5551,67.409],[76.5888,67.339],[76.5533,67.2833],[76.2551,67.1291],[75.9742,66.955],[75.889,66.9061],[75.7826,66.8588],[75.8411,66.7623],[75.8364,66.4819],[75.8497,66.2834],[75.9477,66.2266],[76.0865,66.2062],[76.3318,66.1884],[76.6436,66.1794],[76.7823,66.1683],[76.8788,66.1421],[76.9044,66.0821],[76.8449,66.0125],[76.6603,65.9248],[76.1288,65.8005],[75.8423,65.7526],[75.591,65.7009],[75.4609,65.646],[75.4111,65.6078],[75.3721,65.5635],[75.3857,65.5268],[75.6456,65.2583],[75.7269,65.2095],[75.9221,65.1646],[75.9787,65.1264],[75.9815,65.065],[75.9739,64.9923],[75.857,64.9066],[75.7238,64.8316],[75.6269,64.7711],[75.5146,64.6954],[75.4768,64.6049],[75.4346,64.5416],[75.2872,64.5003],[75.0665,64.4569],[74.8556,64.4109],[74.6869,64.3572],[74.5233,64.2487],[74.3613,64.1206],[74.269,64.0251],[74.1938,63.9619],[74.1089,63.9231],[73.9094,63.872],[73.8159,63.8587],[73.7534,63.809],[73.7002,63.7453],[73.2557,63.5323],[73.2148,63.4735],[73.1524,63.4114]],[[75.3555,63.1722],[75.3987,63.1719],[75.4422,63.141],[75.4134,63.1245],[75.3421,63.1276],[75.3295,63.1524],[75.3555,63.1722]]],[[[79.8331,66.3438],[79.8219,66.3374],[79.864,66.3411],[79.8809,66.3623],[79.8331,66.3438]]],[[[77.7667,67.5625],[77.7557,67.5599],[77.7089,67.488],[77.762,67.4797],[77.8729,67.5396],[77.8047,67.5599],[77.7667,67.5625]]]]},"properties":{"GID_0":"RUS","GID_1":"RUS.80_1","GID_2":"RUS.80.8_1","NAME_1":"Yamal-Nenets","NAME_2":"Purovskiyrayon"}},
{"type":"Feature","geometry":{"type":"Polygon","coordinates":[[[66.6699,66.5682],[66.6211,66.5813],[66.5769,66.5776],[66.5555,66.5436],[66.6002,66.5304],[66.6499,66.5346],[66.6699,66.5682]]]},"properties":{"GID_0":"RUS","GID_1":"RUS.80_1","GID_2":"RUS.80.9_1","NAME_1":"Yamal-Nenets","NAME_2":"Salekhard"}},
{"type":"Feature","geometry":{"type":"Polygon","coordinates":[[[68.9519,64.4023],[68.78,64.4321],[68.5091,64.4461],[68.4172,64.4882],[68.4063,64.5309],[68.3551,64.575],[68.3341,64.6298],[68.3962,64.6363],[68.5404,64.5891],[68.5784,64.5994],[68.6104,64.6627],[68.6247,64.7509],[68.6569,64.8142],[68.623,64.9043],[68.5676,64.9519],[68.4955,65.003],[68.5076,65.1332],[68.5313,65.2],[68.4133,65.2581],[68.3458,65.2828],[68.271,65.2636],[68.1618,65.2462],[67.9996,65.2379],[67.849,65.3148],[67.6142,65.4025],[67.6217,65.4436],[67.6655,65.5092],[67.6795,65.5611],[67.6455,65.6015],[67.5703,65.6153],[67.4694,65.6256],[67.4028,65.6579],[67.313,65.6768],[67.1791,65.685],[67.1183,65.7123],[67.109,65.7427],[67.0638,65.787],[66.965,65.8605],[66.8637,65.8852],[66.7322,65.8981],[66.6663,65.9495],[66.634,65.9948],[66.5539,66.0222],[66.4043,66.0552],[66.2474,66.1254],[66.2239,66.1844],[66.1682,66.2573],[66.0707,66.2999],[65.9791,66.3342],[65.7789,66.4256],[65.4177,66.5423],[65.3069,66.6328],[65.2044,66.7337],[65.1732,66.8106],[65.1189,66.9011],[65.035,66.8708],[64.9865,66.8605],[64.8829,66.8218],[64.7596,66.8203],[64.6022,66.7906],[64.586,66.7496],[64.5637,66.7281],[64.4586,66.7136],[64.367,66.6895],[64.2866,66.6426],[64.2059,66.6332],[64.0869,66.6361],[64.0247,66.6432],[63.9541,66.6192],[63.87,66.5754],[63.81,66.5368],[63.6994,66.5119],[63.6104,66.4792],[63.4651,66.4714],[63.3942,66.4553],[63.3385,66.4215],[63.312,66.3557],[63.2403,66.3233],[63.305,66.2708],[63.2854,66.2411],[63.2237,66.2479],[63.157,66.2366],[63.0644,66.1856],[63.0163,66.1111],[62.9404,66.0849],[62.9118,66.0402],[62.8348,66.022],[62.8801,65.9905],[62.8965,65.9648],[62.8256,65.9353],[62.79,65.91],[62.7754,65.8558],[62.7502,65.8487],[62.1837,65.7259],[62.0625,65.7016],[62.1255,65.6818],[62.3011,65.6031],[62.3461,65.5462],[62.4138,65.5136],[62.4361,65.4868],[62.4327,65.4358],[62.4578,65.4021],[62.5504,65.3663],[62.6916,65.3236],[62.8132,65.3094],[62.8746,65.2906],[62.8545,65.1846],[62.8176,65.0796],[62.8183,64.9822],[62.7423,64.906],[62.747,64.8855],[62.7929,64.8629],[62.8491,64.8158],[62.8742,64.7726],[62.8376,64.7163],[62.7842,64.6753],[62.697,64.6436],[62.5619,64.6088],[62.5669,64.583],[62.5921,64.5572],[62.67,64.5226],[62.8859,64.4736],[62.9863,64.4958],[63.0223,64.5107],[63.0676,64.5139],[63.1881,64.4958],[63.4345,64.4415],[63.4787,64.4067],[63.4938,64.3838],[63.495,64.3443],[63.5082,64.3209],[63.5834,64.2867],[63.6838,64.2537],[63.7686,64.2564],[63.8635,64.2712],[63.9424,64.2958],[64.0146,64.3325],[64.102,64.3548],[64.2057,64.3598],[64.3221,64.352],[64.4892,64.3537],[64.5826,64.3878],[64.6881,64.377],[64.9066,64.4239],[65.0011,64.4357],[65.1108,64.4288],[65.2479,64.4434],[65.4377,64.4792],[65.5588,64.4949],[65.6469,64.493],[65.7868,64.5056],[65.9736,64.5178],[66.1791,64.5268],[66.2571,64.5118],[66.3546,64.4741],[66.4027,64.4499],[66.4759,64.4535],[66.7334,64.5067],[66.8251,64.5072],[66.896,64.482],[66.9476,64.4451],[66.957,64.413],[66.8668,64.3182],[66.8399,64.2558],[66.8786,64.2025],[66.9748,64.1588],[67.1309,64.1436],[67.2282,64.1291],[67.2648,64.0942],[67.2807,64.0567],[67.3899,64.0708],[67.6686,64.0693],[67.7374,64.0851],[67.7645,64.0728],[67.8074,64.0283],[67.8691,64.0342],[67.9283,64.0733],[68.0341,64.1056],[68.1453,64.1256],[68.2367,64.1738],[68.5133,64.2723],[68.5712,64.2658],[68.6506,64.2355],[68.7743,64.2017],[68.9478,64.1696],[68.9738,64.1997],[68.9578,64.2571],[69.047,64.3183],[68.98,64.3586],[68.9519,64.4023]]]},"properties":{"GID_0":"RUS","GID_1":"RUS.80_1","GID_2":"RUS.80.10_1","NAME_1":"Yamal-Nenets","NAME_2":"Shuryshkarskiyrayon"}},
{"type":"Feature","geometry":{"type":"MultiPolygon","coordinates":[[[[78.7963,67.588],[78.8104,67.5729],[78.9167,67.5687],[78.9063,67.5917],[78.7963,67.588]]],[[[82.7878,66.9766],[82.5389,67.0619],[82.3661,67.1309],[82.1747,67.2007],[82.2528,67.2412],[82.3634,67.2878],[82.3557,67.3359],[82.3368,67.3726],[82.3403,67.3983],[82.4219,67.4625],[82.415,67.4994],[82.3629,67.5344],[82.2771,67.5508],[82.1944,67.5797],[82.1371,67.6075],[82.0994,67.6422],[82.1152,67.6815],[82.0947,67.7096],[81.9536,67.7492],[81.8791,67.8026],[81.7843,67.8831],[81.8262,67.9008],[81.925,67.8991],[81.9987,67.9145],[82.1049,67.9267],[82.2422,67.9034],[82.4089,67.9245],[82.4283,67.9745],[82.4234,68.0673],[82.4788,68.0852],[82.5635,68.1316],[82.5954,68.2168],[82.6763,68.2343],[82.7611,68.2607],[82.7462,68.2959],[82.7543,68.3523],[82.7846,68.3873],[82.7815,68.4172],[82.7287,68.5005],[82.7212,68.5506],[82.7751,68.5569],[82.8819,68.5909],[82.945,68.6055],[82.929,68.6614],[82.8826,68.7116],[82.7895,68.7515],[82.6867,68.7763],[82.6412,68.8001],[82.6044,68.8399],[82.6009,68.883],[82.5699,68.9356],[82.5354,68.9719],[82.4658,69.0029],[82.4327,69.0298],[82.4897,69.0487],[82.5423,69.0794],[82.4732,69.1274],[82.2735,69.1342],[82.1658,69.1557],[82.067,69.1581],[81.9471,69.1773],[81.9275,69.2141],[81.9835,69.2577],[82.0781,69.289],[82.0788,69.3431],[81.901,69.3784],[81.7942,69.417],[81.7234,69.3747],[81.7448,69.3133],[81.7123,69.2663],[81.6267,69.2347],[81.5253,69.2262],[81.3909,69.2389],[81.2737,69.2096],[81.1545,69.1876],[81.0323,69.1917],[80.9064,69.2231],[80.808,69.2592],[80.7054,69.2806],[80.5747,69.2751],[80.4202,69.2946],[80.3138,69.3135],[80.007,69.3044],[79.8883,69.3275],[79.8524,69.3598],[79.7793,69.3948],[79.7019,69.4004],[79.6203,69.466],[79.6029,69.5225],[79.5767,69.5705],[79.513,69.6209],[79.2449,69.6327],[79.1172,69.6507],[79.1516,69.7356],[79.0346,69.8127],[78.9989,69.8693],[79.1363,69.911],[79.2124,69.9418],[79.3108,70.0116],[79.4095,70.0515],[79.4034,70.0855],[79.4189,70.1199],[79.464,70.1432],[79.6763,70.1166],[79.779,70.199],[80.056,70.2798],[80.2746,70.3654],[80.2811,70.3988],[80.4004,70.4189],[80.6185,70.4176],[80.6972,70.4037],[80.7835,70.3743],[80.8979,70.3707],[80.9441,70.3974],[80.9277,70.4168],[80.8418,70.4367],[80.7752,70.4749],[80.8071,70.5185],[80.8829,70.5635],[80.9412,70.6279],[80.9091,70.6524],[80.8365,70.6585],[80.7671,70.6927],[80.8386,70.7623],[80.8537,70.7935],[80.8086,70.8313],[80.7464,70.8692],[80.7358,70.9421],[80.7174,70.997],[80.6406,71.044],[80.4955,71.0563],[80.2998,71.0778],[80.1157,71.1033],[79.9523,71.1327],[79.8242,71.1997],[79.7029,71.2538],[79.6071,71.2854],[79.4905,71.2886],[79.4012,71.3141],[79.353,71.3595],[79.3295,71.4182],[79.3534,71.4558],[79.4356,71.4673],[79.4672,71.5008],[79.4478,71.598],[79.4989,71.6062],[79.6787,71.5986],[79.8469,71.6013],[80.0369,71.6304],[80.1709,71.6934],[80.2316,71.7519],[80.2311,71.7965],[80.2535,71.825],[80.3548,71.8399],[80.4705,71.8474],[80.4984,71.8705],[80.4354,71.9217],[80.298,71.9606],[80.1177,71.9933],[79.9228,72.0128],[79.8236,72.0507],[79.5229,72.0348],[79.2963,72.0456],[79.0047,72.1132],[78.8136,72.1823],[78.7038,72.209],[78.7207,72.2658],[78.5266,72.3641],[78.4339,72.3391],[78.5057,72.3161],[78.4776,72.2943],[78.4224,72.3287],[78.3693,72.3359],[78.4724,72.3568],[78.4458,72.375],[78.3313,72.3667],[78.3083,72.3479],[78.2042,72.3375],[78.1625,72.3458],[77.9979,72.3292],[77.9724,72.3109],[77.8958,72.3083],[77.9266,72.2849],[77.8214,72.2599],[77.762,72.2338],[77.7432,72.2005],[77.6937,72.1854],[77.6104,72.1854],[77.5333,72.2104],[77.5083,72.1937],[77.5224,72.1693],[77.4714,72.1495],[77.3984,72.1016],[77.438,72.063],[77.5437,72.0542],[77.5687,72.0646],[77.7396,72.0958],[77.8479,72.1021],[77.9979,72.1],[78.075,72.0813],[78.1953,72.0162],[78.2453,71.962],[78.2412,71.9422],[78.1828,71.8964],[78.0396,71.8521],[77.9042,71.8333],[77.7937,71.8104],[77.6458,71.8125],[77.4833,71.8396],[77.3167,71.9208],[77.2271,71.9417],[77.1167,71.9812],[77.0062,72.0021],[76.9516,72.0203],[76.9333,72.0479],[76.8729,72.0521],[76.6979,72.0437],[76.5854,72.0313],[76.3542,71.9979],[76.2026,71.9495],[76.2078,71.938],[76.1188,71.9146],[76.0359,71.9036],[76.0807,71.8766],[76.1286,71.8078],[76.1172,71.7766],[76.1401,71.7318],[76.1672,71.7089],[76.262,71.6724],[76.2891,71.6432],[76.2547,71.6151],[76.2755,71.5755],[76.3167,71.5604],[76.4812,71.5667],[76.4375,71.5437],[76.5833,71.5083],[76.6297,71.4734],[76.7146,71.4542],[76.8604,71.4333],[76.9667,71.4125],[77.0599,71.4172],[77.1474,71.3932],[77.1526,71.3734],[77.2542,71.3313],[77.4146,71.2979],[77.55,71.2896],[77.5729,71.2792],[77.7,71.2646],[77.6776,71.2828],[77.75,71.3125],[77.8354,71.3083],[77.8339,71.3349],[77.9542,71.3396],[77.9333,71.3646],[78.0349,71.3641],[77.9974,71.3339],[77.9422,71.3307],[77.9005,71.2849],[77.9151,71.2422],[77.9807,71.2505],[77.9896,71.2667],[78.0521,71.2688],[78.1813,71.2479],[78.2562,71.2521],[78.3078,71.2349],[78.3,71.1896],[78.287,71.1609],[78.3047,71.137],[78.2599,71.1318],[78.2651,71.0922],[78.2979,71.0625],[78.3604,71.0646],[78.3484,71.087],[78.4667,71.1],[78.4995,71.0849],[78.4693,71.0568],[78.5167,71.0563],[78.5417,71.0333],[78.4688,71.0208],[78.4745,70.9995],[78.4537,70.9276],[78.4838,70.9245],[78.5542,70.9521],[78.5958,70.95],[78.7375,70.9292],[78.7896,70.9333],[78.8339,70.9599],[78.7818,70.9786],[78.8375,70.9938],[78.9042,70.9625],[78.9807,70.9651],[79.037,70.9984],[79.1057,70.9849],[79.0396,70.9583],[79.0188,70.9396],[78.9292,70.9104],[78.9661,70.8953],[78.9333,70.8833],[78.888,70.9078],[78.7312,70.9125],[78.65,70.9104],[78.5313,70.9187],[78.4792,70.8917],[78.3776,70.8912],[78.3479,70.925],[78.2229,70.9292],[78.175,70.9479],[78.0687,70.9417],[77.9938,70.9646],[77.9151,70.9797],[77.9141,71.0266],[77.8828,71.0766],[77.8411,71.1099],[77.7729,71.1312],[77.675,71.1375],[77.4479,71.1646],[77.3167,71.1646],[77.2833,71.1583],[77.1729,71.1604],[77.1417,71.1687],[77.0104,71.1771],[76.9422,71.1641],[76.9667,71.1458],[76.9437,71.075],[76.9,71.0604],[76.9641,71.0307],[76.9437,70.9979],[76.9495,71.0286],[76.8943,71.038],[76.8797,71.0599],[76.9078,71.0859],[76.912,71.113],[76.8333,71.1021],[76.8287,71.0839],[76.7562,71.0687],[76.738,71.0911],[76.8109,71.0922],[76.8703,71.1255],[76.8938,71.1813],[76.7063,71.1875],[76.6292,71.1958],[76.5286,71.1891],[76.4292,71.1958],[76.1375,71.2083],[76.1,71.1896],[76.0208,71.2125],[75.8771,71.2188],[75.6776,71.2484],[75.5646,71.2813],[75.4104,71.2937],[75.2943,71.3318],[75.2359,71.3839],[75.2234,71.4266],[75.2854,71.4479],[75.35,71.4521],[75.3953,71.4714],[75.4422,71.5078],[75.5021,71.5167],[75.5036,71.5349],[75.45,71.5583],[75.3875,71.5687],[75.3588,71.5849],[75.4396,71.6062],[75.4828,71.6432],[75.4146,71.675],[75.3333,71.6729],[75.3505,71.6922],[75.2609,71.7276],[75.2432,71.7599],[75.2151,71.7714],[75.2208,71.8562],[75.2662,71.8974],[75.2401,71.913],[75.2526,71.9474],[75.3807,71.9464],[75.4161,71.9818],[75.388,72.0141],[75.4745,72.0859],[75.4714,72.1162],[75.5234,72.187],[75.5589,72.2203],[75.6292,72.2375],[75.6911,72.2401],[75.7099,72.2703],[75.6953,72.2932],[75.6443,72.3047],[75.6328,72.3266],[75.5537,72.3693],[75.5495,72.4224],[75.5214,72.4359],[75.4922,72.4995],[75.5125,72.5229],[75.6021,72.5271],[75.6391,72.5432],[75.5396,72.5896],[75.4359,72.6276],[75.3521,72.6813],[75.3089,72.6932],[75.3318,72.7203],[75.3979,72.7042],[75.4766,72.7266],[75.3562,72.775],[75.2083,72.8167],[75.1125,72.8292],[75.0203,72.8662],[74.9479,72.8708],[74.8339,72.837],[74.7672,72.8078],[74.7734,72.7901],[74.8453,72.7599],[74.9474,72.6807],[74.9995,72.6182],[75.0203,72.5745],[75.038,72.5026],[75.0578,72.487],[75.087,72.3776],[75.0776,72.3151],[75.0828,72.2734],[75.0349,72.1984],[74.9641,72.1422],[74.8141,72.0734],[74.7125,72.0417],[74.5604,72.0062],[74.3833,71.9708],[74.3208,71.9646],[74.2646,71.9479],[74.1458,71.925],[73.9646,71.8958],[73.8708,71.8854],[73.6833,71.8479],[73.5625,71.8187],[73.4651,71.7766],[73.4568,71.7609],[73.5224,71.7245],[73.5266,71.6922],[73.5099,71.6589],[73.3953,71.5776],[73.2557,71.5172],[73.113,71.4703],[73.0318,71.4266],[73.0026,71.3932],[73.038,71.3755],[73.3042,71.3208],[73.3766,71.2974],[73.5078,71.2412],[73.6016,71.1891],[73.6536,71.1432],[73.6625,71.1042],[73.6901,71.0672],[73.7359,71.0318],[73.8932,70.9724],[73.9161,70.938],[73.8776,70.9016],[73.9005,70.8568],[73.9391,70.8307],[74.0943,70.7589],[74.1641,70.7328],[74.2453,70.6849],[74.2786,70.6495],[74.3057,70.5974],[74.3099,70.5276],[74.2745,70.4734],[74.2307,70.4276],[74.1088,70.3724],[74.112,70.3588],[74.0349,70.3068],[73.8651,70.2349],[73.7859,70.1953],[73.762,70.1672],[73.6755,70.1151],[73.7599,70.0953],[73.787,70.0807],[73.7599,70.0151],[73.7255,69.9912],[73.7536,69.9568],[73.7307,69.9297],[73.6713,69.8912],[73.6787,69.8641],[73.6641,69.8276],[73.5734,69.7974],[73.5297,69.7338],[73.5625,69.7125],[73.5859,69.6547],[73.6604,69.5958],[73.7245,69.5766],[73.7932,69.5411],[73.8411,69.5016],[73.8995,69.412],[73.8943,69.3599],[73.8287,69.2589],[73.7714,69.1891],[73.7911,69.1536],[73.8729,69.075],[73.9208,69.0687],[74.0167,69.0708],[74.1312,69.0958],[74.1859,69.1162],[74.2958,69.1312],[74.4833,69.1292],[74.6208,69.1146],[74.6682,69.1036],[74.7292,69.075],[74.8187,69.0729],[74.9125,69.0875],[75.1021,69.0979],[75.1276,69.137],[75.1917,69.1625],[75.3016,69.1797],[75.3214,69.2016],[75.4187,69.2188],[75.5,69.2479],[75.6229,69.2521],[75.7583,69.2333],[76.0313,69.2396],[76.2104,69.2],[76.2896,69.1708],[76.3396,69.1667],[76.4479,69.1208],[76.4792,69.125],[76.6167,69.1208],[76.6708,69.1375],[76.7333,69.1271],[76.7479,69.1083],[76.8037,69.0932],[76.8318,69.038],[76.9047,69.0109],[76.9625,68.9979],[77.2474,68.9703],[77.3208,68.9313],[77.3812,68.9104],[77.5062,68.9146],[77.6229,68.9],[77.6828,68.8766],[77.6911,68.863],[77.6776,68.7911],[77.7432,68.7224],[77.7432,68.6505],[77.6943,68.6245],[77.7214,68.588],[77.7745,68.562],[77.7776,68.5172],[77.8396,68.5229],[77.9182,68.5162],[77.9495,68.5036],[77.9537,68.4714],[77.8651,68.4568],[77.9266,68.4245],[77.9443,68.3839],[78.0083,68.3688],[78.0734,68.3443],[78.0505,68.313],[78.1516,68.2745],[78.1703,68.2464],[78.1167,68.2271],[78.0687,68.2292],[78.0167,68.2146],[77.7958,68.2146],[77.7354,68.2083],[77.6526,68.1807],[77.6141,68.1568],[77.538,68.1266],[77.4943,68.0714],[77.5266,68.0474],[77.5125,67.9979],[77.4797,67.9755],[77.5354,67.9333],[77.6036,67.9307],[77.5974,67.9151],[77.5182,67.9109],[77.4589,67.8797],[77.4609,67.8234],[77.4849,67.8037],[77.4526,67.763],[77.5417,67.7208],[77.6146,67.7229],[77.6312,67.7125],[77.7292,67.7271],[77.7937,67.7188],[77.9167,67.7146],[77.8953,67.6943],[77.85,67.6771],[77.7708,67.6687],[77.7688,67.65],[77.8313,67.65],[77.8776,67.6682],[77.9771,67.6813],[78.0516,67.6599],[78.0583,67.6396],[78.1229,67.6375],[78.1703,67.6547],[78.2438,67.6438],[78.2729,67.6604],[78.3474,67.6516],[78.363,67.6234],[78.3995,67.6297],[78.3875,67.6667],[78.5047,67.662],[78.5437,67.6667],[78.6286,67.6536],[78.6307,67.6234],[78.5958,67.6146],[78.4354,67.6167],[78.5708,67.5833],[78.6578,67.5859],[78.6818,67.6412],[78.7083,67.6458],[78.7813,67.6333],[78.8604,67.5958],[78.9688,67.5875],[79.0062,67.5583],[78.9042,67.5583],[78.875,67.55],[78.8042,67.5646],[78.7786,67.5787],[78.6083,67.5563],[78.5521,67.5646],[78.4938,67.5604],[78.4652,67.5433],[78.5118,67.5318],[78.4593,67.5243],[78.4167,67.526],[78.4244,67.4726],[78.4485,67.4421],[78.3618,67.4125],[78.1726,67.3827],[78.0658,67.3704],[78.0528,67.3484],[78.0661,67.3194],[78.2648,67.1421],[78.3479,67.0754],[78.3952,67.0097],[78.5204,66.9305],[78.6428,66.8653],[78.7185,66.8399],[79.0266,66.843],[79.1028,66.8224],[79.2037,66.7657],[79.2461,66.7206],[79.2893,66.6919],[79.3474,66.6775],[79.3824,66.6439],[79.389,66.5828],[79.4152,66.5185],[79.3861,66.4775],[79.4234,66.4319],[79.427,66.3924],[79.3511,66.3149],[79.4129,66.3068],[79.5983,66.3232],[79.8219,66.3374],[79.8331,66.3438],[79.9137,66.375],[80.0176,66.4099],[80.1644,66.4425],[80.2239,66.4461],[80.3241,66.4405],[80.5363,66.4202],[80.9685,66.4109],[81.2547,66.4108],[81.422,66.4228],[81.561,66.4248],[81.6914,66.484],[81.7678,66.5558],[81.7895,66.6308],[81.7764,66.6914],[81.6927,66.7433],[81.6979,66.8343],[81.786,66.8687],[81.8906,66.8842],[82.0379,66.844],[82.1368,66.8539],[82.166,66.9004],[82.1734,66.9304],[82.2309,66.9611],[82.3747,66.9494],[82.6175,66.9678],[82.7878,66.9766]]],[[[78.3604,71.0646],[78.3536,71.0516],[78.4005,71.0297],[78.4646,71.0417],[78.437,71.0578],[78.3604,71.0646]]],[[[77.0933,67.8195],[77.1312,67.8354],[77.1714,67.8167],[77.2307,67.8276],[77.2995,67.8912],[77.2401,67.9151],[77.1901,67.9505],[77.2057,67.9984],[77.2307,68.0359],[77.1964,68.0922],[77.2828,68.1401],[77.2922,68.187],[77.3224,68.1984],[77.337,68.2286],[77.3125,68.2375],[77.2333,68.2375],[77.1609,68.2484],[77.1234,68.2682],[77.1641,68.2943],[77.1651,68.312],[77.2328,68.3214],[77.2338,68.3411],[77.288,68.3693],[77.2828,68.3891],[77.238,68.4193],[77.2234,68.4547],[77.2464,68.4724],[77.3063,68.475],[77.2484,68.5151],[77.2307,68.5411],[77.187,68.5682],[77.0599,68.5828],[77.0349,68.6057],[76.9458,68.6208],[76.95,68.65],[76.8714,68.6713],[76.8333,68.6896],[76.7438,68.7104],[76.6505,68.7443],[76.6234,68.7714],[76.638,68.8037],[76.6891,68.8339],[76.6979,68.8552],[76.6453,68.9161],[76.6088,68.937],[76.6016,68.962],[76.4938,68.9771],[76.2083,68.9771],[76.05,68.9563],[75.9563,68.9354],[75.8785,68.9313],[76.0559,68.8443],[76.1871,68.7861],[76.2138,68.7517],[76.2816,68.7346],[76.3643,68.7264],[76.4183,68.7015],[76.4378,68.6632],[76.43,68.6125],[76.352,68.5365],[76.1808,68.4699],[76.0763,68.4504],[75.9809,68.443],[75.8992,68.4559],[75.8342,68.4888],[75.665,68.5639],[75.5893,68.5756],[75.521,68.5748],[75.51,68.485],[75.5259,68.4206],[75.5581,68.3272],[75.4167,68.2263],[75.5266,68.1648],[75.6304,68.1269],[75.6807,68.0745],[75.6941,68.0275],[75.7395,67.99],[75.8672,67.9556],[76.1868,67.9281],[76.2865,67.9237],[76.4384,67.8205],[76.4854,67.8037],[76.5737,67.8026],[76.6112,67.7903],[76.7163,67.7769],[76.8747,67.7853],[77.0571,67.8024],[77.0933,67.8195]]],[[[74.4917,73.1062],[74.3646,73.1083],[74.2521,73.0938],[74.1484,73.0474],[74.1104,73],[74.1375,72.9771],[74.3146,72.9167],[74.5443,72.8703],[74.6167,72.8438],[74.6682,72.8505],[74.6828,72.8932],[74.6422,72.9109],[74.6495,72.9547],[74.7037,73.0203],[74.6839,73.0391],[74.7312,73.0813],[74.6417,73.0938],[74.4917,73.1062]]],[[[76.0026,73.513],[75.8667,73.5208],[75.6604,73.5146],[75.5922,73.4505],[75.7208,73.4208],[75.7917,73.4292],[75.9036,73.4318],[75.8599,73.4641],[75.8812,73.4917],[75.9313,73.4938],[76.0026,73.513]]],[[[77.7396,72.5979],[77.6208,72.6],[77.5229,72.5792],[77.4187,72.5375],[77.338,72.5182],[77.2984,72.4912],[77.2958,72.4708],[77.2484,72.4516],[77.1766,72.4047],[77.2604,72.3875],[77.2917,72.3542],[77.1937,72.3333],[77.1354,72.35],[77.1229,72.4063],[77.025,72.3812],[77.0479,72.35],[76.938,72.3557],[76.8797,72.3224],[76.8693,72.3037],[76.9625,72.275],[77.0625,72.2813],[77.1083,72.275],[77.2417,72.2896],[77.2917,72.3042],[77.2104,72.3229],[77.2792,72.3354],[77.3729,72.3313],[77.3786,72.3068],[77.4333,72.2896],[77.5208,72.2854],[77.7146,72.2958],[77.775,72.2875],[77.8703,72.3255],[77.8901,72.3536],[77.9745,72.3693],[78.0458,72.3917],[78.2099,72.4193],[78.2375,72.4458],[78.2937,72.4479],[78.3516,72.4724],[78.3266,72.5078],[78.2682,72.5328],[78.1813,72.5583],[78.0583,72.575],[78.0083,72.575],[77.8708,72.5896],[77.7396,72.5979]]],[[[76.2229,73.1937],[76.1312,73.1958],[76.1151,73.1776],[76.2188,73.1417],[76.3271,73.1271],[76.4542,73.1229],[76.6771,73.1229],[76.6807,73.1474],[76.6391,73.1641],[76.2958,73.1917],[76.2229,73.1937]]]]},"properties":{"GID_0":"RUS","GID_1":"RUS.80_1","GID_2":"RUS.80.11_1","NAME_1":"Yamal-Nenets","NAME_2":"Tazovskiyrayon"}},
{"type":"Feature","geometry":{"type":"MultiPolygon","coordinates":[[[[69.5557,66.7641],[69.5125,66.7688],[69.4693,66.7578],[69.5432,66.6891],[69.5437,66.6687],[69.6141,66.6203],[69.6271,66.5854],[69.6162,66.5724],[69.6734,66.5339],[69.7562,66.5083],[69.7937,66.5083],[69.8938,66.4729],[69.9667,66.4917],[70.0021,66.4875],[70.1479,66.5208],[70.1766,66.5422],[70.1474,66.562],[70.0943,66.5755],[70.0396,66.6167],[70.1333,66.6188],[70.1724,66.6443],[70.1682,66.6641],[70.0896,66.6854],[69.8562,66.7167],[69.7667,66.75],[69.6438,66.7458],[69.5557,66.7641]]],[[[69.8588,66.7672],[69.7839,66.7682],[69.8771,66.7188],[69.9271,66.7104],[70.0771,66.7104],[70.0313,66.7354],[69.9396,66.7479],[69.8588,66.7672]]],[[[69.7802,66.808],[69.8256,66.814],[69.8384,66.8141],[69.8651,66.8193],[69.8938,66.8583],[69.95,66.8521],[69.9891,66.8203],[69.9854,66.8042],[70.0453,66.7745],[70.0787,66.7474],[70.1188,66.7333],[70.1854,66.7292],[70.1547,66.7026],[70.2688,66.6729],[70.4063,66.6729],[70.5333,66.6771],[70.5687,66.6917],[70.4917,66.7104],[70.5313,66.7188],[70.5833,66.7104],[70.625,66.7208],[70.6021,66.7396],[70.6312,66.7542],[70.7188,66.7583],[70.7875,66.7729],[70.8005,66.7911],[70.8604,66.8187],[70.9375,66.8104],[71.0766,66.8109],[71.1328,66.8318],[71.1505,66.8516],[71.2021,66.8708],[71.2937,66.8708],[71.3896,66.9021],[71.4563,66.9083],[71.4167,66.9313],[71.3479,66.9333],[71.3359,66.9537],[71.4042,66.9688],[71.5458,66.9042],[71.5938,66.9396],[71.6792,66.9354],[71.7068,66.9047],[71.7641,66.9151],[71.788,66.9516],[71.8125,66.9667],[71.8682,66.9776],[71.888,67.0036],[71.9688,67.0375],[72.037,67.0401],[72.0286,67.062],[71.9859,67.0724],[72.0245,67.0911],[71.9458,67.1292],[72.0099,67.1318],[72.0792,67.1563],[72.1974,67.1578],[72.2312,67.1875],[72.2203,67.2141],[72.1854,67.25],[72.15,67.2417],[72.075,67.2458],[72.0286,67.2568],[72.038,67.2932],[72.0833,67.3063],[72.1453,67.3026],[72.1984,67.3266],[72.25,67.3021],[72.3083,67.3125],[72.3896,67.3125],[72.4328,67.3443],[72.425,67.3646],[72.4443,67.3922],[72.4109,67.4193],[72.4172,67.4682],[72.5474,67.5068],[72.5563,67.5646],[72.5255,67.5776],[72.5896,67.6083],[72.7021,67.6021],[72.8646,67.6312],[72.8583,67.6625],[72.8859,67.6849],[73.0021,67.7104],[73.1078,67.7266],[73.0568,67.7932],[73.1057,67.8255],[73.1849,67.8401],[73.2,67.8708],[73.1891,67.9411],[73.0505,68.0401],[73.0339,68.0661],[73.0484,68.1182],[73.1016,68.1464],[73.0729,68.1979],[73.1276,68.2432],[73.1911,68.2589],[73.213,68.2807],[73.2734,68.312],[73.3682,68.3401],[73.413,68.3734],[73.4609,68.4432],[73.5021,68.4646],[73.6016,68.4849],[73.5828,68.5141],[73.4661,68.5828],[73.1943,68.6734],[73.1083,68.7146],[73.075,68.7208],[72.9271,68.7625],[72.7474,68.8224],[72.6443,68.8693],[72.5943,68.9068],[72.5526,68.9505],[72.5599,68.9578],[72.5089,69.0255],[72.488,69.0661],[72.475,69.1417],[72.4943,69.2016],[72.5255,69.2307],[72.6162,69.2693],[72.6099,69.312],[72.5828,69.3516],[72.5401,69.3797],[72.4734,69.4005],[72.5125,69.4146],[72.5651,69.3922],[72.6162,69.4234],[72.6432,69.4891],[72.5901,69.5318],[72.5661,69.5766],[72.4943,69.6401],[72.563,69.6932],[72.6328,69.7234],[72.6682,69.7526],[72.6724,69.8266],[72.612,69.8953],[72.5797,69.9109],[72.513,69.9651],[72.4859,70.0047],[72.4974,70.0391],[72.4568,70.062],[72.5463,70.0703],[72.5917,70.1292],[72.5682,70.1661],[72.4026,70.2401],[72.4234,70.2891],[72.4521,70.3104],[72.5516,70.3422],[72.5938,70.3688],[72.7021,70.3938],[72.737,70.3922],[72.7495,70.4255],[72.7516,70.4932],[72.7432,70.5224],[72.7026,70.5359],[72.6755,70.5745],[72.6734,70.6141],[72.7443,70.6693],[72.7662,70.738],[72.7609,70.7932],[72.8057,70.8453],[72.7911,70.8745],[72.6797,70.9193],[72.6047,70.963],[72.5651,71.0057],[72.6005,71.0505],[72.6536,71.0682],[72.6068,71.0922],[72.5333,71.1458],[72.4672,71.1495],[72.2479,71.2],[72.0417,71.2875],[71.9974,71.3495],[71.863,71.4172],[71.8339,71.4464],[71.8172,71.4943],[71.863,71.5307],[71.9229,71.55],[72.0224,71.5651],[72.0328,71.5828],[72.1245,71.5901],[72.1443,71.6016],[72.1813,71.6708],[72.3266,71.7047],[72.3068,71.7557],[72.3083,71.8313],[72.3234,71.8526],[72.3917,71.8583],[72.4724,71.888],[72.5396,71.9917],[72.5859,72.0724],[72.7078,72.1109],[72.688,72.1401],[72.7068,72.2016],[72.7792,72.2458],[72.8411,72.2578],[72.8307,72.2911],[72.7901,72.3318],[72.7995,72.3557],[72.7776,72.4005],[72.7839,72.462],[72.8182,72.4693],[72.8104,72.4958],[72.7609,72.5068],[72.7297,72.5318],[72.7172,72.5932],[72.75,72.6083],[72.9255,72.5901],[72.9042,72.6208],[72.9213,72.6453],[72.9641,72.6547],[72.9208,72.6771],[72.8583,72.6813],[72.7849,72.6516],[72.7391,72.663],[72.7109,72.6932],[72.8,72.7042],[72.6333,72.7354],[72.2979,72.7813],[72.1833,72.8021],[72.0708,72.8104],[72.0516,72.7859],[72.0047,72.7776],[71.9083,72.7875],[71.8588,72.8016],[72.0099,72.8047],[71.9583,72.8208],[71.6312,72.8875],[71.4521,72.8708],[71.3646,72.8667],[71.1083,72.8896],[70.9979,72.8875],[70.8187,72.8688],[70.6,72.8792],[70.4734,72.8766],[70.3146,72.8812],[70.1125,72.8688],[69.975,72.8688],[69.9375,72.8583],[69.7937,72.8625],[69.7734,72.8536],[69.6542,72.85],[69.5729,72.8604],[69.4766,72.8536],[69.4667,72.8438],[69.3672,72.8328],[69.2693,72.8078],[69.2391,72.7755],[69.1396,72.7333],[69.063,72.7078],[69.0375,72.6792],[68.988,72.6557],[68.9828,72.6182],[68.9401,72.5328],[68.9104,72.5],[68.9141,72.4661],[68.863,72.4453],[68.7984,72.2953],[68.8037,72.2776],[68.7609,72.2161],[68.7703,72.2089],[68.6797,72.0849],[68.6807,72.0589],[68.6354,72.0125],[68.5911,71.9318],[68.5266,71.8464],[68.4891,71.8068],[68.4287,71.7609],[68.3151,71.6953],[68.3063,71.6729],[68.1693,71.6141],[68.1307,71.5839],[68.025,71.5417],[67.7292,71.4521],[67.7021,71.45],[67.5651,71.4141],[67.5557,71.4047],[67.3979,71.3542],[67.0687,71.2833],[66.9375,71.2708],[66.887,71.2026],[66.7911,71.1255],[66.7547,71.1078],[66.8375,71.0813],[66.9208,71.0771],[66.9182,71.0589],[66.863,71.0432],[66.9016,71.0089],[66.8547,70.9974],[66.8411,70.9589],[66.7859,70.9411],[66.7807,70.9109],[66.6318,70.8599],[66.6401,70.8422],[66.7271,70.825],[66.7203,70.7734],[66.8583,70.7729],[66.9833,70.7875],[67.0724,70.8047],[67.1208,70.8313],[67.2682,70.8245],[67.2943,70.8026],[67.3745,70.762],[67.3609,70.7412],[67.3812,70.7],[67.3422,70.6797],[67.3193,70.6349],[67.2776,70.6016],[67.287,70.5734],[67.2318,70.5182],[67.3161,70.4724],[67.3474,70.4328],[67.2833,70.3938],[67.238,70.3786],[67.2068,70.3391],[67.2016,70.3026],[67.1713,70.2807],[67.162,70.2526],[67.125,70.2146],[67.1687,70.1875],[67.2562,70.1813],[67.2807,70.1807],[67.3068,70.1255],[67.3786,70.0995],[67.3792,70.0604],[67.3974,70.0422],[67.3521,70.025],[67.3333,70.0021],[67.2646,70],[67.1854,69.9729],[67.1042,69.9729],[67.0583,69.9542],[66.9714,69.9609],[66.9589,70.0036],[67.0083,70.0167],[66.9688,70.0313],[66.9047,69.9828],[66.8464,69.9036],[66.813,69.7828],[66.8005,69.7182],[66.8104,69.6292],[66.8276,69.5505],[66.8693,69.5005],[66.9208,69.4667],[66.9807,69.4964],[66.937,69.5557],[66.8818,69.5734],[66.8734,69.6047],[67.0307,69.638],[66.9818,69.6766],[67.0563,69.6917],[67.1458,69.6563],[67.2125,69.6563],[67.2422,69.6401],[67.3229,69.6229],[67.3646,69.6062],[67.5,69.6125],[67.5214,69.5964],[67.6578,69.5787],[67.7146,69.5375],[67.7953,69.5182],[67.8375,69.4938],[67.9104,69.4938],[67.9625,69.4729],[68.0495,69.4755],[68.0104,69.5021],[68.0375,69.5229],[68.0813,69.5292],[68.1245,69.5057],[68.137,69.4682],[68.1068,69.3724],[68.0807,69.3526],[68.0318,69.3432],[68.0734,69.2651],[68.1109,69.2214],[68.3724,69.0703],[68.4234,69.0047],[68.5229,68.95],[68.5979,68.9292],[68.7688,68.9021],[68.8812,68.9042],[68.9083,68.925],[69.0479,68.9396],[69.0771,68.9229],[69.1438,68.9354],[69.1729,68.9271],[69.1229,68.9021],[69.0687,68.8938],[68.9958,68.8938],[68.9734,68.8828],[69.0875,68.8542],[69.1266,68.8234],[69.0589,68.7953],[69.013,68.7453],[68.9391,68.6276],[68.8578,68.5526],[68.8234,68.5349],[68.7474,68.4755],[68.6651,68.4266],[68.6391,68.3984],[68.588,68.3641],[68.5755,68.2995],[68.5318,68.2651],[68.5921,68.2572],[68.5875,68.2122],[68.6712,68.1561],[68.7084,68.1029],[68.717,68.0755],[68.6393,68.0411],[68.6897,68.0054],[68.9342,67.9231],[69.1539,67.7983],[69.2976,67.6684],[69.4062,67.44],[69.4895,67.2468],[69.5058,67.0442],[69.4654,66.8684],[69.4781,66.8438],[69.5774,66.8323],[69.657,66.8098],[69.7802,66.808]]],[[[69.5428,66.8026],[69.553,66.7931],[69.5569,66.7873],[69.6151,66.763],[69.6958,66.7625],[69.6702,66.7936],[69.6446,66.7916],[69.5428,66.8026]]],[[[69.5539,66.8063],[69.6388,66.7992],[69.5592,66.831],[69.5013,66.834],[69.481,66.8381],[69.4952,66.8104],[69.5539,66.8063]]],[[[71.1229,66.5583],[71.0604,66.5604],[71.0687,66.5354],[71.1229,66.5583]]],[[[71.425,66.8875],[71.3792,66.8896],[71.338,66.8724],[71.3562,66.8562],[71.275,66.8542],[71.2354,66.8625],[71.1557,66.8234],[71.0563,66.7979],[70.9437,66.7979],[70.8833,66.8083],[70.8401,66.7953],[70.8078,66.7651],[70.7401,66.7536],[70.7188,66.7125],[70.6542,66.7125],[70.6193,66.6859],[70.6625,66.6729],[70.7458,66.6646],[70.8479,66.6312],[70.8912,66.6245],[70.9146,66.6083],[71.0083,66.5917],[70.9984,66.5818],[70.8979,66.6062],[70.8703,66.6245],[70.8313,66.6271],[70.8,66.6438],[70.7271,66.6625],[70.6229,66.675],[70.5687,66.675],[70.5021,66.6646],[70.4354,66.6687],[70.4125,66.6458],[70.3313,66.6438],[70.2901,66.6328],[70.2568,66.6078],[70.2672,66.5776],[70.3333,66.5604],[70.3938,66.5604],[70.4667,66.5396],[70.5417,66.5271],[70.5979,66.5062],[70.65,66.5062],[70.6771,66.4938],[70.7396,66.4917],[70.763,66.5078],[70.8958,66.525],[70.9708,66.5271],[71.0141,66.5526],[70.9505,66.563],[70.9938,66.5792],[71.0339,66.563],[71.1229,66.5687],[71.088,66.5984],[71.2167,66.6],[71.2875,66.6396],[71.3297,66.6297],[71.3276,66.6109],[71.4313,66.6104],[71.4396,66.6271],[71.5104,66.6271],[71.5708,66.6417],[71.575,66.6792],[71.6412,66.6922],[71.6484,66.7109],[71.6245,66.7328],[71.537,66.7662],[71.4875,66.8187],[71.5313,66.8688],[71.425,66.8875]]],[[[70.8729,73.475],[70.7458,73.4708],[70.6479,73.4542],[70.5708,73.4542],[70.3464,73.4016],[70.3307,73.388],[70.2141,73.363],[70.1604,73.3688],[70.2188,73.4],[70.2542,73.3958],[70.4063,73.4187],[70.4234,73.4328],[70.3292,73.4417],[70.2359,73.4245],[70.1297,73.3807],[70.0813,73.3938],[70.0089,73.3734],[70.0484,73.3307],[70.0422,73.2589],[70.0495,73.2234],[70.0016,73.1276],[69.9755,73.1078],[69.9568,73.063],[69.9313,73.0542],[69.9568,73.013],[70.0646,73],[70.1,73.0188],[69.9812,73.0542],[70.0687,73.0563],[70.0896,73.0792],[70.1687,73.075],[70.2125,73.0208],[70.3229,73.0229],[70.3771,73.0104],[70.4792,73.0208],[70.5313,73.0417],[70.8458,73.0979],[70.9229,73.1083],[70.9896,73.0979],[71.1062,73.0958],[71.1896,73.1021],[71.3771,73.1563],[71.675,73.1542],[71.6412,73.2078],[71.5849,73.2536],[71.4995,73.2974],[71.3354,73.2771],[71.3057,73.2568],[71.2438,73.2521],[71.0078,73.2547],[70.9943,73.2662],[71.1604,73.2667],[71.25,73.2729],[71.2359,73.2932],[71.3516,73.3266],[71.3047,73.3401],[71.3375,73.3542],[71.2932,73.3786],[71.1464,73.3422],[71.1307,73.3766],[71.0943,73.4047],[71.1036,73.4213],[71.1896,73.4229],[71.2167,73.4021],[71.2682,73.4078],[71.1479,73.4375],[71.0437,73.4563],[70.8729,73.475]]],[[[67.3458,69.5667],[67.3104,69.5813],[67.2042,69.5687],[67.163,69.5557],[67.0922,69.5162],[67.0109,69.4807],[67.0745,69.4495],[67.1563,69.4354],[67.2458,69.4292],[67.2875,69.4354],[67.3745,69.5005],[67.3807,69.5286],[67.3458,69.5667]]],[[[67,69.4688],[66.9266,69.4526],[66.9995,69.3912],[67.05,69.3708],[67.15,69.3521],[67.1734,69.3807],[67.2724,69.413],[67.1901,69.4172],[67.0458,69.4396],[67.0146,69.4396],[67,69.4688]]],[[[66.9224,70.4495],[66.8818,70.4297],[66.9005,70.4089],[66.9734,70.4057],[66.9224,70.4495]]],[[[66.7375,70.5333],[66.6958,70.5396],[66.6604,70.4896],[66.7214,70.4359],[66.8391,70.438],[66.7833,70.4917],[66.6984,70.5047],[66.7375,70.5333]]],[[[66.4693,70.7963],[66.4484,70.7953],[66.4193,70.6922],[66.4453,70.6099],[66.5,70.575],[66.5583,70.5833],[66.5766,70.6057],[66.5109,70.6151],[66.5328,70.6328],[66.475,70.6438],[66.4641,70.6974],[66.487,70.7536],[66.4693,70.7963]]],[[[66.5208,70.8542],[66.4838,70.8536],[66.4589,70.8307],[66.5411,70.8318],[66.5208,70.8542]]],[[[66.638,70.9849],[66.5734,70.962],[66.4958,70.8667],[66.537,70.8588],[66.5693,70.8818],[66.5828,70.9266],[66.6151,70.9276],[66.613,70.962],[66.638,70.9849]]],[[[66.7797,71.0859],[66.7312,71.0896],[66.7005,71.0568],[66.6255,71.0005],[66.7208,70.975],[66.7521,71.0188],[66.7089,71.0214],[66.787,71.0547],[66.7797,71.0859]]]]},"properties":{"GID_0":"RUS","GID_1":"RUS.80_1","GID_2":"RUS.80.12_1","NAME_1":"Yamal-Nenets","NAME_2":"Yamal'skiyrayon"}}
]}