{"type":"FeatureCollection", "features": [
{"type":"Feature","geometry":{"type":"Polygon","coordinates":[[[133.3517,48.1046],[133.3007,48.5243],[133.1375,48.7223],[133.2762,48.8778],[133.233,48.9309],[132.6788,48.7931],[132.6474,48.6584],[132.2877,48.5107],[132.5402,48.2031],[133.1509,48.1019],[133.3517,48.1046]]]},"properties":{"GID_0":"RUS","GID_1":"RUS.82_1","GID_2":"RUS.82.1_1","NAME_1":"Yevrey","NAME_2":"Birobidzhanskiyrayon"}},
{"type":"Feature","geometry":{"type":"Polygon","coordinates":[[[131.8969,47.6789],[132.5048,47.7113],[132.6915,47.9536],[133.1509,48.1019],[132.5402,48.2031],[132.2877,48.5107],[131.8127,48.5623],[131.664,48.1838],[131.7224,47.918],[131.8969,47.6789]]]},"properties":{"GID_0":"RUS","GID_1":"RUS.82_1","GID_2":"RUS.82.2_1","NAME_1":"Yevrey","NAME_2":"Leninskiyrayon"}},
{"type":"Feature","geometry":{"type":"Polygon","coordinates":[[[130.7181,48.505],[130.8917,48.4629],[131.2925,48.6103],[131.5089,48.6349],[131.8127,48.5623],[132.2877,48.5107],[132.6474,48.6584],[132.6788,48.7931],[133.233,48.9309],[133.1435,49.1863],[132.7868,49.2415],[132.739,49.3229],[132.0408,49.4593],[131.9727,49.2956],[131.7533,49.3425],[131.4811,49.2264],[131.2218,49.2607],[130.9593,48.9942],[130.7885,48.9777],[130.5254,48.6385],[130.7181,48.505]]]},"properties":{"GID_0":"RUS","GID_1":"RUS.82_1","GID_2":"RUS.82.3_1","NAME_1":"Yevrey","NAME_2":"Obluchenskiyrayon"}},
{"type":"Feature","geometry":{"type":"Polygon","coordinates":[[[130.7181,48.505],[130.8255,48.3001],[130.651,48.1018],[130.864,47.9321],[130.9542,47.7203],[131.2532,47.7338],[131.8969,47.6789],[131.7224,47.918],[131.664,48.1838],[131.8127,48.5623],[131.5089,48.6349],[131.2925,48.6103],[130.8917,48.4629],[130.7181,48.505]]]},"properties":{"GID_0":"RUS","GID_1":"RUS.82_1","GID_2":"RUS.82.4_1","NAME_1":"Yevrey","NAME_2":"Oktyabr'skiy"}},
{"type":"Feature","geometry":{"type":"Polygon","coordinates":[[[133.3517,48.1046],[133.4682,48.0676],[134.0577,48.3354],[134.5172,48.4788],[134.7578,48.4309],[134.8906,48.5936],[134.5104,48.6366],[134.3148,48.7472],[134.1636,48.6451],[133.7321,48.6916],[133.2762,48.8778],[133.1375,48.7223],[133.3007,48.5243],[133.3517,48.1046]]]},"properties":{"GID_0":"RUS","GID_1":"RUS.82_1","GID_2":"RUS.82.5_1","NAME_1":"Yevrey","NAME_2":"Smidovichskiyrayon"}}
]}