{"type":"FeatureCollection", "features": [
{"type":"Feature","geometry":{"type":"Polygon","coordinates":[[[82.8136,52.536],[82.8097,52.5345],[82.8121,52.5318],[82.8136,52.536]]]},"properties":{"GID_0":"RUS","GID_1":"RUS.2_1","GID_2":"RUS.2.1_1","NAME_1":"Altay","NAME_2":"Aleysk"}},
{"type":"Feature","geometry":{"type":"Polygon","coordinates":[[[82.0347,52.6243],[82.0826,52.5847],[82.0987,52.56],[82.1286,52.438],[82.2243,52.4388],[82.5477,52.1958],[82.8046,52.227],[82.9219,52.1388],[83.177,52.1914],[83.2661,52.2991],[83.2376,52.3799],[82.9003,52.5575],[82.8948,52.701],[82.7759,52.7759],[82.5044,52.6951],[82.3077,52.7467],[82.1988,52.6913],[82.1018,52.6546],[82.0347,52.6243]],[[82.8136,52.536],[82.8121,52.5318],[82.8097,52.5345],[82.8136,52.536]]]},"properties":{"GID_0":"RUS","GID_1":"RUS.2_1","GID_2":"RUS.2.2_1","NAME_1":"Altay","NAME_2":"Aleyskiyrayon"}},
{"type":"Feature","geometry":{"type":"Polygon","coordinates":[[[84.7675,51.7116],[84.8276,51.4311],[85.3918,51.5644],[85.8509,51.8879],[85.7844,52.0384],[85.598,52.01],[85.5284,52.1096],[85.1171,52.0874],[84.9838,52.013],[85.0407,51.852],[84.7675,51.7116]]]},"properties":{"GID_0":"RUS","GID_1":"RUS.2_1","GID_2":"RUS.2.3_1","NAME_1":"Altay","NAME_2":"Altayskiyrayon"}},
{"type":"Feature","geometry":{"type":"Polygon","coordinates":[[[80.601,53.0446],[81.013,53.1275],[81.2642,53.0775],[81.0098,53.3545],[80.81,53.3802],[80.5902,53.56],[79.9936,53.4401],[80.2281,53.1699],[80.322,53.1395],[80.5083,53.0801],[80.601,53.0446]]]},"properties":{"GID_0":"RUS","GID_1":"RUS.2_1","GID_2":"RUS.2.4_1","NAME_1":"Altay","NAME_2":"Baevskiyrayon"}},
{"type":"Feature","geometry":{"type":"Polygon","coordinates":[[[83.7984,53.0811],[83.8614,53.2972],[83.6773,53.4605],[83.482,53.4487],[83.3804,53.4298],[83.5419,53.2933],[83.7984,53.0811]]]},"properties":{"GID_0":"RUS","GID_1":"RUS.2_1","GID_2":"RUS.2.5_1","NAME_1":"Altay","NAME_2":"Barnaulgorsovet"}},
{"type":"Feature","geometry":{"type":"Polygon","coordinates":[[[84.9399,52.007],[84.9334,52.0063],[84.9336,52.0047],[84.9399,52.007]]]},"properties":{"GID_0":"RUS","GID_1":"RUS.2_1","GID_2":"RUS.2.6_1","NAME_1":"Altay","NAME_2":"Belokurikha"}},
{"type":"Feature","geometry":{"type":"Polygon","coordinates":[[[85.2264,52.5712],[85.2262,52.5799],[85.208,52.5796],[85.2121,52.5696],[85.2264,52.5712]]]},"properties":{"GID_0":"RUS","GID_1":"RUS.2_1","GID_2":"RUS.2.7_1","NAME_1":"Altay","NAME_2":"Biysk"}},
{"type":"Feature","geometry":{"type":"Polygon","coordinates":[[[85.1136,52.4444],[85.3346,52.4928],[85.4709,52.393],[85.7876,52.3408],[86.0063,52.4674],[86.0771,52.6136],[86.1451,52.8221],[85.6509,52.7582],[85.3592,52.6493],[85.3193,52.7303],[84.9674,52.575],[85.0202,52.5264],[84.9718,52.4873],[85.0405,52.4734],[85.0459,52.4472],[85.0725,52.4546],[85.1136,52.4444]],[[85.2264,52.5712],[85.2121,52.5696],[85.208,52.5796],[85.2262,52.5799],[85.2264,52.5712]]]},"properties":{"GID_0":"RUS","GID_1":"RUS.2_1","GID_2":"RUS.2.8_1","NAME_1":"Altay","NAME_2":"Biyskiyrayon"}},
{"type":"Feature","geometry":{"type":"Polygon","coordinates":[[[80.3648,53.1263],[79.9963,53.0044],[79.714,53.089],[79.8119,52.9958],[79.5359,52.8527],[79.3251,52.724],[79.6672,52.5397],[80.0749,52.6342],[80.4651,52.8148],[80.5496,52.8471],[80.601,53.0446],[80.5083,53.0801],[80.3648,53.1263]]]},"properties":{"GID_0":"RUS","GID_1":"RUS.2_1","GID_2":"RUS.2.9_1","NAME_1":"Altay","NAME_2":"Blagoveshchenskiyrayon"}},
{"type":"Feature","geometry":{"type":"Polygon","coordinates":[[[78.6933,53.6559],[78.5905,53.5282],[78.2906,53.4828],[77.9558,53.5579],[77.9791,53.3883],[77.8717,53.3065],[78.2001,53.0037],[78.3726,52.9817],[78.4655,53.1475],[78.673,53.2494],[78.6743,53.2868],[78.9959,53.409],[78.9452,53.4707],[78.7673,53.5224],[78.6933,53.6559]]]},"properties":{"GID_0":"RUS","GID_1":"RUS.2_1","GID_2":"RUS.2.10_1","NAME_1":"Altay","NAME_2":"Burlinskiyrayon"}},
{"type":"Feature","geometry":{"type":"Polygon","coordinates":[[[84.4984,52.0282],[84.7423,52.0892],[84.662,52.2728],[84.8409,52.4264],[84.5943,52.5343],[84.2818,52.5101],[84.1701,52.4455],[84.1238,52.3995],[84.4984,52.0282]]]},"properties":{"GID_0":"RUS","GID_1":"RUS.2_1","GID_2":"RUS.2.11_1","NAME_1":"Altay","NAME_2":"Bystroistokskiyrayon"}},
{"type":"Feature","geometry":{"type":"Polygon","coordinates":[[[83.0849,51.0063],[83.2934,51.0144],[83.8119,50.8849],[84.0506,50.6478],[84.4374,50.7059],[84.5923,50.8558],[84.4991,50.9668],[84.1968,51.0021],[84.0912,51.1468],[84.1939,51.2694],[84.4986,51.3232],[84.1864,51.4232],[83.9194,51.7254],[83.8034,51.6655],[83.6387,51.8026],[83.2878,51.7272],[83.3419,51.4422],[83.1913,51.3758],[83.1328,51.1346],[82.9916,51.0946],[83.0849,51.0063]]]},"properties":{"GID_0":"RUS","GID_1":"RUS.2_1","GID_2":"RUS.2.12_1","NAME_1":"Altay","NAME_2":"Charyshskiyrayon"}},
{"type":"Feature","geometry":{"type":"Polygon","coordinates":[[[80.5343,51.4983],[80.9725,51.4094],[81.0927,51.642],[81.3173,51.7232],[81.2666,51.9035],[81.0846,52.0781],[80.9019,52.0172],[80.5616,51.7963],[80.5383,51.7301],[80.6827,51.6191],[80.5343,51.4983]]]},"properties":{"GID_0":"RUS","GID_1":"RUS.2_1","GID_2":"RUS.2.13_1","NAME_1":"Altay","NAME_2":"Egor'evskiyrayon"}},
{"type":"Feature","geometry":{"type":"Polygon","coordinates":[[[86.917,53.069],[86.6982,53.1614],[86.9041,53.4696],[86.6215,53.4853],[86.2865,53.3],[85.8597,53.246],[85.8058,53.2429],[85.8481,53.2002],[85.8993,53.1067],[86.3113,53.1183],[86.3991,52.9572],[86.5233,53.0212],[86.917,53.069]]]},"properties":{"GID_0":"RUS","GID_1":"RUS.2_1","GID_2":"RUS.2.14_1","NAME_1":"Altay","NAME_2":"El'tsovskiyrayon"}},
{"type":"Feature","geometry":{"type":"Polygon","coordinates":[[[83.5419,53.2933],[82.9367,53.0615],[83.1659,52.8639],[83.418,52.7827],[83.8693,52.8538],[83.7984,53.0811],[83.5419,53.2933]]]},"properties":{"GID_0":"RUS","GID_1":"RUS.2_1","GID_2":"RUS.2.15_1","NAME_1":"Altay","NAME_2":"Kalmanskiyrayon"}},
{"type":"Feature","geometry":{"type":"Polygon","coordinates":[[[81.0098,53.3545],[81.3537,53.4802],[81.5614,53.4012],[81.8028,53.6481],[82.021,53.6788],[81.7842,53.724],[81.4732,54.0519],[81.3289,53.9856],[81.3182,53.8632],[81.0446,53.7312],[80.9118,53.7802],[80.664,53.7213],[80.5902,53.56],[80.81,53.3802],[81.0098,53.3545]]]},"properties":{"GID_0":"RUS","GID_1":"RUS.2_1","GID_2":"RUS.2.16_1","NAME_1":"Altay","NAME_2":"Kamenskiyrayon"}},
{"type":"Feature","geometry":{"type":"Polygon","coordinates":[[[78.9876,53.4191],[79.0698,53.4583],[79.3151,53.2629],[79.4411,53.2499],[79.5344,53.4345],[79.691,53.2681],[79.7393,53.2816],[79.7855,53.3841],[79.9936,53.4401],[79.7595,53.827],[79.5334,53.7315],[78.9972,53.6587],[78.6933,53.6559],[78.7673,53.5224],[78.9452,53.4707],[78.9876,53.4191]]]},"properties":{"GID_0":"RUS","GID_1":"RUS.2_1","GID_2":"RUS.2.17_1","NAME_1":"Altay","NAME_2":"Khabarskiyrayon"}},
{"type":"Feature","geometry":{"type":"Polygon","coordinates":[[[79.1629,51.9324],[79.3648,51.9986],[79.5533,51.9799],[79.6336,52.1472],[79.7869,52.1929],[79.951,52.1022],[80.0388,52.1692],[79.8757,52.2431],[79.6672,52.5397],[79.3145,52.4358],[78.784,52.3639],[79.1629,51.9324]]]},"properties":{"GID_0":"RUS","GID_1":"RUS.2_1","GID_2":"RUS.2.18_1","NAME_1":"Altay","NAME_2":"Klyuchevskiyrayon"}},
{"type":"Feature","geometry":{"type":"Polygon","coordinates":[[[85.0263,53.2004],[85.1355,53.355],[84.9133,53.4801],[84.8003,53.5744],[84.4005,53.5132],[84.3035,53.31],[84.2649,53.086],[84.5314,53.1467],[84.8215,53.1244],[85.0263,53.2004]]]},"properties":{"GID_0":"RUS","GID_1":"RUS.2_1","GID_2":"RUS.2.19_1","NAME_1":"Altay","NAME_2":"Kosikhinskiyrayon"}},
{"type":"Feature","geometry":{"type":"Polygon","coordinates":[[[85.7876,52.3408],[85.8977,52.0625],[86.2893,52.0262],[86.4338,52.1261],[86.6733,52.1176],[86.6446,52.5144],[86.3655,52.5978],[86.1892,52.4646],[86.0771,52.6136],[86.0063,52.4674],[85.7876,52.3408]]]},"properties":{"GID_0":"RUS","GID_1":"RUS.2_1","GID_2":"RUS.2.20_1","NAME_1":"Altay","NAME_2":"Krasnogorskiyrayon"}},
{"type":"Feature","geometry":{"type":"Polygon","coordinates":[[[83.2878,51.7272],[83.1251,51.8527],[82.8094,51.8669],[82.5006,51.7304],[82.4883,51.5935],[83.0204,51.22],[82.9916,51.0946],[83.1328,51.1346],[83.1913,51.3758],[83.3419,51.4422],[83.2878,51.7272]]]},"properties":{"GID_0":"RUS","GID_1":"RUS.2_1","GID_2":"RUS.2.21_1","NAME_1":"Altay","NAME_2":"Krasnoshchekovskiyrayon"}},
{"type":"Feature","geometry":{"type":"Polygon","coordinates":[[[81.4732,54.0519],[81.1111,54.1158],[80.9485,54.2694],[80.5778,54.2069],[80.4625,54.1019],[80.664,53.7213],[80.9118,53.7802],[81.0446,53.7312],[81.3182,53.8632],[81.3289,53.9856],[81.4732,54.0519]]]},"properties":{"GID_0":"RUS","GID_1":"RUS.2_1","GID_2":"RUS.2.22_1","NAME_1":"Altay","NAME_2":"Krutikhinskiyrayon"}},
{"type":"Feature","geometry":{"type":"Polygon","coordinates":[[[78.784,52.3639],[79.3145,52.4358],[79.6672,52.5397],[79.3251,52.724],[79.0811,52.7675],[78.9719,52.6526],[78.6349,52.5232],[78.784,52.3639]]]},"properties":{"GID_0":"RUS","GID_1":"RUS.2_1","GID_2":"RUS.2.23_1","NAME_1":"Altay","NAME_2":"Kulundinskiyrayon"}},
{"type":"Feature","geometry":{"type":"Polygon","coordinates":[[[82.5006,51.7304],[82.4186,51.8205],[82.1108,51.7376],[81.9543,51.5643],[82.0894,51.4108],[82.5572,51.1482],[82.9916,51.0946],[83.0204,51.22],[82.4883,51.5935],[82.5006,51.7304]]]},"properties":{"GID_0":"RUS","GID_1":"RUS.2_1","GID_2":"RUS.2.24_1","NAME_1":"Altay","NAME_2":"Kur'inskiyrayon"}},
{"type":"Feature","geometry":{"type":"Polygon","coordinates":[[[85.0263,53.2004],[85.3938,53.2222],[85.6557,53.2367],[85.7568,53.6528],[85.8966,53.7091],[85.7208,53.7934],[85.3086,53.7037],[84.9133,53.4801],[85.1355,53.355],[85.0263,53.2004]]]},"properties":{"GID_0":"RUS","GID_1":"RUS.2_1","GID_2":"RUS.2.25_1","NAME_1":"Altay","NAME_2":"Kytmanovskiyrayon"}},
{"type":"Feature","geometry":{"type":"Polygon","coordinates":[[[81.1269,51.2187],[81.0615,50.9594],[81.391,50.9963],[81.4792,50.8208],[81.593,50.7531],[81.8506,50.8177],[81.9626,50.8512],[81.8976,51.1589],[81.6821,51.2489],[81.1269,51.2187]]]},"properties":{"GID_0":"RUS","GID_1":"RUS.2_1","GID_2":"RUS.2.26_1","NAME_1":"Altay","NAME_2":"Loktevskiyrayon"}},
{"type":"Feature","geometry":{"type":"Polygon","coordinates":[[[82.1561,52.6752],[82.0201,52.7398],[82.0111,52.8936],[81.841,53.0215],[81.5226,53.0339],[81.4519,53.0003],[81.3811,53.0098],[81.354,52.9647],[81.3731,52.9481],[81.4313,52.8864],[81.3885,52.874],[81.424,52.8201],[81.4382,52.7811],[81.5686,52.6987],[81.3368,52.4927],[81.3279,52.3504],[81.5998,52.3852],[81.8747,52.5499],[82.1018,52.6546],[82.1561,52.6752]]]},"properties":{"GID_0":"RUS","GID_1":"RUS.2_1","GID_2":"RUS.2.27_1","NAME_1":"Altay","NAME_2":"Mamontovskiyrayon"}},
{"type":"Feature","geometry":{"type":"Polygon","coordinates":[[[79.5502,51.4311],[80.0257,51.555],[80.0817,51.6097],[80.0892,51.7169],[79.9613,51.9755],[79.951,52.1022],[79.7869,52.1929],[79.6336,52.1472],[79.5533,51.9799],[79.3648,51.9986],[79.1629,51.9324],[79.5502,51.4311]]]},"properties":{"GID_0":"RUS","GID_1":"RUS.2_1","GID_2":"RUS.2.28_1","NAME_1":"Altay","NAME_2":"Mikhaylovskiyrayon"}},
{"type":"Feature","geometry":{"type":"Polygon","coordinates":[[[78.6737,53.2694],[78.6876,53.2564],[78.9121,52.9879],[79.0674,53.0548],[79.3601,53.0041],[79.5625,53.1432],[79.6069,53.2446],[79.691,53.2681],[79.5344,53.4345],[79.4411,53.2499],[79.3151,53.2629],[79.0698,53.4583],[78.9876,53.4191],[78.9959,53.409],[78.6743,53.2868],[78.6737,53.2694]]]},"properties":{"GID_0":"RUS","GID_1":"RUS.2_1","GID_2":"RUS.2.29_1","NAME_1":"Altay","NAME_2":"NemetskiyNatsional'nyyrayon"}},
{"type":"Feature","geometry":{"type":"Polygon","coordinates":[[[84.0813,53.4369],[84.0048,53.497],[83.8771,53.4675],[83.9134,53.3825],[84.0813,53.4369]]]},"properties":{"GID_0":"RUS","GID_1":"RUS.2_1","GID_2":"RUS.2.30_1","NAME_1":"Altay","NAME_2":"Novoaltaysk"}},
{"type":"Feature","geometry":{"type":"Polygon","coordinates":[[[81.2666,51.9035],[81.4101,51.8476],[81.7117,52.0808],[81.8291,52.2142],[81.5998,52.3852],[81.3279,52.3504],[81.3368,52.4927],[81.0863,52.3334],[81.0846,52.0781],[81.2666,51.9035]]]},"properties":{"GID_0":"RUS","GID_1":"RUS.2_1","GID_2":"RUS.2.31_1","NAME_1":"Altay","NAME_2":"Novochikhinskiyrayon"}},
{"type":"Feature","geometry":{"type":"Polygon","coordinates":[[[80.5902,53.56],[80.664,53.7213],[80.4625,54.1019],[79.8465,53.9102],[79.7595,53.827],[79.9936,53.4401],[80.5902,53.56]]]},"properties":{"GID_0":"RUS","GID_1":"RUS.2_1","GID_2":"RUS.2.32_1","NAME_1":"Altay","NAME_2":"Pankrushikhinskiyrayon"}},
{"type":"Feature","geometry":{"type":"Polygon","coordinates":[[[83.3804,53.4298],[83.2086,53.5143],[82.9948,53.5185],[82.7688,53.5212],[82.8581,53.3535],[82.5841,53.2677],[82.8073,52.9983],[82.9367,53.0615],[83.5419,53.2933],[83.3804,53.4298]]]},"properties":{"GID_0":"RUS","GID_1":"RUS.2_1","GID_2":"RUS.2.33_1","NAME_1":"Altay","NAME_2":"Pavlovskiyrayon"}},
{"type":"Feature","geometry":{"type":"Polygon","coordinates":[[[83.7984,53.0811],[83.8693,52.8538],[84.002,52.8732],[84.0803,53.0224],[84.2649,53.086],[84.3035,53.31],[84.4005,53.5132],[84.2769,53.5359],[84.3922,53.7703],[84.1402,53.9314],[83.9427,53.9464],[83.7458,53.8682],[83.7869,53.7065],[83.6384,53.4921],[83.482,53.4487],[83.6773,53.4605],[83.8614,53.2972],[83.7984,53.0811]],[[84.0813,53.4369],[83.9134,53.3825],[83.8771,53.4675],[84.0048,53.497],[84.0813,53.4369]]]},"properties":{"GID_0":"RUS","GID_1":"RUS.2_1","GID_2":"RUS.2.34_1","NAME_1":"Altay","NAME_2":"Pervomayskiyrayon"}},
{"type":"Feature","geometry":{"type":"Polygon","coordinates":[[[84.1238,52.3995],[83.827,52.2509],[83.8846,52.1231],[83.7871,51.9895],[83.9861,51.9192],[84.4218,51.9452],[84.4984,52.0282],[84.1238,52.3995]]]},"properties":{"GID_0":"RUS","GID_1":"RUS.2_1","GID_2":"RUS.2.35_1","NAME_1":"Altay","NAME_2":"Petropavlovskiyrayon"}},
{"type":"Feature","geometry":{"type":"Polygon","coordinates":[[[82.4186,51.8205],[82.1828,51.962],[82.0883,51.9281],[81.8291,52.2142],[81.7117,52.0808],[81.4101,51.8476],[81.6456,51.5303],[81.8204,51.5231],[81.9543,51.5643],[82.1108,51.7376],[82.4186,51.8205]]]},"properties":{"GID_0":"RUS","GID_1":"RUS.2_1","GID_2":"RUS.2.36_1","NAME_1":"Altay","NAME_2":"Pospelikhinskiyrayon"}},
{"type":"Feature","geometry":{"type":"Polygon","coordinates":[[[82.3077,52.7467],[82.8073,52.9983],[82.5841,53.2677],[82.3647,53.231],[82.1123,53.3274],[81.8348,53.1484],[81.841,53.0215],[82.0111,52.8936],[82.0201,52.7398],[82.1561,52.6752],[82.1988,52.6913],[82.3077,52.7467]]]},"properties":{"GID_0":"RUS","GID_1":"RUS.2_1","GID_2":"RUS.2.37_1","NAME_1":"Altay","NAME_2":"Rebrikhinskiyrayon"}},
{"type":"Feature","geometry":{"type":"Polygon","coordinates":[[[79.6672,52.5397],[79.8757,52.2431],[80.0388,52.1692],[80.3536,52.2793],[80.5449,52.2424],[80.8368,52.3418],[80.6756,52.5515],[80.4307,52.6635],[80.4296,52.724],[80.5174,52.7835],[80.5192,52.8355],[80.4651,52.8148],[80.0749,52.6342],[79.6672,52.5397]]]},"properties":{"GID_0":"RUS","GID_1":"RUS.2_1","GID_2":"RUS.2.38_1","NAME_1":"Altay","NAME_2":"Rodinskiyrayon"}},
{"type":"Feature","geometry":{"type":"Polygon","coordinates":[[[81.3885,52.874],[81.3279,52.8564],[80.7732,52.6722],[80.6756,52.5515],[80.8368,52.3418],[81.0863,52.3334],[81.3368,52.4927],[81.5686,52.6987],[81.4382,52.7811],[81.424,52.8201],[81.3885,52.874]]]},"properties":{"GID_0":"RUS","GID_1":"RUS.2_1","GID_2":"RUS.2.39_1","NAME_1":"Altay","NAME_2":"Romanovskiyrayon"}},
{"type":"Feature","geometry":{"type":"Polygon","coordinates":[[[81.1883,51.5367],[81.1805,51.5614],[81.1463,51.5598],[81.1661,51.5327],[81.1883,51.5367]]]},"properties":{"GID_0":"RUS","GID_1":"RUS.2_1","GID_2":"RUS.2.40_1","NAME_1":"Altay","NAME_2":"Rubtsovsk"}},
{"type":"Feature","geometry":{"type":"Polygon","coordinates":[[[81.1269,51.2187],[81.6821,51.2489],[81.8204,51.5231],[81.6456,51.5303],[81.4101,51.8476],[81.2666,51.9035],[81.3173,51.7232],[81.0927,51.642],[80.9725,51.4094],[80.5343,51.4983],[80.3413,51.2837],[80.6484,51.2943],[81.1269,51.2187]],[[81.1883,51.5367],[81.1661,51.5327],[81.1463,51.5598],[81.1805,51.5614],[81.1883,51.5367]]]},"properties":{"GID_0":"RUS","GID_1":"RUS.2_1","GID_2":"RUS.2.41_1","NAME_1":"Altay","NAME_2":"Rubtsovskiyrayon"}},
{"type":"Feature","geometry":{"type":"Polygon","coordinates":[[[82.9948,53.5185],[82.7208,53.745],[82.4529,53.5141],[82.021,53.6788],[82.0004,53.4782],[82.1123,53.3274],[82.3647,53.231],[82.5841,53.2677],[82.8581,53.3535],[82.7688,53.5212],[82.9948,53.5185]]]},"properties":{"GID_0":"RUS","GID_1":"RUS.2_1","GID_2":"RUS.2.42_1","NAME_1":"Altay","NAME_2":"Shelabolikhinskiyrayon"}},
{"type":"Feature","geometry":{"type":"Polygon","coordinates":[[[82.0347,52.6243],[81.8747,52.5499],[81.5998,52.3852],[81.8291,52.2142],[82.0883,51.9281],[82.1828,51.962],[82.4186,51.8205],[82.5006,51.7304],[82.8094,51.8669],[82.7707,51.9471],[83.0203,52.0822],[82.9219,52.1388],[82.8046,52.227],[82.5477,52.1958],[82.2243,52.4388],[82.1286,52.438],[82.0987,52.56],[82.0826,52.5847],[82.0347,52.6243]]]},"properties":{"GID_0":"RUS","GID_1":"RUS.2_1","GID_2":"RUS.2.43_1","NAME_1":"Altay","NAME_2":"Shipunovskiyrayon"}},
{"type":"Feature","geometry":{"type":"Polygon","coordinates":[[[78.6385,52.9893],[78.6431,52.9948],[78.6306,52.9991],[78.6229,52.9946],[78.6385,52.9893]]]},"properties":{"GID_0":"RUS","GID_1":"RUS.2_1","GID_2":"RUS.2.44_1","NAME_1":"Altay","NAME_2":"Slavgorod"}},
{"type":"Feature","geometry":{"type":"Polygon","coordinates":[[[78.3851,52.8094],[78.6625,52.8058],[78.7978,52.9424],[78.8232,52.9511],[78.9121,52.9879],[78.6876,53.2564],[78.6737,53.2694],[78.673,53.2494],[78.4655,53.1475],[78.3726,52.9817],[78.2001,53.0037],[78.3851,52.8094]],[[78.6385,52.9893],[78.6229,52.9946],[78.6306,52.9991],[78.6431,52.9948],[78.6385,52.9893]]]},"properties":{"GID_0":"RUS","GID_1":"RUS.2_1","GID_2":"RUS.2.45_1","NAME_1":"Altay","NAME_2":"Slavgorodskiyrayon"}},
{"type":"Feature","geometry":{"type":"Polygon","coordinates":[[[85.1171,52.0874],[85.2047,52.3554],[85.1136,52.4444],[85.0725,52.4546],[84.9709,52.4295],[84.8409,52.4264],[84.662,52.2728],[84.7423,52.0892],[84.4984,52.0282],[84.4218,51.9452],[84.5503,51.8581],[84.797,51.8402],[84.7675,51.7116],[85.0407,51.852],[84.9838,52.013],[85.1171,52.0874]],[[84.9399,52.007],[84.9336,52.0047],[84.9334,52.0063],[84.9399,52.007]]]},"properties":{"GID_0":"RUS","GID_1":"RUS.2_1","GID_2":"RUS.2.46_1","NAME_1":"Altay","NAME_2":"Smolenskiyrayon"}},
{"type":"Feature","geometry":{"type":"Polygon","coordinates":[[[84.7675,51.7116],[84.797,51.8402],[84.5503,51.8581],[84.4218,51.9452],[83.9861,51.9192],[83.8707,51.8269],[83.9194,51.7254],[84.1864,51.4232],[84.4986,51.3232],[84.8276,51.4311],[84.7675,51.7116]]]},"properties":{"GID_0":"RUS","GID_1":"RUS.2_1","GID_2":"RUS.2.47_1","NAME_1":"Altay","NAME_2":"Soloneshenskiyrayon"}},
{"type":"Feature","geometry":{"type":"Polygon","coordinates":[[[86.0771,52.6136],[86.1892,52.4646],[86.3655,52.5978],[86.6446,52.5144],[87.0021,52.6459],[86.9469,52.851],[87.0269,52.8992],[86.917,53.069],[86.5233,53.0212],[86.3991,52.9572],[86.1451,52.8221],[86.0771,52.6136]]]},"properties":{"GID_0":"RUS","GID_1":"RUS.2_1","GID_2":"RUS.2.48_1","NAME_1":"Altay","NAME_2":"Soltonskiyrayon"}},
{"type":"Feature","geometry":{"type":"Polygon","coordinates":[[[85.7844,52.0384],[85.8977,52.0625],[85.7876,52.3408],[85.4709,52.393],[85.3346,52.4928],[85.1136,52.4444],[85.2047,52.3554],[85.1171,52.0874],[85.5284,52.1096],[85.598,52.01],[85.7844,52.0384]]]},"properties":{"GID_0":"RUS","GID_1":"RUS.2_1","GID_2":"RUS.2.49_1","NAME_1":"Altay","NAME_2":"Sovetskiyrayon"}},
{"type":"Feature","geometry":{"type":"Polygon","coordinates":[[[79.9936,53.4401],[79.7855,53.3841],[79.7393,53.2816],[79.6069,53.2446],[79.5625,53.1432],[79.714,53.089],[79.9963,53.0044],[80.3648,53.1263],[80.322,53.1395],[80.2281,53.1699],[79.9936,53.4401]]]},"properties":{"GID_0":"RUS","GID_1":"RUS.2_1","GID_2":"RUS.2.50_1","NAME_1":"Altay","NAME_2":"Suetskiyrayon"}},
{"type":"Feature","geometry":{"type":"Polygon","coordinates":[[[78.6349,52.5232],[78.9719,52.6526],[79.0811,52.7675],[79.3251,52.724],[79.5359,52.8527],[79.3601,53.0041],[79.0674,53.0548],[78.8702,52.9699],[78.7978,52.9424],[78.6625,52.8058],[78.3851,52.8094],[78.6349,52.5232]]]},"properties":{"GID_0":"RUS","GID_1":"RUS.2_1","GID_2":"RUS.2.51_1","NAME_1":"Altay","NAME_2":"Tabunskiyrayon"}},
{"type":"Feature","geometry":{"type":"Polygon","coordinates":[[[83.482,53.4487],[83.6384,53.4921],[83.7869,53.7065],[83.7458,53.8682],[83.9427,53.9464],[84.1402,53.9314],[83.9937,54.1128],[83.4841,54.0877],[83.1566,54.0416],[82.7526,53.8416],[82.7208,53.745],[82.9948,53.5185],[83.2086,53.5143],[83.3804,53.4298],[83.482,53.4487]]]},"properties":{"GID_0":"RUS","GID_1":"RUS.2_1","GID_2":"RUS.2.52_1","NAME_1":"Altay","NAME_2":"Tal'menskiyrayon"}},
{"type":"Feature","geometry":{"type":"Polygon","coordinates":[[[86.6215,53.4853],[86.5142,53.4993],[86.3375,53.6653],[85.8966,53.7091],[85.7568,53.6528],[85.6557,53.2367],[85.7075,53.2369],[85.8597,53.246],[86.2865,53.3],[86.6215,53.4853]]]},"properties":{"GID_0":"RUS","GID_1":"RUS.2_1","GID_2":"RUS.2.53_1","NAME_1":"Altay","NAME_2":"Togul'skiyrayon"}},
{"type":"Feature","geometry":{"type":"Polygon","coordinates":[[[83.2376,52.3799],[83.518,52.6091],[83.6916,52.6474],[83.9668,52.6135],[84.1113,52.6859],[84.002,52.8732],[83.8693,52.8538],[83.418,52.7827],[83.1659,52.8639],[82.9367,53.0615],[82.8073,52.9983],[82.3077,52.7467],[82.5044,52.6951],[82.7759,52.7759],[82.8948,52.701],[82.9003,52.5575],[83.2376,52.3799]]]},"properties":{"GID_0":"RUS","GID_1":"RUS.2_1","GID_2":"RUS.2.54_1","NAME_1":"Altay","NAME_2":"Topchikhinskiyrayon"}},
{"type":"Feature","geometry":{"type":"Polygon","coordinates":[[[82.8036,50.9407],[82.6823,50.9727],[82.2153,50.9548],[82.0808,51.1397],[81.8976,51.1589],[81.9626,50.8512],[81.8506,50.8177],[82.12,50.751],[82.5483,50.7692],[82.8036,50.9407]]]},"properties":{"GID_0":"RUS","GID_1":"RUS.2_1","GID_2":"RUS.2.55_1","NAME_1":"Altay","NAME_2":"Tret'yakovskiyrayon"}},
{"type":"Feature","geometry":{"type":"Polygon","coordinates":[[[84.5943,52.5343],[84.4936,52.7025],[84.6857,52.7201],[84.7068,52.8253],[85.1273,52.9245],[85.2682,53.0185],[85.4296,53.0055],[85.3938,53.2222],[85.0263,53.2004],[84.8215,53.1244],[84.5314,53.1467],[84.2649,53.086],[84.0803,53.0224],[84.002,52.8732],[84.1113,52.6859],[83.9668,52.6135],[84.1701,52.4455],[84.2818,52.5101],[84.5943,52.5343]]]},"properties":{"GID_0":"RUS","GID_1":"RUS.2_1","GID_2":"RUS.2.56_1","NAME_1":"Altay","NAME_2":"Troitskiyrayon"}},
{"type":"Feature","geometry":{"type":"Polygon","coordinates":[[[86.1451,52.8221],[86.3991,52.9572],[86.3113,53.1183],[85.8993,53.1067],[85.8481,53.2002],[85.8058,53.2429],[85.7075,53.2369],[85.6557,53.2367],[85.3938,53.2222],[85.4296,53.0055],[85.2682,53.0185],[85.1273,52.9245],[85.3421,52.8187],[85.3193,52.7303],[85.3592,52.6493],[85.6509,52.7582],[86.1451,52.8221]]]},"properties":{"GID_0":"RUS","GID_1":"RUS.2_1","GID_2":"RUS.2.57_1","NAME_1":"Altay","NAME_2":"Tselinnyyrayon"}},
{"type":"Feature","geometry":{"type":"Polygon","coordinates":[[[81.2642,53.0775],[81.3215,52.9959],[81.354,52.9647],[81.3811,53.0098],[81.4519,53.0003],[81.5226,53.0339],[81.841,53.0215],[81.8348,53.1484],[82.1123,53.3274],[82.0004,53.4782],[82.021,53.6788],[81.8028,53.6481],[81.5614,53.4012],[81.3537,53.4802],[81.0098,53.3545],[81.2642,53.0775]]]},"properties":{"GID_0":"RUS","GID_1":"RUS.2_1","GID_2":"RUS.2.58_1","NAME_1":"Altay","NAME_2":"Tyumentsevskiyrayon"}},
{"type":"Feature","geometry":{"type":"Polygon","coordinates":[[[79.5502,51.4311],[79.9493,50.8998],[80.1926,50.832],[80.251,50.927],[80.4688,50.9745],[80.4409,51.2058],[80.6484,51.2943],[80.3413,51.2837],[80.5343,51.4983],[80.6827,51.6191],[80.5383,51.7301],[80.2985,51.749],[80.0817,51.6097],[80.0257,51.555],[79.5502,51.4311]]]},"properties":{"GID_0":"RUS","GID_1":"RUS.2_1","GID_2":"RUS.2.59_1","NAME_1":"Altay","NAME_2":"Uglovskiyrayon"}},
{"type":"Feature","geometry":{"type":"Polygon","coordinates":[[[82.9219,52.1388],[83.0203,52.0822],[82.7707,51.9471],[82.8094,51.8669],[83.1251,51.8527],[83.2878,51.7272],[83.6387,51.8026],[83.8034,51.6655],[83.9194,51.7254],[83.8707,51.8269],[83.9861,51.9192],[83.7871,51.9895],[83.5797,51.9052],[83.5322,52.1257],[83.2306,52.256],[83.177,52.1914],[82.9219,52.1388]]]},"properties":{"GID_0":"RUS","GID_1":"RUS.2_1","GID_2":"RUS.2.60_1","NAME_1":"Altay","NAME_2":"Ust'-Kalmanskiyrayon"}},
{"type":"Feature","geometry":{"type":"Polygon","coordinates":[[[83.2306,52.256],[83.5322,52.1257],[83.5797,51.9052],[83.7871,51.9895],[83.8846,52.1231],[83.827,52.2509],[84.1238,52.3995],[84.1701,52.4455],[83.9668,52.6135],[83.6916,52.6474],[83.518,52.6091],[83.2376,52.3799],[83.2661,52.2991],[83.2306,52.256]]]},"properties":{"GID_0":"RUS","GID_1":"RUS.2_1","GID_2":"RUS.2.61_1","NAME_1":"Altay","NAME_2":"Ust'-Pristanskiyrayon"}},
{"type":"Feature","geometry":{"type":"Polygon","coordinates":[[[81.0846,52.0781],[81.0863,52.3334],[80.8368,52.3418],[80.5449,52.2424],[80.3536,52.2793],[80.0388,52.1692],[79.951,52.1022],[79.9613,51.9755],[80.0892,51.7169],[80.0817,51.6097],[80.2985,51.749],[80.5383,51.7301],[80.5616,51.7963],[80.9019,52.0172],[81.0846,52.0781]]]},"properties":{"GID_0":"RUS","GID_1":"RUS.2_1","GID_2":"RUS.2.62_1","NAME_1":"Altay","NAME_2":"Volchikhinskiyrayon"}},
{"type":"Feature","geometry":{"type":"Polygon","coordinates":[[[79.714,53.089],[79.5625,53.1432],[79.3601,53.0041],[79.5359,52.8527],[79.8119,52.9958],[79.714,53.089]]]},"properties":{"GID_0":"RUS","GID_1":"RUS.2_1","GID_2":"RUS.2.63_1","NAME_1":"Altay","NAME_2":"Waterbody"}},
{"type":"Feature","geometry":{"type":"Polygon","coordinates":[[[84.3922,53.7703],[85.1232,53.9333],[85.1966,54.0882],[85.4257,54.2004],[85.1902,54.3966],[84.6155,54.2805],[84.419,54.1352],[84.2391,54.1876],[83.9937,54.1128],[84.1402,53.9314],[84.3922,53.7703]]]},"properties":{"GID_0":"RUS","GID_1":"RUS.2_1","GID_2":"RUS.2.64_1","NAME_1":"Altay","NAME_2":"Zalesovskiyrayon"}},
{"type":"Feature","geometry":{"type":"Polygon","coordinates":[[[84.9133,53.4801],[85.3086,53.7037],[85.7208,53.7934],[85.8966,53.7091],[86.3375,53.6653],[86.1098,53.9607],[85.7623,54.1313],[85.4257,54.2004],[85.1966,54.0882],[85.1232,53.9333],[84.3922,53.7703],[84.2769,53.5359],[84.4005,53.5132],[84.8003,53.5744],[84.9133,53.4801]]]},"properties":{"GID_0":"RUS","GID_1":"RUS.2_1","GID_2":"RUS.2.65_1","NAME_1":"Altay","NAME_2":"Zarinskiyrayon"}},
{"type":"Feature","geometry":{"type":"Polygon","coordinates":[[[80.601,53.0446],[80.5496,52.8471],[80.5192,52.8355],[80.5174,52.7835],[80.4296,52.724],[80.4307,52.6635],[80.6756,52.5515],[80.7732,52.6722],[81.3279,52.8564],[81.4313,52.8864],[81.3731,52.9481],[81.3215,52.9959],[81.2642,53.0775],[81.013,53.1275],[80.601,53.0446]]]},"properties":{"GID_0":"RUS","GID_1":"RUS.2_1","GID_2":"RUS.2.66_1","NAME_1":"Altay","NAME_2":"Zav'yalovskiyrayon"}},
{"type":"Feature","geometry":{"type":"Polygon","coordinates":[[[83.0849,51.0063],[82.9916,51.0946],[82.5572,51.1482],[82.0894,51.4108],[81.9543,51.5643],[81.8204,51.5231],[81.6821,51.2489],[81.8976,51.1589],[82.0808,51.1397],[82.2153,50.9548],[82.6823,50.9727],[82.8036,50.9407],[82.9597,50.9179],[83.0849,51.0063]]]},"properties":{"GID_0":"RUS","GID_1":"RUS.2_1","GID_2":"RUS.2.67_1","NAME_1":"Altay","NAME_2":"Zmeinogorskiyrayon"}},
{"type":"Feature","geometry":{"type":"Polygon","coordinates":[[[85.3193,52.7303],[85.3421,52.8187],[85.1273,52.9245],[84.7068,52.8253],[84.6857,52.7201],[84.4936,52.7025],[84.5943,52.5343],[84.8409,52.4264],[84.9709,52.4295],[85.0459,52.4472],[85.0405,52.4734],[84.9718,52.4873],[85.0202,52.5264],[84.9674,52.575],[85.3193,52.7303]]]},"properties":{"GID_0":"RUS","GID_1":"RUS.2_1","GID_2":"RUS.2.68_1","NAME_1":"Altay","NAME_2":"Zonal'nyyrayon"}}
]}