{"type":"FeatureCollection", "features": [
{"type":"Feature","geometry":{"type":"Polygon","coordinates":[[[48.6388,50.5338],[48.2999,50.5517],[48.355,50.3994],[48.208,50.1101],[48.0997,50.0828],[48.2179,49.873],[48.4333,49.838],[48.735,49.9268],[48.7619,50.1019],[48.6388,50.5338]]]},"properties":{"GID_0":"RUS","GID_1":"RUS.63_1","GID_2":"RUS.63.1_1","NAME_1":"Saratov","NAME_2":"Aleksandrovo-Gayskiyrayon"}},
{"type":"Feature","geometry":{"type":"Polygon","coordinates":[[[43.9277,51.6318],[44.0761,51.7635],[44.0276,51.9745],[43.9233,52.0638],[43.3282,52.1742],[43.3509,51.9368],[43.1737,51.8362],[43.5637,51.7082],[43.7396,51.7748],[43.9277,51.6318]]]},"properties":{"GID_0":"RUS","GID_1":"RUS.63_1","GID_2":"RUS.63.2_1","NAME_1":"Saratov","NAME_2":"Arkadakskiyrayon"}},
{"type":"Feature","geometry":{"type":"Polygon","coordinates":[[[45.0517,51.8411],[45.0438,51.8506],[45.0299,51.8478],[45.0428,51.8383],[45.0517,51.8411]]]},"properties":{"GID_0":"RUS","GID_1":"RUS.63_1","GID_2":"RUS.63.3_1","NAME_1":"Saratov","NAME_2":"Atkarsk"}},
{"type":"Feature","geometry":{"type":"Polygon","coordinates":[[[44.6872,51.6543],[45.0177,51.5678],[45.3419,51.549],[45.3661,51.5646],[45.5176,51.943],[45.1014,52.0503],[44.9498,52.24],[44.6559,52.0272],[44.7645,51.8886],[44.5741,51.7161],[44.6872,51.6543]],[[45.0517,51.8411],[45.0428,51.8383],[45.0299,51.8478],[45.0438,51.8506],[45.0517,51.8411]]]},"properties":{"GID_0":"RUS","GID_1":"RUS.63_1","GID_2":"RUS.63.4_1","NAME_1":"Saratov","NAME_2":"Atkarskiyrayon"}},
{"type":"Feature","geometry":{"type":"Polygon","coordinates":[[[47.9155,51.9989],[47.7596,51.9877],[47.7748,51.9013],[47.9155,51.9989]]]},"properties":{"GID_0":"RUS","GID_1":"RUS.63_1","GID_2":"RUS.63.5_1","NAME_1":"Saratov","NAME_2":"Balakovo"}},
{"type":"Feature","geometry":{"type":"Polygon","coordinates":[[[48.0576,52.3016],[47.7516,52.0371],[47.482,52.0629],[47.2651,51.977],[47.5764,51.6543],[47.8444,51.6381],[48.1867,51.6409],[48.2332,51.8732],[48.3406,51.8662],[48.4606,51.8668],[48.4285,51.9036],[48.456,51.991],[48.3419,52.0601],[48.4241,52.1595],[48.4782,52.1611],[48.4501,52.19],[48.1554,52.2229],[48.0576,52.3016]],[[47.9155,51.9989],[47.7748,51.9013],[47.7596,51.9877],[47.9155,51.9989]]]},"properties":{"GID_0":"RUS","GID_1":"RUS.63_1","GID_2":"RUS.63.6_1","NAME_1":"Saratov","NAME_2":"Balakovskiyrayon"}},
{"type":"Feature","geometry":{"type":"Polygon","coordinates":[[[43.2505,51.5093],[43.1664,51.604],[43.1054,51.5982],[43.1671,51.4834],[43.2505,51.5093]]]},"properties":{"GID_0":"RUS","GID_1":"RUS.63_1","GID_2":"RUS.63.7_1","NAME_1":"Saratov","NAME_2":"Balashov"}},
{"type":"Feature","geometry":{"type":"Polygon","coordinates":[[[43.1737,51.8362],[42.836,51.5146],[42.5801,51.5736],[42.8435,51.4818],[42.927,51.3036],[43.1396,51.1709],[43.3207,51.3761],[43.808,51.4345],[43.7607,51.5557],[43.9277,51.6318],[43.7396,51.7748],[43.5637,51.7082],[43.1737,51.8362]],[[43.2505,51.5093],[43.1671,51.4834],[43.1054,51.5982],[43.1664,51.604],[43.2505,51.5093]]]},"properties":{"GID_0":"RUS","GID_1":"RUS.63_1","GID_2":"RUS.63.8_1","NAME_1":"Saratov","NAME_2":"Balashovskiyrayon"}},
{"type":"Feature","geometry":{"type":"Polygon","coordinates":[[[46.3151,52.636],[46.5005,52.4518],[46.8012,52.2773],[46.9844,52.2408],[47.0814,52.3613],[46.9201,52.6315],[46.647,52.7317],[46.3151,52.636]]]},"properties":{"GID_0":"RUS","GID_1":"RUS.63_1","GID_2":"RUS.63.9_1","NAME_1":"Saratov","NAME_2":"Baltayskiyrayon"}},
{"type":"Feature","geometry":{"type":"Polygon","coordinates":[[[46.3151,52.636],[46.0017,52.524],[46.0201,52.4062],[46.3852,52.1076],[46.4445,51.897],[46.5891,51.9408],[46.6927,52.0358],[46.8257,52.0922],[46.8798,52.1306],[46.8507,52.1487],[46.8012,52.2773],[46.5005,52.4518],[46.3151,52.636]]]},"properties":{"GID_0":"RUS","GID_1":"RUS.63_1","GID_2":"RUS.63.10_1","NAME_1":"Saratov","NAME_2":"Bazarno-Karabulakskiyrayon"}},
{"type":"Feature","geometry":{"type":"Polygon","coordinates":[[[49.3457,51.022],[49.3764,51.0618],[49.4013,51.1079],[49.4816,51.1409],[49.4246,51.5105],[49.2663,51.4365],[48.8134,51.5123],[48.86,51.4124],[48.6964,51.2311],[48.6615,51.0858],[48.4849,50.9668],[48.3868,50.9113],[48.3132,50.8814],[48.2458,50.8426],[48.3232,50.8362],[48.3303,50.8068],[49.0087,50.7182],[49.4215,50.8776],[49.3457,51.022]]]},"properties":{"GID_0":"RUS","GID_1":"RUS.63_1","GID_2":"RUS.63.11_1","NAME_1":"Saratov","NAME_2":"Dergachevskiyrayon"}},
{"type":"Feature","geometry":{"type":"Polygon","coordinates":[[[48.8942,52.525],[48.6902,52.6473],[48.4696,52.6999],[48.2994,52.6511],[48.0576,52.3016],[48.1554,52.2229],[48.4501,52.19],[48.4782,52.1611],[48.5157,52.1631],[48.6973,52.4308],[48.8942,52.525]]]},"properties":{"GID_0":"RUS","GID_1":"RUS.63_1","GID_2":"RUS.63.12_1","NAME_1":"Saratov","NAME_2":"Dukhovnitskiyrayon"}},
{"type":"Feature","geometry":{"type":"Polygon","coordinates":[[[44.9819,52.3814],[44.836,52.4813],[44.5881,52.5098],[44.3572,52.2999],[44.0276,51.9745],[44.0761,51.7635],[44.3049,51.7793],[44.5741,51.7161],[44.7645,51.8886],[44.6559,52.0272],[44.9498,52.24],[44.9819,52.3814]]]},"properties":{"GID_0":"RUS","GID_1":"RUS.63_1","GID_2":"RUS.63.13_1","NAME_1":"Saratov","NAME_2":"Ekaterinovskiyrayon"}},
{"type":"Feature","geometry":{"type":"Polygon","coordinates":[[[46.1306,51.4717],[46.1264,51.4697],[46.0216,51.3838],[46.0669,51.3685],[46.1997,51.4414],[46.1927,51.5008],[46.1306,51.4717]]]},"properties":{"GID_0":"RUS","GID_1":"RUS.63_1","GID_2":"RUS.63.14_1","NAME_1":"Saratov","NAME_2":"Engel's"}},
{"type":"Feature","geometry":{"type":"Polygon","coordinates":[[[46.0669,51.3685],[46.0232,51.3833],[45.9774,51.3431],[45.8926,51.2784],[45.845,51.2062],[45.925,51.0957],[46.2406,51.0521],[46.292,50.9332],[46.5202,50.9166],[46.4532,51.0569],[46.7227,51.0971],[46.7663,51.2289],[46.6743,51.4101],[46.8547,51.5126],[46.6116,51.5469],[46.5619,51.5934],[46.541,51.6372],[46.5202,51.6759],[46.4749,51.6578],[46.3437,51.5909],[46.2781,51.5651],[46.1306,51.4717],[46.1927,51.5008],[46.1997,51.4414],[46.0669,51.3685]]]},"properties":{"GID_0":"RUS","GID_1":"RUS.63_1","GID_2":"RUS.63.15_1","NAME_1":"Saratov","NAME_2":"Engel'sskiyrayon"}},
{"type":"Feature","geometry":{"type":"Polygon","coordinates":[[[47.8444,51.6381],[47.7487,51.5591],[47.8539,51.3763],[48.1578,51.3716],[48.0006,51.239],[47.9918,51.1091],[47.7104,50.9104],[47.7338,50.9105],[47.9068,50.883],[47.9241,50.8708],[48.2458,50.8426],[48.3132,50.8814],[48.3868,50.9113],[48.4849,50.9668],[48.6615,51.0858],[48.6964,51.2311],[48.86,51.4124],[48.8134,51.5123],[48.574,51.46],[48.3354,51.654],[48.2332,51.8732],[48.1867,51.6409],[47.8444,51.6381]]]},"properties":{"GID_0":"RUS","GID_1":"RUS.63_1","GID_2":"RUS.63.16_1","NAME_1":"Saratov","NAME_2":"Ershovskiyrayon"}},
{"type":"Feature","geometry":{"type":"Polygon","coordinates":[[[47.7487,51.5591],[47.5914,51.4419],[47.1923,51.4226],[47.1392,51.3014],[47.2791,51.1809],[47.4515,51.1167],[47.4275,51.0027],[47.6488,50.91],[47.7104,50.9104],[47.9918,51.1091],[48.0006,51.239],[48.1578,51.3716],[47.8539,51.3763],[47.7487,51.5591]]]},"properties":{"GID_0":"RUS","GID_1":"RUS.63_1","GID_2":"RUS.63.17_1","NAME_1":"Saratov","NAME_2":"Fedorovskiyrayon"}},
{"type":"Feature","geometry":{"type":"Polygon","coordinates":[[[48.8942,52.525],[48.6973,52.4308],[48.9475,52.2401],[49.2377,52.2182],[49.3235,52.1075],[49.612,52.0043],[49.8632,52.1891],[49.3818,52.4163],[49.3484,52.4868],[48.9631,52.4798],[48.8942,52.525]]]},"properties":{"GID_0":"RUS","GID_1":"RUS.63_1","GID_2":"RUS.63.18_1","NAME_1":"Saratov","NAME_2":"Ivanteevskiyrayon"}},
{"type":"Feature","geometry":{"type":"Polygon","coordinates":[[[43.9277,51.6318],[43.7607,51.5557],[43.808,51.4345],[44.1113,51.3812],[44.3105,51.1836],[44.8223,51.1777],[44.8004,51.4619],[44.6872,51.6543],[44.5741,51.7161],[44.3049,51.7793],[44.0761,51.7635],[43.9277,51.6318]]]},"properties":{"GID_0":"RUS","GID_1":"RUS.63_1","GID_2":"RUS.63.19_1","NAME_1":"Saratov","NAME_2":"Kalininskiyrayon"}},
{"type":"Feature","geometry":{"type":"Polygon","coordinates":[[[48.1264,52.467],[48.1225,52.4797],[48.1072,52.4728],[48.1264,52.467]]]},"properties":{"GID_0":"RUS","GID_1":"RUS.63_1","GID_2":"RUS.63.20_1","NAME_1":"Saratov","NAME_2":"Khvalynsk"}},
{"type":"Feature","geometry":{"type":"Polygon","coordinates":[[[48.2994,52.6511],[48.2937,52.8338],[47.8481,52.7543],[47.6596,52.6225],[47.653,52.512],[47.8429,52.2243],[48.0576,52.3016],[48.2994,52.6511]],[[48.1264,52.467],[48.1072,52.4728],[48.1225,52.4797],[48.1264,52.467]]]},"properties":{"GID_0":"RUS","GID_1":"RUS.63_1","GID_2":"RUS.63.21_1","NAME_1":"Saratov","NAME_2":"Khvalynskiyrayon"}},
{"type":"Feature","geometry":{"type":"Polygon","coordinates":[[[45.7181,51.009],[45.7234,51.0187],[45.7065,51.017],[45.7181,51.009]]]},"properties":{"GID_0":"RUS","GID_1":"RUS.63_1","GID_2":"RUS.63.22_1","NAME_1":"Saratov","NAME_2":"Krasnoarmeysk"}},
{"type":"Feature","geometry":{"type":"Polygon","coordinates":[[[45.845,51.2062],[45.4211,51.1674],[45.3339,51.2257],[45.1341,51.0948],[45.3599,50.8915],[45.2285,50.6847],[45.4509,50.5933],[45.7279,50.5734],[45.7118,50.6947],[45.9547,50.7415],[46.0408,50.8558],[45.925,51.0957],[45.845,51.2062]],[[45.7181,51.009],[45.7065,51.017],[45.7234,51.0187],[45.7181,51.009]]]},"properties":{"GID_0":"RUS","GID_1":"RUS.63_1","GID_2":"RUS.63.23_1","NAME_1":"Saratov","NAME_2":"Krasnoarmeyskiyrayon"}},
{"type":"Feature","geometry":{"type":"Polygon","coordinates":[[[46.5202,50.9166],[46.6133,50.6588],[46.9139,50.6049],[46.9674,50.5212],[47.1317,50.5957],[47.1733,50.7428],[47.3794,50.894],[47.4275,51.0027],[47.4515,51.1167],[47.2791,51.1809],[47.0088,51.0484],[46.7227,51.0971],[46.4532,51.0569],[46.5202,50.9166]]]},"properties":{"GID_0":"RUS","GID_1":"RUS.63_1","GID_2":"RUS.63.24_1","NAME_1":"Saratov","NAME_2":"Krasnokutskiyrayon"}},
{"type":"Feature","geometry":{"type":"Polygon","coordinates":[[[48.2332,51.8732],[48.3354,51.654],[48.574,51.46],[48.8134,51.5123],[49.2663,51.4365],[49.4246,51.5105],[49.4382,51.544],[49.2634,51.7954],[48.7624,51.9802],[48.5392,51.868],[48.3406,51.8662],[48.2332,51.8732]]]},"properties":{"GID_0":"RUS","GID_1":"RUS.63_1","GID_2":"RUS.63.25_1","NAME_1":"Saratov","NAME_2":"Krasnopartizanskiyrayon"}},
{"type":"Feature","geometry":{"type":"Polygon","coordinates":[[[44.6872,51.6543],[44.8004,51.4619],[44.8223,51.1777],[45.1341,51.0948],[45.3339,51.2257],[45.4437,51.4064],[45.3419,51.549],[45.0177,51.5678],[44.6872,51.6543]]]},"properties":{"GID_0":"RUS","GID_1":"RUS.63_1","GID_2":"RUS.63.26_1","NAME_1":"Saratov","NAME_2":"Lysogorskiyrayon"}},
{"type":"Feature","geometry":{"type":"Polygon","coordinates":[[[46.7708,51.6935],[46.7674,51.7057],[46.7535,51.7021],[46.7536,51.693],[46.7708,51.6935]]]},"properties":{"GID_0":"RUS","GID_1":"RUS.63_1","GID_2":"RUS.63.27_1","NAME_1":"Saratov","NAME_2":"Marks"}},
{"type":"Feature","geometry":{"type":"Polygon","coordinates":[[[47.2651,51.977],[47.2275,51.9541],[47.194,51.9027],[46.9782,51.7648],[46.5654,51.6938],[46.5202,51.6759],[46.541,51.6372],[46.5619,51.5934],[46.6116,51.5469],[46.8547,51.5126],[46.9987,51.5402],[47.1923,51.4226],[47.5914,51.4419],[47.7487,51.5591],[47.8444,51.6381],[47.5764,51.6543],[47.2651,51.977]],[[46.7708,51.6935],[46.7536,51.693],[46.7535,51.7021],[46.7674,51.7057],[46.7708,51.6935]]]},"properties":{"GID_0":"RUS","GID_1":"RUS.63_1","GID_2":"RUS.63.28_1","NAME_1":"Saratov","NAME_2":"Marksovskiyrayon"}},
{"type":"Feature","geometry":{"type":"Polygon","coordinates":[[[45.9316,52.4232],[45.7478,52.2349],[45.7637,52.0479],[46.0258,51.965],[46.1092,51.9141],[46.1342,51.8937],[46.2092,51.8426],[46.4445,51.897],[46.3852,52.1076],[46.0201,52.4062],[45.9316,52.4232]]]},"properties":{"GID_0":"RUS","GID_1":"RUS.63_1","GID_2":"RUS.63.29_1","NAME_1":"Saratov","NAME_2":"Novoburasskiyrayon"}},
{"type":"Feature","geometry":{"type":"Polygon","coordinates":[[[47.6808,50.4015],[48.0997,50.0828],[48.208,50.1101],[48.355,50.3994],[48.2999,50.5517],[48.6388,50.5338],[49.0087,50.7182],[48.3303,50.8068],[48.3232,50.8362],[47.9241,50.8708],[47.9068,50.883],[47.7232,50.5869],[47.6808,50.4015]]]},"properties":{"GID_0":"RUS","GID_1":"RUS.63_1","GID_2":"RUS.63.30_1","NAME_1":"Saratov","NAME_2":"Novouzenskiyrayon"}},
{"type":"Feature","geometry":{"type":"Polygon","coordinates":[[[49.4013,51.1079],[49.736,51.1147],[49.9523,51.2406],[50.3676,51.3403],[50.5577,51.6152],[50.286,51.6932],[49.9314,51.6576],[49.796,51.7396],[49.6826,51.6024],[49.4382,51.544],[49.4246,51.5105],[49.4816,51.1409],[49.4013,51.1079]]]},"properties":{"GID_0":"RUS","GID_1":"RUS.63_1","GID_2":"RUS.63.31_1","NAME_1":"Saratov","NAME_2":"Ozinskiyrayon"}},
{"type":"Feature","geometry":{"type":"Polygon","coordinates":[[[50.5577,51.6152],[50.7168,51.6284],[50.7224,51.9487],[50.3749,52.0438],[50.1712,52.1463],[49.8632,52.1891],[49.612,52.0043],[49.7518,51.9149],[49.796,51.7396],[49.9314,51.6576],[50.286,51.6932],[50.5577,51.6152]]]},"properties":{"GID_0":"RUS","GID_1":"RUS.63_1","GID_2":"RUS.63.32_1","NAME_1":"Saratov","NAME_2":"Perelyubskiyrayon"}},
{"type":"Feature","geometry":{"type":"Polygon","coordinates":[[[45.4319,52.2822],[45.4981,52.3152],[45.3846,52.3353],[45.4319,52.2822]]]},"properties":{"GID_0":"RUS","GID_1":"RUS.63_1","GID_2":"RUS.63.33_1","NAME_1":"Saratov","NAME_2":"Petrovsk"}},
{"type":"Feature","geometry":{"type":"Polygon","coordinates":[[[45.9316,52.4232],[45.6795,52.5187],[45.5314,52.4146],[44.9819,52.3814],[44.9498,52.24],[45.1014,52.0503],[45.5176,51.943],[45.7637,52.0479],[45.7478,52.2349],[45.9316,52.4232]],[[45.4319,52.2822],[45.3846,52.3353],[45.4981,52.3152],[45.4319,52.2822]]]},"properties":{"GID_0":"RUS","GID_1":"RUS.63_1","GID_2":"RUS.63.34_1","NAME_1":"Saratov","NAME_2":"Petrovskiyrayon"}},
{"type":"Feature","geometry":{"type":"Polygon","coordinates":[[[47.6808,50.4015],[47.7232,50.5869],[47.9068,50.883],[47.7338,50.9105],[47.6488,50.91],[47.4275,51.0027],[47.3794,50.894],[47.1733,50.7428],[47.1317,50.5957],[46.9674,50.5212],[47.2202,50.4817],[47.2932,50.3884],[47.5515,50.4627],[47.6808,50.4015]]]},"properties":{"GID_0":"RUS","GID_1":"RUS.63_1","GID_2":"RUS.63.35_1","NAME_1":"Saratov","NAME_2":"Piterskiyrayon"}},
{"type":"Feature","geometry":{"type":"Polygon","coordinates":[[[48.8941,52.0481],[48.8148,52.1088],[48.6971,52.043],[48.8303,52.0049],[48.8941,52.0481]]]},"properties":{"GID_0":"RUS","GID_1":"RUS.63_1","GID_2":"RUS.63.36_1","NAME_1":"Saratov","NAME_2":"Pugachev"}},
{"type":"Feature","geometry":{"type":"Polygon","coordinates":[[[48.4606,51.8668],[48.5392,51.868],[48.7624,51.9802],[49.2634,51.7954],[49.4382,51.544],[49.6826,51.6024],[49.796,51.7396],[49.7518,51.9149],[49.612,52.0043],[49.3235,52.1075],[49.2377,52.2182],[48.9475,52.2401],[48.6973,52.4308],[48.5157,52.1631],[48.4241,52.1595],[48.3419,52.0601],[48.456,51.991],[48.4285,51.9036],[48.4606,51.8668]],[[48.8941,52.0481],[48.8303,52.0049],[48.6971,52.043],[48.8148,52.1088],[48.8941,52.0481]]]},"properties":{"GID_0":"RUS","GID_1":"RUS.63_1","GID_2":"RUS.63.37_1","NAME_1":"Saratov","NAME_2":"Pugachevskiyrayon"}},
{"type":"Feature","geometry":{"type":"Polygon","coordinates":[[[43.3509,51.9368],[43.0299,51.9361],[42.8438,52.0345],[42.734,51.8433],[42.5642,51.6856],[42.5801,51.5736],[42.836,51.5146],[43.1737,51.8362],[43.3509,51.9368]]]},"properties":{"GID_0":"RUS","GID_1":"RUS.63_1","GID_2":"RUS.63.38_1","NAME_1":"Saratov","NAME_2":"Romanovskiyrayon"}},
{"type":"Feature","geometry":{"type":"Polygon","coordinates":[[[45.925,51.0957],[46.0408,50.8558],[45.9547,50.7415],[46.1407,50.6507],[46.1277,50.5419],[46.4943,50.54],[46.6133,50.6588],[46.5202,50.9166],[46.292,50.9332],[46.2406,51.0521],[45.925,51.0957]]]},"properties":{"GID_0":"RUS","GID_1":"RUS.63_1","GID_2":"RUS.63.39_1","NAME_1":"Saratov","NAME_2":"Rovenskiyrayon"}},
{"type":"Feature","geometry":{"type":"Polygon","coordinates":[[[43.8763,52.2839],[43.7521,52.2934],[43.7317,52.2475],[43.8367,52.237],[43.8763,52.2839]]]},"properties":{"GID_0":"RUS","GID_1":"RUS.63_1","GID_2":"RUS.63.40_1","NAME_1":"Saratov","NAME_2":"Rtishchevo"}},
{"type":"Feature","geometry":{"type":"Polygon","coordinates":[[[44.3572,52.2999],[43.9657,52.3748],[43.815,52.4451],[43.4672,52.3555],[43.2837,52.4524],[42.9821,52.288],[43.2231,52.3349],[43.3282,52.1742],[43.9233,52.0638],[44.0276,51.9745],[44.3572,52.2999]],[[43.8763,52.2839],[43.8367,52.237],[43.7317,52.2475],[43.7521,52.2934],[43.8763,52.2839]]]},"properties":{"GID_0":"RUS","GID_1":"RUS.63_1","GID_2":"RUS.63.41_1","NAME_1":"Saratov","NAME_2":"Rtishchevskiyrayon"}},
{"type":"Feature","geometry":{"type":"Polygon","coordinates":[[[43.1396,51.1709],[43.5427,51.0261],[43.823,51.1386],[44.1963,51.1071],[44.3105,51.1836],[44.1113,51.3812],[43.808,51.4345],[43.3207,51.3761],[43.1396,51.1709]]]},"properties":{"GID_0":"RUS","GID_1":"RUS.63_1","GID_2":"RUS.63.42_1","NAME_1":"Saratov","NAME_2":"Samoylovskiyrayon"}},
{"type":"Feature","geometry":{"type":"Polygon","coordinates":[[[45.3419,51.549],[45.4437,51.4064],[45.3339,51.2257],[45.4211,51.1674],[45.845,51.2062],[45.8926,51.2784],[45.9774,51.3431],[46.0232,51.3833],[46.0216,51.3838],[46.115,51.4618],[46.2781,51.5651],[46.3437,51.5909],[46.2092,51.8426],[46.1342,51.8937],[46.0274,51.6801],[45.622,51.4901],[45.3661,51.5646],[45.3419,51.549]]]},"properties":{"GID_0":"RUS","GID_1":"RUS.63_1","GID_2":"RUS.63.43_1","NAME_1":"Saratov","NAME_2":"Saratovskiyrayon"}},
{"type":"Feature","geometry":{"type":"Polygon","coordinates":[[[46.7227,51.0971],[47.0088,51.0484],[47.2791,51.1809],[47.1392,51.3014],[47.1923,51.4226],[46.9987,51.5402],[46.8547,51.5126],[46.6743,51.4101],[46.7663,51.2289],[46.7227,51.0971]]]},"properties":{"GID_0":"RUS","GID_1":"RUS.63_1","GID_2":"RUS.63.44_1","NAME_1":"Saratov","NAME_2":"Sovetskiyrayon"}},
{"type":"Feature","geometry":{"type":"Polygon","coordinates":[[[45.3661,51.5646],[45.622,51.4901],[46.0274,51.6801],[46.1342,51.8937],[46.1092,51.9141],[46.0258,51.965],[45.7637,52.0479],[45.5176,51.943],[45.3661,51.5646]]]},"properties":{"GID_0":"RUS","GID_1":"RUS.63_1","GID_2":"RUS.63.45_1","NAME_1":"Saratov","NAME_2":"Tatishchevskiyrayon"}},
{"type":"Feature","geometry":{"type":"Polygon","coordinates":[[[43.3282,52.1742],[43.2231,52.3349],[42.9821,52.288],[42.8438,52.0345],[43.0299,51.9361],[43.3509,51.9368],[43.3282,52.1742]]]},"properties":{"GID_0":"RUS","GID_1":"RUS.63_1","GID_2":"RUS.63.46_1","NAME_1":"Saratov","NAME_2":"Turkovskiyrayon"}},
{"type":"Feature","geometry":{"type":"Polygon","coordinates":[[[47.4295,52.0749],[47.3027,52.1011],[47.2395,52.0514],[47.3015,52.0091],[47.4295,52.0749]]]},"properties":{"GID_0":"RUS","GID_1":"RUS.63_1","GID_2":"RUS.63.47_1","NAME_1":"Saratov","NAME_2":"Vol'sk"}},
{"type":"Feature","geometry":{"type":"Polygon","coordinates":[[[48.0576,52.3016],[47.8429,52.2243],[47.653,52.512],[47.6596,52.6225],[47.4274,52.56],[46.9201,52.6315],[47.0814,52.3613],[46.9844,52.2408],[46.8012,52.2773],[46.8507,52.1487],[46.9378,52.0944],[47.2108,51.9285],[47.2275,51.9541],[47.2651,51.977],[47.482,52.0629],[47.7516,52.0371],[48.0576,52.3016]],[[47.4295,52.0749],[47.3015,52.0091],[47.2395,52.0514],[47.3027,52.1011],[47.4295,52.0749]]]},"properties":{"GID_0":"RUS","GID_1":"RUS.63_1","GID_2":"RUS.63.48_1","NAME_1":"Saratov","NAME_2":"Vol'skiyrayon"}},
{"type":"Feature","geometry":{"type":"Polygon","coordinates":[[[46.4445,51.897],[46.2092,51.8426],[46.3437,51.5909],[46.4749,51.6578],[46.5654,51.6938],[46.9782,51.7648],[47.194,51.9027],[47.2108,51.9285],[46.9378,52.0944],[46.8798,52.1306],[46.8257,52.0922],[46.6927,52.0358],[46.5891,51.9408],[46.4445,51.897]]]},"properties":{"GID_0":"RUS","GID_1":"RUS.63_1","GID_2":"RUS.63.49_1","NAME_1":"Saratov","NAME_2":"Voskresenskiyrayon"}}
]}