{"type":"FeatureCollection", "features": [
{"type":"Feature","geometry":{"type":"Polygon","coordinates":[[[43.8271,43.7174],[43.6733,43.7847],[43.56,43.7735],[43.3372,43.5961],[43.0595,43.5889],[42.8721,43.4199],[42.8892,43.3897],[43.0967,43.3967],[43.0694,43.2665],[43.0989,43.2802],[43.2544,43.3334],[43.418,43.4539],[43.786,43.5709],[43.9233,43.5498],[43.9471,43.5615],[43.9792,43.5651],[43.9541,43.5796],[43.9435,43.6062],[43.863,43.6112],[43.8271,43.7174]]]},"properties":{"GID_0":"RUS","GID_1":"RUS.20_1","GID_2":"RUS.20.1_1","NAME_1":"Kabardin-Balkar","NAME_2":"Baksanskiyrayon"}},
{"type":"Feature","geometry":{"type":"Polygon","coordinates":[[[43.05,43.0262],[43.2247,43.1314],[43.3849,43.3192],[43.7116,43.3618],[43.8759,43.4122],[43.9233,43.5498],[43.786,43.5709],[43.418,43.4539],[43.2544,43.3334],[43.0989,43.2802],[43.0544,43.2595],[42.9177,43.1441],[43.05,43.0262]]]},"properties":{"GID_0":"RUS","GID_1":"RUS.20_1","GID_2":"RUS.20.2_1","NAME_1":"Kabardin-Balkar","NAME_2":"Chegemskiyrayon"}},
{"type":"Feature","geometry":{"type":"Polygon","coordinates":[[[43.05,43.0262],[43.3431,42.89],[43.4859,42.9383],[43.6234,42.9122],[43.7519,43.0386],[43.8759,43.4122],[43.7116,43.3618],[43.3849,43.3192],[43.2247,43.1314],[43.05,43.0262]]]},"properties":{"GID_0":"RUS","GID_1":"RUS.20_1","GID_2":"RUS.20.3_1","NAME_1":"Kabardin-Balkar","NAME_2":"Cherekskiyrayon"}},
{"type":"Feature","geometry":{"type":"Polygon","coordinates":[[[42.9177,43.1441],[43.0544,43.2595],[43.0694,43.2665],[43.0967,43.3967],[42.8892,43.3897],[42.8905,43.3875],[42.7624,43.3088],[42.5278,43.2803],[42.5502,43.1849],[42.7654,43.1853],[42.9177,43.1441]]]},"properties":{"GID_0":"RUS","GID_1":"RUS.20_1","GID_2":"RUS.20.4_1","NAME_1":"Kabardin-Balkar","NAME_2":"El'brusskiyrayon"}},
{"type":"Feature","geometry":{"type":"Polygon","coordinates":[[[44.442,43.6142],[44.441,43.6197],[44.4334,43.621],[44.4345,43.6134],[44.442,43.6142]]]},"properties":{"GID_0":"RUS","GID_1":"RUS.20_1","GID_2":"RUS.20.5_1","NAME_1":"Kabardin-Balkar","NAME_2":"Malgobek"}},
{"type":"Feature","geometry":{"type":"Polygon","coordinates":[[[44.0591,43.606],[44.2673,43.7135],[44.0958,43.7318],[44.0591,43.606]]]},"properties":{"GID_0":"RUS","GID_1":"RUS.20_1","GID_2":"RUS.20.6_1","NAME_1":"Kabardin-Balkar","NAME_2":"Mayskiy"}},
{"type":"Feature","geometry":{"type":"Polygon","coordinates":[[[44.013,43.5705],[44.1494,43.5221],[44.0661,43.3725],[44.1443,43.3072],[44.2177,43.349],[44.2018,43.4592],[44.2647,43.5647],[44.4146,43.6535],[44.4252,43.7039],[44.2341,43.6861],[44.013,43.5705]]]},"properties":{"GID_0":"RUS","GID_1":"RUS.20_1","GID_2":"RUS.20.7_1","NAME_1":"Kabardin-Balkar","NAME_2":"Mayskiyrayon"}},
{"type":"Feature","geometry":{"type":"Polygon","coordinates":[[[43.9792,43.5651],[44.013,43.5705],[44.2341,43.6861],[44.4252,43.7039],[44.4097,43.8439],[44.0732,43.9241],[43.8271,43.7174],[43.863,43.6112],[43.9435,43.6062],[43.9541,43.5796],[43.9792,43.5651]],[[44.0591,43.606],[44.0958,43.7318],[44.2673,43.7135],[44.0591,43.606]],[[44.06,43.7728],[44.0124,43.7396],[43.9397,43.7875],[44.0479,43.7897],[44.06,43.7728]]]},"properties":{"GID_0":"RUS","GID_1":"RUS.20_1","GID_2":"RUS.20.8_1","NAME_1":"Kabardin-Balkar","NAME_2":"Prokhladnenskiyrayon"}},
{"type":"Feature","geometry":{"type":"Polygon","coordinates":[[[44.06,43.7728],[44.0479,43.7897],[43.9397,43.7875],[44.0124,43.7396],[44.06,43.7728]]]},"properties":{"GID_0":"RUS","GID_1":"RUS.20_1","GID_2":"RUS.20.9_1","NAME_1":"Kabardin-Balkar","NAME_2":"Prokhladniy"}},
{"type":"Feature","geometry":{"type":"Polygon","coordinates":[[[44.2177,43.349],[44.5225,43.3697],[44.5227,43.5968],[44.4146,43.6535],[44.2647,43.5647],[44.2018,43.4592],[44.2177,43.349]],[[44.442,43.6142],[44.4345,43.6134],[44.4334,43.621],[44.441,43.6197],[44.442,43.6142]]]},"properties":{"GID_0":"RUS","GID_1":"RUS.20_1","GID_2":"RUS.20.10_1","NAME_1":"Kabardin-Balkar","NAME_2":"Terskiyrayon"}},
{"type":"Feature","geometry":{"type":"Polygon","coordinates":[[[43.9233,43.5498],[43.8759,43.4122],[43.7519,43.0386],[43.9875,43.2032],[44.1742,43.2224],[44.1443,43.3072],[44.0661,43.3725],[44.1494,43.5221],[44.013,43.5705],[43.9471,43.5615],[43.9233,43.5498]]]},"properties":{"GID_0":"RUS","GID_1":"RUS.20_1","GID_2":"RUS.20.11_1","NAME_1":"Kabardin-Balkar","NAME_2":"Urvanskiyrayon"}},
{"type":"Feature","geometry":{"type":"Polygon","coordinates":[[[43.56,43.7735],[43.419,43.8532],[42.9572,43.7585],[42.8528,43.6655],[42.5858,43.5389],[42.592,43.4113],[42.5278,43.2803],[42.7624,43.3088],[42.8905,43.3875],[42.8721,43.4199],[43.0595,43.5889],[43.3372,43.5961],[43.56,43.7735]]]},"properties":{"GID_0":"RUS","GID_1":"RUS.20_1","GID_2":"RUS.20.12_1","NAME_1":"Kabardin-Balkar","NAME_2":"Zol'skiyrayon"}}
]}