{"type":"FeatureCollection", "features": [
{"type":"Feature","geometry":{"type":"Polygon","coordinates":[[[30.804,58.8487],[30.6729,58.7099],[30.3845,58.6779],[30.1903,58.7406],[30.113,58.3821],[30.2988,58.3552],[30.7541,58.4455],[31.1077,58.6157],[30.804,58.8487]]]},"properties":{"GID_0":"RUS","GID_1":"RUS.49_1","GID_2":"RUS.49.1_1","NAME_1":"Novgorod","NAME_2":"Batetskiyrayon"}},
{"type":"Feature","geometry":{"type":"Polygon","coordinates":[[[34.1453,58.3931],[34.0165,58.4354],[33.9576,58.4066],[34.0377,58.3718],[34.1453,58.3931]]]},"properties":{"GID_0":"RUS","GID_1":"RUS.49_1","GID_2":"RUS.49.2_1","NAME_1":"Novgorod","NAME_2":"Borovichi"}},
{"type":"Feature","geometry":{"type":"Polygon","coordinates":[[[34.0476,58.699],[33.9552,58.6305],[33.5202,58.5384],[33.6451,58.4732],[33.5758,58.3704],[33.873,58.1228],[34.0852,58.2048],[34.7423,58.0562],[34.7833,58.1619],[34.6945,58.3081],[34.4441,58.4475],[34.4037,58.6232],[34.2724,58.6441],[34.0476,58.699]],[[34.1453,58.3931],[34.0377,58.3718],[33.9576,58.4066],[34.0165,58.4354],[34.1453,58.3931]]]},"properties":{"GID_0":"RUS","GID_1":"RUS.49_1","GID_2":"RUS.49.3_1","NAME_1":"Novgorod","NAME_2":"Borovichskiyrayon"}},
{"type":"Feature","geometry":{"type":"Polygon","coordinates":[[[32.6008,59.0786],[32.415,59.1321],[32.3196,59.2688],[31.9892,59.387],[31.8888,59.2762],[31.5479,59.341],[31.5748,59.2224],[31.4062,59.0211],[31.2752,58.9943],[31.4184,58.8749],[31.8255,58.7839],[31.9142,58.8666],[31.9727,59.0256],[32.1928,59.017],[32.3478,59.0753],[32.6008,59.0786]]]},"properties":{"GID_0":"RUS","GID_1":"RUS.49_1","GID_2":"RUS.49.4_1","NAME_1":"Novgorod","NAME_2":"Chudovskiyrayon"}},
{"type":"Feature","geometry":{"type":"Polygon","coordinates":[[[32.2253,58.0304],[32.1958,57.8906],[32.296,57.7899],[32.0165,57.687],[32.1126,57.4524],[32.3121,57.5317],[32.7833,57.3811],[33.0937,57.4013],[33.3848,57.5729],[33.0262,57.7163],[32.9052,57.6931],[32.7161,57.7798],[32.752,57.8899],[32.5585,57.9786],[32.2253,58.0304]]]},"properties":{"GID_0":"RUS","GID_1":"RUS.49_1","GID_2":"RUS.49.5_1","NAME_1":"Novgorod","NAME_2":"Demyanskiyrayon"}},
{"type":"Feature","geometry":{"type":"Polygon","coordinates":[[[31.8061,57.1382],[31.0821,57.2915],[30.821,57.2255],[30.7023,57.0098],[30.9657,56.9549],[31.656,56.8895],[31.8626,57.0433],[31.8061,57.1382]]]},"properties":{"GID_0":"RUS","GID_1":"RUS.49_1","GID_2":"RUS.49.6_1","NAME_1":"Novgorod","NAME_2":"Kholmskiyrayon"}},
{"type":"Feature","geometry":{"type":"Polygon","coordinates":[[[34.1488,59.1024],[33.9614,58.9223],[33.9558,58.7506],[34.0476,58.699],[34.2724,58.6441],[34.3383,58.6332],[34.3491,58.6561],[34.3755,58.6695],[34.8624,58.695],[35.0375,58.6177],[35.2855,58.6132],[35.4751,58.6935],[35.3503,58.7864],[35.1941,58.8489],[35.2384,58.9576],[34.9672,59.0571],[34.3626,59.16],[34.1488,59.1024]]]},"properties":{"GID_0":"RUS","GID_1":"RUS.49_1","GID_2":"RUS.49.7_1","NAME_1":"Novgorod","NAME_2":"Khvoyninskiyrayon"}},
{"type":"Feature","geometry":{"type":"Polygon","coordinates":[[[32.5585,57.9786],[32.912,58.0409],[33.0461,58.1629],[33.2337,58.1747],[32.9502,58.3329],[32.5909,58.462],[32.2538,58.4772],[32.1357,58.53],[31.9449,58.2591],[31.7432,58.1929],[31.799,58.1447],[31.8173,58.1223],[32.1083,58.167],[32.2253,58.0304],[32.5585,57.9786]]]},"properties":{"GID_0":"RUS","GID_1":"RUS.49_1","GID_2":"RUS.49.8_1","NAME_1":"Novgorod","NAME_2":"Krestetskiyrayon"}},
{"type":"Feature","geometry":{"type":"Polygon","coordinates":[[[34.1488,59.1024],[33.8946,59.1634],[33.6926,59.3462],[33.2979,59.2885],[33.1275,59.3564],[32.8107,59.2634],[32.7203,59.0642],[32.8108,58.9698],[33.0882,58.8417],[33.0604,58.7159],[33.5202,58.5384],[33.9552,58.6305],[34.0476,58.699],[33.9558,58.7506],[33.9614,58.9223],[34.1488,59.1024]]]},"properties":{"GID_0":"RUS","GID_1":"RUS.49_1","GID_2":"RUS.49.9_1","NAME_1":"Novgorod","NAME_2":"Lyubytinskiyrayon"}},
{"type":"Feature","geometry":{"type":"Polygon","coordinates":[[[32.6008,59.0786],[32.3478,59.0753],[32.1928,59.017],[31.9727,59.0256],[31.9142,58.8666],[32.058,58.7516],[32.0128,58.636],[32.1357,58.53],[32.2538,58.4772],[32.5909,58.462],[32.7889,58.5358],[33.0604,58.7159],[33.0882,58.8417],[32.8108,58.9698],[32.7203,59.0642],[32.6008,59.0786]]]},"properties":{"GID_0":"RUS","GID_1":"RUS.49_1","GID_2":"RUS.49.10_1","NAME_1":"Novgorod","NAME_2":"Malovisherskiyrayon"}},
{"type":"Feature","geometry":{"type":"Polygon","coordinates":[[[32.1126,57.4524],[31.9269,57.423],[31.8164,57.2829],[31.8061,57.1382],[31.8626,57.0433],[32.312,57.1481],[32.3052,57.2077],[32.6763,57.2868],[32.7833,57.3811],[32.3121,57.5317],[32.1126,57.4524]]]},"properties":{"GID_0":"RUS","GID_1":"RUS.49_1","GID_2":"RUS.49.11_1","NAME_1":"Novgorod","NAME_2":"Marevskiyrayon"}},
{"type":"Feature","geometry":{"type":"Polygon","coordinates":[[[34.7833,58.1619],[34.8509,58.229],[35.0946,58.1724],[35.3433,58.2656],[35.3443,58.3539],[35.2442,58.4533],[35.2855,58.6132],[35.0375,58.6177],[34.8624,58.695],[34.3755,58.6695],[34.3491,58.6561],[34.3383,58.6332],[34.4037,58.6232],[34.4441,58.4475],[34.6945,58.3081],[34.7833,58.1619]]]},"properties":{"GID_0":"RUS","GID_1":"RUS.49_1","GID_2":"RUS.49.12_1","NAME_1":"Novgorod","NAME_2":"Moshenskiyrayon"}},
{"type":"Feature","geometry":{"type":"Polygon","coordinates":[[[30.804,58.8487],[31.1077,58.6157],[30.7541,58.4455],[30.8565,58.2626],[31.0087,58.2306],[31.3377,58.3996],[31.6904,58.3737],[31.7432,58.1929],[31.9449,58.2591],[32.1357,58.53],[32.0128,58.636],[32.058,58.7516],[31.9142,58.8666],[31.8255,58.7839],[31.4184,58.8749],[31.2752,58.9943],[31.0104,59.0167],[30.804,58.8487]],[[31.3571,58.4825],[31.2012,58.5008],[31.2277,58.5891],[31.379,58.5269],[31.3571,58.4825]]]},"properties":{"GID_0":"RUS","GID_1":"RUS.49_1","GID_2":"RUS.49.13_1","NAME_1":"Novgorod","NAME_2":"Novgorodskiyrayon"}},
{"type":"Feature","geometry":{"type":"Polygon","coordinates":[[[33.5202,58.5384],[33.0604,58.7159],[32.7889,58.5358],[32.5909,58.462],[32.9502,58.3329],[33.2337,58.1747],[33.6301,58.0445],[33.873,58.1228],[33.5758,58.3704],[33.6451,58.4732],[33.5202,58.5384]]]},"properties":{"GID_0":"RUS","GID_1":"RUS.49_1","GID_2":"RUS.49.14_1","NAME_1":"Novgorod","NAME_2":"Okulovskiyrayon"}},
{"type":"Feature","geometry":{"type":"Polygon","coordinates":[[[32.2253,58.0304],[32.1083,58.167],[31.8173,58.1223],[31.8239,58.1132],[31.6092,58.1954],[31.5037,58.0941],[31.5631,58.0374],[31.6387,57.8377],[31.8384,57.7001],[32.0165,57.687],[32.296,57.7899],[32.1958,57.8906],[32.2253,58.0304]]]},"properties":{"GID_0":"RUS","GID_1":"RUS.49_1","GID_2":"RUS.49.15_1","NAME_1":"Novgorod","NAME_2":"Parfinskiyrayon"}},
{"type":"Feature","geometry":{"type":"Polygon","coordinates":[[[35.2855,58.6132],[35.2442,58.4533],[35.3443,58.3539],[35.6119,58.4343],[35.9805,58.3984],[36.2834,58.5054],[36.2033,58.6744],[35.5294,58.8672],[35.3503,58.7864],[35.4751,58.6935],[35.2855,58.6132]]]},"properties":{"GID_0":"RUS","GID_1":"RUS.49_1","GID_2":"RUS.49.16_1","NAME_1":"Novgorod","NAME_2":"Pestovskiyrayon"}},
{"type":"Feature","geometry":{"type":"Polygon","coordinates":[[[31.8061,57.1382],[31.8164,57.2829],[31.6681,57.371],[31.4816,57.5846],[31.2675,57.6876],[31.041,57.7248],[30.7848,57.5974],[30.5079,57.458],[30.4805,57.345],[30.821,57.2255],[31.0821,57.2915],[31.8061,57.1382]]]},"properties":{"GID_0":"RUS","GID_1":"RUS.49_1","GID_2":"RUS.49.17_1","NAME_1":"Novgorod","NAME_2":"Poddorskiyrayon"}},
{"type":"Feature","geometry":{"type":"Polygon","coordinates":[[[30.113,58.3821],[29.669,58.1869],[29.7761,58.1647],[30.3679,58.1791],[30.5985,58.1425],[30.6546,58.0023],[31.0028,58.054],[30.9727,58.1804],[30.9494,58.1866],[30.9407,58.2435],[30.8565,58.2626],[30.7541,58.4455],[30.2988,58.3552],[30.113,58.3821]]]},"properties":{"GID_0":"RUS","GID_1":"RUS.49_1","GID_2":"RUS.49.18_1","NAME_1":"Novgorod","NAME_2":"Shimskiyrayon"}},
{"type":"Feature","geometry":{"type":"Polygon","coordinates":[[[29.669,58.1869],[29.6951,58.0683],[29.8717,58.0397],[30.1268,57.9186],[30.5793,57.8402],[30.6546,58.0023],[30.5985,58.1425],[30.3679,58.1791],[29.7761,58.1647],[29.669,58.1869]]]},"properties":{"GID_0":"RUS","GID_1":"RUS.49_1","GID_2":"RUS.49.19_1","NAME_1":"Novgorod","NAME_2":"Soletskiyrayon"}},
{"type":"Feature","geometry":{"type":"Polygon","coordinates":[[[31.4078,57.9884],[31.333,57.9822],[31.3159,57.9498],[31.4065,57.9408],[31.4078,57.9884]]]},"properties":{"GID_0":"RUS","GID_1":"RUS.49_1","GID_2":"RUS.49.20_1","NAME_1":"Novgorod","NAME_2":"StarayaRussa"}},
{"type":"Feature","geometry":{"type":"Polygon","coordinates":[[[32.0165,57.687],[31.8384,57.7001],[31.6387,57.8377],[31.5631,58.0374],[31.5275,58.0713],[31.2816,58.0939],[31.005,58.1728],[30.9727,58.1804],[31.0028,58.054],[31.041,57.7248],[31.2675,57.6876],[31.4816,57.5846],[31.6681,57.371],[31.8164,57.2829],[31.9269,57.423],[32.1126,57.4524],[32.0165,57.687]],[[31.4078,57.9884],[31.4065,57.9408],[31.3159,57.9498],[31.333,57.9822],[31.4078,57.9884]]]},"properties":{"GID_0":"RUS","GID_1":"RUS.49_1","GID_2":"RUS.49.21_1","NAME_1":"Novgorod","NAME_2":"Starorusskiyrayon"}},
{"type":"Feature","geometry":{"type":"Polygon","coordinates":[[[33.3848,57.5729],[33.4172,57.667],[33.7328,57.8532],[33.6301,58.0445],[33.2337,58.1747],[33.0461,58.1629],[32.912,58.0409],[32.5585,57.9786],[32.752,57.8899],[32.7161,57.7798],[32.9052,57.6931],[33.0262,57.7163],[33.3848,57.5729]]]},"properties":{"GID_0":"RUS","GID_1":"RUS.49_1","GID_2":"RUS.49.22_1","NAME_1":"Novgorod","NAME_2":"Valdayskiyrayon"}},
{"type":"Feature","geometry":{"type":"Polygon","coordinates":[[[31.3571,58.4825],[31.379,58.5269],[31.2277,58.5891],[31.2012,58.5008],[31.3571,58.4825]]]},"properties":{"GID_0":"RUS","GID_1":"RUS.49_1","GID_2":"RUS.49.23_1","NAME_1":"Novgorod","NAME_2":"VelikiyNovgorod"}},
{"type":"Feature","geometry":{"type":"Polygon","coordinates":[[[31.041,57.7248],[31.0028,58.054],[30.6546,58.0023],[30.5793,57.8402],[30.5076,57.628],[30.7848,57.5974],[31.041,57.7248]]]},"properties":{"GID_0":"RUS","GID_1":"RUS.49_1","GID_2":"RUS.49.24_1","NAME_1":"Novgorod","NAME_2":"Volotovskiyrayon"}},
{"type":"Feature","geometry":{"type":"Polygon","coordinates":[[[31.7432,58.1929],[31.6904,58.3737],[31.3377,58.3996],[31.0087,58.2306],[30.9407,58.2435],[30.9494,58.1866],[31.005,58.1728],[31.2816,58.0939],[31.5275,58.0713],[31.5037,58.0941],[31.6092,58.1954],[31.8239,58.1132],[31.799,58.1447],[31.7432,58.1929]]]},"properties":{"GID_0":"RUS","GID_1":"RUS.49_1","GID_2":"RUS.49.25_1","NAME_1":"Novgorod","NAME_2":"Waterbody"}}
]}