{"type":"FeatureCollection", "features": [
{"type":"Feature","geometry":{"type":"Polygon","coordinates":[[[177.5952,64.3562],[177.5599,64.3807],[177.4859,64.4089],[177.4224,64.4786],[177.4151,64.5286],[177.4422,64.5911],[177.4958,64.6292],[177.4797,64.6443],[177.4901,64.6766],[177.5286,64.7151],[177.5083,64.7396],[177.4187,64.7396],[177.3646,64.7521],[177.2901,64.7307],[177.2312,64.7042],[177.1687,64.6979],[177.0693,64.6995],[176.8651,64.5932],[176.8641,64.5714],[176.7813,64.5396],[176.7599,64.5474],[176.7287,64.5911],[176.6953,64.6162],[176.5938,64.6542],[176.5375,64.6687],[176.4693,64.6641],[176.4287,64.6151],[176.3562,64.5938],[176.3021,64.5938],[176.2151,64.6182],[176.2568,64.6328],[176.3521,64.6396],[176.4125,64.6625],[176.4318,64.688],[176.3651,64.7234],[176.3109,64.763],[176.2891,64.8037],[176.2464,64.8214],[176.2326,64.8604],[176.2771,64.8854],[176.4375,64.8458],[176.4812,64.8],[176.5458,64.8],[176.6792,64.8542],[176.7813,64.8458],[176.8417,64.8229],[176.9214,64.8339],[176.963,64.8172],[176.9714,64.7797],[177.0292,64.7813],[177.0891,64.7568],[177.1208,64.7688],[177.1771,64.7646],[177.2771,64.7937],[177.3411,64.8047],[177.2734,64.8276],[177.2609,64.8745],[177.2766,64.9005],[177.2151,64.9172],[177.1708,64.9479],[177.1104,64.9563],[177.0688,64.9833],[177.037,64.9818],[177.0078,65.0349],[176.9021,65.0229],[176.8682,65.0047],[176.6833,64.9771],[176.5193,64.9838],[176.4599,65.0328],[176.4224,65.038],[176.4167,65.0667],[176.4849,65.062],[176.5229,65.0396],[176.575,65.0396],[176.6026,65.0068],[176.7203,65.0234],[176.7505,65.0391],[176.8854,65.0687],[176.9563,65.0687],[177.1354,65.0167],[177.2182,65.0078],[177.2563,64.9771],[177.2318,64.9349],[177.3083,64.9125],[177.4896,64.9167],[177.5057,64.8734],[177.4901,64.8547],[177.5349,64.8401],[177.4937,64.8187],[177.4312,64.8187],[177.4604,64.7937],[177.5375,64.8021],[177.6391,64.7432],[177.6422,64.7255],[177.7146,64.6875],[177.8167,64.6792],[177.9875,64.6813],[178.0307,64.6661],[178.0333,64.6417],[178.1208,64.6646],[178.2771,64.6563],[178.3375,64.6354],[178.4229,64.6438],[178.5792,64.65],[178.6583,64.6708],[178.7604,64.675],[178.8141,64.6516],[178.7896,64.6312],[178.9287,64.6818],[179.0151,64.7224],[179.1333,64.7604],[179.2042,64.7667],[179.2792,64.7854],[179.5229,64.8],[179.5464,64.8245],[179.7085,64.9084],[179.6847,64.9264],[179.4707,64.9384],[179.3621,64.9293],[179.1932,64.9258],[179.1218,64.9497],[179.1569,64.9779],[179.0909,65.0149],[179.0962,65.0469],[179.0357,65.0719],[179.0033,65.0567],[178.9995,65.0259],[178.8974,65.0047],[178.7603,64.9943],[178.6309,64.9906],[178.486,64.999],[178.3958,65.0478],[178.2491,65.0481],[178.1259,65.0718],[178.0316,65.1125],[178.04,65.1494],[178.1087,65.1847],[178.1382,65.2161],[178.1179,65.2508],[178.0699,65.2819],[178.1194,65.3066],[178.3515,65.3651],[178.5241,65.4189],[178.6745,65.4546],[178.6867,65.5021],[178.7659,65.5877],[179.0393,65.6294],[179.1363,65.6717],[179.2457,65.7377],[179.3009,65.7935],[179.3457,65.8585],[179.3567,65.8925],[179.2512,65.9192],[179.1718,65.963],[179.0765,66.0457],[179.0705,66.0851],[179.0175,66.1889],[179.0463,66.2185],[179.1088,66.242],[179.0453,66.3081],[179.0533,66.3563],[179.1217,66.3879],[179.0717,66.4125],[179.0064,66.43],[178.8191,66.3961],[178.7233,66.4053],[178.5751,66.387],[178.5105,66.4019],[178.5507,66.4253],[178.6517,66.4577],[178.6987,66.4927],[178.7085,66.5417],[178.6593,66.5745],[178.6845,66.6083],[178.6243,66.6266],[178.5691,66.6143],[178.4844,66.6603],[178.528,66.7095],[178.4442,66.7321],[178.3381,66.7026],[178.218,66.685],[178.1761,66.6697],[178.2065,66.6287],[178.1733,66.5981],[178.1057,66.6145],[178.0553,66.643],[178.0165,66.679],[177.9342,66.6794],[177.8968,66.6532],[177.8307,66.6511],[177.7269,66.659],[177.6606,66.684],[177.6238,66.7364],[177.3815,66.7536],[177.3069,66.7824],[177.1643,66.7813],[177.0711,66.7877],[176.9772,66.842],[176.977,66.8908],[177.0375,66.9181],[177.1079,66.9317],[177.1629,66.9565],[177.1116,66.9805],[177.0384,66.9926],[176.9669,66.9767],[176.8673,66.9745],[176.7672,67.0459],[176.734,67.1355],[176.7428,67.198],[176.7345,67.2727],[176.6841,67.2918],[176.5617,67.2829],[176.4745,67.2653],[176.3496,67.2815],[176.329,67.3199],[176.4018,67.3582],[176.4106,67.3693],[176.2581,67.3666],[176.1561,67.3793],[176.059,67.4169],[175.9715,67.4272],[175.7053,67.4112],[175.5919,67.4118],[175.4479,67.4677],[175.2322,67.5169],[175.0103,67.5561],[174.8576,67.5713],[174.7004,67.599],[174.654,67.6403],[174.7368,67.6859],[174.857,67.7094],[175.0767,67.7142],[175.1423,67.7454],[175.0847,67.7865],[174.9602,67.8115],[174.8134,67.8177],[174.6596,67.8068],[174.5703,67.8303],[174.5502,67.8794],[174.6445,67.9641],[174.714,68.038],[174.6784,68.0924],[174.5594,68.154],[174.4181,68.1851],[174.2671,68.1897],[174.1613,68.1995],[174.1004,68.2511],[174.0297,68.2253],[173.9493,68.1815],[173.9773,68.1305],[173.8822,68.0954],[173.7969,68.0893],[173.6203,68.1061],[173.5113,68.0736],[173.5645,68.036],[173.5014,67.9456],[173.4286,67.8976],[173.5006,67.8312],[173.5327,67.7558],[173.3304,67.7351],[173.1671,67.7271],[172.7924,67.7152],[172.6197,67.7049],[172.5311,67.7379],[172.4137,67.7383],[172.246,67.6784],[172.1692,67.6011],[172.1556,67.5303],[172.0761,67.4895],[171.9933,67.4588],[171.9369,67.4157],[171.9428,67.3728],[171.8783,67.3281],[171.7237,67.298],[171.6101,67.2958],[171.507,67.3107],[171.397,67.2741],[171.3147,67.2365],[171.3595,67.1942],[171.3689,67.1478],[171.2854,67.1231],[171.1561,67.1191],[171.1007,67.0925],[170.9638,67.0888],[170.9022,67.0608],[170.7324,67.0533],[170.6131,67.0387],[170.5155,67.0114],[170.3948,66.9613],[170.5078,66.9165],[170.6964,66.873],[170.7217,66.8454],[170.6397,66.8281],[170.3554,66.8005],[170.1688,66.7947],[170.0132,66.7797],[169.8795,66.8205],[169.7506,66.8006],[169.6902,66.8309],[169.5352,66.8079],[169.4359,66.7656],[169.3241,66.7467],[169.1794,66.7388],[169.1285,66.7538],[169.0015,66.7434],[168.9088,66.7146],[168.8349,66.6737],[168.8483,66.6377],[168.8966,66.6223],[168.9898,66.6198],[169.05,66.6001],[168.9404,66.5892],[168.9238,66.5512],[168.9437,66.4605],[168.8473,66.4152],[168.7503,66.3842],[168.6311,66.3745],[168.5169,66.3843],[168.3867,66.3662],[168.3,66.3623],[168.2051,66.3731],[168.121,66.3478],[168.0773,66.2905],[168.0663,66.2447],[168.1048,66.2049],[167.9453,66.1806],[167.8045,66.1645],[167.585,66.2012],[167.4509,66.2065],[167.3536,66.2377],[167.1783,66.2137],[166.9178,66.1365],[166.8506,66.1372],[166.6942,66.1882],[166.5712,66.2166],[166.4507,66.2314],[166.3205,66.2228],[166.186,66.1773],[166.215,66.1202],[166.1239,66.0728],[166.0913,66.0196],[165.9608,65.9724],[165.9651,65.9139],[166.0243,65.8795],[166.0106,65.8465],[165.9339,65.8173],[165.9599,65.775],[165.9579,65.7256],[165.8096,65.6369],[165.7228,65.652],[165.6343,65.6256],[165.4591,65.5431],[165.4615,65.5224],[165.5146,65.4942],[165.5772,65.5056],[165.6602,65.4874],[165.6577,65.4451],[165.6243,65.3786],[165.5395,65.3249],[165.4612,65.3057],[165.3852,65.2384],[165.2987,65.1525],[165.2679,65.0999],[165.3425,65.0735],[165.3732,65.0975],[165.4202,65.102],[165.5167,65.0859],[165.5515,65.0636],[165.5172,65.0291],[165.439,64.9868],[165.4202,64.9501],[165.4361,64.9187],[165.4201,64.8982],[165.3057,64.8631],[165.2035,64.798],[165.262,64.759],[165.2849,64.7232],[165.4988,64.7099],[165.6529,64.7142],[165.7074,64.6869],[165.7221,64.6351],[165.7714,64.5897],[165.7336,64.5312],[165.8049,64.5124],[165.9154,64.5227],[166.0182,64.5865],[166.1408,64.5647],[166.3093,64.5514],[166.4106,64.4955],[166.4733,64.4715],[166.6383,64.4939],[166.7624,64.4844],[166.9236,64.5132],[167.0269,64.578],[167.0955,64.5874],[167.1438,64.5406],[167.2494,64.4681],[167.3527,64.4192],[167.5121,64.3839],[167.5082,64.3333],[167.5258,64.2866],[167.5929,64.2741],[167.7332,64.2949],[167.7513,64.2441],[167.8439,64.2305],[167.9995,64.2481],[168.0975,64.2872],[168.152,64.2711],[168.3424,64.2909],[168.378,64.2089],[168.4447,64.1674],[168.6419,64.148],[168.6651,64.0521],[168.7186,63.9756],[168.8248,63.9319],[168.8627,63.9001],[169.0063,63.8862],[169.1047,63.8895],[169.2,63.8678],[169.1896,63.8099],[169.3337,63.7713],[169.3596,63.708],[169.4083,63.6178],[169.4471,63.5808],[169.3798,63.5384],[169.3906,63.5134],[169.2846,63.4734],[169.1136,63.454],[169.0288,63.4217],[168.9422,63.3517],[168.8067,63.3288],[168.7619,63.2728],[168.681,63.248],[168.6827,63.1776],[168.6293,63.1647],[168.5598,63.1143],[168.4346,63.1022],[168.4001,63.0685],[168.3037,63.0516],[168.2931,63.0071],[168.4328,62.9581],[168.5539,62.9384],[168.621,62.8913],[168.7969,62.8581],[168.9528,62.8754],[169.1533,62.8165],[169.2331,62.7743],[169.4207,62.7169],[169.539,62.6211],[169.6312,62.6231],[169.717,62.5847],[169.8242,62.5806],[169.8644,62.5263],[169.8353,62.4527],[169.9368,62.4036],[169.9122,62.3626],[169.9906,62.3202],[169.9841,62.2873],[170.0263,62.2593],[170.0296,62.2206],[170.0892,62.1967],[170.1605,62.2122],[170.221,62.2504],[170.2996,62.2329],[170.4969,62.2127],[170.6083,62.173],[170.6984,62.1703],[170.7277,62.2046],[170.8203,62.2046],[170.9012,62.2173],[170.9046,62.2563],[171,62.2619],[171.0335,62.3065],[171.0914,62.32],[171.1244,62.3087],[171.2519,62.3165],[171.3172,62.3364],[171.4458,62.3868],[171.5398,62.4321],[171.9388,62.4837],[171.9943,62.5206],[172.0941,62.5435],[172.1542,62.5399],[172.2409,62.5195],[172.3315,62.522],[172.4356,62.5636],[172.5782,62.6043],[172.5413,62.6433],[172.5837,62.6887],[172.7072,62.7054],[172.7472,62.7595],[172.7286,62.8179],[172.7634,62.8435],[172.8732,62.8271],[172.9479,62.8509],[172.9811,62.8822],[173.0842,62.8943],[173.1345,62.9349],[173.1961,62.922],[173.2282,62.8745],[173.3073,62.8859],[173.3668,62.9253],[173.3623,62.9823],[173.4334,62.9311],[173.5112,62.9232],[173.5557,62.96],[173.6201,62.9455],[173.6334,62.9152],[173.683,62.9025],[173.6561,62.8753],[173.695,62.8503],[173.7791,62.8707],[173.79,62.9156],[173.8175,62.9481],[173.9545,62.9859],[174.108,63.0177],[174.3975,63.033],[174.5421,62.9965],[174.6206,62.9914],[174.7474,63.0138],[174.8418,63.0136],[174.9314,62.9927],[175.0092,63.0258],[175.0462,63.0604],[175.2477,63.0942],[175.3562,63.0601],[175.5264,63.0617],[175.5787,63.0743],[175.5733,63.1185],[175.6131,63.1485],[175.6937,63.173],[175.6405,63.2278],[175.7988,63.2594],[175.9384,63.2554],[176.1108,63.2222],[176.2348,63.211],[176.2222,63.1722],[176.0488,63.132],[175.8948,63.0454],[175.9281,63.0145],[176.02,63.0066],[176.1919,63.0132],[176.2316,62.9953],[176.4021,62.9986],[176.4619,62.985],[176.5383,62.9803],[176.5271,62.8849],[176.5906,62.8639],[176.6489,62.8891],[176.7695,62.9234],[176.9137,62.9465],[176.9691,62.9658],[176.9595,63.0273],[177.0272,63.0544],[177.1384,63.0695],[177.1849,63.0444],[177.2855,63.0583],[177.3565,63.0308],[177.4312,63.0447],[177.5418,63.0965],[177.6045,63.1456],[177.6203,63.1877],[177.6005,63.2667],[177.659,63.3614],[177.6322,63.4036],[177.5542,63.4376],[177.4853,63.4956],[177.4856,63.5693],[177.5512,63.6419],[177.5367,63.6756],[177.468,63.7368],[177.3408,63.7425],[177.2108,63.7249],[177.0623,63.6911],[176.952,63.6747],[176.8259,63.6869],[176.8015,63.7398],[176.8028,63.7796],[176.8761,63.8021],[176.8551,63.8266],[176.9545,63.8736],[177.0844,63.8809],[177.1564,63.8998],[177.3052,63.9108],[177.4162,63.9018],[177.5264,63.9242],[177.578,63.9598],[177.5912,64.0003],[177.5346,64.0384],[177.5772,64.0799],[177.7179,64.1117],[177.8008,64.115],[177.7915,64.1656],[177.7413,64.2403],[177.6035,64.35],[177.5952,64.3562]]]},"properties":{"GID_0":"RUS","GID_1":"RUS.12_1","GID_2":"RUS.12.1_1","NAME_1":"Chukot","NAME_2":"Anadyrskiyrayon"}},
{"type":"Feature","geometry":{"type":"Polygon","coordinates":[[[177.6035,64.35],[177.7413,64.2403],[177.7915,64.1656],[177.8008,64.115],[177.7179,64.1117],[177.5772,64.0799],[177.5346,64.0384],[177.5912,64.0003],[177.578,63.9598],[177.5264,63.9242],[177.4162,63.9018],[177.3052,63.9108],[177.1564,63.8998],[177.0844,63.8809],[176.9545,63.8736],[176.8551,63.8266],[176.8761,63.8021],[176.8028,63.7796],[176.8015,63.7398],[176.8259,63.6869],[176.952,63.6747],[177.0623,63.6911],[177.2108,63.7249],[177.3408,63.7425],[177.468,63.7368],[177.5367,63.6756],[177.5512,63.6419],[177.4856,63.5693],[177.4853,63.4956],[177.5542,63.4376],[177.6322,63.4036],[177.659,63.3614],[177.6005,63.2667],[177.6203,63.1877],[177.6045,63.1456],[177.5418,63.0965],[177.4312,63.0447],[177.3565,63.0308],[177.2855,63.0583],[177.1849,63.0444],[177.1384,63.0695],[177.0272,63.0544],[176.9595,63.0273],[176.9691,62.9658],[176.9137,62.9465],[176.7695,62.9234],[176.6489,62.8891],[176.5906,62.8639],[176.5271,62.8849],[176.5383,62.9803],[176.4619,62.985],[176.4021,62.9986],[176.2316,62.9953],[176.1919,63.0132],[176.02,63.0066],[175.9281,63.0145],[175.8948,63.0454],[176.0488,63.132],[176.2222,63.1722],[176.2348,63.211],[176.1108,63.2222],[175.9384,63.2554],[175.7988,63.2594],[175.6405,63.2278],[175.6937,63.173],[175.6131,63.1485],[175.5733,63.1185],[175.5787,63.0743],[175.5264,63.0617],[175.3562,63.0601],[175.2477,63.0942],[175.0462,63.0604],[175.0092,63.0258],[174.9314,62.9927],[174.8418,63.0136],[174.7474,63.0138],[174.6206,62.9914],[174.5421,62.9965],[174.3975,63.033],[174.108,63.0177],[173.9545,62.9859],[173.8175,62.9481],[173.79,62.9156],[173.7791,62.8707],[173.695,62.8503],[173.6561,62.8753],[173.683,62.9025],[173.6334,62.9152],[173.6201,62.9455],[173.5557,62.96],[173.5112,62.9232],[173.4334,62.9311],[173.3623,62.9823],[173.3668,62.9253],[173.3073,62.8859],[173.2282,62.8745],[173.1961,62.922],[173.1345,62.9349],[173.0842,62.8943],[172.9811,62.8822],[172.9479,62.8509],[172.8732,62.8271],[172.7634,62.8435],[172.7286,62.8179],[172.7472,62.7595],[172.7072,62.7054],[172.5837,62.6887],[172.5413,62.6433],[172.5782,62.6043],[172.4356,62.5636],[172.3315,62.522],[172.2409,62.5195],[172.1542,62.5399],[172.0941,62.5435],[171.9943,62.5206],[171.9388,62.4837],[171.5398,62.4321],[171.4458,62.3868],[171.3172,62.3364],[171.2519,62.3165],[171.1244,62.3087],[171.1103,62.2473],[171.1623,62.2541],[171.2171,62.2838],[171.2513,62.2792],[171.2309,62.2324],[171.3826,62.252],[171.4599,62.2826],[171.6804,62.3063],[171.6849,62.3341],[171.7502,62.3642],[171.7907,62.3623],[171.8632,62.3921],[171.9394,62.412],[172.0599,62.3889],[172.1084,62.3467],[172.2712,62.3503],[172.3315,62.3779],[172.4659,62.3917],[172.6524,62.358],[172.7692,62.3105],[172.8507,62.3473],[172.9518,62.3596],[173.0799,62.4066],[173.2303,62.431],[173.3978,62.4679],[173.5315,62.4762],[173.6733,62.4997],[173.7817,62.484],[173.8285,62.4406],[173.9549,62.4364],[174.0423,62.4049],[174.092,62.3294],[174.001,62.2936],[173.925,62.2386],[174.0293,62.2097],[174.0596,62.1552],[174.0506,62.0887],[174.1187,62.0654],[174.2378,62.0793],[174.2788,62.0449],[174.2802,61.9958],[174.3609,61.9642],[174.3844,61.9018],[174.4555,61.872],[174.4429,61.8247],[174.4,61.8209],[174.4604,61.8063],[174.5833,61.8208],[174.7307,61.8609],[174.7599,61.8901],[174.7229,61.9146],[174.6526,61.9557],[174.7099,61.962],[174.7396,61.9375],[174.7875,61.9479],[174.8479,61.9333],[174.825,61.9208],[174.9771,61.9625],[175.0729,61.9729],[175.1396,61.9938],[175.2203,62.0089],[175.2724,62.0359],[175.2932,62.0609],[175.2849,62.0891],[175.3646,62.1083],[175.4083,62.1063],[175.5547,62.1516],[175.6979,62.1896],[175.9812,62.2521],[176.1125,62.2729],[176.2229,62.2813],[176.2995,62.2984],[176.3516,62.3234],[176.4588,62.387],[176.5151,62.4078],[176.6333,62.4375],[176.6167,62.4708],[176.6599,62.4901],[176.6708,62.5146],[176.7312,62.5292],[176.7547,62.5141],[176.7229,62.4917],[176.75,62.4688],[176.9083,62.5125],[176.9833,62.5208],[177.0458,62.5375],[177.125,62.5396],[177.2708,62.5521],[177.6396,62.5604],[177.7333,62.5563],[177.8833,62.5417],[178.05,62.5354],[178.1016,62.5286],[178.1589,62.4943],[178.3292,62.4583],[178.5562,62.4167],[178.6187,62.4125],[178.6854,62.3958],[178.7813,62.3854],[178.8188,62.3708],[179.037,62.337],[179.0609,62.2964],[179.1146,62.275],[179.1557,62.2859],[179.1828,62.3193],[179.1463,62.3505],[179.1807,62.3891],[179.1172,62.4172],[179.1146,62.4375],[179.1443,62.4641],[179.2063,62.4917],[179.3646,62.4792],[179.4162,62.4984],[179.4578,62.5526],[179.4438,62.5771],[179.5167,62.6146],[179.5724,62.613],[179.5875,62.6437],[179.6224,62.6609],[179.6245,62.7391],[179.6099,62.7599],[179.5443,62.7818],[179.5766,62.8005],[179.5807,62.8224],[179.5229,62.8646],[179.3646,62.8771],[179.3255,62.8984],[179.2922,62.9401],[179.2792,62.9979],[179.2583,63.0292],[179.2026,63.0266],[179.2229,62.9667],[179.1229,62.9625],[179.0609,62.9859],[179.138,63.0266],[179.3068,63.037],[179.3667,63.0646],[179.4312,63.05],[179.4667,63.0583],[179.4536,63.1161],[179.3943,63.1464],[179.337,63.1932],[179.2396,63.2292],[179.1745,63.2328],[179.1083,63.2646],[179.0276,63.2714],[178.9828,63.2839],[178.95,63.3229],[178.8995,63.3266],[178.8359,63.3526],[178.8401,63.3766],[178.913,63.4089],[178.8651,63.4589],[178.8214,63.5464],[178.813,63.5932],[178.7922,63.5974],[178.8089,63.5109],[178.8911,63.4109],[178.7839,63.3953],[178.7542,63.3729],[178.7104,63.375],[178.6505,63.3922],[178.6708,63.425],[178.7016,63.4276],[178.7188,63.4583],[178.7651,63.4661],[178.7854,63.4958],[178.7526,63.5109],[178.7396,63.5479],[178.6938,63.5229],[178.6771,63.5583],[178.6474,63.5745],[178.5437,63.5708],[178.5078,63.563],[178.4521,63.5313],[178.3938,63.5125],[178.3479,63.5208],[178.3005,63.5484],[178.2875,63.5812],[178.3776,63.6224],[178.4771,63.6167],[178.5474,63.5901],[178.5479,63.6333],[178.6187,63.6333],[178.663,63.5734],[178.763,63.6036],[178.7474,63.6245],[178.6792,63.6208],[178.6255,63.6526],[178.6193,63.6703],[178.7724,63.6391],[178.8042,63.6125],[178.787,63.7328],[178.762,63.8057],[178.6953,63.9432],[178.5813,63.9583],[178.5495,63.9745],[178.475,63.9854],[178.4396,64.0021],[178.425,64.0313],[178.4875,64.0292],[178.5313,64.0604],[178.5901,64.063],[178.4891,64.1703],[178.4255,64.2151],[178.412,64.2578],[178.363,64.3109],[178.3161,64.3068],[178.2432,64.2672],[178.1255,64.2349],[178.163,64.1943],[178.1208,64.1854],[178.0396,64.2167],[177.9771,64.2042],[177.8542,64.2333],[177.7839,64.2672],[177.7057,64.3182],[177.6035,64.35]]]},"properties":{"GID_0":"RUS","GID_1":"RUS.12_1","GID_2":"RUS.12.2_1","NAME_1":"Chukot","NAME_2":"Beringovskiyrayon"}},
{"type":"Feature","geometry":{"type":"Polygon","coordinates":[[[165.2035,64.798],[165.3057,64.8631],[165.4201,64.8982],[165.4361,64.9187],[165.4202,64.9501],[165.439,64.9868],[165.5172,65.0291],[165.5515,65.0636],[165.5167,65.0859],[165.4202,65.102],[165.3732,65.0975],[165.3425,65.0735],[165.2679,65.0999],[165.2987,65.1525],[165.3852,65.2384],[165.4612,65.3057],[165.5395,65.3249],[165.6243,65.3786],[165.6577,65.4451],[165.6602,65.4874],[165.5772,65.5056],[165.5146,65.4942],[165.4615,65.5224],[165.4591,65.5431],[165.6343,65.6256],[165.7228,65.652],[165.8096,65.6369],[165.9579,65.7256],[165.9599,65.775],[165.9339,65.8173],[166.0106,65.8465],[166.0243,65.8795],[165.9651,65.9139],[165.9608,65.9724],[166.0913,66.0196],[166.1239,66.0728],[166.215,66.1202],[166.186,66.1773],[166.3205,66.2228],[166.4507,66.2314],[166.5712,66.2166],[166.6942,66.1882],[166.8506,66.1372],[166.9178,66.1365],[167.1783,66.2137],[167.3536,66.2377],[167.4509,66.2065],[167.585,66.2012],[167.8045,66.1645],[167.9453,66.1806],[168.1048,66.2049],[168.0663,66.2447],[168.0773,66.2905],[168.121,66.3478],[168.2051,66.3731],[168.3,66.3623],[168.3867,66.3662],[168.5169,66.3843],[168.6311,66.3745],[168.7503,66.3842],[168.8473,66.4152],[168.9437,66.4605],[168.9238,66.5512],[168.9404,66.5892],[169.05,66.6001],[168.9898,66.6198],[168.8966,66.6223],[168.8483,66.6377],[168.8349,66.6737],[168.9088,66.7146],[169.0015,66.7434],[169.1285,66.7538],[169.1794,66.7388],[169.3241,66.7467],[169.4359,66.7656],[169.5352,66.8079],[169.6902,66.8309],[169.7506,66.8006],[169.8795,66.8205],[170.0132,66.7797],[170.1688,66.7947],[170.3554,66.8005],[170.6397,66.8281],[170.7217,66.8454],[170.6964,66.873],[170.5078,66.9165],[170.3948,66.9613],[170.5155,67.0114],[170.6131,67.0387],[170.7324,67.0533],[170.9022,67.0608],[170.9638,67.0888],[170.8827,67.1312],[170.7997,67.1481],[170.6993,67.1579],[170.5822,67.2085],[170.47,67.2101],[170.4548,67.2484],[170.3151,67.2671],[170.3012,67.3184],[170.2492,67.3428],[170.1466,67.3674],[170.0709,67.3964],[170.1112,67.4288],[170.1116,67.4587],[169.9832,67.4551],[169.9082,67.4904],[169.8201,67.5086],[169.7722,67.4867],[169.5458,67.4745],[169.4577,67.4933],[169.4149,67.5373],[169.2881,67.5396],[169.1252,67.5745],[169.0354,67.6226],[168.9664,67.6338],[168.6925,67.5806],[168.5859,67.5778],[168.4572,67.62],[168.373,67.6718],[168.2121,67.6843],[168.0662,67.7394],[167.9759,67.8194],[167.8524,67.8207],[167.7642,67.8474],[167.7435,67.8781],[167.6394,67.9158],[167.512,67.9153],[167.4455,67.9523],[167.4296,67.9898],[167.3344,68.0198],[167.2808,68.1097],[167.3564,68.1597],[167.5356,68.2213],[167.6378,68.2651],[167.6407,68.2949],[167.6926,68.374],[167.5804,68.3443],[167.4234,68.3398],[167.2816,68.3729],[167.0875,68.437],[167.0418,68.5082],[167.1776,68.5506],[167.1195,68.5868],[167.2125,68.6525],[167.2947,68.6913],[167.4334,68.7336],[167.4685,68.7812],[167.381,68.8861],[167.2752,68.9631],[167.216,69.0189],[167.0953,69.0523],[166.976,69.0723],[166.9118,69.1272],[167.0004,69.1827],[167.1477,69.2641],[167.3254,69.3249],[167.4454,69.3834],[167.4519,69.4311],[167.3155,69.4773],[167.2077,69.5206],[167.1586,69.5325],[167.0375,69.4938],[166.9604,69.4771],[166.8896,69.4875],[166.7734,69.4859],[166.6771,69.5125],[166.5917,69.5],[166.4083,69.4979],[166.2167,69.5062],[166.0917,69.5208],[165.9312,69.5542],[165.8042,69.5708],[165.4417,69.5708],[165.325,69.5813],[165.1917,69.5854],[165.1083,69.5729],[164.9563,69.5604],[164.8625,69.5583],[164.5604,69.5813],[164.5021,69.5938],[164.2792,69.6604],[164.1839,69.7005],[164.137,69.7453],[163.9958,69.7521],[163.8792,69.6958],[163.8042,69.6792],[163.6792,69.6708],[163.4708,69.675],[163.3271,69.7042],[163.1979,69.6979],[163.1104,69.675],[162.9583,69.6542],[162.8687,69.6354],[162.7292,69.6354],[162.5833,69.6708],[162.5313,69.6563],[162.4125,69.6583],[162.3555,69.6288],[162.3679,69.5878],[162.3121,69.546],[162.2938,69.5133],[162.1947,69.4963],[162.2991,69.4422],[162.2619,69.3917],[162.39,69.369],[162.4133,69.3401],[162.4026,69.2932],[162.7004,69.1583],[162.7056,69.1291],[162.5053,69.1128],[162.4635,69.0724],[162.439,68.9634],[162.4992,68.9227],[162.6706,68.8986],[162.7201,68.8505],[162.773,68.8195],[162.6756,68.7571],[162.5514,68.7277],[162.564,68.6707],[162.6772,68.6386],[162.628,68.5916],[162.6427,68.5488],[162.5203,68.5213],[162.5325,68.4251],[162.4745,68.3857],[162.4817,68.302],[162.4006,68.2514],[162.0237,68.3163],[161.4075,68.3858],[161.2655,68.3737],[160.95,68.2677],[160.7359,68.2356],[160.2979,68.257],[159.9906,68.264],[159.888,68.2542],[159.8111,68.2235],[159.744,68.1636],[159.5887,68.1903],[159.5322,68.1746],[159.4313,68.1761],[159.3466,68.2117],[159.2491,68.1736],[159.1177,68.1509],[158.959,68.0871],[158.8066,68.0987],[158.5896,68.0956],[158.4063,68.0456],[158.3237,67.9623],[158.3189,67.9145],[158.1702,67.8416],[158.2256,67.7897],[158.352,67.7644],[158.3614,67.7449],[158.3071,67.7092],[158.1691,67.6862],[158.043,67.6944],[157.882,67.6797],[157.8715,67.6032],[157.8305,67.5441],[157.8513,67.4528],[157.9683,67.3709],[157.9402,67.2554],[157.9698,67.2269],[158.1546,67.2039],[158.2075,67.162],[158.285,67.1477],[158.3474,67.1028],[158.5216,67.0919],[158.665,67.0683],[158.8251,67.0324],[158.8595,66.9705],[158.8171,66.878],[158.9762,66.7984],[158.9966,66.7639],[158.8444,66.7297],[158.7785,66.6767],[158.7884,66.6278],[158.6846,66.5783],[158.6126,66.5244],[158.575,66.4594],[158.456,66.426],[158.4982,66.3842],[158.496,66.3599],[158.5754,66.3175],[158.7094,66.3131],[158.7463,66.2663],[158.9713,66.2086],[159.1385,66.2013],[159.244,66.2025],[159.2323,66.1658],[159.0472,66.0624],[158.9783,65.9901],[158.9613,65.8833],[158.9682,65.7502],[159.1305,65.6744],[159.3952,65.6245],[159.6137,65.6045],[159.7687,65.5783],[159.8512,65.5252],[159.9993,65.5091],[160.1321,65.5],[160.1884,65.4614],[160.2253,65.381],[160.4563,65.2527],[160.6401,65.1753],[160.8217,65.1521],[161.0819,65.1518],[161.3069,65.124],[161.534,65.0546],[161.686,65.0433],[161.7822,64.9402],[161.9075,64.8499],[162.1087,64.7897],[162.4776,64.7533],[162.5819,64.7549],[162.6429,64.733],[162.7085,64.6886],[162.7915,64.6612],[163.1175,64.6639],[163.2343,64.6692],[163.2292,64.709],[163.1531,64.7419],[163.1582,64.7768],[163.2082,64.7927],[163.3151,64.7842],[163.421,64.8338],[163.5322,64.9113],[163.5941,64.8886],[163.7145,64.884],[163.7948,64.8523],[163.9656,64.8553],[164.058,64.8896],[164.1886,64.8888],[164.3794,64.8388],[164.5374,64.7898],[164.5859,64.7642],[164.7055,64.7634],[164.7691,64.7318],[164.8165,64.6966],[164.8349,64.6584],[164.8727,64.6438],[164.9543,64.6698],[164.9494,64.7147],[164.9069,64.7544],[164.9519,64.7896],[165.1119,64.8129],[165.2035,64.798]]]},"properties":{"GID_0":"RUS","GID_1":"RUS.12_1","GID_2":"RUS.12.3_1","NAME_1":"Chukot","NAME_2":"Bilibinskiyrayon"}},
{"type":"Feature","geometry":{"type":"MultiPolygon","coordinates":[[[[170.9638,67.0888],[171.1007,67.0925],[171.1561,67.1191],[171.2854,67.1231],[171.3689,67.1478],[171.3595,67.1942],[171.3147,67.2365],[171.397,67.2741],[171.507,67.3107],[171.6101,67.2958],[171.7237,67.298],[171.8783,67.3281],[171.9428,67.3728],[171.9369,67.4157],[171.9933,67.4588],[172.0761,67.4895],[172.1556,67.5303],[172.1692,67.6011],[172.246,67.6784],[172.4137,67.7383],[172.5311,67.7379],[172.6197,67.7049],[172.7924,67.7152],[173.1671,67.7271],[173.3304,67.7351],[173.5327,67.7558],[173.5006,67.8312],[173.4286,67.8976],[173.5014,67.9456],[173.5645,68.036],[173.5113,68.0736],[173.6203,68.1061],[173.7969,68.0893],[173.8822,68.0954],[173.9773,68.1305],[173.9493,68.1815],[174.0297,68.2253],[174.1004,68.2511],[174.0327,68.2997],[174.0467,68.3657],[174.2201,68.3943],[174.3051,68.4451],[174.3499,68.4885],[174.3531,68.5337],[174.4318,68.5599],[174.4498,68.6279],[174.4155,68.7023],[174.362,68.7424],[174.1789,68.8234],[174.1499,68.8941],[174.2371,68.9359],[174.5037,69.0037],[174.6181,69.0477],[174.6838,69.0952],[174.6321,69.1521],[174.4943,69.1888],[174.2948,69.232],[174.2041,69.2707],[174.1116,69.3341],[174.0379,69.3937],[173.8439,69.4391],[173.806,69.5275],[173.7079,69.6719],[173.6907,69.7123],[173.7955,69.7346],[173.7351,69.7524],[173.7688,69.7807],[173.6406,69.7927],[173.6183,69.825],[173.5745,69.8366],[173.6207,69.8637],[173.6083,69.8854],[173.5,69.9313],[173.425,69.9313],[173.3083,69.9187],[173.2813,69.9042],[173.3026,69.8776],[173.4162,69.8516],[173.4792,69.8292],[173.5182,69.7995],[173.4333,69.7688],[173.35,69.7771],[173.2312,69.7604],[173.1943,69.7849],[173.2703,69.8016],[173.2167,69.8333],[173.1,69.8313],[172.9859,69.8547],[172.9312,69.8771],[172.8479,69.8938],[172.7818,69.9255],[172.7912,69.9432],[172.7417,69.9625],[172.6,69.9417],[172.3979,69.9417],[172.275,69.9583],[172.2479,69.9688],[171.9979,69.9771],[171.9021,69.9854],[171.7,70.0146],[171.6042,70.0167],[171.4229,70.0521],[171.2958,70.0458],[171.2563,70.0563],[171.1042,70.0625],[171.0396,70.0833],[170.9125,70.0771],[170.7583,70.0813],[170.7021,70.0958],[170.6047,70.0974],[170.5734,70.0787],[170.5995,70.0422],[170.5437,69.9729],[170.5297,69.9047],[170.5578,69.8974],[170.5786,69.8318],[170.5729,69.8021],[170.6182,69.7662],[170.5333,69.7312],[170.4854,69.7229],[170.3938,69.725],[170.2797,69.6995],[170.1984,69.6578],[170.1526,69.6047],[170.1979,69.5813],[170.2729,69.5792],[170.3938,69.5958],[170.5625,69.5979],[170.6662,69.5557],[170.6979,69.5125],[170.6943,69.4786],[170.7599,69.4495],[170.7724,69.4287],[170.763,69.3734],[170.8401,69.3526],[170.9287,69.2849],[170.9375,69.2292],[170.8901,69.163],[170.9912,69.137],[171.0349,69.0953],[171.0104,69.0667],[171.0151,69.0484],[170.9599,69.0151],[170.8354,68.9708],[170.7625,68.9437],[170.6109,68.9203],[170.5229,68.8792],[170.3547,68.8411],[170.4021,68.8229],[170.5104,68.8146],[170.5224,68.8037],[170.4193,68.7828],[170.4162,68.8057],[170.3682,68.8287],[170.3125,68.8375],[170.1979,68.8021],[170.0917,68.7917],[170.0313,68.7917],[169.8854,68.775],[169.7208,68.7646],[169.6146,68.7667],[169.463,68.8089],[169.4151,68.8544],[169.413,68.9016],[169.4411,68.9193],[169.4307,68.9943],[169.3917,69.0542],[169.3083,69.0792],[169.2292,69.0729],[169.1042,69.0854],[169.0703,69.1057],[168.9542,69.1354],[168.8958,69.1583],[168.7146,69.1979],[168.6583,69.2021],[168.4812,69.2],[168.3417,69.2063],[168.2891,69.2286],[168.2297,69.2943],[168.2151,69.3714],[168.2292,69.425],[168.2766,69.4849],[168.2703,69.5516],[168.1583,69.5687],[168.0089,69.6172],[167.962,69.6412],[168.0479,69.6854],[168.0932,69.6766],[168.0557,69.7432],[167.9792,69.7521],[167.9417,69.7688],[167.7458,69.7688],[167.375,69.6146],[167.1589,69.5328],[167.2077,69.5206],[167.3155,69.4773],[167.4519,69.4311],[167.4454,69.3834],[167.3254,69.3249],[167.1477,69.2641],[167.0004,69.1827],[166.9118,69.1272],[166.976,69.0723],[167.0953,69.0523],[167.216,69.0189],[167.2752,68.9631],[167.381,68.8861],[167.4685,68.7812],[167.4334,68.7336],[167.2947,68.6913],[167.2125,68.6525],[167.1195,68.5868],[167.1776,68.5506],[167.0418,68.5082],[167.0875,68.437],[167.2816,68.3729],[167.4234,68.3398],[167.5804,68.3443],[167.6926,68.374],[167.6407,68.2949],[167.6378,68.2651],[167.5356,68.2213],[167.3564,68.1597],[167.2808,68.1097],[167.3344,68.0198],[167.4296,67.9898],[167.4455,67.9523],[167.512,67.9153],[167.6394,67.9158],[167.7435,67.8781],[167.7642,67.8474],[167.8524,67.8207],[167.9759,67.8194],[168.0662,67.7394],[168.2121,67.6843],[168.373,67.6718],[168.4572,67.62],[168.5859,67.5778],[168.6925,67.5806],[168.9664,67.6338],[169.0354,67.6226],[169.1252,67.5745],[169.2881,67.5396],[169.4149,67.5373],[169.4577,67.4933],[169.5458,67.4745],[169.7722,67.4867],[169.8201,67.5086],[169.9082,67.4904],[169.9832,67.4551],[170.1116,67.4587],[170.1112,67.4288],[170.0709,67.3964],[170.1466,67.3674],[170.2492,67.3428],[170.3012,67.3184],[170.3151,67.2671],[170.4548,67.2484],[170.47,67.2101],[170.5822,67.2085],[170.6993,67.1579],[170.7997,67.1481],[170.8827,67.1312],[170.9638,67.0888]]],[[[170.5604,70.1125],[170.4646,70.1125],[170.4875,70.0896],[170.5521,70.0875],[170.5604,70.1125]]],[[[168.5313,70.0167],[168.4,70.0167],[168.1625,69.9979],[168.0813,69.975],[167.9287,69.9109],[167.7984,69.8266],[167.7917,69.8083],[167.85,69.7896],[168.1083,69.7458],[168.1182,69.7078],[168.1609,69.6818],[168.2312,69.6729],[168.3542,69.6396],[168.4146,69.6333],[168.5271,69.6062],[168.7479,69.5729],[168.9146,69.5542],[169.0167,69.5646],[169.187,69.5547],[169.3016,69.6422],[169.2891,69.6995],[169.3047,69.7297],[169.2713,69.7557],[169.4,69.7542],[169.4557,69.7943],[169.4297,69.8547],[169.2229,69.8979],[169.1193,69.9026],[169.0292,69.95],[168.8354,69.9708],[168.7708,69.9708],[168.6958,69.9875],[168.6146,69.9938],[168.5313,70.0167]]],[[[170.2266,69.7662],[170.1417,69.7729],[170.0271,69.7521],[169.9984,69.738],[170.0938,69.725],[170.125,69.7042],[170.1995,69.7401],[170.2266,69.7662]]]]},"properties":{"GID_0":"RUS","GID_1":"RUS.12_1","GID_2":"RUS.12.4_1","NAME_1":"Chukot","NAME_2":"Chaunskiyrayon"}},
{"type":"Feature","geometry":{"type":"MultiPolygon","coordinates":[[[[-172.6339,65.4899],[-172.5022,65.5346],[-172.468,65.5131],[-172.4018,65.543],[-172.3792,65.575],[-172.5208,65.6146],[-172.6187,65.6104],[-172.6662,65.6276],[-172.6359,65.6526],[-172.6974,65.6849],[-172.6167,65.6875],[-172.575,65.7],[-172.5188,65.675],[-172.475,65.6833],[-172.3917,65.6833],[-172.2609,65.6557],[-172.3057,65.6234],[-172.2047,65.5849],[-172.2172,65.5651],[-172.1521,65.5333],[-172.1,65.5625],[-172,65.5458],[-171.9563,65.5188],[-171.8,65.5208],[-171.7167,65.5021],[-171.6187,65.5125],[-171.4458,65.5146],[-171.2875,65.5292],[-171.1943,65.5078],[-171.1646,65.4875],[-171.0417,65.4667],[-170.988,65.4984],[-170.9714,65.5599],[-171.037,65.6026],[-171.038,65.6182],[-171.1396,65.6438],[-171.2359,65.6536],[-171.3307,65.7151],[-171.3313,65.7333],[-171.3995,65.7568],[-171.4328,65.7984],[-171.4396,65.8375],[-171.213,65.7557],[-171.1662,65.7037],[-171.0229,65.6813],[-170.8651,65.6495],[-170.7917,65.6208],[-170.7333,65.6083],[-170.6167,65.6],[-170.5443,65.6234],[-170.4964,65.6724],[-170.5141,65.6891],[-170.5026,65.7203],[-170.5307,65.7453],[-170.5182,65.7828],[-170.4755,65.8005],[-170.4901,65.8391],[-170.5583,65.8458],[-170.4891,65.8849],[-170.3813,65.9313],[-170.2604,65.95],[-170.2021,65.975],[-170.1687,66.0021],[-169.9708,66.0437],[-169.8938,66.0437],[-169.8271,66.0062],[-169.7479,66.0021],[-169.7068,66.0151],[-169.6542,66.075],[-169.6734,66.1245],[-169.7354,66.15],[-169.8021,66.1583],[-169.8391,66.1359],[-169.9937,66.1542],[-170.0938,66.1771],[-170.1151,66.1484],[-170.1667,66.1375],[-170.2391,66.1547],[-170.2312,66.1813],[-170.1708,66.1687],[-170.1229,66.1792],[-170.1151,66.2161],[-170.1651,66.2536],[-170.2479,66.2937],[-170.3708,66.2917],[-170.4766,66.2516],[-170.5172,66.2234],[-170.6099,66.2214],[-170.5813,66.2458],[-170.5339,66.2359],[-170.5266,66.2755],[-170.4042,66.3146],[-170.5208,66.3354],[-170.5797,66.3599],[-170.7068,66.4349],[-170.8578,66.4859],[-170.8963,66.5099],[-170.9667,66.525],[-170.9917,66.5417],[-171.0604,66.5563],[-171.3229,66.6542],[-171.3641,66.6755],[-171.387,66.713],[-171.3338,66.7474],[-171.3521,66.7646],[-171.4125,66.7688],[-171.587,66.813],[-171.6786,66.8547],[-171.6953,66.8786],[-171.6297,66.9068],[-171.6443,66.9287],[-171.7146,66.9479],[-171.8646,66.9521],[-171.9104,66.9729],[-171.9875,66.95],[-172.0682,66.9443],[-172.2563,66.9583],[-172.3901,66.987],[-172.4583,66.9833],[-172.6583,66.9979],[-172.7995,67.0255],[-173.0167,67.0437],[-173.0266,67.0193],[-172.9062,67.0208],[-172.8396,67.0062],[-172.5083,66.9812],[-172.3604,66.9354],[-172.4062,66.9167],[-172.4771,66.9042],[-172.6109,66.8922],[-172.7688,66.8896],[-172.8687,66.9083],[-172.9792,66.9104],[-173.0417,66.9229],[-173.1,66.9792],[-173.1662,66.9703],[-173.1667,66.9083],[-173.138,66.888],[-173.15,66.8625],[-173.0776,66.8547],[-173.1333,66.8271],[-173.2646,66.8208],[-173.3203,66.8255],[-173.3188,66.8604],[-173.2776,66.8786],[-173.3167,66.9021],[-173.3016,66.9203],[-173.3521,66.9396],[-173.4005,66.9724],[-173.3604,66.9833],[-173.2083,67],[-173.2563,67.0167],[-173.2568,67.0391],[-173.1307,67.0266],[-173.0937,67.0479],[-173.5958,67.1],[-173.7146,67.075],[-174.1458,67.0813],[-174.2458,67.0625],[-174.3417,67.0646],[-174.3375,67.0437],[-174.2167,67.0563],[-174.1896,67.0104],[-174.1953,66.9807],[-174.1313,66.9854],[-174.0437,66.9792],[-174.0109,66.9266],[-174.0224,66.9005],[-173.9651,66.8516],[-173.9297,66.7578],[-173.9391,66.7297],[-173.9162,66.6818],[-173.9625,66.6542],[-174.0474,66.6266],[-174.0651,66.5943],[-174.2078,66.5589],[-174.1338,66.5526],[-174.0688,66.5313],[-173.9958,66.5313],[-173.9604,66.5188],[-173.8333,66.5125],[-173.8016,66.4807],[-173.6901,66.4391],[-173.7172,66.3588],[-173.8313,66.3354],[-173.8021,66.3021],[-173.9141,66.2745],[-173.9422,66.2443],[-174.0125,66.2229],[-174.0458,66.2542],[-174.0234,66.2745],[-174.0141,66.3203],[-173.9339,66.3422],[-173.9318,66.3682],[-173.9787,66.3922],[-173.9849,66.4203],[-173.9609,66.4474],[-174.0213,66.4703],[-174.163,66.4516],[-174.1484,66.4172],[-174.1687,66.4021],[-174.2557,66.3828],[-174.3099,66.3484],[-174.2953,66.3182],[-174.313,66.2963],[-174.3938,66.2833],[-174.4479,66.3],[-174.4703,66.3297],[-174.3958,66.3458],[-174.4724,66.3734],[-174.4766,66.4182],[-174.462,66.4641],[-174.4182,66.4797],[-174.4583,66.5375],[-174.5375,66.5479],[-174.6062,66.575],[-174.7208,66.5979],[-174.7667,66.5875],[-174.8938,66.5896],[-174.8625,66.6125],[-174.8838,66.6349],[-174.9607,66.6614],[-174.9656,66.6327],[-174.9505,66.5363],[-174.9684,66.4909],[-175.0329,66.4399],[-175.058,66.4027],[-175.0302,66.3263],[-175.0121,66.2159],[-175.0352,66.1747],[-175.1734,66.1407],[-175.3342,66.0927],[-175.3699,66.0109],[-175.4357,65.9651],[-175.3485,65.9791],[-175.2865,65.9721],[-175.2704,65.9413],[-175.1538,65.9091],[-175.1719,65.8333],[-175.2629,65.7765],[-175.2288,65.7359],[-175.1245,65.7055],[-175.099,65.6737],[-174.9469,65.6775],[-174.923,65.6455],[-174.9452,65.5989],[-174.869,65.5729],[-174.8927,65.5331],[-174.7843,65.5241],[-174.7486,65.4873],[-174.6852,65.4873],[-174.6039,65.5307],[-174.5726,65.5729],[-174.4995,65.6113],[-174.3672,65.6251],[-174.2553,65.6529],[-174.2057,65.6983],[-174.2914,65.6969],[-174.3541,65.7059],[-174.3895,65.7491],[-174.3195,65.7807],[-174.2235,65.8429],[-174.2173,65.9057],[-174.2304,65.9809],[-174.1767,66.0049],[-174.0421,66.0305],[-173.9862,66.0683],[-173.9423,66.0793],[-173.9028,66.0135],[-173.9604,65.8555],[-173.9253,65.8367],[-173.8196,65.8233],[-173.7652,65.7759],[-173.8011,65.7217],[-173.7213,65.6737],[-173.5939,65.7093],[-173.5238,65.6899],[-173.5044,65.6347],[-173.5507,65.4999],[-173.5862,65.4451],[-173.5333,65.4223],[-173.5095,65.4497],[-173.4488,65.4325],[-173.5187,65.3639],[-173.4819,65.3009],[-173.5663,65.2441],[-173.5402,65.1999],[-173.5417,65.1529],[-173.4675,65.1213],[-173.4215,65.1313],[-173.3746,65.1791],[-173.3644,65.2143],[-173.3108,65.2325],[-173.1523,65.2567],[-173.0064,65.3093],[-172.9248,65.3769],[-172.877,65.4331],[-172.6339,65.4899]]],[[[-174.3708,67.0708],[-174.4479,67.0771],[-174.6057,67.0661],[-174.5958,67.0437],[-174.4833,67.0729],[-174.4708,67.0625],[-174.3708,67.0708]]]]},"properties":{"GID_0":"RUS","GID_1":"RUS.12_1","GID_2":"RUS.12.5_1","NAME_1":"Chukot","NAME_2":"Chukotskiyrayon"}},
{"type":"Feature","geometry":{"type":"Polygon","coordinates":[[[176.5617,67.2829],[176.6841,67.2918],[176.7345,67.2727],[176.7428,67.198],[176.734,67.1355],[176.7672,67.0459],[176.8673,66.9745],[176.9669,66.9767],[177.0384,66.9926],[177.1116,66.9805],[177.1629,66.9565],[177.1079,66.9317],[177.0375,66.9181],[176.977,66.8908],[176.9772,66.842],[177.0711,66.7877],[177.1643,66.7813],[177.3069,66.7824],[177.3815,66.7536],[177.6238,66.7364],[177.6606,66.684],[177.7269,66.659],[177.8307,66.6511],[177.8968,66.6532],[177.9342,66.6794],[178.0165,66.679],[178.0553,66.643],[178.1057,66.6145],[178.1733,66.5981],[178.2065,66.6287],[178.1761,66.6697],[178.218,66.685],[178.3381,66.7026],[178.4442,66.7321],[178.528,66.7095],[178.4844,66.6603],[178.5691,66.6143],[178.6243,66.6266],[178.6845,66.6083],[178.6593,66.5745],[178.7085,66.5417],[178.6987,66.4927],[178.6517,66.4577],[178.5507,66.4253],[178.5105,66.4019],[178.5751,66.387],[178.7233,66.4053],[178.8191,66.3961],[179.0064,66.43],[179.0717,66.4125],[179.1217,66.3879],[179.0533,66.3563],[179.0453,66.3081],[179.1088,66.242],[179.0463,66.2185],[179.0175,66.1889],[179.0705,66.0851],[179.0765,66.0457],[179.1718,65.963],[179.2512,65.9192],[179.3567,65.8925],[179.3457,65.8585],[179.3009,65.7935],[179.2457,65.7377],[179.1363,65.6717],[179.0393,65.6294],[178.7659,65.5877],[178.6867,65.5021],[178.6745,65.4546],[178.5241,65.4189],[178.3515,65.3651],[178.1194,65.3066],[178.0699,65.2819],[178.1179,65.2508],[178.1382,65.2161],[178.1087,65.1847],[178.04,65.1494],[178.0316,65.1125],[178.1259,65.0718],[178.2491,65.0481],[178.3958,65.0478],[178.486,64.999],[178.6309,64.9906],[178.7603,64.9943],[178.8974,65.0047],[178.9995,65.0259],[179.0033,65.0567],[179.0357,65.0719],[179.0962,65.0469],[179.0909,65.0149],[179.1569,64.9779],[179.1218,64.9497],[179.1932,64.9258],[179.3621,64.9293],[179.4707,64.9384],[179.6847,64.9264],[179.7085,64.9084],[179.7526,64.9411],[179.8411,64.9901],[179.9125,65.0188],[179.9979,65.0271],[180,65.9841],[180,67.4987],[179.8055,67.4638],[179.6801,67.4227],[179.4241,67.3815],[179.0579,67.3489],[178.8853,67.3359],[178.8279,67.3581],[178.7421,67.3621],[178.5909,67.3357],[178.4737,67.3509],[178.3001,67.3941],[178.0679,67.3959],[178.0331,67.4151],[177.9413,67.4213],[177.7477,67.4139],[177.5155,67.3769],[177.3177,67.3323],[177.2481,67.3207],[177.1531,67.3239],[177.0905,67.3419],[176.9321,67.3565],[176.8393,67.3841],[176.7569,67.3929],[176.6935,67.3871],[176.4106,67.3693],[176.4018,67.3582],[176.329,67.3199],[176.3496,67.2815],[176.4744,67.2653],[176.5617,67.2829]]]},"properties":{"GID_0":"RUS","GID_1":"RUS.12_1","GID_2":"RUS.12.6_1","NAME_1":"Chukot","NAME_2":"Iyul'tinskiyrayon"}},
{"type":"Feature","geometry":{"type":"MultiPolygon","coordinates":[[[[-172.6667,64.6375],[-172.6917,64.6188],[-172.6708,64.5979],[-172.5208,64.5917],[-172.4547,64.6068],[-172.4484,64.6245],[-172.5167,64.6458],[-172.5708,64.6312],[-172.6667,64.6375]]],[[[-172.3833,64.8313],[-172.4937,64.8146],[-172.5255,64.7839],[-172.5849,64.7516],[-172.5964,64.7255],[-172.637,64.6922],[-172.5661,64.6891],[-172.4812,64.7],[-172.3542,64.7021],[-172.2375,64.7417],[-172.063,64.7568],[-172.1771,64.7958],[-172.2432,64.8089],[-172.2833,64.8271],[-172.3833,64.8313]]],[[[-174.9684,66.4909],[-174.9505,66.5363],[-174.9656,66.6327],[-174.9607,66.6614],[-174.8974,66.7016],[-174.8484,66.7068],[-174.8083,66.7417],[-174.7063,66.7604],[-174.7021,66.775],[-174.7162,66.8006],[-174.7135,66.7899],[-174.7463,66.7963],[-174.7984,66.7803],[-174.9771,66.7803],[-175.0357,66.8049],[-175.0886,66.8357],[-175.2133,66.8249],[-175.2575,66.7557],[-175.2946,66.6681],[-175.2995,66.6143],[-175.4209,66.5791],[-175.4797,66.5201],[-175.488,66.3811],[-175.5971,66.3511],[-175.6942,66.2211],[-175.7628,66.1791],[-175.9026,66.1803],[-176.0041,66.2123],[-176.0728,66.2415],[-176.0493,66.2855],[-176.0497,66.3339],[-176.1467,66.3663],[-176.1573,66.4415],[-176.2284,66.4229],[-176.3756,66.4053],[-176.4375,66.3865],[-176.5113,66.3235],[-176.5856,66.3095],[-176.8847,66.3125],[-177.0334,66.3345],[-177.0328,66.3013],[-176.977,66.2803],[-176.8767,66.2593],[-176.8349,66.2015],[-176.8264,66.1369],[-176.8501,66.0687],[-176.7477,66.0339],[-176.6687,66.0505],[-176.6094,66.0337],[-176.614,66.0139],[-176.5212,66.0035],[-176.4948,65.9759],[-176.4267,65.9547],[-176.4082,65.8691],[-176.3279,65.8401],[-176.3167,65.7919],[-176.3756,65.7607],[-176.3786,65.7253],[-176.3153,65.6907],[-176.3106,65.6481],[-176.3629,65.6227],[-176.3899,65.5451],[-176.4151,65.5152],[-176.3083,65.4833],[-176.0896,65.4542],[-175.9333,65.4208],[-175.9047,65.4036],[-175.8838,65.3641],[-175.9099,65.3297],[-175.8589,65.3057],[-175.8833,65.275],[-175.8807,65.2505],[-175.8292,65.2188],[-175.7292,65.1396],[-175.7912,65.0755],[-175.7859,65.0297],[-175.8599,65.0109],[-175.8641,64.9922],[-175.8083,64.9833],[-175.7229,64.9375],[-175.65,64.9271],[-175.5422,64.8974],[-175.5167,64.8792],[-175.4703,64.8797],[-175.4766,64.8505],[-175.3338,64.8432],[-175.4375,64.8],[-175.3583,64.7937],[-175.3229,64.7771],[-175.1438,64.775],[-175.0312,64.7646],[-174.9693,64.7776],[-174.9812,64.8167],[-174.975,64.8604],[-174.9417,64.8646],[-174.9068,64.8172],[-174.9516,64.7901],[-174.8786,64.788],[-174.8229,64.8083],[-174.7667,64.8],[-174.7109,64.8193],[-174.6995,64.8641],[-174.675,64.8958],[-174.6297,64.8932],[-174.5922,64.8391],[-174.6328,64.8016],[-174.6641,64.737],[-174.6313,64.7042],[-174.4333,64.6604],[-174.3708,64.6333],[-174.2276,64.6495],[-174.2604,64.6125],[-174.05,64.5354],[-174.0266,64.4568],[-173.9438,64.4063],[-173.8729,64.3875],[-173.7984,64.4213],[-173.7557,64.4578],[-173.7172,64.4516],[-173.7807,64.4099],[-173.812,64.3734],[-173.7833,64.3604],[-173.7026,64.3495],[-173.6417,64.325],[-173.5937,64.3354],[-173.5312,64.3333],[-173.5021,64.3521],[-173.4443,64.363],[-173.3609,64.4005],[-173.2786,64.4484],[-173.2172,64.4234],[-173.3328,64.3609],[-173.3682,64.3224],[-173.337,64.2943],[-173.2937,64.3271],[-173.2443,64.3339],[-173.2912,64.2839],[-173.1922,64.2599],[-173.1786,64.2484],[-173.0979,64.2417],[-173.0312,64.2604],[-172.9359,64.2609],[-172.9687,64.3146],[-172.937,64.3349],[-172.8729,64.2937],[-172.838,64.3005],[-172.8104,64.3583],[-172.825,64.3875],[-172.8005,64.4193],[-172.813,64.4453],[-172.8724,64.4578],[-172.9354,64.4437],[-173.0286,64.438],[-173.0333,64.4542],[-172.9604,64.4917],[-172.7937,64.4979],[-172.7588,64.5078],[-172.7516,64.4568],[-172.7088,64.4349],[-172.7266,64.3984],[-172.5854,64.3729],[-172.4714,64.3901],[-172.4234,64.4068],[-172.4182,64.4339],[-172.3625,64.4708],[-172.4162,64.5109],[-172.4172,64.5391],[-172.4833,64.5375],[-172.5911,64.5547],[-172.6026,64.5745],[-172.7161,64.5859],[-172.7229,64.6042],[-172.9016,64.6141],[-172.8338,64.6536],[-172.9125,64.6708],[-173.05,64.6375],[-173.0807,64.6474],[-172.9792,64.6813],[-172.8813,64.6896],[-172.8313,64.7021],[-172.7526,64.7484],[-172.7568,64.7745],[-172.8036,64.7839],[-172.9333,64.8333],[-172.9547,64.8151],[-173.0099,64.7995],[-173.0464,64.7714],[-173.1062,64.7562],[-173.1833,64.775],[-173.0859,64.7859],[-173.0828,64.8307],[-172.9792,64.8604],[-172.9042,64.8625],[-172.7542,64.8333],[-172.6766,64.8682],[-172.5979,64.8854],[-172.5125,64.925],[-172.4333,64.9146],[-172.375,64.9271],[-172.3208,64.9521],[-172.2526,64.9693],[-172.2078,65.0141],[-172.1172,65.0484],[-172.0974,65.0703],[-172.1646,65.0708],[-172.2099,65.1266],[-172.1703,65.1547],[-172.1984,65.1974],[-172.2417,65.2125],[-172.3333,65.2063],[-172.475,65.2125],[-172.525,65.2],[-172.5958,65.2083],[-172.625,65.225],[-172.6833,65.2125],[-172.6891,65.2453],[-172.6271,65.2646],[-172.538,65.2516],[-172.4396,65.25],[-172.4146,65.2604],[-172.2646,65.2604],[-172.2167,65.2479],[-172.1776,65.2911],[-172.2161,65.3068],[-172.2161,65.3307],[-172.1734,65.3984],[-172.2542,65.4104],[-172.3188,65.4083],[-172.3932,65.4359],[-172.4266,65.4724],[-172.2984,65.4755],[-172.4016,65.5339],[-172.4018,65.543],[-172.468,65.5131],[-172.5017,65.5347],[-172.6339,65.4899],[-172.877,65.4331],[-172.9248,65.3769],[-173.0064,65.3093],[-173.1523,65.2567],[-173.3108,65.2325],[-173.3644,65.2143],[-173.3746,65.1791],[-173.4215,65.1313],[-173.4675,65.1213],[-173.5417,65.1529],[-173.5402,65.1999],[-173.5663,65.2441],[-173.4819,65.3009],[-173.5187,65.3639],[-173.4488,65.4325],[-173.5095,65.4497],[-173.5333,65.4223],[-173.5862,65.4451],[-173.5507,65.4999],[-173.5044,65.6347],[-173.5238,65.6899],[-173.5939,65.7093],[-173.7213,65.6737],[-173.8011,65.7217],[-173.7652,65.7759],[-173.8196,65.8233],[-173.9253,65.8367],[-173.9604,65.8555],[-173.9028,66.0135],[-173.9423,66.0793],[-173.9862,66.0683],[-174.0421,66.0305],[-174.1767,66.0049],[-174.2304,65.9809],[-174.2173,65.9057],[-174.2235,65.8429],[-174.3195,65.7807],[-174.3895,65.7491],[-174.3541,65.7059],[-174.2914,65.6969],[-174.2057,65.6983],[-174.2553,65.6529],[-174.3672,65.6251],[-174.4995,65.6113],[-174.5726,65.5729],[-174.6039,65.5307],[-174.6852,65.4873],[-174.7486,65.4873],[-174.7843,65.5241],[-174.8927,65.5331],[-174.869,65.5729],[-174.9452,65.5989],[-174.923,65.6455],[-174.9469,65.6775],[-175.099,65.6737],[-175.1245,65.7055],[-175.2288,65.7359],[-175.2629,65.7765],[-175.1719,65.8333],[-175.1538,65.9091],[-175.2704,65.9413],[-175.2865,65.9721],[-175.3485,65.9791],[-175.4357,65.9651],[-175.3699,66.0109],[-175.3342,66.0927],[-175.1734,66.1407],[-175.0352,66.1747],[-175.0121,66.2159],[-175.0302,66.3263],[-175.058,66.4027],[-175.0329,66.4399],[-174.9684,66.4909]]]]},"properties":{"GID_0":"RUS","GID_1":"RUS.12_1","GID_2":"RUS.12.7_1","NAME_1":"Chukot","NAME_2":"Providenskiyrayon"}},
{"type":"Feature","geometry":{"type":"MultiPolygon","coordinates":[[[[175.9715,67.4272],[176.059,67.4169],[176.1561,67.3793],[176.2581,67.3666],[176.4107,67.3693],[176.6935,67.3871],[176.7569,67.3929],[176.8393,67.3841],[176.9321,67.3565],[177.0905,67.3419],[177.1531,67.3239],[177.2481,67.3207],[177.3177,67.3323],[177.5155,67.3769],[177.7477,67.4139],[177.9413,67.4213],[178.0331,67.4151],[178.0679,67.3959],[178.3001,67.3941],[178.4737,67.3509],[178.5909,67.3357],[178.7421,67.3621],[178.8279,67.3581],[178.8853,67.3359],[179.0579,67.3489],[179.4241,67.3815],[179.6801,67.4227],[179.8055,67.4638],[180,67.4987],[180,68.9497],[179.9953,68.9714],[179.7937,68.9792],[179.6995,69.0047],[179.6911,69.0432],[179.5958,69.0646],[179.5807,69.0964],[179.6266,69.1078],[179.5104,69.1708],[179.4005,69.2109],[179.3146,69.2542],[179.2292,69.2667],[178.9854,69.2646],[178.9208,69.275],[178.7875,69.2604],[178.7437,69.2708],[178.7047,69.2984],[178.7583,69.3625],[178.8542,69.3604],[178.9682,69.3307],[178.9641,69.3536],[178.875,69.3792],[178.6438,69.4187],[178.5938,69.4354],[178.3687,69.4583],[178.3062,69.4229],[178.2229,69.4521],[178.0958,69.4563],[177.9958,69.4688],[177.8646,69.4938],[177.7667,69.5188],[177.6646,69.5125],[177.6359,69.5234],[177.6516,69.5516],[177.5271,69.5833],[177.4354,69.5917],[177.3005,69.5901],[177.3,69.6021],[177.1687,69.5979],[177.0375,69.625],[176.9625,69.6271],[176.85,69.6542],[176.6438,69.6958],[176.5854,69.7021],[176.5083,69.725],[176.4375,69.7333],[176.3646,69.7604],[176.2563,69.7542],[176.2193,69.7724],[176.2974,69.7911],[176.1641,69.8266],[176.1271,69.7708],[175.9521,69.7667],[175.8474,69.7828],[175.7412,69.8245],[175.6021,69.8333],[175.525,69.8625],[175.5016,69.8359],[175.3687,69.8313],[175.3104,69.8208],[175.1833,69.8417],[175.1458,69.8375],[174.9604,69.8396],[174.8833,69.8354],[174.5833,69.8417],[174.4229,69.8479],[174.3458,69.8688],[174.275,69.8625],[174.1292,69.8771],[174.0479,69.8771],[174.0021,69.8875],[173.8875,69.8708],[173.6779,69.8621],[173.6207,69.8637],[173.5745,69.8366],[173.6183,69.825],[173.6406,69.7927],[173.7688,69.7807],[173.7351,69.7524],[173.7955,69.7346],[173.6907,69.7123],[173.7079,69.6719],[173.806,69.5275],[173.8439,69.4391],[174.0379,69.3937],[174.1116,69.3341],[174.2041,69.2707],[174.2948,69.232],[174.4943,69.1888],[174.6321,69.1521],[174.6838,69.0952],[174.6181,69.0477],[174.5037,69.0037],[174.2371,68.9359],[174.1499,68.8941],[174.1789,68.8234],[174.362,68.7424],[174.4155,68.7023],[174.4498,68.6279],[174.4318,68.5599],[174.3531,68.5337],[174.3499,68.4885],[174.3051,68.4451],[174.2201,68.3943],[174.0467,68.3657],[174.0327,68.2997],[174.1004,68.2511],[174.1613,68.1995],[174.2671,68.1897],[174.4181,68.1851],[174.5594,68.154],[174.6784,68.0924],[174.714,68.038],[174.6445,67.9641],[174.5502,67.8794],[174.5703,67.8303],[174.6596,67.8068],[174.8134,67.8177],[174.9602,67.8115],[175.0847,67.7865],[175.1423,67.7454],[175.0767,67.7142],[174.857,67.7094],[174.7368,67.6859],[174.654,67.6403],[174.7004,67.599],[174.8576,67.5713],[175.0103,67.5561],[175.2322,67.5169],[175.4479,67.4677],[175.5919,67.4118],[175.7053,67.4112],[175.9715,67.4272]]],[[[179.9937,70.9729],[179.9995,71.112],[179.9995,71.3901],[179.9917,71.5229],[179.9422,71.5224],[179.8771,71.475],[179.8292,71.475],[179.775,71.4396],[179.6896,71.4417],[179.4734,71.4016],[179.4891,71.3776],[179.4125,71.3708],[179.3417,71.3292],[179.2547,71.312],[179.2208,71.2792],[179.1104,71.2521],[178.9812,71.2333],[178.8984,71.2078],[178.8901,71.1766],[178.8271,71.1479],[178.8604,71.1354],[178.9354,71.1479],[178.9182,71.1016],[178.8359,71.0995],[178.7245,71.0734],[178.6297,71.0703],[178.6484,71.0266],[178.7813,71.0104],[178.6932,70.9807],[178.7297,70.9151],[178.7849,70.8849],[178.8125,70.8042],[178.8375,70.7896],[178.9854,70.8375],[179.1083,70.8625],[179.2917,70.875],[179.4542,70.8688],[179.5021,70.8833],[179.6125,70.8708],[179.762,70.9172],[179.7979,70.9521],[179.9937,70.9729]]],[[[-179.2912,65.5401],[-179.35,65.5458],[-179.3495,65.5068],[-179.2953,65.5162],[-179.2912,65.5401]]],[[[-175.0357,66.8049],[-174.9771,66.7803],[-174.7984,66.7803],[-174.7463,66.7963],[-174.7135,66.7899],[-174.7162,66.8006],[-174.7578,66.8839],[-174.7547,66.9266],[-174.8307,66.963],[-174.8729,67],[-174.8609,67.0141],[-174.9057,67.0411],[-174.9146,67.0792],[-174.8859,67.1495],[-174.8891,67.2099],[-174.8703,67.2693],[-174.8271,67.3],[-174.7484,67.312],[-174.7859,67.3474],[-174.8443,67.3724],[-174.9245,67.3839],[-174.9151,67.4266],[-174.9714,67.4109],[-175.0651,67.3505],[-175.1828,67.3276],[-175.3089,67.3484],[-175.2563,67.3771],[-175.2245,67.4266],[-175.1891,67.4443],[-175.1922,67.5328],[-175.2464,67.5599],[-175.2443,67.5787],[-175.2995,67.6088],[-175.312,67.6412],[-175.2588,67.6505],[-175.4458,67.7063],[-175.5083,67.7146],[-175.6375,67.7583],[-175.7536,67.7911],[-175.9187,67.7396],[-175.8547,67.7068],[-175.8818,67.6568],[-175.7292,67.6458],[-175.7182,67.6276],[-175.663,67.6162],[-175.6812,67.5667],[-175.6271,67.5667],[-175.6276,67.5339],[-175.5604,67.5167],[-175.5099,67.5432],[-175.4401,67.5391],[-175.5458,67.5062],[-175.6542,67.5188],[-175.6693,67.5537],[-175.7667,67.5708],[-175.9245,67.5797],[-175.888,67.6307],[-175.9417,67.6375],[-176.0042,67.6292],[-176.1687,67.6292],[-176.3229,67.6813],[-176.3104,67.7292],[-176.15,67.7292],[-176.0609,67.7391],[-176.1245,67.7589],[-176.1286,67.7995],[-176.0375,67.8708],[-176.1807,67.9036],[-176.3542,67.8917],[-176.4104,67.8938],[-176.4854,67.8833],[-176.5458,67.8938],[-176.5401,67.912],[-176.6417,67.925],[-176.7146,67.9521],[-176.8021,67.9708],[-176.8917,67.9667],[-176.9083,67.9854],[-176.7609,67.9838],[-176.788,68.0005],[-176.7359,68.0214],[-176.7276,68.0432],[-176.8672,68.0891],[-176.8839,68.1057],[-176.9563,68.1271],[-177.0167,68.1312],[-177.1125,68.1167],[-177.2078,68.1359],[-177.1667,68.1854],[-177.2792,68.2271],[-177.3417,68.2417],[-177.4583,68.2188],[-177.5224,68.1974],[-177.5672,68.2172],[-177.6766,68.1901],[-177.6891,68.2016],[-177.6104,68.2458],[-177.7432,68.2474],[-177.6104,68.2729],[-177.65,68.3125],[-177.7208,68.3125],[-177.9307,68.2578],[-177.9479,68.2417],[-178.0396,68.2458],[-178.0328,68.2682],[-177.9859,68.2797],[-177.9557,68.3193],[-177.9932,68.3443],[-177.9734,68.3745],[-178.0188,68.4167],[-178.0813,68.4208],[-178.1995,68.4505],[-178.3245,68.4682],[-178.4104,68.4979],[-178.5229,68.5062],[-178.7021,68.5396],[-178.7088,68.6495],[-178.7193,68.6787],[-178.8026,68.7328],[-178.9167,68.7688],[-179.0396,68.7833],[-179.1479,68.7875],[-179.1771,68.8083],[-179.2708,68.8021],[-179.3599,68.8276],[-179.3729,68.8625],[-179.4208,68.8854],[-179.4516,68.9161],[-179.5562,68.8979],[-179.7146,68.8958],[-179.8104,68.9083],[-179.8443,68.9266],[-179.9787,68.9672],[-179.9979,68.9792],[-180,67.9964],[-180,66.0307],[-179.9984,65.0484],[-179.9359,65.0609],[-179.8807,65.0891],[-179.8417,65.0917],[-179.7521,65.1375],[-179.6651,65.1505],[-179.6453,65.1745],[-179.5682,65.2245],[-179.5297,65.288],[-179.5078,65.3474],[-179.4818,65.363],[-179.5318,65.3901],[-179.6609,65.4099],[-179.737,65.4057],[-179.7979,65.3812],[-179.8437,65.3938],[-179.9193,65.3557],[-179.8974,65.3339],[-179.8422,65.3203],[-179.8938,65.2958],[-179.9703,65.3109],[-179.9703,65.3662],[-179.8583,65.4],[-179.7479,65.4063],[-179.6646,65.4187],[-179.5771,65.4],[-179.5063,65.4104],[-179.4286,65.4703],[-179.3875,65.4833],[-179.4438,65.5521],[-179.4266,65.5724],[-179.3641,65.5734],[-179.3089,65.6026],[-179.3062,65.6333],[-179.3938,65.6542],[-179.4479,65.6271],[-179.4807,65.6297],[-179.4979,65.6667],[-179.6938,65.7813],[-179.725,65.7792],[-179.7234,65.8245],[-179.7818,65.8786],[-179.7974,65.9537],[-179.7526,66.0432],[-179.7953,66.0974],[-179.7521,66.1],[-179.6755,66.1359],[-179.6828,66.1641],[-179.6125,66.1771],[-179.5609,66.1599],[-179.5276,66.1224],[-179.5542,66.1104],[-179.3562,66.1146],[-179.2922,66.1297],[-179.2234,66.163],[-179.2182,66.1807],[-179.2484,66.2161],[-179.3172,66.2578],[-179.3807,66.2797],[-179.3859,66.3109],[-179.3375,66.3208],[-179.3,66.2958],[-179.1875,66.275],[-179.1297,66.2734],[-179.113,66.3193],[-179.1203,66.3453],[-179.0568,66.3682],[-179.0443,66.2651],[-179.0786,66.2359],[-179.0088,66.2057],[-178.9995,66.1818],[-178.925,66.1542],[-178.8458,66.1563],[-178.7479,66.1917],[-178.687,66.2641],[-178.6359,66.2776],[-178.6021,66.3542],[-178.538,66.3484],[-178.537,66.3932],[-178.4588,66.3828],[-178.4401,66.3339],[-178.4516,66.2984],[-178.4339,66.2807],[-178.4896,66.2458],[-178.4604,66.2125],[-178.5109,66.1672],[-178.4693,66.1412],[-178.5167,66.1],[-178.6396,66.0854],[-178.662,66.0463],[-178.6484,66.0193],[-178.7792,65.975],[-178.8443,65.987],[-178.8188,65.9437],[-178.8193,65.9151],[-178.8479,65.9021],[-178.7401,65.8578],[-178.6984,65.8328],[-178.6995,65.8005],[-178.6286,65.7995],[-178.637,65.763],[-178.5792,65.7354],[-178.5125,65.7521],[-178.4484,65.7432],[-178.4026,65.7037],[-178.437,65.6661],[-178.4505,65.6068],[-178.4849,65.5953],[-178.4667,65.5667],[-178.4833,65.5396],[-178.5266,65.5266],[-178.5375,65.5062],[-178.4839,65.4974],[-178.4375,65.4688],[-178.2688,65.4542],[-178.2042,65.4667],[-178.0979,65.4667],[-178.0312,65.4583],[-177.9,65.4583],[-177.8125,65.4646],[-177.7583,65.45],[-177.5979,65.4646],[-177.5,65.4646],[-177.4708,65.4792],[-177.4125,65.4708],[-177.3313,65.4854],[-177.2703,65.5266],[-177.1662,65.5807],[-176.9807,65.6318],[-176.9359,65.6088],[-176.7875,65.5771],[-176.6042,65.5479],[-176.5005,65.5495],[-176.4854,65.5313],[-176.4151,65.5152],[-176.3899,65.5451],[-176.3629,65.6227],[-176.3106,65.6481],[-176.3153,65.6907],[-176.3786,65.7253],[-176.3756,65.7607],[-176.3167,65.7919],[-176.3279,65.8401],[-176.4082,65.8691],[-176.4267,65.9547],[-176.4948,65.9759],[-176.5212,66.0035],[-176.614,66.0139],[-176.6094,66.0337],[-176.6687,66.0505],[-176.7477,66.0339],[-176.8501,66.0687],[-176.8264,66.1369],[-176.8349,66.2015],[-176.8767,66.2593],[-176.977,66.2803],[-177.0328,66.3013],[-177.0334,66.3345],[-176.8847,66.3125],[-176.5856,66.3095],[-176.5113,66.3235],[-176.4375,66.3865],[-176.3756,66.4053],[-176.2284,66.4229],[-176.1573,66.4415],[-176.1467,66.3663],[-176.0497,66.3339],[-176.0493,66.2855],[-176.0728,66.2415],[-176.0041,66.2123],[-175.9026,66.1803],[-175.7628,66.1791],[-175.6942,66.2211],[-175.5971,66.3511],[-175.488,66.3811],[-175.4797,66.5201],[-175.4209,66.5791],[-175.2995,66.6143],[-175.2946,66.6681],[-175.2575,66.7557],[-175.2133,66.8249],[-175.0886,66.8357],[-175.0357,66.8049]]],[[[-174.6771,67.0708],[-174.7245,67.0172],[-174.6708,67.0229],[-174.6771,67.0708]]],[[[-179.0146,71.5833],[-179.0188,71.5583],[-179.1208,71.5667],[-179.2,71.5354],[-179.3047,71.5307],[-179.3583,71.55],[-179.5437,71.55],[-179.5854,71.5667],[-179.6875,71.5437],[-179.8583,71.5458],[-179.8417,71.5208],[-179.9979,71.5292],[-180,71.3917],[-180,71.1167],[-179.9979,70.9792],[-179.8979,70.9771],[-179.8313,70.9646],[-179.6646,70.9479],[-179.5729,70.9271],[-179.4818,70.9266],[-179.4312,70.8979],[-179.25,70.9],[-179.1833,70.8938],[-179.0833,70.9042],[-178.9167,70.9354],[-178.8354,70.9396],[-178.7146,70.9604],[-178.6667,70.9583],[-178.4021,70.9875],[-178.2792,70.9896],[-178.1625,71.0104],[-177.9208,71.0208],[-177.7937,71.0583],[-177.7172,71.0651],[-177.6333,71.0958],[-177.5422,71.1401],[-177.5625,71.1667],[-177.6151,71.1891],[-177.5188,71.1979],[-177.4339,71.2224],[-177.5125,71.2375],[-177.5333,71.2667],[-177.6229,71.2625],[-177.7724,71.313],[-177.9229,71.3896],[-177.9974,71.3953],[-178.0375,71.4146],[-177.9922,71.437],[-178.1255,71.4589],[-178.2063,71.4625],[-178.2214,71.4786],[-178.2953,71.4922],[-178.3104,71.5208],[-178.5146,71.5542],[-178.6271,71.5583],[-178.7271,71.575],[-178.9208,71.575],[-179.0146,71.5833]]]]},"properties":{"GID_0":"RUS","GID_1":"RUS.12_1","GID_2":"RUS.12.8_1","NAME_1":"Chukot","NAME_2":"Shmidtovskiyrayon"}}
]}