{"type":"FeatureCollection", "features": [
{"type":"Feature","geometry":{"type":"Polygon","coordinates":[[[41.2309,51.4912],[41.2024,51.4972],[41.144,51.4912],[41.0821,51.5119],[40.8811,51.5995],[40.5598,51.6134],[40.3534,51.529],[40.3031,51.4419],[40.1415,51.3406],[40.3466,51.2428],[40.4805,51.2254],[40.5159,51.2877],[40.7807,51.3458],[40.9603,51.2289],[41.1203,51.2974],[41.1906,51.2831],[41.2195,51.3022],[41.2298,51.3383],[41.2813,51.3907],[41.2823,51.4397],[41.2309,51.4912]]]},"properties":{"GID_0":"RUS","GID_1":"RUS.79_1","GID_2":"RUS.79.1_1","NAME_1":"Voronezh","NAME_2":"Anninskiyrayon"}},
{"type":"Feature","geometry":{"type":"Polygon","coordinates":[[[40.1415,51.3406],[39.9566,51.3634],[39.9398,51.2967],[39.7775,51.1366],[39.9986,50.9083],[40.0258,50.7735],[40.1124,50.7111],[40.2459,50.7747],[40.3908,50.841],[40.5261,50.9588],[40.5487,50.9839],[40.5499,50.9939],[40.5311,51.019],[40.4529,51.1701],[40.5015,51.2226],[40.3466,51.2428],[40.1415,51.3406]]]},"properties":{"GID_0":"RUS","GID_1":"RUS.79_1","GID_2":"RUS.79.2_1","NAME_1":"Voronezh","NAME_2":"Bobrovskiyrayon"}},
{"type":"Feature","geometry":{"type":"Polygon","coordinates":[[[40.4581,49.5964],[40.5503,49.5786],[40.9813,49.6805],[41.0671,49.8092],[40.8193,49.9519],[40.7052,50.1055],[40.492,49.9649],[40.3539,49.9622],[40.3132,49.9574],[40.2599,49.9331],[40.2872,49.8813],[40.4581,49.5964]]]},"properties":{"GID_0":"RUS","GID_1":"RUS.79_1","GID_2":"RUS.79.3_1","NAME_1":"Voronezh","NAME_2":"Bogucharskiyrayon"}},
{"type":"Feature","geometry":{"type":"Polygon","coordinates":[[[42.1407,51.38],[42.1194,51.4427],[42.0565,51.4499],[42.0079,51.3992],[42.1407,51.38]]]},"properties":{"GID_0":"RUS","GID_1":"RUS.79_1","GID_2":"RUS.79.4_1","NAME_1":"Voronezh","NAME_2":"Borisoglebsk"}},
{"type":"Feature","geometry":{"type":"Polygon","coordinates":[[[42.9199,51.418],[42.8435,51.4818],[42.4632,51.5939],[42.4169,51.4942],[42.262,51.4812],[42.0898,51.327],[41.9386,51.2515],[42.2184,51.2044],[42.3401,51.2852],[42.4251,51.1974],[42.9199,51.418]]]},"properties":{"GID_0":"RUS","GID_1":"RUS.79_1","GID_2":"RUS.79.5_1","NAME_1":"Voronezh","NAME_2":"Borisoglebskiyrayon"}},
{"type":"Feature","geometry":{"type":"Polygon","coordinates":[[[40.2459,50.7747],[40.3488,50.7832],[40.488,50.6442],[40.5051,50.5501],[40.6847,50.4996],[40.963,50.7295],[41.132,50.7642],[41.0556,50.9756],[40.6493,50.9004],[40.5406,50.9747],[40.5261,50.9588],[40.3908,50.841],[40.2459,50.7747]]]},"properties":{"GID_0":"RUS","GID_1":"RUS.79_1","GID_2":"RUS.79.6_1","NAME_1":"Voronezh","NAME_2":"Buturlinovskiyrayon"}},
{"type":"Feature","geometry":{"type":"Polygon","coordinates":[[[40.3474,51.9397],[40.4553,51.7765],[40.5598,51.6134],[40.8811,51.5995],[41.0821,51.5119],[41.1187,51.5005],[41.239,51.6084],[41.1375,51.6996],[41.0079,51.7224],[40.9679,51.8809],[40.6067,51.9359],[40.3474,51.9397]]]},"properties":{"GID_0":"RUS","GID_1":"RUS.79_1","GID_2":"RUS.79.7_1","NAME_1":"Voronezh","NAME_2":"Ertil'skiyrayon"}},
{"type":"Feature","geometry":{"type":"Polygon","coordinates":[[[42.4632,51.5939],[42.2678,51.676],[42.0342,51.6348],[42.0039,51.5044],[41.6608,51.4945],[41.4555,51.5134],[41.3572,51.5806],[41.2486,51.4873],[41.2309,51.4912],[41.2823,51.4397],[41.2813,51.3907],[41.4263,51.3129],[41.8096,51.194],[41.9219,51.2238],[41.9386,51.2515],[42.0898,51.327],[42.262,51.4812],[42.4169,51.4942],[42.4632,51.5939]],[[42.1407,51.38],[42.0079,51.3992],[42.0565,51.4499],[42.1194,51.4427],[42.1407,51.38]]]},"properties":{"GID_0":"RUS","GID_1":"RUS.79_1","GID_2":"RUS.79.8_1","NAME_1":"Voronezh","NAME_2":"Gribanovskiyrayon"}},
{"type":"Feature","geometry":{"type":"Polygon","coordinates":[[[41.405,50.1218],[41.5635,50.324],[41.5297,50.6014],[41.418,50.707],[41.2184,50.582],[41.1708,50.4928],[40.7212,50.4729],[40.4796,50.3487],[40.6621,50.2625],[40.6918,50.1904],[40.8394,50.3127],[41.1133,50.1954],[41.1949,50.2042],[41.405,50.1218]]]},"properties":{"GID_0":"RUS","GID_1":"RUS.79_1","GID_2":"RUS.79.9_1","NAME_1":"Voronezh","NAME_2":"Kalacheevskiyrayon"}},
{"type":"Feature","geometry":{"type":"Polygon","coordinates":[[[39.1947,50.4651],[39.3102,50.4799],[39.7871,50.6958],[39.8744,50.7358],[39.697,50.7787],[39.4354,50.7714],[39.3676,50.8143],[39.3912,50.7657],[39.2493,50.599],[39.1947,50.4651]]]},"properties":{"GID_0":"RUS","GID_1":"RUS.79_1","GID_2":"RUS.79.10_1","NAME_1":"Voronezh","NAME_2":"Kamenskiyrayon"}},
{"type":"Feature","geometry":{"type":"Polygon","coordinates":[[[39.2916,49.85],[39.2654,49.7694],[39.6125,49.7424],[39.6569,49.6268],[39.7946,49.5696],[40.2822,49.6242],[40.4581,49.5964],[40.2872,49.8813],[40.0191,49.8432],[39.8695,49.8723],[39.8916,49.9624],[39.6861,49.967],[39.6231,49.8522],[39.4836,49.8045],[39.2916,49.85]]]},"properties":{"GID_0":"RUS","GID_1":"RUS.79_1","GID_2":"RUS.79.11_1","NAME_1":"Voronezh","NAME_2":"Kantemirovskiyrayon"}},
{"type":"Feature","geometry":{"type":"Polygon","coordinates":[[[39.9566,51.3634],[39.7658,51.4264],[39.313,51.4462],[39.2561,51.4593],[39.2567,51.4415],[39.2461,51.4221],[39.2704,51.377],[39.1972,51.3219],[39.2798,51.2775],[39.6291,51.2506],[39.7775,51.1366],[39.9398,51.2967],[39.9566,51.3634]]]},"properties":{"GID_0":"RUS","GID_1":"RUS.79_1","GID_2":"RUS.79.12_1","NAME_1":"Voronezh","NAME_2":"Kashirskiyrayon"}},
{"type":"Feature","geometry":{"type":"Polygon","coordinates":[[[39.2561,51.4593],[39.2053,51.4675],[39.1728,51.4696],[39.0676,51.5684],[38.9694,51.515],[38.8164,51.6609],[38.647,51.6366],[38.6067,51.4611],[38.6626,51.3277],[38.9577,51.213],[38.955,51.2048],[39.0119,51.2073],[39.0943,51.1991],[39.1317,51.1705],[39.2798,51.2775],[39.1972,51.3219],[39.2704,51.377],[39.2461,51.4221],[39.2567,51.4415],[39.2561,51.4593]]]},"properties":{"GID_0":"RUS","GID_1":"RUS.79_1","GID_2":"RUS.79.13_1","NAME_1":"Voronezh","NAME_2":"Khokhol'skiyrayon"}},
{"type":"Feature","geometry":{"type":"Polygon","coordinates":[[[39.6571,51.0176],[39.5113,51.041],[39.4966,50.9878],[39.6662,50.9753],[39.6571,51.0176]]]},"properties":{"GID_0":"RUS","GID_1":"RUS.79_1","GID_2":"RUS.79.14_1","NAME_1":"Voronezh","NAME_2":"Liski"}},
{"type":"Feature","geometry":{"type":"Polygon","coordinates":[[[39.7775,51.1366],[39.6291,51.2506],[39.2798,51.2775],[39.1317,51.1705],[39.3182,51.1108],[39.4382,50.9535],[39.3676,50.8143],[39.4354,50.7714],[39.697,50.7787],[39.8744,50.7358],[40.0258,50.7735],[39.9986,50.9083],[39.7775,51.1366]],[[39.6571,51.0176],[39.6662,50.9753],[39.4966,50.9878],[39.5113,51.041],[39.6571,51.0176]]]},"properties":{"GID_0":"RUS","GID_1":"RUS.79_1","GID_2":"RUS.79.15_1","NAME_1":"Voronezh","NAME_2":"Liskinskiyrayon"}},
{"type":"Feature","geometry":{"type":"Polygon","coordinates":[[[38.5458,51.2486],[38.6626,51.3277],[38.6067,51.4611],[38.647,51.6366],[38.604,51.6837],[38.2116,51.6534],[38.3194,51.5619],[38.4055,51.3559],[38.3697,51.2793],[38.5458,51.2486]]]},"properties":{"GID_0":"RUS","GID_1":"RUS.79_1","GID_2":"RUS.79.16_1","NAME_1":"Voronezh","NAME_2":"Nizhnedevitskiyrayon"}},
{"type":"Feature","geometry":{"type":"Polygon","coordinates":[[[42.0275,51.1612],[41.9219,51.2238],[41.8096,51.194],[41.4263,51.3129],[41.2813,51.3907],[41.2298,51.3383],[41.2195,51.3022],[41.1906,51.2831],[41.2252,51.2764],[41.321,51.2336],[41.1649,51.0283],[41.0556,50.9756],[41.132,50.7642],[41.312,50.7844],[41.4951,50.8109],[41.5085,50.8746],[41.8412,50.9987],[41.9268,51.1367],[42.0275,51.1612]]]},"properties":{"GID_0":"RUS","GID_1":"RUS.79_1","GID_2":"RUS.79.17_1","NAME_1":"Voronezh","NAME_2":"Novokhoperskiyrayon"}},
{"type":"Feature","geometry":{"type":"Polygon","coordinates":[[[39.7658,51.4264],[39.865,51.6394],[39.8873,51.6572],[39.8636,51.6905],[39.8265,51.7073],[39.7866,51.798],[39.5772,51.8194],[39.3517,51.8243],[39.2926,51.76],[39.1193,51.7707],[39.0676,51.5684],[39.1728,51.4696],[39.2356,51.4636],[39.313,51.4462],[39.7658,51.4264]]]},"properties":{"GID_0":"RUS","GID_1":"RUS.79_1","GID_2":"RUS.79.18_1","NAME_1":"Voronezh","NAME_2":"Novousmanskiyrayon"}},
{"type":"Feature","geometry":{"type":"Polygon","coordinates":[[[39.1947,50.4651],[39.1377,50.427],[39.2482,50.1158],[39.336,50.0704],[39.5513,50.1868],[39.5214,50.3529],[39.5099,50.3658],[39.3102,50.4799],[39.1947,50.4651]]]},"properties":{"GID_0":"RUS","GID_1":"RUS.79_1","GID_2":"RUS.79.19_1","NAME_1":"Voronezh","NAME_2":"Ol'khovatskiyrayon"}},
{"type":"Feature","geometry":{"type":"Polygon","coordinates":[[[39.2493,50.599],[39.3912,50.7657],[39.3676,50.8143],[39.4382,50.9535],[39.3182,51.1108],[39.1317,51.1705],[39.0943,51.1991],[39.0119,51.2073],[38.955,51.2048],[38.9516,51.1943],[39.0178,51.1075],[38.9412,50.9464],[38.8207,50.8235],[38.9918,50.6743],[39.2493,50.599]]]},"properties":{"GID_0":"RUS","GID_1":"RUS.79_1","GID_2":"RUS.79.20_1","NAME_1":"Voronezh","NAME_2":"Ostrogozhskiyrayon"}},
{"type":"Feature","geometry":{"type":"Polygon","coordinates":[[[40.5598,51.6134],[40.4553,51.7765],[40.1756,51.7162],[40.0929,51.7472],[39.9183,51.6843],[39.865,51.6394],[39.7658,51.4264],[39.9566,51.3634],[40.1415,51.3406],[40.3031,51.4419],[40.3534,51.529],[40.5598,51.6134]]]},"properties":{"GID_0":"RUS","GID_1":"RUS.79_1","GID_2":"RUS.79.21_1","NAME_1":"Voronezh","NAME_2":"Paninskiyrayon"}},
{"type":"Feature","geometry":{"type":"Polygon","coordinates":[[[40.0258,50.7735],[39.8744,50.7358],[39.7871,50.6958],[40.0146,50.4836],[40.1337,50.4124],[40.0274,50.2567],[40.1299,50.1538],[40.3748,50.2671],[40.4796,50.3487],[40.7212,50.4729],[40.6847,50.4996],[40.5051,50.5501],[40.488,50.6442],[40.3488,50.7832],[40.2459,50.7747],[40.1124,50.7111],[40.0258,50.7735]]]},"properties":{"GID_0":"RUS","GID_1":"RUS.79_1","GID_2":"RUS.79.22_1","NAME_1":"Voronezh","NAME_2":"Pavlovskiyrayon"}},
{"type":"Feature","geometry":{"type":"Polygon","coordinates":[[[41.405,50.1218],[41.1949,50.2042],[41.1133,50.1954],[40.8394,50.3127],[40.6918,50.1904],[40.7052,50.1055],[40.8193,49.9519],[41.0671,49.8092],[41.2107,49.969],[41.3015,49.9952],[41.405,50.1218]]]},"properties":{"GID_0":"RUS","GID_1":"RUS.79_1","GID_2":"RUS.79.23_1","NAME_1":"Voronezh","NAME_2":"Petropavlovskiyrayon"}},
{"type":"Feature","geometry":{"type":"Polygon","coordinates":[[[39.3102,50.4799],[39.5099,50.3658],[39.5384,50.3358],[39.7099,50.2905],[39.8472,50.3056],[40.0274,50.2567],[40.1337,50.4124],[40.0146,50.4836],[39.7871,50.6958],[39.3102,50.4799]]]},"properties":{"GID_0":"RUS","GID_1":"RUS.79_1","GID_2":"RUS.79.24_1","NAME_1":"Voronezh","NAME_2":"Podgorenskiyrayon"}},
{"type":"Feature","geometry":{"type":"Polygon","coordinates":[[[42.2584,51.1964],[42.2621,51.1992],[42.2576,51.2035],[42.2514,51.2002],[42.2584,51.1964]]]},"properties":{"GID_0":"RUS","GID_1":"RUS.79_1","GID_2":"RUS.79.25_1","NAME_1":"Voronezh","NAME_2":"Povorino"}},
{"type":"Feature","geometry":{"type":"Polygon","coordinates":[[[42.9199,51.418],[42.4251,51.1974],[42.3401,51.2852],[42.2184,51.2044],[41.9386,51.2515],[41.9219,51.2238],[42.0275,51.1612],[42.2862,51.1246],[42.6912,51.1631],[42.7532,51.2216],[42.9525,51.2534],[42.9199,51.418]],[[42.2584,51.1964],[42.2514,51.2002],[42.2576,51.2035],[42.2621,51.1992],[42.2584,51.1964]]]},"properties":{"GID_0":"RUS","GID_1":"RUS.79_1","GID_2":"RUS.79.26_1","NAME_1":"Voronezh","NAME_2":"Povorinskiyrayon"}},
{"type":"Feature","geometry":{"type":"Polygon","coordinates":[[[39.5695,52.0465],[39.2223,52.0896],[39.1462,51.9744],[38.9461,52.0831],[38.7781,52.0856],[38.756,52.0149],[38.9916,51.8989],[39.1193,51.7707],[39.2926,51.76],[39.3517,51.8243],[39.5772,51.8194],[39.4486,51.9096],[39.5695,52.0465]]]},"properties":{"GID_0":"RUS","GID_1":"RUS.79_1","GID_2":"RUS.79.27_1","NAME_1":"Voronezh","NAME_2":"Ramonskiyrayon"}},
{"type":"Feature","geometry":{"type":"Polygon","coordinates":[[[38.9412,50.9464],[39.0178,51.1075],[38.9516,51.1943],[38.9577,51.213],[38.6626,51.3277],[38.5458,51.2486],[38.4918,51.0588],[38.7118,51.0119],[38.8434,51.0841],[38.9412,50.9464]]]},"properties":{"GID_0":"RUS","GID_1":"RUS.79_1","GID_2":"RUS.79.28_1","NAME_1":"Voronezh","NAME_2":"Rep'evskiyrayon"}},
{"type":"Feature","geometry":{"type":"Polygon","coordinates":[[[39.6596,50.2139],[39.6186,50.2248],[39.5542,50.2099],[39.6827,50.1772],[39.6596,50.2139]]]},"properties":{"GID_0":"RUS","GID_1":"RUS.79_1","GID_2":"RUS.79.29_1","NAME_1":"Voronezh","NAME_2":"Rossosh'"}},
{"type":"Feature","geometry":{"type":"Polygon","coordinates":[[[39.2916,49.85],[39.4836,49.8045],[39.6231,49.8522],[39.6861,49.967],[39.8916,49.9624],[39.8695,49.8723],[40.0191,49.8432],[40.2872,49.8813],[40.2478,49.9591],[40.1541,50.0192],[40.1299,50.1538],[40.0274,50.2567],[39.8472,50.3056],[39.7099,50.2905],[39.5384,50.3358],[39.5214,50.3529],[39.5513,50.1868],[39.336,50.0704],[39.3743,49.994],[39.2916,49.85]],[[39.6596,50.2139],[39.6827,50.1772],[39.5542,50.2099],[39.6186,50.2248],[39.6596,50.2139]]]},"properties":{"GID_0":"RUS","GID_1":"RUS.79_1","GID_2":"RUS.79.30_1","NAME_1":"Voronezh","NAME_2":"Rossoshanskiyrayon"}},
{"type":"Feature","geometry":{"type":"Polygon","coordinates":[[[38.604,51.6837],[38.647,51.6366],[38.8164,51.6609],[38.9694,51.515],[39.0676,51.5684],[39.1193,51.7707],[38.9916,51.8989],[38.756,52.0149],[38.7781,52.0856],[38.5543,52.0408],[38.4607,51.9235],[38.5094,51.7633],[38.604,51.6837]]]},"properties":{"GID_0":"RUS","GID_1":"RUS.79_1","GID_2":"RUS.79.31_1","NAME_1":"Voronezh","NAME_2":"Semilukskiyrayon"}},
{"type":"Feature","geometry":{"type":"Polygon","coordinates":[[[40.4805,51.2254],[40.5015,51.2226],[40.4529,51.1701],[40.5311,51.019],[40.5499,50.9939],[40.5487,50.9839],[40.5406,50.9747],[40.6493,50.9004],[41.0556,50.9756],[41.1649,51.0283],[41.321,51.2336],[41.2252,51.2764],[41.1203,51.2974],[40.9603,51.2289],[40.7807,51.3458],[40.5159,51.2877],[40.4805,51.2254]]]},"properties":{"GID_0":"RUS","GID_1":"RUS.79_1","GID_2":"RUS.79.32_1","NAME_1":"Voronezh","NAME_2":"Talovskiyrayon"}},
{"type":"Feature","geometry":{"type":"Polygon","coordinates":[[[41.1375,51.6996],[41.239,51.6084],[41.1187,51.5005],[41.144,51.4912],[41.2024,51.4972],[41.2486,51.4873],[41.3572,51.5806],[41.4555,51.5134],[41.6608,51.4945],[42.0039,51.5044],[42.0342,51.6348],[41.9106,51.7057],[41.4128,51.7701],[41.3563,51.7163],[41.1375,51.6996]]]},"properties":{"GID_0":"RUS","GID_1":"RUS.79_1","GID_2":"RUS.79.33_1","NAME_1":"Voronezh","NAME_2":"Ternovskiyrayon"}},
{"type":"Feature","geometry":{"type":"Polygon","coordinates":[[[40.3474,51.9397],[39.9783,51.9473],[39.7922,51.9054],[39.5936,51.9517],[39.5695,52.0465],[39.4486,51.9096],[39.5772,51.8194],[39.7866,51.798],[39.8265,51.7073],[39.8636,51.6905],[39.8873,51.6572],[39.9183,51.6843],[40.0929,51.7472],[40.1756,51.7162],[40.4553,51.7765],[40.3474,51.9397]]]},"properties":{"GID_0":"RUS","GID_1":"RUS.79_1","GID_2":"RUS.79.34_1","NAME_1":"Voronezh","NAME_2":"Verkhnekhavskiyrayon"}},
{"type":"Feature","geometry":{"type":"Polygon","coordinates":[[[40.7052,50.1055],[40.6918,50.1904],[40.6621,50.2625],[40.4796,50.3487],[40.3748,50.2671],[40.1299,50.1538],[40.1541,50.0192],[40.2478,49.9591],[40.2599,49.9331],[40.3132,49.9574],[40.3539,49.9622],[40.492,49.9649],[40.7052,50.1055]]]},"properties":{"GID_0":"RUS","GID_1":"RUS.79_1","GID_2":"RUS.79.35_1","NAME_1":"Voronezh","NAME_2":"Verkhnemamonskiyrayon"}},
{"type":"Feature","geometry":{"type":"Polygon","coordinates":[[[41.312,50.7844],[41.132,50.7642],[40.963,50.7295],[40.6847,50.4996],[40.7212,50.4729],[41.1708,50.4928],[41.2184,50.582],[41.418,50.707],[41.312,50.7844]]]},"properties":{"GID_0":"RUS","GID_1":"RUS.79_1","GID_2":"RUS.79.36_1","NAME_1":"Voronezh","NAME_2":"Vorob'evskiyrayon"}}
]}