{"type":"FeatureCollection", "features": [
{"type":"Feature","geometry":{"type":"Polygon","coordinates":[[[57.2378,58.9699],[57.5078,59.0569],[58.2311,59.2757],[58.5051,59.267],[58.6639,59.3853],[58.4892,59.4919],[58.776,59.8533],[58.0332,59.8509],[57.9129,59.8663],[57.7232,59.8122],[57.6815,59.6314],[57.313,59.493],[57.2272,59.2587],[57.0095,59.0737],[57.2378,58.9699]]]},"properties":{"GID_0":"RUS","GID_1":"RUS.55_1","GID_2":"RUS.55.1_1","NAME_1":"Perm'","NAME_2":"Aleksandrovskgorsovet"}},
{"type":"Feature","geometry":{"type":"Polygon","coordinates":[[[55.1903,56.7923],[55.7394,56.5976],[55.989,56.7471],[55.9036,56.9286],[55.98,57.0417],[55.9205,57.1622],[55.6444,57.0295],[55.5186,57.1183],[55.0881,57.0024],[55.1903,56.7923]]]},"properties":{"GID_0":"RUS","GID_1":"RUS.55_1","GID_2":"RUS.55.2_1","NAME_1":"Perm'","NAME_2":"Bardymskiyrayon"}},
{"type":"Feature","geometry":{"type":"Polygon","coordinates":[[[56.672,59.5768],[56.7168,59.335],[57.0812,59.4933],[56.8322,59.5231],[56.672,59.5768]]]},"properties":{"GID_0":"RUS","GID_1":"RUS.55_1","GID_2":"RUS.55.3_1","NAME_1":"Perm'","NAME_2":"Bereznikigorsovet"}},
{"type":"Feature","geometry":{"type":"Polygon","coordinates":[[[57.9996,57.5256],[58.1098,57.731],[57.915,57.8078],[57.2523,57.9106],[57.0911,57.7942],[57.0601,57.6206],[57.2084,57.4506],[57.4146,57.5267],[57.5899,57.4213],[57.9996,57.5256]]]},"properties":{"GID_0":"RUS","GID_1":"RUS.55_1","GID_2":"RUS.55.4_1","NAME_1":"Perm'","NAME_2":"Berezovskiyrayon"}},
{"type":"Feature","geometry":{"type":"Polygon","coordinates":[[[54.7206,57.7366],[54.1927,57.8303],[54.0627,57.5982],[54.2556,57.5038],[54.17,57.3466],[54.3304,57.2207],[54.5113,57.1787],[54.8564,57.5575],[54.7206,57.7366]]]},"properties":{"GID_0":"RUS","GID_1":"RUS.55_1","GID_2":"RUS.55.5_1","NAME_1":"Perm'","NAME_2":"Bol'shesosnovskiyrayon"}},
{"type":"Feature","geometry":{"type":"Polygon","coordinates":[[[54.3304,57.2207],[54.3855,57.0548],[54.164,56.9398],[54.9593,57.1531],[55.172,57.3948],[54.8564,57.5575],[54.5113,57.1787],[54.3304,57.2207]]]},"properties":{"GID_0":"RUS","GID_1":"RUS.55_1","GID_2":"RUS.55.6_1","NAME_1":"Perm'","NAME_2":"Chastinskiyrayon"}},
{"type":"Feature","geometry":{"type":"Polygon","coordinates":[[[54.1264,56.7612],[54.109,56.7729],[54.0982,56.7608],[54.1264,56.7612]]]},"properties":{"GID_0":"RUS","GID_1":"RUS.55_1","GID_2":"RUS.55.7_1","NAME_1":"Perm'","NAME_2":"Chaykovski"}},
{"type":"Feature","geometry":{"type":"Polygon","coordinates":[[[54.6208,56.5583],[54.8664,56.6717],[54.5582,56.9256],[54.159,56.9247],[53.8645,56.824],[53.8828,56.6557],[54.0928,56.6276],[54.4354,56.3954],[54.6208,56.5583]],[[54.1264,56.7612],[54.0982,56.7608],[54.109,56.7729],[54.1264,56.7612]]]},"properties":{"GID_0":"RUS","GID_1":"RUS.55_1","GID_2":"RUS.55.8_1","NAME_1":"Perm'","NAME_2":"Chaykovskiyrayon"}},
{"type":"Feature","geometry":{"type":"Polygon","coordinates":[[[58.7258,61.5184],[57.11,61.5023],[56.7436,61.56],[56.4555,61.4593],[56.2958,61.2491],[55.9068,61.2958],[55.7725,61.1427],[55.3171,61.1586],[54.9895,60.9036],[55.1792,60.8692],[55.0271,60.4441],[55.2223,60.2698],[55.4213,60.0971],[55.6216,60.0813],[55.9701,60.0523],[56.1724,59.8906],[56.3699,59.9643],[56.4849,60.2068],[56.46,60.343],[57.2827,60.7951],[57.7783,60.7168],[58.3028,60.7274],[58.7136,60.9276],[58.6453,61.3684],[58.7258,61.5184]]]},"properties":{"GID_0":"RUS","GID_1":"RUS.55_1","GID_2":"RUS.55.9_1","NAME_1":"Perm'","NAME_2":"Cherdynskiyrayon"}},
{"type":"Feature","geometry":{"type":"Polygon","coordinates":[[[56.5081,56.38],[56.3835,56.6585],[56.2723,56.7159],[56.1236,56.7578],[55.989,56.7471],[55.7394,56.5976],[55.7934,56.5077],[56.0463,56.3088],[56.5081,56.38]]]},"properties":{"GID_0":"RUS","GID_1":"RUS.55_1","GID_2":"RUS.55.10_1","NAME_1":"Perm'","NAME_2":"Chernushinskiyrayon"}},
{"type":"Feature","geometry":{"type":"Polygon","coordinates":[[[57.836,58.2726],[57.8286,58.2902],[57.8083,58.279],[57.836,58.2726]]]},"properties":{"GID_0":"RUS","GID_1":"RUS.55_1","GID_2":"RUS.55.11_1","NAME_1":"Perm'","NAME_2":"Chusovoy"}},
{"type":"Feature","geometry":{"type":"Polygon","coordinates":[[[56.8167,57.9974],[57.2338,58.0469],[57.556,58.1835],[57.9314,58.2449],[58.2703,58.0566],[58.3256,58.4178],[57.8851,58.4903],[57.6237,58.6787],[57.3366,58.7595],[57.3164,58.4914],[56.873,58.3533],[56.8251,58.2715],[56.6114,58.1611],[56.496,58.1392],[56.5851,58.1191],[56.6539,58.1008],[56.8167,57.9974]],[[57.836,58.2726],[57.8083,58.279],[57.8286,58.2902],[57.836,58.2726]]]},"properties":{"GID_0":"RUS","GID_1":"RUS.55_1","GID_2":"RUS.55.12_1","NAME_1":"Perm'","NAME_2":"Chusovskiyrayon"}},
{"type":"Feature","geometry":{"type":"Polygon","coordinates":[[[57.0095,59.0737],[56.2936,59.0376],[56.2032,58.9069],[55.9813,58.5551],[56.0857,58.3222],[56.244,58.1707],[56.5106,58.1714],[56.496,58.1392],[56.6114,58.1611],[56.8251,58.2715],[56.873,58.3533],[57.3164,58.4914],[57.3366,58.7595],[57.2378,58.9699],[57.0095,59.0737]]]},"properties":{"GID_0":"RUS","GID_1":"RUS.55_1","GID_2":"RUS.55.13_1","NAME_1":"Perm'","NAME_2":"Dobryanskiyrayon"}},
{"type":"Feature","geometry":{"type":"Polygon","coordinates":[[[55.0881,57.0024],[54.9593,57.1531],[54.164,56.9398],[54.159,56.9247],[54.5582,56.9256],[54.8664,56.6717],[55.1903,56.7923],[55.0881,57.0024]]]},"properties":{"GID_0":"RUS","GID_1":"RUS.55_1","GID_2":"RUS.55.14_1","NAME_1":"Perm'","NAME_2":"Elovskiyrayon"}},
{"type":"Feature","geometry":{"type":"Polygon","coordinates":[[[53.6497,59.9124],[53.7907,59.9745],[54.5309,60.0193],[54.4779,60.1605],[54.7143,60.2621],[55.2223,60.2698],[55.0271,60.4441],[55.1792,60.8692],[54.9895,60.9036],[53.8814,60.9869],[53.8289,60.8596],[53.3423,60.9001],[53.4354,61.0537],[52.8703,61.0907],[52.7802,60.9697],[52.4734,60.9816],[52.3478,60.8591],[51.9085,60.9],[51.7679,60.612],[52.3433,60.4547],[52.4632,60.216],[53.3451,60.1437],[53.6531,60.068],[53.6497,59.9124]]]},"properties":{"GID_0":"RUS","GID_1":"RUS.55_1","GID_2":"RUS.55.15_1","NAME_1":"Perm'","NAME_2":"Gaynskiyrayon"}},
{"type":"Feature","geometry":{"type":"Polygon","coordinates":[[[58.2703,58.0566],[58.6179,58.0353],[58.8106,58.2642],[59.476,58.5464],[59.4138,58.6774],[59.1084,58.837],[59.212,58.9832],[59.1575,59.1706],[58.8067,59.3031],[58.6009,59.1285],[58.6667,58.9353],[58.0784,58.7176],[57.8851,58.4903],[58.3256,58.4178],[58.2703,58.0566]]]},"properties":{"GID_0":"RUS","GID_1":"RUS.55_1","GID_2":"RUS.55.16_1","NAME_1":"Perm'","NAME_2":"Gornozavodskiyrayon"}},
{"type":"Feature","geometry":{"type":"Polygon","coordinates":[[[57.8851,58.4903],[58.0784,58.7176],[58.6667,58.9353],[58.6009,59.1285],[58.4123,59.1142],[57.9861,58.8529],[57.6039,58.7608],[57.3366,58.7595],[57.6237,58.6787],[57.8851,58.4903]]]},"properties":{"GID_0":"RUS","GID_1":"RUS.55_1","GID_2":"RUS.55.17_1","NAME_1":"Perm'","NAME_2":"Gremyachinskgorsovet"}},
{"type":"Feature","geometry":{"type":"Polygon","coordinates":[[[57.2378,58.9699],[57.3366,58.7595],[57.6039,58.7608],[57.9861,58.8529],[58.4123,59.1142],[58.1108,59.0187],[57.6896,58.9716],[57.5078,59.0569],[57.2378,58.9699]]]},"properties":{"GID_0":"RUS","GID_1":"RUS.55_1","GID_2":"RUS.55.18_1","NAME_1":"Perm'","NAME_2":"Gubakhagorsovet"}},
{"type":"Feature","geometry":{"type":"Polygon","coordinates":[[[56.2032,58.9069],[55.8913,58.9915],[55.1848,58.8039],[55.3647,58.3959],[55.5808,58.345],[56.0857,58.3222],[55.9813,58.5551],[56.2032,58.9069]]]},"properties":{"GID_0":"RUS","GID_1":"RUS.55_1","GID_2":"RUS.55.19_1","NAME_1":"Perm'","NAME_2":"Il'inskiyrayon"}},
{"type":"Feature","geometry":{"type":"Polygon","coordinates":[[[55.1848,58.8039],[54.8971,58.7758],[54.6309,58.6345],[54.5968,58.6466],[54.514,58.3156],[54.9885,58.1127],[55.3647,58.3959],[55.1848,58.8039]]]},"properties":{"GID_0":"RUS","GID_1":"RUS.55_1","GID_2":"RUS.55.20_1","NAME_1":"Perm'","NAME_2":"Karagayskiyrayon"}},
{"type":"Feature","geometry":{"type":"Polygon","coordinates":[[[57.2084,57.4506],[57.1412,57.2725],[57.5542,57.181],[57.9979,57.2071],[57.8973,57.4024],[57.9996,57.5256],[57.5899,57.4213],[57.4146,57.5267],[57.2084,57.4506]]]},"properties":{"GID_0":"RUS","GID_1":"RUS.55_1","GID_2":"RUS.55.21_1","NAME_1":"Perm'","NAME_2":"Kishertskiyrayon"}},
{"type":"Feature","geometry":{"type":"Polygon","coordinates":[[[57.5078,59.0569],[57.6896,58.9716],[58.1108,59.0187],[58.4123,59.1142],[58.6009,59.1285],[58.8067,59.3031],[58.6639,59.3853],[58.5051,59.267],[58.2311,59.2757],[57.5078,59.0569]]]},"properties":{"GID_0":"RUS","GID_1":"RUS.55_1","GID_2":"RUS.55.22_1","NAME_1":"Perm'","NAME_2":"Kizelgorsovet"}},
{"type":"Feature","geometry":{"type":"Polygon","coordinates":[[[53.5725,59.7448],[53.8708,59.5298],[54.4047,59.4904],[55.0476,59.5754],[54.3255,59.9053],[54.5309,60.0193],[53.7907,59.9745],[53.6497,59.9124],[53.5725,59.7448]]]},"properties":{"GID_0":"RUS","GID_1":"RUS.55_1","GID_2":"RUS.55.23_1","NAME_1":"Perm'","NAME_2":"Kochevskiyrayon"}},
{"type":"Feature","geometry":{"type":"Polygon","coordinates":[[[55.2223,60.2698],[54.7143,60.2621],[54.4779,60.1605],[54.5309,60.0193],[54.3255,59.9053],[55.0476,59.5754],[55.1954,59.5044],[55.2286,59.4503],[55.2621,59.4385],[55.3281,59.4368],[55.3731,59.4545],[55.4564,59.521],[55.3901,59.6935],[55.393,59.727],[55.3127,59.9312],[55.6216,60.0813],[55.4213,60.0971],[55.2223,60.2698]]]},"properties":{"GID_0":"RUS","GID_1":"RUS.55_1","GID_2":"RUS.55.24_1","NAME_1":"Perm'","NAME_2":"Kosinskiyrayon"}},
{"type":"Feature","geometry":{"type":"Polygon","coordinates":[[[56.0857,58.3222],[55.5808,58.345],[55.6308,58.2043],[55.462,58.0347],[55.4945,58.0066],[55.6026,58.0277],[55.6755,58.0847],[55.7562,58.0531],[56.244,58.1707],[56.0857,58.3222]]]},"properties":{"GID_0":"RUS","GID_1":"RUS.55_1","GID_2":"RUS.55.25_1","NAME_1":"Perm'","NAME_2":"Krasnokamskgorsovet"}},
{"type":"Feature","geometry":{"type":"Polygon","coordinates":[[[58.7258,61.5184],[58.6453,61.3684],[58.7136,60.9276],[58.3028,60.7274],[57.7783,60.7168],[57.2827,60.7951],[56.46,60.343],[56.4849,60.2068],[57.0009,60.0825],[56.9489,59.9778],[57.355,59.9536],[57.8173,60.0559],[57.9684,59.8592],[58.0332,59.8509],[58.776,59.8533],[59.0697,59.9849],[59.2152,60.3508],[59.4055,60.572],[59.5033,60.9237],[59.3762,61.0444],[59.307,61.3461],[59.4971,61.5776],[59.3951,61.6983],[59.0315,61.547],[58.7258,61.5184]]]},"properties":{"GID_0":"RUS","GID_1":"RUS.55_1","GID_2":"RUS.55.26_1","NAME_1":"Perm'","NAME_2":"Krasnovisherskiyrayon"}},
{"type":"Feature","geometry":{"type":"Polygon","coordinates":[[[54.6596,58.9978],[54.6387,59.0087],[54.6253,58.9977],[54.6596,58.9978]]]},"properties":{"GID_0":"RUS","GID_1":"RUS.55_1","GID_2":"RUS.55.27_1","NAME_1":"Perm'","NAME_2":"Kudymkar"}},
{"type":"Feature","geometry":{"type":"Polygon","coordinates":[[[53.8955,58.7884],[54.5519,58.6626],[54.6309,58.6345],[54.8971,58.7758],[54.7388,58.9054],[55.0606,59.2018],[55.3765,59.2948],[55.6491,59.2828],[55.4564,59.521],[55.3731,59.4545],[55.2944,59.4236],[55.0656,59.3147],[54.3038,59.193],[53.7304,59.1291],[53.7872,58.8616],[53.8955,58.7884]],[[54.6596,58.9978],[54.6253,58.9977],[54.6387,59.0087],[54.6596,58.9978]]]},"properties":{"GID_0":"RUS","GID_1":"RUS.55_1","GID_2":"RUS.55.28_1","NAME_1":"Perm'","NAME_2":"Kudymkarskiyrayon"}},
{"type":"Feature","geometry":{"type":"Polygon","coordinates":[[[55.7934,56.5077],[55.7394,56.5976],[55.1903,56.7923],[54.8664,56.6717],[54.6208,56.5583],[54.9626,56.4045],[55.3577,56.3876],[55.7934,56.5077]]]},"properties":{"GID_0":"RUS","GID_1":"RUS.55_1","GID_2":"RUS.55.29_1","NAME_1":"Perm'","NAME_2":"Kuedinskiyrayon"}},
{"type":"Feature","geometry":{"type":"Polygon","coordinates":[[[56.979,57.4217],[56.9791,57.4361],[56.9613,57.438],[56.9505,57.4265],[56.979,57.4217]]]},"properties":{"GID_0":"RUS","GID_1":"RUS.55_1","GID_2":"RUS.55.30_1","NAME_1":"Perm'","NAME_2":"Kungur"}},
{"type":"Feature","geometry":{"type":"Polygon","coordinates":[[[55.98,57.0417],[56.2331,57.0463],[56.7101,57.2216],[57.0202,57.153],[57.1412,57.2725],[57.2084,57.4506],[57.0601,57.6206],[57.0911,57.7942],[57.2523,57.9106],[57.2338,58.0469],[56.8167,57.9974],[56.73,57.6883],[56.5541,57.5958],[55.7132,57.5232],[55.9205,57.1622],[55.98,57.0417]],[[56.979,57.4217],[56.9505,57.4265],[56.9613,57.438],[56.9791,57.4361],[56.979,57.4217]]]},"properties":{"GID_0":"RUS","GID_1":"RUS.55_1","GID_2":"RUS.55.31_1","NAME_1":"Perm'","NAME_2":"Kungurskiyrayon"}},
{"type":"Feature","geometry":{"type":"Polygon","coordinates":[[[57.8263,58.1032],[57.8294,58.1133],[57.8078,58.1166],[57.804,58.101],[57.8263,58.1032]]]},"properties":{"GID_0":"RUS","GID_1":"RUS.55_1","GID_2":"RUS.55.32_1","NAME_1":"Perm'","NAME_2":"Lys'va"}},
{"type":"Feature","geometry":{"type":"Polygon","coordinates":[[[58.1098,57.731],[58.8758,57.7876],[58.8477,57.9176],[58.6179,58.0353],[58.2703,58.0566],[57.9314,58.2449],[57.556,58.1835],[57.2338,58.0469],[57.2523,57.9106],[57.915,57.8078],[58.1098,57.731]],[[57.8263,58.1032],[57.804,58.101],[57.8078,58.1166],[57.8294,58.1133],[57.8263,58.1032]]]},"properties":{"GID_0":"RUS","GID_1":"RUS.55_1","GID_2":"RUS.55.33_1","NAME_1":"Perm'","NAME_2":"Lys'venskiyrayon"}},
{"type":"Feature","geometry":{"type":"Polygon","coordinates":[[[55.3647,58.3959],[54.9885,58.1127],[54.96,58.0731],[54.9296,57.9354],[54.9288,57.9073],[54.9699,57.8966],[54.9988,57.8948],[55.0667,57.849],[55.243,57.8943],[55.4006,57.8164],[55.5355,57.9728],[55.462,58.0347],[55.6308,58.2043],[55.5808,58.345],[55.3647,58.3959]]]},"properties":{"GID_0":"RUS","GID_1":"RUS.55_1","GID_2":"RUS.55.34_1","NAME_1":"Perm'","NAME_2":"Nytvenskiyrayon"}},
{"type":"Feature","geometry":{"type":"Polygon","coordinates":[[[54.7206,57.7366],[54.9277,57.8606],[54.9296,57.9354],[54.96,58.0731],[54.2836,57.9338],[54.1182,57.9897],[54.1927,57.8303],[54.7206,57.7366]]]},"properties":{"GID_0":"RUS","GID_1":"RUS.55_1","GID_2":"RUS.55.35_1","NAME_1":"Perm'","NAME_2":"Ocherskiyrayon"}},
{"type":"Feature","geometry":{"type":"Polygon","coordinates":[[[54.8564,57.5575],[55.172,57.3948],[55.5023,57.5095],[55.3057,57.6482],[55.4006,57.8164],[55.243,57.8943],[55.0667,57.849],[54.9988,57.8948],[54.9699,57.8966],[54.9288,57.9073],[54.9277,57.8606],[54.7206,57.7366],[54.8564,57.5575]]]},"properties":{"GID_0":"RUS","GID_1":"RUS.55_1","GID_2":"RUS.55.36_1","NAME_1":"Perm'","NAME_2":"Okhanskiyrayon"}},
{"type":"Feature","geometry":{"type":"Polygon","coordinates":[[[56.5081,56.38],[56.817,56.1418],[57.2058,56.1882],[57.4166,56.3422],[57.4415,56.6764],[57.2731,56.908],[57.0692,56.8339],[56.9879,56.7941],[56.3835,56.6585],[56.5081,56.38]]]},"properties":{"GID_0":"RUS","GID_1":"RUS.55_1","GID_2":"RUS.55.37_1","NAME_1":"Perm'","NAME_2":"Oktyabr'skiy"}},
{"type":"Feature","geometry":{"type":"Polygon","coordinates":[[[56.2331,57.0463],[56.6628,57.0187],[56.8127,56.945],[56.9209,56.8279],[57.0249,56.8117],[57.0692,56.8339],[57.2731,56.908],[57.0202,57.153],[56.7101,57.2216],[56.2331,57.0463]]]},"properties":{"GID_0":"RUS","GID_1":"RUS.55_1","GID_2":"RUS.55.38_1","NAME_1":"Perm'","NAME_2":"Ordinskiyrayon"}},
{"type":"Feature","geometry":{"type":"Polygon","coordinates":[[[55.9205,57.1622],[55.7132,57.5232],[55.5023,57.5095],[55.172,57.3948],[54.9593,57.1531],[55.0881,57.0024],[55.5186,57.1183],[55.6444,57.0295],[55.9205,57.1622]]]},"properties":{"GID_0":"RUS","GID_1":"RUS.55_1","GID_2":"RUS.55.39_1","NAME_1":"Perm'","NAME_2":"Osinskiyrayon"}},
{"type":"Feature","geometry":{"type":"Polygon","coordinates":[[[56.244,58.1707],[55.7562,58.0531],[56.1253,57.9231],[56.4131,57.956],[56.5106,58.1714],[56.244,58.1707]]]},"properties":{"GID_0":"RUS","GID_1":"RUS.55_1","GID_2":"RUS.55.40_1","NAME_1":"Perm'","NAME_2":"Perm'gorsovet"}},
{"type":"Feature","geometry":{"type":"Polygon","coordinates":[[[56.496,58.1392],[56.4131,57.956],[56.1253,57.9231],[55.7562,58.0531],[55.6755,58.0847],[55.6026,58.0277],[55.4945,58.0066],[55.5355,57.9728],[55.4006,57.8164],[55.3057,57.6482],[55.5023,57.5095],[55.7132,57.5232],[56.5541,57.5958],[56.73,57.6883],[56.8167,57.9974],[56.6539,58.1008],[56.5851,58.1191],[56.496,58.1392]]]},"properties":{"GID_0":"RUS","GID_1":"RUS.55_1","GID_2":"RUS.55.41_1","NAME_1":"Perm'","NAME_2":"Permskiyrayon"}},
{"type":"Feature","geometry":{"type":"Polygon","coordinates":[[[53.8955,58.7884],[53.724,58.702],[53.8801,58.2956],[54.1925,58.1666],[54.514,58.3156],[54.5968,58.6466],[54.5519,58.6626],[53.8955,58.7884]]]},"properties":{"GID_0":"RUS","GID_1":"RUS.55_1","GID_2":"RUS.55.42_1","NAME_1":"Perm'","NAME_2":"Sivinskiyrayon"}},
{"type":"Feature","geometry":{"type":"Polygon","coordinates":[[[56.7919,59.6091],[56.7845,59.6332],[56.7567,59.6291],[56.7675,59.6063],[56.7919,59.6091]]]},"properties":{"GID_0":"RUS","GID_1":"RUS.55_1","GID_2":"RUS.55.43_1","NAME_1":"Perm'","NAME_2":"Solikamsk"}},
{"type":"Feature","geometry":{"type":"Polygon","coordinates":[[[57.9684,59.8592],[57.8173,60.0559],[57.355,59.9536],[56.9489,59.9778],[57.0009,60.0825],[56.4849,60.2068],[56.3699,59.9643],[56.1724,59.8906],[55.9701,60.0523],[55.6216,60.0813],[55.3127,59.9312],[55.393,59.727],[55.3916,59.7106],[55.842,59.7613],[56.3831,59.5777],[56.5635,59.6135],[56.8322,59.5231],[57.0812,59.4933],[57.313,59.493],[57.6815,59.6314],[57.7232,59.8122],[57.9129,59.8663],[57.9684,59.8592]],[[56.7919,59.6091],[56.7675,59.6063],[56.7567,59.6291],[56.7845,59.6332],[56.7919,59.6091]]]},"properties":{"GID_0":"RUS","GID_1":"RUS.55_1","GID_2":"RUS.55.44_1","NAME_1":"Perm'","NAME_2":"Solikamskiyrayon"}},
{"type":"Feature","geometry":{"type":"Polygon","coordinates":[[[57.1412,57.2725],[57.0202,57.153],[57.2731,56.908],[57.5936,56.9088],[57.953,57.0972],[57.9979,57.2071],[57.5542,57.181],[57.1412,57.2725]]]},"properties":{"GID_0":"RUS","GID_1":"RUS.55_1","GID_2":"RUS.55.45_1","NAME_1":"Perm'","NAME_2":"Suksunskiyrayon"}},
{"type":"Feature","geometry":{"type":"Polygon","coordinates":[[[55.989,56.7471],[56.1236,56.7578],[56.2723,56.7159],[56.3835,56.6585],[56.9879,56.7941],[57.0249,56.8117],[56.9209,56.8279],[56.8127,56.945],[56.6628,57.0187],[56.2331,57.0463],[55.98,57.0417],[55.9036,56.9286],[55.989,56.7471]]]},"properties":{"GID_0":"RUS","GID_1":"RUS.55_1","GID_2":"RUS.55.46_1","NAME_1":"Perm'","NAME_2":"Uinskiyrayon"}},
{"type":"Feature","geometry":{"type":"Polygon","coordinates":[[[57.313,59.493],[57.0812,59.4933],[56.7168,59.335],[56.672,59.5768],[56.5635,59.6135],[56.3831,59.5777],[55.842,59.7613],[55.3916,59.7106],[55.3901,59.6935],[55.4564,59.521],[55.6491,59.2828],[56.0102,59.3353],[56.2426,59.2279],[56.2936,59.0376],[57.0095,59.0737],[57.2272,59.2587],[57.313,59.493]]]},"properties":{"GID_0":"RUS","GID_1":"RUS.55_1","GID_2":"RUS.55.47_1","NAME_1":"Perm'","NAME_2":"Usol'skiyrayon"}},
{"type":"Feature","geometry":{"type":"Polygon","coordinates":[[[54.514,58.3156],[54.1925,58.1666],[53.8801,58.2956],[53.8169,58.2502],[54.1182,57.9897],[54.2836,57.9338],[54.96,58.0731],[54.9885,58.1127],[54.514,58.3156]]]},"properties":{"GID_0":"RUS","GID_1":"RUS.55_1","GID_2":"RUS.55.48_1","NAME_1":"Perm'","NAME_2":"Vereshchaginskiyrayon"}},
{"type":"Feature","geometry":{"type":"Polygon","coordinates":[[[53.7304,59.1291],[54.3038,59.193],[55.0656,59.3147],[55.2944,59.4236],[55.3281,59.4368],[55.2621,59.4385],[55.2286,59.4503],[55.1954,59.5044],[55.0476,59.5754],[54.4047,59.4904],[53.8708,59.5298],[53.5725,59.7448],[53.2091,59.3625],[53.3415,59.187],[53.7304,59.1291]]]},"properties":{"GID_0":"RUS","GID_1":"RUS.55_1","GID_2":"RUS.55.49_1","NAME_1":"Perm'","NAME_2":"Yurlinskiyrayon"}},
{"type":"Feature","geometry":{"type":"Polygon","coordinates":[[[56.2936,59.0376],[56.2426,59.2279],[56.0102,59.3353],[55.6491,59.2828],[55.3765,59.2948],[55.0606,59.2018],[54.7388,58.9054],[54.8971,58.7758],[55.1848,58.8039],[55.8913,58.9915],[56.2032,58.9069],[56.2936,59.0376]]]},"properties":{"GID_0":"RUS","GID_1":"RUS.55_1","GID_2":"RUS.55.50_1","NAME_1":"Perm'","NAME_2":"Yus'vinskiyrayon"}}
]}