{"type":"FeatureCollection", "features": [
{"type":"Feature","geometry":{"type":"Polygon","coordinates":[[[40.5605,44.8923],[40.4166,45.0161],[40.3031,44.9129],[40.1703,44.9894],[39.9835,44.9145],[40.0487,44.7732],[40.261,44.7567],[40.3996,44.6969],[40.4565,44.7539],[40.4391,44.8611],[40.5605,44.8923]]]},"properties":{"GID_0":"RUS","GID_1":"RUS.1_1","GID_2":"RUS.1.1_1","NAME_1":"Adygey","NAME_2":"Giaginskiyrayon"}},
{"type":"Feature","geometry":{"type":"Polygon","coordinates":[[[40.4565,44.7539],[40.5963,44.7024],[40.5605,44.8923],[40.4391,44.8611],[40.4565,44.7539]]]},"properties":{"GID_0":"RUS","GID_1":"RUS.1_1","GID_2":"RUS.1.2_1","NAME_1":"Adygey","NAME_2":"Koshekhabl'skiyrayon"}},
{"type":"Feature","geometry":{"type":"Polygon","coordinates":[[[40.0292,45.0625],[39.7813,45.1621],[39.6179,45.1819],[39.328,45.0451],[39.594,44.9137],[39.651,45.0414],[39.9145,44.9987],[40.0292,45.0625]]]},"properties":{"GID_0":"RUS","GID_1":"RUS.1_1","GID_2":"RUS.1.3_1","NAME_1":"Adygey","NAME_2":"Krasnogvardeyskiyrayon"}},
{"type":"Feature","geometry":{"type":"Polygon","coordinates":[[[40.1318,44.6005],[40.124,44.6153],[40.0954,44.608],[40.1104,44.5974],[40.1318,44.6005]]]},"properties":{"GID_0":"RUS","GID_1":"RUS.1_1","GID_2":"RUS.1.4_1","NAME_1":"Adygey","NAME_2":"Maykop"}},
{"type":"Feature","geometry":{"type":"Polygon","coordinates":[[[40.0487,44.7732],[39.9168,44.7111],[39.8408,44.5841],[39.8958,44.452],[39.8607,44.3721],[40.1046,44.259],[40.0183,44.0985],[39.7747,44.1272],[39.6476,43.9891],[39.7314,43.9366],[39.9598,43.9382],[40.2438,43.8028],[40.354,43.8088],[40.482,44.0033],[40.4177,44.1563],[40.4838,44.4024],[40.3565,44.5881],[40.3996,44.6969],[40.261,44.7567],[40.0487,44.7732]],[[40.1318,44.6005],[40.1104,44.5974],[40.0954,44.608],[40.124,44.6153],[40.1318,44.6005]]]},"properties":{"GID_0":"RUS","GID_1":"RUS.1_1","GID_2":"RUS.1.5_1","NAME_1":"Adygey","NAME_2":"Maykopskiyrayon"}},
{"type":"Feature","geometry":{"type":"Polygon","coordinates":[[[40.4166,45.0161],[40.3005,45.0952],[40.0292,45.0625],[39.9145,44.9987],[39.9835,44.9145],[40.1703,44.9894],[40.3031,44.9129],[40.4166,45.0161]]]},"properties":{"GID_0":"RUS","GID_1":"RUS.1_1","GID_2":"RUS.1.6_1","NAME_1":"Adygey","NAME_2":"Shovgenovskiyrayon"}},
{"type":"Feature","geometry":{"type":"Polygon","coordinates":[[[39.0612,44.9939],[38.811,45.0605],[38.7177,44.9751],[39.0011,44.8498],[39.0612,44.9939]]]},"properties":{"GID_0":"RUS","GID_1":"RUS.1_1","GID_2":"RUS.1.7_1","NAME_1":"Adygey","NAME_2":"Takhtamukayskrayon"}},
{"type":"Feature","geometry":{"type":"Polygon","coordinates":[[[39.328,45.0451],[39.0612,44.9939],[39.0011,44.8498],[39.1147,44.8632],[39.4196,44.8231],[39.594,44.9137],[39.328,45.0451]]]},"properties":{"GID_0":"RUS","GID_1":"RUS.1_1","GID_2":"RUS.1.8_1","NAME_1":"Adygey","NAME_2":"Teuchezhskiyrayon"}}
]}