{"type":"FeatureCollection", "features": [
{"type":"Feature","geometry":{"type":"Polygon","coordinates":[[[86.2511,51.667],[85.9047,51.6929],[85.8277,51.6873],[86.0526,51.3219],[86.2804,51.0241],[86.3011,50.8827],[86.4484,50.9455],[86.4821,51.1616],[86.606,51.3292],[86.2511,51.667]]]},"properties":{"GID_0":"RUS","GID_1":"RUS.16_1","GID_2":"RUS.16.1_1","NAME_1":"Gorno-Altay","NAME_2":"Chemal'skiyrayon"}},
{"type":"Feature","geometry":{"type":"Polygon","coordinates":[[[86.1205,52.067],[86.0877,51.9057],[86.2511,51.667],[86.606,51.3292],[86.8256,51.1618],[87.0917,51.2241],[87.1002,51.2615],[86.9288,51.7541],[86.8193,51.9238],[86.8794,52.099],[86.7292,52.181],[86.1205,52.067]]]},"properties":{"GID_0":"RUS","GID_1":"RUS.16_1","GID_2":"RUS.16.2_1","NAME_1":"Gorno-Altay","NAME_2":"Choyskiyrayon"}},
{"type":"Feature","geometry":{"type":"Polygon","coordinates":[[[85.9737,51.9379],[85.965,51.9529],[85.9404,51.9483],[85.9468,51.9329],[85.9737,51.9379]]]},"properties":{"GID_0":"RUS","GID_1":"RUS.16_1","GID_2":"RUS.16.3_1","NAME_1":"Gorno-Altay","NAME_2":"Gorno-Altaysk"}},
{"type":"Feature","geometry":{"type":"Polygon","coordinates":[[[86.612,49.8015],[86.7834,49.711],[86.902,49.3508],[87.2684,49.2165],[87.4381,49.0847],[87.7023,49.1697],[87.9943,49.1863],[88.2233,49.4899],[88.65,49.5201],[88.8151,49.4662],[89.0995,49.4999],[89.4449,49.6589],[89.6818,49.7097],[89.49,50.1782],[89.3318,50.1992],[88.9381,50.1462],[88.7587,50.0572],[88.4288,50.1419],[88.3239,50.2597],[87.8306,50.296],[87.7495,50.166],[87.376,50.3504],[87.32,50.2239],[86.776,50.1916],[86.7383,50.155],[86.612,49.8015]]]},"properties":{"GID_0":"RUS","GID_1":"RUS.16_1","GID_2":"RUS.16.4_1","NAME_1":"Gorno-Altay","NAME_2":"Kosh-Agachskiyrayon"}},
{"type":"Feature","geometry":{"type":"Polygon","coordinates":[[[85.6462,51.736],[85.8103,51.6861],[85.9047,51.6929],[86.2511,51.667],[86.0877,51.9057],[86.1205,52.067],[85.7844,52.0384],[85.8509,51.8879],[85.6462,51.736]],[[85.9737,51.9379],[85.9468,51.9329],[85.9404,51.9483],[85.965,51.9529],[85.9737,51.9379]]]},"properties":{"GID_0":"RUS","GID_1":"RUS.16_1","GID_2":"RUS.16.5_1","NAME_1":"Gorno-Altay","NAME_2":"Mayminskiyrayon"}},
{"type":"Feature","geometry":{"type":"Polygon","coordinates":[[[86.3011,50.8827],[85.9728,51.0161],[85.8622,51.1489],[85.2586,50.9764],[85.356,50.7279],[85.3571,50.4919],[85.6591,50.5593],[85.7496,50.3947],[85.9844,50.4855],[86.1384,50.3469],[86.3744,50.2722],[86.7305,50.2439],[86.7497,50.2061],[86.7572,50.1733],[86.776,50.1916],[87.32,50.2239],[87.376,50.3504],[87.4855,50.5979],[87.3258,50.9773],[87.0917,51.2241],[86.8256,51.1618],[86.606,51.3292],[86.4821,51.1616],[86.4484,50.9455],[86.3011,50.8827]]]},"properties":{"GID_0":"RUS","GID_1":"RUS.16_1","GID_2":"RUS.16.6_1","NAME_1":"Gorno-Altay","NAME_2":"Ongudayskiyrayon"}},
{"type":"Feature","geometry":{"type":"Polygon","coordinates":[[[84.9561,51.4765],[85.0418,51.2341],[85.2586,50.9764],[85.8622,51.1489],[85.9728,51.0161],[86.3011,50.8827],[86.2804,51.0241],[86.0526,51.3219],[85.8277,51.6873],[85.8103,51.6861],[85.6462,51.736],[85.3918,51.5644],[84.9561,51.4765]]]},"properties":{"GID_0":"RUS","GID_1":"RUS.16_1","GID_2":"RUS.16.7_1","NAME_1":"Gorno-Altay","NAME_2":"Shebalinskiyrayon"}},
{"type":"Feature","geometry":{"type":"Polygon","coordinates":[[[86.7292,52.181],[86.8794,52.099],[86.8193,51.9238],[86.9288,51.7541],[87.1002,51.2615],[87.1952,51.2077],[87.52,51.2693],[87.904,51.5649],[88.1131,51.7217],[87.9161,51.8093],[88.0539,52.0357],[88.2749,52.0698],[88.4223,52.1835],[88.3993,52.4165],[88.166,52.4111],[87.9173,52.5466],[87.6342,52.4294],[87.3203,52.5083],[87.0021,52.6459],[86.6446,52.5144],[86.7292,52.181]]]},"properties":{"GID_0":"RUS","GID_1":"RUS.16_1","GID_2":"RUS.16.8_1","NAME_1":"Gorno-Altay","NAME_2":"Turochakskiyrayon"}},
{"type":"Feature","geometry":{"type":"Polygon","coordinates":[[[87.0917,51.2241],[87.3258,50.9773],[87.4855,50.5979],[87.376,50.3504],[87.7495,50.166],[87.8306,50.296],[88.3239,50.2597],[88.4288,50.1419],[88.7587,50.0572],[88.9381,50.1462],[89.3318,50.1992],[89.4023,50.311],[89.7967,50.3743],[89.8659,50.4593],[89.5593,50.6468],[89.3662,50.8647],[89.037,51.0579],[88.9358,51.2864],[88.9939,51.3917],[88.81,51.538],[88.5961,51.3366],[88.4061,51.2922],[87.9357,51.4914],[87.904,51.5649],[87.52,51.2693],[87.1952,51.2077],[87.1002,51.2615],[87.0917,51.2241]]]},"properties":{"GID_0":"RUS","GID_1":"RUS.16_1","GID_2":"RUS.16.9_1","NAME_1":"Gorno-Altay","NAME_2":"Ulaganskiyrayon"}},
{"type":"Feature","geometry":{"type":"Polygon","coordinates":[[[84.9561,51.4765],[84.4468,51.2912],[84.1939,51.2694],[84.0912,51.1468],[84.1968,51.0021],[84.4991,50.9668],[84.5923,50.8558],[84.4374,50.7059],[84.0506,50.6478],[84.2189,50.5323],[84.3241,50.2245],[84.423,50.2276],[84.3746,50.3487],[84.4939,50.5124],[84.844,50.5381],[84.8704,50.7053],[85.181,50.6422],[85.356,50.7279],[85.2586,50.9764],[85.0418,51.2341],[84.9561,51.4765]]]},"properties":{"GID_0":"RUS","GID_1":"RUS.16_1","GID_2":"RUS.16.10_1","NAME_1":"Gorno-Altay","NAME_2":"Ust'-Kanskiyrayon"}},
{"type":"Feature","geometry":{"type":"Polygon","coordinates":[[[86.612,49.8015],[86.7383,50.155],[86.7572,50.1733],[86.7497,50.2061],[86.7305,50.2439],[86.3744,50.2722],[86.1384,50.3469],[85.9844,50.4855],[85.7496,50.3947],[85.6591,50.5593],[85.3571,50.4919],[85.356,50.7279],[85.181,50.6422],[84.8704,50.7053],[84.844,50.5381],[84.4939,50.5124],[84.3746,50.3487],[84.423,50.2276],[84.998,50.0561],[85.2123,49.6268],[85.4208,49.5637],[85.9313,49.5524],[85.9797,49.4862],[86.4265,49.6387],[86.612,49.8015]]]},"properties":{"GID_0":"RUS","GID_1":"RUS.16_1","GID_2":"RUS.16.11_1","NAME_1":"Gorno-Altay","NAME_2":"Ust'-Koksinskiyrayon"}}
]}