{"type":"FeatureCollection", "features": [
{"type":"Feature","geometry":{"type":"Polygon","coordinates":[[[39.2664,57.5704],[39.4037,57.6695],[39.4351,57.7697],[39.2279,57.8444],[39.0237,57.8713],[38.7003,57.8095],[38.6649,57.716],[38.8898,57.5028],[39.2664,57.5704]]]},"properties":{"GID_0":"RUS","GID_1":"RUS.81_1","GID_2":"RUS.81.1_1","NAME_1":"Yaroslavl'","NAME_2":"Bol'shesel'skiyrayon"}},
{"type":"Feature","geometry":{"type":"Polygon","coordinates":[[[38.8898,57.5028],[38.7867,57.4002],[38.6708,57.0999],[38.8088,57.0423],[39.2144,57.131],[39.4387,57.3353],[39.4302,57.4108],[39.4134,57.4408],[39.2664,57.5704],[38.8898,57.5028]]]},"properties":{"GID_0":"RUS","GID_1":"RUS.81_1","GID_2":"RUS.81.2_1","NAME_1":"Yaroslavl'","NAME_2":"Borisoglebskiyrayon"}},
{"type":"Feature","geometry":{"type":"Polygon","coordinates":[[[37.6663,58.4294],[37.4278,58.3338],[37.4376,58.2166],[37.8034,58.0813],[37.9724,58.0466],[38.2968,58.1555],[37.8897,58.2894],[37.6663,58.4294]]]},"properties":{"GID_0":"RUS","GID_1":"RUS.81_1","GID_2":"RUS.81.3_1","NAME_1":"Yaroslavl'","NAME_2":"Breytovskiyrayon"}},
{"type":"Feature","geometry":{"type":"Polygon","coordinates":[[[40.7713,57.9531],[40.5371,58.0814],[40.4857,58.2884],[40.1163,58.3213],[39.7059,58.4336],[39.601,58.2144],[39.9429,58.0057],[39.9716,57.9159],[40.1815,57.88],[40.6209,57.8929],[40.7713,57.9531]]]},"properties":{"GID_0":"RUS","GID_1":"RUS.81_1","GID_2":"RUS.81.4_1","NAME_1":"Yaroslavl'","NAME_2":"Danilovskiyrayon"}},
{"type":"Feature","geometry":{"type":"Polygon","coordinates":[[[39.9137,57.1584],[40.2075,57.2126],[40.4322,57.3292],[40.1997,57.3708],[39.9819,57.4417],[39.7846,57.4129],[39.6253,57.4896],[39.4134,57.4408],[39.4302,57.4108],[39.7408,57.2905],[39.9137,57.1584]]]},"properties":{"GID_0":"RUS","GID_1":"RUS.81_1","GID_2":"RUS.81.5_1","NAME_1":"Yaroslavl'","NAME_2":"Gavrilov-Yamskiyrayon"}},
{"type":"Feature","geometry":{"type":"Polygon","coordinates":[[[40.7713,57.9531],[40.76,58.0616],[40.9212,58.123],[41.0439,58.2803],[41.2176,58.3476],[41.0868,58.4983],[40.6108,58.5573],[40.4857,58.2884],[40.5371,58.0814],[40.7713,57.9531]]]},"properties":{"GID_0":"RUS","GID_1":"RUS.81_1","GID_2":"RUS.81.6_1","NAME_1":"Yaroslavl'","NAME_2":"Lyubimskiyrayon"}},
{"type":"Feature","geometry":{"type":"Polygon","coordinates":[[[37.8341,57.5988],[38.4331,57.6108],[38.6649,57.716],[38.7003,57.8095],[38.4652,57.941],[37.982,57.7708],[37.817,57.7937],[37.6982,57.6868],[37.8341,57.5988]]]},"properties":{"GID_0":"RUS","GID_1":"RUS.81_1","GID_2":"RUS.81.7_1","NAME_1":"Yaroslavl'","NAME_2":"Myshkinskiyrayon"}},
{"type":"Feature","geometry":{"type":"Polygon","coordinates":[[[37.8034,58.0813],[37.414,57.969],[37.4095,57.7994],[37.6982,57.6868],[37.817,57.7937],[37.982,57.7708],[38.4652,57.941],[38.4693,57.9839],[38.2815,58.0561],[38.2968,58.1555],[37.9724,58.0466],[37.8034,58.0813]]]},"properties":{"GID_0":"RUS","GID_1":"RUS.81_1","GID_2":"RUS.81.8_1","NAME_1":"Yaroslavl'","NAME_2":"Nekouzskiyrayon"}},
{"type":"Feature","geometry":{"type":"Polygon","coordinates":[[[40.6209,57.8929],[40.1815,57.88],[40.2352,57.6893],[40.3337,57.597],[40.1997,57.3708],[40.4322,57.3292],[40.4149,57.4785],[40.5935,57.6075],[40.6987,57.7922],[40.6209,57.8929]]]},"properties":{"GID_0":"RUS","GID_1":"RUS.81_1","GID_2":"RUS.81.9_1","NAME_1":"Yaroslavl'","NAME_2":"Nekrasovskiyrayon"}},
{"type":"Feature","geometry":{"type":"Polygon","coordinates":[[[38.3097,57.0984],[38.1866,56.8671],[38.5427,56.6328],[38.9451,56.5487],[39.1407,56.5858],[39.3481,56.5433],[39.3909,56.7035],[39.0967,56.8887],[38.8671,56.9566],[38.8088,57.0423],[38.6708,57.0999],[38.3703,57.1843],[38.3097,57.0984]]]},"properties":{"GID_0":"RUS","GID_1":"RUS.81_1","GID_2":"RUS.81.10_1","NAME_1":"Yaroslavl'","NAME_2":"Pereslavskiyrayon"}},
{"type":"Feature","geometry":{"type":"Polygon","coordinates":[[[39.6916,58.8461],[39.4385,58.6849],[39.452,58.5359],[39.7059,58.4336],[40.1163,58.3213],[40.4857,58.2884],[40.6108,58.5573],[40.3224,58.5277],[40.0735,58.6766],[39.6916,58.8461]]]},"properties":{"GID_0":"RUS","GID_1":"RUS.81_1","GID_2":"RUS.81.11_1","NAME_1":"Yaroslavl'","NAME_2":"Pervomayskiyrayon"}},
{"type":"Feature","geometry":{"type":"Polygon","coordinates":[[[39.6916,58.8461],[39.317,58.9269],[39.0219,58.872],[38.918,58.7296],[38.5872,58.7653],[38.5043,58.678],[38.7852,58.5072],[38.9748,58.4684],[39.1302,58.2838],[39.5328,58.2183],[39.601,58.2144],[39.7059,58.4336],[39.452,58.5359],[39.4385,58.6849],[39.6916,58.8461]]]},"properties":{"GID_0":"RUS","GID_1":"RUS.81_1","GID_2":"RUS.81.12_1","NAME_1":"Yaroslavl'","NAME_2":"Poshekhonskiyrayon"}},
{"type":"Feature","geometry":{"type":"Polygon","coordinates":[[[39.4447,57.1692],[39.4626,57.2459],[39.3302,57.1968],[39.4447,57.1692]]]},"properties":{"GID_0":"RUS","GID_1":"RUS.81_1","GID_2":"RUS.81.13_1","NAME_1":"Yaroslavl'","NAME_2":"Rostov"}},
{"type":"Feature","geometry":{"type":"Polygon","coordinates":[[[39.9137,57.1584],[39.7408,57.2905],[39.4302,57.4108],[39.4387,57.3353],[39.2144,57.131],[38.8088,57.0423],[38.8671,56.9566],[39.0967,56.8887],[39.3909,56.7035],[39.5387,56.9918],[39.9137,57.1584]],[[39.4447,57.1692],[39.3302,57.1968],[39.4626,57.2459],[39.4447,57.1692]]]},"properties":{"GID_0":"RUS","GID_1":"RUS.81_1","GID_2":"RUS.81.14_1","NAME_1":"Yaroslavl'","NAME_2":"Rostovskiyrayon"}},
{"type":"Feature","geometry":{"type":"Polygon","coordinates":[[[38.8531,57.982],[38.8358,57.9972],[38.8218,57.9866],[38.8531,57.982]]]},"properties":{"GID_0":"RUS","GID_1":"RUS.81_1","GID_2":"RUS.81.15_1","NAME_1":"Yaroslavl'","NAME_2":"Rybinsk"}},
{"type":"Feature","geometry":{"type":"Polygon","coordinates":[[[39.2279,57.8444],[39.4029,57.9842],[39.5328,58.2183],[39.1302,58.2838],[38.9115,58.3288],[38.7453,58.1525],[38.346,58.0694],[38.4693,57.9839],[38.4652,57.941],[38.7003,57.8095],[39.0237,57.8713],[39.2279,57.8444]],[[38.8531,57.982],[38.8218,57.9866],[38.8358,57.9972],[38.8531,57.982]]]},"properties":{"GID_0":"RUS","GID_1":"RUS.81_1","GID_2":"RUS.81.16_1","NAME_1":"Yaroslavl'","NAME_2":"Rybinskiyrayon"}},
{"type":"Feature","geometry":{"type":"Polygon","coordinates":[[[39.5844,57.9239],[39.5712,57.9394],[39.5486,57.9314],[39.5621,57.9149],[39.5844,57.9239]]]},"properties":{"GID_0":"RUS","GID_1":"RUS.81_1","GID_2":"RUS.81.17_1","NAME_1":"Yaroslavl'","NAME_2":"Tutaev"}},
{"type":"Feature","geometry":{"type":"Polygon","coordinates":[[[39.4037,57.6695],[39.6784,57.7254],[39.7546,57.8562],[39.9716,57.9159],[39.9429,58.0057],[39.601,58.2144],[39.5328,58.2183],[39.4029,57.9842],[39.2279,57.8444],[39.4351,57.7697],[39.4037,57.6695]],[[39.5844,57.9239],[39.5621,57.9149],[39.5486,57.9314],[39.5712,57.9394],[39.5844,57.9239]]]},"properties":{"GID_0":"RUS","GID_1":"RUS.81_1","GID_2":"RUS.81.18_1","NAME_1":"Yaroslavl'","NAME_2":"Tutaevskiyrayon"}},
{"type":"Feature","geometry":{"type":"Polygon","coordinates":[[[38.3871,57.4717],[38.39,57.4832],[38.3679,57.4832],[38.3644,57.4701],[38.3871,57.4717]]]},"properties":{"GID_0":"RUS","GID_1":"RUS.81_1","GID_2":"RUS.81.19_1","NAME_1":"Yaroslavl'","NAME_2":"Uglich"}},
{"type":"Feature","geometry":{"type":"Polygon","coordinates":[[[38.3097,57.0984],[38.3703,57.1843],[38.6708,57.0999],[38.7867,57.4002],[38.8898,57.5028],[38.6649,57.716],[38.4331,57.6108],[37.8341,57.5988],[37.8936,57.435],[38.0727,57.3264],[38.3346,57.3609],[38.3749,57.28],[38.2234,57.1734],[38.3097,57.0984]],[[38.3871,57.4717],[38.3644,57.4701],[38.3679,57.4832],[38.39,57.4832],[38.3871,57.4717]]]},"properties":{"GID_0":"RUS","GID_1":"RUS.81_1","GID_2":"RUS.81.20_1","NAME_1":"Yaroslavl'","NAME_2":"Uglichskiyrayon"}},
{"type":"Feature","geometry":{"type":"Polygon","coordinates":[[[37.6663,58.4294],[37.8897,58.2894],[38.2968,58.1555],[38.2815,58.0561],[38.4693,57.9839],[38.346,58.0694],[38.7453,58.1525],[38.9115,58.3288],[39.1302,58.2838],[38.9748,58.4684],[38.7852,58.5072],[38.5043,58.678],[38.047,58.7351],[37.9843,58.6224],[37.7332,58.58],[37.6663,58.4294]]]},"properties":{"GID_0":"RUS","GID_1":"RUS.81_1","GID_2":"RUS.81.21_1","NAME_1":"Yaroslavl'","NAME_2":"Waterbody"}},
{"type":"Feature","geometry":{"type":"Polygon","coordinates":[[[39.7755,57.6457],[39.7817,57.6578],[39.7595,57.658],[39.7519,57.6484],[39.7755,57.6457]]]},"properties":{"GID_0":"RUS","GID_1":"RUS.81_1","GID_2":"RUS.81.22_1","NAME_1":"Yaroslavl'","NAME_2":"Yaroslavl'"}},
{"type":"Feature","geometry":{"type":"Polygon","coordinates":[[[39.2664,57.5704],[39.4134,57.4408],[39.6253,57.4896],[39.7846,57.4129],[39.9819,57.4417],[40.1997,57.3708],[40.3337,57.597],[40.2352,57.6893],[40.1815,57.88],[39.9716,57.9159],[39.7546,57.8562],[39.6784,57.7254],[39.4037,57.6695],[39.2664,57.5704]],[[39.7755,57.6457],[39.7519,57.6484],[39.7595,57.658],[39.7817,57.6578],[39.7755,57.6457]]]},"properties":{"GID_0":"RUS","GID_1":"RUS.81_1","GID_2":"RUS.81.23_1","NAME_1":"Yaroslavl'","NAME_2":"Yaroslavskiyrayon"}}
]}