{"type":"FeatureCollection", "features": [
{"type":"Feature","geometry":{"type":"Polygon","coordinates":[[[38.6847,50.6195],[38.6875,50.6299],[38.673,50.6298],[38.6685,50.6238],[38.6847,50.6195]]]},"properties":{"GID_0":"RUS","GID_1":"RUS.7_1","GID_2":"RUS.7.1_1","NAME_1":"Belgorod","NAME_2":"Alekseevka"}},
{"type":"Feature","geometry":{"type":"Polygon","coordinates":[[[38.7222,50.6744],[38.695,50.5996],[38.7705,50.4861],[38.7621,50.3437],[38.8585,50.313],[38.9842,50.1718],[39.1071,50.2344],[39.2258,50.2073],[39.2184,50.3372],[39.1377,50.427],[39.2121,50.4879],[39.0645,50.6769],[38.9918,50.6743],[38.8299,50.8188],[38.7985,50.6579],[38.7222,50.6744]]]},"properties":{"GID_0":"RUS","GID_1":"RUS.7_1","GID_2":"RUS.7.2_1","NAME_1":"Belgorod","NAME_2":"Alekseevskiyrayon"}},
{"type":"Feature","geometry":{"type":"Polygon","coordinates":[[[36.7012,50.5445],[36.6893,50.6538],[36.5297,50.6402],[36.5201,50.5734],[36.7012,50.5445]]]},"properties":{"GID_0":"RUS","GID_1":"RUS.7_1","GID_2":"RUS.7.3_1","NAME_1":"Belgorod","NAME_2":"Belgorod"}},
{"type":"Feature","geometry":{"type":"Polygon","coordinates":[[[36.1228,50.4506],[36.2807,50.3594],[36.3154,50.294],[36.4931,50.3269],[36.6064,50.2346],[36.6585,50.3221],[36.6039,50.4751],[36.8025,50.5506],[36.8279,50.6213],[36.7872,50.7361],[36.6561,50.7513],[36.3236,50.7176],[36.4082,50.6138],[36.3522,50.5573],[36.2033,50.5867],[36.1228,50.4506]],[[36.7012,50.5445],[36.5201,50.5734],[36.5297,50.6402],[36.6893,50.6538],[36.7012,50.5445]]]},"properties":{"GID_0":"RUS","GID_1":"RUS.7_1","GID_2":"RUS.7.4_1","NAME_1":"Belgorod","NAME_2":"Belgorodskiyrayon"}},
{"type":"Feature","geometry":{"type":"Polygon","coordinates":[[[36.2033,50.5867],[36.1485,50.6281],[36.0945,50.6777],[36.0788,50.7615],[36.0276,50.7834],[35.8261,50.6832],[35.7767,50.7047],[35.7171,50.6674],[35.6968,50.6513],[35.745,50.6192],[35.7883,50.5386],[35.8991,50.4524],[36.1228,50.4506],[36.2033,50.5867]]]},"properties":{"GID_0":"RUS","GID_1":"RUS.7_1","GID_2":"RUS.7.5_1","NAME_1":"Belgorod","NAME_2":"Borisovskiyrayon"}},
{"type":"Feature","geometry":{"type":"Polygon","coordinates":[[[37.4908,50.9429],[37.5699,50.846],[37.7596,50.8036],[38.4222,50.9014],[38.4233,51.008],[38.2673,50.9838],[37.7326,51.1337],[37.5394,51.0981],[37.5974,51.0159],[37.4908,50.9429]]]},"properties":{"GID_0":"RUS","GID_1":"RUS.7_1","GID_2":"RUS.7.6_1","NAME_1":"Belgorod","NAME_2":"Chernyanskiyrayon"}},
{"type":"Feature","geometry":{"type":"Polygon","coordinates":[[[35.6968,50.6513],[35.6924,50.6478],[35.6208,50.7159],[35.5022,50.6837],[35.4131,50.5897],[35.5122,50.4821],[35.5824,50.4666],[35.6313,50.3607],[35.7301,50.3594],[35.8991,50.4524],[35.7883,50.5386],[35.745,50.6192],[35.6968,50.6513]]]},"properties":{"GID_0":"RUS","GID_1":"RUS.7_1","GID_2":"RUS.7.7_1","NAME_1":"Belgorod","NAME_2":"Grayvoronskiyrayon"}},
{"type":"Feature","geometry":{"type":"Polygon","coordinates":[[[37.5635,51.2851],[37.5654,51.2914],[37.5559,51.2932],[37.5498,51.2876],[37.5635,51.2851]]]},"properties":{"GID_0":"RUS","GID_1":"RUS.7_1","GID_2":"RUS.7.8_1","NAME_1":"Belgorod","NAME_2":"Gubkin"}},
{"type":"Feature","geometry":{"type":"Polygon","coordinates":[[[37.7326,51.1337],[37.6317,51.1876],[37.7277,51.2399],[37.7432,51.3659],[37.4321,51.3784],[37.1584,51.3167],[37.0937,51.2365],[37.1854,51.1701],[37.2225,51.0534],[37.3346,50.9642],[37.4908,50.9429],[37.5974,51.0159],[37.5394,51.0981],[37.7326,51.1337]],[[37.5635,51.2851],[37.5498,51.2876],[37.5559,51.2932],[37.5654,51.2914],[37.5635,51.2851]]]},"properties":{"GID_0":"RUS","GID_1":"RUS.7_1","GID_2":"RUS.7.9_1","NAME_1":"Belgorod","NAME_2":"Gubkinskiyrayon"}},
{"type":"Feature","geometry":{"type":"Polygon","coordinates":[[[36.4549,50.8953],[36.5433,50.9714],[36.566,51.0838],[36.2198,51.1597],[36.0118,51.1067],[35.9472,51.0556],[36.1139,50.9497],[36.2042,50.9067],[36.4549,50.8953]]]},"properties":{"GID_0":"RUS","GID_1":"RUS.7_1","GID_2":"RUS.7.10_1","NAME_1":"Belgorod","NAME_2":"Ivnyanskiyrayon"}},
{"type":"Feature","geometry":{"type":"Polygon","coordinates":[[[36.8279,50.6213],[37.011,50.5992],[37.1795,50.696],[37.3911,50.6633],[37.5587,50.611],[37.5173,50.7224],[37.5699,50.846],[37.4908,50.9429],[37.3346,50.9642],[37.2225,51.0534],[37.1708,50.9476],[37.0468,50.9583],[36.9846,50.9013],[37.0381,50.8349],[36.9866,50.8344],[36.7872,50.7361],[36.8279,50.6213]]]},"properties":{"GID_0":"RUS","GID_1":"RUS.7_1","GID_2":"RUS.7.11_1","NAME_1":"Belgorod","NAME_2":"Korochanskiyrayon"}},
{"type":"Feature","geometry":{"type":"Polygon","coordinates":[[[38.8299,50.8188],[38.8494,50.906],[38.9455,51.0101],[38.8434,51.0841],[38.7118,51.0119],[38.4716,51.0795],[38.4233,51.008],[38.4222,50.9014],[38.5774,50.9139],[38.6419,50.7478],[38.7222,50.6744],[38.7985,50.6579],[38.8299,50.8188]]]},"properties":{"GID_0":"RUS","GID_1":"RUS.7_1","GID_2":"RUS.7.12_1","NAME_1":"Belgorod","NAME_2":"Krasnenskiyrayon"}},
{"type":"Feature","geometry":{"type":"Polygon","coordinates":[[[38.7222,50.6744],[38.6419,50.7478],[38.5774,50.9139],[38.4222,50.9014],[38.3341,50.7466],[38.1298,50.6609],[38.091,50.593],[38.2636,50.5351],[38.2131,50.4166],[38.4846,50.2531],[38.5264,50.253],[38.6031,50.2499],[38.7062,50.2334],[38.7621,50.3437],[38.7705,50.4861],[38.695,50.5996],[38.7222,50.6744]],[[38.6847,50.6195],[38.6685,50.6238],[38.673,50.6298],[38.6875,50.6299],[38.6847,50.6195]]]},"properties":{"GID_0":"RUS","GID_1":"RUS.7_1","GID_2":"RUS.7.13_1","NAME_1":"Belgorod","NAME_2":"Krasnogvardeyskiyrayon"}},
{"type":"Feature","geometry":{"type":"Polygon","coordinates":[[[35.815,50.6877],[35.686,50.8399],[35.6107,50.9314],[35.5876,50.9523],[35.3914,51.0202],[35.3439,50.9486],[35.5022,50.6837],[35.6208,50.7159],[35.6924,50.6478],[35.7171,50.6674],[35.7767,50.7047],[35.815,50.6877]]]},"properties":{"GID_0":"RUS","GID_1":"RUS.7_1","GID_2":"RUS.7.14_1","NAME_1":"Belgorod","NAME_2":"Krasnoyaruzhskiyrayon"}},
{"type":"Feature","geometry":{"type":"Polygon","coordinates":[[[37.5699,50.846],[37.5173,50.7224],[37.5587,50.611],[37.7179,50.5429],[37.7745,50.571],[37.9044,50.5876],[38.091,50.593],[38.1298,50.6609],[38.3341,50.7466],[38.4222,50.9014],[37.7596,50.8036],[37.5699,50.846]]]},"properties":{"GID_0":"RUS","GID_1":"RUS.7_1","GID_2":"RUS.7.15_1","NAME_1":"Belgorod","NAME_2":"Novooskol'skiyrayon"}},
{"type":"Feature","geometry":{"type":"Polygon","coordinates":[[[37.0937,51.2365],[36.9876,51.1926],[36.7743,51.177],[36.566,51.0838],[36.5433,50.9714],[36.4549,50.8953],[36.5859,50.8669],[36.8843,50.8954],[37.0084,50.835],[37.0381,50.8349],[36.9846,50.9013],[37.0468,50.9583],[37.1708,50.9476],[37.2225,51.0534],[37.1854,51.1701],[37.0937,51.2365]]]},"properties":{"GID_0":"RUS","GID_1":"RUS.7_1","GID_2":"RUS.7.16_1","NAME_1":"Belgorod","NAME_2":"Prokhorovskiyrayon"}},
{"type":"Feature","geometry":{"type":"Polygon","coordinates":[[[36.0788,50.7615],[36.1139,50.9497],[35.9472,51.0556],[35.8448,50.9766],[35.7588,51.0025],[35.5876,50.9523],[35.6107,50.9314],[35.686,50.8399],[35.815,50.6877],[35.8261,50.6832],[36.0276,50.7834],[36.0788,50.7615]]]},"properties":{"GID_0":"RUS","GID_1":"RUS.7_1","GID_2":"RUS.7.17_1","NAME_1":"Belgorod","NAME_2":"Rakityanskiyrayon"}},
{"type":"Feature","geometry":{"type":"Polygon","coordinates":[[[38.9842,50.1718],[38.9048,50.0444],[38.9509,49.9898],[38.8471,49.873],[38.9371,49.8113],[39.0749,49.8205],[39.172,49.88],[39.2916,49.85],[39.3649,50.0454],[39.2482,50.1158],[39.2258,50.2073],[39.1071,50.2344],[38.9842,50.1718]]]},"properties":{"GID_0":"RUS","GID_1":"RUS.7_1","GID_2":"RUS.7.18_1","NAME_1":"Belgorod","NAME_2":"Roven'skiyrayon"}},
{"type":"Feature","geometry":{"type":"Polygon","coordinates":[[[36.9249,50.415],[36.9245,50.4197],[36.9161,50.4211],[36.9179,50.4138],[36.9249,50.415]]]},"properties":{"GID_0":"RUS","GID_1":"RUS.7_1","GID_2":"RUS.7.19_1","NAME_1":"Belgorod","NAME_2":"Shebekino"}},
{"type":"Feature","geometry":{"type":"Polygon","coordinates":[[[36.6064,50.2346],[36.9256,50.3474],[37.0533,50.3343],[37.4909,50.4248],[37.5742,50.4178],[37.7179,50.5429],[37.5587,50.611],[37.3911,50.6633],[37.1795,50.696],[37.011,50.5992],[36.8279,50.6213],[36.8025,50.5506],[36.6039,50.4751],[36.6585,50.3221],[36.6064,50.2346]],[[36.9249,50.415],[36.9179,50.4138],[36.9161,50.4211],[36.9245,50.4197],[36.9249,50.415]]]},"properties":{"GID_0":"RUS","GID_1":"RUS.7_1","GID_2":"RUS.7.20_1","NAME_1":"Belgorod","NAME_2":"Shebekinskiyrayon"}},
{"type":"Feature","geometry":{"type":"Polygon","coordinates":[[[38.4233,51.008],[38.4716,51.0795],[38.5829,51.1856],[38.5458,51.2486],[38.4033,51.2652],[38.1994,51.3367],[38.0341,51.4262],[37.7432,51.3659],[37.7277,51.2399],[37.6317,51.1876],[37.7326,51.1337],[38.2673,50.9838],[38.4233,51.008]],[[37.8153,51.3044],[37.8069,51.298],[37.7917,51.3075],[37.8116,51.3139],[37.8153,51.3044]]]},"properties":{"GID_0":"RUS","GID_1":"RUS.7_1","GID_2":"RUS.7.21_1","NAME_1":"Belgorod","NAME_2":"Starooskol'skiyrayon"}},
{"type":"Feature","geometry":{"type":"Polygon","coordinates":[[[37.8153,51.3044],[37.8116,51.3139],[37.7917,51.3075],[37.8069,51.298],[37.8153,51.3044]]]},"properties":{"GID_0":"RUS","GID_1":"RUS.7_1","GID_2":"RUS.7.22_1","NAME_1":"Belgorod","NAME_2":"StaryyOskol"}},
{"type":"Feature","geometry":{"type":"Polygon","coordinates":[[[38.157,50.1966],[38.1497,50.2011],[38.1465,50.1972],[38.1527,50.1942],[38.157,50.1966]]]},"properties":{"GID_0":"RUS","GID_1":"RUS.7_1","GID_2":"RUS.7.23_1","NAME_1":"Belgorod","NAME_2":"Valuyki"}},
{"type":"Feature","geometry":{"type":"Polygon","coordinates":[[[38.2131,50.4166],[38.1088,50.3433],[37.8244,50.2441],[37.6898,50.2806],[37.6523,50.1769],[37.7604,50.0963],[37.9338,50.0477],[38.0478,49.9561],[38.1811,49.9591],[38.1998,50.0759],[38.3393,50.0859],[38.4577,50.0005],[38.4025,50.0915],[38.4978,50.1249],[38.5723,50.2017],[38.5752,50.2249],[38.5744,50.2511],[38.4846,50.2531],[38.2131,50.4166]],[[38.157,50.1966],[38.1527,50.1942],[38.1465,50.1972],[38.1497,50.2011],[38.157,50.1966]]]},"properties":{"GID_0":"RUS","GID_1":"RUS.7_1","GID_2":"RUS.7.24_1","NAME_1":"Belgorod","NAME_2":"Valuyskiyrayon"}},
{"type":"Feature","geometry":{"type":"Polygon","coordinates":[[[38.7621,50.3437],[38.7062,50.2334],[38.6031,50.2499],[38.5744,50.2511],[38.5752,50.2249],[38.5723,50.2017],[38.4978,50.1249],[38.4025,50.0915],[38.4577,50.0005],[38.6118,49.9776],[38.8471,49.873],[38.9509,49.9898],[38.9048,50.0444],[38.9842,50.1718],[38.8585,50.313],[38.7621,50.3437]]]},"properties":{"GID_0":"RUS","GID_1":"RUS.7_1","GID_2":"RUS.7.25_1","NAME_1":"Belgorod","NAME_2":"Veydelevskiyrayon"}},
{"type":"Feature","geometry":{"type":"Polygon","coordinates":[[[38.091,50.593],[37.9044,50.5876],[37.7745,50.571],[37.7179,50.5429],[37.5742,50.4178],[37.4909,50.4248],[37.4817,50.3539],[37.6898,50.2806],[37.8244,50.2441],[38.1088,50.3433],[38.2131,50.4166],[38.2636,50.5351],[38.091,50.593]]]},"properties":{"GID_0":"RUS","GID_1":"RUS.7_1","GID_2":"RUS.7.26_1","NAME_1":"Belgorod","NAME_2":"Volokonovskiyrayon"}},
{"type":"Feature","geometry":{"type":"Polygon","coordinates":[[[36.7872,50.7361],[36.9866,50.8344],[37.0084,50.835],[36.8843,50.8954],[36.5859,50.8669],[36.4549,50.8953],[36.2042,50.9067],[36.1139,50.9497],[36.0788,50.7615],[36.0945,50.6777],[36.1485,50.6281],[36.2033,50.5867],[36.3522,50.5573],[36.4082,50.6138],[36.3236,50.7176],[36.6561,50.7513],[36.7872,50.7361]]]},"properties":{"GID_0":"RUS","GID_1":"RUS.7_1","GID_2":"RUS.7.27_1","NAME_1":"Belgorod","NAME_2":"Yakovlevskiyrayon"}}
]}