{"type":"FeatureCollection", "features": [
{"type":"Feature","geometry":{"type":"Polygon","coordinates":[[[31.7032,67.4087],[31.848,67.4071],[32.0373,67.4124],[32.1792,67.4026],[32.5538,67.3276],[32.75,67.2788],[33.1049,67.1674],[33.219,67.1268],[33.4529,67.0675],[33.6176,67.0963],[33.762,67.1285],[33.8524,67.1555],[33.8437,67.2322],[33.8239,67.2947],[33.8219,67.348],[33.794,67.4131],[33.7724,67.5695],[33.679,67.7039],[33.6627,67.7621],[33.7082,67.8287],[33.5349,67.7687],[33.3461,67.7259],[33.2177,67.7181],[33.2707,67.6678],[33.2172,67.6563],[33.1543,67.6122],[33.1478,67.5876],[33.3007,67.549],[33.2147,67.5118],[33.2142,67.4637],[33.076,67.5107],[33.0595,67.5284],[32.9122,67.5417],[32.8816,67.5235],[32.7026,67.5302],[32.6668,67.5085],[32.7762,67.459],[32.6659,67.4389],[32.6542,67.4113],[32.6093,67.4311],[32.5586,67.448],[32.4877,67.4653],[32.5015,67.4882],[32.3523,67.5274],[32.3698,67.545],[32.57,67.5238],[32.6817,67.5793],[32.7725,67.587],[32.7297,67.6155],[32.8017,67.6322],[32.8285,67.6076],[32.919,67.6146],[33.0465,67.6022],[33.0587,67.6298],[33.0135,67.6508],[32.9146,67.6598],[32.8808,67.6732],[32.8879,67.6845],[32.565,67.6736],[32.2694,67.6964],[32.1804,67.6985],[32.088,67.5898],[32.1195,67.5013],[32.0815,67.484],[31.8317,67.4405],[31.7032,67.4087]],[[32.6074,67.4144],[32.5264,67.3339],[32.2701,67.3878],[32.3371,67.4154],[32.4898,67.4434],[32.5514,67.4418],[32.6068,67.4299],[32.6074,67.4144]]]},"properties":{"GID_0":"RUS","GID_1":"RUS.45_1","GID_2":"RUS.45.1_1","NAME_1":"Murmansk","NAME_2":"Apatitygorsovet"}},
{"type":"Feature","geometry":{"type":"MultiPolygon","coordinates":[[[[31.4602,66.6378],[31.5764,66.6263],[31.5722,66.5977],[31.5949,66.5217],[31.7377,66.4968],[31.7513,66.473],[31.8494,66.3812],[32.0221,66.3866],[32.1501,66.3757],[32.2855,66.3753],[32.3161,66.3936],[32.3167,66.4186],[32.2882,66.4458],[32.1886,66.4679],[31.971,66.4564],[31.8944,66.4726],[31.8477,66.495],[31.9087,66.5074],[31.9861,66.4909],[32.0423,66.4998],[32.1267,66.4814],[32.219,66.4863],[32.1704,66.5138],[32.1884,66.5433],[32.1026,66.5748],[32.1589,66.6085],[32.1487,66.6276],[32.0297,66.658],[32.0305,66.7168],[31.9756,66.7288],[31.7107,66.7251],[31.5258,66.6663],[31.4602,66.6378]]],[[[30.0241,67.6463],[29.9901,67.594],[29.9592,67.5173],[29.7877,67.4362],[29.6426,67.354],[29.6459,67.3328],[29.5399,67.3031],[29.5402,67.2877],[29.1374,67.036],[29.0536,66.978],[29.0297,66.9166],[29.0863,66.8243],[29.4205,66.5859],[29.5873,66.6057],[29.789,66.6212],[29.884,66.6154],[30.1281,66.6119],[30.5342,66.6273],[30.6732,66.6474],[30.8138,66.6459],[31.0707,66.6361],[31.1925,66.6395],[31.3568,66.6512],[31.3734,66.6689],[31.5505,66.7289],[31.5749,66.7576],[31.6747,66.7747],[31.6003,66.8073],[31.8995,66.7789],[31.9445,66.8072],[31.8113,66.8354],[31.6798,66.8245],[31.6032,66.8365],[31.6596,66.8585],[31.7172,66.8548],[31.7412,66.8837],[31.8511,66.8737],[31.9156,66.8812],[31.997,66.9057],[32.0972,66.9556],[32.1343,66.9388],[32.0548,66.8887],[31.9652,66.8661],[31.9803,66.829],[32.0267,66.8188],[32.1212,66.8317],[32.183,66.8305],[32.2998,66.8633],[32.3614,66.849],[32.2816,66.8125],[32.4615,66.792],[32.5167,66.7538],[32.5704,66.7536],[32.684,66.7178],[32.5694,66.6952],[32.5201,66.7236],[32.3588,66.7358],[32.2681,66.7523],[32.2048,66.7328],[32.3026,66.715],[32.3991,66.6635],[32.3716,66.6279],[32.2925,66.6122],[32.2797,66.5857],[32.4011,66.5626],[32.4111,66.5436],[32.3191,66.4891],[32.2756,66.4821],[32.4933,66.4915],[32.5345,66.5279],[32.5336,66.5907],[32.5742,66.6021],[32.8271,66.5895],[32.8542,66.6],[33.0667,66.5813],[33.1099,66.5984],[33.1333,66.6438],[33.2562,66.6333],[33.1896,66.6729],[33.0854,66.6687],[32.9292,66.6813],[32.8026,66.7151],[32.7729,66.7312],[32.8021,66.7542],[32.9,66.7271],[32.9099,66.7536],[32.8521,66.775],[32.7646,66.7708],[32.6776,66.7922],[32.7016,66.8078],[32.5375,66.8729],[32.4771,66.8688],[32.4333,66.8833],[32.525,66.9104],[32.5234,66.9557],[32.5646,66.9604],[32.5391,67.0036],[32.4083,67.0375],[32.3276,67.0401],[32.2833,67.0687],[32.3109,67.0839],[32.2557,67.1245],[32.3854,67.1542],[32.45,67.1208],[32.6083,67.1208],[32.6953,67.1036],[32.7542,67.0771],[32.8438,67.0771],[32.7859,67.0234],[32.8464,66.9734],[32.9792,66.8958],[33.0332,66.8886],[33.1787,66.9142],[33.1976,66.9388],[33.3041,67.0072],[33.4529,67.0675],[33.219,67.1268],[33.1049,67.1674],[32.75,67.2788],[32.5538,67.3276],[32.1792,67.4026],[32.0373,67.4124],[31.848,67.4071],[31.7032,67.4087],[31.6482,67.3951],[31.3516,67.2984],[31.2084,67.2195],[31.0673,67.1699],[30.8901,67.0599],[30.8272,67.0698],[30.7607,67.1061],[30.7135,67.1554],[30.6841,67.2092],[30.6145,67.2507],[30.4704,67.3604],[30.3733,67.4127],[30.321,67.4588],[30.2971,67.5191],[30.2998,67.5768],[30.2334,67.6051],[30.0241,67.6463]]]]},"properties":{"GID_0":"RUS","GID_1":"RUS.45_1","GID_2":"RUS.45.2_1","NAME_1":"Murmansk","NAME_2":"Kandalakshagorsovet"}},
{"type":"Feature","geometry":{"type":"Polygon","coordinates":[[[33.8524,67.1555],[33.8954,67.1478],[33.9232,67.1096],[34.0052,67.0912],[34.1391,67.0762],[34.2278,67.035],[34.3248,67.0136],[34.4019,67.0619],[34.4538,67.0824],[34.5079,67.0848],[34.6206,67.0537],[34.6757,67.0515],[34.7171,67.0789],[34.7687,67.1467],[34.7981,67.2856],[34.8237,67.3088],[34.8311,67.4064],[34.86,67.4721],[34.8757,67.5676],[34.8563,67.6078],[34.8057,67.6395],[34.5328,67.7135],[34.468,67.7452],[34.4073,67.8414],[34.2379,67.8853],[34.1192,67.8978],[34.008,67.9217],[33.9188,67.8904],[33.7082,67.8287],[33.6627,67.7621],[33.679,67.7039],[33.7724,67.5695],[33.794,67.4131],[33.8219,67.348],[33.8239,67.2947],[33.8437,67.2322],[33.8524,67.1555]]]},"properties":{"GID_0":"RUS","GID_1":"RUS.45_1","GID_2":"RUS.45.3_1","NAME_1":"Murmansk","NAME_2":"Kirovskgorsovet"}},
{"type":"Feature","geometry":{"type":"Polygon","coordinates":[[[28.7371,68.7685],[28.7161,68.7377],[28.568,68.6255],[28.4504,68.5477],[28.6598,68.1951],[29.1877,68.1027],[29.3361,68.0735],[29.4633,67.9647],[29.5737,67.8777],[29.6945,67.7937],[29.9558,67.7026],[30.0273,67.6824],[30.0279,67.6548],[30.191,67.6443],[30.3313,67.6521],[30.453,67.6654],[30.8191,67.7876],[31.113,67.8672],[31.4108,67.9105],[31.6563,67.9572],[31.8705,68.0283],[31.9906,68.0641],[32.1095,68.1131],[32.2776,68.2127],[32.4257,68.2783],[32.5096,68.2919],[32.8316,68.2948],[32.9837,68.3202],[33.1507,68.3284],[33.3056,68.3427],[33.4701,68.33],[33.6114,68.2699],[33.7573,68.1858],[33.8927,68.1358],[34.0174,68.1067],[34.0446,68.1746],[34.0327,68.2277],[33.9951,68.2931],[33.8857,68.3577],[33.8742,68.4776],[33.8333,68.5212],[33.6715,68.6102],[33.5749,68.6885],[33.6333,68.7418],[33.9632,68.735],[34.1419,68.7261],[34.4838,68.7412],[34.9049,68.7211],[35.0627,68.7104],[35.2351,68.7227],[35.3938,68.7454],[35.5674,68.7518],[35.7087,68.8169],[35.8396,68.9074],[35.7478,68.9465],[35.5505,69.0175],[35.3871,69.0554],[35.2549,68.9779],[35.1331,68.9476],[34.9741,69.0132],[34.7546,69.0767],[34.5411,69.1195],[34.2243,69.2036],[33.9795,69.2498],[33.8709,69.2595],[33.8536,69.2742],[33.8343,69.2684],[33.808,69.2651],[33.6836,69.1636],[33.6172,69.061],[33.6128,69.0367],[33.5255,68.9951],[33.3942,68.9628],[33.2023,68.9374],[33.0276,68.9429],[33.008,68.9439],[32.8387,68.9455],[32.9168,69.0845],[32.9828,69.1094],[33.1248,69.1751],[33.0204,69.2567],[32.9665,69.3214],[32.9332,69.322],[32.8568,69.3037],[32.963,69.3995],[33.0599,69.4359],[32.9917,69.4563],[32.8672,69.4307],[32.8484,69.4495],[32.7396,69.4771],[32.5068,69.4703],[32.5036,69.5036],[32.3984,69.5286],[32.3937,69.5625],[32.3,69.5625],[32.1813,69.5875],[32.0543,69.5845],[31.7301,69.5361],[31.458,69.4902],[31.2261,69.4311],[31.0154,69.3487],[30.822,69.2853],[30.6266,69.1857],[30.4852,69.1068],[30.2541,68.9992],[30.1338,68.9304],[29.9162,68.788],[29.8995,68.7582],[29.7116,68.745],[29.2559,68.7333],[29.0518,68.705],[28.894,68.7092],[28.7763,68.7465],[28.7371,68.7685]],[[29.8372,68.6838],[29.8875,68.7035],[30.0273,68.7126],[30.2149,68.6882],[30.297,68.7061],[30.3504,68.6964],[30.4984,68.7104],[30.5152,68.6869],[30.8049,68.6379],[30.9474,68.624],[31.0104,68.6829],[31.0653,68.6978],[31.1834,68.693],[31.1542,68.6692],[31.1542,68.6233],[31.2498,68.6224],[31.3888,68.6681],[31.5963,68.6385],[31.4719,68.6235],[31.3168,68.5766],[31.1929,68.5453],[31.1103,68.5607],[31.0978,68.5298],[30.9909,68.4834],[31.0298,68.4512],[30.9411,68.406],[30.8653,68.3834],[30.7543,68.4046],[30.7096,68.3926],[30.5396,68.3233],[30.4683,68.2479],[30.4531,68.1579],[30.5824,68.1119],[30.5743,68.0973],[30.3377,68.1083],[30.2353,68.0285],[30.1648,67.9985],[30.1182,68.0074],[30.1696,68.069],[30.1484,68.0889],[30.0001,68.1564],[30.1166,68.1385],[30.2452,68.1104],[30.3106,68.1337],[30.3534,68.1655],[30.3677,68.2391],[30.3156,68.2371],[30.0858,68.2916],[30.0634,68.3117],[30.1383,68.3222],[30.3677,68.2916],[30.4152,68.2986],[30.4984,68.3556],[30.6692,68.4003],[30.7292,68.4381],[30.7397,68.4689],[30.7956,68.4871],[30.8624,68.4869],[30.8688,68.5146],[30.7862,68.5465],[30.8186,68.5735],[30.6264,68.5968],[30.5372,68.6338],[30.403,68.5932],[30.3546,68.6143],[30.3418,68.6573],[30.258,68.6724],[30.1713,68.6512],[30.0171,68.6697],[29.8294,68.669],[29.8372,68.6838]]]},"properties":{"GID_0":"RUS","GID_1":"RUS.45_1","GID_2":"RUS.45.4_1","NAME_1":"Murmansk","NAME_2":"Kol'skiyrayon"}},
{"type":"Feature","geometry":{"type":"Polygon","coordinates":[[[30.0241,67.6463],[30.2334,67.6051],[30.2998,67.5768],[30.2971,67.5191],[30.321,67.4588],[30.3733,67.4127],[30.4704,67.3604],[30.6145,67.2507],[30.6841,67.2092],[30.7135,67.1554],[30.7607,67.1061],[30.8272,67.0698],[30.8901,67.0599],[31.0673,67.1699],[31.2084,67.2195],[31.3516,67.2984],[31.6482,67.3951],[31.8317,67.4405],[32.0815,67.484],[32.1195,67.5013],[32.088,67.5898],[32.1804,67.6985],[32.11,67.7053],[32.0144,67.6959],[31.8381,67.6566],[31.8133,67.6917],[31.83,67.7903],[31.7986,67.852],[31.8093,67.9473],[31.8705,68.0283],[31.6563,67.9572],[31.4108,67.9105],[31.113,67.8672],[30.8191,67.7876],[30.453,67.6654],[30.3313,67.6521],[30.191,67.6443],[30.0279,67.6548],[30.0241,67.6463]]]},"properties":{"GID_0":"RUS","GID_1":"RUS.45_1","GID_2":"RUS.45.5_1","NAME_1":"Murmansk","NAME_2":"Kovdorskiyrayon"}},
{"type":"Feature","geometry":{"type":"MultiPolygon","coordinates":[[[[34.8311,67.4064],[34.8237,67.3088],[34.7981,67.2856],[34.8878,67.2652],[35.1091,67.2912],[35.2507,67.2829],[35.3206,67.2682],[35.4014,67.2333],[35.3926,67.2141],[35.4346,67.181],[35.6835,67.1308],[35.8057,67.0802],[35.823,67.0582],[35.8293,66.97],[35.8715,66.9368],[35.9508,66.9065],[36.0405,66.895],[36.2605,66.9085],[36.3334,66.9189],[36.5615,66.9215],[36.8599,66.8915],[36.9392,66.8653],[36.9789,66.8368],[37.2547,66.8171],[37.4877,66.8222],[37.5848,66.8171],[38.0639,66.7662],[38.2368,66.7306],[38.3379,66.702],[38.5369,66.6189],[38.7067,66.5751],[38.8688,66.5512],[39.036,66.5525],[39.4013,66.5901],[39.7907,66.5899],[39.9822,66.6172],[40.115,66.6263],[40.2741,66.6222],[40.4225,66.5797],[40.4945,66.552],[40.5182,66.5261],[40.5684,66.4852],[40.5714,66.4891],[40.5911,66.5005],[40.6083,66.5021],[40.6417,66.5188],[40.6932,66.5276],[40.7026,66.5787],[40.8266,66.6214],[40.8297,66.6328],[40.9328,66.6734],[41.0021,66.7146],[41.0891,66.7443],[41.2057,66.8172],[41.2432,66.8526],[41.2589,66.9224],[41.2891,66.9359],[41.3063,66.975],[41.3474,66.9922],[41.3536,67.0411],[41.3339,67.0693],[41.387,67.1068],[41.3182,67.1307],[41.3047,67.1495],[41.3516,67.1932],[41.3125,67.2167],[41.2458,67.1979],[41.1396,67.2146],[41.0797,67.2505],[41.1141,67.3214],[41.1068,67.3745],[41.1203,67.4078],[41.0792,67.4479],[40.9755,67.463],[41.0109,67.5089],[40.9641,67.5537],[41.0203,67.5755],[41.037,67.6255],[40.9828,67.6932],[40.8937,67.7312],[40.7875,67.7167],[40.7578,67.7474],[40.7021,67.7562],[40.6542,67.8],[40.5745,67.7984],[40.5641,67.7547],[40.5083,67.7354],[40.4193,67.7568],[40.3849,67.7891],[40.287,67.8349],[40.3604,67.8417],[40.3995,67.8641],[40.337,67.8953],[40.2792,67.8938],[40.088,67.9609],[40.0604,67.9875],[40.0109,67.9838],[39.8953,68.0995],[39.8495,68.1245],[39.7953,68.1099],[39.8599,68.0432],[39.7729,68.025],[39.6443,68.0474],[39.5812,68.0313],[39.3771,68.1042],[39.2411,68.162],[39.1417,68.1937],[38.988,68.2318],[38.9276,68.2589],[38.8943,68.2922],[38.7568,68.3172],[38.6437,68.3729],[38.4943,68.3495],[38.5109,68.3318],[38.6354,68.3],[38.6854,68.3021],[38.7255,68.263],[38.5396,68.3104],[38.4484,68.3432],[38.5036,68.3651],[38.3932,68.3807],[38.3453,68.4057],[38.15,68.4771],[38.0911,68.487],[38.062,68.5203],[38.0193,68.5286],[37.9745,68.5703],[37.8328,68.613],[37.7642,68.6514],[37.5861,68.5969],[37.4287,68.5632],[37.3547,68.5387],[37.2582,68.5288],[37.1725,68.5513],[36.9905,68.6385],[36.8764,68.6728],[36.7118,68.7117],[36.4362,68.7453],[36.3097,68.766],[36.0916,68.8247],[35.925,68.8748],[35.8396,68.9074],[35.7087,68.8169],[35.5674,68.7518],[35.3938,68.7454],[35.2351,68.7227],[35.0627,68.7104],[34.9049,68.7211],[34.4838,68.7412],[34.1419,68.7261],[33.9632,68.735],[33.6333,68.7418],[33.5749,68.6885],[33.6715,68.6102],[33.8333,68.5212],[33.8742,68.4776],[33.8857,68.3577],[33.9951,68.2931],[34.0327,68.2277],[34.0446,68.1746],[34.0174,68.1067],[33.9851,67.9687],[34.008,67.9217],[34.1192,67.8978],[34.2379,67.8853],[34.4073,67.8414],[34.468,67.7452],[34.5328,67.7135],[34.8057,67.6395],[34.8563,67.6078],[34.8757,67.5676],[34.86,67.4721],[34.8311,67.4064]]],[[[40.5432,67.8328],[40.463,67.8234],[40.4896,67.8021],[40.5474,67.8026],[40.5432,67.8328]]]]},"properties":{"GID_0":"RUS","GID_1":"RUS.45_1","GID_2":"RUS.45.6_1","NAME_1":"Murmansk","NAME_2":"Levozerskiyrayon"}},
{"type":"Feature","geometry":{"type":"Polygon","coordinates":[[[32.8879,67.6845],[32.9023,67.7072],[32.9484,67.7346],[33.0824,67.685],[33.099,67.7157],[33.0276,67.7619],[33.071,67.7943],[33.0057,67.8034],[32.9206,67.7864],[32.8565,67.83],[32.9556,67.8347],[32.9821,67.823],[33.096,67.8363],[33.1314,67.8576],[33.0733,67.9049],[32.9396,67.9414],[32.7697,68.0118],[32.7551,68.0375],[32.8365,68.1198],[32.739,68.1871],[32.7892,68.2023],[32.8827,68.1262],[32.8852,68.0451],[32.9074,68.0036],[32.9599,67.9806],[33.143,67.939],[33.1528,67.9854],[33.1884,68.047],[33.1759,68.0595],[32.9365,68.1302],[32.9679,68.2162],[33.0298,68.2853],[32.9837,68.3202],[32.8316,68.2948],[32.5096,68.2919],[32.4257,68.2783],[32.2776,68.2127],[32.1095,68.1131],[31.9906,68.0641],[31.8705,68.0283],[31.8093,67.9473],[31.7986,67.852],[31.83,67.7903],[31.8133,67.6917],[31.8381,67.6566],[32.0144,67.6959],[32.11,67.7053],[32.1804,67.6985],[32.2694,67.6964],[32.565,67.6736],[32.8879,67.6845]]]},"properties":{"GID_0":"RUS","GID_1":"RUS.45_1","GID_2":"RUS.45.7_1","NAME_1":"Murmansk","NAME_2":"Monchegorskgorsovet"}},
{"type":"Feature","geometry":{"type":"MultiPolygon","coordinates":[[[[32.9611,68.9611],[33.0328,68.9776],[33.0151,69.012],[33.0394,69.0551],[32.9305,69.0298],[32.917,68.9774],[32.9611,68.9611]]],[[[33.2555,69.0589],[33.1521,69.0604],[33.0797,69.0516],[33.0505,68.9693],[33.1329,68.9756],[33.2247,68.9634],[33.312,69.0011],[33.2555,69.0589]]]]},"properties":{"GID_0":"RUS","GID_1":"RUS.45_1","GID_2":"RUS.45.8_1","NAME_1":"Murmansk","NAME_2":"Murmansk"}},
{"type":"Feature","geometry":{"type":"MultiPolygon","coordinates":[[[[32.8387,68.9455],[33.008,68.9439],[32.9611,68.9611],[32.917,68.9774],[32.9305,69.0298],[33.0394,69.0551],[33.0679,69.0667],[33.0237,69.0828],[32.9168,69.0845],[32.8387,68.9455]]],[[[33.0276,68.9429],[33.2023,68.9374],[33.3942,68.9628],[33.5255,68.9951],[33.6128,69.0367],[33.5485,69.0654],[33.4646,69.0864],[33.3542,69.0813],[33.2555,69.0589],[33.312,69.0011],[33.2247,68.9634],[33.1329,68.9756],[33.0505,68.9693],[33.0276,68.9429]]],[[[33.3943,69.1197],[33.2521,69.1306],[33.1462,69.1],[33.1146,69.075],[33.2771,69.0854],[33.3943,69.1197]]]]},"properties":{"GID_0":"RUS","GID_1":"RUS.45_1","GID_2":"RUS.45.9_1","NAME_1":"Murmansk","NAME_2":"Murmanskgorod"}},
{"type":"Feature","geometry":{"type":"Polygon","coordinates":[[[33.7082,67.8287],[33.9188,67.8904],[34.008,67.9217],[33.9851,67.9687],[34.0174,68.1067],[33.8927,68.1358],[33.7573,68.1858],[33.6114,68.2699],[33.4701,68.33],[33.3056,68.3427],[33.1507,68.3284],[32.9837,68.3202],[33.0298,68.2853],[32.9679,68.2162],[32.9365,68.1302],[33.1759,68.0595],[33.1884,68.047],[33.1528,67.9854],[33.143,67.939],[33.2231,67.979],[33.2596,67.9731],[33.3111,68.0165],[33.3003,68.0375],[33.3776,68.0556],[33.3655,68.0143],[33.3942,67.9702],[33.3198,67.9201],[33.2027,67.8243],[33.2177,67.7181],[33.3461,67.7259],[33.5349,67.7687],[33.7082,67.8287]]]},"properties":{"GID_0":"RUS","GID_1":"RUS.45_1","GID_2":"RUS.45.10_1","NAME_1":"Murmansk","NAME_2":"Olenegorskgorsovet"}},
{"type":"Feature","geometry":{"type":"Polygon","coordinates":[[[32.0543,69.5845],[32.0286,69.6078],[32.1453,69.6922],[32.1609,69.638],[32.2479,69.6229],[32.4339,69.6214],[32.5062,69.6],[32.6333,69.5854],[32.7625,69.5813],[32.8312,69.5667],[32.9542,69.5833],[33.0068,69.6141],[33.0995,69.6464],[33.0776,69.6703],[33.1068,69.7234],[33.0297,69.7359],[32.9208,69.7729],[32.7562,69.7792],[32.6896,69.7917],[32.6521,69.775],[32.5167,69.7937],[32.5161,69.8328],[32.3187,69.8833],[32.2417,69.8875],[32.2224,69.9057],[32.0583,69.9437],[31.9193,69.9495],[31.8901,69.9047],[31.9521,69.8938],[31.9849,69.8651],[31.9443,69.8526],[32.0203,69.8287],[32.0911,69.763],[31.9651,69.7797],[31.7938,69.8292],[31.713,69.7974],[31.7182,69.7401],[31.6818,69.7068],[31.7578,69.687],[31.7224,69.6682],[31.5214,69.6797],[31.4807,69.6734],[31.3182,69.7307],[31.1063,69.7646],[30.8833,69.7896],[30.8599,69.7643],[30.8785,69.717],[30.9313,69.6868],[30.9456,69.5862],[30.9004,69.5616],[30.8201,69.5417],[30.5275,69.5443],[30.3658,69.6171],[30.195,69.6661],[30.1522,69.6371],[30.1919,69.5351],[30.1547,69.5252],[30.1099,69.4627],[29.9861,69.4133],[29.8304,69.4187],[29.6166,69.334],[29.5437,69.3163],[29.3904,69.3177],[29.3149,69.3028],[29.2947,69.2501],[29.3273,69.2428],[29.3026,69.172],[29.2589,69.1198],[29.1856,69.0734],[29.0938,69.0322],[29.0083,69.0369],[28.9269,69.0574],[28.4347,68.9084],[28.4916,68.885],[28.6759,68.8871],[28.8035,68.8749],[28.7371,68.7685],[28.7763,68.7465],[28.894,68.7092],[29.0518,68.705],[29.2559,68.7333],[29.7116,68.745],[29.8995,68.7582],[29.9162,68.788],[30.1338,68.9304],[30.2541,68.9992],[30.4852,69.1068],[30.6266,69.1857],[30.822,69.2853],[31.0154,69.3487],[31.2261,69.4311],[31.458,69.4902],[31.7301,69.5361],[32.0543,69.5845]]]},"properties":{"GID_0":"RUS","GID_1":"RUS.45_1","GID_2":"RUS.45.11_1","NAME_1":"Murmansk","NAME_2":"Pechengskiyrayon"}},
{"type":"Feature","geometry":{"type":"Polygon","coordinates":[[[32.6074,67.4144],[32.6068,67.4299],[32.5514,67.4418],[32.4898,67.4434],[32.3371,67.4154],[32.2701,67.3878],[32.5264,67.3339],[32.6074,67.4144]]]},"properties":{"GID_0":"RUS","GID_1":"RUS.45_1","GID_2":"RUS.45.12_1","NAME_1":"Murmansk","NAME_2":"Polyarnye"}},
{"type":"Feature","geometry":{"type":"Polygon","coordinates":[[[33.1248,69.1751],[32.9828,69.1094],[32.9168,69.0845],[33.0237,69.0828],[33.0679,69.0667],[33.1146,69.075],[33.1462,69.1],[33.2521,69.1306],[33.3943,69.1197],[33.4172,69.1432],[33.4807,69.1578],[33.4932,69.1839],[33.462,69.2484],[33.3937,69.2708],[33.3974,69.2911],[33.4766,69.3078],[33.4932,69.3453],[33.45,69.3667],[33.5036,69.4016],[33.4125,69.4146],[33.2021,69.4125],[33.112,69.4234],[33.0292,69.4083],[32.9422,69.3516],[32.9332,69.322],[32.9665,69.3214],[33.0204,69.2567],[33.1248,69.1751]],[[33.4086,69.1738],[33.4228,69.1842],[33.4736,69.174],[33.4086,69.1738]]]},"properties":{"GID_0":"RUS","GID_1":"RUS.45_1","GID_2":"RUS.45.13_1","NAME_1":"Murmansk","NAME_2":"Polyarnyegorsovet"}},
{"type":"Feature","geometry":{"type":"Polygon","coordinates":[[[33.4736,69.174],[33.4228,69.1842],[33.4086,69.1738],[33.4736,69.174]]]},"properties":{"GID_0":"RUS","GID_1":"RUS.45_1","GID_2":"RUS.45.14_1","NAME_1":"Murmansk","NAME_2":"PolyarnyeZori"}},
{"type":"Feature","geometry":{"type":"MultiPolygon","coordinates":[[[[33.8536,69.2742],[33.8709,69.2595],[33.9795,69.2498],[34.2243,69.2036],[34.5411,69.1195],[34.7546,69.0767],[34.9741,69.0132],[35.1331,68.9476],[35.2549,68.9779],[35.3871,69.0554],[35.5505,69.0175],[35.7478,68.9465],[35.8396,68.9074],[35.925,68.8748],[36.0916,68.8247],[36.3097,68.766],[36.4362,68.7453],[36.7118,68.7117],[36.8764,68.6728],[36.9905,68.6385],[37.1725,68.5513],[37.2582,68.5288],[37.3547,68.5387],[37.4287,68.5632],[37.5861,68.5969],[37.7642,68.6514],[37.6318,68.6901],[37.5604,68.7229],[37.4359,68.738],[37.3792,68.7729],[37.2307,68.8099],[37.1875,68.8333],[37.0193,68.8672],[36.9625,68.8917],[36.8172,68.9234],[36.6937,68.9771],[36.5495,69.0005],[36.4729,69.0271],[36.3958,69.0313],[36.3068,69.0609],[36.2813,69.0979],[36.1188,69.1146],[36.0583,69.1354],[35.9214,69.1484],[35.8828,69.1766],[35.825,69.1896],[35.7708,69.1771],[35.6354,69.2063],[35.5854,69.2],[35.5333,69.2229],[35.3776,69.2266],[35.3167,69.2479],[35.2438,69.2521],[35.1609,69.2401],[35.287,69.2026],[35.2526,69.1891],[35.0521,69.2125],[34.9521,69.2021],[34.8812,69.2229],[34.7875,69.225],[34.7396,69.2375],[34.5229,69.2604],[34.4917,69.2521],[34.3974,69.287],[34.1063,69.3063],[33.9562,69.3104],[33.8307,69.2932],[33.8536,69.2742]]],[[[33.6128,69.0367],[33.6172,69.061],[33.6836,69.1636],[33.808,69.2651],[33.8343,69.2684],[33.7432,69.3005],[33.5958,69.3],[33.5505,69.2828],[33.563,69.2172],[33.5875,69.1917],[33.5693,69.1661],[33.4891,69.1214],[33.4401,69.1068],[33.4646,69.0864],[33.5485,69.0654],[33.6128,69.0367]]],[[[34.1479,69.3833],[34.0667,69.3854],[34.0026,69.3724],[33.9609,69.3443],[34.1292,69.3229],[34.1625,69.3104],[34.2542,69.3208],[34.3667,69.3146],[34.4099,69.3339],[34.2708,69.3646],[34.1479,69.3833]]]]},"properties":{"GID_0":"RUS","GID_1":"RUS.45_1","GID_2":"RUS.45.15_1","NAME_1":"Murmansk","NAME_2":"Severomorskgorsovet"}},
{"type":"Feature","geometry":{"type":"Polygon","coordinates":[[[33.8524,67.1555],[33.762,67.1285],[33.6176,67.0963],[33.4529,67.0675],[33.3041,67.0072],[33.1976,66.9388],[33.1787,66.9142],[33.0332,66.8886],[33.1057,66.8641],[33.1672,66.8214],[33.2708,66.8],[33.4375,66.7375],[33.5271,66.7146],[33.6411,66.737],[33.5818,66.7609],[33.5464,66.8099],[33.6901,66.8047],[33.7276,66.7714],[33.8078,66.7578],[33.8234,66.7172],[33.8943,66.7151],[33.9167,66.6875],[34.025,66.6854],[34.1005,66.6734],[34.1693,66.6818],[34.2313,66.6646],[34.3167,66.6604],[34.462,66.6328],[34.3693,66.6224],[34.3901,66.5839],[34.475,66.5375],[34.5417,66.5396],[34.6703,66.5589],[34.7292,66.5979],[34.9042,66.5938],[35.0797,66.5151],[35.1563,66.5021],[35.2,66.4688],[35.3245,66.4641],[35.3505,66.4213],[35.6063,66.3771],[35.6833,66.3771],[35.8187,66.3542],[35.9104,66.3542],[36.1208,66.3313],[36.1604,66.3208],[36.2958,66.3083],[36.3646,66.2937],[36.5062,66.2771],[36.7792,66.2813],[37.0146,66.2583],[37.1833,66.2354],[37.2438,66.2188],[37.4167,66.1875],[37.5313,66.1563],[37.5625,66.1354],[37.7208,66.1062],[37.7833,66.1083],[37.8729,66.0875],[38.0271,66.0854],[38.1688,66.0771],[38.2438,66.0604],[38.4021,66.0563],[38.4313,66.0625],[38.6813,66.0646],[38.7625,66.0708],[38.8792,66.1021],[39.0458,66.1062],[39.1188,66.1021],[39.188,66.1266],[39.3,66.1521],[39.4208,66.1667],[39.4729,66.1833],[39.6354,66.1958],[39.7896,66.2146],[39.8401,66.2328],[40.0021,66.2542],[40.0932,66.288],[40.1776,66.3349],[40.2818,66.3745],[40.3854,66.3833],[40.562,66.4505],[40.5703,66.4849],[40.5182,66.5261],[40.4945,66.552],[40.4225,66.5797],[40.2741,66.6222],[40.115,66.6263],[39.9822,66.6172],[39.7907,66.5899],[39.4013,66.5901],[39.036,66.5525],[38.8688,66.5512],[38.7067,66.5751],[38.5369,66.6189],[38.3379,66.702],[38.2368,66.7306],[38.0639,66.7662],[37.5848,66.8171],[37.4877,66.8222],[37.2547,66.8171],[36.9789,66.8368],[36.9392,66.8653],[36.8599,66.8915],[36.5615,66.9215],[36.3334,66.9189],[36.2605,66.9085],[36.0405,66.895],[35.9508,66.9065],[35.8715,66.9368],[35.8293,66.97],[35.823,67.0582],[35.8057,67.0802],[35.6835,67.1308],[35.4346,67.181],[35.3926,67.2141],[35.4014,67.2333],[35.3206,67.2682],[35.2507,67.2829],[35.1091,67.2912],[34.8878,67.2652],[34.7981,67.2856],[34.7687,67.1467],[34.7171,67.0789],[34.6757,67.0515],[34.6206,67.0537],[34.5079,67.0848],[34.4538,67.0824],[34.4019,67.0619],[34.3248,67.0136],[34.2278,67.035],[34.1391,67.0762],[34.0052,67.0912],[33.9232,67.1096],[33.8954,67.1478],[33.8524,67.1555]]]},"properties":{"GID_0":"RUS","GID_1":"RUS.45_1","GID_2":"RUS.45.16_1","NAME_1":"Murmansk","NAME_2":"Terskiyrayon"}},
{"type":"Feature","geometry":{"type":"MultiPolygon","coordinates":[[[[31.3568,66.6512],[31.3474,66.632],[31.4602,66.6378],[31.5258,66.6663],[31.7107,66.7251],[31.9756,66.7288],[32.0305,66.7168],[32.0297,66.658],[32.1487,66.6276],[32.1589,66.6085],[32.1026,66.5748],[32.1884,66.5433],[32.1704,66.5138],[32.219,66.4863],[32.1267,66.4814],[32.0423,66.4998],[31.9861,66.4909],[31.9087,66.5074],[31.8477,66.495],[31.8944,66.4726],[31.971,66.4564],[32.1886,66.4679],[32.3575,66.4304],[32.4112,66.4434],[32.2756,66.4821],[32.3191,66.4891],[32.4111,66.5436],[32.4011,66.5626],[32.2797,66.5857],[32.2925,66.6122],[32.3716,66.6279],[32.3991,66.6635],[32.3026,66.715],[32.2048,66.7328],[32.2681,66.7523],[32.3588,66.7358],[32.5201,66.7236],[32.5694,66.6952],[32.684,66.7178],[32.5704,66.7536],[32.5167,66.7538],[32.4615,66.792],[32.2816,66.8125],[32.3614,66.849],[32.2998,66.8633],[32.183,66.8305],[32.1212,66.8317],[32.0267,66.8188],[31.9803,66.829],[31.9652,66.8661],[32.0548,66.8887],[32.1343,66.9388],[32.0972,66.9556],[31.997,66.9057],[31.9156,66.8812],[31.8511,66.8737],[31.7412,66.8837],[31.7172,66.8548],[31.6596,66.8585],[31.6032,66.8365],[31.6798,66.8245],[31.8113,66.8354],[31.9445,66.8072],[31.8995,66.7789],[31.6003,66.8073],[31.6747,66.7747],[31.5749,66.7576],[31.5505,66.7289],[31.3734,66.6689],[31.3568,66.6512]]],[[[33.2707,67.6678],[33.2177,67.7181],[33.2027,67.8243],[33.3198,67.9201],[33.3942,67.9702],[33.3655,68.0143],[33.3776,68.0556],[33.3003,68.0375],[33.3111,68.0165],[33.2596,67.9731],[33.2231,67.979],[33.143,67.939],[32.9599,67.9806],[32.9074,68.0036],[32.8852,68.0451],[32.8827,68.1262],[32.7892,68.2023],[32.739,68.1871],[32.8365,68.1198],[32.7551,68.0375],[32.7697,68.0118],[32.9396,67.9414],[33.0733,67.9049],[33.1314,67.8576],[33.096,67.8363],[32.9821,67.823],[32.9556,67.8347],[32.8565,67.83],[32.9206,67.7864],[33.0057,67.8034],[33.071,67.7943],[33.0276,67.7619],[33.099,67.7157],[33.0824,67.685],[32.9484,67.7346],[32.9023,67.7072],[32.8808,67.6732],[32.9146,67.6598],[33.0135,67.6508],[33.0587,67.6298],[33.0465,67.6022],[32.919,67.6146],[32.8285,67.6076],[32.8017,67.6322],[32.7297,67.6155],[32.7725,67.587],[32.6817,67.5793],[32.57,67.5238],[32.3698,67.545],[32.3523,67.5274],[32.5015,67.4882],[32.4877,67.4653],[32.5586,67.448],[32.6093,67.4311],[32.6542,67.4113],[32.6659,67.4389],[32.7762,67.459],[32.6668,67.5085],[32.7026,67.5302],[32.8816,67.5235],[32.9122,67.5417],[33.0595,67.5284],[33.076,67.5107],[33.2142,67.4637],[33.2147,67.5118],[33.3007,67.549],[33.1478,67.5876],[33.1543,67.6122],[33.2172,67.6563],[33.2707,67.6678]]],[[[29.8372,68.6838],[29.8294,68.669],[30.0171,68.6697],[30.1713,68.6512],[30.258,68.6724],[30.3418,68.6573],[30.3546,68.6143],[30.403,68.5932],[30.5372,68.6338],[30.6264,68.5968],[30.8186,68.5735],[30.7862,68.5465],[30.8688,68.5146],[30.8624,68.4869],[30.7956,68.4871],[30.7397,68.4689],[30.7292,68.4381],[30.6692,68.4003],[30.4984,68.3556],[30.4152,68.2986],[30.3677,68.2916],[30.1383,68.3222],[30.0634,68.3117],[30.0858,68.2916],[30.3156,68.2371],[30.3677,68.2391],[30.3534,68.1655],[30.3106,68.1337],[30.2452,68.1104],[30.1166,68.1385],[30.0001,68.1564],[30.1484,68.0889],[30.1696,68.069],[30.1182,68.0074],[30.1648,67.9985],[30.2353,68.0285],[30.3377,68.1083],[30.5743,68.0973],[30.5824,68.1119],[30.4531,68.1579],[30.4683,68.2479],[30.5396,68.3233],[30.7096,68.3926],[30.7543,68.4046],[30.8653,68.3834],[30.9411,68.406],[31.0298,68.4512],[30.9909,68.4834],[31.0978,68.5298],[31.1103,68.5607],[31.1929,68.5453],[31.3168,68.5766],[31.4719,68.6235],[31.5963,68.6385],[31.3888,68.6681],[31.2498,68.6224],[31.1542,68.6233],[31.1542,68.6692],[31.1834,68.693],[31.0653,68.6978],[31.0104,68.6829],[30.9474,68.624],[30.8049,68.6379],[30.5152,68.6869],[30.4984,68.7104],[30.3504,68.6964],[30.297,68.7061],[30.2149,68.6882],[30.0273,68.7126],[29.8875,68.7035],[29.8372,68.6838]]]]},"properties":{"GID_0":"RUS","GID_1":"RUS.45_1","GID_2":"RUS.45.17_1","NAME_1":"Murmansk","NAME_2":"Waterbody"}}
]}