{"type":"FeatureCollection", "features": [
{"type":"Feature","geometry":{"type":"Polygon","coordinates":[[[103.2908,53.4981],[102.9762,53.6634],[102.5572,53.5967],[102.0476,53.2276],[102.5855,53.0348],[102.7636,53.218],[103.2375,53.2124],[103.2908,53.4981]]]},"properties":{"GID_0":"RUS","GID_1":"RUS.18_1","GID_2":"RUS.18.1_1","NAME_1":"Irkutsk","NAME_2":"Alarskiyrayon"}},
{"type":"Feature","geometry":{"type":"Polygon","coordinates":[[[103.8155,52.5356],[103.821,52.5563],[103.7887,52.5538],[103.7907,52.5365],[103.8155,52.5356]]]},"properties":{"GID_0":"RUS","GID_1":"RUS.18_1","GID_2":"RUS.18.2_1","NAME_1":"Irkutsk","NAME_2":"Angarsk"}},
{"type":"Feature","geometry":{"type":"Polygon","coordinates":[[[104.3547,53.031],[103.8224,53.0117],[103.7868,52.7164],[103.6911,52.4948],[103.9774,52.4946],[104.3957,52.7414],[104.3547,53.031]],[[103.8155,52.5356],[103.7907,52.5365],[103.7887,52.5538],[103.821,52.5563],[103.8155,52.5356]]]},"properties":{"GID_0":"RUS","GID_1":"RUS.18_1","GID_2":"RUS.18.3_1","NAME_1":"Irkutsk","NAME_2":"Angarskiyrayon"}},
{"type":"Feature","geometry":{"type":"Polygon","coordinates":[[[102.3862,55.0425],[102.3841,54.8246],[102.1412,54.6522],[102.3163,54.4684],[102.47,54.2356],[102.3955,54.008],[102.7934,54.035],[103.0019,53.8439],[103.0861,53.8441],[102.8578,54.1748],[102.9382,54.85],[103.2517,55.1903],[103.0872,55.437],[102.5142,55.3042],[102.3862,55.0425]]]},"properties":{"GID_0":"RUS","GID_1":"RUS.18_1","GID_2":"RUS.18.4_1","NAME_1":"Irkutsk","NAME_2":"Balaganskiyrayon"}},
{"type":"Feature","geometry":{"type":"Polygon","coordinates":[[[106.0609,53.2467],[105.8383,53.4472],[105.0252,53.4573],[105.2142,53.2866],[105.1682,52.9683],[104.9895,52.7481],[105.3867,52.7459],[105.4651,52.7461],[105.6555,52.9733],[106.0609,53.2467]]]},"properties":{"GID_0":"RUS","GID_1":"RUS.18_1","GID_2":"RUS.18.5_1","NAME_1":"Irkutsk","NAME_2":"Bayandayevskiyrayon"}},
{"type":"Feature","geometry":{"type":"Polygon","coordinates":[[[113.4815,56.6749],[113.9799,56.5574],[114.1571,56.7015],[114.7655,56.7168],[115.0759,57.1175],[116.1222,57.1201],[115.8029,56.9581],[116.138,56.8327],[116.9767,56.7939],[117.2621,56.9653],[117.5806,56.8976],[117.6223,57.33],[117.3217,57.3471],[117.2037,57.5304],[117.4632,58.33],[117.7855,58.424],[118.297,58.3374],[118.6365,58.1774],[119.0888,58.2241],[119.0755,58.4875],[118.7645,58.5946],[118.8167,58.8021],[118.6895,59.198],[118.7392,59.413],[118.0306,59.5984],[117.9226,59.4409],[117.1483,59.5317],[117.0599,60.0124],[116.4956,60.3545],[115.6744,60.5242],[115.224,60.4752],[115.0459,60.2676],[114.6947,60.1817],[114.5459,59.9512],[113.8228,59.5987],[113.9357,59.2084],[113.8189,58.9576],[113.8974,58.7362],[113.6258,58.1579],[113.3051,58.0571],[113.0512,57.6176],[113.111,57.4297],[113.4863,57.4011],[113.4141,57.1213],[113.4815,56.6749]],[[114.202,57.9317],[114.1508,57.9331],[114.1741,57.9525],[114.202,57.9317]]]},"properties":{"GID_0":"RUS","GID_1":"RUS.18_1","GID_2":"RUS.18.6_1","NAME_1":"Irkutsk","NAME_2":"Bodaybinskiyrayon"}},
{"type":"Feature","geometry":{"type":"Polygon","coordinates":[[[114.202,57.9317],[114.1741,57.9525],[114.1508,57.9331],[114.202,57.9317]]]},"properties":{"GID_0":"RUS","GID_1":"RUS.18_1","GID_2":"RUS.18.7_1","NAME_1":"Irkutsk","NAME_2":"Bodaybo"}},
{"type":"Feature","geometry":{"type":"Polygon","coordinates":[[[103.2375,53.2124],[103.3093,53.0024],[103.7868,52.7164],[103.8224,53.0117],[104.3547,53.031],[104.5859,53.1337],[104.7572,53.4139],[104.6889,53.4238],[104.354,53.371],[104.0959,53.2131],[103.5177,53.3715],[103.2908,53.4981],[103.2375,53.2124]]]},"properties":{"GID_0":"RUS","GID_1":"RUS.18_1","GID_2":"RUS.18.8_1","NAME_1":"Irkutsk","NAME_2":"Bokhanskiyrayon"}},
{"type":"Feature","geometry":{"type":"Polygon","coordinates":[[[101.7274,56.1841],[101.6886,56.2493],[101.6018,56.239],[101.5783,56.1805],[101.7274,56.1841]]]},"properties":{"GID_0":"RUS","GID_1":"RUS.18_1","GID_2":"RUS.18.9_1","NAME_1":"Irkutsk","NAME_2":"Bratsk"}},
{"type":"Feature","geometry":{"type":"Polygon","coordinates":[[[103.0872,55.437],[103.3573,55.511],[103.2024,56.0711],[102.9719,56.2],[102.5919,56.2028],[102.6753,56.6752],[102.495,56.7433],[100.8761,56.8979],[100.4598,56.8624],[100.0188,56.6987],[100.0797,56.5035],[100.4941,56.3749],[100.6479,55.8577],[100.527,55.7274],[100.069,55.6307],[100.0018,55.0451],[100.864,55.044],[101.1458,54.9699],[101.3685,55.1688],[102.3862,55.0425],[102.5142,55.3042],[103.0872,55.437]],[[101.7274,56.1841],[101.5783,56.1805],[101.6018,56.239],[101.6886,56.2493],[101.7274,56.1841]]]},"properties":{"GID_0":"RUS","GID_1":"RUS.18_1","GID_2":"RUS.18.10_1","NAME_1":"Irkutsk","NAME_2":"Bratskiyrayon"}},
{"type":"Feature","geometry":{"type":"Polygon","coordinates":[[[103.1291,53.0893],[103.1206,53.1197],[103.0566,53.12],[103.059,53.0876],[103.1291,53.0893]]]},"properties":{"GID_0":"RUS","GID_1":"RUS.18_1","GID_2":"RUS.18.11_1","NAME_1":"Irkutsk","NAME_2":"Cheremkhovo"}},
{"type":"Feature","geometry":{"type":"Polygon","coordinates":[[[102.3753,52.2602],[102.6204,52.3952],[102.7677,52.639],[103.3093,53.0024],[103.2375,53.2124],[102.7636,53.218],[102.5855,53.0348],[102.0476,53.2276],[101.8142,53.0077],[101.4028,53.0154],[101.0148,52.786],[101.3833,52.6361],[101.6473,52.403],[102.0176,52.2338],[102.3753,52.2602]],[[103.1291,53.0893],[103.059,53.0876],[103.0566,53.12],[103.1206,53.1197],[103.1291,53.0893]]]},"properties":{"GID_0":"RUS","GID_1":"RUS.18_1","GID_2":"RUS.18.12_1","NAME_1":"Irkutsk","NAME_2":"Cheremkhovskiyrayon"}},
{"type":"Feature","geometry":{"type":"Polygon","coordinates":[[[100.4598,56.8624],[100.69,57.0365],[100.6275,57.2039],[100.792,57.4818],[100.3441,57.5502],[100.2571,57.8155],[99.9314,58.0902],[99.5624,58.0738],[99.362,57.8016],[98.8379,57.7302],[98.8782,57.3076],[98.5468,57.0942],[98.5603,56.0962],[98.6784,55.9905],[99.0253,55.7528],[99.7081,55.6252],[100.069,55.6307],[100.527,55.7274],[100.6479,55.8577],[100.4941,56.3749],[100.0797,56.5035],[100.0188,56.6987],[100.4598,56.8624]]]},"properties":{"GID_0":"RUS","GID_1":"RUS.18_1","GID_2":"RUS.18.13_1","NAME_1":"Irkutsk","NAME_2":"Chunskiyrayon"}},
{"type":"Feature","geometry":{"type":"Polygon","coordinates":[[[104.3957,52.7414],[104.9337,52.4359],[105.2795,52.6278],[105.3867,52.7459],[104.9895,52.7481],[105.1682,52.9683],[105.2142,53.2866],[105.0252,53.4573],[104.7572,53.4139],[104.5859,53.1337],[104.3547,53.031],[104.3957,52.7414]]]},"properties":{"GID_0":"RUS","GID_1":"RUS.18_1","GID_2":"RUS.18.14_1","NAME_1":"Irkutsk","NAME_2":"Ekhirit-Bulagatskiyrayon"}},
{"type":"Feature","geometry":{"type":"Polygon","coordinates":[[[104.2443,52.3084],[104.2688,52.3398],[104.1916,52.3586],[104.1888,52.3083],[104.2443,52.3084]]]},"properties":{"GID_0":"RUS","GID_1":"RUS.18_1","GID_2":"RUS.18.15_1","NAME_1":"Irkutsk","NAME_2":"Irkutsk"}},
{"type":"Feature","geometry":{"type":"Polygon","coordinates":[[[103.6911,52.4948],[103.4392,52.4215],[103.5734,52.2003],[103.3994,51.8992],[104.0828,51.8374],[104.1014,51.9725],[104.7858,51.8958],[104.8792,51.8397],[105.48,52.0469],[105.8831,52.496],[105.968,52.5227],[105.2795,52.6278],[104.9337,52.4359],[104.3957,52.7414],[103.9774,52.4946],[103.6911,52.4948]],[[104.2443,52.3084],[104.1888,52.3083],[104.1916,52.3586],[104.2688,52.3398],[104.2443,52.3084]],[[104.0719,52.1854],[104.0917,52.199],[104.1295,52.1889],[104.0817,52.1698],[104.0719,52.1854]]]},"properties":{"GID_0":"RUS","GID_1":"RUS.18_1","GID_2":"RUS.18.16_1","NAME_1":"Irkutsk","NAME_2":"Irkutskiyrayon"}},
{"type":"Feature","geometry":{"type":"Polygon","coordinates":[[[108.6,54.6359],[108.1697,54.8576],[107.4837,54.9341],[107.248,54.8702],[106.4692,54.9473],[105.9769,54.7943],[105.8328,54.4725],[104.7815,54.2359],[104.9301,53.9],[104.2487,53.8307],[104.3439,53.6097],[104.6889,53.4238],[104.7572,53.4139],[105.0252,53.4573],[105.8383,53.4472],[106.0609,53.2467],[106.4838,53.3],[106.8147,53.4523],[107.2841,53.4846],[107.6475,53.8433],[108.1452,53.909],[108.5256,54.4856],[108.6,54.6359]]]},"properties":{"GID_0":"RUS","GID_1":"RUS.18_1","GID_2":"RUS.18.17_1","NAME_1":"Irkutsk","NAME_2":"Kachugskiyrayon"}},
{"type":"Feature","geometry":{"type":"Polygon","coordinates":[[[109.5251,59.0574],[109.1965,59.3173],[109.9173,60.463],[110.2581,60.6752],[110.5443,61.0962],[109.8097,61.3029],[109.8515,61.5249],[109.5705,61.8061],[109.9993,62.1446],[109.8862,62.3849],[109.4462,62.3733],[109.322,62.5312],[109.683,62.7756],[109.5034,62.9335],[109.4319,63.3356],[109.1,63.5018],[108.1978,63.552],[108.3602,63.7499],[108.7653,63.7622],[108.839,63.9427],[108.4198,64.0408],[106.7595,63.7929],[106.5251,63.4844],[106.7431,63.3234],[106.1746,63.0229],[106.2037,62.9006],[106.8076,62.5779],[106.367,62.2339],[106.3585,62.0062],[105.8864,61.7926],[105.9473,61.664],[104.8946,61.3247],[105.0132,61.1888],[104.5558,60.9861],[104.4767,60.6029],[104.8091,60.3655],[105.4343,60.2648],[105.4067,59.9306],[104.7364,59.6728],[105.2775,59.2306],[105.301,59.1011],[104.7336,58.8741],[104.8043,58.7181],[104.6046,57.9047],[105.0702,57.6157],[105.5045,57.6662],[105.6238,58.0733],[105.8883,58.0458],[106.9711,58.1954],[107.3427,58.397],[107.4797,58.7395],[108.3421,58.1999],[108.5519,58.4025],[108.6718,58.8939],[109.0905,58.8984],[109.5251,59.0574]]]},"properties":{"GID_0":"RUS","GID_1":"RUS.18_1","GID_2":"RUS.18.18_1","NAME_1":"Irkutsk","NAME_2":"Katangskiyrayon"}},
{"type":"Feature","geometry":{"type":"Polygon","coordinates":[[[109.9565,56.9525],[109.3073,57.147],[108.8547,57.1843],[108.9185,57.419],[108.6677,57.6117],[108.2865,57.4467],[107.9159,57.068],[107.2165,56.7985],[107.2051,56.4254],[106.9425,56.2951],[106.7009,56.0171],[106.6896,55.8166],[106.6964,55.1819],[106.4692,54.9473],[107.248,54.8702],[107.4837,54.9341],[108.1697,54.8576],[108.6,54.6359],[108.6735,54.6784],[108.6249,55.4634],[108.8778,55.9146],[108.8282,56.2203],[108.5532,56.3392],[108.714,56.5206],[109.0819,56.6668],[109.8572,56.7844],[109.9565,56.9525]]]},"properties":{"GID_0":"RUS","GID_1":"RUS.18_1","GID_2":"RUS.18.19_1","NAME_1":"Irkutsk","NAME_2":"Kazachinsko-Lenskiyrayon"}},
{"type":"Feature","geometry":{"type":"Polygon","coordinates":[[[110.6904,56.8656],[110.5803,57.0304],[110.8355,57.1535],[110.6504,57.475],[110.8326,57.6291],[110.4123,58.1224],[111.0806,58.282],[111.0944,58.5472],[111.6672,58.5745],[111.7174,58.8467],[111.2785,58.988],[110.7079,58.8283],[110.2933,59.0044],[109.5251,59.0574],[109.0905,58.8984],[108.6718,58.8939],[108.5519,58.4025],[108.3421,58.1999],[107.4797,58.7395],[107.3427,58.397],[106.9711,58.1954],[107.2796,57.7833],[107.0084,57.7088],[107.0056,57.4693],[107.1911,57.2878],[106.9552,57.1565],[106.9125,56.8926],[107.2165,56.7985],[107.9159,57.068],[108.2865,57.4467],[108.6677,57.6117],[108.9185,57.419],[108.8547,57.1843],[109.3073,57.147],[109.9565,56.9525],[110.6904,56.8656]]]},"properties":{"GID_0":"RUS","GID_1":"RUS.18_1","GID_2":"RUS.18.20_1","NAME_1":"Irkutsk","NAME_2":"Kirenskiyrayon"}},
{"type":"Feature","geometry":{"type":"Polygon","coordinates":[[[102.3862,55.0425],[101.3685,55.1688],[101.1458,54.9699],[100.864,55.044],[100.7457,54.7343],[101.0048,54.4961],[100.7502,54.2683],[100.6675,53.9421],[100.8071,53.7526],[101,53.9679],[101.7737,54.0786],[101.8275,54.2329],[102.3163,54.4684],[102.1412,54.6522],[102.3841,54.8246],[102.3862,55.0425]]]},"properties":{"GID_0":"RUS","GID_1":"RUS.18_1","GID_2":"RUS.18.21_1","NAME_1":"Irkutsk","NAME_2":"Kuytunskiyrayon"}},
{"type":"Feature","geometry":{"type":"Polygon","coordinates":[[[113.4815,56.6749],[113.4141,57.1213],[113.4863,57.4011],[113.111,57.4297],[113.0512,57.6176],[113.3051,58.0571],[113.6258,58.1579],[113.8974,58.7362],[113.8189,58.9576],[113.9357,59.2084],[113.8228,59.5987],[113.4203,59.4007],[113.453,59.2464],[112.6589,58.9996],[112.3798,59.1323],[112.6092,59.3059],[110.664,59.2353],[110.2933,59.0044],[110.7079,58.8283],[111.2785,58.988],[111.7174,58.8467],[111.6672,58.5745],[111.0944,58.5472],[111.0806,58.282],[110.4123,58.1224],[110.8326,57.6291],[110.6504,57.475],[110.8355,57.1535],[110.5803,57.0304],[110.6904,56.8656],[111.1192,56.8201],[111.5336,57.1264],[111.7995,56.9282],[112.0828,56.9452],[113.1633,56.654],[113.4815,56.6749]]]},"properties":{"GID_0":"RUS","GID_1":"RUS.18_1","GID_2":"RUS.18.22_1","NAME_1":"Irkutsk","NAME_2":"Mamsko-Chuyskiyrayon"}},
{"type":"Feature","geometry":{"type":"Polygon","coordinates":[[[102.9719,56.2],[103.158,56.404],[103.9012,56.133],[104.5131,56.1631],[104.6488,55.7682],[104.9023,55.8368],[104.9735,55.8789],[104.6585,56.6223],[104.4322,56.8399],[104.4414,57.332],[104.1451,57.4537],[104.1923,57.6199],[103.9635,57.828],[102.8164,57.3881],[102.4902,57.352],[102.495,56.7433],[102.6753,56.6752],[102.5919,56.2028],[102.9719,56.2]]]},"properties":{"GID_0":"RUS","GID_1":"RUS.18_1","GID_2":"RUS.18.23_1","NAME_1":"Irkutsk","NAME_2":"Nizhneilimskiyrayon"}},
{"type":"Feature","geometry":{"type":"Polygon","coordinates":[[[99.0263,54.9002],[99.0189,54.9432],[98.9485,54.9361],[98.9623,54.8932],[99.0263,54.9002]]]},"properties":{"GID_0":"RUS","GID_1":"RUS.18_1","GID_2":"RUS.18.24_1","NAME_1":"Irkutsk","NAME_2":"Nizhneudinsk"}},
{"type":"Feature","geometry":{"type":"Polygon","coordinates":[[[99.9991,53.337],[99.7117,53.4888],[99.3557,53.4854],[99.2495,53.7941],[99.7178,54.3664],[99.9599,54.5629],[99.7886,54.9495],[100.0018,55.0451],[100.069,55.6307],[99.7081,55.6252],[99.0253,55.7528],[98.6784,55.9905],[98.4174,55.8198],[98.444,55.6134],[98.047,55.6061],[98.3351,55.3236],[98.3809,55.0843],[98.091,54.9218],[98.0725,54.6497],[97.4649,54.8636],[96.8732,54.8556],[96.5525,54.9673],[96.6158,54.8628],[96.3658,54.5408],[96.0088,54.5738],[95.6936,54.4246],[95.582,54.2465],[95.976,54.0818],[96.427,53.7055],[96.8147,53.7534],[97.2084,53.6115],[97.5128,53.3821],[97.9231,53.3603],[98.2077,53.1053],[98.6579,53.162],[99.2092,52.937],[99.4283,53.1461],[99.9991,53.337]],[[99.0263,54.9002],[98.9623,54.8932],[98.9485,54.9361],[99.0189,54.9432],[99.0263,54.9002]]]},"properties":{"GID_0":"RUS","GID_1":"RUS.18_1","GID_2":"RUS.18.25_1","NAME_1":"Irkutsk","NAME_2":"Nizhneudinskiyrayon"}},
{"type":"Feature","geometry":{"type":"Polygon","coordinates":[[[103.2908,53.4981],[103.2743,53.6562],[103.1777,53.8489],[103.0823,53.8439],[103.0019,53.8439],[102.7934,54.035],[102.3955,54.008],[102.2402,53.8372],[102.5572,53.5967],[102.9762,53.6634],[103.2908,53.4981]]]},"properties":{"GID_0":"RUS","GID_1":"RUS.18_1","GID_2":"RUS.18.26_1","NAME_1":"Irkutsk","NAME_2":"Nukutskiyrayon"}},
{"type":"Feature","geometry":{"type":"Polygon","coordinates":[[[105.4651,52.7461],[105.3867,52.7459],[105.2795,52.6278],[105.968,52.5227],[106.1014,52.5622],[106.7481,52.8802],[106.7787,53.0855],[107.1991,53.3466],[107.5352,53.4623],[107.63,53.6712],[108.1452,53.909],[107.6475,53.8433],[107.2841,53.4846],[106.8147,53.4523],[106.4838,53.3],[106.0609,53.2467],[105.6555,52.9733],[105.4651,52.7461]]]},"properties":{"GID_0":"RUS","GID_1":"RUS.18_1","GID_2":"RUS.18.27_1","NAME_1":"Irkutsk","NAME_2":"Ol'khonskiyrayon"}},
{"type":"Feature","geometry":{"type":"Polygon","coordinates":[[[104.6889,53.4238],[104.3439,53.6097],[104.2487,53.8307],[104.2079,54.0467],[103.7322,53.9405],[103.2743,53.6562],[103.2908,53.4981],[103.5177,53.3715],[104.0959,53.2131],[104.354,53.371],[104.6889,53.4238]]]},"properties":{"GID_0":"RUS","GID_1":"RUS.18_1","GID_2":"RUS.18.28_1","NAME_1":"Irkutsk","NAME_2":"Osinskiyrayon"}},
{"type":"Feature","geometry":{"type":"Polygon","coordinates":[[[102.2523,54.104],[102.2589,54.1319],[102.2031,54.1245],[102.2141,54.1034],[102.2523,54.104]]]},"properties":{"GID_0":"RUS","GID_1":"RUS.18_1","GID_2":"RUS.18.29_1","NAME_1":"Irkutsk","NAME_2":"Sayansk"}},
{"type":"Feature","geometry":{"type":"Polygon","coordinates":[[[104.1254,52.171],[104.1295,52.1889],[104.0917,52.199],[104.0817,52.1698],[104.1254,52.171]]]},"properties":{"GID_0":"RUS","GID_1":"RUS.18_1","GID_2":"RUS.18.30_1","NAME_1":"Irkutsk","NAME_2":"Shelekhov"}},
{"type":"Feature","geometry":{"type":"Polygon","coordinates":[[[104.1294,52.1897],[104.1172,52.1926],[104.1049,52.1954],[104.1292,52.189],[104.1294,52.1897]]]},"properties":{"GID_0":"RUS","GID_1":"RUS.18_1","GID_2":"RUS.18.31_1","NAME_1":"Irkutsk","NAME_2":"Shelekhovskiyrayon"}},
{"type":"Feature","geometry":{"type":"Polygon","coordinates":[[[104.6131,51.4541],[103.9422,51.5623],[103.7589,51.723],[104.6426,51.7891],[104.7858,51.8958],[104.1014,51.9725],[104.0828,51.8374],[103.3994,51.8992],[102.8756,51.9298],[103.1271,51.8575],[103.3332,51.4437],[103.8085,51.3763],[103.9111,51.1383],[104.6154,51.3291],[104.6131,51.4541]]]},"properties":{"GID_0":"RUS","GID_1":"RUS.18_1","GID_2":"RUS.18.32_1","NAME_1":"Irkutsk","NAME_2":"Slyudyanskiyrayon"}},
{"type":"Feature","geometry":{"type":"Polygon","coordinates":[[[98.0712,55.9747],[98.073,56.015],[98.0237,56.0149],[98.0031,55.9887],[98.0712,55.9747]]]},"properties":{"GID_0":"RUS","GID_1":"RUS.18_1","GID_2":"RUS.18.33_1","NAME_1":"Irkutsk","NAME_2":"Tayshet"}},
{"type":"Feature","geometry":{"type":"Polygon","coordinates":[[[98.8379,57.7302],[98.6997,57.7903],[97.851,57.8077],[97.2716,57.055],[97.7228,56.7984],[97.2458,56.0602],[96.8981,56.0213],[96.676,55.7888],[96.7257,55.4305],[96.5673,55.2697],[96.5525,54.9673],[96.8732,54.8556],[97.4649,54.8636],[98.0725,54.6497],[98.091,54.9218],[98.3809,55.0843],[98.3351,55.3236],[98.047,55.6061],[98.444,55.6134],[98.4174,55.8198],[98.6784,55.9905],[98.5603,56.0962],[98.5468,57.0942],[98.8782,57.3076],[98.8379,57.7302]],[[98.0712,55.9747],[98.0031,55.9887],[98.0237,56.0149],[98.073,56.015],[98.0712,55.9747]]]},"properties":{"GID_0":"RUS","GID_1":"RUS.18_1","GID_2":"RUS.18.34_1","NAME_1":"Irkutsk","NAME_2":"Tayshetskiyrayon"}},
{"type":"Feature","geometry":{"type":"Polygon","coordinates":[[[100.4158,54.4248],[100.399,54.4709],[100.329,54.4712],[100.3234,54.4188],[100.4158,54.4248]]]},"properties":{"GID_0":"RUS","GID_1":"RUS.18_1","GID_2":"RUS.18.35_1","NAME_1":"Irkutsk","NAME_2":"Tulun"}},
{"type":"Feature","geometry":{"type":"Polygon","coordinates":[[[100.3534,53.2155],[100.4905,53.2677],[100.3653,53.3792],[100.8071,53.7526],[100.6675,53.9421],[100.7502,54.2683],[101.0048,54.4961],[100.7457,54.7343],[100.864,55.044],[100.0018,55.0451],[99.7886,54.9495],[99.9599,54.5629],[99.7178,54.3664],[99.2495,53.7941],[99.3557,53.4854],[99.7117,53.4888],[99.9991,53.337],[100.3534,53.2155]],[[100.4158,54.4248],[100.3234,54.4188],[100.329,54.4712],[100.399,54.4709],[100.4158,54.4248]]]},"properties":{"GID_0":"RUS","GID_1":"RUS.18_1","GID_2":"RUS.18.36_1","NAME_1":"Irkutsk","NAME_2":"Tulunskiyrayon"}},
{"type":"Feature","geometry":{"type":"Polygon","coordinates":[[[103.6548,52.7242],[103.6637,52.7563],[103.5891,52.7515],[103.5894,52.7277],[103.6548,52.7242]]]},"properties":{"GID_0":"RUS","GID_1":"RUS.18_1","GID_2":"RUS.18.37_1","NAME_1":"Irkutsk","NAME_2":"Usol'e-Sibirskoye"}},
{"type":"Feature","geometry":{"type":"Polygon","coordinates":[[[102.8756,51.9298],[103.3994,51.8992],[103.5734,52.2003],[103.4392,52.4215],[103.6911,52.4948],[103.7868,52.7164],[103.3093,53.0024],[102.7677,52.639],[102.6204,52.3952],[102.3753,52.2602],[102.8756,51.9298]],[[103.6548,52.7242],[103.5894,52.7277],[103.5891,52.7515],[103.6637,52.7563],[103.6548,52.7242]]]},"properties":{"GID_0":"RUS","GID_1":"RUS.18_1","GID_2":"RUS.18.38_1","NAME_1":"Irkutsk","NAME_2":"Usol'skiyrayon"}},
{"type":"Feature","geometry":{"type":"Polygon","coordinates":[[[102.689,58.0339],[102.6898,58.0626],[102.6328,58.0703],[102.6213,58.0454],[102.689,58.0339]]]},"properties":{"GID_0":"RUS","GID_1":"RUS.18_1","GID_2":"RUS.18.39_1","NAME_1":"Irkutsk","NAME_2":"Ust'-Ilimsk"}},
{"type":"Feature","geometry":{"type":"Polygon","coordinates":[[[102.495,56.7433],[102.4902,57.352],[102.8164,57.3881],[103.9635,57.828],[104.1923,57.6199],[104.4752,57.6561],[104.6046,57.9047],[104.8043,58.7181],[104.2827,58.6254],[104.1931,58.7708],[103.4685,58.9531],[103.1184,59.2944],[102.4009,59.1673],[102.3209,59.0443],[102.4961,58.7518],[102.1598,58.5521],[101.6186,58.4231],[101.4699,58.247],[101.0772,58.1163],[100.9743,57.8789],[100.7144,57.8863],[100.792,57.4818],[100.6275,57.2039],[100.69,57.0365],[100.4598,56.8624],[100.8761,56.8979],[102.495,56.7433]],[[102.689,58.0339],[102.6213,58.0454],[102.6328,58.0703],[102.6898,58.0626],[102.689,58.0339]]]},"properties":{"GID_0":"RUS","GID_1":"RUS.18_1","GID_2":"RUS.18.40_1","NAME_1":"Irkutsk","NAME_2":"Ust'-Ilimskiyrayon"}},
{"type":"Feature","geometry":{"type":"Polygon","coordinates":[[[105.7284,56.792],[105.7473,56.8358],[105.6731,56.8378],[105.6706,56.8048],[105.7284,56.792]]]},"properties":{"GID_0":"RUS","GID_1":"RUS.18_1","GID_2":"RUS.18.41_1","NAME_1":"Irkutsk","NAME_2":"Ust'-Kut"}},
{"type":"Feature","geometry":{"type":"Polygon","coordinates":[[[104.6046,57.9047],[104.4752,57.6561],[104.1923,57.6199],[104.1451,57.4537],[104.4414,57.332],[104.4322,56.8399],[104.6585,56.6223],[104.9735,55.8789],[104.9467,55.8631],[104.9658,55.8036],[104.9471,55.7588],[105.1213,55.6842],[106.2376,55.8242],[106.6896,55.8166],[106.7009,56.0171],[106.9425,56.2951],[107.2051,56.4254],[107.2165,56.7985],[106.9125,56.8926],[106.9552,57.1565],[107.1911,57.2878],[107.0056,57.4693],[107.0084,57.7088],[107.2796,57.7833],[106.9711,58.1954],[105.8883,58.0458],[105.6238,58.0733],[105.5045,57.6662],[105.0702,57.6157],[104.6046,57.9047]],[[105.7284,56.792],[105.6706,56.8048],[105.6731,56.8378],[105.7473,56.8358],[105.7284,56.792]]]},"properties":{"GID_0":"RUS","GID_1":"RUS.18_1","GID_2":"RUS.18.42_1","NAME_1":"Irkutsk","NAME_2":"Ust'-Kutskiyrayon"}},
{"type":"Feature","geometry":{"type":"Polygon","coordinates":[[[103.0861,53.8441],[103.1777,53.8489],[103.2743,53.6562],[103.7322,53.9405],[104.2079,54.0467],[103.7977,54.6474],[103.9111,54.9738],[104.2912,55.0148],[104.4146,55.3572],[104.9174,55.3909],[104.9471,55.7588],[104.9658,55.8036],[104.9467,55.8631],[104.9023,55.8368],[104.6488,55.7682],[104.5131,56.1631],[103.9012,56.133],[103.158,56.404],[102.9719,56.2],[103.2024,56.0711],[103.3573,55.511],[103.0872,55.437],[103.2517,55.1903],[102.9382,54.85],[102.8578,54.1748],[103.0861,53.8441]]]},"properties":{"GID_0":"RUS","GID_1":"RUS.18_1","GID_2":"RUS.18.43_1","NAME_1":"Irkutsk","NAME_2":"Ust'-Udinskiyrayon"}},
{"type":"Feature","geometry":{"type":"Polygon","coordinates":[[[104.6131,51.4541],[104.6928,51.5442],[105.3636,51.7775],[106.5011,52.5941],[107.5511,52.9733],[108.0907,53.2941],[108.499,54.0233],[108.5256,54.4856],[108.1452,53.909],[107.63,53.6712],[107.5352,53.4623],[107.1991,53.3466],[106.7787,53.0855],[106.7481,52.8802],[106.1014,52.5622],[105.8831,52.496],[105.48,52.0469],[104.8792,51.8397],[104.7858,51.8958],[104.6426,51.7891],[103.7589,51.723],[103.9422,51.5623],[104.6131,51.4541]]]},"properties":{"GID_0":"RUS","GID_1":"RUS.18_1","GID_2":"RUS.18.44_1","NAME_1":"Irkutsk","NAME_2":"Waterbody"}},
{"type":"Feature","geometry":{"type":"Polygon","coordinates":[[[101.0148,52.786],[101.4028,53.0154],[101.8142,53.0077],[102.0476,53.2276],[102.5572,53.5967],[102.2402,53.8372],[101.0261,53.3042],[100.4905,53.2677],[100.3534,53.2155],[100.4469,53.0621],[101.0148,52.786]]]},"properties":{"GID_0":"RUS","GID_1":"RUS.18_1","GID_2":"RUS.18.45_1","NAME_1":"Irkutsk","NAME_2":"Zalarinskiyrayon"}},
{"type":"Feature","geometry":{"type":"Polygon","coordinates":[[[106.4692,54.9473],[106.6964,55.1819],[106.6896,55.8166],[106.2376,55.8242],[105.1213,55.6842],[104.9471,55.7588],[104.9174,55.3909],[104.4146,55.3572],[104.2912,55.0148],[103.9111,54.9738],[103.7977,54.6474],[104.2079,54.0467],[104.2487,53.8307],[104.9301,53.9],[104.7815,54.2359],[105.8328,54.4725],[105.9769,54.7943],[106.4692,54.9473]]]},"properties":{"GID_0":"RUS","GID_1":"RUS.18_1","GID_2":"RUS.18.46_1","NAME_1":"Irkutsk","NAME_2":"Zhigalovskiyrayon"}},
{"type":"Feature","geometry":{"type":"Polygon","coordinates":[[[102.0366,53.9539],[101.9756,53.9858],[101.9597,53.9387],[102.0366,53.9539]]]},"properties":{"GID_0":"RUS","GID_1":"RUS.18_1","GID_2":"RUS.18.47_1","NAME_1":"Irkutsk","NAME_2":"Zima"}},
{"type":"Feature","geometry":{"type":"Polygon","coordinates":[[[102.3163,54.4684],[101.8275,54.2329],[101.7737,54.0786],[101,53.9679],[100.8071,53.7526],[100.3653,53.3792],[100.4905,53.2677],[101.0261,53.3042],[102.2402,53.8372],[102.3955,54.008],[102.47,54.2356],[102.3163,54.4684]],[[102.2523,54.104],[102.2141,54.1034],[102.2031,54.1245],[102.2589,54.1319],[102.2523,54.104]],[[102.0366,53.9539],[101.9597,53.9387],[101.9756,53.9858],[102.0366,53.9539]]]},"properties":{"GID_0":"RUS","GID_1":"RUS.18_1","GID_2":"RUS.18.48_1","NAME_1":"Irkutsk","NAME_2":"Ziminskiyrayon"}}
]}