{"type":"FeatureCollection", "features": [
{"type":"Feature","geometry":{"type":"Polygon","coordinates":[[[42.4925,58.1599],[42.4248,58.0805],[42.7445,57.8511],[42.8847,58.0181],[43.5073,57.9813],[43.5198,58.0337],[43.3161,58.1681],[43.0912,58.5483],[42.9426,58.5483],[42.7155,58.5249],[42.7405,58.3055],[42.4925,58.1599]]]},"properties":{"GID_0":"RUS","GID_1":"RUS.33_1","GID_2":"RUS.33.1_1","NAME_1":"Kostroma","NAME_2":"Antropovskiyrayon"}},
{"type":"Feature","geometry":{"type":"Polygon","coordinates":[[[41.5639,58.4734],[41.5642,58.4766],[41.5476,58.4764],[41.5536,58.4704],[41.5639,58.4734]]]},"properties":{"GID_0":"RUS","GID_1":"RUS.33_1","GID_2":"RUS.33.2_1","NAME_1":"Kostroma","NAME_2":"Buy"}},
{"type":"Feature","geometry":{"type":"Polygon","coordinates":[[[42.1951,58.7165],[41.7753,58.8043],[41.5222,59.0155],[41.2904,58.9832],[41.1793,58.7863],[41.287,58.72],[40.9751,58.5268],[41.2176,58.3476],[40.9997,58.2517],[41.1962,58.2177],[41.4752,58.2711],[41.8209,58.2422],[41.6867,58.3747],[42.1951,58.7165]],[[41.5639,58.4734],[41.5536,58.4704],[41.5476,58.4764],[41.5642,58.4766],[41.5639,58.4734]]]},"properties":{"GID_0":"RUS","GID_1":"RUS.33_1","GID_2":"RUS.33.3_1","NAME_1":"Kostroma","NAME_2":"Buyskiyrayon"}},
{"type":"Feature","geometry":{"type":"Polygon","coordinates":[[[42.9426,58.5483],[43.1186,58.7671],[43.3593,58.8599],[43.6898,58.8734],[43.473,59.0169],[43.551,59.1833],[43.1621,59.2673],[42.8611,59.1264],[42.7405,58.953],[42.1951,58.7165],[42.7155,58.5249],[42.9426,58.5483]]]},"properties":{"GID_0":"RUS","GID_1":"RUS.33_1","GID_2":"RUS.33.4_1","NAME_1":"Kostroma","NAME_2":"Chukhlomskiyrayon"}},
{"type":"Feature","geometry":{"type":"Polygon","coordinates":[[[42.3598,58.3498],[42.3515,58.3529],[42.3485,58.3491],[42.3598,58.3498]]]},"properties":{"GID_0":"RUS","GID_1":"RUS.33_1","GID_2":"RUS.33.5_1","NAME_1":"Kostroma","NAME_2":"Galich"}},
{"type":"Feature","geometry":{"type":"Polygon","coordinates":[[[42.7155,58.5249],[42.1951,58.7165],[41.6867,58.3747],[41.8209,58.2422],[42.0192,58.1218],[42.1911,58.033],[42.4925,58.1599],[42.7405,58.3055],[42.7155,58.5249]],[[42.3598,58.3498],[42.3485,58.3491],[42.3515,58.3529],[42.3598,58.3498]]]},"properties":{"GID_0":"RUS","GID_1":"RUS.33_1","GID_2":"RUS.33.6_1","NAME_1":"Kostroma","NAME_2":"Galichskiyrayon"}},
{"type":"Feature","geometry":{"type":"Polygon","coordinates":[[[42.725,57.6878],[42.8815,57.3917],[43.0964,57.3909],[43.2079,57.6296],[43.5327,57.6811],[43.5073,57.9813],[42.8847,58.0181],[42.7445,57.8511],[42.725,57.6878]]]},"properties":{"GID_0":"RUS","GID_1":"RUS.33_1","GID_2":"RUS.33.7_1","NAME_1":"Kostroma","NAME_2":"Kadyyskiyrayon"}},
{"type":"Feature","geometry":{"type":"Polygon","coordinates":[[[43.6898,58.8734],[44.0592,58.7542],[44.1992,58.7358],[44.5474,58.5089],[44.7992,58.6042],[44.6908,59.1469],[44.316,59.1357],[43.6156,59.2328],[43.551,59.1833],[43.473,59.0169],[43.6898,58.8734]]]},"properties":{"GID_0":"RUS","GID_1":"RUS.33_1","GID_2":"RUS.33.8_1","NAME_1":"Kostroma","NAME_2":"Kologrivskiyrayon"}},
{"type":"Feature","geometry":{"type":"Polygon","coordinates":[[[41.023,57.7206],[41.0229,57.7802],[40.9039,57.7866],[40.8963,57.6917],[41.023,57.7206]]]},"properties":{"GID_0":"RUS","GID_1":"RUS.33_1","GID_2":"RUS.33.9_1","NAME_1":"Kostroma","NAME_2":"Kostroma"}},
{"type":"Feature","geometry":{"type":"Polygon","coordinates":[[[40.9997,58.2517],[40.6209,57.8929],[40.6942,57.617],[41.0413,57.4918],[40.9968,57.6508],[41.1618,57.7583],[41.3223,57.9579],[41.1962,58.2177],[40.9997,58.2517]],[[41.023,57.7206],[40.8963,57.6917],[40.9039,57.7866],[41.0229,57.7802],[41.023,57.7206]]]},"properties":{"GID_0":"RUS","GID_1":"RUS.33_1","GID_2":"RUS.33.10_1","NAME_1":"Kostroma","NAME_2":"Kostromskoyrayon"}},
{"type":"Feature","geometry":{"type":"Polygon","coordinates":[[[41.1571,57.4246],[41.6089,57.4687],[41.5965,57.6981],[41.1618,57.7583],[40.9968,57.6508],[41.0413,57.4918],[41.1571,57.4246]]]},"properties":{"GID_0":"RUS","GID_1":"RUS.33_1","GID_2":"RUS.33.11_1","NAME_1":"Kostroma","NAME_2":"Krasnosel'skiyrayon"}},
{"type":"Feature","geometry":{"type":"Polygon","coordinates":[[[43.2079,57.6296],[43.3666,57.5221],[43.7282,57.4483],[44.079,57.4408],[44.3894,57.5167],[44.8678,57.9117],[44.3728,58.0067],[44.2085,58.1438],[43.9589,58.0634],[43.5198,58.0337],[43.5073,57.9813],[43.5327,57.6811],[43.2079,57.6296]]]},"properties":{"GID_0":"RUS","GID_1":"RUS.33_1","GID_2":"RUS.33.12_1","NAME_1":"Kostroma","NAME_2":"Makar'evskiyrayon"}},
{"type":"Feature","geometry":{"type":"Polygon","coordinates":[[[44.7776,58.2946],[44.7839,58.3023],[44.7679,58.3071],[44.7587,58.2999],[44.7776,58.2946]]]},"properties":{"GID_0":"RUS","GID_1":"RUS.33_1","GID_2":"RUS.33.13_1","NAME_1":"Kostroma","NAME_2":"Manturovo"}},
{"type":"Feature","geometry":{"type":"Polygon","coordinates":[[[44.5474,58.5089],[44.2898,58.4072],[44.2085,58.1438],[44.3728,58.0067],[44.8678,57.9117],[45.0597,58.0739],[45.0348,58.2824],[45.2585,58.4249],[44.9331,58.6132],[44.7992,58.6042],[44.5474,58.5089]],[[44.7776,58.2946],[44.7587,58.2999],[44.7679,58.3071],[44.7839,58.3023],[44.7776,58.2946]]]},"properties":{"GID_0":"RUS","GID_1":"RUS.33_1","GID_2":"RUS.33.14_1","NAME_1":"Kostroma","NAME_2":"Manturovskiyrayon"}},
{"type":"Feature","geometry":{"type":"Polygon","coordinates":[[[44.7992,58.6042],[44.9331,58.6132],[45.2585,58.4249],[45.3373,58.6966],[45.2802,59.1859],[44.9981,59.1198],[44.6908,59.1469],[44.7992,58.6042]]]},"properties":{"GID_0":"RUS","GID_1":"RUS.33_1","GID_2":"RUS.33.15_1","NAME_1":"Kostroma","NAME_2":"Mezhevskiyrayon"}},
{"type":"Feature","geometry":{"type":"Polygon","coordinates":[[[40.5479,57.4443],[40.5597,57.4474],[40.5505,57.456],[40.5355,57.4497],[40.5479,57.4443]]]},"properties":{"GID_0":"RUS","GID_1":"RUS.33_1","GID_2":"RUS.33.16_1","NAME_1":"Kostroma","NAME_2":"Nerekhta"}},
{"type":"Feature","geometry":{"type":"Polygon","coordinates":[[[40.6942,57.617],[40.4548,57.5407],[40.5472,57.2855],[41.1571,57.4246],[41.0413,57.4918],[40.6942,57.617]],[[40.5479,57.4443],[40.5355,57.4497],[40.5505,57.456],[40.5597,57.4474],[40.5479,57.4443]]]},"properties":{"GID_0":"RUS","GID_1":"RUS.33_1","GID_2":"RUS.33.17_1","NAME_1":"Kostroma","NAME_2":"Nerekhtskiyrayon"}},
{"type":"Feature","geometry":{"type":"Polygon","coordinates":[[[43.8885,58.2541],[43.8916,58.2633],[43.8728,58.2654],[43.873,58.2527],[43.8885,58.2541]]]},"properties":{"GID_0":"RUS","GID_1":"RUS.33_1","GID_2":"RUS.33.18_1","NAME_1":"Kostroma","NAME_2":"Neya"}},
{"type":"Feature","geometry":{"type":"Polygon","coordinates":[[[43.5198,58.0337],[43.9589,58.0634],[44.2085,58.1438],[44.2898,58.4072],[44.5474,58.5089],[44.1992,58.7358],[44.0592,58.7542],[43.9285,58.5783],[43.3161,58.1681],[43.5198,58.0337]],[[43.8885,58.2541],[43.873,58.2527],[43.8728,58.2654],[43.8916,58.2633],[43.8885,58.2541]]]},"properties":{"GID_0":"RUS","GID_1":"RUS.33_1","GID_2":"RUS.33.19_1","NAME_1":"Kostroma","NAME_2":"Neyskiyrayon"}},
{"type":"Feature","geometry":{"type":"Polygon","coordinates":[[[47.082,58.7353],[47.3621,58.7992],[47.5485,59.071],[47.3287,59.1539],[47.2799,59.3415],[47.0694,59.3596],[46.9207,59.142],[46.9913,58.9716],[46.767,58.7568],[47.082,58.7353]]]},"properties":{"GID_0":"RUS","GID_1":"RUS.33_1","GID_2":"RUS.33.20_1","NAME_1":"Kostroma","NAME_2":"Oktyabr'skiy"}},
{"type":"Feature","geometry":{"type":"Polygon","coordinates":[[[42.725,57.6878],[42.7445,57.8511],[42.4248,58.0805],[42.4925,58.1599],[42.1911,58.033],[41.6977,57.6925],[42.1341,57.5698],[42.725,57.6878]]]},"properties":{"GID_0":"RUS","GID_1":"RUS.33_1","GID_2":"RUS.33.21_1","NAME_1":"Kostroma","NAME_2":"Ostrovskiyrayon"}},
{"type":"Feature","geometry":{"type":"Polygon","coordinates":[[[43.3161,58.1681],[43.9285,58.5783],[44.0592,58.7542],[43.6898,58.8734],[43.3593,58.8599],[43.1186,58.7671],[42.9426,58.5483],[43.0912,58.5483],[43.3161,58.1681]]]},"properties":{"GID_0":"RUS","GID_1":"RUS.33_1","GID_2":"RUS.33.22_1","NAME_1":"Kostroma","NAME_2":"Parfen'evskiyrayon"}},
{"type":"Feature","geometry":{"type":"Polygon","coordinates":[[[46.1709,58.8942],[46.5916,59.1096],[46.3926,59.3698],[46.0582,59.3292],[45.7745,59.1926],[45.821,59.0331],[46.1709,58.8942]]]},"properties":{"GID_0":"RUS","GID_1":"RUS.33_1","GID_2":"RUS.33.23_1","NAME_1":"Kostroma","NAME_2":"Pavinskiyrayon"}},
{"type":"Feature","geometry":{"type":"Polygon","coordinates":[[[47.082,58.7353],[46.767,58.7568],[46.2951,58.604],[46.2075,58.4909],[45.9003,58.451],[46.1602,58.2996],[46.2445,58.0666],[46.6093,58.5469],[47.0514,58.6334],[47.082,58.7353]]]},"properties":{"GID_0":"RUS","GID_1":"RUS.33_1","GID_2":"RUS.33.24_1","NAME_1":"Kostroma","NAME_2":"Ponazyrevskiyrayon"}},
{"type":"Feature","geometry":{"type":"Polygon","coordinates":[[[45.3373,58.6966],[45.739,58.6783],[46.1981,58.7518],[46.1709,58.8942],[45.821,59.0331],[45.7745,59.1926],[45.2802,59.1859],[45.3373,58.6966]]]},"properties":{"GID_0":"RUS","GID_1":"RUS.33_1","GID_2":"RUS.33.25_1","NAME_1":"Kostroma","NAME_2":"Pyshchugskiyrayon"}},
{"type":"Feature","geometry":{"type":"Polygon","coordinates":[[[45.0597,58.0739],[45.4667,58.0338],[45.6316,57.922],[45.8651,58.0447],[46.2445,58.0666],[46.1602,58.2996],[45.9003,58.451],[46.2075,58.4909],[46.2951,58.604],[46.1981,58.7518],[45.739,58.6783],[45.3373,58.6966],[45.2585,58.4249],[45.0348,58.2824],[45.0597,58.0739]],[[45.5488,58.3398],[45.5302,58.3411],[45.5289,58.3487],[45.5503,58.351],[45.5488,58.3398]]]},"properties":{"GID_0":"RUS","GID_1":"RUS.33_1","GID_2":"RUS.33.26_1","NAME_1":"Kostroma","NAME_2":"Shar'inskiyrayon"}},
{"type":"Feature","geometry":{"type":"Polygon","coordinates":[[[45.5488,58.3398],[45.5503,58.351],[45.5289,58.3487],[45.5302,58.3411],[45.5488,58.3398]]]},"properties":{"GID_0":"RUS","GID_1":"RUS.33_1","GID_2":"RUS.33.27_1","NAME_1":"Kostroma","NAME_2":"Shar'ya"}},
{"type":"Feature","geometry":{"type":"Polygon","coordinates":[[[42.1951,58.7165],[42.7405,58.953],[42.8611,59.1264],[42.6191,59.3261],[41.9959,59.2618],[42.0946,59.1095],[41.5222,59.0155],[41.7753,58.8043],[42.1951,58.7165]]]},"properties":{"GID_0":"RUS","GID_1":"RUS.33_1","GID_2":"RUS.33.28_1","NAME_1":"Kostroma","NAME_2":"Soligalichskiyrayon"}},
{"type":"Feature","geometry":{"type":"Polygon","coordinates":[[[41.6977,57.6925],[42.1911,58.033],[42.0192,58.1218],[41.3223,57.9579],[41.1618,57.7583],[41.5965,57.6981],[41.6977,57.6925]]]},"properties":{"GID_0":"RUS","GID_1":"RUS.33_1","GID_2":"RUS.33.29_1","NAME_1":"Kostroma","NAME_2":"Sudislavskiyrayon"}},
{"type":"Feature","geometry":{"type":"Polygon","coordinates":[[[41.1962,58.2177],[41.3223,57.9579],[42.0192,58.1218],[41.8209,58.2422],[41.4752,58.2711],[41.1962,58.2177]]]},"properties":{"GID_0":"RUS","GID_1":"RUS.33_1","GID_2":"RUS.33.30_1","NAME_1":"Kostroma","NAME_2":"Susaninskiyrayon"}},
{"type":"Feature","geometry":{"type":"Polygon","coordinates":[[[47.0694,59.3596],[47.1232,59.6086],[46.4282,59.5918],[46.3926,59.3698],[46.5916,59.1096],[46.1709,58.8942],[46.1981,58.7518],[46.2951,58.604],[46.767,58.7568],[46.9913,58.9716],[46.9207,59.142],[47.0694,59.3596]]]},"properties":{"GID_0":"RUS","GID_1":"RUS.33_1","GID_2":"RUS.33.31_1","NAME_1":"Kostroma","NAME_2":"Vokhomskiyrayon"}}
]}