{"type":"FeatureCollection", "features": [
{"type":"Feature","geometry":{"type":"Polygon","coordinates":[[[33.9121,59.4306],[33.8975,59.4415],[33.884,59.4314],[33.9121,59.4306]]]},"properties":{"GID_0":"RUS","GID_1":"RUS.38_1","GID_2":"RUS.38.1_1","NAME_1":"Leningrad","NAME_2":"Boksitogorsk"}},
{"type":"Feature","geometry":{"type":"Polygon","coordinates":[[[33.6509,59.3545],[33.6926,59.3462],[33.8375,59.2341],[33.8946,59.1634],[33.9826,59.1565],[34.1488,59.1024],[34.1979,59.1466],[34.3626,59.16],[34.4752,59.1277],[34.7463,59.076],[34.7922,59.0941],[34.805,59.174],[34.9546,59.2712],[35.1704,59.2506],[35.2697,59.3036],[35.382,59.3027],[35.4138,59.3761],[35.5005,59.4384],[35.4183,59.4865],[35.5586,59.5741],[35.553,59.6705],[35.6695,59.6277],[35.6517,59.7152],[35.4595,59.7362],[35.4335,59.7681],[35.4429,59.9442],[35.5121,59.9865],[35.1738,60.0502],[35.0556,60.1786],[34.9891,60.1654],[35.071,60.0773],[35.012,60.0656],[35.0134,59.9764],[34.9485,59.9083],[34.7877,59.8349],[34.717,59.8276],[34.6274,59.7738],[34.5718,59.6633],[34.4841,59.6921],[34.1217,59.713],[34.0479,59.7858],[33.8505,59.767],[33.8379,59.6739],[33.7192,59.6469],[33.6547,59.6068],[33.6634,59.5546],[33.7678,59.489],[33.6756,59.4141],[33.6509,59.3545]],[[33.9121,59.4306],[33.884,59.4314],[33.8975,59.4415],[33.9121,59.4306]],[[34.1524,59.566],[34.1315,59.5722],[34.1443,59.5843],[34.1683,59.5779],[34.1524,59.566]]]},"properties":{"GID_0":"RUS","GID_1":"RUS.38_1","GID_2":"RUS.38.2_1","NAME_1":"Leningrad","NAME_2":"Boksitogorskiyrayon"}},
{"type":"Feature","geometry":{"type":"Polygon","coordinates":[[[30.0704,59.5326],[30.0779,59.5404],[30.0626,59.5457],[30.054,59.5341],[30.0704,59.5326]]]},"properties":{"GID_0":"RUS","GID_1":"RUS.38_1","GID_2":"RUS.38.3_1","NAME_1":"Leningrad","NAME_2":"Gatchina"}},
{"type":"Feature","geometry":{"type":"Polygon","coordinates":[[[30.0627,59.6875],[29.9212,59.6431],[29.7574,59.6191],[29.7242,59.5018],[29.7286,59.3667],[29.6044,59.2756],[29.588,59.2342],[29.892,59.2268],[29.9118,59.165],[30.0331,59.153],[30.1629,59.0014],[30.393,58.971],[30.4455,59.0153],[30.5374,59.0257],[30.6393,59.0041],[30.6629,59.0481],[30.6898,59.1733],[30.6224,59.2876],[30.445,59.471],[30.4826,59.6233],[30.3617,59.6032],[30.2368,59.6135],[30.0627,59.6875]],[[30.0704,59.5326],[30.054,59.5341],[30.0626,59.5457],[30.0779,59.5404],[30.0704,59.5326]]]},"properties":{"GID_0":"RUS","GID_1":"RUS.38_1","GID_2":"RUS.38.4_1","NAME_1":"Leningrad","NAME_2":"Gatchinskiyrayon"}},
{"type":"Feature","geometry":{"type":"Polygon","coordinates":[[[28.2802,59.3759],[28.2891,59.3677],[28.2983,59.37],[28.2802,59.3759]]]},"properties":{"GID_0":"RUS","GID_1":"RUS.38_1","GID_2":"RUS.38.5_1","NAME_1":"Leningrad","NAME_2":"Ivangorod"}},
{"type":"Feature","geometry":{"type":"Polygon","coordinates":[[[28.6947,59.4135],[28.6828,59.4161],[28.6773,59.4127],[28.6947,59.4135]]]},"properties":{"GID_0":"RUS","GID_1":"RUS.38_1","GID_2":"RUS.38.6_1","NAME_1":"Leningrad","NAME_2":"Kingisepp"}},
{"type":"Feature","geometry":{"type":"Polygon","coordinates":[[[28.797,59.7733],[28.5357,59.8409],[28.4727,59.8274],[28.4367,59.7693],[28.4327,59.6797],[28.3661,59.6583],[28.2355,59.6803],[28.17,59.7857],[28.0993,59.7891],[28.0014,59.6893],[28.0839,59.6126],[28.0802,59.4627],[28.2038,59.3783],[28.4258,59.2937],[28.5491,59.2333],[28.5885,59.188],[28.5685,59.0909],[28.6422,59.0595],[28.7504,59.1243],[28.894,59.0832],[28.9204,59.1416],[28.9289,59.1808],[29.0805,59.1698],[29.0989,59.1995],[29.0504,59.3729],[29.0653,59.4574],[29.1578,59.5943],[29.1455,59.6282],[29.0008,59.6138],[28.9437,59.6437],[28.8804,59.7388],[28.797,59.7733]],[[28.2983,59.37],[28.2891,59.3677],[28.2802,59.3759],[28.2983,59.37]],[[28.6773,59.4127],[28.6828,59.4161],[28.6947,59.4135],[28.6773,59.4127]]]},"properties":{"GID_0":"RUS","GID_1":"RUS.38_1","GID_2":"RUS.38.7_1","NAME_1":"Leningrad","NAME_2":"Kingiseppskiyrayon"}},
{"type":"Feature","geometry":{"type":"Polygon","coordinates":[[[32.0559,59.4675],[32.0518,59.479],[32.0383,59.4723],[32.0559,59.4675]]]},"properties":{"GID_0":"RUS","GID_1":"RUS.38_1","GID_2":"RUS.38.8_1","NAME_1":"Leningrad","NAME_2":"Kirishi"}},
{"type":"Feature","geometry":{"type":"Polygon","coordinates":[[[31.5887,59.4937],[31.5635,59.4229],[31.5851,59.345],[31.6884,59.3335],[31.7849,59.2719],[31.8888,59.2762],[31.9238,59.3651],[31.9892,59.387],[32.3196,59.2688],[32.3407,59.184],[32.415,59.1321],[32.4887,59.1257],[32.6008,59.0786],[32.7203,59.0642],[32.8233,59.138],[32.7825,59.2028],[32.8107,59.2634],[33.0042,59.3489],[32.8296,59.4492],[32.7821,59.4923],[32.8345,59.5464],[32.6511,59.5836],[32.4366,59.5977],[32.3518,59.6763],[32.2513,59.654],[32.1944,59.7276],[32.0138,59.7368],[31.901,59.7183],[31.7996,59.7417],[31.7387,59.5958],[31.5887,59.4937]],[[32.0559,59.4675],[32.0383,59.4723],[32.0518,59.479],[32.0559,59.4675]]]},"properties":{"GID_0":"RUS","GID_1":"RUS.38_1","GID_2":"RUS.38.9_1","NAME_1":"Leningrad","NAME_2":"Kirishskiyrayon"}},
{"type":"Feature","geometry":{"type":"Polygon","coordinates":[[[31.0189,59.8791],[31.015,59.887],[30.9992,59.8808],[31.0189,59.8791]]]},"properties":{"GID_0":"RUS","GID_1":"RUS.38_1","GID_2":"RUS.38.10_1","NAME_1":"Leningrad","NAME_2":"Kirovsk"}},
{"type":"Feature","geometry":{"type":"Polygon","coordinates":[[[31.7996,59.7417],[31.7401,59.7945],[31.5777,59.9093],[31.4586,59.9349],[31.448,59.9253],[31.3239,59.9156],[31.2568,59.9445],[31.1585,59.9139],[31.0729,59.9417],[30.9887,59.927],[30.8823,59.8707],[30.8104,59.7934],[30.7584,59.7766],[30.8447,59.7167],[30.7994,59.6619],[30.9531,59.6021],[31.216,59.576],[31.3198,59.5123],[31.3872,59.5193],[31.5887,59.4937],[31.7387,59.5958],[31.7996,59.7417]],[[31.0189,59.8791],[30.9992,59.8808],[31.015,59.887],[31.0189,59.8791]]]},"properties":{"GID_0":"RUS","GID_1":"RUS.38_1","GID_2":"RUS.38.11_1","NAME_1":"Leningrad","NAME_2":"Kirovskiyrayon"}},
{"type":"Feature","geometry":{"type":"Polygon","coordinates":[[[33.6298,60.6929],[33.619,60.7084],[33.5989,60.6976],[33.6298,60.6929]]]},"properties":{"GID_0":"RUS","GID_1":"RUS.38_1","GID_2":"RUS.38.12_1","NAME_1":"Leningrad","NAME_2":"LodeynopoePole"}},
{"type":"Feature","geometry":{"type":"Polygon","coordinates":[[[33.7698,60.9566],[33.6955,60.9573],[33.5751,61.0047],[33.4423,61.0119],[33.3904,60.9624],[33.2784,60.9144],[33.1579,60.834],[33.1308,60.7768],[32.9356,60.7245],[32.9863,60.6909],[32.89,60.5244],[32.8793,60.5059],[32.9619,60.4723],[33.0324,60.45],[33.3746,60.3991],[33.5665,60.3818],[33.6375,60.2895],[33.7099,60.2668],[33.7478,60.171],[33.7881,60.1494],[33.9689,60.14],[34.5009,60.1458],[34.5881,60.1753],[34.5737,60.2253],[34.6483,60.2658],[34.7912,60.2762],[34.6297,60.3728],[34.4443,60.4485],[34.3842,60.541],[34.4584,60.5764],[34.3376,60.6119],[34.342,60.6789],[34.1176,60.7112],[34.0809,60.7464],[33.9428,60.7759],[33.836,60.8371],[33.8646,60.926],[33.7698,60.9566]],[[33.6298,60.6929],[33.5989,60.6976],[33.619,60.7084],[33.6298,60.6929]]]},"properties":{"GID_0":"RUS","GID_1":"RUS.38_1","GID_2":"RUS.38.13_1","NAME_1":"Leningrad","NAME_2":"Lodeynopol'skiyrayon"}},
{"type":"Feature","geometry":{"type":"Polygon","coordinates":[[[30.0627,59.6875],[29.9447,59.7692],[29.676,59.8632],[29.6952,59.9326],[29.335,59.9802],[29.1304,59.9874],[29.0627,59.9604],[29.0662,59.8713],[28.9781,59.8118],[28.797,59.7733],[28.8804,59.7388],[28.9437,59.6437],[29.0008,59.6138],[29.1455,59.6282],[29.2844,59.6477],[29.4244,59.62],[29.6251,59.6678],[29.7574,59.6191],[29.9212,59.6431],[30.0627,59.6875]],[[29.0773,59.8586],[29.0712,59.8561],[29.0603,59.8625],[29.0766,59.8637],[29.0773,59.8586]]]},"properties":{"GID_0":"RUS","GID_1":"RUS.38_1","GID_2":"RUS.38.14_1","NAME_1":"Leningrad","NAME_2":"Lomonosovskiyrayon"}},
{"type":"Feature","geometry":{"type":"Polygon","coordinates":[[[29.7482,58.8008],[29.7523,58.8087],[29.7344,58.8058],[29.7482,58.8008]]]},"properties":{"GID_0":"RUS","GID_1":"RUS.38_1","GID_2":"RUS.38.15_1","NAME_1":"Leningrad","NAME_2":"Luga"}},
{"type":"Feature","geometry":{"type":"Polygon","coordinates":[[[29.588,59.2342],[29.5936,59.1831],[29.7344,59.1505],[29.6863,59.0713],[29.434,59.0382],[29.3727,58.9983],[29.0367,59.062],[29.0177,58.9784],[28.944,58.9175],[28.7753,58.9226],[28.6662,58.8728],[28.6772,58.8079],[28.8974,58.7765],[29.0101,58.7817],[29.0932,58.7206],[29.269,58.6486],[29.2718,58.5817],[29.3401,58.5438],[29.5574,58.5176],[29.6154,58.4439],[29.7032,58.4156],[29.8183,58.4093],[29.9283,58.4405],[30.0356,58.4194],[30.1569,58.4641],[30.1592,58.5466],[30.1095,58.6177],[30.168,58.6671],[30.1293,58.7009],[30.1903,58.7406],[30.3845,58.6779],[30.5177,58.7255],[30.6729,58.7099],[30.7604,58.7501],[30.7719,58.8266],[30.9557,58.9062],[30.9858,58.9613],[30.8624,59.0133],[30.7948,59.0587],[30.7546,59.0149],[30.651,59.0272],[30.6393,59.0041],[30.5374,59.0257],[30.4455,59.0153],[30.393,58.971],[30.1629,59.0014],[30.0331,59.153],[29.9118,59.165],[29.892,59.2268],[29.588,59.2342]],[[29.7482,58.8008],[29.7344,58.8058],[29.7523,58.8087],[29.7482,58.8008]]]},"properties":{"GID_0":"RUS","GID_1":"RUS.38_1","GID_2":"RUS.38.16_1","NAME_1":"Leningrad","NAME_2":"Luzhskiyrayon"}},
{"type":"Feature","geometry":{"type":"Polygon","coordinates":[[[34.1524,59.566],[34.1683,59.5779],[34.1443,59.5843],[34.1315,59.5722],[34.1524,59.566]]]},"properties":{"GID_0":"RUS","GID_1":"RUS.38_1","GID_2":"RUS.38.17_1","NAME_1":"Leningrad","NAME_2":"Pikalyovo"}},
{"type":"Feature","geometry":{"type":"Polygon","coordinates":[[[34.281,60.8969],[34.2766,60.9079],[34.2579,60.901],[34.281,60.8969]]]},"properties":{"GID_0":"RUS","GID_1":"RUS.38_1","GID_2":"RUS.38.18_1","NAME_1":"Leningrad","NAME_2":"Podporozh'e"}},
{"type":"Feature","geometry":{"type":"Polygon","coordinates":[[[33.7698,60.9566],[33.8646,60.926],[33.836,60.8371],[33.9428,60.7759],[34.0809,60.7464],[34.1176,60.7112],[34.342,60.6789],[34.3376,60.6119],[34.4584,60.5764],[34.3842,60.541],[34.4443,60.4485],[34.6297,60.3728],[34.7912,60.2762],[34.9438,60.2189],[35.1694,60.2263],[35.1629,60.269],[35.2395,60.3224],[35.2946,60.4733],[35.3324,60.5182],[35.3395,60.61],[35.2966,60.6926],[35.2034,60.7971],[35.3184,60.869],[35.4942,60.8519],[35.6002,60.9423],[35.5198,61.0048],[35.6567,61.06],[35.713,61.1708],[35.6005,61.2375],[35.4883,61.1692],[35.3464,61.2084],[35.3756,61.3016],[35.1571,61.2587],[34.7601,61.3462],[34.5065,61.2472],[34.4738,61.1691],[34.2101,61.2729],[34.1299,61.2547],[33.7744,61.2763],[33.4715,61.1964],[33.5028,61.1556],[33.6544,61.0984],[33.7408,61.128],[33.9023,61.1026],[33.7698,60.9566]],[[34.281,60.8969],[34.2579,60.901],[34.2766,60.9079],[34.281,60.8969]]]},"properties":{"GID_0":"RUS","GID_1":"RUS.38_1","GID_2":"RUS.38.19_1","NAME_1":"Leningrad","NAME_2":"Podporozhskiyrayon"}},
{"type":"Feature","geometry":{"type":"Polygon","coordinates":[[[30.1102,61.0265],[30.1016,61.0322],[30.0897,61.0281],[30.0967,61.0211],[30.1102,61.0265]]]},"properties":{"GID_0":"RUS","GID_1":"RUS.38_1","GID_2":"RUS.38.20_1","NAME_1":"Leningrad","NAME_2":"Priozersk"}},
{"type":"Feature","geometry":{"type":"Polygon","coordinates":[[[29.6787,61.1907],[29.6591,61.1272],[29.6935,61.0373],[29.7017,60.8813],[29.6701,60.7877],[29.5813,60.7252],[29.6226,60.6616],[29.6523,60.5175],[29.6839,60.4881],[29.8384,60.5021],[29.9049,60.4345],[30.088,60.4022],[30.2283,60.3965],[30.4493,60.3297],[30.5001,60.3343],[30.6796,60.414],[30.7979,60.4297],[30.833,60.4383],[30.8194,60.4784],[30.8123,60.5321],[30.7321,60.5813],[30.5881,60.6275],[30.507,60.7282],[30.5744,60.7732],[30.5002,60.9104],[30.1929,61.1042],[30.0663,61.1052],[29.9445,61.1432],[29.805,61.1884],[29.6787,61.1907]],[[30.1102,61.0265],[30.0967,61.0211],[30.0897,61.0281],[30.1016,61.0322],[30.1102,61.0265]]]},"properties":{"GID_0":"RUS","GID_1":"RUS.38_1","GID_2":"RUS.38.21_1","NAME_1":"Leningrad","NAME_2":"Priozerskiyrayon"}},
{"type":"Feature","geometry":{"type":"MultiPolygon","coordinates":[[[[32.9356,60.7245],[32.785,60.6465],[32.634,60.6515],[31.4615,60.878],[30.5657,61.044],[30.2235,61.0994],[30.0624,61.1397],[29.9445,61.1432],[30.0663,61.1052],[30.1929,61.1042],[30.5002,60.9104],[30.5744,60.7732],[30.507,60.7282],[30.5881,60.6275],[30.7321,60.5813],[30.8123,60.5321],[30.8194,60.4784],[30.8369,60.426],[30.9144,60.2872],[30.9417,60.2018],[31.0092,60.1947],[31.0243,60.0786],[31.08,60.0147],[31.0193,59.9599],[31.1585,59.9139],[31.2568,59.9445],[31.3239,59.9156],[31.448,59.9253],[31.4809,59.9584],[31.4763,60.089],[31.7013,60.2754],[32.0079,60.2509],[32.2486,60.1633],[32.423,60.1566],[32.5907,60.204],[32.658,60.2744],[32.5634,60.3739],[32.6911,60.3643],[32.7181,60.4038],[32.6299,60.449],[32.6188,60.5703],[32.8096,60.5235],[32.8709,60.4779],[32.8776,60.502],[32.89,60.5244],[32.9863,60.6909],[32.9356,60.7245]]],[[[28.203372580645173,59.363214516129034],[27.9062,59.2491],[27.8885,59.1947],[27.8056,59.1305],[27.7158,58.9694],[27.793,58.9386],[27.9063,59.0004],[28.0547,58.9903],[28.1854,58.9573],[28.283,58.8507],[28.4124,58.8455],[28.6772,58.8079],[28.6662,58.8728],[28.7753,58.9226],[28.944,58.9175],[29.0177,58.9784],[29.0367,59.062],[29.0841,59.1175],[28.9204,59.1416],[28.894,59.0832],[28.7504,59.1243],[28.6422,59.0595],[28.5685,59.0909],[28.5885,59.188],[28.5491,59.2333],[28.4258,59.2937],[28.2038,59.3783],[28.20342755905514,59.363237795275595],[28.203372580645173,59.363214516129034]],[[28.1237,59.0994],[28.1287,59.107],[28.1459,59.1006],[28.1341,59.0957],[28.1237,59.0994]]]]},"properties":{"GID_0":"RUS","GID_1":"RUS.38_1","GID_2":"RUS.38.22_1","NAME_1":"Leningrad","NAME_2":"Slantsevskiyrayon"}},
{"type":"Feature","geometry":{"type":"Polygon","coordinates":[[[28.1341,59.0957],[28.1459,59.1006],[28.1287,59.107],[28.1237,59.0994],[28.1341,59.0957]]]},"properties":{"GID_0":"RUS","GID_1":"RUS.38_1","GID_2":"RUS.38.23_1","NAME_1":"Leningrad","NAME_2":"Slantsy"}},
{"type":"Feature","geometry":{"type":"Polygon","coordinates":[[[29.0773,59.8586],[29.0766,59.8637],[29.0603,59.8625],[29.0712,59.8561],[29.0773,59.8586]]]},"properties":{"GID_0":"RUS","GID_1":"RUS.38_1","GID_2":"RUS.38.24_1","NAME_1":"Leningrad","NAME_2":"SosnovyyBor"}},
{"type":"Feature","geometry":{"type":"Polygon","coordinates":[[[33.6136,59.6458],[33.6119,59.6601],[33.5901,59.6553],[33.6136,59.6458]]]},"properties":{"GID_0":"RUS","GID_1":"RUS.38_1","GID_2":"RUS.38.25_1","NAME_1":"Leningrad","NAME_2":"Tikhvin"}},
{"type":"Feature","geometry":{"type":"Polygon","coordinates":[[[35.1738,60.0502],[35.2344,60.118],[35.1437,60.1549],[35.1694,60.2263],[34.9438,60.2189],[34.7912,60.2762],[34.6483,60.2658],[34.5737,60.2253],[34.5881,60.1753],[34.5009,60.1458],[33.9689,60.14],[33.7881,60.1494],[33.7478,60.171],[33.6271,60.0987],[33.3924,60.1061],[33.288,60.1317],[33.2206,60.1811],[33.096,60.1481],[33.1905,59.9534],[33.1628,59.8318],[32.9833,59.7491],[32.7193,59.6729],[32.6511,59.5836],[32.8345,59.5464],[32.7821,59.4923],[32.8296,59.4492],[33.0042,59.3489],[33.1275,59.3564],[33.2979,59.2885],[33.3996,59.299],[33.4435,59.3433],[33.534,59.3264],[33.6509,59.3545],[33.6756,59.4141],[33.7678,59.489],[33.6634,59.5546],[33.6547,59.6068],[33.7192,59.6469],[33.8379,59.6739],[33.8505,59.767],[34.0479,59.7858],[34.1217,59.713],[34.4841,59.6921],[34.5718,59.6633],[34.6274,59.7738],[34.717,59.8276],[34.7877,59.8349],[34.9485,59.9083],[35.0134,59.9764],[35.012,60.0656],[35.071,60.0773],[34.9891,60.1654],[35.0556,60.1786],[35.1738,60.0502]],[[33.6136,59.6458],[33.5901,59.6553],[33.6119,59.6601],[33.6136,59.6458]]]},"properties":{"GID_0":"RUS","GID_1":"RUS.38_1","GID_2":"RUS.38.26_1","NAME_1":"Leningrad","NAME_2":"Tikhvinskiyrayon"}},
{"type":"Feature","geometry":{"type":"Polygon","coordinates":[[[30.4826,59.6233],[30.445,59.471],[30.6224,59.2876],[30.6898,59.1733],[30.6629,59.0481],[30.651,59.0272],[30.7546,59.0149],[30.7948,59.0587],[30.8624,59.0133],[30.9858,58.9613],[31.0492,59.039],[31.1584,59.0376],[31.2752,58.9943],[31.4062,59.0211],[31.5271,59.1204],[31.5748,59.2224],[31.5479,59.341],[31.5851,59.345],[31.5635,59.4229],[31.5887,59.4937],[31.3872,59.5193],[31.3198,59.5123],[31.216,59.576],[30.9531,59.6021],[30.7994,59.6619],[30.8447,59.7167],[30.7584,59.7766],[30.7515,59.7233],[30.599,59.7019],[30.4826,59.6233]],[[30.925,59.5384],[30.9054,59.5402],[30.9162,59.5478],[30.925,59.5384]]]},"properties":{"GID_0":"RUS","GID_1":"RUS.38_1","GID_2":"RUS.38.27_1","NAME_1":"Leningrad","NAME_2":"Tosnenskiyrayon"}},
{"type":"Feature","geometry":{"type":"Polygon","coordinates":[[[30.925,59.5384],[30.9162,59.5478],[30.9054,59.5402],[30.925,59.5384]]]},"properties":{"GID_0":"RUS","GID_1":"RUS.38_1","GID_2":"RUS.38.28_1","NAME_1":"Leningrad","NAME_2":"Tosno"}},
{"type":"Feature","geometry":{"type":"Polygon","coordinates":[[[32.379,59.9391],[32.3773,59.9498],[32.3563,59.9454],[32.379,59.9391]]]},"properties":{"GID_0":"RUS","GID_1":"RUS.38_1","GID_2":"RUS.38.29_1","NAME_1":"Leningrad","NAME_2":"Volkhov"}},
{"type":"Feature","geometry":{"type":"Polygon","coordinates":[[[32.6511,59.5836],[32.7193,59.6729],[32.9833,59.7491],[33.1628,59.8318],[33.1905,59.9534],[33.096,60.1481],[33.2206,60.1811],[33.288,60.1317],[33.3924,60.1061],[33.6271,60.0987],[33.7478,60.171],[33.7099,60.2668],[33.6375,60.2895],[33.5665,60.3818],[33.3746,60.3991],[33.0324,60.45],[32.9619,60.4723],[32.8793,60.5059],[32.8709,60.4779],[32.8096,60.5235],[32.6188,60.5703],[32.6299,60.449],[32.7181,60.4038],[32.6911,60.3643],[32.5634,60.3739],[32.658,60.2744],[32.5907,60.204],[32.423,60.1566],[32.2486,60.1633],[32.0079,60.2509],[31.7013,60.2754],[31.4763,60.089],[31.4809,59.9584],[31.4586,59.9349],[31.5777,59.9093],[31.7401,59.7945],[31.7996,59.7417],[31.901,59.7183],[32.0138,59.7368],[32.1944,59.7276],[32.2513,59.654],[32.3518,59.6763],[32.4366,59.5977],[32.6511,59.5836]],[[32.379,59.9391],[32.3563,59.9454],[32.3773,59.9498],[32.379,59.9391]]]},"properties":{"GID_0":"RUS","GID_1":"RUS.38_1","GID_2":"RUS.38.30_1","NAME_1":"Leningrad","NAME_2":"Volkhovskiyrayon"}},
{"type":"Feature","geometry":{"type":"Polygon","coordinates":[[[29.7574,59.6191],[29.6251,59.6678],[29.4244,59.62],[29.2844,59.6477],[29.1455,59.6282],[29.1578,59.5943],[29.0653,59.4574],[29.0504,59.3729],[29.0989,59.1995],[29.0805,59.1698],[28.9289,59.1808],[28.9204,59.1416],[29.0841,59.1175],[29.0367,59.062],[29.3727,58.9983],[29.434,59.0382],[29.6863,59.0713],[29.7344,59.1505],[29.5936,59.1831],[29.588,59.2342],[29.6044,59.2756],[29.7286,59.3667],[29.7242,59.5018],[29.7574,59.6191]]]},"properties":{"GID_0":"RUS","GID_1":"RUS.38_1","GID_2":"RUS.38.31_1","NAME_1":"Leningrad","NAME_2":"Volosovskiyrayon"}},
{"type":"Feature","geometry":{"type":"Polygon","coordinates":[[[30.6649,60.0015],[30.6752,60.0054],[30.664,60.0129],[30.6511,60.0092],[30.6649,60.0015]]]},"properties":{"GID_0":"RUS","GID_1":"RUS.38_1","GID_2":"RUS.38.32_1","NAME_1":"Leningrad","NAME_2":"Vsevolzhsk"}},
{"type":"Feature","geometry":{"type":"Polygon","coordinates":[[[30.7584,59.7766],[30.8104,59.7934],[30.8823,59.8707],[30.9887,59.927],[31.0729,59.9417],[31.0193,59.9599],[31.08,60.0147],[31.0243,60.0786],[31.0092,60.1947],[30.9417,60.2018],[30.9144,60.2872],[30.8369,60.426],[30.833,60.4383],[30.7979,60.4297],[30.6796,60.414],[30.5001,60.3343],[30.4493,60.3297],[30.2283,60.3965],[30.088,60.4022],[30.1726,60.3541],[30.214,60.2725],[30.1856,60.1923],[30.1299,60.1567],[30.3843,60.1282],[30.3482,60.0743],[30.3795,60.0337],[30.5299,59.9751],[30.4981,59.9069],[30.5173,59.8509],[30.7584,59.7766]],[[30.6649,60.0015],[30.6511,60.0092],[30.664,60.0129],[30.6752,60.0054],[30.6649,60.0015]]]},"properties":{"GID_0":"RUS","GID_1":"RUS.38_1","GID_2":"RUS.38.33_1","NAME_1":"Leningrad","NAME_2":"Vsevolzhskiyrayon"}},
{"type":"Feature","geometry":{"type":"Polygon","coordinates":[[[28.7508,60.6983],[28.764,60.6922],[28.7766,60.6986],[28.7508,60.6983]]]},"properties":{"GID_0":"RUS","GID_1":"RUS.38_1","GID_2":"RUS.38.34_1","NAME_1":"Leningrad","NAME_2":"Vyborg"}},
{"type":"Feature","geometry":{"type":"Polygon","coordinates":[[[29.6787,61.1907],[29.5646,61.2453],[29.4302,61.2723],[29.3216,61.3359],[29.2456,61.2734],[29.0146,61.1902],[28.936,61.1456],[28.8259,61.1219],[28.7293,61.0551],[28.6568,60.9508],[28.5375,60.9584],[28.2493,60.7989],[28.1873,60.782],[27.8774,60.6017],[27.8021,60.5333],[27.8453,60.5036],[28.05,60.5104],[28.2849,60.5755],[28.3854,60.6437],[28.6021,60.6604],[28.7042,60.6604],[28.6547,60.6276],[28.6495,60.5182],[28.7016,60.487],[28.6688,60.4313],[28.5005,60.4818],[28.65,60.3542],[28.9953,60.237],[29.0271,60.1792],[29.2417,60.1604],[29.4134,60.1604],[29.4217,60.1942],[29.5407,60.2562],[29.6384,60.2662],[29.8219,60.236],[30.1299,60.1567],[30.1856,60.1923],[30.214,60.2725],[30.1726,60.3541],[30.088,60.4022],[29.9049,60.4345],[29.8384,60.5021],[29.6839,60.4881],[29.6523,60.5175],[29.6226,60.6616],[29.5813,60.7252],[29.6701,60.7877],[29.7017,60.8813],[29.6935,61.0373],[29.6591,61.1272],[29.6787,61.1907]],[[28.7766,60.6986],[28.764,60.6922],[28.7508,60.6983],[28.7766,60.6986]]]},"properties":{"GID_0":"RUS","GID_1":"RUS.38_1","GID_2":"RUS.38.35_1","NAME_1":"Leningrad","NAME_2":"Vyborgskiyrayon"}}
]}