{"type":"FeatureCollection", "features": [
{"type":"Feature","geometry":{"type":"Polygon","coordinates":[[[57.5936,56.9088],[58.1896,56.5868],[58.3373,56.5782],[58.5157,56.6598],[58.5686,56.6931],[58.5009,56.7415],[58.4046,56.9059],[58.5568,57.06],[58.3623,57.0212],[58.054,57.1141],[57.5936,56.9088]]]},"properties":{"GID_0":"RUS","GID_1":"RUS.66_1","GID_2":"RUS.66.1_1","NAME_1":"Sverdlovsk","NAME_2":"Achitskiyrayon"}},
{"type":"Feature","geometry":{"type":"Polygon","coordinates":[[[61.5143,57.6895],[61.8763,57.8064],[61.548,57.9949],[61.1362,57.9245],[61.3585,57.7392],[61.5143,57.6895]]]},"properties":{"GID_0":"RUS","GID_1":"RUS.66_1","GID_2":"RUS.66.2_1","NAME_1":"Sverdlovsk","NAME_2":"Alapaevskgorsovet"}},
{"type":"Feature","geometry":{"type":"Polygon","coordinates":[[[61.5143,57.6895],[61.6627,57.5224],[62.1358,57.6803],[62.6517,57.8447],[62.6625,58.1436],[62.6068,58.3665],[62.8137,58.4197],[63.2958,58.6802],[63.3154,58.8122],[63.0786,58.9872],[62.4365,59.1839],[62.521,59.003],[62.4192,58.8523],[62.5083,58.6732],[62.3988,58.6129],[61.1823,58.4794],[61.1988,58.365],[61.0905,58.3657],[61.0996,58.1432],[60.9302,57.8928],[61.1362,57.9245],[61.548,57.9949],[61.8763,57.8064],[61.5143,57.6895]]]},"properties":{"GID_0":"RUS","GID_1":"RUS.66_1","GID_2":"RUS.66.3_1","NAME_1":"Sverdlovsk","NAME_2":"Alapaevskiyrayon"}},
{"type":"Feature","geometry":{"type":"Polygon","coordinates":[[[61.6627,57.5224],[61.5493,57.4074],[61.6386,57.242],[61.7329,57.2017],[62.2049,57.2456],[62.3339,57.2504],[62.5152,57.3695],[62.3729,57.6271],[62.1358,57.6803],[61.6627,57.5224]],[[61.8667,57.3235],[61.8426,57.3264],[61.8468,57.3389],[61.8794,57.3329],[61.8667,57.3235]]]},"properties":{"GID_0":"RUS","GID_1":"RUS.66_1","GID_2":"RUS.66.4_1","NAME_1":"Sverdlovsk","NAME_2":"Artemovskiyrayon"}},
{"type":"Feature","geometry":{"type":"Polygon","coordinates":[[[58.134,56.1469],[58.3161,56.1086],[58.6261,56.1708],[58.9248,56.0806],[59.0468,56.2208],[58.668,56.6218],[58.5686,56.6931],[58.5157,56.6598],[58.3373,56.5782],[58.1896,56.5868],[58.0504,56.5065],[58.1538,56.3496],[58.134,56.1469]]]},"properties":{"GID_0":"RUS","GID_1":"RUS.66_1","GID_2":"RUS.66.5_1","NAME_1":"Sverdlovsk","NAME_2":"Artinskiyrayon"}},
{"type":"Feature","geometry":{"type":"Polygon","coordinates":[[[61.6386,57.242],[61.377,57.2209],[61.3068,57.0092],[61.6783,56.9747],[61.7329,57.2017],[61.6386,57.242]]]},"properties":{"GID_0":"RUS","GID_1":"RUS.66_1","GID_2":"RUS.66.6_1","NAME_1":"Sverdlovsk","NAME_2":"Asbestgorsovet"}},
{"type":"Feature","geometry":{"type":"Polygon","coordinates":[[[63.8955,57.7938],[63.7668,57.7956],[63.741,57.8168],[63.5454,57.6298],[62.9677,57.2894],[63.3771,57.2742],[63.925,57.3097],[63.9363,57.3293],[64.116,57.5615],[63.8955,57.7938]]]},"properties":{"GID_0":"RUS","GID_1":"RUS.66_1","GID_2":"RUS.66.7_1","NAME_1":"Sverdlovsk","NAME_2":"Baykalovskiyrayon"}},
{"type":"Feature","geometry":{"type":"Polygon","coordinates":[[[61.3068,57.0092],[61.2158,56.8838],[60.9523,56.7961],[61.1495,56.7241],[61.1505,56.5067],[61.4184,56.4978],[61.7467,56.6749],[61.624,56.8371],[61.6783,56.9747],[61.3068,57.0092]],[[61.3409,56.8144],[61.3298,56.8105],[61.3193,56.8154],[61.336,56.8238],[61.3409,56.8144]]]},"properties":{"GID_0":"RUS","GID_1":"RUS.66_1","GID_2":"RUS.66.8_1","NAME_1":"Sverdlovsk","NAME_2":"Beloyarskiyrayon"}},
{"type":"Feature","geometry":{"type":"Polygon","coordinates":[[[61.377,57.2209],[60.9513,57.2706],[60.7369,57.0415],[60.7974,56.9771],[60.9523,56.7961],[61.2158,56.8838],[61.3068,57.0092],[61.377,57.2209]]]},"properties":{"GID_0":"RUS","GID_1":"RUS.66_1","GID_2":"RUS.66.9_1","NAME_1":"Sverdlovsk","NAME_2":"Berezovskiygorsovet"}},
{"type":"Feature","geometry":{"type":"Polygon","coordinates":[[[62.5586,56.6007],[62.4077,56.8222],[62.136,56.8624],[61.624,56.8371],[61.7467,56.6749],[61.8976,56.5693],[62.3385,56.5065],[62.5586,56.6007]]]},"properties":{"GID_0":"RUS","GID_1":"RUS.66_1","GID_2":"RUS.66.10_1","NAME_1":"Sverdlovsk","NAME_2":"Bogdanovichskiyrayon"}},
{"type":"Feature","geometry":{"type":"Polygon","coordinates":[[[60.7974,56.9771],[60.3499,56.9388],[60.1735,56.7809],[60.2447,56.6818],[60.554,56.6209],[60.9523,56.7961],[60.7974,56.9771]]]},"properties":{"GID_0":"RUS","GID_1":"RUS.66_1","GID_2":"RUS.66.11_1","NAME_1":"Sverdlovsk","NAME_2":"Ekaterinburggorsovet"}},
{"type":"Feature","geometry":{"type":"Polygon","coordinates":[[[63.1398,60.5127],[62.0065,60.5801],[61.8238,60.3494],[61.5449,60.2885],[61.391,60.1589],[61.6857,59.9307],[61.8398,59.416],[62.0012,59.2927],[62.3602,59.2744],[62.4365,59.1839],[63.0786,58.9872],[63.3902,59.0955],[63.7658,59.0921],[64.0891,59.4225],[63.8508,59.5775],[63.8534,59.8542],[63.7049,60.1495],[63.2598,60.241],[63.2914,60.3974],[63.1398,60.5127]]]},"properties":{"GID_0":"RUS","GID_1":"RUS.66_1","GID_2":"RUS.66.12_1","NAME_1":"Sverdlovsk","NAME_2":"Garinskiyrayon"}},
{"type":"Feature","geometry":{"type":"Polygon","coordinates":[[[63.0637,57.6165],[63.0747,57.6318],[63.0574,57.6371],[63.039,57.6228],[63.0637,57.6165]]]},"properties":{"GID_0":"RUS","GID_1":"RUS.66_1","GID_2":"RUS.66.13_1","NAME_1":"Sverdlovsk","NAME_2":"Irbit"}},
{"type":"Feature","geometry":{"type":"Polygon","coordinates":[[[62.1358,57.6803],[62.3729,57.6271],[62.5152,57.3695],[62.3339,57.2504],[62.373,57.2507],[62.8858,57.2712],[62.9677,57.2894],[63.5454,57.6298],[63.741,57.8168],[63.6821,57.8654],[63.2952,57.9409],[62.6625,58.1436],[62.6517,57.8447],[62.1358,57.6803]],[[63.0637,57.6165],[63.039,57.6228],[63.0574,57.6371],[63.0747,57.6318],[63.0637,57.6165]]]},"properties":{"GID_0":"RUS","GID_1":"RUS.66_1","GID_2":"RUS.66.14_1","NAME_1":"Sverdlovsk","NAME_2":"Irbitskiyrayon"}},
{"type":"Feature","geometry":{"type":"Polygon","coordinates":[[[63.1398,60.5127],[62.8343,60.8865],[62.8955,61.0732],[62.7187,61.2032],[61.0799,61.7025],[60.4248,61.7494],[60.0693,61.7135],[59.9902,61.8585],[59.5222,61.9744],[59.3571,61.8131],[59.4971,61.5776],[59.307,61.3461],[59.5012,60.8182],[60.2473,60.7277],[60.1082,60.4657],[60.224,60.2253],[60.5502,60.1794],[60.7456,60.3027],[61.3115,60.2197],[61.391,60.1589],[61.5449,60.2885],[61.8238,60.3494],[62.0065,60.5801],[63.1398,60.5127]]]},"properties":{"GID_0":"RUS","GID_1":"RUS.66_1","GID_2":"RUS.66.15_1","NAME_1":"Sverdlovsk","NAME_2":"Ivdel'gorsovet"}},
{"type":"Feature","geometry":{"type":"Polygon","coordinates":[[[59.454,58.5954],[59.6028,58.7917],[59.4821,58.9025],[59.2097,58.7674],[59.4319,58.7538],[59.454,58.5954]]]},"properties":{"GID_0":"RUS","GID_1":"RUS.66_1","GID_2":"RUS.66.16_1","NAME_1":"Sverdlovsk","NAME_2":"Kachkanargorsovet"}},
{"type":"Feature","geometry":{"type":"Polygon","coordinates":[[[61.9635,56.3624],[61.9428,56.5549],[61.8051,56.4927],[61.9635,56.3624]]]},"properties":{"GID_0":"RUS","GID_1":"RUS.66_1","GID_2":"RUS.66.17_1","NAME_1":"Sverdlovsk","NAME_2":"Kamensk-Ural'sk"}},
{"type":"Feature","geometry":{"type":"Polygon","coordinates":[[[61.0979,56.38],[61.6801,56.3433],[61.8851,56.2143],[62.3385,56.5065],[61.8976,56.5693],[61.7467,56.6749],[61.4184,56.4978],[61.1505,56.5067],[61.0979,56.38]],[[61.9635,56.3624],[61.8051,56.4927],[61.9428,56.5549],[61.9635,56.3624]]]},"properties":{"GID_0":"RUS","GID_1":"RUS.66_1","GID_2":"RUS.66.18_1","NAME_1":"Sverdlovsk","NAME_2":"Kamenskiyrayon"}},
{"type":"Feature","geometry":{"type":"Polygon","coordinates":[[[62.7401,56.8322],[62.7387,56.8444],[62.7097,56.8397],[62.719,56.8302],[62.7401,56.8322]]]},"properties":{"GID_0":"RUS","GID_1":"RUS.66_1","GID_2":"RUS.66.19_1","NAME_1":"Sverdlovsk","NAME_2":"Kamyshlov"}},
{"type":"Feature","geometry":{"type":"Polygon","coordinates":[[[62.898,56.6281],[62.9954,56.9741],[62.8858,57.2712],[62.373,57.2507],[62.4077,56.8222],[62.5586,56.6007],[62.898,56.6281]],[[62.7401,56.8322],[62.719,56.8302],[62.7097,56.8397],[62.7387,56.8444],[62.7401,56.8322]]]},"properties":{"GID_0":"RUS","GID_1":"RUS.66_1","GID_2":"RUS.66.20_1","NAME_1":"Sverdlovsk","NAME_2":"Kamyshlovskiyrayon"}},
{"type":"Feature","geometry":{"type":"Polygon","coordinates":[[[59.2268,60.2536],[59.0697,59.9849],[58.6306,59.7365],[58.4892,59.4919],[58.7402,59.3237],[58.9877,59.2827],[59.1993,59.5543],[59.4444,59.7522],[59.8699,59.625],[60.0076,59.6973],[60.1533,60.037],[60.2811,60.0399],[60.1856,60.1171],[59.8169,60.1482],[59.5254,60.0774],[59.4253,60.2454],[59.2268,60.2536]]]},"properties":{"GID_0":"RUS","GID_1":"RUS.66_1","GID_2":"RUS.66.21_1","NAME_1":"Sverdlovsk","NAME_2":"Karpinskgorsovet"}},
{"type":"Feature","geometry":{"type":"Polygon","coordinates":[[[59.7613,57.3355],[59.9348,57.1949],[60.1713,57.3442],[60.0228,57.7015],[59.7872,57.6348],[59.6981,57.3602],[59.7613,57.3355]]]},"properties":{"GID_0":"RUS","GID_1":"RUS.66_1","GID_2":"RUS.66.22_1","NAME_1":"Sverdlovsk","NAME_2":"Kirovgradgorsovet"}},
{"type":"Feature","geometry":{"type":"Polygon","coordinates":[[[59.8699,59.625],[60.2002,59.566],[60.2505,59.7433],[60.4077,59.8212],[60.3663,60.0417],[60.1533,60.037],[60.0076,59.6973],[59.8699,59.625]]]},"properties":{"GID_0":"RUS","GID_1":"RUS.66_1","GID_2":"RUS.66.23_1","NAME_1":"Sverdlovsk","NAME_2":"Krasnotur'inskgorsovet"}},
{"type":"Feature","geometry":{"type":"Polygon","coordinates":[[[57.5936,56.9088],[57.2597,56.8389],[57.4415,56.6764],[57.3894,56.3996],[57.5601,56.1361],[58.134,56.1469],[58.1538,56.3496],[58.0504,56.5065],[58.1896,56.5868],[57.5936,56.9088]]]},"properties":{"GID_0":"RUS","GID_1":"RUS.66_1","GID_2":"RUS.66.24_1","NAME_1":"Sverdlovsk","NAME_2":"Krasnoufimskiyrayon"}},
{"type":"Feature","geometry":{"type":"Polygon","coordinates":[[[60.7068,58.5212],[60.4045,58.5822],[59.8568,58.5449],[59.9124,58.1821],[60.3354,58.2214],[60.4129,58.3907],[60.7068,58.5212]]]},"properties":{"GID_0":"RUS","GID_1":"RUS.66_1","GID_2":"RUS.66.25_1","NAME_1":"Sverdlovsk","NAME_2":"Krasnoural'skgorsovet"}},
{"type":"Feature","geometry":{"type":"Polygon","coordinates":[[[58.8828,58.286],[58.8529,58.2004],[59.1948,58.0221],[59.5372,58.0143],[59.9124,58.1821],[59.8568,58.5449],[59.476,58.5464],[59.1902,58.3529],[58.8828,58.286]]]},"properties":{"GID_0":"RUS","GID_1":"RUS.66_1","GID_2":"RUS.66.26_1","NAME_1":"Sverdlovsk","NAME_2":"Kushvagorsovet"}},
{"type":"Feature","geometry":{"type":"Polygon","coordinates":[[[61.8667,57.3235],[61.8794,57.3329],[61.8468,57.3389],[61.8426,57.3264],[61.8667,57.3235]]]},"properties":{"GID_0":"RUS","GID_1":"RUS.66_1","GID_2":"RUS.66.27_1","NAME_1":"Sverdlovsk","NAME_2":"NA(2)"}},
{"type":"Feature","geometry":{"type":"Polygon","coordinates":[[[60.1968,57.4764],[60.1915,57.4936],[60.154,57.4897],[60.1687,57.4691],[60.1968,57.4764]]]},"properties":{"GID_0":"RUS","GID_1":"RUS.66_1","GID_2":"RUS.66.28_1","NAME_1":"Sverdlovsk","NAME_2":"Nev'yansk"}},
{"type":"Feature","geometry":{"type":"Polygon","coordinates":[[[59.9348,57.1949],[60.272,56.9969],[60.4804,57.3288],[60.8022,57.3686],[60.7737,57.5129],[60.2381,57.7386],[60.0228,57.7015],[60.1713,57.3442],[59.9348,57.1949]],[[60.1968,57.4764],[60.1687,57.4691],[60.154,57.4897],[60.1915,57.4936],[60.1968,57.4764]]]},"properties":{"GID_0":"RUS","GID_1":"RUS.66_1","GID_2":"RUS.66.29_1","NAME_1":"Sverdlovsk","NAME_2":"Nev'yanskiyrayon"}},
{"type":"Feature","geometry":{"type":"Polygon","coordinates":[[[59.6452,56.3227],[59.796,56.4626],[59.716,56.6793],[59.7199,56.7152],[59.6633,56.729],[59.6121,56.7448],[59.5682,56.7676],[59.5152,56.8433],[59.3148,56.908],[59.2167,57.0062],[58.9105,57.1144],[58.5568,57.06],[58.4046,56.9059],[58.5009,56.7415],[58.668,56.6218],[59.0468,56.2208],[59.2697,56.3866],[59.6452,56.3227]]]},"properties":{"GID_0":"RUS","GID_1":"RUS.66_1","GID_2":"RUS.66.30_1","NAME_1":"Sverdlovsk","NAME_2":"Nizhneserginskiyrayon"}},
{"type":"Feature","geometry":{"type":"Polygon","coordinates":[[[60.2198,57.8919],[59.9598,58.099],[59.7767,57.9302],[59.9352,57.8175],[60.2198,57.8919]]]},"properties":{"GID_0":"RUS","GID_1":"RUS.66_1","GID_2":"RUS.66.31_1","NAME_1":"Sverdlovsk","NAME_2":"NizhniyTagilgorod"}},
{"type":"Feature","geometry":{"type":"Polygon","coordinates":[[[59.2097,58.7674],[59.4821,58.9025],[59.6028,58.7917],[59.454,58.5954],[59.476,58.5464],[59.8568,58.5449],[60.4045,58.5822],[60.2823,58.7307],[59.928,58.9],[59.825,59.0954],[59.2153,59.0064],[59.2097,58.7674]]]},"properties":{"GID_0":"RUS","GID_1":"RUS.66_1","GID_2":"RUS.66.32_1","NAME_1":"Sverdlovsk","NAME_2":"NizhniyTuragorsovet"}},
{"type":"Feature","geometry":{"type":"Polygon","coordinates":[[[59.2153,59.0064],[59.825,59.0954],[59.928,58.9],[60.1588,58.9052],[60.9406,59.0944],[60.3985,59.3892],[60.2002,59.566],[59.8699,59.625],[59.4444,59.7522],[59.1993,59.5543],[58.9877,59.2827],[59.2153,59.0064]]]},"properties":{"GID_0":"RUS","GID_1":"RUS.66_1","GID_2":"RUS.66.33_1","NAME_1":"Sverdlovsk","NAME_2":"Novolyalinskiyrayon"}},
{"type":"Feature","geometry":{"type":"Polygon","coordinates":[[[60.3499,56.9388],[60.272,56.9969],[59.9348,57.1949],[59.7613,57.3355],[59.5841,57.1586],[59.2748,57.1407],[59.2167,57.0062],[59.3148,56.908],[59.5152,56.8433],[59.5682,56.7676],[59.6121,56.7448],[59.6633,56.729],[59.7199,56.7152],[59.7238,56.7513],[59.9255,56.8937],[60.1735,56.7809],[60.3499,56.9388]]]},"properties":{"GID_0":"RUS","GID_1":"RUS.66_1","GID_2":"RUS.66.34_1","NAME_1":"Sverdlovsk","NAME_2":"Pervoural'skgorsovet"}},
{"type":"Feature","geometry":{"type":"Polygon","coordinates":[[[59.6539,56.3087],[59.7216,56.2518],[60.3437,56.2941],[60.4095,56.5434],[60.554,56.6209],[60.2447,56.6818],[60.0576,56.6529],[59.849,56.3397],[59.6539,56.3087]]]},"properties":{"GID_0":"RUS","GID_1":"RUS.66_1","GID_2":"RUS.66.35_1","NAME_1":"Sverdlovsk","NAME_2":"Polevskoygorsovet"}},
{"type":"Feature","geometry":{"type":"Polygon","coordinates":[[[58.8828,58.286],[58.5986,58.0942],[58.6878,57.9378],[58.8994,57.827],[58.7396,57.733],[58.7692,57.4679],[59.6981,57.3602],[59.7872,57.6348],[60.0228,57.7015],[60.2381,57.7386],[60.7737,57.5129],[61.0338,57.5515],[61.3585,57.7392],[61.1362,57.9245],[60.9302,57.8928],[60.5198,58.0007],[60.3354,58.2214],[59.9124,58.1821],[59.5372,58.0143],[59.1948,58.0221],[58.8529,58.2004],[58.8828,58.286]],[[60.2198,57.8919],[59.9352,57.8175],[59.7767,57.9302],[59.9598,58.099],[60.2198,57.8919]]]},"properties":{"GID_0":"RUS","GID_1":"RUS.66_1","GID_2":"RUS.66.36_1","NAME_1":"Sverdlovsk","NAME_2":"Prigorodnyyrayon"}},
{"type":"Feature","geometry":{"type":"Polygon","coordinates":[[[63.4381,56.6393],[63.4465,56.8093],[63.3255,57.1568],[62.8858,57.2712],[62.9954,56.9741],[62.898,56.6281],[63.4381,56.6393]]]},"properties":{"GID_0":"RUS","GID_1":"RUS.66_1","GID_2":"RUS.66.37_1","NAME_1":"Sverdlovsk","NAME_2":"Pyshminskiyrayon"}},
{"type":"Feature","geometry":{"type":"Polygon","coordinates":[[[59.6539,56.3087],[59.849,56.3397],[60.0576,56.6529],[60.2447,56.6818],[60.1735,56.7809],[59.9255,56.8937],[59.7238,56.7513],[59.716,56.6793],[59.796,56.4626],[59.6452,56.3227],[59.6539,56.3087]]]},"properties":{"GID_0":"RUS","GID_1":"RUS.66_1","GID_2":"RUS.66.38_1","NAME_1":"Sverdlovsk","NAME_2":"Revdagorsovet"}},
{"type":"Feature","geometry":{"type":"Polygon","coordinates":[[[61.4763,57.3832],[61.4542,57.4055],[61.4248,57.3979],[61.4559,57.3762],[61.4763,57.3832]]]},"properties":{"GID_0":"RUS","GID_1":"RUS.66_1","GID_2":"RUS.66.39_1","NAME_1":"Sverdlovsk","NAME_2":"Rezh"}},
{"type":"Feature","geometry":{"type":"Polygon","coordinates":[[[61.3585,57.7392],[61.0338,57.5515],[60.7737,57.5129],[60.8022,57.3686],[60.9513,57.2706],[61.377,57.2209],[61.6386,57.242],[61.5493,57.4074],[61.6627,57.5224],[61.5143,57.6895],[61.3585,57.7392]],[[61.4763,57.3832],[61.4559,57.3762],[61.4248,57.3979],[61.4542,57.4055],[61.4763,57.3832]]]},"properties":{"GID_0":"RUS","GID_1":"RUS.66_1","GID_2":"RUS.66.40_1","NAME_1":"Sverdlovsk","NAME_2":"Rezhevskiyrayon"}},
{"type":"Feature","geometry":{"type":"Polygon","coordinates":[[[60.2207,59.6384],[60.3846,59.6253],[60.3652,59.5559],[60.6313,59.5399],[60.7022,59.723],[60.4253,59.749],[60.4068,59.6779],[60.2364,59.6936],[60.2207,59.6384]]]},"properties":{"GID_0":"RUS","GID_1":"RUS.66_1","GID_2":"RUS.66.41_1","NAME_1":"Sverdlovsk","NAME_2":"Serovgorsovet"}},
{"type":"Feature","geometry":{"type":"Polygon","coordinates":[[[62.4365,59.1839],[62.3602,59.2744],[62.0012,59.2927],[61.8398,59.416],[61.6857,59.9307],[61.3115,60.2197],[60.7456,60.3027],[60.5502,60.1794],[60.224,60.2253],[60.1856,60.1171],[60.2811,60.0399],[60.3663,60.0417],[60.4077,59.8212],[60.2505,59.7433],[60.2364,59.6936],[60.4068,59.6779],[60.4253,59.749],[60.7022,59.723],[60.6313,59.5399],[60.3652,59.5559],[60.3846,59.6253],[60.2207,59.6384],[60.2002,59.566],[60.3985,59.3892],[60.9406,59.0944],[61.3283,59.1487],[61.4753,58.8758],[61.8105,58.8611],[62.5083,58.6732],[62.4192,58.8523],[62.521,59.003],[62.4365,59.1839]]]},"properties":{"GID_0":"RUS","GID_1":"RUS.66_1","GID_2":"RUS.66.42_1","NAME_1":"Sverdlovsk","NAME_2":"Serovskiyrayon"}},
{"type":"Feature","geometry":{"type":"Polygon","coordinates":[[[59.2268,60.2536],[59.4253,60.2454],[59.5254,60.0774],[59.8169,60.1482],[60.1856,60.1171],[60.224,60.2253],[60.1082,60.4657],[60.2473,60.7277],[59.5012,60.8182],[59.2268,60.2536]]]},"properties":{"GID_0":"RUS","GID_1":"RUS.66_1","GID_2":"RUS.66.43_1","NAME_1":"Sverdlovsk","NAME_2":"Severoural'skgorsovet"}},
{"type":"Feature","geometry":{"type":"Polygon","coordinates":[[[58.7396,57.733],[58.1576,57.7579],[57.8973,57.4024],[58.0437,57.304],[58.054,57.1141],[58.3623,57.0212],[58.5568,57.06],[58.9105,57.1144],[59.2167,57.0062],[59.2748,57.1407],[59.5841,57.1586],[59.7613,57.3355],[59.6981,57.3602],[58.7692,57.4679],[58.7396,57.733]]]},"properties":{"GID_0":"RUS","GID_1":"RUS.66_1","GID_2":"RUS.66.44_1","NAME_1":"Sverdlovsk","NAME_2":"Shalinskiyrayon"}},
{"type":"Feature","geometry":{"type":"Polygon","coordinates":[[[63.9363,57.3293],[64.4445,57.4004],[64.9282,57.3446],[64.8759,57.4865],[64.9692,57.7181],[64.6474,57.7995],[64.535,57.8236],[64.1867,57.9046],[63.8955,57.7938],[64.116,57.5615],[63.9363,57.3293]]]},"properties":{"GID_0":"RUS","GID_1":"RUS.66_1","GID_2":"RUS.66.45_1","NAME_1":"Sverdlovsk","NAME_2":"Slobodo-Turinskiyrayon"}},
{"type":"Feature","geometry":{"type":"Polygon","coordinates":[[[61.7329,57.2017],[61.6783,56.9747],[61.624,56.8371],[62.136,56.8624],[62.4077,56.8222],[62.373,57.2507],[62.2049,57.2456],[61.7329,57.2017]],[[62.0672,56.8617],[62.0525,56.8635],[62.0627,56.8763],[62.075,56.8712],[62.0672,56.8617]]]},"properties":{"GID_0":"RUS","GID_1":"RUS.66_1","GID_2":"RUS.66.46_1","NAME_1":"Sverdlovsk","NAME_2":"Sukholozhskiyrayon"}},
{"type":"Feature","geometry":{"type":"Polygon","coordinates":[[[62.0672,56.8617],[62.075,56.8712],[62.0627,56.8763],[62.0525,56.8635],[62.0672,56.8617]]]},"properties":{"GID_0":"RUS","GID_1":"RUS.66_1","GID_2":"RUS.66.47_1","NAME_1":"Sverdlovsk","NAME_2":"SukhoyLog"}},
{"type":"Feature","geometry":{"type":"Polygon","coordinates":[[[61.0979,56.38],[61.1505,56.5067],[61.1495,56.7241],[60.9523,56.7961],[60.554,56.6209],[60.4095,56.5434],[60.3437,56.2941],[60.5773,56.2393],[61.1402,56.2544],[61.0979,56.38]]]},"properties":{"GID_0":"RUS","GID_1":"RUS.66_1","GID_2":"RUS.66.48_1","NAME_1":"Sverdlovsk","NAME_2":"Sysertskiyrayon"}},
{"type":"Feature","geometry":{"type":"Polygon","coordinates":[[[64.0891,59.4225],[63.7658,59.0921],[63.3902,59.0955],[63.0786,58.9872],[63.3154,58.8122],[63.8008,58.7095],[63.9918,58.7423],[64.2295,58.493],[64.1994,58.3964],[64.5751,58.2433],[64.9834,58.2862],[65.1987,58.5854],[65.7935,58.6744],[65.5396,58.8078],[65.2485,59.257],[65.1037,59.3437],[64.7351,59.3494],[64.0891,59.4225]]]},"properties":{"GID_0":"RUS","GID_1":"RUS.66_1","GID_2":"RUS.66.49_1","NAME_1":"Sverdlovsk","NAME_2":"Taborinskiyrayon"}},
{"type":"Feature","geometry":{"type":"Polygon","coordinates":[[[63.4381,56.6393],[63.7873,56.5252],[64.1138,56.5034],[64.3123,56.7527],[64.1382,56.7747],[64.199,57.1114],[63.925,57.3097],[63.3771,57.2742],[62.9677,57.2894],[62.8858,57.2712],[63.3255,57.1568],[63.4465,56.8093],[63.4381,56.6393]]]},"properties":{"GID_0":"RUS","GID_1":"RUS.66_1","GID_2":"RUS.66.50_1","NAME_1":"Sverdlovsk","NAME_2":"Talitskiyrayon"}},
{"type":"Feature","geometry":{"type":"Polygon","coordinates":[[[65.2473,58.0173],[65.25,58.0338],[65.2206,58.0333],[65.2207,58.0201],[65.2473,58.0173]]]},"properties":{"GID_0":"RUS","GID_1":"RUS.66_1","GID_2":"RUS.66.51_1","NAME_1":"Sverdlovsk","NAME_2":"Tavda"}},
{"type":"Feature","geometry":{"type":"Polygon","coordinates":[[[65.7935,58.6744],[65.1987,58.5854],[64.9834,58.2862],[64.5751,58.2433],[64.5849,57.8138],[64.6474,57.7995],[64.9692,57.7181],[65.412,57.8417],[65.5408,57.7929],[66.2034,58.0634],[66.0383,58.2711],[65.9785,58.62],[65.7935,58.6744]],[[65.2473,58.0173],[65.2207,58.0201],[65.2206,58.0333],[65.25,58.0338],[65.2473,58.0173]]]},"properties":{"GID_0":"RUS","GID_1":"RUS.66_1","GID_2":"RUS.66.52_1","NAME_1":"Sverdlovsk","NAME_2":"Tavdinskiyrayon"}},
{"type":"Feature","geometry":{"type":"Polygon","coordinates":[[[64.3123,56.7527],[64.5847,56.866],[64.9678,56.7967],[65.2089,56.8198],[64.9282,57.3446],[64.4445,57.4004],[63.9363,57.3293],[63.925,57.3097],[64.199,57.1114],[64.1382,56.7747],[64.3123,56.7527]]]},"properties":{"GID_0":"RUS","GID_1":"RUS.66_1","GID_2":"RUS.66.53_1","NAME_1":"Sverdlovsk","NAME_2":"Tugulymskiyrayon"}},
{"type":"Feature","geometry":{"type":"Polygon","coordinates":[[[62.6625,58.1436],[63.2952,57.9409],[63.6821,57.8654],[63.7668,57.7956],[63.8955,57.7938],[64.1867,57.9046],[64.535,57.8236],[64.5849,57.8138],[64.5751,58.2433],[64.1994,58.3964],[64.2295,58.493],[63.9918,58.7423],[63.8008,58.7095],[63.3154,58.8122],[63.2958,58.6802],[62.8137,58.4197],[62.6068,58.3665],[62.6625,58.1436]]]},"properties":{"GID_0":"RUS","GID_1":"RUS.66_1","GID_2":"RUS.66.54_1","NAME_1":"Sverdlovsk","NAME_2":"Turinskiyrayon"}},
{"type":"Feature","geometry":{"type":"Polygon","coordinates":[[[61.0905,58.3657],[61.0239,58.3662],[60.7068,58.5212],[60.4129,58.3907],[60.3354,58.2214],[60.5198,58.0007],[60.9302,57.8928],[61.0996,58.1432],[61.0905,58.3657]],[[60.6495,58.0253],[60.6282,58.0188],[60.6123,58.0288],[60.6371,58.0417],[60.6495,58.0253]]]},"properties":{"GID_0":"RUS","GID_1":"RUS.66_1","GID_2":"RUS.66.55_1","NAME_1":"Sverdlovsk","NAME_2":"Verkhnesaldinskiyrayon"}},
{"type":"Feature","geometry":{"type":"Polygon","coordinates":[[[60.9513,57.2706],[60.8022,57.3686],[60.4804,57.3288],[60.272,56.9969],[60.3499,56.9388],[60.7974,56.9771],[60.7369,57.0415],[60.9513,57.2706]]]},"properties":{"GID_0":"RUS","GID_1":"RUS.66_1","GID_2":"RUS.66.56_1","NAME_1":"Sverdlovsk","NAME_2":"VerkhnyayaPyshmagorsovet"}},
{"type":"Feature","geometry":{"type":"Polygon","coordinates":[[[60.6495,58.0253],[60.6371,58.0417],[60.6123,58.0288],[60.6282,58.0188],[60.6495,58.0253]]]},"properties":{"GID_0":"RUS","GID_1":"RUS.66_1","GID_2":"RUS.66.57_1","NAME_1":"Sverdlovsk","NAME_2":"VerkhnyayaSalda"}},
{"type":"Feature","geometry":{"type":"Polygon","coordinates":[[[62.5083,58.6732],[61.8105,58.8611],[61.4753,58.8758],[61.3283,59.1487],[60.9406,59.0944],[60.1588,58.9052],[59.928,58.9],[60.2823,58.7307],[60.4045,58.5822],[60.7068,58.5212],[61.0239,58.3662],[61.1988,58.365],[61.1823,58.4794],[62.3988,58.6129],[62.5083,58.6732]]]},"properties":{"GID_0":"RUS","GID_1":"RUS.66_1","GID_2":"RUS.66.58_1","NAME_1":"Sverdlovsk","NAME_2":"Verkhoturskiyrayon"}},
{"type":"Feature","geometry":{"type":"Polygon","coordinates":[[[61.3409,56.8144],[61.336,56.8238],[61.3193,56.8154],[61.3298,56.8105],[61.3409,56.8144]]]},"properties":{"GID_0":"RUS","GID_1":"RUS.66_1","GID_2":"RUS.66.59_1","NAME_1":"Sverdlovsk","NAME_2":"Zarechnyy"}}
]}