{"type":"FeatureCollection", "features": [
{"type":"Feature","geometry":{"type":"Polygon","coordinates":[[[30.3542,60.1312],[30.1299,60.1567],[29.8887,60.2129],[29.8219,60.236],[29.6384,60.2662],[29.5407,60.2562],[29.4217,60.1942],[29.4134,60.1604],[29.5417,60.1937],[29.7687,60.1813],[29.9266,60.1453],[29.9641,60.0578],[29.9651,60.0109],[30.1825,59.9849],[30.2092,59.9588],[30.2042,59.8974],[30.1736,59.8879],[29.7975,59.9649],[29.7641,60.0193],[29.6807,60.0203],[29.7175,59.9815],[30.1625,59.8874],[30.1675,59.8715],[30.0289,59.8623],[29.9647,59.8857],[29.6952,59.9326],[29.676,59.8632],[29.9447,59.7692],[30.0627,59.6875],[30.2368,59.6135],[30.3617,59.6032],[30.512,59.6316],[30.5432,59.6795],[30.599,59.7019],[30.6813,59.6935],[30.7515,59.7233],[30.7748,59.7586],[30.7063,59.7981],[30.5173,59.8509],[30.4981,59.9069],[30.5299,59.9751],[30.5005,59.9962],[30.3795,60.0337],[30.3482,60.0743],[30.3542,60.1312]]]},"properties":{"GID_0":"RUS","GID_1":"RUS.14_1","GID_2":"RUS.14.1_1","NAME_1":"CityofSt.Petersburg","NAME_2":"Sankt-Peterburggorsovet"}}
]}