{"type":"FeatureCollection", "features": [
{"type":"Feature","geometry":{"type":"Polygon","coordinates":[[[35.6709,54.5444],[35.4304,54.4573],[35.3728,54.358],[35.588,54.3543],[35.7422,54.2189],[35.9298,54.2543],[35.9304,54.3448],[36.0482,54.4408],[36.0484,54.452],[35.829,54.5493],[35.6709,54.5444]]]},"properties":{"GID_0":"RUS","GID_1":"RUS.23_1","GID_2":"RUS.23.1_1","NAME_1":"Kaluga","NAME_2":"Babyninskiyrayon"}},
{"type":"Feature","geometry":{"type":"Polygon","coordinates":[[[34.8517,54.1124],[34.7177,54.1974],[34.834,54.3103],[34.492,54.496],[34.2646,54.4843],[34.142,54.5234],[34.3358,54.4211],[34.2121,54.2433],[34.3775,54.2272],[34.8517,54.1124]]]},"properties":{"GID_0":"RUS","GID_1":"RUS.23_1","GID_2":"RUS.23.2_1","NAME_1":"Kaluga","NAME_2":"Baryatinskiyrayon"}},
{"type":"Feature","geometry":{"type":"Polygon","coordinates":[[[36.6612,55.0259],[36.8191,55.1762],[36.4696,55.2663],[36.3392,55.1574],[36.0648,55.1752],[36.1565,55.1115],[36.3799,55.033],[36.6612,55.0259]],[[36.6595,55.0821],[36.6149,55.0534],[36.6036,55.0848],[36.6595,55.0821]]]},"properties":{"GID_0":"RUS","GID_1":"RUS.23_1","GID_2":"RUS.23.3_1","NAME_1":"Kaluga","NAME_2":"Borovskiyrayon"}},
{"type":"Feature","geometry":{"type":"Polygon","coordinates":[[[35.1299,53.6852],[35.3575,53.8517],[35.324,53.8695],[35.0599,54.0409],[34.8517,54.1124],[34.8032,54.0008],[34.7565,53.8483],[35.1106,53.691],[35.1299,53.6852]]]},"properties":{"GID_0":"RUS","GID_1":"RUS.23_1","GID_2":"RUS.23.4_1","NAME_1":"Kaluga","NAME_2":"Duminichskiyrayon"}},
{"type":"Feature","geometry":{"type":"Polygon","coordinates":[[[36.0484,54.452],[36.2474,54.6211],[36.1263,54.9129],[35.8323,54.8467],[35.5806,54.7901],[35.5623,54.6831],[35.6709,54.5444],[35.829,54.5493],[36.0484,54.452]]]},"properties":{"GID_0":"RUS","GID_1":"RUS.23_1","GID_2":"RUS.23.5_1","NAME_1":"Kaluga","NAME_2":"Dzerzhinskiyrayon"}},
{"type":"Feature","geometry":{"type":"Polygon","coordinates":[[[36.7857,54.2735],[36.9434,54.312],[36.9729,54.4212],[36.8438,54.4886],[36.8958,54.5703],[36.7651,54.7386],[36.5434,54.675],[36.4168,54.4283],[36.5893,54.4162],[36.7857,54.2735]]]},"properties":{"GID_0":"RUS","GID_1":"RUS.23_1","GID_2":"RUS.23.6_1","NAME_1":"Kaluga","NAME_2":"Ferzikovskiyrayon"}},
{"type":"Feature","geometry":{"type":"Polygon","coordinates":[[[35.8323,54.8467],[35.6943,54.9504],[35.7426,55.1042],[35.7214,55.2483],[35.3808,55.1614],[35.1761,54.9792],[35.0431,54.9426],[35.3851,54.8939],[35.5806,54.7901],[35.8323,54.8467]]]},"properties":{"GID_0":"RUS","GID_1":"RUS.23_1","GID_2":"RUS.23.7_1","NAME_1":"Kaluga","NAME_2":"Iznoskovskiyrayon"}},
{"type":"Feature","geometry":{"type":"Polygon","coordinates":[[[36.0482,54.4408],[36.1719,54.3937],[36.4168,54.4283],[36.5434,54.675],[36.2474,54.6211],[36.0484,54.452],[36.0482,54.4408]]]},"properties":{"GID_0":"RUS","GID_1":"RUS.23_1","GID_2":"RUS.23.8_1","NAME_1":"Kaluga","NAME_2":"Kalugagorsovet"}},
{"type":"Feature","geometry":{"type":"Polygon","coordinates":[[[34.6553,53.3993],[34.9532,53.361],[35.1262,53.2849],[35.3424,53.3653],[35.463,53.4755],[35.4278,53.5479],[35.1299,53.6852],[35.1106,53.691],[34.8974,53.497],[34.6553,53.3993]]]},"properties":{"GID_0":"RUS","GID_1":"RUS.23_1","GID_2":"RUS.23.9_1","NAME_1":"Kaluga","NAME_2":"Khvastovichskiyrayon"}},
{"type":"Feature","geometry":{"type":"Polygon","coordinates":[[[34.3795,54.0315],[34.376,54.0555],[34.3072,54.041],[34.3479,54.0197],[34.3795,54.0315]]]},"properties":{"GID_0":"RUS","GID_1":"RUS.23_1","GID_2":"RUS.23.10_1","NAME_1":"Kaluga","NAME_2":"Kirov"}},
{"type":"Feature","geometry":{"type":"Polygon","coordinates":[[[34.2121,54.2433],[34.048,54.1614],[34.063,53.9133],[34.2561,53.929],[34.4273,53.9897],[34.4965,54.0708],[34.8032,54.0008],[34.8517,54.1124],[34.3775,54.2272],[34.2121,54.2433]],[[34.3795,54.0315],[34.3479,54.0197],[34.3072,54.041],[34.376,54.0555],[34.3795,54.0315]]]},"properties":{"GID_0":"RUS","GID_1":"RUS.23_1","GID_2":"RUS.23.11_1","NAME_1":"Kaluga","NAME_2":"Kirovskiyrayon"}},
{"type":"Feature","geometry":{"type":"Polygon","coordinates":[[[35.7422,54.2189],[35.5828,54.1627],[35.502,54.0279],[35.527,53.9114],[35.5028,53.8878],[35.9272,53.759],[35.9848,53.901],[36.2441,54.0798],[36.0426,54.1615],[35.9298,54.2543],[35.7422,54.2189]]]},"properties":{"GID_0":"RUS","GID_1":"RUS.23_1","GID_2":"RUS.23.12_1","NAME_1":"Kaluga","NAME_2":"Kozel'skiyrayon"}},
{"type":"Feature","geometry":{"type":"Polygon","coordinates":[[[34.0416,53.8352],[34.063,53.9133],[34.048,54.1614],[33.9456,54.1621],[33.7221,54.2743],[33.6539,54.229],[33.5439,54.0076],[33.7019,54.0204],[34.0416,53.8352]]]},"properties":{"GID_0":"RUS","GID_1":"RUS.23_1","GID_2":"RUS.23.13_1","NAME_1":"Kaluga","NAME_2":"Kuybyshevskiyrayon"}},
{"type":"Feature","geometry":{"type":"Polygon","coordinates":[[[34.4807,53.8784],[34.4107,53.882],[34.3925,53.8458],[34.4693,53.843],[34.4807,53.8784]]]},"properties":{"GID_0":"RUS","GID_1":"RUS.23_1","GID_2":"RUS.23.14_1","NAME_1":"Kaluga","NAME_2":"Lyudinov"}},
{"type":"Feature","geometry":{"type":"Polygon","coordinates":[[[34.4494,53.6967],[34.7565,53.8483],[34.8032,54.0008],[34.4965,54.0708],[34.4273,53.9897],[34.2561,53.929],[34.063,53.9133],[34.0416,53.8352],[34.2299,53.8696],[34.4494,53.6967]],[[34.4807,53.8784],[34.4693,53.843],[34.3925,53.8458],[34.4107,53.882],[34.4807,53.8784]]]},"properties":{"GID_0":"RUS","GID_1":"RUS.23_1","GID_2":"RUS.23.15_1","NAME_1":"Kaluga","NAME_2":"Lyudinovskiyrayon"}},
{"type":"Feature","geometry":{"type":"Polygon","coordinates":[[[36.104,55.1477],[36.1263,54.9129],[36.2474,54.6211],[36.5434,54.675],[36.7651,54.7386],[36.8062,54.8293],[36.6612,55.0259],[36.3799,55.033],[36.1565,55.1115],[36.104,55.1477]]]},"properties":{"GID_0":"RUS","GID_1":"RUS.23_1","GID_2":"RUS.23.16_1","NAME_1":"Kaluga","NAME_2":"Maloyaroslavetskiyrayon"}},
{"type":"Feature","geometry":{"type":"Polygon","coordinates":[[[36.0648,55.1752],[35.7214,55.2483],[35.7426,55.1042],[35.6943,54.9504],[35.8323,54.8467],[36.1263,54.9129],[36.104,55.1477],[36.0648,55.1752]]]},"properties":{"GID_0":"RUS","GID_1":"RUS.23_1","GID_2":"RUS.23.17_1","NAME_1":"Kaluga","NAME_2":"Medynskiyrayon"}},
{"type":"Feature","geometry":{"type":"Polygon","coordinates":[[[35.4304,54.4573],[35.2723,54.4949],[35.1879,54.3827],[35.0281,54.418],[34.834,54.3103],[35.3248,54.1624],[35.5828,54.1627],[35.7422,54.2189],[35.588,54.3543],[35.3728,54.358],[35.4304,54.4573]]]},"properties":{"GID_0":"RUS","GID_1":"RUS.23_1","GID_2":"RUS.23.18_1","NAME_1":"Kaluga","NAME_2":"Meshchovskiyrayon"}},
{"type":"Feature","geometry":{"type":"Polygon","coordinates":[[[34.834,54.3103],[35.0281,54.418],[35.1879,54.3827],[35.2723,54.4949],[34.959,54.6798],[34.9519,54.7498],[34.5591,54.6124],[34.492,54.496],[34.834,54.3103]]]},"properties":{"GID_0":"RUS","GID_1":"RUS.23_1","GID_2":"RUS.23.19_1","NAME_1":"Kaluga","NAME_2":"Mosal'skiyrayon"}},
{"type":"Feature","geometry":{"type":"Polygon","coordinates":[[[36.6595,55.0821],[36.6036,55.0848],[36.6149,55.0534],[36.6595,55.0821]]]},"properties":{"GID_0":"RUS","GID_1":"RUS.23_1","GID_2":"RUS.23.20_1","NAME_1":"Kaluga","NAME_2":"Obninsk"}},
{"type":"Feature","geometry":{"type":"Polygon","coordinates":[[[35.9298,54.2543],[36.0426,54.1615],[36.4198,54.2108],[36.507,54.2715],[36.7857,54.2735],[36.5893,54.4162],[36.4168,54.4283],[36.1719,54.3937],[36.0482,54.4408],[35.9304,54.3448],[35.9298,54.2543]]]},"properties":{"GID_0":"RUS","GID_1":"RUS.23_1","GID_2":"RUS.23.21_1","NAME_1":"Kaluga","NAME_2":"Peremyshl'skiyrayon"}},
{"type":"Feature","geometry":{"type":"Polygon","coordinates":[[[34.142,54.5234],[34.0175,54.5583],[33.7021,54.4997],[33.6589,54.3497],[33.7221,54.2743],[33.9456,54.1621],[34.048,54.1614],[34.2121,54.2433],[34.3358,54.4211],[34.142,54.5234]]]},"properties":{"GID_0":"RUS","GID_1":"RUS.23_1","GID_2":"RUS.23.22_1","NAME_1":"Kaluga","NAME_2":"Spas-Demenskiyrayon"}},
{"type":"Feature","geometry":{"type":"Polygon","coordinates":[[[34.8517,54.1124],[35.0599,54.0409],[35.324,53.8695],[35.3923,53.8355],[35.4781,53.8657],[35.527,53.9114],[35.502,54.0279],[35.5828,54.1627],[35.3248,54.1624],[34.834,54.3103],[34.7177,54.1974],[34.8517,54.1124]]]},"properties":{"GID_0":"RUS","GID_1":"RUS.23_1","GID_2":"RUS.23.23_1","NAME_1":"Kaluga","NAME_2":"Sukhinichskiyrayon"}},
{"type":"Feature","geometry":{"type":"Polygon","coordinates":[[[36.8958,54.5703],[37.1851,54.614],[37.204,54.8445],[36.9925,54.8033],[36.8062,54.8293],[36.7651,54.7386],[36.8958,54.5703]]]},"properties":{"GID_0":"RUS","GID_1":"RUS.23_1","GID_2":"RUS.23.24_1","NAME_1":"Kaluga","NAME_2":"Tarusskiyrayon"}},
{"type":"Feature","geometry":{"type":"Polygon","coordinates":[[[35.1299,53.6852],[35.4278,53.5479],[35.463,53.4755],[35.5994,53.5223],[35.8083,53.5241],[36.0728,53.6881],[35.9272,53.759],[35.5028,53.8878],[35.4781,53.8657],[35.3923,53.8355],[35.3575,53.8517],[35.1299,53.6852]]]},"properties":{"GID_0":"RUS","GID_1":"RUS.23_1","GID_2":"RUS.23.25_1","NAME_1":"Kaluga","NAME_2":"Ul'yanovskiyrayon"}},
{"type":"Feature","geometry":{"type":"Polygon","coordinates":[[[35.6709,54.5444],[35.5623,54.6831],[35.5806,54.7901],[35.3851,54.8939],[35.0431,54.9426],[34.8891,54.8607],[34.9519,54.7498],[34.959,54.6798],[35.2723,54.4949],[35.4304,54.4573],[35.6709,54.5444]]]},"properties":{"GID_0":"RUS","GID_1":"RUS.23_1","GID_2":"RUS.23.26_1","NAME_1":"Kaluga","NAME_2":"Yukhnovskiyrayon"}},
{"type":"Feature","geometry":{"type":"Polygon","coordinates":[[[34.6553,53.3993],[34.8974,53.497],[35.1106,53.691],[34.7565,53.8483],[34.4494,53.6967],[34.5095,53.683],[34.5313,53.4421],[34.6553,53.3993]]]},"properties":{"GID_0":"RUS","GID_1":"RUS.23_1","GID_2":"RUS.23.27_1","NAME_1":"Kaluga","NAME_2":"Zhizdrinskiyrayon"}},
{"type":"Feature","geometry":{"type":"Polygon","coordinates":[[[36.6612,55.0259],[36.8062,54.8293],[36.9925,54.8033],[37.204,54.8445],[37.2306,54.9001],[36.9764,55.2196],[36.8191,55.1762],[36.6612,55.0259]]]},"properties":{"GID_0":"RUS","GID_1":"RUS.23_1","GID_2":"RUS.23.28_1","NAME_1":"Kaluga","NAME_2":"Zhukovskiyrayon"}}
]}