{"type":"FeatureCollection", "features": [
{"type":"Feature","geometry":{"type":"Polygon","coordinates":[[[71.0829,56.6096],[70.4673,56.4801],[70.0075,56.454],[70.0158,56.3795],[70.0369,56.0806],[70.1964,55.9198],[70.5431,55.8405],[70.7742,55.8663],[70.9216,56.0307],[70.8544,56.2394],[71.0829,56.6096]]]},"properties":{"GID_0":"RUS","GID_1":"RUS.73_1","GID_2":"RUS.73.1_1","NAME_1":"Tyumen'","NAME_2":"Abatskiyrayon"}},
{"type":"Feature","geometry":{"type":"Polygon","coordinates":[[[68.1378,55.7374],[68.2504,55.9873],[68.0215,56.1336],[67.975,56.1634],[67.3294,56.2584],[67.1452,56.1896],[67.0386,56.0719],[67.0228,55.9748],[67.2528,55.9725],[67.3526,55.7864],[67.8747,55.6937],[68.1378,55.7374]]]},"properties":{"GID_0":"RUS","GID_1":"RUS.73_1","GID_2":"RUS.73.2_1","NAME_1":"Tyumen'","NAME_2":"Armizonskiyrayon"}},
{"type":"Feature","geometry":{"type":"Polygon","coordinates":[[[69.0554,56.5781],[69.242,56.629],[69.4833,56.6669],[69.5048,56.9526],[69.7324,57.0058],[69.7258,57.0425],[69.6866,57.0737],[69.4302,57.2017],[68.7417,57.1408],[68.466,57.0406],[68.4118,56.8136],[69.0554,56.5781]]]},"properties":{"GID_0":"RUS","GID_1":"RUS.73_1","GID_2":"RUS.73.3_1","NAME_1":"Tyumen'","NAME_2":"Aromashevskiyrayon"}},
{"type":"Feature","geometry":{"type":"Polygon","coordinates":[[[68.8412,55.3443],[68.9897,55.5095],[68.9098,55.6895],[69.0776,55.7847],[68.6424,55.996],[68.2504,55.9873],[68.1378,55.7374],[68.2097,55.6196],[68.7247,55.3403],[68.8412,55.3443]]]},"properties":{"GID_0":"RUS","GID_1":"RUS.73_1","GID_2":"RUS.73.4_1","NAME_1":"Tyumen'","NAME_2":"Berdyuzhskiyrayon"}},
{"type":"Feature","geometry":{"type":"Polygon","coordinates":[[[68.2504,55.9873],[68.6424,55.996],[69.0356,56.4016],[69.0554,56.5781],[68.4118,56.8136],[68.2074,56.7727],[68.0186,56.3927],[68.0746,56.3091],[68.0196,56.2327],[67.9901,56.1533],[68.0215,56.1336],[68.2504,55.9873]]]},"properties":{"GID_0":"RUS","GID_1":"RUS.73_1","GID_2":"RUS.73.5_1","NAME_1":"Tyumen'","NAME_2":"Golyshmanovskiyrayon"}},
{"type":"Feature","geometry":{"type":"Polygon","coordinates":[[[65.6478,56.303],[65.7514,56.4563],[66.0176,56.4571],[65.777,56.6948],[65.2089,56.8198],[64.9515,56.7752],[65.1956,56.3365],[65.6478,56.303]]]},"properties":{"GID_0":"RUS","GID_1":"RUS.73_1","GID_2":"RUS.73.6_1","NAME_1":"Tyumen'","NAME_2":"Isetskiyrayon"}},
{"type":"Feature","geometry":{"type":"Polygon","coordinates":[[[69.4925,56.1521],[69.4973,56.1629],[69.4735,56.1637],[69.4698,56.1548],[69.4925,56.1521]]]},"properties":{"GID_0":"RUS","GID_1":"RUS.73_1","GID_2":"RUS.73.7_1","NAME_1":"Tyumen'","NAME_2":"Ishim"}},
{"type":"Feature","geometry":{"type":"Polygon","coordinates":[[[70.0141,56.3982],[69.9058,56.3895],[69.7491,56.3688],[69.705,56.3873],[69.5853,56.5697],[69.242,56.629],[69.0554,56.5781],[69.0356,56.4016],[68.6424,55.996],[69.0776,55.7847],[69.7672,55.7662],[69.9386,55.8089],[70.1964,55.9198],[70.0369,56.0806],[70.0158,56.3795],[70.0141,56.3982]],[[69.4925,56.1521],[69.4698,56.1548],[69.4735,56.1637],[69.4973,56.1629],[69.4925,56.1521]]]},"properties":{"GID_0":"RUS","GID_1":"RUS.73_1","GID_2":"RUS.73.8_1","NAME_1":"Tyumen'","NAME_2":"Ishimskiyrayon"}},
{"type":"Feature","geometry":{"type":"Polygon","coordinates":[[[69.7721,55.3132],[69.7308,55.4267],[69.7957,55.5012],[69.8018,55.6706],[69.8544,55.689],[69.8464,55.7585],[69.8609,55.7898],[69.7672,55.7662],[69.0776,55.7847],[68.9098,55.6895],[68.9897,55.5095],[68.8412,55.3443],[68.9499,55.4318],[69.7721,55.3132]]]},"properties":{"GID_0":"RUS","GID_1":"RUS.73_1","GID_2":"RUS.73.9_1","NAME_1":"Tyumen'","NAME_2":"Kazanskiyrayon"}},
{"type":"Feature","geometry":{"type":"Polygon","coordinates":[[[64.8897,57.4991],[65.6062,57.2736],[66.2521,57.2525],[66.3901,57.2109],[66.8256,57.3517],[66.6247,57.6869],[66.9274,57.8669],[66.674,57.975],[66.7103,58.0341],[66.6566,58.056],[66.5403,58.0988],[66.4708,58.0724],[66.1632,58.0513],[65.5408,57.7929],[65.412,57.8417],[64.8924,57.6867],[64.8897,57.4991]]]},"properties":{"GID_0":"RUS","GID_1":"RUS.73_1","GID_2":"RUS.73.10_1","NAME_1":"Tyumen'","NAME_2":"Nizhnetavdinskiyrayon"}},
{"type":"Feature","geometry":{"type":"Polygon","coordinates":[[[67.9901,56.1533],[68.0196,56.2327],[68.0746,56.3091],[68.0186,56.3927],[68.2074,56.7727],[67.7777,56.7548],[67.2331,56.6046],[67.0946,56.4438],[67.1452,56.1896],[67.3294,56.2584],[67.975,56.1634],[67.9901,56.1533]]]},"properties":{"GID_0":"RUS","GID_1":"RUS.73_1","GID_2":"RUS.73.11_1","NAME_1":"Tyumen'","NAME_2":"Omutinskiyrayon"}},
{"type":"Feature","geometry":{"type":"Polygon","coordinates":[[[69.7721,55.3132],[70.2179,55.1333],[70.4115,55.2092],[70.5612,55.4513],[70.7103,55.4741],[70.5431,55.8405],[70.1964,55.9198],[69.9386,55.8089],[69.8609,55.7898],[69.8464,55.7585],[69.8544,55.689],[69.8018,55.6706],[69.7957,55.5012],[69.7308,55.4267],[69.7721,55.3132]]]},"properties":{"GID_0":"RUS","GID_1":"RUS.73_1","GID_2":"RUS.73.12_1","NAME_1":"Tyumen'","NAME_2":"Sladkovskiyrayon"}},
{"type":"Feature","geometry":{"type":"Polygon","coordinates":[[[70.4673,56.4801],[70.3643,56.7138],[69.9664,56.951],[70.1805,57.0067],[69.7545,57.0187],[69.7258,57.0425],[69.7324,57.0058],[69.5048,56.9526],[69.4833,56.6669],[69.242,56.629],[69.5853,56.5697],[69.705,56.3873],[69.7491,56.3688],[69.9058,56.3895],[70.0141,56.3982],[70.0075,56.454],[70.4673,56.4801]]]},"properties":{"GID_0":"RUS","GID_1":"RUS.73_1","GID_2":"RUS.73.13_1","NAME_1":"Tyumen'","NAME_2":"Sorokinskiyrayon"}},
{"type":"Feature","geometry":{"type":"Polygon","coordinates":[[[68.3227,58.2006],[68.3144,58.2298],[68.2608,58.2293],[68.2533,58.1959],[68.3227,58.2006]]]},"properties":{"GID_0":"RUS","GID_1":"RUS.73_1","GID_2":"RUS.73.14_1","NAME_1":"Tyumen'","NAME_2":"Tobol'sk"}},
{"type":"Feature","geometry":{"type":"Polygon","coordinates":[[[67.6751,59.0863],[67.1664,58.9154],[66.8222,58.8848],[66.8295,58.6585],[65.9773,58.5671],[66.1632,58.0513],[66.4708,58.0724],[66.735,58.1726],[67.3264,58.0804],[67.6111,57.8586],[67.6626,57.6186],[68.1346,57.4934],[68.7358,57.7406],[68.687,57.9174],[68.9694,58.0156],[69.2147,58.3278],[69.1909,58.5696],[68.5534,58.6139],[68.2439,58.6948],[68.0085,58.9456],[67.6751,59.0863]],[[68.3227,58.2006],[68.2533,58.1959],[68.2608,58.2293],[68.3144,58.2298],[68.3227,58.2006]]]},"properties":{"GID_0":"RUS","GID_1":"RUS.73_1","GID_2":"RUS.73.15_1","NAME_1":"Tyumen'","NAME_2":"Tobol'skiyrayon"}},
{"type":"Feature","geometry":{"type":"Polygon","coordinates":[[[65.604,57.1367],[65.5713,57.168],[65.5052,57.1447],[65.5624,57.1134],[65.604,57.1367]]]},"properties":{"GID_0":"RUS","GID_1":"RUS.73_1","GID_2":"RUS.73.16_1","NAME_1":"Tyumen'","NAME_2":"Tyumen'"}},
{"type":"Feature","geometry":{"type":"Polygon","coordinates":[[[64.8897,57.4991],[65.0927,56.9711],[65.2089,56.8198],[65.777,56.6948],[66.1733,56.8816],[66.3079,57.0282],[66.6233,57.0963],[66.4803,57.1823],[66.2521,57.2525],[65.6062,57.2736],[64.8897,57.4991]],[[65.604,57.1367],[65.5624,57.1134],[65.5052,57.1447],[65.5713,57.168],[65.604,57.1367]]]},"properties":{"GID_0":"RUS","GID_1":"RUS.73_1","GID_2":"RUS.73.17_1","NAME_1":"Tyumen'","NAME_2":"Tyumenskiyrayon"}},
{"type":"Feature","geometry":{"type":"Polygon","coordinates":[[[65.6478,56.303],[65.9556,56.0636],[66.3007,56.1052],[67.0228,55.9748],[67.0386,56.0719],[66.363,56.3813],[66.0176,56.4571],[65.7514,56.4563],[65.6478,56.303]]]},"properties":{"GID_0":"RUS","GID_1":"RUS.73_1","GID_2":"RUS.73.18_1","NAME_1":"Tyumen'","NAME_2":"Uporovskiyrayon"}},
{"type":"Feature","geometry":{"type":"Polygon","coordinates":[[[70.8734,58.5213],[71.2908,58.3658],[71.3031,58.0235],[71.8998,58.0841],[72.1709,57.991],[72.825,57.9591],[73.1472,58.1344],[74.15,58.1139],[75.2059,58.6072],[75.0425,58.6928],[74.1282,58.702],[73.6212,58.8459],[73.341,58.7867],[72.6543,59.099],[72.0805,59.5209],[71.8757,59.5338],[71.1913,59.8424],[70.5891,59.805],[70.14,59.9331],[69.4026,59.7621],[68.8737,59.5434],[68.6119,59.5442],[68.424,59.2474],[67.7673,59.1562],[67.6751,59.0863],[68.0085,58.9456],[68.2439,58.6948],[68.5534,58.6139],[69.1909,58.5696],[69.2147,58.3278],[69.6781,58.3055],[69.8013,58.5289],[70.1213,58.528],[70.8034,58.6272],[70.8734,58.5213]]]},"properties":{"GID_0":"RUS","GID_1":"RUS.73_1","GID_2":"RUS.73.19_1","NAME_1":"Tyumen'","NAME_2":"Uvatskiyrayon"}},
{"type":"Feature","geometry":{"type":"Polygon","coordinates":[[[70.8734,58.5213],[70.8034,58.6272],[70.1213,58.528],[69.8013,58.5289],[69.6781,58.3055],[69.2147,58.3278],[68.9694,58.0156],[68.687,57.9174],[68.7358,57.7406],[68.1346,57.4934],[67.7224,57.3397],[67.8992,57.1968],[68.466,57.0406],[68.7417,57.1408],[69.4302,57.2017],[69.6866,57.0737],[69.7545,57.0187],[70.1805,57.0067],[70.6446,57.2165],[70.4251,57.369],[70.7104,57.4932],[70.4947,57.7418],[70.5483,58.042],[70.8734,58.5213]]]},"properties":{"GID_0":"RUS","GID_1":"RUS.73_1","GID_2":"RUS.73.20_1","NAME_1":"Tyumen'","NAME_2":"Vagayskiyrayon"}},
{"type":"Feature","geometry":{"type":"Polygon","coordinates":[[[71.0829,56.6096],[71.5625,56.6923],[71.5462,56.9284],[71.1464,57.1715],[71.0492,57.3226],[70.6446,57.2165],[70.1805,57.0067],[69.9664,56.951],[70.3643,56.7138],[70.4673,56.4801],[71.0829,56.6096]]]},"properties":{"GID_0":"RUS","GID_1":"RUS.73_1","GID_2":"RUS.73.21_1","NAME_1":"Tyumen'","NAME_2":"Vikulovskiyrayon"}},
{"type":"Feature","geometry":{"type":"Polygon","coordinates":[[[66.0176,56.4571],[66.8277,56.6254],[66.9237,56.9018],[66.9216,57.0091],[66.6233,57.0963],[66.3079,57.0282],[66.1733,56.8816],[65.777,56.6948],[66.0176,56.4571]]]},"properties":{"GID_0":"RUS","GID_1":"RUS.73_1","GID_2":"RUS.73.22_1","NAME_1":"Tyumen'","NAME_2":"Yalutorovskiyrayon"}},
{"type":"Feature","geometry":{"type":"Polygon","coordinates":[[[66.3901,57.2109],[66.4803,57.1823],[66.6233,57.0963],[66.9216,57.0091],[67.3733,57.1882],[67.556,57.1215],[67.8992,57.1968],[67.7224,57.3397],[68.1346,57.4934],[67.6626,57.6186],[67.6111,57.8586],[67.3264,58.0804],[66.735,58.1726],[66.5403,58.0988],[66.6566,58.056],[66.7103,58.0341],[66.674,57.975],[66.9274,57.8669],[66.6247,57.6869],[66.8256,57.3517],[66.3901,57.2109]]]},"properties":{"GID_0":"RUS","GID_1":"RUS.73_1","GID_2":"RUS.73.23_1","NAME_1":"Tyumen'","NAME_2":"Yarkovskiyrayon"}},
{"type":"Feature","geometry":{"type":"Polygon","coordinates":[[[68.466,57.0406],[67.8992,57.1968],[67.556,57.1215],[67.3733,57.1882],[66.9216,57.0091],[66.9237,56.9018],[67.0122,56.7078],[67.2331,56.6046],[67.7777,56.7548],[68.2074,56.7727],[68.4118,56.8136],[68.466,57.0406]]]},"properties":{"GID_0":"RUS","GID_1":"RUS.73_1","GID_2":"RUS.73.24_1","NAME_1":"Tyumen'","NAME_2":"Yurginskiyrayon"}},
{"type":"Feature","geometry":{"type":"Polygon","coordinates":[[[66.5502,56.4571],[66.5485,56.4664],[66.5334,56.4635],[66.5326,56.4568],[66.5502,56.4571]]]},"properties":{"GID_0":"RUS","GID_1":"RUS.73_1","GID_2":"RUS.73.25_1","NAME_1":"Tyumen'","NAME_2":"Zavodoukovsk"}},
{"type":"Feature","geometry":{"type":"Polygon","coordinates":[[[67.1452,56.1896],[67.0946,56.4438],[67.2331,56.6046],[67.0122,56.7078],[66.9237,56.9018],[66.8277,56.6254],[66.0176,56.4571],[66.363,56.3813],[67.0386,56.0719],[67.1452,56.1896]],[[66.5502,56.4571],[66.5326,56.4568],[66.5334,56.4635],[66.5485,56.4664],[66.5502,56.4571]]]},"properties":{"GID_0":"RUS","GID_1":"RUS.73_1","GID_2":"RUS.73.26_1","NAME_1":"Tyumen'","NAME_2":"Zavodoukovskiyrayon"}}
]}