{"type":"FeatureCollection", "features": [
{"type":"Feature","geometry":{"type":"Polygon","coordinates":[[[58.7531,53.8942],[58.5968,53.6852],[58.4546,53.6229],[58.0743,53.6049],[57.8069,53.4982],[58.1832,53.4132],[57.9526,53.2768],[58.0673,53.199],[58.2487,53.158],[58.3133,53.0095],[58.6488,52.9291],[58.8155,52.8231],[58.8395,52.9723],[58.9711,53.0669],[58.8742,53.3086],[58.8746,53.5491],[58.9377,53.898],[58.7531,53.8942]]]},"properties":{"GID_0":"RUS","GID_1":"RUS.6_1","GID_2":"RUS.6.1_1","NAME_1":"Bashkortostan","NAME_2":"Abzelilovskiyrayon"}},
{"type":"Feature","geometry":{"type":"Polygon","coordinates":[[[55.4569,54.0547],[55.1548,54.0852],[54.9435,54.241],[54.548,54.286],[54.6355,54.173],[54.4457,53.9866],[54.4764,53.8518],[54.5976,53.7951],[55.0432,53.9271],[55.279,53.7329],[55.4553,53.9601],[55.4569,54.0547]]]},"properties":{"GID_0":"RUS","GID_1":"RUS.6_1","GID_2":"RUS.6.2_1","NAME_1":"Bashkortostan","NAME_2":"Al'sheyevskiyrayon"}},
{"type":"Feature","geometry":{"type":"Polygon","coordinates":[[[56.5156,54.342],[56.7335,54.2352],[57.1307,54.2473],[57.2771,54.37],[57.2715,54.6231],[57.4642,54.746],[57.1784,54.8661],[56.7139,54.6688],[56.4448,54.5022],[56.5156,54.342]]]},"properties":{"GID_0":"RUS","GID_1":"RUS.6_1","GID_2":"RUS.6.3_1","NAME_1":"Bashkortostan","NAME_2":"Arkhangel'skiyrayon"}},
{"type":"Feature","geometry":{"type":"Polygon","coordinates":[[[56.469,55.9289],[56.7459,56.0115],[56.9207,55.9197],[57.1918,55.9389],[57.4081,56.0365],[57.4488,56.0921],[57.4976,56.1727],[57.4166,56.3422],[57.2058,56.1882],[56.9566,56.1145],[56.817,56.1418],[56.499,56.3838],[56.3288,56.3408],[56.2471,56.1828],[56.469,55.9289]]]},"properties":{"GID_0":"RUS","GID_1":"RUS.6_1","GID_2":"RUS.6.4_1","NAME_1":"Bashkortostan","NAME_2":"Askinskiyrayon"}},
{"type":"Feature","geometry":{"type":"Polygon","coordinates":[[[55.4553,53.9601],[55.5404,53.774],[55.7351,53.7711],[55.9843,53.9303],[56.1544,53.9287],[56.3287,54.1244],[56.0604,54.1729],[55.9594,54.3069],[55.6812,54.2165],[55.5856,54.2368],[55.5031,54.2227],[55.5409,54.1814],[55.4569,54.0547],[55.4553,53.9601]]]},"properties":{"GID_0":"RUS","GID_1":"RUS.6_1","GID_2":"RUS.6.5_1","NAME_1":"Bashkortostan","NAME_2":"Aurgazinskiyrayon"}},
{"type":"Feature","geometry":{"type":"Polygon","coordinates":[[[54.2307,55.219],[53.9324,55.417],[53.5334,55.2133],[53.1855,55.1599],[53.5133,54.9274],[53.6539,54.921],[53.6781,54.9944],[54.1681,55.0597],[54.2307,55.219]]]},"properties":{"GID_0":"RUS","GID_1":"RUS.6_1","GID_2":"RUS.6.6_1","NAME_1":"Bashkortostan","NAME_2":"Bakalinskiyrayon"}},
{"type":"Feature","geometry":{"type":"Polygon","coordinates":[[[56.2471,56.1828],[55.9665,56.1865],[55.7558,56.0714],[55.5849,55.9636],[55.8692,55.9071],[55.8919,55.6794],[56.1517,55.7132],[56.4922,55.8193],[56.469,55.9289],[56.2471,56.1828]]]},"properties":{"GID_0":"RUS","GID_1":"RUS.6_1","GID_2":"RUS.6.7_1","NAME_1":"Bashkortostan","NAME_2":"Baltachevskiyrayon"}},
{"type":"Feature","geometry":{"type":"Polygon","coordinates":[[[58.3237,52.548],[58.3223,52.5615],[58.2922,52.5573],[58.2927,52.547],[58.3237,52.548]]]},"properties":{"GID_0":"RUS","GID_1":"RUS.6_1","GID_2":"RUS.6.8_1","NAME_1":"Bashkortostan","NAME_2":"Baymak"}},
{"type":"Feature","geometry":{"type":"Polygon","coordinates":[[[58.0673,53.199],[57.6749,52.9832],[57.8124,52.7878],[57.6488,52.7218],[57.6492,52.5986],[57.5049,52.4989],[57.6713,52.347],[58.0996,52.3966],[58.1907,52.3311],[58.344,52.3609],[58.7223,52.2643],[58.9281,52.3292],[58.772,52.6472],[58.8155,52.8231],[58.6488,52.9291],[58.3133,53.0095],[58.2487,53.158],[58.0673,53.199]],[[58.3237,52.548],[58.2927,52.547],[58.2922,52.5573],[58.3223,52.5615],[58.3237,52.548]],[[58.6591,52.7041],[58.6314,52.7029],[58.6432,52.7202],[58.6678,52.7166],[58.6591,52.7041]]]},"properties":{"GID_0":"RUS","GID_1":"RUS.6_1","GID_2":"RUS.6.9_1","NAME_1":"Bashkortostan","NAME_2":"Baymakskiyrayon"}},
{"type":"Feature","geometry":{"type":"Polygon","coordinates":[[[54.548,54.286],[54.4802,54.3721],[54.3495,54.3934],[53.8077,54.2688],[53.9572,54.1528],[53.8621,53.9674],[53.9171,53.9616],[54.4457,53.9866],[54.6355,54.173],[54.548,54.286]],[[54.1011,54.0971],[54.0822,54.1039],[54.0917,54.113],[54.1095,54.1048],[54.1011,54.0971]]]},"properties":{"GID_0":"RUS","GID_1":"RUS.6_1","GID_2":"RUS.6.10_1","NAME_1":"Bashkortostan","NAME_2":"Belebeevskiyrayon"}},
{"type":"Feature","geometry":{"type":"Polygon","coordinates":[[[54.1011,54.0971],[54.1095,54.1048],[54.0917,54.113],[54.0822,54.1039],[54.1011,54.0971]]]},"properties":{"GID_0":"RUS","GID_1":"RUS.6_1","GID_2":"RUS.6.11_1","NAME_1":"Bashkortostan","NAME_2":"Belebey"}},
{"type":"Feature","geometry":{"type":"Polygon","coordinates":[[[58.4908,55.6595],[58.7979,55.6692],[58.9265,55.5106],[59.1531,55.4238],[59.5002,55.4814],[59.6524,55.6071],[59.3221,55.6389],[59.3229,55.7685],[59.1342,55.8357],[59.3205,56.1814],[58.8171,56.0918],[58.5527,55.9868],[58.4788,55.8934],[58.5735,55.7261],[58.4908,55.6595]]]},"properties":{"GID_0":"RUS","GID_1":"RUS.6_1","GID_2":"RUS.6.12_1","NAME_1":"Bashkortostan","NAME_2":"Belokatayskiyrayon"}},
{"type":"Feature","geometry":{"type":"Polygon","coordinates":[[[58.7531,53.8942],[58.5405,53.9987],[58.6483,54.1167],[58.9874,54.2555],[59.0714,54.389],[58.9594,54.4589],[58.9847,54.6171],[58.6296,54.4954],[58.4131,54.5628],[58.064,54.4363],[57.912,54.4364],[57.7253,54.6154],[57.4642,54.746],[57.2715,54.6231],[57.2771,54.37],[57.1307,54.2473],[57.1553,53.8318],[56.8711,53.8048],[57.1942,53.6028],[57.1637,53.554],[57.3655,53.4065],[57.5418,53.3778],[57.8069,53.4982],[58.0743,53.6049],[58.4546,53.6229],[58.5968,53.6852],[58.7531,53.8942]]]},"properties":{"GID_0":"RUS","GID_1":"RUS.6_1","GID_2":"RUS.6.13_1","NAME_1":"Bashkortostan","NAME_2":"Beloretskiyrayon"}},
{"type":"Feature","geometry":{"type":"Polygon","coordinates":[[[55.5704,55.3962],[55.5574,55.4069],[55.543,55.3997],[55.5504,55.392],[55.5704,55.3962]]]},"properties":{"GID_0":"RUS","GID_1":"RUS.6_1","GID_2":"RUS.6.14_1","NAME_1":"Bashkortostan","NAME_2":"Birsk"}},
{"type":"Feature","geometry":{"type":"Polygon","coordinates":[[[55.233,55.5179],[55.1957,55.2471],[55.5118,55.1348],[55.7698,55.1615],[55.9894,55.3084],[55.9876,55.4493],[55.7649,55.4613],[55.4569,55.5966],[55.233,55.5179]],[[55.5704,55.3962],[55.5504,55.392],[55.543,55.3997],[55.5574,55.4069],[55.5704,55.3962]]]},"properties":{"GID_0":"RUS","GID_1":"RUS.6_1","GID_2":"RUS.6.15_1","NAME_1":"Bashkortostan","NAME_2":"Birskiyrayon"}},
{"type":"Feature","geometry":{"type":"Polygon","coordinates":[[[54.4457,53.9866],[53.9171,53.9616],[53.9549,53.9567],[54.0025,53.8747],[53.7416,53.7509],[54.0504,53.4837],[54.2129,53.4017],[54.4413,53.376],[54.4083,53.5984],[54.4764,53.8518],[54.4457,53.9866]]]},"properties":{"GID_0":"RUS","GID_1":"RUS.6_1","GID_2":"RUS.6.16_1","NAME_1":"Bashkortostan","NAME_2":"Bizhbulyakskiyrayon"}},
{"type":"Feature","geometry":{"type":"Polygon","coordinates":[[[54.721,54.8943],[54.6964,54.8653],[54.6916,54.8452],[54.5977,54.7851],[54.688,54.6057],[54.8386,54.4807],[54.8496,54.4901],[55.0053,54.4256],[55.1717,54.4775],[55.258,54.788],[55.1911,54.8924],[54.8989,54.969],[54.8865,54.9367],[54.7657,54.9142],[54.721,54.8943]]]},"properties":{"GID_0":"RUS","GID_1":"RUS.6_1","GID_2":"RUS.6.17_1","NAME_1":"Bashkortostan","NAME_2":"Blagovarskiyrayon"}},
{"type":"Feature","geometry":{"type":"Polygon","coordinates":[[[55.9892,55.0214],[55.9852,55.035],[55.9694,55.0326],[55.9744,55.0194],[55.9892,55.0214]]]},"properties":{"GID_0":"RUS","GID_1":"RUS.6_1","GID_2":"RUS.6.18_1","NAME_1":"Bashkortostan","NAME_2":"Blagoveshchensk"}},
{"type":"Feature","geometry":{"type":"Polygon","coordinates":[[[55.7698,55.1615],[55.7182,55.0861],[55.8598,54.9473],[56.0534,54.8885],[56.378,54.9158],[56.4085,55.0081],[56.5481,55.1195],[56.5197,55.2399],[56.6301,55.4179],[56.6114,55.5246],[56.3803,55.5257],[56.2628,55.3353],[55.9894,55.3084],[55.7698,55.1615]],[[55.9892,55.0214],[55.9744,55.0194],[55.9694,55.0326],[55.9852,55.035],[55.9892,55.0214]]]},"properties":{"GID_0":"RUS","GID_1":"RUS.6_1","GID_2":"RUS.6.19_1","NAME_1":"Bashkortostan","NAME_2":"Blagoveshchenskiyrayon"}},
{"type":"Feature","geometry":{"type":"Polygon","coordinates":[[[55.7558,56.0714],[55.5936,56.1013],[55.4786,56.0481],[55.3202,55.8954],[55.037,55.8587],[54.9125,55.7597],[55.0627,55.5962],[55.233,55.5179],[55.4569,55.5966],[55.8919,55.6794],[55.8692,55.9071],[55.5849,55.9636],[55.7558,56.0714]]]},"properties":{"GID_0":"RUS","GID_1":"RUS.6_1","GID_2":"RUS.6.20_1","NAME_1":"Bashkortostan","NAME_2":"Burayevskiyrayon"}},
{"type":"Feature","geometry":{"type":"Polygon","coordinates":[[[57.8069,53.4982],[57.5418,53.3778],[57.3655,53.4065],[57.1637,53.554],[57.1456,53.452],[56.9617,53.4002],[56.7456,53.2163],[56.8551,52.9325],[57.0714,52.8402],[57.6195,53.0047],[57.6749,52.9832],[58.0673,53.199],[57.9526,53.2768],[58.1832,53.4132],[57.8069,53.4982]]]},"properties":{"GID_0":"RUS","GID_1":"RUS.6_1","GID_2":"RUS.6.21_1","NAME_1":"Bashkortostan","NAME_2":"Burzyanskiyrayon"}},
{"type":"Feature","geometry":{"type":"Polygon","coordinates":[[[54.4802,54.3721],[54.6522,54.4908],[54.8214,54.464],[54.8386,54.4807],[54.688,54.6057],[54.5977,54.7851],[54.6916,54.8452],[54.6964,54.8653],[54.721,54.8943],[54.6912,54.8809],[54.451,54.8584],[54.2795,54.7266],[54.3495,54.3934],[54.4802,54.3721]]]},"properties":{"GID_0":"RUS","GID_1":"RUS.6_1","GID_2":"RUS.6.22_1","NAME_1":"Bashkortostan","NAME_2":"Buzdyakskiyrayon"}},
{"type":"Feature","geometry":{"type":"Polygon","coordinates":[[[54.1681,55.0597],[54.451,54.8584],[54.6912,54.8809],[54.7657,54.9142],[54.8865,54.9367],[54.9113,55.0013],[55.0675,55.0391],[54.924,55.2174],[54.5493,55.2805],[54.2307,55.219],[54.1681,55.0597]]]},"properties":{"GID_0":"RUS","GID_1":"RUS.6_1","GID_2":"RUS.6.23_1","NAME_1":"Bashkortostan","NAME_2":"Chekmagushevskiyrayon"}},
{"type":"Feature","geometry":{"type":"Polygon","coordinates":[[[55.0053,54.4256],[55.3423,54.2093],[55.4654,54.2819],[55.7705,54.4604],[55.4066,54.8487],[55.258,54.788],[55.1717,54.4775],[55.0053,54.4256]]]},"properties":{"GID_0":"RUS","GID_1":"RUS.6_1","GID_2":"RUS.6.24_1","NAME_1":"Bashkortostan","NAME_2":"Chishminskiyrayon"}},
{"type":"Feature","geometry":{"type":"Polygon","coordinates":[[[55.0377,54.1845],[55.0322,54.1966],[55.0196,54.1909],[55.0377,54.1845]]]},"properties":{"GID_0":"RUS","GID_1":"RUS.6_1","GID_2":"RUS.6.25_1","NAME_1":"Bashkortostan","NAME_2":"Davlekanovo"}},
{"type":"Feature","geometry":{"type":"Polygon","coordinates":[[[55.4569,54.0547],[55.5409,54.1814],[55.4897,54.239],[55.4654,54.2819],[55.3423,54.2093],[55.0053,54.4256],[54.8496,54.4901],[54.8214,54.464],[54.6522,54.4908],[54.4802,54.3721],[54.548,54.286],[54.9435,54.241],[55.1548,54.0852],[55.4569,54.0547]],[[55.0377,54.1845],[55.0196,54.1909],[55.0322,54.1966],[55.0377,54.1845]]]},"properties":{"GID_0":"RUS","GID_1":"RUS.6_1","GID_2":"RUS.6.26_1","NAME_1":"Bashkortostan","NAME_2":"Davlekanovskiyrayon"}},
{"type":"Feature","geometry":{"type":"Polygon","coordinates":[[[57.425,56.0607],[57.4433,56.0717],[57.4604,56.0745],[57.5542,56.0027],[57.6734,55.9711],[57.6147,55.7602],[57.4295,55.7256],[57.3082,55.6157],[57.3015,55.5648],[57.4053,55.4448],[57.6082,55.4388],[57.9314,55.5497],[58.3159,55.331],[58.5353,55.386],[58.3958,55.6097],[58.2288,55.6316],[58.2507,55.7792],[58.0309,55.9633],[57.9501,56.1103],[57.803,56.1705],[57.4976,56.1727],[57.4488,56.0921],[57.425,56.0607]]]},"properties":{"GID_0":"RUS","GID_1":"RUS.6_1","GID_2":"RUS.6.27_1","NAME_1":"Bashkortostan","NAME_2":"Duvanskiyrayon"}},
{"type":"Feature","geometry":{"type":"Polygon","coordinates":[[[54.8951,55.4787],[54.8848,55.4906],[54.866,55.4877],[54.8721,55.473],[54.8951,55.4787]]]},"properties":{"GID_0":"RUS","GID_1":"RUS.6_1","GID_2":"RUS.6.28_1","NAME_1":"Bashkortostan","NAME_2":"Dyurtyuli"}},
{"type":"Feature","geometry":{"type":"Polygon","coordinates":[[[55.233,55.5179],[55.0627,55.5962],[54.9125,55.7597],[54.7283,55.7694],[54.5958,55.7473],[54.6701,55.6582],[54.5343,55.5622],[54.6368,55.4229],[54.5493,55.2805],[54.924,55.2174],[55.1957,55.2471],[55.233,55.5179]],[[54.8951,55.4787],[54.8721,55.473],[54.866,55.4877],[54.8848,55.4906],[54.8951,55.4787]]]},"properties":{"GID_0":"RUS","GID_1":"RUS.6_1","GID_2":"RUS.6.29_1","NAME_1":"Bashkortostan","NAME_2":"Dyurtyulinskiyrayon"}},
{"type":"Feature","geometry":{"type":"Polygon","coordinates":[[[55.082,52.9311],[55.5158,52.9395],[55.5823,53.0476],[55.5627,53.2659],[55.4354,53.2171],[55.0165,53.3014],[54.8974,53.2462],[54.968,53.0378],[55.082,52.9311]]]},"properties":{"GID_0":"RUS","GID_1":"RUS.6_1","GID_2":"RUS.6.30_1","NAME_1":"Bashkortostan","NAME_2":"Fedorovskiyrayon"}},
{"type":"Feature","geometry":{"type":"Polygon","coordinates":[[[56.5156,54.342],[56.3287,54.1244],[56.1544,53.9287],[56.1778,53.6617],[56.6791,53.8253],[56.8711,53.8048],[57.1553,53.8318],[57.1307,54.2473],[56.7335,54.2352],[56.5156,54.342]]]},"properties":{"GID_0":"RUS","GID_1":"RUS.6_1","GID_2":"RUS.6.31_1","NAME_1":"Bashkortostan","NAME_2":"Gafuriyskiyrayon"}},
{"type":"Feature","geometry":{"type":"Polygon","coordinates":[[[57.1784,54.8661],[57.2632,54.9535],[57.1348,55.1247],[57.0252,55.15],[56.7892,55.0218],[56.4085,55.0081],[56.378,54.9158],[56.3943,54.799],[56.1755,54.6352],[56.4448,54.5022],[56.7139,54.6688],[57.1784,54.8661]]]},"properties":{"GID_0":"RUS","GID_1":"RUS.6_1","GID_2":"RUS.6.32_1","NAME_1":"Bashkortostan","NAME_2":"Iglinskiyrayon"}},
{"type":"Feature","geometry":{"type":"Polygon","coordinates":[[[54.2307,55.219],[54.5493,55.2805],[54.6368,55.4229],[54.5343,55.5622],[54.6701,55.6582],[54.5958,55.7473],[54.0918,55.8234],[54.2003,55.688],[54.0101,55.5898],[53.9324,55.417],[54.2307,55.219]]]},"properties":{"GID_0":"RUS","GID_1":"RUS.6_1","GID_2":"RUS.6.33_1","NAME_1":"Bashkortostan","NAME_2":"Ilishevskiyrayon"}},
{"type":"Feature","geometry":{"type":"Polygon","coordinates":[[[56.0517,53.4327],[56.0403,53.4475],[56.0221,53.4438],[56.0246,53.4277],[56.0517,53.4327]]]},"properties":{"GID_0":"RUS","GID_1":"RUS.6_1","GID_2":"RUS.6.34_1","NAME_1":"Bashkortostan","NAME_2":"Ishimbay"}},
{"type":"Feature","geometry":{"type":"Polygon","coordinates":[[[56.8711,53.8048],[56.6791,53.8253],[56.1778,53.6617],[55.9468,53.4473],[55.96,53.3404],[56.0062,53.2615],[56.3129,53.1121],[56.7456,53.2163],[56.9617,53.4002],[57.1456,53.452],[57.1637,53.554],[57.1942,53.6028],[56.8711,53.8048]],[[56.0517,53.4327],[56.0246,53.4277],[56.0221,53.4438],[56.0403,53.4475],[56.0517,53.4327]]]},"properties":{"GID_0":"RUS","GID_1":"RUS.6_1","GID_2":"RUS.6.35_1","NAME_1":"Bashkortostan","NAME_2":"Ishimbayskiyrayon"}},
{"type":"Feature","geometry":{"type":"Polygon","coordinates":[[[55.4786,56.0481],[55.1364,56.149],[54.8222,56.1446],[54.6149,56.2042],[54.4852,56.1202],[54.52,55.9311],[54.7283,55.7694],[54.9125,55.7597],[55.037,55.8587],[55.3202,55.8954],[55.4786,56.0481]]]},"properties":{"GID_0":"RUS","GID_1":"RUS.6_1","GID_2":"RUS.6.36_1","NAME_1":"Bashkortostan","NAME_2":"Kaltasinskiyrayon"}},
{"type":"Feature","geometry":{"type":"Polygon","coordinates":[[[56.469,55.9289],[56.4922,55.8193],[56.2851,55.6539],[56.3803,55.5257],[56.6114,55.5246],[57.0239,55.461],[57.1182,55.517],[57.1874,55.5494],[57.2625,55.5709],[57.3056,55.5928],[57.3082,55.6157],[57.4295,55.7256],[57.6147,55.7602],[57.6734,55.9711],[57.5542,56.0027],[57.4604,56.0745],[57.4433,56.0717],[57.425,56.0607],[57.4081,56.0365],[57.1918,55.9389],[56.9207,55.9197],[56.7459,56.0115],[56.469,55.9289]]]},"properties":{"GID_0":"RUS","GID_1":"RUS.6_1","GID_2":"RUS.6.37_1","NAME_1":"Bashkortostan","NAME_2":"Karaidel'skiyrayon"}},
{"type":"Feature","geometry":{"type":"Polygon","coordinates":[[[56.4448,54.5022],[56.1755,54.6352],[55.7705,54.4604],[55.4654,54.2819],[55.4897,54.239],[55.5031,54.2227],[55.5856,54.2368],[55.6812,54.2165],[55.9594,54.3069],[56.0604,54.1729],[56.3287,54.1244],[56.5156,54.342],[56.4448,54.5022]]]},"properties":{"GID_0":"RUS","GID_1":"RUS.6_1","GID_2":"RUS.6.38_1","NAME_1":"Bashkortostan","NAME_2":"Karmaskalinskiyrayon"}},
{"type":"Feature","geometry":{"type":"Polygon","coordinates":[[[58.1907,52.3311],[58.2112,52.2578],[57.8616,51.9528],[57.4074,51.9267],[57.4366,51.7152],[57.599,51.687],[57.7179,51.8424],[58.1288,51.7912],[58.2855,51.7049],[58.6609,51.8244],[58.7367,52.0391],[58.7223,52.2643],[58.344,52.3609],[58.1907,52.3311]]]},"properties":{"GID_0":"RUS","GID_1":"RUS.6_1","GID_2":"RUS.6.39_1","NAME_1":"Bashkortostan","NAME_2":"Khaybullinskiyrayon"}},
{"type":"Feature","geometry":{"type":"Polygon","coordinates":[[[58.4908,55.6595],[58.2288,55.6316],[58.3958,55.6097],[58.5353,55.386],[58.3159,55.331],[58.6688,55.2059],[58.841,55.3306],[58.9946,55.2856],[59.1531,55.4238],[58.9265,55.5106],[58.7979,55.6692],[58.4908,55.6595]]]},"properties":{"GID_0":"RUS","GID_1":"RUS.6_1","GID_2":"RUS.6.40_1","NAME_1":"Bashkortostan","NAME_2":"Kiginskiyrayon"}},
{"type":"Feature","geometry":{"type":"Polygon","coordinates":[[[54.7283,55.7694],[54.52,55.9311],[54.4852,56.1202],[54.6149,56.2042],[54.388,56.3059],[53.7979,55.9803],[54.0918,55.8234],[54.5958,55.7473],[54.7283,55.7694]],[[54.2755,56.0908],[54.2558,56.0894],[54.2506,56.101],[54.2792,56.1008],[54.2755,56.0908]]]},"properties":{"GID_0":"RUS","GID_1":"RUS.6_1","GID_2":"RUS.6.41_1","NAME_1":"Bashkortostan","NAME_2":"Krasnokamskiyrayon"}},
{"type":"Feature","geometry":{"type":"Polygon","coordinates":[[[56.8551,52.9325],[56.5696,53.0073],[56.3481,52.9089],[55.9874,52.8566],[56.1429,52.6601],[56.4344,52.4545],[56.4252,52.2989],[56.5697,52.2604],[56.6731,52.3529],[56.8508,52.3977],[56.9033,52.4187],[56.966,52.4534],[56.9994,52.4683],[56.9714,52.4974],[56.9222,52.6045],[57.1838,52.6743],[57.0714,52.8402],[56.8551,52.9325]]]},"properties":{"GID_0":"RUS","GID_1":"RUS.6_1","GID_2":"RUS.6.42_1","NAME_1":"Bashkortostan","NAME_2":"Kugarchinskiyrayon"}},
{"type":"Feature","geometry":{"type":"Polygon","coordinates":[[[55.7635,52.745],[55.7613,52.7585],[55.7425,52.7543],[55.7471,52.7437],[55.7635,52.745]]]},"properties":{"GID_0":"RUS","GID_1":"RUS.6_1","GID_2":"RUS.6.43_1","NAME_1":"Bashkortostan","NAME_2":"Kumertay"}},
{"type":"Feature","geometry":{"type":"Polygon","coordinates":[[[55.1957,55.2471],[54.924,55.2174],[55.0675,55.0391],[54.9113,55.0013],[54.8989,54.969],[55.1911,54.8924],[55.258,54.788],[55.4066,54.8487],[55.6286,54.9497],[55.8598,54.9473],[55.7182,55.0861],[55.7698,55.1615],[55.5118,55.1348],[55.1957,55.2471]]]},"properties":{"GID_0":"RUS","GID_1":"RUS.6_1","GID_2":"RUS.6.44_1","NAME_1":"Bashkortostan","NAME_2":"Kushnarenkovskiyrayon"}},
{"type":"Feature","geometry":{"type":"Polygon","coordinates":[[[55.082,52.9311],[55.3339,52.8694],[55.3508,52.6608],[55.4554,52.6077],[55.5268,52.4271],[55.7463,52.3707],[56.1429,52.6601],[55.9874,52.8566],[55.8174,52.9445],[55.6853,52.8706],[55.5158,52.9395],[55.082,52.9311]],[[55.7635,52.745],[55.7471,52.7437],[55.7425,52.7543],[55.7613,52.7585],[55.7635,52.745]]]},"properties":{"GID_0":"RUS","GID_1":"RUS.6_1","GID_2":"RUS.6.45_1","NAME_1":"Bashkortostan","NAME_2":"Kuyurgazinskiyrayon"}},
{"type":"Feature","geometry":{"type":"Polygon","coordinates":[[[58.8171,56.0918],[58.6261,56.1708],[58.3161,56.1086],[57.9501,56.1103],[58.0309,55.9633],[58.2507,55.7792],[58.2288,55.6316],[58.4908,55.6595],[58.5735,55.7261],[58.4788,55.8934],[58.5527,55.9868],[58.8171,56.0918]]]},"properties":{"GID_0":"RUS","GID_1":"RUS.6_1","GID_2":"RUS.6.46_1","NAME_1":"Bashkortostan","NAME_2":"Mechetlinskiyrayon"}},
{"type":"Feature","geometry":{"type":"Polygon","coordinates":[[[55.9594,52.947],[55.9619,52.9581],[55.9351,52.9566],[55.947,52.9449],[55.9594,52.947]]]},"properties":{"GID_0":"RUS","GID_1":"RUS.6_1","GID_2":"RUS.6.47_1","NAME_1":"Bashkortostan","NAME_2":"Meleuz"}},
{"type":"Feature","geometry":{"type":"Polygon","coordinates":[[[56.7456,53.2163],[56.3129,53.1121],[56.0062,53.2615],[55.96,53.3404],[55.6984,53.404],[55.5627,53.2659],[55.5823,53.0476],[55.5158,52.9395],[55.6853,52.8706],[55.8174,52.9445],[55.9874,52.8566],[56.3481,52.9089],[56.5696,53.0073],[56.8551,52.9325],[56.7456,53.2163]],[[55.9594,52.947],[55.947,52.9449],[55.9351,52.9566],[55.9619,52.9581],[55.9594,52.947]]]},"properties":{"GID_0":"RUS","GID_1":"RUS.6_1","GID_2":"RUS.6.48_1","NAME_1":"Bashkortostan","NAME_2":"Meleuzovskiyrayon"}},
{"type":"Feature","geometry":{"type":"Polygon","coordinates":[[[55.8919,55.6794],[55.4569,55.5966],[55.7649,55.4613],[55.9876,55.4493],[55.9894,55.3084],[56.2628,55.3353],[56.3803,55.5257],[56.2851,55.6539],[56.4922,55.8193],[56.1517,55.7132],[55.8919,55.6794]]]},"properties":{"GID_0":"RUS","GID_1":"RUS.6_1","GID_2":"RUS.6.49_1","NAME_1":"Bashkortostan","NAME_2":"Mishkinskiyrayon"}},
{"type":"Feature","geometry":{"type":"Polygon","coordinates":[[[54.4764,53.8518],[54.4083,53.5984],[54.4413,53.376],[54.507,53.3588],[54.7853,53.3801],[55.0076,53.492],[55.2621,53.7162],[55.279,53.7329],[55.0432,53.9271],[54.5976,53.7951],[54.4764,53.8518]]]},"properties":{"GID_0":"RUS","GID_1":"RUS.6_1","GID_2":"RUS.6.50_1","NAME_1":"Bashkortostan","NAME_2":"Miyakinskiyrayon"}},
{"type":"Feature","geometry":{"type":"Polygon","coordinates":[[[54.2755,56.0908],[54.2792,56.1008],[54.2506,56.101],[54.2558,56.0894],[54.2755,56.0908]]]},"properties":{"GID_0":"RUS","GID_1":"RUS.6_1","GID_2":"RUS.6.51_1","NAME_1":"Bashkortostan","NAME_2":"Neftekamsk"}},
{"type":"Feature","geometry":{"type":"Polygon","coordinates":[[[56.4085,55.0081],[56.7892,55.0218],[57.0252,55.15],[57.1348,55.1247],[57.4387,55.3182],[57.4053,55.4448],[57.3015,55.5648],[57.3056,55.5928],[57.2625,55.5709],[57.1874,55.5494],[57.1182,55.517],[57.0239,55.461],[56.6114,55.5246],[56.6301,55.4179],[56.5197,55.2399],[56.5481,55.1195],[56.4085,55.0081]]]},"properties":{"GID_0":"RUS","GID_1":"RUS.6_1","GID_2":"RUS.6.52_1","NAME_1":"Bashkortostan","NAME_2":"Nurimanovskiyrayon"}},
{"type":"Feature","geometry":{"type":"Polygon","coordinates":[[[53.4798,54.4476],[53.4691,54.4686],[53.4405,54.4615],[53.4628,54.4414],[53.4798,54.4476]]]},"properties":{"GID_0":"RUS","GID_1":"RUS.6_1","GID_2":"RUS.6.53_1","NAME_1":"Bashkortostan","NAME_2":"Oktyabr'skiy"}},
{"type":"Feature","geometry":{"type":"Polygon","coordinates":[[[55.9351,53.3669],[55.9234,53.3806],[55.9101,53.3709],[55.9351,53.3669]]]},"properties":{"GID_0":"RUS","GID_1":"RUS.6_1","GID_2":"RUS.6.54_1","NAME_1":"Bashkortostan","NAME_2":"Salavat"}},
{"type":"Feature","geometry":{"type":"Polygon","coordinates":[[[57.4053,55.4448],[57.4387,55.3182],[57.5501,55.3412],[58.0531,55.2798],[58.2656,55.2068],[58.61,54.9719],[58.8468,55.0682],[58.6688,55.2059],[58.3159,55.331],[57.9314,55.5497],[57.6082,55.4388],[57.4053,55.4448]]]},"properties":{"GID_0":"RUS","GID_1":"RUS.6_1","GID_2":"RUS.6.55_1","NAME_1":"Bashkortostan","NAME_2":"Salavatskiyrayon"}},
{"type":"Feature","geometry":{"type":"Polygon","coordinates":[[[53.6539,54.921],[53.6241,54.7647],[54.2795,54.7266],[54.451,54.8584],[54.1681,55.0597],[53.6781,54.9944],[53.6539,54.921]]]},"properties":{"GID_0":"RUS","GID_1":"RUS.6_1","GID_2":"RUS.6.56_1","NAME_1":"Bashkortostan","NAME_2":"Sharanskiyrayon"}},
{"type":"Feature","geometry":{"type":"Polygon","coordinates":[[[58.6591,52.7041],[58.6678,52.7166],[58.6432,52.7202],[58.6314,52.7029],[58.6591,52.7041]]]},"properties":{"GID_0":"RUS","GID_1":"RUS.6_1","GID_2":"RUS.6.57_1","NAME_1":"Bashkortostan","NAME_2":"Sibay"}},
{"type":"Feature","geometry":{"type":"Polygon","coordinates":[[[55.5627,53.2659],[55.6984,53.404],[55.5206,53.4006],[55.4314,53.5722],[55.2621,53.7162],[55.0076,53.492],[54.7853,53.3801],[54.507,53.3588],[54.6229,53.2405],[54.8974,53.2462],[55.0165,53.3014],[55.4354,53.2171],[55.5627,53.2659]]]},"properties":{"GID_0":"RUS","GID_1":"RUS.6_1","GID_2":"RUS.6.58_1","NAME_1":"Bashkortostan","NAME_2":"Sterlibashevskiyrayon"}},
{"type":"Feature","geometry":{"type":"Polygon","coordinates":[[[55.279,53.7329],[55.2621,53.7162],[55.4314,53.5722],[55.5206,53.4006],[55.6984,53.404],[55.96,53.3404],[55.9468,53.4473],[56.1778,53.6617],[56.1544,53.9287],[55.9843,53.9303],[55.7351,53.7711],[55.5404,53.774],[55.4553,53.9601],[55.279,53.7329]],[[55.9351,53.3669],[55.9101,53.3709],[55.9234,53.3806],[55.9351,53.3669]]]},"properties":{"GID_0":"RUS","GID_1":"RUS.6_1","GID_2":"RUS.6.59_1","NAME_1":"Bashkortostan","NAME_2":"Sterlitamakskiyrayon"}},
{"type":"Feature","geometry":{"type":"Polygon","coordinates":[[[56.3288,56.3408],[56.0463,56.3088],[55.8612,56.5],[55.6979,56.4993],[55.3577,56.3876],[55.5437,56.0783],[55.5936,56.1013],[55.7558,56.0714],[55.9665,56.1865],[56.2471,56.1828],[56.3288,56.3408]]]},"properties":{"GID_0":"RUS","GID_1":"RUS.6_1","GID_2":"RUS.6.60_1","NAME_1":"Bashkortostan","NAME_2":"Tatyshlinskiyrayon"}},
{"type":"Feature","geometry":{"type":"Polygon","coordinates":[[[54.3495,54.3934],[54.2795,54.7266],[53.6241,54.7647],[53.4669,54.5461],[53.3814,54.3135],[53.6131,54.382],[53.8077,54.2688],[54.3495,54.3934]],[[53.4798,54.4476],[53.4628,54.4414],[53.4405,54.4615],[53.4691,54.4686],[53.4798,54.4476]],[[53.7036,54.5622],[53.6815,54.5731],[53.6994,54.5797],[53.7036,54.5622]]]},"properties":{"GID_0":"RUS","GID_1":"RUS.6_1","GID_2":"RUS.6.61_1","NAME_1":"Bashkortostan","NAME_2":"Tuymazinskiyrayon"}},
{"type":"Feature","geometry":{"type":"Polygon","coordinates":[[[53.7036,54.5622],[53.6994,54.5797],[53.6815,54.5731],[53.7036,54.5622]]]},"properties":{"GID_0":"RUS","GID_1":"RUS.6_1","GID_2":"RUS.6.62_1","NAME_1":"Bashkortostan","NAME_2":"Tuymazy"}},
{"type":"Feature","geometry":{"type":"Polygon","coordinates":[[[58.9377,53.898],[59.1954,54.0257],[59.306,54.1875],[59.7267,54.1713],[59.776,54.3298],[59.6512,54.3865],[59.9265,54.7603],[59.668,54.9208],[59.2522,54.6337],[58.9847,54.6171],[58.9594,54.4589],[59.0714,54.389],[58.9874,54.2555],[58.6483,54.1167],[58.5405,53.9987],[58.7531,53.8942],[58.9377,53.898]]]},"properties":{"GID_0":"RUS","GID_1":"RUS.6_1","GID_2":"RUS.6.63_1","NAME_1":"Bashkortostan","NAME_2":"Uchalinskiyrayon"}},
{"type":"Feature","geometry":{"type":"Polygon","coordinates":[[[55.8598,54.9473],[55.6286,54.9497],[55.4066,54.8487],[55.7705,54.4604],[56.1755,54.6352],[56.3943,54.799],[56.378,54.9158],[56.0534,54.8885],[55.8598,54.9473]]]},"properties":{"GID_0":"RUS","GID_1":"RUS.6_1","GID_2":"RUS.6.64_1","NAME_1":"Bashkortostan","NAME_2":"Ufimskiyrayon"}},
{"type":"Feature","geometry":{"type":"Polygon","coordinates":[[[54.916,56.2521],[54.916,56.2695],[54.8963,56.2646],[54.916,56.2521]]]},"properties":{"GID_0":"RUS","GID_1":"RUS.6_1","GID_2":"RUS.6.65_1","NAME_1":"Bashkortostan","NAME_2":"Yanaul"}},
{"type":"Feature","geometry":{"type":"Polygon","coordinates":[[[55.5437,56.0783],[55.3577,56.3876],[55.1863,56.4458],[54.9626,56.4045],[54.5358,56.5123],[54.388,56.3059],[54.6149,56.2042],[54.8222,56.1446],[55.1364,56.149],[55.4786,56.0481],[55.5437,56.0783]],[[54.916,56.2521],[54.8963,56.2646],[54.916,56.2695],[54.916,56.2521]]]},"properties":{"GID_0":"RUS","GID_1":"RUS.6_1","GID_2":"RUS.6.66_1","NAME_1":"Bashkortostan","NAME_2":"Yanaul'skiyrayon"}},
{"type":"Feature","geometry":{"type":"Polygon","coordinates":[[[53.8077,54.2688],[53.6131,54.382],[53.3814,54.3135],[53.4914,53.9916],[53.7416,53.7509],[54.0025,53.8747],[53.9549,53.9567],[53.8621,53.9674],[53.9572,54.1528],[53.8077,54.2688]]]},"properties":{"GID_0":"RUS","GID_1":"RUS.6_1","GID_2":"RUS.6.67_1","NAME_1":"Bashkortostan","NAME_2":"Yermekeyevskiyrayon"}},
{"type":"Feature","geometry":{"type":"Polygon","coordinates":[[[57.4074,51.9267],[57.1965,51.9777],[57.014,52.2203],[57.0237,52.4422],[56.9994,52.4683],[56.966,52.4534],[56.9033,52.4187],[56.8508,52.3977],[56.6731,52.3529],[56.5697,52.2604],[56.4252,52.2989],[56.7643,51.9386],[56.6713,51.8534],[56.8477,51.6773],[57.0215,51.7251],[57.2528,51.5611],[57.4366,51.7152],[57.4074,51.9267]]]},"properties":{"GID_0":"RUS","GID_1":"RUS.6_1","GID_2":"RUS.6.68_1","NAME_1":"Bashkortostan","NAME_2":"Zianchurinskiyrayon"}},
{"type":"Feature","geometry":{"type":"Polygon","coordinates":[[[57.6749,52.9832],[57.6195,53.0047],[57.0714,52.8402],[57.1838,52.6743],[56.9222,52.6045],[56.9714,52.4974],[57.0237,52.4422],[57.014,52.2203],[57.1965,51.9777],[57.4074,51.9267],[57.8616,51.9528],[58.2112,52.2578],[58.1907,52.3311],[58.0996,52.3966],[57.6713,52.347],[57.5049,52.4989],[57.6492,52.5986],[57.6488,52.7218],[57.8124,52.7878],[57.6749,52.9832]]]},"properties":{"GID_0":"RUS","GID_1":"RUS.6_1","GID_2":"RUS.6.69_1","NAME_1":"Bashkortostan","NAME_2":"Zilairskiyrayon"}}
]}