{"type":"FeatureCollection", "features": [
{"type":"Feature","geometry":{"type":"Polygon","coordinates":[[[89.5871,51.5217],[89.5731,51.3757],[89.7667,51.2084],[90.0802,51.2128],[90.4864,50.6869],[90.5733,50.6453],[90.5914,50.5498],[90.6222,50.518],[91.1113,50.5602],[90.8271,50.9609],[90.7968,51.2094],[90.4773,51.5015],[90.4391,51.7435],[90.061,51.743],[89.5871,51.5217]]]},"properties":{"GID_0":"RUS","GID_1":"RUS.71_1","GID_2":"RUS.71.1_1","NAME_1":"Tuva","NAME_2":"Barun-Khemchikskiyrayon"}},
{"type":"Feature","geometry":{"type":"Polygon","coordinates":[[[89.7612,50.5359],[89.9624,50.4946],[90.2738,50.5495],[90.5273,50.6673],[90.4864,50.6869],[90.0802,51.2128],[89.7667,51.2084],[89.5731,51.3757],[89.5871,51.5217],[89.442,51.5747],[88.8078,51.5518],[88.9939,51.3917],[89.037,51.0579],[89.3662,50.8647],[89.5593,50.6468],[89.7612,50.5359]]]},"properties":{"GID_0":"RUS","GID_1":"RUS.71_1","GID_2":"RUS.71.2_1","NAME_1":"Tuva","NAME_2":"Bay-Tayginskiyrayon"}},
{"type":"Feature","geometry":{"type":"Polygon","coordinates":[[[91.8485,51.7765],[91.6726,51.6439],[91.831,51.4692],[92.25,51.1288],[92.4374,51.1232],[92.597,51.1115],[92.6114,51.1014],[92.7645,51.5222],[92.1684,51.7925],[91.8485,51.7765]]]},"properties":{"GID_0":"RUS","GID_1":"RUS.71_1","GID_2":"RUS.71.3_1","NAME_1":"Tuva","NAME_2":"Chaa-Khol'skiyrayon"}},
{"type":"Feature","geometry":{"type":"Polygon","coordinates":[[[93.8578,51.5703],[93.7494,51.5506],[93.7398,51.6457],[93.6809,51.6512],[93.6681,51.6031],[93.4467,51.4352],[93.3488,51.3257],[93.4667,51.1507],[93.3664,50.9838],[93.7491,50.8413],[94.0984,50.902],[94.1663,51.0218],[94.1707,51.0198],[93.8763,51.5582],[93.8578,51.5703]]]},"properties":{"GID_0":"RUS","GID_1":"RUS.71_1","GID_2":"RUS.71.4_1","NAME_1":"Tuva","NAME_2":"Chedi-Khol'skiyrayon"}},
{"type":"Feature","geometry":{"type":"Polygon","coordinates":[[[91.1113,50.5602],[91.5283,50.7494],[91.9347,50.8473],[92.4374,51.1232],[92.25,51.1288],[91.831,51.4692],[91.206,51.2748],[90.7968,51.2094],[90.8271,50.9609],[91.1113,50.5602]]]},"properties":{"GID_0":"RUS","GID_1":"RUS.71_1","GID_2":"RUS.71.5_1","NAME_1":"Tuva","NAME_2":"Dzun-Khemchikskiyrayon"}},
{"type":"Feature","geometry":{"type":"Polygon","coordinates":[[[94.5095,50.2673],[94.6088,50.0387],[94.9642,50.0617],[95.1296,49.9489],[95.4778,49.9223],[96.0958,50.0195],[96.4083,49.9023],[97.003,49.9145],[97.1937,49.7747],[97.5144,49.8322],[96.8958,50.093],[96.8523,50.2691],[96.5281,50.407],[96.4392,50.5203],[96.1932,50.6552],[96.0496,50.5776],[95.6415,50.6371],[95.5523,50.6612],[95.5365,50.6112],[95.3913,50.5223],[95.1546,50.539],[94.5095,50.2673]]]},"properties":{"GID_0":"RUS","GID_1":"RUS.71_1","GID_2":"RUS.71.6_1","NAME_1":"Tuva","NAME_2":"Erzinskiyrayon"}},
{"type":"Feature","geometry":{"type":"Polygon","coordinates":[[[98.0293,51.425],[98.2343,51.4623],[98.3153,51.7179],[98.6963,51.8204],[98.8527,52.0411],[98.8177,52.2934],[98.6289,52.3126],[98.1635,52.1687],[98.0516,51.9655],[97.789,51.9491],[97.4167,51.7241],[96.9825,51.7786],[96.5242,51.7255],[95.9525,51.974],[95.9274,52.0526],[95.3634,51.9811],[94.6581,51.7703],[94.7625,51.5306],[95.0128,51.4062],[95.0399,51.2388],[95.3534,50.9551],[95.3922,50.8294],[95.5053,50.6738],[95.6415,50.6371],[96.0496,50.5776],[96.1932,50.6552],[96.4392,50.5203],[96.7993,50.8072],[96.9508,51.0228],[97.2959,51.0562],[97.6857,51.2142],[98.0293,51.425]]]},"properties":{"GID_0":"RUS","GID_1":"RUS.71_1","GID_2":"RUS.71.7_1","NAME_1":"Tuva","NAME_2":"Kaa-Khemskiyrayon"}},
{"type":"Feature","geometry":{"type":"Polygon","coordinates":[[[94.4011,51.6112],[94.5448,51.731],[94.379,51.8184],[94.2965,51.6619],[94.4011,51.6112]]]},"properties":{"GID_0":"RUS","GID_1":"RUS.71_1","GID_2":"RUS.71.8_1","NAME_1":"Tuva","NAME_2":"Kyzyl"}},
{"type":"Feature","geometry":{"type":"MultiPolygon","coordinates":[[[[97.5144,49.8322],[97.5835,49.9482],[97.8627,49.9479],[98.1162,50.1039],[98.278,50.3121],[98.3245,50.539],[98.1327,50.5964],[97.8673,50.9498],[97.9449,51.3229],[98.0293,51.425],[97.6857,51.2142],[97.2959,51.0562],[96.9508,51.0228],[96.7993,50.8072],[96.4392,50.5203],[96.5281,50.407],[96.8523,50.2691],[96.8958,50.093],[97.5144,49.8322]]],[[[93.6681,51.6031],[93.6809,51.6512],[93.5407,51.8853],[93.2331,51.8026],[93.2257,51.8044],[93.2437,51.7746],[93.2591,51.5957],[93.357,51.4229],[93.4467,51.4352],[93.6681,51.6031]]],[[[93.7494,51.5506],[93.9096,51.5796],[94.0522,51.5043],[94.4938,51.5028],[94.6043,51.3057],[94.8556,51.1151],[95.0399,51.2388],[95.0128,51.4062],[94.7625,51.5306],[94.6581,51.7703],[95.3634,51.9811],[95.9274,52.0526],[95.3972,52.2681],[95.1609,52.251],[94.8819,52.5003],[94.6775,52.4707],[94.4498,52.3094],[94.3998,51.8521],[94.1061,51.6792],[93.7947,51.6406],[93.7398,51.6457],[93.7494,51.5506]],[[94.4011,51.6112],[94.2965,51.6619],[94.379,51.8184],[94.5448,51.731],[94.4011,51.6112]]]]},"properties":{"GID_0":"RUS","GID_1":"RUS.71_1","GID_2":"RUS.71.9_1","NAME_1":"Tuva","NAME_2":"Kyzylskiyrayon"}},
{"type":"Feature","geometry":{"type":"Polygon","coordinates":[[[89.7612,50.5359],[89.7967,50.3743],[89.4023,50.311],[89.7193,49.9775],[90.2875,50.0323],[90.3683,50.1445],[90.6762,50.2006],[90.6493,50.4896],[90.5914,50.5498],[90.5733,50.6453],[90.5273,50.6673],[90.2738,50.5495],[89.9624,50.4946],[89.7612,50.5359]]]},"properties":{"GID_0":"RUS","GID_1":"RUS.71_1","GID_2":"RUS.71.10_1","NAME_1":"Tuva","NAME_2":"Mongun-Tayginskiyrayon"}},
{"type":"Feature","geometry":{"type":"Polygon","coordinates":[[[90.6762,50.2006],[90.7377,50.4879],[91.4443,50.4654],[91.4464,50.5496],[91.8839,50.7304],[92.1958,50.6848],[92.3253,50.8864],[92.6071,50.716],[93.033,50.763],[93.0034,50.6019],[93.303,50.5763],[93.0121,50.9119],[92.6623,51.0658],[92.597,51.1115],[92.4374,51.1232],[91.9347,50.8473],[91.5283,50.7494],[91.1113,50.5602],[90.6222,50.518],[90.6493,50.4896],[90.6762,50.2006]]]},"properties":{"GID_0":"RUS","GID_1":"RUS.71_1","GID_2":"RUS.71.11_1","NAME_1":"Tuva","NAME_2":"Ovyurskiyrayon"}},
{"type":"Feature","geometry":{"type":"Polygon","coordinates":[[[92.7601,51.8612],[93.1508,51.8222],[93.2331,51.8026],[93.5407,51.8853],[93.6809,51.6512],[93.7947,51.6406],[94.1061,51.6792],[94.3998,51.8521],[94.4498,52.3094],[94.6775,52.4707],[94.8819,52.5003],[94.9027,52.7533],[94.68,52.8972],[94.3894,52.9223],[94.1347,52.8835],[93.8996,52.5787],[93.7463,52.4877],[93.5953,52.2057],[93.415,52.1841],[92.7601,51.8612]]]},"properties":{"GID_0":"RUS","GID_1":"RUS.71_1","GID_2":"RUS.71.12_1","NAME_1":"Tuva","NAME_2":"Piy-Khemskiyrayon"}},
{"type":"Feature","geometry":{"type":"Polygon","coordinates":[[[90.061,51.743],[90.4391,51.7435],[90.4773,51.5015],[90.7968,51.2094],[91.206,51.2748],[91.831,51.4692],[91.6726,51.6439],[91.8485,51.7765],[91.3835,51.8923],[90.7942,51.8794],[90.452,52.1634],[90.1752,52.1135],[89.9578,51.8921],[90.061,51.743]]]},"properties":{"GID_0":"RUS","GID_1":"RUS.71_1","GID_2":"RUS.71.13_1","NAME_1":"Tuva","NAME_2":"Sut-Khol'skiyrayon"}},
{"type":"Feature","geometry":{"type":"Polygon","coordinates":[[[94.1707,51.0198],[94.2138,51.0001],[94.3491,50.8701],[95.1275,50.7876],[95.3922,50.8294],[95.3534,50.9551],[95.0399,51.2388],[94.8556,51.1151],[94.6043,51.3057],[94.4938,51.5028],[94.0522,51.5043],[93.9096,51.5796],[93.8578,51.5703],[93.8763,51.5582],[94.1707,51.0198]]]},"properties":{"GID_0":"RUS","GID_1":"RUS.71_1","GID_2":"RUS.71.14_1","NAME_1":"Tuva","NAME_2":"Tandinskiyrayon"}},
{"type":"Feature","geometry":{"type":"Polygon","coordinates":[[[93.303,50.5763],[94.2237,50.5827],[94.5095,50.2673],[95.1546,50.539],[95.3913,50.5223],[95.5365,50.6112],[95.5523,50.6612],[95.5053,50.6738],[95.3922,50.8294],[95.1275,50.7876],[94.3491,50.8701],[94.2138,51.0001],[94.1663,51.0218],[94.0984,50.902],[93.7491,50.8413],[93.3664,50.9838],[93.0121,50.9119],[93.303,50.5763]]]},"properties":{"GID_0":"RUS","GID_1":"RUS.71_1","GID_2":"RUS.71.15_1","NAME_1":"Tuva","NAME_2":"Tes-Khemskiyrayon"}},
{"type":"Feature","geometry":{"type":"Polygon","coordinates":[[[98.6289,52.3126],[98.6475,52.4354],[98.9331,52.6855],[99.0071,52.9437],[98.6579,53.162],[98.2077,53.1053],[97.9231,53.3603],[97.5128,53.3821],[97.2084,53.6115],[96.8147,53.7534],[96.6255,53.5953],[95.9955,53.4713],[95.6573,53.511],[95.3175,53.3988],[94.6667,53.3872],[94.5179,53.0089],[94.3894,52.9223],[94.68,52.8972],[94.9027,52.7533],[94.8819,52.5003],[95.1609,52.251],[95.3972,52.2681],[95.9274,52.0526],[95.9525,51.974],[96.5242,51.7255],[96.9825,51.7786],[97.4167,51.7241],[97.789,51.9491],[98.0516,51.9655],[98.1635,52.1687],[98.6289,52.3126]]]},"properties":{"GID_0":"RUS","GID_1":"RUS.71_1","GID_2":"RUS.71.16_1","NAME_1":"Tuva","NAME_2":"Todzhinskiyrayon"}},
{"type":"Feature","geometry":{"type":"Polygon","coordinates":[[[92.1684,51.7925],[92.7645,51.5222],[92.6114,51.1014],[92.6623,51.0658],[93.0121,50.9119],[93.3664,50.9838],[93.4667,51.1507],[93.3488,51.3257],[93.357,51.4229],[93.2591,51.5957],[93.2437,51.7746],[93.2257,51.8044],[93.1508,51.8222],[92.7601,51.8612],[92.1684,51.7925]]]},"properties":{"GID_0":"RUS","GID_1":"RUS.71_1","GID_2":"RUS.71.17_1","NAME_1":"Tuva","NAME_2":"Ulug-Khemskiyrayon"}}
]}