{"type":"FeatureCollection", "features": [
{"type":"Feature","geometry":{"type":"Polygon","coordinates":[[[42.5685,52.8786],[42.554,52.8979],[42.384,53.0002],[42.2868,53.1195],[42.2008,53.043],[41.9054,53.0529],[41.8284,53.0899],[41.7723,53.0305],[41.7245,52.8817],[41.9522,52.8078],[42.0494,52.8732],[42.2778,52.7957],[42.4258,52.9063],[42.5685,52.8786]]]},"properties":{"GID_0":"RUS","GID_1":"RUS.67_1","GID_2":"RUS.67.1_1","NAME_1":"Tambov","NAME_2":"Bondarskiyrayon"}},
{"type":"Feature","geometry":{"type":"Polygon","coordinates":[[[42.5111,53.2485],[42.3627,53.108],[42.2868,53.1195],[42.384,53.0002],[42.554,52.8979],[42.5842,52.8594],[42.9943,52.8176],[43.0356,52.8586],[42.5913,53.1123],[42.5111,53.2485]]]},"properties":{"GID_0":"RUS","GID_1":"RUS.67_1","GID_2":"RUS.67.2_1","NAME_1":"Tambov","NAME_2":"Gavrilovskiyrayon"}},
{"type":"Feature","geometry":{"type":"Polygon","coordinates":[[[43.0491,52.3562],[42.8243,52.4189],[42.5866,52.4258],[42.4112,52.4969],[42.1858,52.4604],[42.2476,52.2945],[42.4632,52.206],[42.4248,52.1384],[42.7102,52.0246],[42.8438,52.0345],[42.8521,52.1218],[43.0491,52.3562]]]},"properties":{"GID_0":"RUS","GID_1":"RUS.67_1","GID_2":"RUS.67.3_1","NAME_1":"Tambov","NAME_2":"Inzhavinskiyrayon"}},
{"type":"Feature","geometry":{"type":"Polygon","coordinates":[[[42.7785,52.6595],[42.7084,52.6766],[42.706,52.6597],[42.7785,52.6595]]]},"properties":{"GID_0":"RUS","GID_1":"RUS.67_1","GID_2":"RUS.67.4_1","NAME_1":"Tambov","NAME_2":"Kirsanov"}},
{"type":"Feature","geometry":{"type":"Polygon","coordinates":[[[42.2778,52.7957],[42.4074,52.6842],[42.3252,52.6191],[42.4112,52.4969],[42.5866,52.4258],[42.8243,52.4189],[42.9226,52.5247],[43.0095,52.7588],[42.9943,52.8176],[42.5842,52.8594],[42.5685,52.8786],[42.4258,52.9063],[42.2778,52.7957]],[[42.7785,52.6595],[42.706,52.6597],[42.7084,52.6766],[42.7785,52.6595]]]},"properties":{"GID_0":"RUS","GID_1":"RUS.67_1","GID_2":"RUS.67.5_1","NAME_1":"Tambov","NAME_2":"Kirsanovskiyrayon"}},
{"type":"Feature","geometry":{"type":"Polygon","coordinates":[[[41.5469,52.5443],[41.5401,52.5809],[41.4665,52.5772],[41.4776,52.5395],[41.5469,52.5443]]]},"properties":{"GID_0":"RUS","GID_1":"RUS.67_1","GID_2":"RUS.67.6_1","NAME_1":"Tambov","NAME_2":"Kotovsk"}},
{"type":"Feature","geometry":{"type":"Polygon","coordinates":[[[40.5553,52.8916],[40.4359,52.9662],[40.4358,52.8437],[40.5553,52.8916]]]},"properties":{"GID_0":"RUS","GID_1":"RUS.67_1","GID_2":"RUS.67.7_1","NAME_1":"Tambov","NAME_2":"Michurinsk"}},
{"type":"Feature","geometry":{"type":"Polygon","coordinates":[[[40.1466,52.8441],[40.3478,52.7939],[40.5333,52.6889],[40.7408,52.7892],[40.7138,52.9109],[40.8831,53.1735],[40.8381,53.2012],[40.6419,53.2057],[40.6316,53.1906],[40.5761,53.0423],[40.4215,53.0026],[40.1633,53.0027],[40.1466,52.8441]],[[40.5553,52.8916],[40.4358,52.8437],[40.4359,52.9662],[40.5553,52.8916]]]},"properties":{"GID_0":"RUS","GID_1":"RUS.67_1","GID_2":"RUS.67.8_1","NAME_1":"Tambov","NAME_2":"Michurinskiyrayon"}},
{"type":"Feature","geometry":{"type":"Polygon","coordinates":[[[40.66,52.2898],[40.8192,52.1965],[40.6995,52.1336],[40.6067,51.9359],[40.9679,51.8809],[41.0949,52.0736],[41.1558,52.2461],[40.8819,52.4366],[40.8268,52.3403],[40.66,52.2898]]]},"properties":{"GID_0":"RUS","GID_1":"RUS.67_1","GID_2":"RUS.67.9_1","NAME_1":"Tambov","NAME_2":"Mordovskiyrayon"}},
{"type":"Feature","geometry":{"type":"Polygon","coordinates":[[[41.8474,53.4595],[41.8411,53.4938],[41.7706,53.5068],[41.7118,53.4836],[41.7934,53.4585],[41.8474,53.4595]]]},"properties":{"GID_0":"RUS","GID_1":"RUS.67_1","GID_2":"RUS.67.10_1","NAME_1":"Tambov","NAME_2":"Morshansk"}},
{"type":"Feature","geometry":{"type":"Polygon","coordinates":[[[42.3095,53.3872],[42.1082,53.5532],[42.1496,53.7619],[41.9296,53.7866],[41.4313,53.7373],[41.383,53.5196],[41.2945,53.4548],[41.5933,53.385],[41.7169,53.2737],[41.9059,53.176],[41.961,53.3535],[42.3095,53.3872]],[[41.8474,53.4595],[41.7934,53.4585],[41.7118,53.4836],[41.7706,53.5068],[41.8411,53.4938],[41.8474,53.4595]]]},"properties":{"GID_0":"RUS","GID_1":"RUS.67_1","GID_2":"RUS.67.11_1","NAME_1":"Tambov","NAME_2":"Morshanskiyrayon"}},
{"type":"Feature","geometry":{"type":"Polygon","coordinates":[[[42.8438,52.0345],[42.7102,52.0246],[42.4981,51.9716],[42.5122,51.8627],[42.1699,51.7221],[42.2119,51.6409],[42.3596,51.6597],[42.4042,51.5714],[42.734,51.8433],[42.8438,52.0345]]]},"properties":{"GID_0":"RUS","GID_1":"RUS.67_1","GID_2":"RUS.67.12_1","NAME_1":"Tambov","NAME_2":"Muchkapskiyrayon"}},
{"type":"Feature","geometry":{"type":"Polygon","coordinates":[[[40.5333,52.6889],[40.6268,52.6054],[40.8063,52.5603],[40.8805,52.6512],[41.0262,52.6895],[41.0849,52.8086],[41.0842,52.859],[41.0384,53.0103],[41.0888,53.1517],[40.8381,53.2012],[40.8831,53.1735],[40.7138,52.9109],[40.7408,52.7892],[40.5333,52.6889]]]},"properties":{"GID_0":"RUS","GID_1":"RUS.67_1","GID_2":"RUS.67.13_1","NAME_1":"Tambov","NAME_2":"Nikiforovskiyrayon"}},
{"type":"Feature","geometry":{"type":"Polygon","coordinates":[[[40.1633,53.0027],[40.4215,53.0026],[40.5761,53.0423],[40.6316,53.1906],[40.6509,53.219],[40.5382,53.2725],[40.5167,53.3908],[40.2957,53.3057],[40.1957,53.3167],[40.127,53.192],[40.1633,53.0027]]]},"properties":{"GID_0":"RUS","GID_1":"RUS.67_1","GID_2":"RUS.67.14_1","NAME_1":"Tambov","NAME_2":"Pervomayskiyrayon"}},
{"type":"Feature","geometry":{"type":"Polygon","coordinates":[[[40.66,52.2898],[40.8268,52.3403],[40.8819,52.4366],[40.9355,52.4644],[40.8063,52.5603],[40.6268,52.6054],[40.5333,52.6889],[40.3478,52.7939],[40.1466,52.8441],[40.0111,52.746],[40.1171,52.5376],[40.3843,52.4514],[40.3808,52.3744],[40.66,52.2898]]]},"properties":{"GID_0":"RUS","GID_1":"RUS.67_1","GID_2":"RUS.67.15_1","NAME_1":"Tambov","NAME_2":"Petrovskiyrayon"}},
{"type":"Feature","geometry":{"type":"Polygon","coordinates":[[[42.5111,53.2485],[42.3095,53.3872],[41.961,53.3535],[41.9059,53.176],[41.8631,53.1343],[41.8284,53.0899],[41.9054,53.0529],[42.2008,53.043],[42.2868,53.1195],[42.3627,53.108],[42.5111,53.2485]]]},"properties":{"GID_0":"RUS","GID_1":"RUS.67_1","GID_2":"RUS.67.16_1","NAME_1":"Tambov","NAME_2":"Pichaevskiyrayon"}},
{"type":"Feature","geometry":{"type":"Polygon","coordinates":[[[41.9714,52.6698],[41.9444,52.6905],[41.8397,52.632],[41.9075,52.6093],[41.9714,52.6698]]]},"properties":{"GID_0":"RUS","GID_1":"RUS.67_1","GID_2":"RUS.67.17_1","NAME_1":"Tambov","NAME_2":"Rasskazovo"}},
{"type":"Feature","geometry":{"type":"Polygon","coordinates":[[[41.9522,52.8078],[41.8549,52.6968],[41.6181,52.6326],[41.6412,52.5984],[41.69,52.5377],[41.671,52.5231],[41.7637,52.421],[42.0209,52.3564],[42.1143,52.3896],[42.2476,52.2945],[42.1858,52.4604],[42.4112,52.4969],[42.3252,52.6191],[42.4074,52.6842],[42.2778,52.7957],[42.0494,52.8732],[41.9522,52.8078]],[[41.9714,52.6698],[41.9075,52.6093],[41.8397,52.632],[41.9444,52.6905],[41.9714,52.6698]]]},"properties":{"GID_0":"RUS","GID_1":"RUS.67_1","GID_2":"RUS.67.18_1","NAME_1":"Tambov","NAME_2":"Rasskazovskiyrayon"}},
{"type":"Feature","geometry":{"type":"Polygon","coordinates":[[[42.2476,52.2945],[42.1143,52.3896],[42.0209,52.3564],[41.9897,52.2547],[41.7397,52.0531],[41.6648,51.9057],[41.7813,51.8147],[41.8794,51.8414],[41.9943,51.9308],[42.2342,52.0019],[42.2708,52.0407],[42.3504,52.0408],[42.4248,52.1384],[42.4632,52.206],[42.2476,52.2945]]]},"properties":{"GID_0":"RUS","GID_1":"RUS.67_1","GID_2":"RUS.67.19_1","NAME_1":"Tambov","NAME_2":"Rzhaksinskiyrayon"}},
{"type":"Feature","geometry":{"type":"Polygon","coordinates":[[[41.7637,52.421],[41.516,52.2847],[41.4872,52.1954],[41.6187,52.0337],[41.7397,52.0531],[41.9897,52.2547],[42.0209,52.3564],[41.7637,52.421]]]},"properties":{"GID_0":"RUS","GID_1":"RUS.67_1","GID_2":"RUS.67.20_1","NAME_1":"Tambov","NAME_2":"Sampurskiyrayon"}},
{"type":"Feature","geometry":{"type":"Polygon","coordinates":[[[40.958,53.496],[41.0187,53.3896],[40.8381,53.2012],[41.0888,53.1517],[41.0384,53.0103],[41.0842,52.859],[41.0844,52.8412],[41.1281,52.8493],[41.2455,52.9142],[41.3718,52.8964],[41.3805,53.0253],[41.6281,53.0914],[41.7723,53.0305],[41.8284,53.0899],[41.8631,53.1343],[41.9059,53.176],[41.7169,53.2737],[41.5933,53.385],[41.2945,53.4548],[41.2075,53.3956],[40.958,53.496]]]},"properties":{"GID_0":"RUS","GID_1":"RUS.67_1","GID_2":"RUS.67.21_1","NAME_1":"Tambov","NAME_2":"Sosnovskiyrayon"}},
{"type":"Feature","geometry":{"type":"Polygon","coordinates":[[[40.5167,53.3908],[40.5382,53.2725],[40.6509,53.219],[40.6419,53.2057],[40.8381,53.2012],[41.0187,53.3896],[40.958,53.496],[40.8059,53.5375],[40.5499,53.4842],[40.5167,53.3908]]]},"properties":{"GID_0":"RUS","GID_1":"RUS.67_1","GID_2":"RUS.67.22_1","NAME_1":"Tambov","NAME_2":"Staroyur'evskiyrayon"}},
{"type":"Feature","geometry":{"type":"Polygon","coordinates":[[[41.38,52.7413],[41.3256,52.7313],[41.3517,52.7087],[41.38,52.7413]]]},"properties":{"GID_0":"RUS","GID_1":"RUS.67_1","GID_2":"RUS.67.23_1","NAME_1":"Tambov","NAME_2":"Tambov"}},
{"type":"Feature","geometry":{"type":"Polygon","coordinates":[[[41.7723,53.0305],[41.6281,53.0914],[41.3805,53.0253],[41.3718,52.8964],[41.2455,52.9142],[41.1281,52.8493],[41.0844,52.8412],[41.0849,52.8086],[41.0262,52.6895],[40.8805,52.6512],[40.8063,52.5603],[40.9355,52.4644],[41.1866,52.4732],[41.3783,52.4406],[41.6444,52.5031],[41.69,52.5377],[41.6412,52.5984],[41.6181,52.6326],[41.8549,52.6968],[41.9522,52.8078],[41.7245,52.8817],[41.7723,53.0305]],[[41.5469,52.5443],[41.4776,52.5395],[41.4665,52.5772],[41.5401,52.5809],[41.5469,52.5443]],[[41.38,52.7413],[41.3517,52.7087],[41.3256,52.7313],[41.38,52.7413]]]},"properties":{"GID_0":"RUS","GID_1":"RUS.67_1","GID_2":"RUS.67.24_1","NAME_1":"Tambov","NAME_2":"Tambovskiyrayon"}},
{"type":"Feature","geometry":{"type":"Polygon","coordinates":[[[40.9679,51.8809],[41.0079,51.7224],[41.1745,51.7033],[41.2674,51.8442],[41.2999,51.8685],[41.6187,52.0337],[41.4872,52.1954],[41.2466,52.2021],[41.1558,52.2461],[41.0949,52.0736],[40.9679,51.8809]]]},"properties":{"GID_0":"RUS","GID_1":"RUS.67_1","GID_2":"RUS.67.25_1","NAME_1":"Tambov","NAME_2":"Tokarevskiyrayon"}},
{"type":"Feature","geometry":{"type":"Polygon","coordinates":[[[43.0356,52.8586],[42.9943,52.8176],[43.0095,52.7588],[42.9226,52.5247],[42.8243,52.4189],[43.0491,52.3562],[43.1187,52.4978],[43.2499,52.5766],[43.2767,52.675],[43.0356,52.8586]]]},"properties":{"GID_0":"RUS","GID_1":"RUS.67_1","GID_2":"RUS.67.26_1","NAME_1":"Tambov","NAME_2":"Umetskiyrayon"}},
{"type":"Feature","geometry":{"type":"Polygon","coordinates":[[[42.3115,52.006],[42.2507,52.0145],[42.2433,51.9377],[42.3089,51.9361],[42.3115,52.006]]]},"properties":{"GID_0":"RUS","GID_1":"RUS.67_1","GID_2":"RUS.67.27_1","NAME_1":"Tambov","NAME_2":"Uvarovo"}},
{"type":"Feature","geometry":{"type":"Polygon","coordinates":[[[42.4248,52.1384],[42.3504,52.0408],[42.2708,52.0407],[42.2342,52.0019],[41.9943,51.9308],[41.8794,51.8414],[42.0306,51.7807],[42.076,51.6353],[42.2119,51.6409],[42.1699,51.7221],[42.5122,51.8627],[42.4981,51.9716],[42.7102,52.0246],[42.4248,52.1384]],[[42.3115,52.006],[42.3089,51.9361],[42.2433,51.9377],[42.2507,52.0145],[42.3115,52.006]]]},"properties":{"GID_0":"RUS","GID_1":"RUS.67_1","GID_2":"RUS.67.28_1","NAME_1":"Tambov","NAME_2":"Uvarovskiyrayon"}},
{"type":"Feature","geometry":{"type":"Polygon","coordinates":[[[41.7397,52.0531],[41.6187,52.0337],[41.2999,51.8685],[41.2674,51.8442],[41.1745,51.7033],[41.3563,51.7163],[41.4128,51.7701],[41.9106,51.7057],[42.076,51.6353],[42.0306,51.7807],[41.8794,51.8414],[41.7813,51.8147],[41.6648,51.9057],[41.7397,52.0531]]]},"properties":{"GID_0":"RUS","GID_1":"RUS.67_1","GID_2":"RUS.67.29_1","NAME_1":"Tambov","NAME_2":"Zherdevskiyrayon"}},
{"type":"Feature","geometry":{"type":"Polygon","coordinates":[[[41.1558,52.2461],[41.2466,52.2021],[41.4872,52.1954],[41.516,52.2847],[41.7637,52.421],[41.671,52.5231],[41.6444,52.5031],[41.3783,52.4406],[41.1866,52.4732],[40.9355,52.4644],[40.8819,52.4366],[41.1558,52.2461]]]},"properties":{"GID_0":"RUS","GID_1":"RUS.67_1","GID_2":"RUS.67.30_1","NAME_1":"Tambov","NAME_2":"Znamenskiyrayon"}}
]}