{"type":"FeatureCollection", "features": [
{"type":"Feature","geometry":{"type":"Polygon","coordinates":[[[81.4165,60.6058],[80.7252,60.789],[80.1607,60.6698],[79.303,60.6577],[78.1122,60.7896],[77.056,60.7896],[76.8592,60.4518],[76.6395,59.5586],[77.4425,59.5645],[78.6366,59.4826],[78.8818,59.264],[79.4072,59.3217],[79.8876,59.754],[80.2878,59.8228],[81.4165,60.6058]],[[77.56,60.719],[77.5339,60.723],[77.5626,60.7353],[77.5766,60.7285],[77.56,60.719]]]},"properties":{"GID_0":"RUS","GID_1":"RUS.69_1","GID_2":"RUS.69.1_1","NAME_1":"Tomsk","NAME_2":"Aleksandrovskiyrayon"}},
{"type":"Feature","geometry":{"type":"Polygon","coordinates":[[[86.1325,56.9642],[86.1482,56.9762],[86.1229,56.9851],[86.1066,56.9744],[86.1325,56.9642]]]},"properties":{"GID_0":"RUS","GID_1":"RUS.69_1","GID_2":"RUS.69.2_1","NAME_1":"Tomsk","NAME_2":"Asino"}},
{"type":"Feature","geometry":{"type":"Polygon","coordinates":[[[86.3616,56.9413],[86.058,57.1284],[85.7926,57.4948],[85.4523,57.6829],[85.4741,57.8189],[85.4831,57.8414],[85.3953,57.8536],[85.313,57.8627],[84.7296,57.7731],[84.724,57.4284],[84.8703,57.2044],[85.2705,57.2837],[85.6806,56.8244],[86.1789,56.8176],[86.2438,56.8324],[86.3616,56.9413]],[[86.1325,56.9642],[86.1066,56.9744],[86.1229,56.9851],[86.1482,56.9762],[86.1325,56.9642]]]},"properties":{"GID_0":"RUS","GID_1":"RUS.69_1","GID_2":"RUS.69.3_1","NAME_1":"Tomsk","NAME_2":"Asinovskiyrayon"}},
{"type":"Feature","geometry":{"type":"Polygon","coordinates":[[[83.0632,56.5313],[83.1281,57.0169],[83.2259,57.3589],[83.0434,57.4458],[81.9842,57.2739],[81.6735,57.5027],[81.2261,57.492],[81.4685,57.8971],[80.9794,57.9063],[80.4993,57.8382],[80.3954,57.472],[79.5652,56.8942],[80.2649,56.419],[81.1451,56.5237],[81.5438,56.2604],[82.7803,56.3911],[83.0632,56.5313]]]},"properties":{"GID_0":"RUS","GID_1":"RUS.69_1","GID_2":"RUS.69.4_1","NAME_1":"Tomsk","NAME_2":"Bakcharskiyrayon"}},
{"type":"Feature","geometry":{"type":"Polygon","coordinates":[[[83.0434,57.4458],[83.1196,57.6846],[83.5685,57.8339],[82.7981,57.9126],[82.6692,58.0635],[82.1549,57.9317],[81.4685,57.8971],[81.2261,57.492],[81.6735,57.5027],[81.9842,57.2739],[83.0434,57.4458]]]},"properties":{"GID_0":"RUS","GID_1":"RUS.69_1","GID_2":"RUS.69.5_1","NAME_1":"Tomsk","NAME_2":"Chainskiyrayon"}},
{"type":"Feature","geometry":{"type":"Polygon","coordinates":[[[81.4165,60.6058],[80.2878,59.8228],[79.8876,59.754],[79.4072,59.3217],[78.8818,59.264],[78.6366,59.4826],[77.4425,59.5645],[76.6395,59.5586],[76.172,59.5205],[75.6155,59.1825],[75.6774,58.9457],[75.1793,58.6987],[75.3401,58.4386],[75.0364,58.3067],[75.0928,58.0872],[75.5182,57.9421],[75.589,57.7135],[76.1044,57.2295],[76.7883,57.1636],[78.0177,57.1381],[78.1149,57.2557],[77.5685,57.5992],[77.6361,57.9125],[77.5167,58.1484],[78.3553,58.2751],[79.4261,58.2051],[79.7312,58.3622],[79.7514,58.6472],[80.3826,58.584],[80.9552,58.8066],[81.1207,58.9966],[82.4152,59.235],[82.8775,59.6976],[84.0528,59.8261],[84.3632,59.8687],[84.6103,59.9201],[84.826,60.3349],[84.253,60.844],[83.946,60.8346],[83.5178,61.0134],[83.1962,61.0016],[82.4178,60.6956],[81.4165,60.6058]]]},"properties":{"GID_0":"RUS","GID_1":"RUS.69_1","GID_2":"RUS.69.6_1","NAME_1":"Tomsk","NAME_2":"Kargasokskiyrayon"}},
{"type":"Feature","geometry":{"type":"Polygon","coordinates":[[[82.9547,58.3094],[82.9511,58.3252],[82.9251,58.3143],[82.9547,58.3094]]]},"properties":{"GID_0":"RUS","GID_1":"RUS.69_1","GID_2":"RUS.69.7_1","NAME_1":"Tomsk","NAME_2":"Kolpashevo"}},
{"type":"Feature","geometry":{"type":"Polygon","coordinates":[[[81.4685,57.8971],[82.1549,57.9317],[82.6692,58.0635],[82.7981,57.9126],[83.5685,57.8339],[83.8909,58.056],[83.8545,58.2916],[84.1124,58.5475],[84.1052,59.2017],[84.0709,59.2463],[83.925,59.2829],[83.8819,59.3104],[83.8446,59.303],[83.2539,59.0804],[82.2195,58.8016],[82.1779,58.585],[81.4566,58.4141],[80.8026,58.1724],[80.9794,57.9063],[81.4685,57.8971]],[[82.9547,58.3094],[82.9251,58.3143],[82.9511,58.3252],[82.9547,58.3094]]]},"properties":{"GID_0":"RUS","GID_1":"RUS.69_1","GID_2":"RUS.69.8_1","NAME_1":"Tomsk","NAME_2":"Kolpashevskiyrayon"}},
{"type":"Feature","geometry":{"type":"Polygon","coordinates":[[[84.0179,55.9994],[84.0099,56.4055],[83.274,56.4369],[83.0896,56.2165],[83.354,55.8417],[83.6043,55.6719],[84.0179,55.9994]]]},"properties":{"GID_0":"RUS","GID_1":"RUS.69_1","GID_2":"RUS.69.9_1","NAME_1":"Tomsk","NAME_2":"Kozhevnikovskiyrayon"}},
{"type":"Feature","geometry":{"type":"Polygon","coordinates":[[[84.724,57.4284],[83.8909,57.4548],[83.2259,57.3589],[83.1281,57.0169],[83.8418,56.9725],[84.4007,57.0682],[84.8703,57.2044],[84.724,57.4284]]]},"properties":{"GID_0":"RUS","GID_1":"RUS.69_1","GID_2":"RUS.69.10_1","NAME_1":"Tomsk","NAME_2":"Krivosheinskiyrayon"}},
{"type":"Feature","geometry":{"type":"Polygon","coordinates":[[[85.4831,57.8414],[85.4956,57.8727],[85.5297,57.9392],[85.57,58.0077],[85.5091,58.004],[84.8768,57.9986],[83.8909,58.056],[83.5685,57.8339],[83.1196,57.6846],[83.0434,57.4458],[83.2259,57.3589],[83.8909,57.4548],[84.724,57.4284],[84.7296,57.7731],[85.313,57.8627],[85.3953,57.8536],[85.4831,57.8414]]]},"properties":{"GID_0":"RUS","GID_1":"RUS.69_1","GID_2":"RUS.69.11_1","NAME_1":"Tomsk","NAME_2":"Molchanovskiyrayon"}},
{"type":"Feature","geometry":{"type":"Polygon","coordinates":[[[78.1149,57.2557],[78.4333,57.0936],[79.2923,56.9818],[79.5652,56.8942],[80.3954,57.472],[80.4993,57.8382],[80.9794,57.9063],[80.8026,58.1724],[81.4566,58.4141],[82.1779,58.585],[82.2195,58.8016],[83.2539,59.0804],[83.8446,59.303],[84.0165,59.3326],[84.1434,59.8381],[84.0528,59.8261],[82.8775,59.6976],[82.4152,59.235],[81.1207,58.9966],[80.9552,58.8066],[80.3826,58.584],[79.7514,58.6472],[79.7312,58.3622],[79.4261,58.2051],[78.3553,58.2751],[77.5167,58.1484],[77.6361,57.9125],[77.5685,57.5992],[78.1149,57.2557]]]},"properties":{"GID_0":"RUS","GID_1":"RUS.69_1","GID_2":"RUS.69.12_1","NAME_1":"Tomsk","NAME_2":"Parabel'skiyrayon"}},
{"type":"Feature","geometry":{"type":"Polygon","coordinates":[[[86.3616,56.9413],[86.8927,56.9399],[87.0108,57.099],[87.5064,57.1838],[87.9059,58.2207],[86.2405,58.3907],[85.9831,58.0316],[85.57,58.0077],[85.5297,57.9392],[85.4956,57.8727],[85.4741,57.8189],[85.4523,57.6829],[85.7926,57.4948],[86.058,57.1284],[86.3616,56.9413]]]},"properties":{"GID_0":"RUS","GID_1":"RUS.69_1","GID_2":"RUS.69.13_1","NAME_1":"Tomsk","NAME_2":"Pervomayskiyrayon"}},
{"type":"Feature","geometry":{"type":"Polygon","coordinates":[[[83.0632,56.5313],[83.274,56.4369],[84.0099,56.4055],[84.3711,56.6104],[84.4007,57.0682],[83.8418,56.9725],[83.1281,57.0169],[83.0632,56.5313]]]},"properties":{"GID_0":"RUS","GID_1":"RUS.69_1","GID_2":"RUS.69.14_1","NAME_1":"Tomsk","NAME_2":"Shegarskiyrayon"}},
{"type":"Feature","geometry":{"type":"Polygon","coordinates":[[[77.56,60.719],[77.5766,60.7285],[77.5626,60.7353],[77.5339,60.723],[77.56,60.719]]]},"properties":{"GID_0":"RUS","GID_1":"RUS.69_1","GID_2":"RUS.69.15_1","NAME_1":"Tomsk","NAME_2":"Strezhevoy"}},
{"type":"Feature","geometry":{"type":"Polygon","coordinates":[[[87.9701,56.6422],[88.7275,57.0192],[88.6932,57.1879],[89.0488,57.5564],[89.385,57.6542],[89.3664,57.8668],[88.6319,58.0468],[88.0751,58.109],[87.9637,58.2532],[87.9059,58.2207],[87.5064,57.1838],[87.0108,57.099],[87.1287,56.8527],[87.707,56.8263],[87.9701,56.6422]]]},"properties":{"GID_0":"RUS","GID_1":"RUS.69_1","GID_2":"RUS.69.16_1","NAME_1":"Tomsk","NAME_2":"Tegul'detskiyrayon"}},
{"type":"Feature","geometry":{"type":"Polygon","coordinates":[[[84.9706,56.6619],[84.871,56.7541],[84.7188,56.7262],[84.8813,56.6073],[84.9706,56.6619]]]},"properties":{"GID_0":"RUS","GID_1":"RUS.69_1","GID_2":"RUS.69.17_1","NAME_1":"Tomsk","NAME_2":"Tomsk"}},
{"type":"Feature","geometry":{"type":"Polygon","coordinates":[[[84.0179,55.9994],[84.3601,55.9709],[84.7416,56.1225],[85.5274,56.2092],[86.1934,56.6158],[86.1493,56.7185],[86.244,56.7664],[86.218,56.7886],[86.2106,56.8249],[86.1789,56.8176],[85.6806,56.8244],[85.2705,57.2837],[84.8703,57.2044],[84.4007,57.0682],[84.3711,56.6104],[84.0099,56.4055],[84.0179,55.9994]],[[84.9706,56.6619],[84.8813,56.6073],[84.7188,56.7262],[84.871,56.7541],[84.9706,56.6619]]]},"properties":{"GID_0":"RUS","GID_1":"RUS.69_1","GID_2":"RUS.69.18_1","NAME_1":"Tomsk","NAME_2":"Tomskiyrayon"}},
{"type":"Feature","geometry":{"type":"Polygon","coordinates":[[[84.6103,59.9201],[84.3632,59.8687],[84.1434,59.8381],[84.0165,59.3326],[83.8819,59.3104],[83.925,59.2829],[84.0709,59.2463],[84.1052,59.2017],[84.1124,58.5475],[83.8545,58.2916],[83.8909,58.056],[84.8768,57.9986],[85.5091,58.004],[85.9831,58.0316],[86.2405,58.3907],[87.9059,58.2207],[87.9637,58.2532],[87.9028,58.5023],[88.5214,58.9381],[88.801,59.0136],[88.5494,59.2865],[87.8655,59.243],[87.4824,59.665],[87.0784,59.8601],[86.4583,59.9462],[85.5425,59.8854],[84.6103,59.9201]]]},"properties":{"GID_0":"RUS","GID_1":"RUS.69_1","GID_2":"RUS.69.19_1","NAME_1":"Tomsk","NAME_2":"Verkhneketskiyrayon"}},
{"type":"Feature","geometry":{"type":"Polygon","coordinates":[[[86.1934,56.6158],[86.8117,56.5305],[87.1759,56.6409],[87.9701,56.6422],[87.707,56.8263],[87.1287,56.8527],[87.0108,57.099],[86.8927,56.9399],[86.3616,56.9413],[86.2438,56.8324],[86.2106,56.8249],[86.218,56.7886],[86.244,56.7664],[86.1493,56.7185],[86.1934,56.6158]]]},"properties":{"GID_0":"RUS","GID_1":"RUS.69_1","GID_2":"RUS.69.20_1","NAME_1":"Tomsk","NAME_2":"Zyryanskiyrayon"}}
]}