{"type":"FeatureCollection", "features": [
{"type":"Feature","geometry":{"type":"Polygon","coordinates":[[[45.2956,43.3194],[45.3017,43.1877],[45.182,43.0472],[45.2126,42.9099],[45.1487,42.8052],[45.4753,42.7656],[45.5201,42.9082],[45.3554,43.0194],[45.4463,43.1161],[45.5045,43.1751],[45.4975,43.2572],[45.2956,43.3194]]]},"properties":{"GID_0":"RUS","GID_1":"RUS.10_1","GID_2":"RUS.10.1_1","NAME_1":"Chechnya","NAME_2":"Achkhoy-Martanovskiyrayon"}},
{"type":"Feature","geometry":{"type":"Polygon","coordinates":[[[45.8466,43.2815],[45.8444,43.288],[45.8377,43.2829],[45.8466,43.2815]]]},"properties":{"GID_0":"RUS","GID_1":"RUS.10_1","GID_2":"RUS.10.2_1","NAME_1":"Chechnya","NAME_2":"Argun"}},
{"type":"Feature","geometry":{"type":"Polygon","coordinates":[[[45.4967,43.1668],[45.7066,43.1713],[45.8527,43.2333],[46.0381,43.3221],[45.9921,43.3994],[45.8699,43.4817],[45.543,43.5685],[45.5225,43.5813],[45.5305,43.5482],[45.5141,43.4812],[45.4754,43.4227],[45.2513,43.4389],[45.2956,43.3194],[45.4975,43.2572],[45.5045,43.1751],[45.4967,43.1668]],[[45.8466,43.2815],[45.8377,43.2829],[45.8444,43.288],[45.8466,43.2815]],[[45.5658,43.4611],[45.748,43.3872],[45.7136,43.2721],[45.5769,43.278],[45.5118,43.3909],[45.5658,43.4611]]]},"properties":{"GID_0":"RUS","GID_1":"RUS.10_1","GID_2":"RUS.10.3_1","NAME_1":"Chechnya","NAME_2":"Groznenskiyrayon"}},
{"type":"Feature","geometry":{"type":"Polygon","coordinates":[[[45.5658,43.4611],[45.5118,43.3909],[45.5769,43.278],[45.7136,43.2721],[45.748,43.3872],[45.5658,43.4611]]]},"properties":{"GID_0":"RUS","GID_1":"RUS.10_1","GID_2":"RUS.10.4_1","NAME_1":"Chechnya","NAME_2":"Groznyy"}},
{"type":"Feature","geometry":{"type":"Polygon","coordinates":[[[46.096,43.3334],[46.1,43.3375],[46.0896,43.342],[46.0877,43.3374],[46.096,43.3334]]]},"properties":{"GID_0":"RUS","GID_1":"RUS.10_1","GID_2":"RUS.10.5_1","NAME_1":"Chechnya","NAME_2":"Gudermes"}},
{"type":"Feature","geometry":{"type":"Polygon","coordinates":[[[46.0381,43.3221],[45.9799,43.2462],[46.2396,43.2296],[46.3,43.2179],[46.39,43.1775],[46.468,43.1714],[46.3672,43.4171],[46.162,43.4274],[45.9921,43.3994],[46.0381,43.3221]],[[46.096,43.3334],[46.0877,43.3374],[46.0896,43.342],[46.1,43.3375],[46.096,43.3334]]]},"properties":{"GID_0":"RUS","GID_1":"RUS.10_1","GID_2":"RUS.10.6_1","NAME_1":"Chechnya","NAME_2":"Gudermesskiyrayon"}},
{"type":"Feature","geometry":{"type":"Polygon","coordinates":[[[45.2623,42.6112],[45.2855,42.6612],[45.5637,42.6636],[45.743,42.8113],[45.7918,42.9653],[45.7808,43.0026],[45.6498,43.004],[45.5201,42.9082],[45.4753,42.7656],[45.1487,42.8052],[45.1672,42.6978],[45.2623,42.6112]]]},"properties":{"GID_0":"RUS","GID_1":"RUS.10_1","GID_2":"RUS.10.7_1","NAME_1":"Chechnya","NAME_2":"Itum-Kalinskiyrayon"}},
{"type":"Feature","geometry":{"type":"Polygon","coordinates":[[[45.5225,43.5813],[45.5034,43.5931],[45.3675,43.5725],[45.0772,43.6624],[44.95,43.636],[44.9282,43.5359],[45.1641,43.4409],[45.2513,43.4389],[45.4754,43.4227],[45.5141,43.4812],[45.5305,43.5482],[45.5225,43.5813]]]},"properties":{"GID_0":"RUS","GID_1":"RUS.10_1","GID_2":"RUS.10.8_1","NAME_1":"Chechnya","NAME_2":"Nadterechnyyrayon"}},
{"type":"Feature","geometry":{"type":"Polygon","coordinates":[[[45.8699,43.4817],[45.8451,43.5939],[45.9244,43.7803],[45.7863,43.9013],[45.5694,43.9754],[45.4474,43.8106],[45.2813,43.8256],[45.0772,43.6624],[45.3675,43.5725],[45.5034,43.5931],[45.543,43.5685],[45.8699,43.4817]]]},"properties":{"GID_0":"RUS","GID_1":"RUS.10_1","GID_2":"RUS.10.9_1","NAME_1":"Chechnya","NAME_2":"Naurskiyrayon"}},
{"type":"Feature","geometry":{"type":"Polygon","coordinates":[[[46.39,43.1775],[46.34,43.1179],[46.1049,43.0717],[46.3083,42.9901],[46.3943,42.8868],[46.5545,42.922],[46.468,43.1714],[46.39,43.1775]]]},"properties":{"GID_0":"RUS","GID_1":"RUS.10_1","GID_2":"RUS.10.10_1","NAME_1":"Chechnya","NAME_2":"Nozhay-Yurtovskiyrayon"}},
{"type":"Feature","geometry":{"type":"Polygon","coordinates":[[[45.8748,43.1103],[45.8774,43.1134],[45.8698,43.1179],[45.8659,43.1117],[45.8748,43.1103]]]},"properties":{"GID_0":"RUS","GID_1":"RUS.10_1","GID_2":"RUS.10.11_1","NAME_1":"Chechnya","NAME_2":"Shali"}},
{"type":"Feature","geometry":{"type":"Polygon","coordinates":[[[45.8527,43.2333],[45.884,43.2017],[45.7722,43.026],[45.7869,42.9878],[45.8466,42.9791],[45.8723,43.0072],[46.1049,43.0717],[46.34,43.1179],[46.39,43.1775],[46.3,43.2179],[46.2396,43.2296],[45.9799,43.2462],[46.0381,43.3221],[45.8527,43.2333]],[[45.8748,43.1103],[45.8659,43.1117],[45.8698,43.1179],[45.8774,43.1134],[45.8748,43.1103]]]},"properties":{"GID_0":"RUS","GID_1":"RUS.10_1","GID_2":"RUS.10.12_1","NAME_1":"Chechnya","NAME_2":"Shalinskiyrayon"}},
{"type":"Feature","geometry":{"type":"Polygon","coordinates":[[[45.2623,42.6112],[45.3117,42.5477],[45.5774,42.5458],[45.8131,42.4706],[46.0422,42.6291],[45.9721,42.6741],[46.0442,42.8158],[45.8433,42.9018],[45.8691,42.9779],[45.8561,42.9902],[45.8466,42.9791],[45.7869,42.9878],[45.7918,42.9653],[45.743,42.8113],[45.5637,42.6636],[45.2855,42.6612],[45.2623,42.6112]]]},"properties":{"GID_0":"RUS","GID_1":"RUS.10_1","GID_2":"RUS.10.13_1","NAME_1":"Chechnya","NAME_2":"Shatoyskiyrayon"}},
{"type":"Feature","geometry":{"type":"Polygon","coordinates":[[[45.9921,43.3994],[46.162,43.4274],[46.3672,43.4171],[46.4663,43.5803],[46.5956,43.7057],[46.6045,43.8326],[46.5042,43.8712],[46.4491,43.9834],[46.1869,43.8376],[45.9033,43.9343],[45.7863,43.9013],[45.9244,43.7803],[45.8451,43.5939],[45.8699,43.4817],[45.9921,43.3994]]]},"properties":{"GID_0":"RUS","GID_1":"RUS.10_1","GID_2":"RUS.10.14_1","NAME_1":"Chechnya","NAME_2":"Shelkovskiyrayon"}},
{"type":"Feature","geometry":{"type":"Polygon","coordinates":[[[45.5201,42.9082],[45.6498,43.004],[45.7808,43.0026],[45.7722,43.026],[45.884,43.2017],[45.8527,43.2333],[45.7066,43.1713],[45.4967,43.1668],[45.4463,43.1161],[45.3554,43.0194],[45.5201,42.9082]]]},"properties":{"GID_0":"RUS","GID_1":"RUS.10_1","GID_2":"RUS.10.15_1","NAME_1":"Chechnya","NAME_2":"Urus-Martanovskiyrayon"}},
{"type":"Feature","geometry":{"type":"Polygon","coordinates":[[[46.1049,43.0717],[45.8723,43.0072],[45.8561,42.9902],[45.8691,42.9779],[45.8433,42.9018],[46.0442,42.8158],[45.9721,42.6741],[46.0422,42.6291],[46.0719,42.6856],[46.2334,42.7128],[46.1453,42.8021],[46.3943,42.8868],[46.3083,42.9901],[46.1049,43.0717]]]},"properties":{"GID_0":"RUS","GID_1":"RUS.10_1","GID_2":"RUS.10.16_1","NAME_1":"Chechnya","NAME_2":"Vedenskiyrayon"}}
]}