{"type":"FeatureCollection", "features": [
{"type":"Feature","geometry":{"type":"Polygon","coordinates":[[[63.2333,54.6694],[63.7281,54.8195],[63.9903,54.827],[63.9514,54.9941],[63.6639,55.0456],[63.6605,55.12],[63.1889,55.0001],[63.0137,55.0758],[62.955,55.0264],[62.752,54.8555],[62.8298,54.7679],[62.7142,54.6688],[63.1457,54.7324],[63.2333,54.6694]]]},"properties":{"GID_0":"RUS","GID_1":"RUS.36_1","GID_2":"RUS.36.1_1","NAME_1":"Kurgan","NAME_2":"Al'menevskiyrayon"}},
{"type":"Feature","geometry":{"type":"Polygon","coordinates":[[[65.1644,55.8058],[65.4492,55.6298],[65.5427,55.6544],[65.8956,55.594],[65.9268,55.9311],[66.0001,56.0482],[65.6824,56.2448],[65.6342,56.3168],[65.3128,56.3392],[65.2824,56.2266],[65.0054,56.2119],[65.0898,55.9854],[65.0519,55.8371],[65.1644,55.8058]]]},"properties":{"GID_0":"RUS","GID_1":"RUS.36_1","GID_2":"RUS.36.2_1","NAME_1":"Kurgan","NAME_2":"Belozerskiyrayon"}},
{"type":"Feature","geometry":{"type":"Polygon","coordinates":[[[67.5562,55.5659],[67.6569,55.3686],[68.2812,55.3461],[68.5937,55.4143],[68.2097,55.6196],[68.1145,55.7416],[67.8747,55.6937],[67.77,55.7608],[67.536,55.7381],[67.5562,55.5659]]]},"properties":{"GID_0":"RUS","GID_1":"RUS.36_1","GID_2":"RUS.36.3_1","NAME_1":"Kurgan","NAME_2":"Chastoozerskiyrayon"}},
{"type":"Feature","geometry":{"type":"Polygon","coordinates":[[[62.7737,55.7878],[63.1591,55.7644],[63.2516,55.8831],[63.1762,56.0473],[63.2498,56.235],[63.623,56.3557],[63.7736,56.4874],[63.7136,56.5519],[63.496,56.6496],[63.1237,56.5966],[62.9458,56.6478],[62.7142,56.5636],[62.8437,56.4086],[62.6396,56.3076],[62.668,56.1191],[62.8286,55.9199],[62.6985,55.809],[62.7737,55.7878]]]},"properties":{"GID_0":"RUS","GID_1":"RUS.36_1","GID_2":"RUS.36.4_1","NAME_1":"Kurgan","NAME_2":"Dalmatovskiyrayon"}},
{"type":"Feature","geometry":{"type":"Polygon","coordinates":[[[65.0054,56.2119],[64.8028,56.2571],[64.3977,56.1389],[64.1177,56.0461],[63.9805,55.8812],[63.973,55.6783],[64.0567,55.5968],[64.2322,55.6282],[64.2704,55.7363],[64.5675,55.7142],[64.8427,55.6392],[64.8927,55.7295],[65.1644,55.8058],[65.0519,55.8371],[65.0898,55.9854],[65.0054,56.2119]]]},"properties":{"GID_0":"RUS","GID_1":"RUS.36_1","GID_2":"RUS.36.5_1","NAME_1":"Kurgan","NAME_2":"Kargapol'skiyrayon"}},
{"type":"Feature","geometry":{"type":"Polygon","coordinates":[[[62.5412,55.773],[62.6985,55.809],[62.8286,55.9199],[62.668,56.1191],[62.6396,56.3076],[62.8437,56.4086],[62.7142,56.5636],[62.3993,56.5563],[62.0464,56.1929],[62.2406,55.946],[62.5412,55.773]]]},"properties":{"GID_0":"RUS","GID_1":"RUS.36_1","GID_2":"RUS.36.6_1","NAME_1":"Kurgan","NAME_2":"Katayskiyrayon"}},
{"type":"Feature","geometry":{"type":"Polygon","coordinates":[[[65.1644,55.8058],[64.8927,55.7295],[64.8427,55.6392],[64.7197,55.5631],[64.892,55.4351],[64.8577,55.3372],[64.6668,55.2058],[64.6927,55.1435],[65.0404,55.1094],[65.0744,55.1119],[65.0936,55.1883],[65.3678,55.1839],[65.5653,55.0561],[65.6417,55.1418],[65.8042,55.184],[65.6585,55.3938],[65.8956,55.594],[65.5427,55.6544],[65.4492,55.6298],[65.1644,55.8058]],[[65.4715,55.4048],[65.2395,55.3647],[65.236,55.4685],[65.394,55.4865],[65.4715,55.4048]]]},"properties":{"GID_0":"RUS","GID_1":"RUS.36_1","GID_2":"RUS.36.7_1","NAME_1":"Kurgan","NAME_2":"Ketovskiyrayon"}},
{"type":"Feature","geometry":{"type":"Polygon","coordinates":[[[65.4715,55.4048],[65.394,55.4865],[65.236,55.4685],[65.2395,55.3647],[65.4715,55.4048]]]},"properties":{"GID_0":"RUS","GID_1":"RUS.36_1","GID_2":"RUS.36.8_1","NAME_1":"Kurgan","NAME_2":"Kurgan"}},
{"type":"Feature","geometry":{"type":"Polygon","coordinates":[[[64.3158,54.331],[64.7462,54.4013],[65.0495,54.6906],[65.0634,55.1111],[65.0404,55.1094],[64.6927,55.1435],[64.2669,55.0724],[64.1766,55.1181],[63.9875,55.1022],[63.9514,54.9941],[63.9903,54.827],[64.1081,54.7113],[64.0866,54.5535],[64.3158,54.331]]]},"properties":{"GID_0":"RUS","GID_1":"RUS.36_1","GID_2":"RUS.36.9_1","NAME_1":"Kurgan","NAME_2":"Kurtamyshskiyrayon"}},
{"type":"Feature","geometry":{"type":"Polygon","coordinates":[[[67.0684,55.5046],[66.9253,55.5721],[66.6271,55.5406],[66.3369,55.6456],[66.1539,55.4554],[66.2118,55.2888],[66.0672,55.2199],[66.1627,55.0976],[66.1659,55.0413],[66.2344,54.9845],[66.6567,54.9256],[66.7514,54.9624],[67.0111,55.3251],[67.0684,55.5046]]]},"properties":{"GID_0":"RUS","GID_1":"RUS.36_1","GID_2":"RUS.36.10_1","NAME_1":"Kurgan","NAME_2":"Lebyazh'evskiyrayon"}},
{"type":"Feature","geometry":{"type":"Polygon","coordinates":[[[67.3588,54.8566],[67.3332,54.9214],[67.6052,55.2121],[67.6569,55.3686],[67.5562,55.5659],[67.0684,55.5046],[67.0111,55.3251],[66.7514,54.9624],[66.8506,54.772],[67.0484,54.7742],[67.3588,54.8566]]]},"properties":{"GID_0":"RUS","GID_1":"RUS.36_1","GID_2":"RUS.36.11_1","NAME_1":"Kurgan","NAME_2":"Makushinskiyrayon"}},
{"type":"Feature","geometry":{"type":"Polygon","coordinates":[[[63.9514,54.9941],[63.9875,55.1022],[64.1766,55.1181],[64.3412,55.3466],[63.9219,55.5113],[64.0567,55.5968],[63.973,55.6783],[63.9805,55.8812],[63.7245,55.7819],[63.39,55.7943],[63.2323,55.6878],[63.4593,55.5779],[63.3448,55.5023],[63.4527,55.3491],[63.6338,55.2243],[63.6605,55.12],[63.6639,55.0456],[63.9514,54.9941]]]},"properties":{"GID_0":"RUS","GID_1":"RUS.36_1","GID_2":"RUS.36.12_1","NAME_1":"Kurgan","NAME_2":"Mishkinskiyrayon"}},
{"type":"Feature","geometry":{"type":"Polygon","coordinates":[[[67.536,55.7381],[67.3526,55.7864],[67.2528,55.9725],[66.8534,55.9905],[66.6296,56.0553],[66.4782,55.982],[66.5531,55.8571],[66.2141,55.7887],[66.3369,55.6456],[66.6271,55.5406],[66.9253,55.5721],[67.0684,55.5046],[67.5562,55.5659],[67.536,55.7381]]]},"properties":{"GID_0":"RUS","GID_1":"RUS.36_1","GID_2":"RUS.36.13_1","NAME_1":"Kurgan","NAME_2":"Mokroysovskiyrayon"}},
{"type":"Feature","geometry":{"type":"Polygon","coordinates":[[[67.3588,54.8566],[67.7523,54.8787],[67.8844,54.9786],[68.2014,54.9579],[68.2853,55.0644],[68.1769,55.1823],[68.6174,55.189],[68.6729,55.3322],[68.5937,55.4143],[68.2812,55.3461],[67.6569,55.3686],[67.6052,55.2121],[67.3332,54.9214],[67.3588,54.8566]]]},"properties":{"GID_0":"RUS","GID_1":"RUS.36_1","GID_2":"RUS.36.14_1","NAME_1":"Kurgan","NAME_2":"Petukhovskiyrayon"}},
{"type":"Feature","geometry":{"type":"Polygon","coordinates":[[[66.8506,54.772],[66.7514,54.9624],[66.6567,54.9256],[66.2344,54.9845],[66.1659,55.0413],[66.1645,55.0654],[65.7682,55.0413],[65.6417,55.1418],[65.5653,55.0561],[65.6824,54.9281],[65.6595,54.6315],[65.9707,54.6922],[66.0201,54.6181],[66.8506,54.772]]]},"properties":{"GID_0":"RUS","GID_1":"RUS.36_1","GID_2":"RUS.36.15_1","NAME_1":"Kurgan","NAME_2":"Polovinskiyrayon"}},
{"type":"Feature","geometry":{"type":"Polygon","coordinates":[[[65.6595,54.6315],[65.6824,54.9281],[65.5653,55.0561],[65.3678,55.1839],[65.0936,55.1883],[65.0744,55.1119],[65.0634,55.1111],[65.0495,54.6906],[65.0555,54.6963],[65.4797,54.647],[65.6595,54.6315]]]},"properties":{"GID_0":"RUS","GID_1":"RUS.36_1","GID_2":"RUS.36.16_1","NAME_1":"Kurgan","NAME_2":"Pritobol'nyrayon"}},
{"type":"Feature","geometry":{"type":"Polygon","coordinates":[[[62.2526,55.1157],[61.9468,55.0134],[62.1842,54.6836],[62.415,54.7431],[62.7142,54.6688],[62.8298,54.7679],[62.752,54.8555],[62.955,55.0264],[62.8067,55.09],[62.2526,55.1157]]]},"properties":{"GID_0":"RUS","GID_1":"RUS.36_1","GID_2":"RUS.36.17_1","NAME_1":"Kurgan","NAME_2":"Safakulevskiyrayon"}},
{"type":"Feature","geometry":{"type":"Polygon","coordinates":[[[63.7013,56.0742],[63.7226,56.1105],[63.623,56.1102],[63.6581,56.0708],[63.7013,56.0742]]]},"properties":{"GID_0":"RUS","GID_1":"RUS.36_1","GID_2":"RUS.36.18_1","NAME_1":"Kurgan","NAME_2":"Shadrinsk"}},
{"type":"Feature","geometry":{"type":"Polygon","coordinates":[[[63.1591,55.7644],[63.1579,55.6795],[63.2323,55.6878],[63.39,55.7943],[63.7245,55.7819],[63.9805,55.8812],[64.1177,56.0461],[64.3977,56.1389],[64.2094,56.3668],[64.2309,56.5443],[64.1138,56.5034],[63.7136,56.5519],[63.7736,56.4874],[63.623,56.3557],[63.2498,56.235],[63.1762,56.0473],[63.2516,55.8831],[63.1591,55.7644]],[[63.7013,56.0742],[63.6581,56.0708],[63.623,56.1102],[63.7226,56.1105],[63.7013,56.0742]]]},"properties":{"GID_0":"RUS","GID_1":"RUS.36_1","GID_2":"RUS.36.19_1","NAME_1":"Kurgan","NAME_2":"Shadrinskiyrayon"}},
{"type":"Feature","geometry":{"type":"Polygon","coordinates":[[[65.3128,56.3392],[65.1956,56.3365],[64.9808,56.6185],[64.9678,56.7967],[64.8468,56.8633],[64.5847,56.866],[64.3123,56.7527],[64.2309,56.5443],[64.2094,56.3668],[64.3977,56.1389],[64.8028,56.2571],[65.0054,56.2119],[65.2824,56.2266],[65.3128,56.3392]]]},"properties":{"GID_0":"RUS","GID_1":"RUS.36_1","GID_2":"RUS.36.20_1","NAME_1":"Kurgan","NAME_2":"Shatrovskiyrayon"}},
{"type":"Feature","geometry":{"type":"Polygon","coordinates":[[[62.2526,55.1157],[62.8067,55.09],[62.955,55.0264],[63.0137,55.0758],[63.0532,55.2704],[62.8088,55.4243],[62.7459,55.6098],[62.9316,55.6678],[62.7737,55.7878],[62.6985,55.809],[62.5412,55.773],[62.5463,55.4912],[62.0513,55.2956],[62.2526,55.1157]]]},"properties":{"GID_0":"RUS","GID_1":"RUS.36_1","GID_2":"RUS.36.21_1","NAME_1":"Kurgan","NAME_2":"Shchuchanskiyrayon"}},
{"type":"Feature","geometry":{"type":"Polygon","coordinates":[[[63.6605,55.12],[63.6338,55.2243],[63.4527,55.3491],[63.3448,55.5023],[63.4593,55.5779],[63.2323,55.6878],[63.1579,55.6795],[63.1591,55.7644],[62.7737,55.7878],[62.9316,55.6678],[62.7459,55.6098],[62.8088,55.4243],[63.0532,55.2704],[63.0137,55.0758],[63.1889,55.0001],[63.6605,55.12]]]},"properties":{"GID_0":"RUS","GID_1":"RUS.36_1","GID_2":"RUS.36.22_1","NAME_1":"Kurgan","NAME_2":"Shumikhinskiyrayon"}},
{"type":"Feature","geometry":{"type":"Polygon","coordinates":[[[63.2333,54.6694],[63.2873,54.5612],[63.1199,54.4701],[63.1088,54.369],[63.3781,54.1974],[63.8804,54.2859],[64.3158,54.331],[64.0866,54.5535],[64.1081,54.7113],[63.9903,54.827],[63.7281,54.8195],[63.2333,54.6694]]]},"properties":{"GID_0":"RUS","GID_1":"RUS.36_1","GID_2":"RUS.36.23_1","NAME_1":"Kurgan","NAME_2":"Tselinnyyrayon"}},
{"type":"Feature","geometry":{"type":"Polygon","coordinates":[[[65.8956,55.594],[65.6585,55.3938],[65.8042,55.184],[65.6417,55.1418],[65.7682,55.0413],[66.1645,55.0654],[66.1627,55.0976],[66.0672,55.2199],[66.2118,55.2888],[66.1539,55.4554],[66.3369,55.6456],[66.2141,55.7887],[66.5531,55.8571],[66.4782,55.982],[66.3007,56.1052],[66.0001,56.0482],[65.9268,55.9311],[65.8956,55.594]]]},"properties":{"GID_0":"RUS","GID_1":"RUS.36_1","GID_2":"RUS.36.24_1","NAME_1":"Kurgan","NAME_2":"Vargashinskiyrayon"}},
{"type":"Feature","geometry":{"type":"Polygon","coordinates":[[[64.0567,55.5968],[63.9219,55.5113],[64.3412,55.3466],[64.1766,55.1181],[64.2669,55.0724],[64.6927,55.1435],[64.6668,55.2058],[64.8577,55.3372],[64.892,55.4351],[64.7197,55.5631],[64.8427,55.6392],[64.5675,55.7142],[64.2704,55.7363],[64.2322,55.6282],[64.0567,55.5968]]]},"properties":{"GID_0":"RUS","GID_1":"RUS.36_1","GID_2":"RUS.36.25_1","NAME_1":"Kurgan","NAME_2":"Yurgam'shskiyrayon"}},
{"type":"Feature","geometry":{"type":"Polygon","coordinates":[[[65.4797,54.647],[65.0555,54.6963],[64.7462,54.4013],[64.9779,54.4196],[65.2402,54.3675],[65.2008,54.5246],[65.4797,54.647]]]},"properties":{"GID_0":"RUS","GID_1":"RUS.36_1","GID_2":"RUS.36.26_1","NAME_1":"Kurgan","NAME_2":"Zverinogolovskiyrayon"}}
]}