{"type":"FeatureCollection", "features": [
{"type":"Feature","geometry":{"type":"Polygon","coordinates":[[[46.6296,54.8548],[46.6304,54.8604],[46.6143,54.8634],[46.6127,54.8522],[46.6296,54.8548]]]},"properties":{"GID_0":"RUS","GID_1":"RUS.13_1","GID_2":"RUS.13.1_1","NAME_1":"Chuvash","NAME_2":"Alatyr'"}},
{"type":"Feature","geometry":{"type":"Polygon","coordinates":[[[46.8295,55.0967],[46.6207,55.0908],[46.3315,55.0364],[46.2693,54.9769],[46.417,54.8908],[46.456,54.7763],[46.6904,54.6788],[46.8724,54.6333],[47.084,54.7096],[47.1401,54.9067],[47.1115,54.9762],[46.9223,55.0199],[46.9084,55.0932],[46.8295,55.0967]],[[46.6296,54.8548],[46.6127,54.8522],[46.6143,54.8634],[46.6304,54.8604],[46.6296,54.8548]]]},"properties":{"GID_0":"RUS","GID_1":"RUS.13_1","GID_2":"RUS.13.2_1","NAME_1":"Chuvash","NAME_2":"Alatyrskiyrayon"}},
{"type":"Feature","geometry":{"type":"Polygon","coordinates":[[[46.955,55.8299],[46.5493,55.8789],[46.4609,55.8112],[46.5033,55.6512],[46.7823,55.6538],[46.8377,55.6761],[47.103,55.7161],[46.955,55.8299]]]},"properties":{"GID_0":"RUS","GID_1":"RUS.13_1","GID_2":"RUS.13.3_1","NAME_1":"Chuvash","NAME_2":"Alikovskiyrayon"}},
{"type":"Feature","geometry":{"type":"Polygon","coordinates":[[[47.1401,54.9067],[47.4342,54.9256],[47.5205,54.9676],[47.8053,54.9498],[47.902,54.9771],[47.793,55.0903],[47.6219,55.117],[47.2104,55.0894],[47.0584,55.0444],[46.9084,55.0932],[46.9223,55.0199],[47.1115,54.9762],[47.1401,54.9067]]]},"properties":{"GID_0":"RUS","GID_1":"RUS.13_1","GID_2":"RUS.13.4_1","NAME_1":"Chuvash","NAME_2":"Batyrevskiyrayon"}},
{"type":"Feature","geometry":{"type":"Polygon","coordinates":[[[47.1921,55.9093],[47.5995,55.9934],[47.5512,56.0363],[47.6113,56.1573],[47.4819,56.2018],[47.3526,56.3481],[47.1858,56.3391],[47.0383,56.2734],[46.9133,56.1548],[46.9339,56.0688],[46.8713,55.9083],[46.8907,55.8916],[46.9295,55.8955],[47.0451,55.8772],[47.1921,55.9093]],[[47.2396,56.1264],[47.2506,56.1416],[47.2689,56.1304],[47.2396,56.1264]],[[47.4466,56.0666],[47.4192,56.0728],[47.434,56.0809],[47.4466,56.0666]]]},"properties":{"GID_0":"RUS","GID_1":"RUS.13_1","GID_2":"RUS.13.5_1","NAME_1":"Chuvash","NAME_2":"Cheboksarskiyrayon"}},
{"type":"Feature","geometry":{"type":"Polygon","coordinates":[[[47.2396,56.1264],[47.2689,56.1304],[47.2506,56.1416],[47.2396,56.1264]]]},"properties":{"GID_0":"RUS","GID_1":"RUS.13_1","GID_2":"RUS.13.6_1","NAME_1":"Chuvash","NAME_2":"Cheboksary"}},
{"type":"Feature","geometry":{"type":"Polygon","coordinates":[[[46.9084,55.0932],[47.0584,55.0444],[47.2104,55.0894],[47.3393,55.2009],[47.464,55.2123],[47.4345,55.3371],[47.2384,55.3846],[47.0565,55.377],[46.7757,55.3557],[46.7556,55.2964],[46.8295,55.0967],[46.9084,55.0932]]]},"properties":{"GID_0":"RUS","GID_1":"RUS.13_1","GID_2":"RUS.13.7_1","NAME_1":"Chuvash","NAME_2":"Ibresinskiyrayon"}},
{"type":"Feature","geometry":{"type":"Polygon","coordinates":[[[47.5058,55.5002],[47.5095,55.5073],[47.4959,55.5078],[47.494,55.4997],[47.5058,55.5002]]]},"properties":{"GID_0":"RUS","GID_1":"RUS.13_1","GID_2":"RUS.13.8_1","NAME_1":"Chuvash","NAME_2":"Kanash"}},
{"type":"Feature","geometry":{"type":"Polygon","coordinates":[[[47.4345,55.3371],[47.6744,55.3036],[47.7257,55.3166],[47.6938,55.4336],[47.609,55.5101],[47.6961,55.6093],[47.6279,55.7379],[47.431,55.7042],[47.3729,55.6926],[47.2457,55.6572],[47.2112,55.6674],[47.1777,55.501],[47.1932,55.4482],[47.1987,55.4161],[47.1989,55.3829],[47.2384,55.3846],[47.4345,55.3371]],[[47.5058,55.5002],[47.494,55.4997],[47.4959,55.5078],[47.5095,55.5073],[47.5058,55.5002]]]},"properties":{"GID_0":"RUS","GID_1":"RUS.13_1","GID_2":"RUS.13.9_1","NAME_1":"Chuvash","NAME_2":"Kanashskiyrayon"}},
{"type":"Feature","geometry":{"type":"Polygon","coordinates":[[[47.7299,55.1001],[47.724,55.1251],[47.7349,55.2315],[47.6744,55.3036],[47.4345,55.3371],[47.464,55.2123],[47.3393,55.2009],[47.2104,55.0894],[47.6219,55.117],[47.7299,55.1001]]]},"properties":{"GID_0":"RUS","GID_1":"RUS.13_1","GID_2":"RUS.13.10_1","NAME_1":"Chuvash","NAME_2":"Komsomol'skiyrayon"}},
{"type":"Feature","geometry":{"type":"Polygon","coordinates":[[[47.8004,55.8167],[48.0009,55.7917],[48.1221,55.6846],[48.4338,55.8356],[48.1328,55.9232],[47.9656,55.855],[47.778,55.8483],[47.8004,55.8167]],[[48.2293,55.8279],[48.2122,55.8347],[48.2252,55.8417],[48.2386,55.8329],[48.2293,55.8279]]]},"properties":{"GID_0":"RUS","GID_1":"RUS.13_1","GID_2":"RUS.13.11_1","NAME_1":"Chuvash","NAME_2":"Kozlovskiyrayon"}},
{"type":"Feature","geometry":{"type":"Polygon","coordinates":[[[47.103,55.7161],[47.1917,55.6742],[47.2457,55.6572],[47.3729,55.6926],[47.4055,55.6991],[47.3734,55.7182],[47.3538,55.7989],[47.1921,55.9093],[47.0451,55.8772],[46.9295,55.8955],[46.8907,55.8916],[46.9355,55.8568],[46.955,55.8299],[47.103,55.7161]]]},"properties":{"GID_0":"RUS","GID_1":"RUS.13_1","GID_2":"RUS.13.12_1","NAME_1":"Chuvash","NAME_2":"Krasnoarmeyskiyrayon"}},
{"type":"Feature","geometry":{"type":"Polygon","coordinates":[[[46.4609,55.8112],[46.1229,55.8373],[45.9773,55.7094],[46.0167,55.6105],[46.2135,55.523],[46.3014,55.6565],[46.5033,55.6512],[46.4609,55.8112]]]},"properties":{"GID_0":"RUS","GID_1":"RUS.13_1","GID_2":"RUS.13.13_1","NAME_1":"Chuvash","NAME_2":"Krasnochetayskiyrayon"}},
{"type":"Feature","geometry":{"type":"Polygon","coordinates":[[[47.5995,55.9934],[47.778,55.8483],[47.9656,55.855],[48.1328,55.9232],[47.9933,55.9806],[47.8821,56.1394],[47.6113,56.1573],[47.5512,56.0363],[47.5995,55.9934]]]},"properties":{"GID_0":"RUS","GID_1":"RUS.13_1","GID_2":"RUS.13.14_1","NAME_1":"Chuvash","NAME_2":"Mariinsko-Posadskiyrayon"}},
{"type":"Feature","geometry":{"type":"Polygon","coordinates":[[[46.955,55.8299],[46.9355,55.8568],[46.8713,55.9083],[46.9339,56.0688],[46.9133,56.1548],[47.0383,56.2734],[46.6144,56.1394],[46.514,55.9393],[46.5493,55.8789],[46.955,55.8299]]]},"properties":{"GID_0":"RUS","GID_1":"RUS.13_1","GID_2":"RUS.13.15_1","NAME_1":"Chuvash","NAME_2":"Morgaushskiyrayon"}},
{"type":"Feature","geometry":{"type":"Polygon","coordinates":[[[47.4466,56.0666],[47.434,56.0809],[47.4192,56.0728],[47.4466,56.0666]]]},"properties":{"GID_0":"RUS","GID_1":"RUS.13_1","GID_2":"RUS.13.16_1","NAME_1":"Chuvash","NAME_2":"Novocheboksarsk"}},
{"type":"Feature","geometry":{"type":"Polygon","coordinates":[[[46.8295,55.0967],[46.7556,55.2964],[46.5005,55.259],[46.2865,55.3703],[46.2454,55.2804],[46.0567,55.1807],[46.1382,55.0038],[46.3315,55.0364],[46.6207,55.0908],[46.8295,55.0967]]]},"properties":{"GID_0":"RUS","GID_1":"RUS.13_1","GID_2":"RUS.13.17_1","NAME_1":"Chuvash","NAME_2":"Poretsskiyrayon"}},
{"type":"Feature","geometry":{"type":"Polygon","coordinates":[[[47.084,54.7096],[47.4543,54.7652],[47.3791,54.8304],[47.7509,54.844],[47.8053,54.9498],[47.5205,54.9676],[47.4342,54.9256],[47.1401,54.9067],[47.084,54.7096]]]},"properties":{"GID_0":"RUS","GID_1":"RUS.13_1","GID_2":"RUS.13.18_1","NAME_1":"Chuvash","NAME_2":"Shemurshinskiyrayon"}},
{"type":"Feature","geometry":{"type":"Polygon","coordinates":[[[46.5033,55.6512],[46.3014,55.6565],[46.2135,55.523],[46.3958,55.4825],[46.2865,55.3703],[46.5005,55.259],[46.7556,55.2964],[46.7757,55.3557],[46.6835,55.4773],[46.8044,55.6617],[46.7823,55.6538],[46.5033,55.6512]],[[46.4506,55.4801],[46.4343,55.481],[46.4413,55.4923],[46.4532,55.4857],[46.4506,55.4801]]]},"properties":{"GID_0":"RUS","GID_1":"RUS.13_1","GID_2":"RUS.13.19_1","NAME_1":"Chuvash","NAME_2":"Shumerlinskiyrayon"}},
{"type":"Feature","geometry":{"type":"Polygon","coordinates":[[[46.4506,55.4801],[46.4532,55.4857],[46.4413,55.4923],[46.4343,55.481],[46.4506,55.4801]]]},"properties":{"GID_0":"RUS","GID_1":"RUS.13_1","GID_2":"RUS.13.20_1","NAME_1":"Chuvash","NAME_2":"Shumerlya"}},
{"type":"Feature","geometry":{"type":"Polygon","coordinates":[[[47.1921,55.9093],[47.3538,55.7989],[47.3734,55.7182],[47.4055,55.6991],[47.431,55.7042],[47.6279,55.7379],[47.8004,55.8167],[47.778,55.8483],[47.5995,55.9934],[47.1921,55.9093]]]},"properties":{"GID_0":"RUS","GID_1":"RUS.13_1","GID_2":"RUS.13.21_1","NAME_1":"Chuvash","NAME_2":"Tsivil'skiyrayon"}},
{"type":"Feature","geometry":{"type":"Polygon","coordinates":[[[47.6961,55.6093],[48.0568,55.5256],[48.1711,55.5739],[48.1221,55.6846],[48.0009,55.7917],[47.8004,55.8167],[47.6279,55.7379],[47.6961,55.6093]]]},"properties":{"GID_0":"RUS","GID_1":"RUS.13_1","GID_2":"RUS.13.22_1","NAME_1":"Chuvash","NAME_2":"Urmarskiyrayon"}},
{"type":"Feature","geometry":{"type":"Polygon","coordinates":[[[48.2293,55.8279],[48.2386,55.8329],[48.2252,55.8417],[48.2122,55.8347],[48.2293,55.8279]]]},"properties":{"GID_0":"RUS","GID_1":"RUS.13_1","GID_2":"RUS.13.23_1","NAME_1":"Chuvash","NAME_2":"Volzhsk"}},
{"type":"Feature","geometry":{"type":"Polygon","coordinates":[[[46.8044,55.6617],[46.6835,55.4773],[46.7757,55.3557],[47.0565,55.377],[47.1989,55.3829],[47.1987,55.4161],[47.1932,55.4482],[47.1777,55.501],[47.2112,55.6674],[47.1917,55.6742],[47.103,55.7161],[46.8377,55.6761],[46.8044,55.6617]]]},"properties":{"GID_0":"RUS","GID_1":"RUS.13_1","GID_2":"RUS.13.24_1","NAME_1":"Chuvash","NAME_2":"Vurnarskiyrayon"}},
{"type":"Feature","geometry":{"type":"Polygon","coordinates":[[[46.5493,55.8789],[46.514,55.9393],[46.6144,56.1394],[46.5319,56.1618],[46.1683,56.0448],[46.0934,55.9523],[46.1229,55.8373],[46.4609,55.8112],[46.5493,55.8789]]]},"properties":{"GID_0":"RUS","GID_1":"RUS.13_1","GID_2":"RUS.13.25_1","NAME_1":"Chuvash","NAME_2":"Yadrinskiyrayon"}},
{"type":"Feature","geometry":{"type":"Polygon","coordinates":[[[47.902,54.9771],[47.9507,55.1115],[48.0828,55.1532],[47.9862,55.2579],[47.7349,55.2315],[47.724,55.1251],[47.7299,55.1001],[47.793,55.0903],[47.902,54.9771]],[[48.0585,55.1746],[48.016,55.1511],[47.9638,55.1672],[48.0482,55.1899],[48.0585,55.1746]]]},"properties":{"GID_0":"RUS","GID_1":"RUS.13_1","GID_2":"RUS.13.26_1","NAME_1":"Chuvash","NAME_2":"Yal'chikskiyrayon"}},
{"type":"Feature","geometry":{"type":"Polygon","coordinates":[[[48.0585,55.1746],[48.0482,55.1899],[47.9638,55.1672],[48.016,55.1511],[48.0585,55.1746]]]},"properties":{"GID_0":"RUS","GID_1":"RUS.13_1","GID_2":"RUS.13.27_1","NAME_1":"Chuvash","NAME_2":"Yalchikskiy"}},
{"type":"Feature","geometry":{"type":"Polygon","coordinates":[[[47.7257,55.3166],[47.8542,55.3651],[48.0568,55.5256],[47.6961,55.6093],[47.609,55.5101],[47.6938,55.4336],[47.7257,55.3166]]]},"properties":{"GID_0":"RUS","GID_1":"RUS.13_1","GID_2":"RUS.13.28_1","NAME_1":"Chuvash","NAME_2":"Yantikovskiyrayon"}}
]}