{"type":"FeatureCollection", "features": [
{"type":"Feature","geometry":{"type":"Polygon","coordinates":[[[51.5933,52.6826],[51.6387,52.7896],[51.2682,52.9576],[51.2329,52.7994],[50.9616,52.6582],[50.7828,52.629],[51.1253,52.3882],[51.3867,52.315],[51.5706,52.4834],[51.5933,52.6826]]]},"properties":{"GID_0":"RUS","GID_1":"RUS.62_1","GID_2":"RUS.62.1_1","NAME_1":"Samara","NAME_2":"Alekseevskiyrayon"}},
{"type":"Feature","geometry":{"type":"Polygon","coordinates":[[[49.4617,52.7951],[49.6847,52.8456],[49.7175,52.9424],[49.6143,52.9736],[49.5666,53.07],[49.1899,53.2107],[48.8284,52.854],[49.2454,52.901],[49.4617,52.7951]]]},"properties":{"GID_0":"RUS","GID_1":"RUS.62_1","GID_2":"RUS.62.2_1","NAME_1":"Samara","NAME_2":"Bezenchukskiyrayon"}},
{"type":"Feature","geometry":{"type":"Polygon","coordinates":[[[51.2942,53.2061],[51.0415,53.0774],[51.1017,53.0133],[51.0571,52.9946],[51.2682,52.9576],[51.499,52.9838],[51.4806,53.2702],[51.2942,53.2061]]]},"properties":{"GID_0":"RUS","GID_1":"RUS.62_1","GID_2":"RUS.62.3_1","NAME_1":"Samara","NAME_2":"Bogatovskiyrayon"}},
{"type":"Feature","geometry":{"type":"Polygon","coordinates":[[[51.435,52.2197],[51.2529,52.2975],[50.9122,52.2467],[50.7593,52.3432],[50.5345,52.2429],[50.2661,52.2602],[50.2197,52.1292],[50.3749,52.0438],[50.7224,51.9487],[50.8628,51.7952],[51.3209,52.0192],[51.435,52.2197]]]},"properties":{"GID_0":"RUS","GID_1":"RUS.62_1","GID_2":"RUS.62.4_1","NAME_1":"Samara","NAME_2":"Bol'shechernigovskiyrayon"}},
{"type":"Feature","geometry":{"type":"Polygon","coordinates":[[[51.3867,52.315],[51.1253,52.3882],[50.7828,52.629],[50.6366,52.6757],[50.502,52.6702],[50.3807,52.6719],[50.0861,52.5089],[50.2661,52.2602],[50.5345,52.2429],[50.7593,52.3432],[50.9122,52.2467],[51.2529,52.2975],[51.435,52.2197],[51.3867,52.315]]]},"properties":{"GID_0":"RUS","GID_1":"RUS.62_1","GID_2":"RUS.62.5_1","NAME_1":"Samara","NAME_2":"Bol'sheglushitskiyrayon"}},
{"type":"Feature","geometry":{"type":"Polygon","coordinates":[[[51.5933,52.6826],[51.7406,52.8637],[52.0881,53.0132],[52.1515,53.1366],[52.0526,53.3187],[51.524,53.3737],[51.4806,53.2702],[51.499,52.9838],[51.2682,52.9576],[51.6387,52.7896],[51.5933,52.6826]]]},"properties":{"GID_0":"RUS","GID_1":"RUS.62_1","GID_2":"RUS.62.6_1","NAME_1":"Samara","NAME_2":"Borskiyrayon"}},
{"type":"Feature","geometry":{"type":"Polygon","coordinates":[[[49.6821,52.9703],[49.6728,52.9837],[49.6585,52.9718],[49.6821,52.9703]]]},"properties":{"GID_0":"RUS","GID_1":"RUS.62_1","GID_2":"RUS.62.7_1","NAME_1":"Samara","NAME_2":"Chapaevsk"}},
{"type":"Feature","geometry":{"type":"Polygon","coordinates":[[[51.0066,54.2182],[51.1122,54.1812],[51.3571,54.3149],[51.434,54.4297],[51.3976,54.587],[51.1954,54.6758],[50.851,54.392],[51.0066,54.2182]]]},"properties":{"GID_0":"RUS","GID_1":"RUS.62_1","GID_2":"RUS.62.8_1","NAME_1":"Samara","NAME_2":"Chelno-Vershinskiyrayon"}},
{"type":"Feature","geometry":{"type":"Polygon","coordinates":[[[50.6313,53.8274],[50.6744,53.9413],[50.7344,53.9822],[50.6742,53.981],[50.1246,54.0552],[50.0145,53.8898],[50.3755,53.7798],[50.6313,53.8274]]]},"properties":{"GID_0":"RUS","GID_1":"RUS.62_1","GID_2":"RUS.62.9_1","NAME_1":"Samara","NAME_2":"Elkhovskiyrayon"}},
{"type":"Feature","geometry":{"type":"Polygon","coordinates":[[[52.405,53.9449],[52.3626,54.1335],[52.4018,54.3328],[52.3129,54.4528],[52.0753,54.3417],[51.9394,54.4589],[51.8419,54.3065],[51.5459,54.2248],[51.3936,54.2621],[51.2644,54.1777],[51.4427,54.0778],[51.5444,53.84],[51.7258,53.7807],[51.8781,53.9662],[52.2287,54.0188],[52.405,53.9449]]]},"properties":{"GID_0":"RUS","GID_1":"RUS.62_1","GID_2":"RUS.62.10_1","NAME_1":"Samara","NAME_2":"Isaklinskiyrayon"}},
{"type":"Feature","geometry":{"type":"Polygon","coordinates":[[[48.8284,52.854],[48.5239,52.6914],[48.6902,52.6473],[48.9631,52.4798],[49.231,52.5028],[49.4158,52.6806],[49.4617,52.7951],[49.2454,52.901],[48.8284,52.854]]]},"properties":{"GID_0":"RUS","GID_1":"RUS.62_1","GID_2":"RUS.62.11_1","NAME_1":"Samara","NAME_2":"Khvorostyanskiyrayon"}},
{"type":"Feature","geometry":{"type":"Polygon","coordinates":[[[50.6478,53.2097],[50.6487,53.2198],[50.6343,53.2218],[50.6336,53.2137],[50.6478,53.2097]]]},"properties":{"GID_0":"RUS","GID_1":"RUS.62_1","GID_2":"RUS.62.12_1","NAME_1":"Samara","NAME_2":"Kinel'"}},
{"type":"Feature","geometry":{"type":"Polygon","coordinates":[[[52.0988,53.5122],[51.8372,53.4496],[51.6625,53.5448],[51.5605,53.6443],[51.6437,53.6868],[51.5941,53.7327],[51.5373,53.7262],[51.4939,53.737],[51.4503,53.6875],[51.2694,53.7516],[50.9169,53.65],[50.7966,53.6879],[50.9971,53.4955],[50.9649,53.4402],[51.1511,53.3558],[51.2942,53.2061],[51.4806,53.2702],[51.524,53.3737],[52.0526,53.3187],[52.2203,53.3805],[52.0988,53.5122]],[[51.3544,53.3295],[51.3368,53.3413],[51.3566,53.3497],[51.3664,53.3377],[51.3544,53.3295]]]},"properties":{"GID_0":"RUS","GID_1":"RUS.62_1","GID_2":"RUS.62.13_1","NAME_1":"Samara","NAME_2":"Kinel'-Cherkasskiyrayon"}},
{"type":"Feature","geometry":{"type":"Polygon","coordinates":[[[51.2942,53.2061],[51.1511,53.3558],[50.9649,53.4402],[50.9833,53.4719],[50.5216,53.5336],[50.3936,53.33],[50.6398,53.0798],[50.5625,52.9025],[51.0175,52.9781],[51.1017,53.0133],[51.0415,53.0774],[51.2942,53.2061]],[[50.6478,53.2097],[50.6336,53.2137],[50.6343,53.2218],[50.6487,53.2198],[50.6478,53.2097]]]},"properties":{"GID_0":"RUS","GID_1":"RUS.62_1","GID_2":"RUS.62.14_1","NAME_1":"Samara","NAME_2":"Kinel'skiyrayon"}},
{"type":"Feature","geometry":{"type":"Polygon","coordinates":[[[50.851,54.392],[50.5758,54.3333],[50.3926,54.4764],[50.1142,54.5222],[50.2655,54.2524],[50.1246,54.0552],[50.6742,53.981],[50.7344,53.9822],[50.8053,54.032],[51.0066,54.2182],[50.851,54.392]]]},"properties":{"GID_0":"RUS","GID_1":"RUS.62_1","GID_2":"RUS.62.15_1","NAME_1":"Samara","NAME_2":"Koshkinskiyrayon"}},
{"type":"Feature","geometry":{"type":"Polygon","coordinates":[[[49.4617,52.7951],[49.4158,52.6806],[49.7579,52.5371],[50.0861,52.5089],[50.3807,52.6719],[49.9279,52.98],[49.7175,52.9424],[49.6847,52.8456],[49.4617,52.7951]]]},"properties":{"GID_0":"RUS","GID_1":"RUS.62_1","GID_2":"RUS.62.16_1","NAME_1":"Samara","NAME_2":"Krasnoarmeyskiyrayon"}},
{"type":"Feature","geometry":{"type":"Polygon","coordinates":[[[50.0145,53.8898],[49.992,53.4636],[50.3027,53.4024],[50.3936,53.33],[50.5216,53.5336],[50.9833,53.4719],[50.9971,53.4955],[50.7966,53.6879],[50.6313,53.8274],[50.3755,53.7798],[50.0145,53.8898]]]},"properties":{"GID_0":"RUS","GID_1":"RUS.62_1","GID_2":"RUS.62.17_1","NAME_1":"Samara","NAME_2":"Krasnoyarskiyrayon"}},
{"type":"Feature","geometry":{"type":"Polygon","coordinates":[[[51.2682,52.9576],[51.0571,52.9946],[51.0175,52.9781],[50.5625,52.9025],[50.5848,52.6736],[50.6366,52.6757],[50.7828,52.629],[50.9616,52.6582],[51.2329,52.7994],[51.2682,52.9576]]]},"properties":{"GID_0":"RUS","GID_1":"RUS.62_1","GID_2":"RUS.62.18_1","NAME_1":"Samara","NAME_2":"Neftegorskiyrayon"}},
{"type":"Feature","geometry":{"type":"Polygon","coordinates":[[[49.9346,53.1021],[49.9377,53.1213],[49.9051,53.118],[49.9093,53.1047],[49.9346,53.1021]]]},"properties":{"GID_0":"RUS","GID_1":"RUS.62_1","GID_2":"RUS.62.19_1","NAME_1":"Samara","NAME_2":"Novokuybyshevsk"}},
{"type":"Feature","geometry":{"type":"Polygon","coordinates":[[[48.6892,53.178],[48.6738,53.1762],[48.6726,53.1696],[48.6887,53.1669],[48.6892,53.178]]]},"properties":{"GID_0":"RUS","GID_1":"RUS.62_1","GID_2":"RUS.62.20_1","NAME_1":"Samara","NAME_2":"Oktyabr'sk"}},
{"type":"Feature","geometry":{"type":"Polygon","coordinates":[[[51.3544,53.3295],[51.3664,53.3377],[51.3566,53.3497],[51.3368,53.3413],[51.3544,53.3295]]]},"properties":{"GID_0":"RUS","GID_1":"RUS.62_1","GID_2":"RUS.62.21_1","NAME_1":"Samara","NAME_2":"Otradnyy"}},
{"type":"Feature","geometry":{"type":"Polygon","coordinates":[[[50.2661,52.2602],[50.0861,52.5089],[49.7579,52.5371],[49.4158,52.6806],[49.231,52.5028],[49.8632,52.1891],[50.2197,52.1292],[50.2661,52.2602]]]},"properties":{"GID_0":"RUS","GID_1":"RUS.62_1","GID_2":"RUS.62.22_1","NAME_1":"Samara","NAME_2":"Pestravskiyrayon"}},
{"type":"Feature","geometry":{"type":"Polygon","coordinates":[[[52.405,53.9449],[52.2287,54.0188],[51.8781,53.9662],[51.7258,53.7807],[51.5444,53.84],[51.5266,53.7741],[51.4939,53.737],[51.5373,53.7262],[51.5941,53.7327],[51.6437,53.6868],[51.5605,53.6443],[51.6625,53.5448],[51.8372,53.4496],[52.0988,53.5122],[52.405,53.9449]]]},"properties":{"GID_0":"RUS","GID_1":"RUS.62_1","GID_2":"RUS.62.23_1","NAME_1":"Samara","NAME_2":"Pokhvistnevskiyrayon"}},
{"type":"Feature","geometry":{"type":"Polygon","coordinates":[[[49.1899,53.2107],[49.2677,53.3503],[49.1309,53.2813],[48.7707,53.2532],[48.5336,53.1243],[48.4698,53.0009],[48.5284,52.8894],[48.3139,52.6997],[48.5239,52.6914],[48.8284,52.854],[49.1899,53.2107]],[[48.6892,53.178],[48.6887,53.1669],[48.6726,53.1696],[48.6738,53.1762],[48.6892,53.178]]]},"properties":{"GID_0":"RUS","GID_1":"RUS.62_1","GID_2":"RUS.62.24_1","NAME_1":"Samara","NAME_2":"Privolzhskiyrayon"}},
{"type":"Feature","geometry":{"type":"Polygon","coordinates":[[[50.2907,53.2625],[50.0455,53.2123],[50.0625,53.134],[50.2547,53.143],[50.2907,53.2625]]]},"properties":{"GID_0":"RUS","GID_1":"RUS.62_1","GID_2":"RUS.62.25_1","NAME_1":"Samara","NAME_2":"Samara"}},
{"type":"Feature","geometry":{"type":"Polygon","coordinates":[[[51.0066,54.2182],[50.8053,54.032],[50.7921,54.0216],[50.6744,53.9413],[50.6313,53.8274],[50.7966,53.6879],[50.9169,53.65],[51.2694,53.7516],[51.4503,53.6875],[51.5266,53.7741],[51.5444,53.84],[51.4427,54.0778],[51.2644,54.1777],[51.3936,54.2621],[51.3571,54.3149],[51.1122,54.1812],[51.0066,54.2182]]]},"properties":{"GID_0":"RUS","GID_1":"RUS.62_1","GID_2":"RUS.62.26_1","NAME_1":"Samara","NAME_2":"Sergievskiyrayon"}},
{"type":"Feature","geometry":{"type":"Polygon","coordinates":[[[51.3571,54.3149],[51.3936,54.2621],[51.5459,54.2248],[51.8419,54.3065],[51.9394,54.4589],[51.5976,54.5986],[51.3976,54.587],[51.434,54.4297],[51.3571,54.3149]]]},"properties":{"GID_0":"RUS","GID_1":"RUS.62_1","GID_2":"RUS.62.27_1","NAME_1":"Samara","NAME_2":"Shentalinskiyrayon"}},
{"type":"Feature","geometry":{"type":"Polygon","coordinates":[[[49.2677,53.3503],[49.05,53.3637],[48.8584,53.5996],[48.847,53.6975],[48.5785,53.7776],[48.3975,53.6905],[48.3963,53.496],[48.7707,53.2532],[49.1309,53.2813],[49.2677,53.3503]]]},"properties":{"GID_0":"RUS","GID_1":"RUS.62_1","GID_2":"RUS.62.28_1","NAME_1":"Samara","NAME_2":"Shigonskiyrayon"}},
{"type":"Feature","geometry":{"type":"Polygon","coordinates":[[[49.5666,53.07],[49.7327,53.181],[49.7357,53.3196],[49.8472,53.4242],[49.992,53.4636],[50.0145,53.8898],[49.7988,53.9008],[49.5853,53.8292],[49.3691,53.8934],[49.2372,53.8317],[49.0902,53.7764],[49.1151,53.5034],[49.2677,53.3503],[49.1899,53.2107],[49.5666,53.07]],[[49.4812,53.4789],[49.4465,53.4873],[49.4545,53.5074],[49.4891,53.4961],[49.4812,53.4789]]]},"properties":{"GID_0":"RUS","GID_1":"RUS.62_1","GID_2":"RUS.62.29_1","NAME_1":"Samara","NAME_2":"Stavropol'skiyrayon"}},
{"type":"Feature","geometry":{"type":"Polygon","coordinates":[[[48.4737,53.1534],[48.4665,53.1682],[48.4417,53.166],[48.4439,53.1522],[48.4737,53.1534]]]},"properties":{"GID_0":"RUS","GID_1":"RUS.62_1","GID_2":"RUS.62.30_1","NAME_1":"Samara","NAME_2":"Syzran'"}},
{"type":"Feature","geometry":{"type":"Polygon","coordinates":[[[48.7707,53.2532],[48.3963,53.496],[48.071,53.4841],[47.9864,53.39],[48.2167,53.1458],[48.1794,53.0589],[48.4698,53.0009],[48.5336,53.1243],[48.7707,53.2532]],[[48.4737,53.1534],[48.4439,53.1522],[48.4417,53.166],[48.4665,53.1682],[48.4737,53.1534]]]},"properties":{"GID_0":"RUS","GID_1":"RUS.62_1","GID_2":"RUS.62.31_1","NAME_1":"Samara","NAME_2":"Syzranskiyrayon"}},
{"type":"Feature","geometry":{"type":"Polygon","coordinates":[[[49.4812,53.4789],[49.4891,53.4961],[49.4545,53.5074],[49.4465,53.4873],[49.4812,53.4789]]]},"properties":{"GID_0":"RUS","GID_1":"RUS.62_1","GID_2":"RUS.62.32_1","NAME_1":"Samara","NAME_2":"Tol'yatti"}},
{"type":"Feature","geometry":{"type":"Polygon","coordinates":[[[49.7175,52.9424],[49.9279,52.98],[50.3807,52.6719],[50.502,52.6702],[50.5848,52.6736],[50.5625,52.9025],[50.6398,53.0798],[50.3936,53.33],[50.3027,53.4024],[49.992,53.4636],[49.8472,53.4242],[49.7357,53.3196],[49.7327,53.181],[49.5666,53.07],[49.6143,52.9736],[49.7175,52.9424]],[[49.6821,52.9703],[49.6585,52.9718],[49.6728,52.9837],[49.6821,52.9703]],[[49.9346,53.1021],[49.9093,53.1047],[49.9051,53.118],[49.9377,53.1213],[49.9346,53.1021]],[[50.2907,53.2625],[50.2547,53.143],[50.0625,53.134],[50.0455,53.2123],[50.2907,53.2625]],[[49.7984,53.3252],[49.7686,53.3431],[49.7991,53.3511],[49.7984,53.3252]]]},"properties":{"GID_0":"RUS","GID_1":"RUS.62_1","GID_2":"RUS.62.33_1","NAME_1":"Samara","NAME_2":"Volzhskiyrayon"}},
{"type":"Feature","geometry":{"type":"Polygon","coordinates":[[[49.2677,53.3503],[49.1151,53.5034],[49.0902,53.7764],[49.2372,53.8317],[48.9999,53.8427],[48.847,53.6975],[48.8584,53.5996],[49.05,53.3637],[49.2677,53.3503]]]},"properties":{"GID_0":"RUS","GID_1":"RUS.62_1","GID_2":"RUS.62.34_1","NAME_1":"Samara","NAME_2":"Waterbody"}},
{"type":"Feature","geometry":{"type":"Polygon","coordinates":[[[49.7984,53.3252],[49.7991,53.3511],[49.7686,53.3431],[49.7984,53.3252]]]},"properties":{"GID_0":"RUS","GID_1":"RUS.62_1","GID_2":"RUS.62.35_1","NAME_1":"Samara","NAME_2":"Zhigulevsk"}}
]}