{"type":"FeatureCollection", "features": [
{"type":"Feature","geometry":{"type":"Polygon","coordinates":[[[31.7931,55.6726],[31.2698,55.3903],[31.2454,55.2612],[31.4775,55.1884],[31.4272,55.0583],[31.6523,55.133],[31.9128,55.0365],[32.0122,55.0977],[31.9615,55.2257],[32.1341,55.3699],[32.1115,55.4815],[32.1957,55.6111],[32.0957,55.7228],[31.7931,55.6726]]]},"properties":{"GID_0":"RUS","GID_1":"RUS.64_1","GID_2":"RUS.64.1_1","NAME_1":"Smolensk","NAME_2":"Demidovskiyrayon"}},
{"type":"Feature","geometry":{"type":"Polygon","coordinates":[[[33.3335,54.1444],[33.3132,54.1512],[33.3014,54.1446],[33.3251,54.1356],[33.3335,54.1444]]]},"properties":{"GID_0":"RUS","GID_1":"RUS.64_1","GID_2":"RUS.64.2_1","NAME_1":"Smolensk","NAME_2":"Desnogorsk"}},
{"type":"Feature","geometry":{"type":"Polygon","coordinates":[[[33.7208,54.6468],[33.7683,54.7935],[33.9548,54.8058],[33.8208,54.9326],[33.8527,55.0199],[33.167,54.9912],[33.0364,54.9643],[33.0166,54.8711],[32.8592,54.8276],[32.9562,54.6877],[33.2931,54.7143],[33.463,54.6559],[33.7208,54.6468]]]},"properties":{"GID_0":"RUS","GID_1":"RUS.64_1","GID_2":"RUS.64.3_1","NAME_1":"Smolensk","NAME_2":"Dorogobuzhskiyrayon"}},
{"type":"Feature","geometry":{"type":"Polygon","coordinates":[[[32.0122,55.0977],[32.2238,55.0086],[32.4606,55.0415],[32.7096,55.155],[32.6157,55.2738],[32.7351,55.5197],[32.8195,55.6213],[32.5897,55.6757],[32.1957,55.6111],[32.1115,55.4815],[32.1341,55.3699],[31.9615,55.2257],[32.0122,55.0977]]]},"properties":{"GID_0":"RUS","GID_1":"RUS.64_1","GID_2":"RUS.64.4_1","NAME_1":"Smolensk","NAME_2":"Dukhovshchinskiyrayon"}},
{"type":"Feature","geometry":{"type":"Polygon","coordinates":[[[33.7021,54.4997],[33.7208,54.6468],[33.463,54.6559],[33.2931,54.7143],[33.2455,54.5918],[33.1521,54.5591],[32.9387,54.3774],[33.2048,54.2466],[33.4796,54.2673],[33.6589,54.3497],[33.7021,54.4997]]]},"properties":{"GID_0":"RUS","GID_1":"RUS.64_1","GID_2":"RUS.64.5_1","NAME_1":"Smolensk","NAME_2":"El'ninskiyrayon"}},
{"type":"Feature","geometry":{"type":"Polygon","coordinates":[[[32.5141,53.6892],[32.4626,53.5741],[32.6178,53.4683],[32.8583,53.4453],[32.9468,53.5724],[33.0986,53.6468],[32.8887,53.7555],[32.7424,53.7741],[32.5141,53.6892]]]},"properties":{"GID_0":"RUS","GID_1":"RUS.64_1","GID_2":"RUS.64.6_1","NAME_1":"Smolensk","NAME_2":"Ershichskiyrayon"}},
{"type":"Feature","geometry":{"type":"Polygon","coordinates":[[[35.0022,55.5321],[35.0218,55.5542],[34.9867,55.5661],[34.9568,55.5419],[35.0022,55.5321]]]},"properties":{"GID_0":"RUS","GID_1":"RUS.64_1","GID_2":"RUS.64.7_1","NAME_1":"Smolensk","NAME_2":"Gagarin"}},
{"type":"Feature","geometry":{"type":"Polygon","coordinates":[[[35.3283,55.2647],[35.3437,55.7597],[35.104,55.9462],[34.8185,55.9444],[34.6216,55.9083],[34.7328,55.6944],[34.8055,55.623],[34.6742,55.4941],[34.9716,55.3332],[35.1186,55.2579],[35.3283,55.2647]],[[35.0022,55.5321],[34.9568,55.5419],[34.9867,55.5661],[35.0218,55.5542],[35.0022,55.5321]]]},"properties":{"GID_0":"RUS","GID_1":"RUS.64_1","GID_2":"RUS.64.8_1","NAME_1":"Smolensk","NAME_2":"Gagarinskiyrayon"}},
{"type":"Feature","geometry":{"type":"Polygon","coordinates":[[[32.8592,54.8276],[32.5739,54.6835],[32.5127,54.6081],[32.6506,54.4785],[32.9387,54.3774],[33.1521,54.5591],[33.2455,54.5918],[33.2931,54.7143],[32.9562,54.6877],[32.8592,54.8276]]]},"properties":{"GID_0":"RUS","GID_1":"RUS.64_1","GID_2":"RUS.64.9_1","NAME_1":"Smolensk","NAME_2":"Glinkovskiyrayon"}},
{"type":"Feature","geometry":{"type":"Polygon","coordinates":[[[32.2238,55.0086],[32.1724,54.9426],[32.3261,54.833],[32.3343,54.7537],[32.5739,54.6835],[32.8592,54.8276],[32.4606,55.0415],[32.2238,55.0086]]]},"properties":{"GID_0":"RUS","GID_1":"RUS.64_1","GID_2":"RUS.64.10_1","NAME_1":"Smolensk","NAME_2":"Kardymovskiyrayon"}},
{"type":"Feature","geometry":{"type":"Polygon","coordinates":[[[31.852,53.9078],[32.0752,53.864],[32.2457,53.9493],[32.3891,53.9549],[32.4486,54.0329],[32.3819,54.0796],[32.4244,54.2321],[32.1148,54.2536],[32.0224,54.2641],[31.8368,54.0617],[31.852,53.9078]]]},"properties":{"GID_0":"RUS","GID_1":"RUS.64_1","GID_2":"RUS.64.11_1","NAME_1":"Smolensk","NAME_2":"Khislavichskiyrayon"}},
{"type":"Feature","geometry":{"type":"Polygon","coordinates":[[[32.7351,55.5197],[32.9736,55.4098],[33.079,55.3083],[33.3511,55.3615],[33.523,55.3275],[33.7763,55.4036],[33.8982,55.3548],[33.9889,55.4728],[33.6982,55.5681],[33.5792,55.7213],[33.2988,55.6784],[33.2314,55.6],[33.0123,55.5869],[32.8195,55.6213],[32.7351,55.5197]]]},"properties":{"GID_0":"RUS","GID_1":"RUS.64_1","GID_2":"RUS.64.12_1","NAME_1":"Smolensk","NAME_2":"Kholm-Zhirkovskiyrayon"}},
{"type":"Feature","geometry":{"type":"Polygon","coordinates":[[[30.9381,54.7435],[31.0584,54.6683],[31.214,54.6504],[31.0851,54.5112],[31.2418,54.4637],[31.4059,54.2504],[31.5479,54.3622],[31.674,54.384],[31.8556,54.4964],[31.7053,54.5978],[31.8006,54.6437],[31.5698,54.7327],[30.9381,54.7435]]]},"properties":{"GID_0":"RUS","GID_1":"RUS.64_1","GID_2":"RUS.64.13_1","NAME_1":"Smolensk","NAME_2":"Krasninskiyrayon"}},
{"type":"Feature","geometry":{"type":"Polygon","coordinates":[[[31.8368,54.0617],[32.0224,54.2641],[32.1148,54.2536],[32.0778,54.4344],[31.8556,54.4964],[31.674,54.384],[31.5479,54.3622],[31.4059,54.2504],[31.5091,54.1827],[31.8368,54.0617]]]},"properties":{"GID_0":"RUS","GID_1":"RUS.64_1","GID_2":"RUS.64.14_1","NAME_1":"Smolensk","NAME_2":"Monastyrshchinskiyrayon"}},
{"type":"Feature","geometry":{"type":"Polygon","coordinates":[[[34.7328,55.6944],[34.5626,55.6259],[34.3167,55.6353],[34.0407,55.7188],[33.8984,55.7959],[33.6219,55.7615],[33.5792,55.7213],[33.6982,55.5681],[33.9889,55.4728],[33.8982,55.3548],[34.0833,55.4316],[34.2879,55.4228],[34.4133,55.3719],[34.5286,55.5145],[34.6742,55.4941],[34.8055,55.623],[34.7328,55.6944]]]},"properties":{"GID_0":"RUS","GID_1":"RUS.64_1","GID_2":"RUS.64.15_1","NAME_1":"Smolensk","NAME_2":"Novoduginskiyrayon"}},
{"type":"Feature","geometry":{"type":"Polygon","coordinates":[[[32.9387,54.3774],[32.6506,54.4785],[32.5127,54.6081],[32.3616,54.6508],[32.0778,54.4344],[32.1148,54.2536],[32.4244,54.2321],[32.3819,54.0796],[32.4486,54.0329],[32.6297,54.0195],[32.7908,54.0586],[32.8687,54.1804],[33.1738,54.1985],[33.2048,54.2466],[32.9387,54.3774]]]},"properties":{"GID_0":"RUS","GID_1":"RUS.64_1","GID_2":"RUS.64.16_1","NAME_1":"Smolensk","NAME_2":"Pochinkovskiyrayon"}},
{"type":"Feature","geometry":{"type":"Polygon","coordinates":[[[32.9012,53.8985],[32.9158,53.9263],[32.8501,53.9383],[32.8251,53.905],[32.9012,53.8985]]]},"properties":{"GID_0":"RUS","GID_1":"RUS.64_1","GID_2":"RUS.64.17_1","NAME_1":"Smolensk","NAME_2":"Roslavl'"}},
{"type":"Feature","geometry":{"type":"Polygon","coordinates":[[[33.0986,53.6468],[33.2838,53.871],[33.5439,54.0076],[33.6187,54.1688],[33.7493,54.3103],[33.6589,54.3497],[33.4796,54.2673],[33.2048,54.2466],[33.1738,54.1985],[32.8687,54.1804],[32.7908,54.0586],[32.6297,54.0195],[32.6279,53.8276],[32.7424,53.7741],[32.8887,53.7555],[33.0986,53.6468]],[[33.3335,54.1444],[33.3251,54.1356],[33.3014,54.1446],[33.3132,54.1512],[33.3335,54.1444]],[[32.9012,53.8985],[32.8251,53.905],[32.8501,53.9383],[32.9158,53.9263],[32.9012,53.8985]]]},"properties":{"GID_0":"RUS","GID_1":"RUS.64_1","GID_2":"RUS.64.18_1","NAME_1":"Smolensk","NAME_2":"Roslavl'skiyrayon"}},
{"type":"Feature","geometry":{"type":"Polygon","coordinates":[[[30.9381,54.7435],[31.5698,54.7327],[31.6378,54.8155],[31.377,54.9072],[31.298,54.9681],[31.4272,55.0583],[31.4775,55.1884],[31.2454,55.2612],[31.2698,55.3903],[31.1644,55.4097],[30.903,55.37],[30.8331,55.3418],[30.9844,55.1869],[30.9438,54.9596],[30.7606,54.8118],[30.9381,54.7435]]]},"properties":{"GID_0":"RUS","GID_1":"RUS.64_1","GID_2":"RUS.64.19_1","NAME_1":"Smolensk","NAME_2":"Rudnyanskiyrayon"}},
{"type":"Feature","geometry":{"type":"Polygon","coordinates":[[[33.3275,55.0385],[33.3187,55.0727],[33.2585,55.0848],[33.2334,55.0564],[33.3275,55.0385]]]},"properties":{"GID_0":"RUS","GID_1":"RUS.64_1","GID_2":"RUS.64.20_1","NAME_1":"Smolensk","NAME_2":"Safonovo"}},
{"type":"Feature","geometry":{"type":"Polygon","coordinates":[[[33.8527,55.0199],[33.9283,55.1148],[34.1018,55.1676],[33.8982,55.3548],[33.7763,55.4036],[33.523,55.3275],[33.3511,55.3615],[33.079,55.3083],[33.0132,55.169],[33.0364,54.9643],[33.167,54.9912],[33.8527,55.0199]],[[33.3275,55.0385],[33.2334,55.0564],[33.2585,55.0848],[33.3187,55.0727],[33.3275,55.0385]]]},"properties":{"GID_0":"RUS","GID_1":"RUS.64_1","GID_2":"RUS.64.21_1","NAME_1":"Smolensk","NAME_2":"Safonovskiyrayon"}},
{"type":"Feature","geometry":{"type":"Polygon","coordinates":[[[31.852,53.9078],[31.8421,53.7835],[32.1228,53.8095],[32.5141,53.6892],[32.7424,53.7741],[32.6279,53.8276],[32.6297,54.0195],[32.4486,54.0329],[32.3891,53.9549],[32.2457,53.9493],[32.0752,53.864],[31.852,53.9078]]]},"properties":{"GID_0":"RUS","GID_1":"RUS.64_1","GID_2":"RUS.64.22_1","NAME_1":"Smolensk","NAME_2":"Shumyachskiyrayon"}},
{"type":"Feature","geometry":{"type":"Polygon","coordinates":[[[32.2449,54.7062],[32.1158,54.7409],[31.9356,54.7463],[31.9941,54.6821],[32.2449,54.7062]]]},"properties":{"GID_0":"RUS","GID_1":"RUS.64_1","GID_2":"RUS.64.23_1","NAME_1":"Smolensk","NAME_2":"Smolensk"}},
{"type":"Feature","geometry":{"type":"Polygon","coordinates":[[[31.4272,55.0583],[31.298,54.9681],[31.377,54.9072],[31.6378,54.8155],[31.5698,54.7327],[31.8006,54.6437],[31.7053,54.5978],[31.8556,54.4964],[32.0778,54.4344],[32.3616,54.6508],[32.5127,54.6081],[32.5739,54.6835],[32.3343,54.7537],[32.3261,54.833],[32.1724,54.9426],[32.2238,55.0086],[32.0122,55.0977],[31.9128,55.0365],[31.6523,55.133],[31.4272,55.0583]],[[32.2449,54.7062],[31.9941,54.6821],[31.9356,54.7463],[32.1158,54.7409],[32.2449,54.7062]]]},"properties":{"GID_0":"RUS","GID_1":"RUS.64_1","GID_2":"RUS.64.24_1","NAME_1":"Smolensk","NAME_2":"Smolenskiyrayon"}},
{"type":"Feature","geometry":{"type":"Polygon","coordinates":[[[34.6216,55.9083],[34.2318,56.0397],[33.7138,55.8939],[33.6219,55.7615],[33.8984,55.7959],[34.0407,55.7188],[34.3167,55.6353],[34.5626,55.6259],[34.7328,55.6944],[34.6216,55.9083]]]},"properties":{"GID_0":"RUS","GID_1":"RUS.64_1","GID_2":"RUS.64.25_1","NAME_1":"Smolensk","NAME_2":"Sychevskiyrayon"}},
{"type":"Feature","geometry":{"type":"Polygon","coordinates":[[[34.9346,54.8744],[35.1761,54.9792],[35.3808,55.1614],[35.3283,55.2647],[35.1186,55.2579],[34.9716,55.3332],[34.7656,55.3128],[34.7451,55.13],[34.6583,55.0226],[34.7863,54.8968],[34.9346,54.8744]]]},"properties":{"GID_0":"RUS","GID_1":"RUS.64_1","GID_2":"RUS.64.26_1","NAME_1":"Smolensk","NAME_2":"Temkinskiyrayon"}},
{"type":"Feature","geometry":{"type":"Polygon","coordinates":[[[33.7021,54.4997],[34.0175,54.5583],[34.2646,54.4843],[34.492,54.496],[34.5591,54.6124],[34.8393,54.6972],[34.9793,54.7721],[34.9346,54.8744],[34.7863,54.8968],[34.6583,55.0226],[34.516,54.9527],[34.3611,54.9443],[34.1937,54.8483],[33.9548,54.8058],[33.7683,54.7935],[33.7208,54.6468],[33.7021,54.4997]]]},"properties":{"GID_0":"RUS","GID_1":"RUS.64_1","GID_2":"RUS.64.27_1","NAME_1":"Smolensk","NAME_2":"Ugranskiyrayon"}},
{"type":"Feature","geometry":{"type":"Polygon","coordinates":[[[30.903,55.37],[31.1644,55.4097],[31.2698,55.3903],[31.7931,55.6726],[31.4574,55.7513],[31.1354,55.7435],[30.9338,55.6341],[30.9592,55.5075],[30.903,55.37]]]},"properties":{"GID_0":"RUS","GID_1":"RUS.64_1","GID_2":"RUS.64.28_1","NAME_1":"Smolensk","NAME_2":"Velizhskiyrayon"}},
{"type":"Feature","geometry":{"type":"Polygon","coordinates":[[[34.3101,55.1353],[34.2168,55.1762],[34.1756,55.1314],[34.2469,55.104],[34.3101,55.1353]]]},"properties":{"GID_0":"RUS","GID_1":"RUS.64_1","GID_2":"RUS.64.29_1","NAME_1":"Smolensk","NAME_2":"Vyaz'ma"}},
{"type":"Feature","geometry":{"type":"Polygon","coordinates":[[[33.9548,54.8058],[34.1937,54.8483],[34.3611,54.9443],[34.516,54.9527],[34.6583,55.0226],[34.7451,55.13],[34.7656,55.3128],[34.9716,55.3332],[34.6742,55.4941],[34.5286,55.5145],[34.4133,55.3719],[34.2879,55.4228],[34.0833,55.4316],[33.8982,55.3548],[34.1018,55.1676],[33.9283,55.1148],[33.8527,55.0199],[33.8208,54.9326],[33.9548,54.8058]],[[34.3101,55.1353],[34.2469,55.104],[34.1756,55.1314],[34.2168,55.1762],[34.3101,55.1353]]]},"properties":{"GID_0":"RUS","GID_1":"RUS.64_1","GID_2":"RUS.64.30_1","NAME_1":"Smolensk","NAME_2":"Vyazemskiyrayon"}},
{"type":"Feature","geometry":{"type":"Polygon","coordinates":[[[32.7902,54.9871],[32.8244,55.0028],[32.7474,55.0302],[32.7343,54.9974],[32.7902,54.9871]]]},"properties":{"GID_0":"RUS","GID_1":"RUS.64_1","GID_2":"RUS.64.31_1","NAME_1":"Smolensk","NAME_2":"Yartsevo"}},
{"type":"Feature","geometry":{"type":"Polygon","coordinates":[[[33.0364,54.9643],[33.0132,55.169],[33.079,55.3083],[32.9736,55.4098],[32.7351,55.5197],[32.6157,55.2738],[32.7096,55.155],[32.4606,55.0415],[32.8592,54.8276],[33.0166,54.8711],[33.0364,54.9643]],[[32.7902,54.9871],[32.7343,54.9974],[32.7474,55.0302],[32.8244,55.0028],[32.7902,54.9871]]]},"properties":{"GID_0":"RUS","GID_1":"RUS.64_1","GID_2":"RUS.64.32_1","NAME_1":"Smolensk","NAME_2":"Yartsevskiyrayon"}}
]}