{"type":"FeatureCollection", "features": [
{"type":"Feature","geometry":{"type":"Polygon","coordinates":[[[31.421,56.9178],[31.6696,56.8316],[31.773,56.6942],[31.6978,56.5907],[31.9563,56.5506],[32.2068,56.4497],[32.4797,56.415],[32.7737,56.4863],[33.0536,56.4769],[33.0105,56.5393],[32.4169,56.7418],[32.1943,56.941],[32.0174,57.0302],[31.8142,57.0589],[31.656,56.8895],[31.421,56.9178]]]},"properties":{"GID_0":"RUS","GID_1":"RUS.72_1","GID_2":"RUS.72.1_1","NAME_1":"Tver'","NAME_2":"Andreapol'skiyrayon"}},
{"type":"Feature","geometry":{"type":"Polygon","coordinates":[[[32.76,55.6282],[33.2314,55.6],[33.5297,55.7022],[33.7487,55.8731],[33.4788,55.868],[33.1852,55.9896],[33.1222,55.8681],[32.6651,55.9062],[32.76,55.6282]]]},"properties":{"GID_0":"RUS","GID_1":"RUS.72_1","GID_2":"RUS.72.2_1","NAME_1":"Tver'","NAME_2":"Bel'skiyrayon"}},
{"type":"Feature","geometry":{"type":"Polygon","coordinates":[[[36.7638,57.7405],[36.7617,57.7475],[36.7475,57.7495],[36.7467,57.7391],[36.7638,57.7405]]]},"properties":{"GID_0":"RUS","GID_1":"RUS.72_1","GID_2":"RUS.72.3_1","NAME_1":"Tver'","NAME_2":"Bezhetsk"}},
{"type":"Feature","geometry":{"type":"Polygon","coordinates":[[[36.9888,57.4173],[37.1036,57.6521],[37.041,57.8744],[37.0135,58.002],[36.7404,57.9987],[36.4293,58.1796],[36.3147,58.1458],[36.3915,57.9119],[36.3181,57.561],[36.2105,57.5061],[36.9286,57.374],[36.9888,57.4173]],[[36.7638,57.7405],[36.7467,57.7391],[36.7475,57.7495],[36.7617,57.7475],[36.7638,57.7405]]]},"properties":{"GID_0":"RUS","GID_1":"RUS.72_1","GID_2":"RUS.72.4_1","NAME_1":"Tver'","NAME_2":"Bezhetskiyrayon"}},
{"type":"Feature","geometry":{"type":"Polygon","coordinates":[[[33.9532,57.8829],[33.9445,57.8981],[33.9207,57.8858],[33.9532,57.8829]]]},"properties":{"GID_0":"RUS","GID_1":"RUS.72_1","GID_2":"RUS.72.5_1","NAME_1":"Tver'","NAME_2":"Bologoe"}},
{"type":"Feature","geometry":{"type":"Polygon","coordinates":[[[34.6201,58.0866],[34.1198,58.1807],[33.8188,58.1367],[33.6477,57.7188],[34.0124,57.6918],[34.1889,57.6091],[34.4529,57.9052],[34.5575,57.864],[34.6201,58.0866]],[[33.9532,57.8829],[33.9207,57.8858],[33.9445,57.8981],[33.9532,57.8829]]]},"properties":{"GID_0":"RUS","GID_1":"RUS.72_1","GID_2":"RUS.72.6_1","NAME_1":"Tver'","NAME_2":"Bologovskiyrayon"}},
{"type":"Feature","geometry":{"type":"Polygon","coordinates":[[[33.3522,57.4313],[33.6591,57.3432],[33.7225,57.232],[33.9293,57.2215],[34.0624,57.2327],[33.9896,57.2654],[34.0586,57.5049],[34.1889,57.6091],[34.0124,57.6918],[33.6477,57.7188],[33.4172,57.667],[33.3522,57.4313]]]},"properties":{"GID_0":"RUS","GID_1":"RUS.72_1","GID_2":"RUS.72.7_1","NAME_1":"Tver'","NAME_2":"Firovskiyrayon"}},
{"type":"Feature","geometry":{"type":"Polygon","coordinates":[[[36.2788,56.3911],[36.1877,56.5702],[36.2305,56.6973],[36.4098,56.7437],[36.6535,56.7036],[36.8137,56.8914],[36.8073,56.9656],[36.4859,56.9405],[36.465,56.9905],[35.9559,57.0434],[35.9387,57.096],[35.6944,56.9878],[35.4754,56.995],[35.3555,56.831],[35.4735,56.7414],[35.586,56.553],[35.54,56.4404],[35.6798,56.4605],[35.9182,56.3548],[36.2788,56.3911]],[[36.0941,56.7797],[35.7771,56.7956],[35.8723,56.9104],[36.0941,56.7797]]]},"properties":{"GID_0":"RUS","GID_1":"RUS.72_1","GID_2":"RUS.72.8_1","NAME_1":"Tver'","NAME_2":"Kalininskiyrayon"}},
{"type":"Feature","geometry":{"type":"Polygon","coordinates":[[[37.8207,56.9108],[38.1866,56.8671],[38.3266,57.0174],[38.2234,57.1734],[38.3749,57.28],[38.0727,57.3264],[37.7854,57.0995],[37.8207,56.9108]]]},"properties":{"GID_0":"RUS","GID_1":"RUS.72_1","GID_2":"RUS.72.9_1","NAME_1":"Tver'","NAME_2":"Kalyazinskiyrayon"}},
{"type":"Feature","geometry":{"type":"Polygon","coordinates":[[[37.6269,57.356],[37.6247,57.364],[37.6078,57.3592],[37.6212,57.352],[37.6269,57.356]]]},"properties":{"GID_0":"RUS","GID_1":"RUS.72_1","GID_2":"RUS.72.10_1","NAME_1":"Tver'","NAME_2":"Kashin"}},
{"type":"Feature","geometry":{"type":"Polygon","coordinates":[[[36.9286,57.374],[36.8835,57.3016],[37.0878,57.3116],[37.2167,57.1261],[37.561,57.1974],[37.7854,57.0995],[38.0727,57.3264],[37.8936,57.435],[37.8843,57.5496],[37.6397,57.4701],[36.9888,57.4173],[36.9286,57.374]],[[37.6269,57.356],[37.6212,57.352],[37.6078,57.3592],[37.6247,57.364],[37.6269,57.356]]]},"properties":{"GID_0":"RUS","GID_1":"RUS.72_1","GID_2":"RUS.72.11_1","NAME_1":"Tver'","NAME_2":"Kashinskiyrayon"}},
{"type":"Feature","geometry":{"type":"Polygon","coordinates":[[[36.9888,57.4173],[37.6397,57.4701],[37.8843,57.5496],[37.7306,57.6453],[37.5467,57.686],[37.1036,57.6521],[36.9888,57.4173]]]},"properties":{"GID_0":"RUS","GID_1":"RUS.72_1","GID_2":"RUS.72.12_1","NAME_1":"Tver'","NAME_2":"Kesovogorskiyrayon"}},
{"type":"Feature","geometry":{"type":"Polygon","coordinates":[[[37.8207,56.9108],[37.7854,57.0995],[37.561,57.1974],[37.2167,57.1261],[37.0878,57.3116],[36.8835,57.3016],[36.7277,56.9594],[36.8073,56.9656],[36.8137,56.8914],[37.0441,56.8743],[37.181,56.7608],[37.5864,56.8188],[37.8207,56.9108]],[[37.4181,56.8419],[37.3968,56.8433],[37.4058,56.8558],[37.4262,56.8502],[37.4181,56.8419]]]},"properties":{"GID_0":"RUS","GID_1":"RUS.72_1","GID_2":"RUS.72.13_1","NAME_1":"Tver'","NAME_2":"Kimrskiyrayon"}},
{"type":"Feature","geometry":{"type":"Polygon","coordinates":[[[37.4181,56.8419],[37.4262,56.8502],[37.4058,56.8558],[37.3968,56.8433],[37.4181,56.8419]]]},"properties":{"GID_0":"RUS","GID_1":"RUS.72_1","GID_2":"RUS.72.14_1","NAME_1":"Tver'","NAME_2":"Kimry"}},
{"type":"Feature","geometry":{"type":"Polygon","coordinates":[[[36.8024,56.6747],[36.8083,56.6839],[36.7947,56.6884],[36.7814,56.6822],[36.8024,56.6747]]]},"properties":{"GID_0":"RUS","GID_1":"RUS.72_1","GID_2":"RUS.72.15_1","NAME_1":"Tver'","NAME_2":"Konakovo"}},
{"type":"Feature","geometry":{"type":"Polygon","coordinates":[[[36.2788,56.3911],[36.8326,56.554],[37.1314,56.5265],[37.181,56.7608],[37.0441,56.8743],[36.8137,56.8914],[36.6535,56.7036],[36.4098,56.7437],[36.2305,56.6973],[36.1877,56.5702],[36.2788,56.3911]],[[36.8024,56.6747],[36.7814,56.6822],[36.7947,56.6884],[36.8083,56.6839],[36.8024,56.6747]]]},"properties":{"GID_0":"RUS","GID_1":"RUS.72_1","GID_2":"RUS.72.16_1","NAME_1":"Tver'","NAME_2":"Konakovskiyrayon"}},
{"type":"Feature","geometry":{"type":"Polygon","coordinates":[[[37.041,57.8744],[37.3987,57.8904],[37.709,58.0831],[37.4376,58.2166],[37.493,58.3835],[37.284,58.3953],[37.1508,58.2894],[37.0135,58.002],[37.041,57.8744]]]},"properties":{"GID_0":"RUS","GID_1":"RUS.72_1","GID_2":"RUS.72.17_1","NAME_1":"Tver'","NAME_2":"Krasnokholmskiyrayon"}},
{"type":"Feature","geometry":{"type":"Polygon","coordinates":[[[33.7416,57.2311],[33.7583,57.2202],[33.7762,57.1697],[33.8221,57.1279],[33.7122,57.0614],[33.7103,56.9963],[33.9668,56.9293],[33.9866,56.8117],[34.2484,56.8252],[34.401,56.7586],[34.7202,56.8539],[34.5027,57.1038],[34.4742,57.2149],[34.0624,57.2327],[33.9293,57.2215],[33.7416,57.2311]]]},"properties":{"GID_0":"RUS","GID_1":"RUS.72_1","GID_2":"RUS.72.18_1","NAME_1":"Tver'","NAME_2":"Kuvshinovskiyrayon"}},
{"type":"Feature","geometry":{"type":"Polygon","coordinates":[[[35.2587,58.2235],[35.4098,58.1024],[35.7609,58.0212],[36.2366,58.2024],[35.9805,58.3984],[35.6119,58.4343],[35.4037,58.3637],[35.2587,58.2235]]]},"properties":{"GID_0":"RUS","GID_1":"RUS.72_1","GID_2":"RUS.72.19_1","NAME_1":"Tver'","NAME_2":"Lesnoyrayon"}},
{"type":"Feature","geometry":{"type":"Polygon","coordinates":[[[35.9387,57.096],[35.9304,57.2958],[36.0795,57.4687],[35.8473,57.5606],[35.7198,57.5346],[35.2816,57.2582],[35.3422,57.1687],[35.4754,56.995],[35.6944,56.9878],[35.9387,57.096]]]},"properties":{"GID_0":"RUS","GID_1":"RUS.72_1","GID_2":"RUS.72.20_1","NAME_1":"Tver'","NAME_2":"Likhoslavl'skiyrayon"}},
{"type":"Feature","geometry":{"type":"Polygon","coordinates":[[[36.3147,58.1458],[36.2366,58.2024],[35.7609,58.0212],[35.4098,58.1024],[35.6292,57.9859],[35.5559,57.6657],[35.8473,57.5606],[36.0795,57.4687],[36.2105,57.5061],[36.3181,57.561],[36.3915,57.9119],[36.3147,58.1458]]]},"properties":{"GID_0":"RUS","GID_1":"RUS.72_1","GID_2":"RUS.72.21_1","NAME_1":"Tver'","NAME_2":"Maksatikhinskiyrayon"}},
{"type":"Feature","geometry":{"type":"Polygon","coordinates":[[[37.0135,58.002],[37.1508,58.2894],[36.9683,58.3078],[36.4204,58.2677],[36.2366,58.2024],[36.3147,58.1458],[36.4293,58.1796],[36.7404,57.9987],[37.0135,58.002]]]},"properties":{"GID_0":"RUS","GID_1":"RUS.72_1","GID_2":"RUS.72.22_1","NAME_1":"Tver'","NAME_2":"Molokovskiyrayon"}},
{"type":"Feature","geometry":{"type":"Polygon","coordinates":[[[32.7741,56.1983],[32.7697,56.2118],[32.755,56.2085],[32.7567,56.1994],[32.7741,56.1983]]]},"properties":{"GID_0":"RUS","GID_1":"RUS.72_1","GID_2":"RUS.72.23_1","NAME_1":"Tver'","NAME_2":"Nelidovo"}},
{"type":"Feature","geometry":{"type":"Polygon","coordinates":[[[32.4797,56.415],[32.3531,56.1653],[32.3691,56.0314],[32.6651,55.9062],[33.1222,55.8681],[33.1852,55.9896],[33.1626,56.2781],[33.3214,56.4225],[33.0536,56.4769],[32.7737,56.4863],[32.4797,56.415]],[[32.7741,56.1983],[32.7567,56.1994],[32.755,56.2085],[32.7697,56.2118],[32.7741,56.1983]]]},"properties":{"GID_0":"RUS","GID_1":"RUS.72_1","GID_2":"RUS.72.24_1","NAME_1":"Tver'","NAME_2":"Nelidovskiyrayon"}},
{"type":"Feature","geometry":{"type":"Polygon","coordinates":[[[33.9808,56.0398],[33.7723,56.4842],[33.3214,56.4225],[33.1626,56.2781],[33.1852,55.9896],[33.4788,55.868],[33.7487,55.8731],[33.9808,56.0398]]]},"properties":{"GID_0":"RUS","GID_1":"RUS.72_1","GID_2":"RUS.72.25_1","NAME_1":"Tver'","NAME_2":"Oleninskiyrayon"}},
{"type":"Feature","geometry":{"type":"Polygon","coordinates":[[[33.134,57.1442],[33.1404,57.1548],[33.1092,57.1632],[33.1017,57.1478],[33.134,57.1442]]]},"properties":{"GID_0":"RUS","GID_1":"RUS.72_1","GID_2":"RUS.72.26_1","NAME_1":"Tver'","NAME_2":"Ostashkov"}},
{"type":"Feature","geometry":{"type":"Polygon","coordinates":[[[33.3522,57.4313],[32.8015,57.3968],[32.6763,57.2868],[32.4501,57.2205],[32.6684,57.1105],[33.0435,57.0361],[32.9248,56.8774],[33.0429,56.8324],[33.1127,56.9361],[33.4263,56.95],[33.6272,57.0081],[33.8221,57.1279],[33.7762,57.1697],[33.7583,57.2202],[33.7416,57.2311],[33.7225,57.232],[33.6591,57.3432],[33.3522,57.4313]],[[33.134,57.1442],[33.1017,57.1478],[33.1092,57.1632],[33.1404,57.1548],[33.134,57.1442]]]},"properties":{"GID_0":"RUS","GID_1":"RUS.72_1","GID_2":"RUS.72.27_1","NAME_1":"Tver'","NAME_2":"Ostashkovskiyrayon"}},
{"type":"Feature","geometry":{"type":"Polygon","coordinates":[[[32.0174,57.0302],[32.1943,56.941],[32.4169,56.7418],[33.0105,56.5393],[33.0429,56.8324],[32.9248,56.8774],[33.0435,57.0361],[32.6684,57.1105],[32.4501,57.2205],[32.0787,57.1134],[32.0174,57.0302]]]},"properties":{"GID_0":"RUS","GID_1":"RUS.72_1","GID_2":"RUS.72.28_1","NAME_1":"Tver'","NAME_2":"Penovskiyrayon"}},
{"type":"Feature","geometry":{"type":"Polygon","coordinates":[[[36.2105,57.5061],[36.0795,57.4687],[35.9304,57.2958],[35.9387,57.096],[35.9559,57.0434],[36.465,56.9905],[36.4859,56.9405],[36.7277,56.9594],[36.8835,57.3016],[36.9286,57.374],[36.2105,57.5061]]]},"properties":{"GID_0":"RUS","GID_1":"RUS.72_1","GID_2":"RUS.72.29_1","NAME_1":"Tver'","NAME_2":"Rameshkovskiyrayon"}},
{"type":"Feature","geometry":{"type":"Polygon","coordinates":[[[34.3347,56.22],[34.3417,56.2295],[34.3205,56.234],[34.3124,56.2249],[34.3347,56.22]]]},"properties":{"GID_0":"RUS","GID_1":"RUS.72_1","GID_2":"RUS.72.30_1","NAME_1":"Tver'","NAME_2":"Rzhev"}},
{"type":"Feature","geometry":{"type":"Polygon","coordinates":[[[34.4354,55.9847],[34.433,56.0609],[34.6606,56.2801],[34.9916,56.2426],[34.621,56.47],[34.0569,56.6436],[33.7723,56.4842],[33.9808,56.0398],[34.4354,55.9847]],[[34.3347,56.22],[34.3124,56.2249],[34.3205,56.234],[34.3417,56.2295],[34.3347,56.22]]]},"properties":{"GID_0":"RUS","GID_1":"RUS.72_1","GID_2":"RUS.72.31_1","NAME_1":"Tver'","NAME_2":"Rzhevskiyrayon"}},
{"type":"Feature","geometry":{"type":"Polygon","coordinates":[[[35.9805,58.3984],[36.2366,58.2024],[36.4204,58.2677],[36.9683,58.3078],[36.9332,58.5436],[36.6937,58.6285],[36.472,58.5225],[36.1667,58.4873],[35.9805,58.3984]]]},"properties":{"GID_0":"RUS","GID_1":"RUS.72_1","GID_2":"RUS.72.32_1","NAME_1":"Tver'","NAME_2":"Sandovskiyrayon"}},
{"type":"Feature","geometry":{"type":"Polygon","coordinates":[[[33.0536,56.4769],[33.3214,56.4225],[33.7723,56.4842],[34.0569,56.6436],[33.9866,56.8117],[33.9668,56.9293],[33.7103,56.9963],[33.7122,57.0614],[33.6272,57.0081],[33.4263,56.95],[33.1127,56.9361],[33.0429,56.8324],[33.0105,56.5393],[33.0536,56.4769]]]},"properties":{"GID_0":"RUS","GID_1":"RUS.72_1","GID_2":"RUS.72.33_1","NAME_1":"Tver'","NAME_2":"Selizharovskiyrayon"}},
{"type":"Feature","geometry":{"type":"Polygon","coordinates":[[[37.1036,57.6521],[37.5467,57.686],[37.7306,57.6453],[37.3987,57.8904],[37.041,57.8744],[37.1036,57.6521]]]},"properties":{"GID_0":"RUS","GID_1":"RUS.72_1","GID_2":"RUS.72.34_1","NAME_1":"Tver'","NAME_2":"Sonkovskiyrayon"}},
{"type":"Feature","geometry":{"type":"Polygon","coordinates":[[[35.8473,57.5606],[35.5559,57.6657],[34.9425,57.4472],[34.7363,57.245],[34.9505,57.2931],[35.2066,57.2618],[35.3422,57.1687],[35.2816,57.2582],[35.7198,57.5346],[35.8473,57.5606]]]},"properties":{"GID_0":"RUS","GID_1":"RUS.72_1","GID_2":"RUS.72.35_1","NAME_1":"Tver'","NAME_2":"Spirovskiyrayon"}},
{"type":"Feature","geometry":{"type":"Polygon","coordinates":[[[35.54,56.4404],[35.586,56.553],[35.4735,56.7414],[35.1243,56.5799],[34.8298,56.7062],[34.6065,56.66],[34.401,56.7586],[34.2484,56.8252],[33.9866,56.8117],[34.0569,56.6436],[34.621,56.47],[34.9916,56.2426],[35.4721,56.2771],[35.54,56.4404]]]},"properties":{"GID_0":"RUS","GID_1":"RUS.72_1","GID_2":"RUS.72.36_1","NAME_1":"Tver'","NAME_2":"Staritskiyrayon"}},
{"type":"Feature","geometry":{"type":"Polygon","coordinates":[[[31.421,56.9178],[31.2463,56.8828],[30.9748,56.9349],[30.8311,56.7134],[31.0712,56.6149],[31.0418,56.4648],[31.2505,56.4373],[31.3355,56.3177],[31.5067,56.3179],[32.0649,56.3025],[32.2068,56.4497],[31.9563,56.5506],[31.6978,56.5907],[31.773,56.6942],[31.6696,56.8316],[31.421,56.9178]]]},"properties":{"GID_0":"RUS","GID_1":"RUS.72_1","GID_2":"RUS.72.37_1","NAME_1":"Tver'","NAME_2":"Toropetskiyrayon"}},
{"type":"Feature","geometry":{"type":"Polygon","coordinates":[[[34.9994,56.9947],[35.0089,57.0008],[34.9917,57.0064],[34.9881,56.9972],[34.9994,56.9947]]]},"properties":{"GID_0":"RUS","GID_1":"RUS.72_1","GID_2":"RUS.72.38_1","NAME_1":"Tver'","NAME_2":"Torzhok"}},
{"type":"Feature","geometry":{"type":"Polygon","coordinates":[[[35.4754,56.995],[35.3422,57.1687],[35.2066,57.2618],[34.9505,57.2931],[34.7363,57.245],[34.4742,57.2149],[34.5027,57.1038],[34.7202,56.8539],[34.401,56.7586],[34.6065,56.66],[34.8298,56.7062],[35.1243,56.5799],[35.4735,56.7414],[35.3555,56.831],[35.4754,56.995]],[[34.9994,56.9947],[34.9881,56.9972],[34.9917,57.0064],[35.0089,57.0008],[34.9994,56.9947]]]},"properties":{"GID_0":"RUS","GID_1":"RUS.72_1","GID_2":"RUS.72.39_1","NAME_1":"Tver'","NAME_2":"Torzhokskiyrayon"}},
{"type":"Feature","geometry":{"type":"Polygon","coordinates":[[[36.0941,56.7797],[35.8723,56.9104],[35.7771,56.7956],[36.0941,56.7797]]]},"properties":{"GID_0":"RUS","GID_1":"RUS.72_1","GID_2":"RUS.72.40_1","NAME_1":"Tver'","NAME_2":"Tver'"}},
{"type":"Feature","geometry":{"type":"Polygon","coordinates":[[[34.6201,58.0866],[34.5575,57.864],[35.0892,57.7066],[35.5559,57.6657],[35.6292,57.9859],[35.4098,58.1024],[35.2587,58.2235],[35.0946,58.1724],[34.8509,58.229],[34.8064,58.092],[34.6201,58.0866]],[[35.0389,57.8298],[35.0168,57.837],[35.0351,57.8408],[35.0389,57.8298]]]},"properties":{"GID_0":"RUS","GID_1":"RUS.72_1","GID_2":"RUS.72.41_1","NAME_1":"Tver'","NAME_2":"Udomel'skiyrayon"}},
{"type":"Feature","geometry":{"type":"Polygon","coordinates":[[[35.0389,57.8298],[35.0351,57.8408],[35.0168,57.837],[35.0389,57.8298]]]},"properties":{"GID_0":"RUS","GID_1":"RUS.72_1","GID_2":"RUS.72.42_1","NAME_1":"Tver'","NAME_2":"Udomlya"}},
{"type":"Feature","geometry":{"type":"Polygon","coordinates":[[[37.493,58.3835],[37.6452,58.4455],[37.3408,58.6138],[37.1528,58.7749],[37.0916,58.8428],[36.6937,58.6285],[36.9332,58.5436],[36.9683,58.3078],[37.1508,58.2894],[37.284,58.3953],[37.493,58.3835]]]},"properties":{"GID_0":"RUS","GID_1":"RUS.72_1","GID_2":"RUS.72.43_1","NAME_1":"Tver'","NAME_2":"Ves'egonskiyrayon"}},
{"type":"Feature","geometry":{"type":"Polygon","coordinates":[[[34.1889,57.6091],[34.0586,57.5049],[33.9896,57.2654],[34.0624,57.2327],[34.4742,57.2149],[34.7363,57.245],[34.9425,57.4472],[35.5559,57.6657],[35.0892,57.7066],[34.5575,57.864],[34.4529,57.9052],[34.1889,57.6091]],[[34.55,57.532],[34.5282,57.5303],[34.5243,57.5387],[34.5446,57.5418],[34.55,57.532]]]},"properties":{"GID_0":"RUS","GID_1":"RUS.72_1","GID_2":"RUS.72.44_1","NAME_1":"Tver'","NAME_2":"Vyshnevolotskiyrayon"}},
{"type":"Feature","geometry":{"type":"Polygon","coordinates":[[[34.55,57.532],[34.5446,57.5418],[34.5243,57.5387],[34.5282,57.5303],[34.55,57.532]]]},"properties":{"GID_0":"RUS","GID_1":"RUS.72_1","GID_2":"RUS.72.45_1","NAME_1":"Tver'","NAME_2":"VyshniyVoloche"}},
{"type":"Feature","geometry":{"type":"Polygon","coordinates":[[[37.6452,58.4455],[37.6186,58.4992],[37.1528,58.7749],[37.3408,58.6138],[37.6452,58.4455]]]},"properties":{"GID_0":"RUS","GID_1":"RUS.72_1","GID_2":"RUS.72.46_1","NAME_1":"Tver'","NAME_2":"Waterbody"}},
{"type":"Feature","geometry":{"type":"Polygon","coordinates":[[[31.5067,56.3179],[31.5392,56.0597],[31.3933,55.872],[31.5227,55.7247],[31.72,55.7201],[31.9457,55.8892],[32.1256,55.8677],[32.3691,56.0314],[32.3531,56.1653],[32.4797,56.415],[32.2068,56.4497],[32.0649,56.3025],[31.5067,56.3179]]]},"properties":{"GID_0":"RUS","GID_1":"RUS.72_1","GID_2":"RUS.72.47_1","NAME_1":"Tver'","NAME_2":"Zapadnodvinskiyrayon"}},
{"type":"Feature","geometry":{"type":"Polygon","coordinates":[[[31.72,55.7201],[32.0957,55.7228],[32.1325,55.6372],[32.5897,55.6757],[32.76,55.6282],[32.6651,55.9062],[32.3691,56.0314],[32.1256,55.8677],[31.9457,55.8892],[31.72,55.7201]]]},"properties":{"GID_0":"RUS","GID_1":"RUS.72_1","GID_2":"RUS.72.48_1","NAME_1":"Tver'","NAME_2":"Zharkovskiyrayon"}},
{"type":"Feature","geometry":{"type":"Polygon","coordinates":[[[35.4721,56.2771],[34.9916,56.2426],[34.6606,56.2801],[34.433,56.0609],[34.4354,55.9847],[34.7412,55.8828],[34.8185,55.9444],[35.1572,55.9296],[35.3189,56.0245],[35.3196,56.1943],[35.4721,56.2771]]]},"properties":{"GID_0":"RUS","GID_1":"RUS.72_1","GID_2":"RUS.72.49_1","NAME_1":"Tver'","NAME_2":"Zubtsovskiyrayon"}}
]}