{"type":"FeatureCollection", "features": [
{"type":"Feature","geometry":{"type":"Polygon","coordinates":[[[46.8518,56.2115],[46.7874,56.391],[46.7697,56.6378],[46.3306,56.6646],[46.302,56.4152],[46.3956,56.3223],[46.1883,56.2398],[45.963,56.3312],[45.8885,56.2481],[46.072,56.1938],[46.1683,56.0448],[46.5319,56.1618],[46.7216,56.1341],[46.8518,56.2115]],[[46.5341,56.2595],[46.5211,56.2666],[46.5312,56.2702],[46.5341,56.2595]]]},"properties":{"GID_0":"RUS","GID_1":"RUS.41_1","GID_2":"RUS.41.1_1","NAME_1":"Mariy-El","NAME_2":"Gornomariyskiyrayon"}},
{"type":"Feature","geometry":{"type":"Polygon","coordinates":[[[47.9674,56.6201],[47.8914,56.6399],[47.8583,56.6132],[47.924,56.595],[47.9674,56.6201]]]},"properties":{"GID_0":"RUS","GID_1":"RUS.41_1","GID_2":"RUS.41.2_1","NAME_1":"Mariy-El","NAME_2":"Ioshkar-Ola"}},
{"type":"Feature","geometry":{"type":"Polygon","coordinates":[[[47.264,56.3359],[47.3309,56.4733],[47.4492,56.4715],[47.3632,56.7114],[47.2326,56.8596],[47.1226,56.9371],[46.5741,56.9357],[46.2713,56.9085],[46.3306,56.6646],[46.7697,56.6378],[46.7874,56.391],[46.8518,56.2115],[47.264,56.3359]]]},"properties":{"GID_0":"RUS","GID_1":"RUS.41_1","GID_2":"RUS.41.3_1","NAME_1":"Mariy-El","NAME_2":"Kilemarskiyrayon"}},
{"type":"Feature","geometry":{"type":"Polygon","coordinates":[[[46.5341,56.2595],[46.5312,56.2702],[46.5211,56.2666],[46.5341,56.2595]]]},"properties":{"GID_0":"RUS","GID_1":"RUS.41_1","GID_2":"RUS.41.4_1","NAME_1":"Mariy-El","NAME_2":"Koz'modem'yansk"}},
{"type":"Feature","geometry":{"type":"Polygon","coordinates":[[[49.3116,56.6343],[49.2301,56.7425],[49.3754,56.8775],[49.0324,56.9645],[48.8444,56.8827],[48.7513,56.7144],[48.84,56.6429],[49.3116,56.6343]]]},"properties":{"GID_0":"RUS","GID_1":"RUS.41_1","GID_2":"RUS.41.5_1","NAME_1":"Mariy-El","NAME_2":"Kuzhenerskiyrayon"}},
{"type":"Feature","geometry":{"type":"Polygon","coordinates":[[[49.599,56.4945],[49.7608,56.5565],[50.0211,56.4668],[50.2069,56.5604],[50.0731,56.6693],[50.1399,56.7972],[50.0119,56.8949],[49.8041,56.901],[49.7677,57.061],[49.5561,57.0845],[49.5156,56.941],[49.7308,56.6022],[49.5345,56.5676],[49.599,56.4945]]]},"properties":{"GID_0":"RUS","GID_1":"RUS.41_1","GID_2":"RUS.41.6_1","NAME_1":"Mariy-El","NAME_2":"Mari-Turekskiyrayon"}},
{"type":"Feature","geometry":{"type":"Polygon","coordinates":[[[47.2326,56.8596],[47.3632,56.7114],[47.4492,56.4715],[47.643,56.465],[47.7972,56.3654],[48.2126,56.3637],[48.2538,56.4265],[48.2707,56.4939],[48.1939,56.6371],[48.2991,56.7257],[48.151,56.7941],[47.6798,56.8621],[47.601,56.9681],[47.2326,56.8596]],[[47.9674,56.6201],[47.924,56.595],[47.8583,56.6132],[47.8914,56.6399],[47.9674,56.6201]]]},"properties":{"GID_0":"RUS","GID_1":"RUS.41_1","GID_2":"RUS.41.7_1","NAME_1":"Mariy-El","NAME_2":"Medvedevskiyrayon"}},
{"type":"Feature","geometry":{"type":"Polygon","coordinates":[[[48.84,56.6429],[48.7257,56.5606],[48.5599,56.5617],[48.3931,56.4617],[48.5463,56.3693],[48.5791,56.2012],[49.0119,56.1976],[48.9485,56.3539],[49.1207,56.422],[49.3143,56.3823],[49.599,56.4945],[49.5345,56.5676],[49.3116,56.6343],[48.84,56.6429]]]},"properties":{"GID_0":"RUS","GID_1":"RUS.41_1","GID_2":"RUS.41.8_1","NAME_1":"Mariy-El","NAME_2":"Morkinskiyrayon"}},
{"type":"Feature","geometry":{"type":"Polygon","coordinates":[[[48.98,57.1093],[48.8665,57.1751],[48.2489,57.1108],[48.3651,57.0622],[48.3559,56.9247],[48.5393,56.9793],[48.8444,56.8827],[49.0324,56.9645],[48.98,57.1093]]]},"properties":{"GID_0":"RUS","GID_1":"RUS.41_1","GID_2":"RUS.41.9_1","NAME_1":"Mariy-El","NAME_2":"Novotor'yal'skiyrayon"}},
{"type":"Feature","geometry":{"type":"Polygon","coordinates":[[[47.601,56.9681],[47.6798,56.8621],[48.151,56.7941],[48.3559,56.9247],[48.3651,57.0622],[48.2489,57.1108],[48.1691,57.0446],[47.9359,57.0099],[47.7321,57.0673],[47.601,56.9681]]]},"properties":{"GID_0":"RUS","GID_1":"RUS.41_1","GID_2":"RUS.41.10_1","NAME_1":"Mariy-El","NAME_2":"Orshanskiyrayon"}},
{"type":"Feature","geometry":{"type":"Polygon","coordinates":[[[49.3116,56.6343],[49.5345,56.5676],[49.7308,56.6022],[49.5156,56.941],[49.3754,56.8775],[49.2301,56.7425],[49.3116,56.6343]]]},"properties":{"GID_0":"RUS","GID_1":"RUS.41_1","GID_2":"RUS.41.11_1","NAME_1":"Mariy-El","NAME_2":"Paran'ginskiyrayon"}},
{"type":"Feature","geometry":{"type":"Polygon","coordinates":[[[49.5561,57.0845],[49.2735,57.0643],[49.1387,57.3398],[48.98,57.1093],[49.0324,56.9645],[49.3754,56.8775],[49.5156,56.941],[49.5561,57.0845]]]},"properties":{"GID_0":"RUS","GID_1":"RUS.41_1","GID_2":"RUS.41.12_1","NAME_1":"Mariy-El","NAME_2":"Sernurskiyrayon"}},
{"type":"Feature","geometry":{"type":"Polygon","coordinates":[[[48.8444,56.8827],[48.5393,56.9793],[48.3559,56.9247],[48.151,56.7941],[48.2991,56.7257],[48.1939,56.6371],[48.2707,56.4939],[48.2659,56.475],[48.3534,56.4646],[48.3931,56.4617],[48.5599,56.5617],[48.7257,56.5606],[48.84,56.6429],[48.7513,56.7144],[48.8444,56.8827]]]},"properties":{"GID_0":"RUS","GID_1":"RUS.41_1","GID_2":"RUS.41.13_1","NAME_1":"Mariy-El","NAME_2":"Sovetskiyrayon"}},
{"type":"Feature","geometry":{"type":"Polygon","coordinates":[[[48.2388,55.8949],[48.4177,55.9003],[48.814,56.0779],[49.0119,56.1976],[48.5791,56.2012],[48.3598,55.9694],[48.2388,55.8949]]]},"properties":{"GID_0":"RUS","GID_1":"RUS.41_1","GID_2":"RUS.41.14_1","NAME_1":"Mariy-El","NAME_2":"Volzhskiyrayon"}},
{"type":"Feature","geometry":{"type":"Polygon","coordinates":[[[46.3306,56.6646],[46.2713,56.9085],[45.9081,56.843],[45.9327,56.674],[45.6708,56.5863],[45.963,56.3312],[46.1883,56.2398],[46.3956,56.3223],[46.302,56.4152],[46.3306,56.6646]]]},"properties":{"GID_0":"RUS","GID_1":"RUS.41_1","GID_2":"RUS.41.15_1","NAME_1":"Mariy-El","NAME_2":"Yurinskiyrayon"}},
{"type":"Feature","geometry":{"type":"Polygon","coordinates":[[[47.264,56.3359],[47.4819,56.2018],[47.8821,56.1394],[47.9933,55.9806],[48.2388,55.8949],[48.3598,55.9694],[48.5791,56.2012],[48.5463,56.3693],[48.3931,56.4617],[48.3534,56.4646],[48.2659,56.475],[48.2538,56.4265],[48.2126,56.3637],[47.7972,56.3654],[47.643,56.465],[47.3309,56.4733],[47.264,56.3359]]]},"properties":{"GID_0":"RUS","GID_1":"RUS.41_1","GID_2":"RUS.41.16_1","NAME_1":"Mariy-El","NAME_2":"Zvenigovskiyrayon"}}
]}