{"type":"FeatureCollection", "features": [
{"type":"Feature","geometry":{"type":"Polygon","coordinates":[[[46.5129,54.684],[46.417,54.8908],[46.2693,54.9769],[46.2326,55.0706],[45.9084,54.9975],[45.8423,54.8125],[46.3425,54.6314],[46.5129,54.684]]]},"properties":{"GID_0":"RUS","GID_1":"RUS.42_1","GID_2":"RUS.42.1_1","NAME_1":"Mordovia","NAME_2":"Ardatovskiyrayon"}},
{"type":"Feature","geometry":{"type":"Polygon","coordinates":[[[45.8423,54.8125],[45.8946,54.746],[45.7577,54.6202],[45.7877,54.554],[46.1165,54.4322],[46.4937,54.4909],[46.5751,54.5192],[46.5129,54.684],[46.3425,54.6314],[45.8423,54.8125]]]},"properties":{"GID_0":"RUS","GID_1":"RUS.42_1","GID_2":"RUS.42.2_1","NAME_1":"Mordovia","NAME_2":"Atyashevskiyrayon"}},
{"type":"Feature","geometry":{"type":"Polygon","coordinates":[[[43.6327,54.2443],[43.4171,54.4527],[43.3336,54.5002],[42.9961,54.4004],[43.0522,54.299],[43.1678,54.2566],[43.2934,54.1308],[43.4257,54.1701],[43.5638,54.2183],[43.6327,54.2443]]]},"properties":{"GID_0":"RUS","GID_1":"RUS.42_1","GID_2":"RUS.42.3_1","NAME_1":"Mordovia","NAME_2":"Atyur'evskiyrayon"}},
{"type":"Feature","geometry":{"type":"Polygon","coordinates":[[[46.0834,54.3689],[46.0637,54.2821],[45.814,54.2806],[45.7042,54.2295],[45.6625,54.0985],[45.6696,54.0157],[45.8816,54.0073],[46.0068,54.137],[46.4179,54.2323],[46.2872,54.3651],[46.0834,54.3689]]]},"properties":{"GID_0":"RUS","GID_1":"RUS.42_1","GID_2":"RUS.42.4_1","NAME_1":"Mordovia","NAME_2":"Bol'shebereznikovskiyrayon"}},
{"type":"Feature","geometry":{"type":"Polygon","coordinates":[[[45.9084,54.9975],[45.7245,55.0114],[45.7887,55.162],[45.6482,55.1632],[45.4654,55.0689],[45.4701,54.9149],[45.5755,54.8027],[45.8423,54.8125],[45.9084,54.9975]]]},"properties":{"GID_0":"RUS","GID_1":"RUS.42_1","GID_2":"RUS.42.5_1","NAME_1":"Mordovia","NAME_2":"Bol'sheignatovskiyrayon"}},
{"type":"Feature","geometry":{"type":"Polygon","coordinates":[[[45.7577,54.6202],[45.6266,54.5525],[45.5811,54.3479],[45.6284,54.284],[45.7042,54.2295],[45.814,54.2806],[46.0637,54.2821],[46.0834,54.3689],[46.1165,54.4322],[45.7877,54.554],[45.7577,54.6202]]]},"properties":{"GID_0":"RUS","GID_1":"RUS.42_1","GID_2":"RUS.42.6_1","NAME_1":"Mordovia","NAME_2":"Chamzinskiyrayon"}},
{"type":"Feature","geometry":{"type":"Polygon","coordinates":[[[46.1165,54.4322],[46.0834,54.3689],[46.2872,54.3651],[46.4179,54.2323],[46.6923,54.3189],[46.4937,54.4909],[46.1165,54.4322]]]},"properties":{"GID_0":"RUS","GID_1":"RUS.42_1","GID_2":"RUS.42.7_1","NAME_1":"Mordovia","NAME_2":"Dubenskiyrayon"}},
{"type":"Feature","geometry":{"type":"Polygon","coordinates":[[[45.8423,54.8125],[45.5755,54.8027],[45.4701,54.9149],[45.2907,54.8672],[45.096,54.7536],[45.1218,54.6578],[45.0328,54.5943],[45.1711,54.5181],[45.6266,54.5525],[45.7577,54.6202],[45.8946,54.746],[45.8423,54.8125]]]},"properties":{"GID_0":"RUS","GID_1":"RUS.42_1","GID_2":"RUS.42.8_1","NAME_1":"Mordovia","NAME_2":"Ichalkovskiyrayon"}},
{"type":"Feature","geometry":{"type":"Polygon","coordinates":[[[44.098,53.7177],[44.5981,53.6612],[44.7797,53.7147],[44.648,53.8683],[44.6084,53.9241],[44.5961,53.9447],[44.233,53.9198],[44.2136,53.8762],[44.098,53.7177]]]},"properties":{"GID_0":"RUS","GID_1":"RUS.42_1","GID_2":"RUS.42.9_1","NAME_1":"Mordovia","NAME_2":"Insarskiyrayon"}},
{"type":"Feature","geometry":{"type":"Polygon","coordinates":[[[44.5961,53.9447],[44.5847,53.989],[44.5594,54.069],[44.3821,54.1549],[44.4865,54.2338],[44.3851,54.2952],[44.1392,54.2438],[44.3215,54.1023],[44.2339,54.0588],[44.2376,53.9313],[44.233,53.9198],[44.5961,53.9447]]]},"properties":{"GID_0":"RUS","GID_1":"RUS.42_1","GID_2":"RUS.42.10_1","NAME_1":"Mordovia","NAME_2":"Kadoshkinskiyrayon"}},
{"type":"Feature","geometry":{"type":"Polygon","coordinates":[[[45.6625,54.0985],[45.4012,54.1304],[45.2014,54.0328],[45.1849,54.0316],[45.265,53.9625],[45.3399,53.8779],[45.7838,53.9266],[45.8816,54.0073],[45.6696,54.0157],[45.6625,54.0985]]]},"properties":{"GID_0":"RUS","GID_1":"RUS.42_1","GID_2":"RUS.42.11_1","NAME_1":"Mordovia","NAME_2":"Kochkurovskiyrayon"}},
{"type":"Feature","geometry":{"type":"Polygon","coordinates":[[[43.6816,54.0324],[43.6168,54.0367],[43.5919,54.0121],[43.6614,54.0024],[43.6816,54.0324]]]},"properties":{"GID_0":"RUS","GID_1":"RUS.42_1","GID_2":"RUS.42.12_1","NAME_1":"Mordovia","NAME_2":"Kovylkino"}},
{"type":"Feature","geometry":{"type":"Polygon","coordinates":[[[43.4257,54.1701],[43.4941,54.1394],[43.4853,53.9613],[43.5847,53.9933],[43.961,53.8781],[44.0019,53.761],[44.098,53.7177],[44.2136,53.8762],[44.2376,53.9313],[44.2339,54.0588],[44.3215,54.1023],[44.1392,54.2438],[43.8559,54.2876],[43.6327,54.2443],[43.5638,54.2183],[43.4257,54.1701]],[[43.6816,54.0324],[43.6614,54.0024],[43.5919,54.0121],[43.6168,54.0367],[43.6816,54.0324]]]},"properties":{"GID_0":"RUS","GID_1":"RUS.42_1","GID_2":"RUS.42.13_1","NAME_1":"Mordovia","NAME_2":"Kovylkinskiyrayon"}},
{"type":"Feature","geometry":{"type":"Polygon","coordinates":[[[43.6327,54.2443],[43.8559,54.2876],[44.1392,54.2438],[44.3851,54.2952],[44.407,54.4245],[44.2426,54.5384],[44.1441,54.4247],[43.8359,54.5211],[43.6429,54.4994],[43.4171,54.4527],[43.6327,54.2443]]]},"properties":{"GID_0":"RUS","GID_1":"RUS.42_1","GID_2":"RUS.42.14_1","NAME_1":"Mordovia","NAME_2":"Krasnoslobodskiyrayon"}},
{"type":"Feature","geometry":{"type":"Polygon","coordinates":[[[45.7042,54.2295],[45.6284,54.284],[45.2854,54.2795],[45.1173,54.4101],[45.1738,54.4803],[44.96,54.4703],[44.8836,54.2646],[45.1351,54.1413],[45.2067,54.2143],[45.4012,54.1304],[45.6625,54.0985],[45.7042,54.2295]]]},"properties":{"GID_0":"RUS","GID_1":"RUS.42_1","GID_2":"RUS.42.15_1","NAME_1":"Mordovia","NAME_2":"Lyambirskiyrayon"}},
{"type":"Feature","geometry":{"type":"Polygon","coordinates":[[[45.6266,54.5525],[45.1711,54.5181],[45.1738,54.4803],[45.1173,54.4101],[45.2854,54.2795],[45.6284,54.284],[45.5811,54.3479],[45.6266,54.5525]]]},"properties":{"GID_0":"RUS","GID_1":"RUS.42_1","GID_2":"RUS.42.16_1","NAME_1":"Mordovia","NAME_2":"Romodanovskiyrayon"}},
{"type":"Feature","geometry":{"type":"Polygon","coordinates":[[[45.0024,54.0267],[44.9507,54.0481],[44.9141,54.0179],[44.9555,53.9933],[45.0024,54.0267]]]},"properties":{"GID_0":"RUS","GID_1":"RUS.42_1","GID_2":"RUS.42.17_1","NAME_1":"Mordovia","NAME_2":"Ruzaevka"}},
{"type":"Feature","geometry":{"type":"Polygon","coordinates":[[[44.648,53.8683],[44.9459,53.9651],[45.265,53.9625],[45.1849,54.0316],[45.1686,54.0305],[45.1351,54.1413],[44.8836,54.2646],[44.7002,54.2072],[44.6228,54.1343],[44.5694,54.1036],[44.5198,54.0874],[44.5594,54.069],[44.5847,53.989],[44.6084,53.9241],[44.648,53.8683]],[[45.0024,54.0267],[44.9555,53.9933],[44.9141,54.0179],[44.9507,54.0481],[45.0024,54.0267]]]},"properties":{"GID_0":"RUS","GID_1":"RUS.42_1","GID_2":"RUS.42.18_1","NAME_1":"Mordovia","NAME_2":"Ruzayevskiyrayon"}},
{"type":"Feature","geometry":{"type":"Polygon","coordinates":[[[45.4012,54.1304],[45.2067,54.2143],[45.1351,54.1413],[45.1686,54.0305],[45.2014,54.0328],[45.4012,54.1304]]]},"properties":{"GID_0":"RUS","GID_1":"RUS.42_1","GID_2":"RUS.42.19_1","NAME_1":"Mordovia","NAME_2":"Saranskgorsovet"}},
{"type":"Feature","geometry":{"type":"Polygon","coordinates":[[[44.5198,54.0874],[44.5694,54.1036],[44.6228,54.1343],[44.7002,54.2072],[44.8836,54.2646],[44.96,54.4703],[44.732,54.4914],[44.6294,54.5583],[44.4958,54.5231],[44.2848,54.5912],[44.2426,54.5384],[44.407,54.4245],[44.3851,54.2952],[44.4865,54.2338],[44.3821,54.1549],[44.5198,54.0874]]]},"properties":{"GID_0":"RUS","GID_1":"RUS.42_1","GID_2":"RUS.42.20_1","NAME_1":"Mordovia","NAME_2":"Staroshaygovskiyrayon"}},
{"type":"Feature","geometry":{"type":"Polygon","coordinates":[[[43.4171,54.4527],[43.6429,54.4994],[43.5349,54.7698],[43.6012,54.8559],[43.4066,54.9408],[43.1967,54.8729],[43.1252,54.765],[42.9961,54.7937],[43.0614,54.6791],[42.8965,54.6328],[42.9637,54.4834],[42.752,54.4047],[42.757,54.3535],[42.7964,54.3614],[42.8361,54.3812],[42.8516,54.3948],[42.9961,54.4004],[43.3336,54.5002],[43.4171,54.4527]]]},"properties":{"GID_0":"RUS","GID_1":"RUS.42_1","GID_2":"RUS.42.21_1","NAME_1":"Mordovia","NAME_2":"Temnikovskiyrayon"}},
{"type":"Feature","geometry":{"type":"Polygon","coordinates":[[[42.9961,54.7937],[42.7855,54.8074],[42.4035,54.721],[42.7174,54.5668],[42.5884,54.4836],[42.6322,54.3843],[42.757,54.3535],[42.752,54.4047],[42.9637,54.4834],[42.8965,54.6328],[43.0614,54.6791],[42.9961,54.7937]]]},"properties":{"GID_0":"RUS","GID_1":"RUS.42_1","GID_2":"RUS.42.22_1","NAME_1":"Mordovia","NAME_2":"Ten'gushevskiyrayon"}},
{"type":"Feature","geometry":{"type":"Polygon","coordinates":[[[42.9961,54.4004],[42.8516,54.3948],[42.9148,54.2535],[43.0248,54.1502],[42.9377,54.0806],[43.14,53.8884],[43.1575,53.8186],[43.268,54.0102],[43.4853,53.9613],[43.4941,54.1394],[43.4257,54.1701],[43.2934,54.1308],[43.1678,54.2566],[43.0522,54.299],[42.9961,54.4004]]]},"properties":{"GID_0":"RUS","GID_1":"RUS.42_1","GID_2":"RUS.42.23_1","NAME_1":"Mordovia","NAME_2":"Torbeevskiyrayon"}},
{"type":"Feature","geometry":{"type":"Polygon","coordinates":[[[44.2426,54.5384],[44.2848,54.5912],[44.0039,54.7195],[43.9728,54.7886],[43.7236,54.8052],[43.6012,54.8559],[43.5349,54.7698],[43.6429,54.4994],[43.8359,54.5211],[44.1441,54.4247],[44.2426,54.5384]]]},"properties":{"GID_0":"RUS","GID_1":"RUS.42_1","GID_2":"RUS.42.24_1","NAME_1":"Mordovia","NAME_2":"Yel'nikovskiyrayon"}},
{"type":"Feature","geometry":{"type":"Polygon","coordinates":[[[42.757,54.3535],[42.6322,54.3843],[42.4082,54.1729],[42.3877,54.0543],[42.4933,53.9651],[42.3605,53.7825],[42.6261,53.7606],[43.1575,53.8186],[43.14,53.8884],[42.9377,54.0806],[43.0248,54.1502],[42.9148,54.2535],[42.8516,54.3948],[42.8361,54.3812],[42.7964,54.3614],[42.757,54.3535]]]},"properties":{"GID_0":"RUS","GID_1":"RUS.42_1","GID_2":"RUS.42.25_1","NAME_1":"Mordovia","NAME_2":"Zubovo-Polyanskiyrayon"}}
]}