{"type":"FeatureCollection", "features": [
{"type":"Feature","geometry":{"type":"Polygon","coordinates":[[[40.01,47.3194],[39.9899,47.4291],[39.853,47.5567],[39.8512,47.5698],[39.8053,47.5401],[39.8303,47.4412],[39.6414,47.456],[39.647,47.3374],[39.6543,47.1739],[39.8227,47.0586],[40.0203,47.1388],[40.01,47.3194]],[[39.8378,47.0817],[39.7487,47.1331],[39.8065,47.1917],[39.8378,47.0817]]]},"properties":{"GID_0":"RUS","GID_1":"RUS.58_1","GID_2":"RUS.58.1_1","NAME_1":"Rostov","NAME_2":"Aksayskiyrayon"}},
{"type":"Feature","geometry":{"type":"Polygon","coordinates":[[[39.5125,47.0992],[39.4067,47.085],[39.4799,47.0286],[39.5125,47.0992]]]},"properties":{"GID_0":"RUS","GID_1":"RUS.58_1","GID_2":"RUS.58.2_1","NAME_1":"Rostov","NAME_2":"Azov"}},
{"type":"Feature","geometry":{"type":"Polygon","coordinates":[[[39.2574,47.2499],[39.2365,47.1246],[39.2935,47.0199],[39.1046,47.0349],[38.8374,46.906],[38.8694,46.6852],[39.0781,46.6733],[39.1893,46.803],[39.3837,46.8782],[39.4584,46.8391],[39.7633,46.8215],[39.7764,46.9176],[39.6708,46.9888],[39.5863,47.1517],[39.4091,47.1934],[39.2634,47.2577],[39.2574,47.2499]],[[39.4067,47.085],[39.5125,47.0992],[39.4799,47.0286],[39.4067,47.085]]]},"properties":{"GID_0":"RUS","GID_1":"RUS.58_1","GID_2":"RUS.58.3_1","NAME_1":"Rostov","NAME_2":"Azovskiyrayon"}},
{"type":"Feature","geometry":{"type":"Polygon","coordinates":[[[40.0203,47.1388],[40.1617,47.1107],[40.3102,47.1161],[40.4782,47.049],[40.5424,46.9707],[40.5387,47.1108],[40.4159,47.2333],[40.5569,47.3397],[40.7081,47.3739],[40.5973,47.4511],[40.409,47.4176],[40.1271,47.3101],[40.01,47.3194],[40.0203,47.1388]]]},"properties":{"GID_0":"RUS","GID_1":"RUS.58_1","GID_2":"RUS.58.4_1","NAME_1":"Rostov","NAME_2":"Bagaevskiyrayon"}},
{"type":"Feature","geometry":{"type":"Polygon","coordinates":[[[39.8378,47.0817],[39.8065,47.1917],[39.7487,47.1331],[39.8378,47.0817]]]},"properties":{"GID_0":"RUS","GID_1":"RUS.58_1","GID_2":"RUS.58.5_1","NAME_1":"Rostov","NAME_2":"Bataysk"}},
{"type":"Feature","geometry":{"type":"Polygon","coordinates":[[[40.7563,48.1744],[40.7268,48.1184],[40.7913,48.1026],[40.7563,48.1744]]]},"properties":{"GID_0":"RUS","GID_1":"RUS.58_1","GID_2":"RUS.58.6_1","NAME_1":"Rostov","NAME_2":"BelayaKalitva"}},
{"type":"Feature","geometry":{"type":"Polygon","coordinates":[[[40.5747,48.2273],[40.5506,48.1778],[40.5716,47.8989],[40.6136,47.8972],[40.8063,47.851],[40.8376,47.9091],[41.0285,47.9774],[41.156,48.023],[41.013,48.2074],[41.1128,48.4577],[41.3093,48.5899],[41.2626,48.6969],[41.0284,48.565],[40.8444,48.5686],[40.8361,48.5192],[40.6231,48.37],[40.5747,48.2273]],[[40.7563,48.1744],[40.7913,48.1026],[40.7268,48.1184],[40.7563,48.1744]]]},"properties":{"GID_0":"RUS","GID_1":"RUS.58_1","GID_2":"RUS.58.7_1","NAME_1":"Rostov","NAME_2":"Belokalitvinskiyrayon"}},
{"type":"Feature","geometry":{"type":"Polygon","coordinates":[[[41.9489,49.0564],[42.1939,48.9944],[42.2822,49.1779],[42.0975,49.1604],[42.1324,49.2958],[42.0985,49.4503],[41.9363,49.3274],[41.8434,49.4016],[41.7021,49.4164],[41.6306,49.5001],[41.3819,49.5181],[41.2893,49.3959],[41.4926,49.2316],[41.9489,49.0564]]]},"properties":{"GID_0":"RUS","GID_1":"RUS.58_1","GID_2":"RUS.58.8_1","NAME_1":"Rostov","NAME_2":"Bokovskiyrayon"}},
{"type":"Feature","geometry":{"type":"Polygon","coordinates":[[[41.249,49.3658],[40.9121,49.4936],[40.7195,49.6326],[40.589,49.581],[40.2822,49.6242],[40.1633,49.4581],[40.1996,49.2431],[40.1213,49.2261],[40.2784,49.1433],[40.4844,49.284],[40.6409,49.2334],[40.8902,49.2127],[40.9601,49.2775],[40.9875,49.3431],[41.1894,49.2941],[41.249,49.3658]]]},"properties":{"GID_0":"RUS","GID_1":"RUS.58_1","GID_2":"RUS.58.9_1","NAME_1":"Rostov","NAME_2":"Chertkovskiyrayon"}},
{"type":"Feature","geometry":{"type":"Polygon","coordinates":[[[39.938,48.3601],[40.0075,48.2737],[40.1166,48.322],[39.938,48.3601]]]},"properties":{"GID_0":"RUS","GID_1":"RUS.58_1","GID_2":"RUS.58.10_1","NAME_1":"Rostov","NAME_2":"Donetsk"}},
{"type":"Feature","geometry":{"type":"Polygon","coordinates":[[[42.3374,47.4961],[42.4109,47.3807],[42.6474,47.336],[42.8143,47.1799],[43.0305,47.147],[43.0468,47.2052],[43.2486,47.2007],[43.2838,47.1426],[43.2666,46.931],[43.1001,46.8286],[43.414,46.786],[43.5566,46.9226],[43.4931,47.3118],[43.5061,47.4256],[43.2702,47.4097],[43.1481,47.5421],[43.0115,47.4841],[42.7642,47.7624],[42.5728,47.6472],[42.2686,47.5665],[42.3374,47.4961]]]},"properties":{"GID_0":"RUS","GID_1":"RUS.58_1","GID_2":"RUS.58.11_1","NAME_1":"Rostov","NAME_2":"Dubovskiyrayon"}},
{"type":"Feature","geometry":{"type":"Polygon","coordinates":[[[40.6591,46.298],[40.6125,46.433],[40.7426,46.5609],[40.7261,46.6367],[40.7085,46.6512],[40.5765,46.7318],[40.3544,46.7692],[40.3097,46.6698],[40.3192,46.4912],[40.2189,46.4581],[40.1912,46.3769],[40.2829,46.2982],[40.6591,46.298]]]},"properties":{"GID_0":"RUS","GID_1":"RUS.58_1","GID_2":"RUS.58.12_1","NAME_1":"Rostov","NAME_2":"Egorlykskiyrayon"}},
{"type":"Feature","geometry":{"type":"Polygon","coordinates":[[[39.9882,48.0226],[39.9378,48.0908],[39.8866,48.0223],[39.9882,48.0226]]]},"properties":{"GID_0":"RUS","GID_1":"RUS.58_1","GID_2":"RUS.58.13_1","NAME_1":"Rostov","NAME_2":"Gukovo"}},
{"type":"Feature","geometry":{"type":"Polygon","coordinates":[[[40.0236,46.7434],[40.1377,46.9378],[40.2791,47.0041],[40.1617,47.1107],[40.0203,47.1388],[39.8227,47.0586],[39.6543,47.1739],[39.5863,47.1517],[39.6708,46.9888],[39.7764,46.9176],[39.7633,46.8215],[39.927,46.8053],[40.0236,46.7434]]]},"properties":{"GID_0":"RUS","GID_1":"RUS.58_1","GID_2":"RUS.58.14_1","NAME_1":"Rostov","NAME_2":"Kagal'nitskiyrayon"}},
{"type":"Feature","geometry":{"type":"Polygon","coordinates":[[[40.2625,48.2066],[40.1544,48.2601],[40.2276,48.1911],[40.2625,48.2066]]]},"properties":{"GID_0":"RUS","GID_1":"RUS.58_1","GID_2":"RUS.58.15_1","NAME_1":"Rostov","NAME_2":"Kamensk-Shakhtinskiy"}},
{"type":"Feature","geometry":{"type":"Polygon","coordinates":[[[40.8444,48.5686],[40.7215,48.5656],[40.5379,48.6508],[40.2321,48.6482],[40.1257,48.5626],[39.98,48.5573],[39.8721,48.4609],[39.938,48.3601],[40.1166,48.322],[40.0075,48.2737],[39.9068,48.147],[40.0544,48.1496],[40.1711,48.1988],[40.2132,48.2047],[40.1544,48.2601],[40.2625,48.2066],[40.5747,48.2273],[40.6231,48.37],[40.8361,48.5192],[40.8444,48.5686]]]},"properties":{"GID_0":"RUS","GID_1":"RUS.58_1","GID_2":"RUS.58.16_1","NAME_1":"Rostov","NAME_2":"Kamenskiyrayon"}},
{"type":"Feature","geometry":{"type":"Polygon","coordinates":[[[41.2893,49.3959],[41.249,49.3658],[41.1894,49.2941],[40.9875,49.3431],[40.9601,49.2775],[40.9244,49.2432],[40.9768,49.1244],[40.8885,48.9605],[41.0479,48.8819],[40.9941,48.8002],[41.2626,48.6969],[41.5368,48.9582],[41.6531,48.9556],[41.8086,49.0352],[41.9065,48.9801],[41.9178,48.9917],[41.9489,49.0564],[41.4926,49.2316],[41.2893,49.3959]]]},"properties":{"GID_0":"RUS","GID_1":"RUS.58_1","GID_2":"RUS.58.17_1","NAME_1":"Rostov","NAME_2":"Kasharskiyrayon"}},
{"type":"Feature","geometry":{"type":"Polygon","coordinates":[[[41.0285,47.9774],[40.9845,47.8359],[41.0643,47.7607],[40.894,47.6329],[41.2655,47.5911],[41.7709,47.6211],[41.7656,47.6975],[41.6341,47.7709],[41.6753,47.8827],[41.5415,47.9244],[41.5295,48.0535],[41.4171,47.9285],[41.1952,47.8474],[41.2289,47.9659],[41.156,48.023],[41.0285,47.9774]]]},"properties":{"GID_0":"RUS","GID_1":"RUS.58_1","GID_2":"RUS.58.18_1","NAME_1":"Rostov","NAME_2":"Konstantinovskiyrayon"}},
{"type":"Feature","geometry":{"type":"Polygon","coordinates":[[[40.5747,48.2273],[40.2625,48.2066],[40.2276,48.1911],[40.2132,48.2047],[40.1711,48.1988],[40.0544,48.1496],[39.9068,48.147],[39.8185,48.0079],[39.8167,47.8831],[39.7251,47.8299],[39.7542,47.753],[39.9702,47.7744],[40.0701,47.7258],[40.113,47.7465],[40.0751,47.7254],[40.0889,47.7242],[40.1246,47.7411],[40.169,47.774],[40.3002,47.8461],[40.4073,47.8957],[40.5716,47.8989],[40.5506,48.1778],[40.5747,48.2273]],[[39.9882,48.0226],[39.8866,48.0223],[39.9378,48.0908],[39.9882,48.0226]],[[40.1242,48.0035],[40.1108,48.0119],[40.1276,48.0163],[40.1242,48.0035]]]},"properties":{"GID_0":"RUS","GID_1":"RUS.58_1","GID_2":"RUS.58.19_1","NAME_1":"Rostov","NAME_2":"Krasnosulinskiyrayon"}},
{"type":"Feature","geometry":{"type":"Polygon","coordinates":[[[40.0701,47.7258],[40.0712,47.7232],[40.113,47.7465],[40.0701,47.7258]]]},"properties":{"GID_0":"RUS","GID_1":"RUS.58_1","GID_2":"RUS.58.20_1","NAME_1":"Rostov","NAME_2":"KrasnyySulin"}},
{"type":"Feature","geometry":{"type":"Polygon","coordinates":[[[39.0853,47.6142],[39.3403,47.7397],[39.309,47.8629],[39.1262,47.8397],[38.8394,47.8542],[38.7876,47.7404],[38.9488,47.7233],[39.0853,47.6142]]]},"properties":{"GID_0":"RUS","GID_1":"RUS.58_1","GID_2":"RUS.58.21_1","NAME_1":"Rostov","NAME_2":"Kuybyshevskiyrayon"}},
{"type":"Feature","geometry":{"type":"Polygon","coordinates":[[[41.8753,47.1752],[41.9302,47.2737],[42.0904,47.3241],[41.8928,47.3186],[41.7682,47.4366],[41.4973,47.4004],[41.3216,47.4437],[41.0987,47.47],[40.9934,47.2352],[41.1387,47.1622],[41.2668,47.1842],[41.4024,47.129],[41.6606,47.1501],[41.8753,47.1752]]]},"properties":{"GID_0":"RUS","GID_1":"RUS.58_1","GID_2":"RUS.58.22_1","NAME_1":"Rostov","NAME_2":"Martynovskiyrayon"}},
{"type":"Feature","geometry":{"type":"Polygon","coordinates":[[[38.7876,47.7404],[38.6143,47.6387],[38.3716,47.6111],[38.2905,47.5202],[38.3099,47.4349],[38.5736,47.4144],[38.6695,47.4905],[38.9177,47.4836],[39.0336,47.5165],[39.0593,47.5409],[39.1082,47.5479],[39.1213,47.5566],[39.1718,47.5773],[39.1419,47.5885],[39.0853,47.6142],[38.9488,47.7233],[38.7876,47.7404]]]},"properties":{"GID_0":"RUS","GID_1":"RUS.58_1","GID_2":"RUS.58.23_1","NAME_1":"Rostov","NAME_2":"Matveevo-Kurganskiyrayon"}},
{"type":"Feature","geometry":{"type":"Polygon","coordinates":[[[40.4215,48.952],[40.3151,48.8917],[40.5077,48.8659],[40.4215,48.952]]]},"properties":{"GID_0":"RUS","GID_1":"RUS.58_1","GID_2":"RUS.58.24_1","NAME_1":"Rostov","NAME_2":"Millerovo"}},
{"type":"Feature","geometry":{"type":"Polygon","coordinates":[[[40.1213,49.2261],[39.8147,49.0705],[39.7484,48.9927],[40.0469,48.841],[40.2364,48.8659],[40.4887,48.7741],[40.5826,48.812],[40.7262,48.7721],[40.8809,48.853],[40.9941,48.8002],[41.0479,48.8819],[40.8885,48.9605],[40.9768,49.1244],[40.9244,49.2432],[40.8902,49.2127],[40.6409,49.2334],[40.4844,49.284],[40.2784,49.1433],[40.1213,49.2261]],[[40.4215,48.952],[40.5077,48.8659],[40.3151,48.8917],[40.4215,48.952]]]},"properties":{"GID_0":"RUS","GID_1":"RUS.58_1","GID_2":"RUS.58.25_1","NAME_1":"Rostov","NAME_2":"Millerovskiyrayon"}},
{"type":"Feature","geometry":{"type":"Polygon","coordinates":[[[41.3093,48.5899],[41.5413,48.5272],[41.7642,48.5142],[41.9978,48.5695],[41.9902,48.7028],[41.9232,48.7245],[41.9123,48.986],[41.9065,48.9801],[41.8086,49.0352],[41.6531,48.9556],[41.5368,48.9582],[41.2626,48.6969],[41.3093,48.5899]]]},"properties":{"GID_0":"RUS","GID_1":"RUS.58_1","GID_2":"RUS.58.26_1","NAME_1":"Rostov","NAME_2":"Milyutinskiyrayon"}},
{"type":"Feature","geometry":{"type":"Polygon","coordinates":[[[41.6753,47.8827],[41.7966,47.829],[41.9543,47.8418],[42.044,48.0307],[42.1441,48.3002],[42.0851,48.4187],[42.1665,48.4634],[41.9978,48.5695],[41.7642,48.5142],[41.5413,48.5272],[41.5053,48.2602],[41.5865,48.1421],[41.5295,48.0535],[41.5415,47.9244],[41.6753,47.8827]]]},"properties":{"GID_0":"RUS","GID_1":"RUS.58_1","GID_2":"RUS.58.27_1","NAME_1":"Rostov","NAME_2":"Morozovskiyrayon"}},
{"type":"Feature","geometry":{"type":"Polygon","coordinates":[[[39.6414,47.456],[39.3276,47.5281],[39.2169,47.5008],[39.1613,47.3676],[39.2634,47.2577],[39.4091,47.1934],[39.647,47.3374],[39.6414,47.456]]]},"properties":{"GID_0":"RUS","GID_1":"RUS.58_1","GID_2":"RUS.58.28_1","NAME_1":"Rostov","NAME_2":"Myasnikovskiyrayon"}},
{"type":"Feature","geometry":{"type":"Polygon","coordinates":[[[38.3099,47.4349],[38.3342,47.253],[38.2346,47.1201],[38.4757,47.1432],[38.5649,47.1149],[38.8857,47.1971],[38.944,47.2607],[39.1974,47.2849],[39.2574,47.2499],[39.2634,47.2577],[39.1613,47.3676],[39.2169,47.5008],[39.3276,47.5281],[39.2622,47.5413],[39.1718,47.5773],[39.1213,47.5566],[39.1082,47.5479],[39.0593,47.5409],[39.0336,47.5165],[38.9177,47.4836],[38.6695,47.4905],[38.5736,47.4144],[38.3099,47.4349]],[[38.8396,47.2189],[38.8039,47.3208],[38.9286,47.2875],[38.8396,47.2189]]]},"properties":{"GID_0":"RUS","GID_1":"RUS.58_1","GID_2":"RUS.58.29_1","NAME_1":"Rostov","NAME_2":"Neklinovskiyrayon"}},
{"type":"Feature","geometry":{"type":"Polygon","coordinates":[[[40.1466,47.432],[40.0398,47.4707],[40.0372,47.383],[40.1296,47.3364],[40.1466,47.432]]]},"properties":{"GID_0":"RUS","GID_1":"RUS.58_1","GID_2":"RUS.58.30_1","NAME_1":"Rostov","NAME_2":"Novocherkassk"}},
{"type":"Feature","geometry":{"type":"Polygon","coordinates":[[[39.9335,47.7636],[39.915,47.6145],[40.0752,47.5966],[39.9335,47.7636]]]},"properties":{"GID_0":"RUS","GID_1":"RUS.58_1","GID_2":"RUS.58.31_1","NAME_1":"Rostov","NAME_2":"Novoshakhtinsk"}},
{"type":"Feature","geometry":{"type":"Polygon","coordinates":[[[41.9978,48.5695],[42.1665,48.4634],[42.2845,48.5127],[42.6102,48.5619],[42.7819,48.7965],[42.7774,48.8819],[42.0626,48.7206],[41.9842,48.7046],[41.9902,48.7028],[41.9978,48.5695]]]},"properties":{"GID_0":"RUS","GID_1":"RUS.58_1","GID_2":"RUS.58.32_1","NAME_1":"Rostov","NAME_2":"Oblivskiyrayon"}},
{"type":"Feature","geometry":{"type":"Polygon","coordinates":[[[40.01,47.3194],[40.1271,47.3101],[40.409,47.4176],[40.3482,47.5419],[40.4708,47.5547],[40.6317,47.7278],[40.6136,47.8972],[40.5716,47.8989],[40.4073,47.8957],[40.3002,47.8461],[40.169,47.774],[40.1246,47.7411],[40.0889,47.7242],[40.0751,47.7254],[40.0712,47.7232],[40.0701,47.7258],[39.9702,47.7744],[39.7542,47.753],[39.8902,47.6591],[39.8469,47.5934],[39.853,47.5567],[39.9899,47.4291],[40.01,47.3194]],[[40.1466,47.432],[40.1296,47.3364],[40.0372,47.383],[40.0398,47.4707],[40.1466,47.432]],[[39.9335,47.7636],[40.0752,47.5966],[39.915,47.6145],[39.9335,47.7636]],[[40.3116,47.6368],[40.175,47.6728],[40.2151,47.7512],[40.3416,47.69],[40.3116,47.6368]]]},"properties":{"GID_0":"RUS","GID_1":"RUS.58_1","GID_2":"RUS.58.33_1","NAME_1":"Rostov","NAME_2":"Oktyabr'skiy"}},
{"type":"Feature","geometry":{"type":"Polygon","coordinates":[[[42.9901,46.3959],[43.0079,46.5414],[42.7556,46.6497],[42.5167,46.794],[42.4411,46.7729],[42.237,47.1427],[42.0766,47.0954],[41.8753,47.1752],[41.6606,47.1501],[41.7749,46.9451],[41.716,46.8586],[41.9095,46.7194],[42.1137,46.733],[42.3656,46.6156],[42.4516,46.4728],[42.5602,46.3959],[42.7475,46.3427],[42.9901,46.3959]]]},"properties":{"GID_0":"RUS","GID_1":"RUS.58_1","GID_2":"RUS.58.34_1","NAME_1":"Rostov","NAME_2":"Orlovskiyrayon"}},
{"type":"Feature","geometry":{"type":"Polygon","coordinates":[[[41.6634,46.1544],[41.4781,46.188],[41.5497,46.3669],[41.3526,46.373],[41.1767,46.417],[41.1444,46.4451],[41.081,46.4481],[41.0865,46.4248],[40.9504,46.2923],[40.9781,46.1625],[41.0875,46.1116],[41.1828,45.9848],[41.4019,45.9523],[41.4674,46.0182],[41.7227,46.0101],[41.6634,46.1544]]]},"properties":{"GID_0":"RUS","GID_1":"RUS.58_1","GID_2":"RUS.58.35_1","NAME_1":"Rostov","NAME_2":"Peschanokopskiyrayon"}},
{"type":"Feature","geometry":{"type":"Polygon","coordinates":[[[42.4516,46.4728],[42.3656,46.6156],[42.1137,46.733],[41.9095,46.7194],[41.716,46.8586],[41.7749,46.9451],[41.6606,47.1501],[41.4024,47.129],[41.2668,47.1842],[41.1387,47.1622],[40.9934,47.2352],[40.8585,47.198],[40.8693,47.1297],[41.0826,47.0775],[41.1764,47.0416],[41.3878,46.8524],[41.4242,46.7704],[41.5841,46.6705],[42.0985,46.5754],[42.4516,46.4728]]]},"properties":{"GID_0":"RUS","GID_1":"RUS.58_1","GID_2":"RUS.58.36_1","NAME_1":"Rostov","NAME_2":"Proletarskiyrayon"}},
{"type":"Feature","geometry":{"type":"Polygon","coordinates":[[[42.9901,46.3959],[43.3434,46.178],[43.5757,46.1425],[43.8573,46.3553],[43.96,46.5493],[43.8437,46.5782],[43.949,46.6928],[43.8166,46.7339],[43.5572,46.7458],[43.3656,46.7244],[43.3608,46.7049],[43.3397,46.5582],[43.0079,46.5414],[42.9901,46.3959]]]},"properties":{"GID_0":"RUS","GID_1":"RUS.58_1","GID_2":"RUS.58.37_1","NAME_1":"Rostov","NAME_2":"Remontnenskiyrayon"}},
{"type":"Feature","geometry":{"type":"Polygon","coordinates":[[[39.8512,47.5698],[39.8469,47.5934],[39.8902,47.6591],[39.7542,47.753],[39.7251,47.8299],[39.309,47.8629],[39.3403,47.7397],[39.0853,47.6142],[39.1419,47.5885],[39.2622,47.5413],[39.3276,47.5281],[39.6414,47.456],[39.8303,47.4412],[39.8053,47.5401],[39.8512,47.5698]]]},"properties":{"GID_0":"RUS","GID_1":"RUS.58_1","GID_2":"RUS.58.38_1","NAME_1":"Rostov","NAME_2":"Rodionovo-Nesvetayskiyrayon"}},
{"type":"Feature","geometry":{"type":"Polygon","coordinates":[[[39.647,47.3374],[39.4091,47.1934],[39.5863,47.1517],[39.6543,47.1739],[39.647,47.3374]]]},"properties":{"GID_0":"RUS","GID_1":"RUS.58_1","GID_2":"RUS.58.39_1","NAME_1":"Rostov","NAME_2":"Rostov-na-Donugorod"}},
{"type":"Feature","geometry":{"type":"Polygon","coordinates":[[[41.6197,46.4684],[41.5682,46.495],[41.5047,46.4382],[41.5843,46.4148],[41.6197,46.4684]]]},"properties":{"GID_0":"RUS","GID_1":"RUS.58_1","GID_2":"RUS.58.40_1","NAME_1":"Rostov","NAME_2":"Sal'sk"}},
{"type":"Feature","geometry":{"type":"Polygon","coordinates":[[[41.6634,46.1544],[41.7833,46.2119],[41.9835,46.2215],[41.9715,46.3131],[42.238,46.3604],[42.121,46.479],[42.0985,46.5754],[41.5841,46.6705],[41.4242,46.7704],[41.3878,46.8524],[41.1764,47.0416],[41.1393,47.0563],[41.1395,47.0119],[41.129,46.9774],[41.0921,46.9629],[41.103,46.9068],[41.2503,46.7878],[41.1448,46.6486],[41.0754,46.4724],[41.081,46.4481],[41.1444,46.4451],[41.1767,46.417],[41.3526,46.373],[41.5497,46.3669],[41.4781,46.188],[41.6634,46.1544]],[[41.6197,46.4684],[41.5843,46.4148],[41.5047,46.4382],[41.5682,46.495],[41.6197,46.4684]]]},"properties":{"GID_0":"RUS","GID_1":"RUS.58_1","GID_2":"RUS.58.41_1","NAME_1":"Rostov","NAME_2":"Sal'skiyrayon"}},
{"type":"Feature","geometry":{"type":"Polygon","coordinates":[[[40.7081,47.3739],[40.8585,47.198],[40.9934,47.2352],[41.0987,47.47],[41.3216,47.4437],[41.2655,47.5911],[40.894,47.6329],[40.7378,47.6464],[40.607,47.5228],[40.5973,47.4511],[40.7081,47.3739]]]},"properties":{"GID_0":"RUS","GID_1":"RUS.58_1","GID_2":"RUS.58.42_1","NAME_1":"Rostov","NAME_2":"Semikarakorskiyrayon"}},
{"type":"Feature","geometry":{"type":"Polygon","coordinates":[[[40.3116,47.6368],[40.3416,47.69],[40.2151,47.7512],[40.175,47.6728],[40.3116,47.6368]]]},"properties":{"GID_0":"RUS","GID_1":"RUS.58_1","GID_2":"RUS.58.43_1","NAME_1":"Rostov","NAME_2":"Shakhty"}},
{"type":"Feature","geometry":{"type":"Polygon","coordinates":[[[42.0985,49.4503],[42.22,49.6594],[42.2024,49.7385],[41.9683,49.8574],[41.6602,49.9716],[41.5256,49.8287],[41.4642,49.6684],[41.3794,49.6289],[41.3819,49.5181],[41.6306,49.5001],[41.7021,49.4164],[41.8434,49.4016],[41.9363,49.3274],[42.0985,49.4503]]]},"properties":{"GID_0":"RUS","GID_1":"RUS.58_1","GID_2":"RUS.58.44_1","NAME_1":"Rostov","NAME_2":"Sholokhovskiyrayon"}},
{"type":"Feature","geometry":{"type":"Polygon","coordinates":[[[41.9489,49.0564],[41.9178,48.9917],[41.9123,48.986],[41.9232,48.7245],[41.9842,48.7046],[42.0626,48.7206],[42.7774,48.8819],[42.4486,49.118],[42.2822,49.1779],[42.1939,48.9944],[41.9489,49.0564]]]},"properties":{"GID_0":"RUS","GID_1":"RUS.58_1","GID_2":"RUS.58.45_1","NAME_1":"Rostov","NAME_2":"Sovetskiyrayon"}},
{"type":"Feature","geometry":{"type":"Polygon","coordinates":[[[38.8039,47.3208],[38.8396,47.2189],[38.9286,47.2875],[38.8039,47.3208]]]},"properties":{"GID_0":"RUS","GID_1":"RUS.58_1","GID_2":"RUS.58.46_1","NAME_1":"Rostov","NAME_2":"Taganrog"}},
{"type":"Feature","geometry":{"type":"Polygon","coordinates":[[[41.2626,48.6969],[40.9941,48.8002],[40.8809,48.853],[40.7262,48.7721],[40.5826,48.812],[40.4887,48.7741],[40.2364,48.8659],[40.0469,48.841],[39.991,48.8012],[39.797,48.85],[39.6887,48.5909],[39.8501,48.5708],[39.8721,48.4609],[39.98,48.5573],[40.1257,48.5626],[40.2321,48.6482],[40.5379,48.6508],[40.7215,48.5656],[40.8444,48.5686],[41.0284,48.565],[41.2626,48.6969]]]},"properties":{"GID_0":"RUS","GID_1":"RUS.58_1","GID_2":"RUS.58.47_1","NAME_1":"Rostov","NAME_2":"Tarasovskiyrayon"}},
{"type":"Feature","geometry":{"type":"Polygon","coordinates":[[[41.156,48.023],[41.2289,47.9659],[41.1952,47.8474],[41.4171,47.9285],[41.5295,48.0535],[41.5865,48.1421],[41.5053,48.2602],[41.5413,48.5272],[41.3093,48.5899],[41.1128,48.4577],[41.013,48.2074],[41.156,48.023]]]},"properties":{"GID_0":"RUS","GID_1":"RUS.58_1","GID_2":"RUS.58.48_1","NAME_1":"Rostov","NAME_2":"Tatsinskiyrayon"}},
{"type":"Feature","geometry":{"type":"Polygon","coordinates":[[[40.9504,46.2923],[41.0865,46.4248],[41.0754,46.4724],[41.1448,46.6486],[41.2503,46.7878],[41.103,46.9068],[40.7613,46.8759],[40.8211,46.8009],[40.6852,46.6709],[40.7261,46.6367],[40.7426,46.5609],[40.6125,46.433],[40.6591,46.298],[40.7636,46.2434],[40.9504,46.2923]]]},"properties":{"GID_0":"RUS","GID_1":"RUS.58_1","GID_2":"RUS.58.49_1","NAME_1":"Rostov","NAME_2":"Tselinskiyrayon"}},
{"type":"Feature","geometry":{"type":"Polygon","coordinates":[[[41.7709,47.6211],[42.1254,47.6083],[42.4387,47.9287],[42.5031,47.8365],[42.7062,47.8319],[42.5137,47.9848],[42.3821,48.0202],[42.044,48.0307],[41.9543,47.8418],[41.7966,47.829],[41.6753,47.8827],[41.6341,47.7709],[41.7656,47.6975],[41.7709,47.6211]]]},"properties":{"GID_0":"RUS","GID_1":"RUS.58_1","GID_2":"RUS.58.50_1","NAME_1":"Rostov","NAME_2":"Tsimlyanskiyrayon"}},
{"type":"Feature","geometry":{"type":"Polygon","coordinates":[[[40.5973,47.4511],[40.607,47.5228],[40.7378,47.6464],[40.894,47.6329],[41.0643,47.7607],[40.9845,47.8359],[41.0285,47.9774],[40.8376,47.9091],[40.8063,47.851],[40.6136,47.8972],[40.6317,47.7278],[40.4708,47.5547],[40.3482,47.5419],[40.409,47.4176],[40.5973,47.4511]]]},"properties":{"GID_0":"RUS","GID_1":"RUS.58_1","GID_2":"RUS.58.51_1","NAME_1":"Rostov","NAME_2":"Ust'-Donetskiyrayon"}},
{"type":"Feature","geometry":{"type":"Polygon","coordinates":[[[41.3819,49.5181],[41.3794,49.6289],[41.4642,49.6684],[41.5256,49.8287],[41.6602,49.9716],[41.5199,50.16],[41.3015,49.9952],[41.1288,49.903],[40.9813,49.6805],[40.7195,49.6326],[40.9121,49.4936],[41.249,49.3658],[41.2893,49.3959],[41.3819,49.5181]]]},"properties":{"GID_0":"RUS","GID_1":"RUS.58_1","GID_2":"RUS.58.52_1","NAME_1":"Rostov","NAME_2":"Verkhnedonskoyrayon"}},
{"type":"Feature","geometry":{"type":"Polygon","coordinates":[[[40.5424,46.9707],[40.6437,47.0285],[41.0921,46.9629],[41.129,46.9774],[41.1395,47.0119],[41.1393,47.0563],[41.0826,47.0775],[40.8693,47.1297],[40.8585,47.198],[40.7081,47.3739],[40.5569,47.3397],[40.4159,47.2333],[40.5387,47.1108],[40.5424,46.9707]]]},"properties":{"GID_0":"RUS","GID_1":"RUS.58_1","GID_2":"RUS.58.53_1","NAME_1":"Rostov","NAME_2":"Veselovskiyrayon"}},
{"type":"Feature","geometry":{"type":"Polygon","coordinates":[[[42.146,47.5073],[42.1398,47.5299],[42.1174,47.5222],[42.146,47.5073]]]},"properties":{"GID_0":"RUS","GID_1":"RUS.58_1","GID_2":"RUS.58.54_1","NAME_1":"Rostov","NAME_2":"Volgodonsk"}},
{"type":"Feature","geometry":{"type":"Polygon","coordinates":[[[42.2686,47.5665],[42.1254,47.6083],[41.7709,47.6211],[41.2655,47.5911],[41.3216,47.4437],[41.4973,47.4004],[41.7682,47.4366],[41.8928,47.3186],[42.0904,47.3241],[42.1396,47.332],[42.182,47.3836],[42.3374,47.4961],[42.2686,47.5665]],[[42.146,47.5073],[42.1174,47.5222],[42.1398,47.5299],[42.146,47.5073]]]},"properties":{"GID_0":"RUS","GID_1":"RUS.58_1","GID_2":"RUS.58.55_1","NAME_1":"Rostov","NAME_2":"Volgodonskiyrayon"}},
{"type":"Feature","geometry":{"type":"Polygon","coordinates":[[[42.7642,47.7624],[42.7062,47.8319],[42.5031,47.8365],[42.4387,47.9287],[42.1254,47.6083],[42.2686,47.5665],[42.5728,47.6472],[42.7642,47.7624]]]},"properties":{"GID_0":"RUS","GID_1":"RUS.58_1","GID_2":"RUS.58.56_1","NAME_1":"Rostov","NAME_2":"Waterbody"}},
{"type":"Feature","geometry":{"type":"Polygon","coordinates":[[[43.949,46.6928],[44.1091,46.8268],[44.2837,46.8957],[44.3832,47.3451],[44.3732,47.4434],[44.0357,47.4109],[43.9606,47.3321],[43.8247,47.3093],[43.7313,47.4698],[43.5061,47.4256],[43.4931,47.3118],[43.5566,46.9226],[43.414,46.786],[43.3721,46.7509],[43.3656,46.7244],[43.5572,46.7458],[43.8166,46.7339],[43.949,46.6928]]]},"properties":{"GID_0":"RUS","GID_1":"RUS.58_1","GID_2":"RUS.58.57_1","NAME_1":"Rostov","NAME_2":"Zavetinskiyrayon"}},
{"type":"Feature","geometry":{"type":"Polygon","coordinates":[[[40.2189,46.4581],[40.3192,46.4912],[40.3097,46.6698],[40.3544,46.7692],[40.5765,46.7318],[40.7085,46.6512],[40.6852,46.6709],[40.8211,46.8009],[40.7613,46.8759],[41.103,46.9068],[41.0921,46.9629],[40.6437,47.0285],[40.5424,46.9707],[40.4782,47.049],[40.3102,47.1161],[40.1617,47.1107],[40.2791,47.0041],[40.1377,46.9378],[40.0236,46.7434],[39.9572,46.5875],[40.1663,46.5233],[40.2189,46.4581]]]},"properties":{"GID_0":"RUS","GID_1":"RUS.58_1","GID_2":"RUS.58.58_1","NAME_1":"Rostov","NAME_2":"Zernogradskiyrayon"}},
{"type":"Feature","geometry":{"type":"Polygon","coordinates":[[[42.3374,47.4961],[42.182,47.3836],[42.1396,47.332],[42.0904,47.3241],[41.9302,47.2737],[41.8753,47.1752],[42.0766,47.0954],[42.237,47.1427],[42.4411,46.7729],[42.5167,46.794],[42.7556,46.6497],[43.0079,46.5414],[43.3397,46.5582],[43.3608,46.7049],[43.3721,46.7509],[43.414,46.786],[43.1001,46.8286],[43.2666,46.931],[43.2838,47.1426],[43.2486,47.2007],[43.0468,47.2052],[43.0305,47.147],[42.8143,47.1799],[42.6474,47.336],[42.4109,47.3807],[42.3374,47.4961]]]},"properties":{"GID_0":"RUS","GID_1":"RUS.58_1","GID_2":"RUS.58.59_1","NAME_1":"Rostov","NAME_2":"Zimovnikovskiyrayon"}},
{"type":"Feature","geometry":{"type":"Polygon","coordinates":[[[40.1242,48.0035],[40.1276,48.0163],[40.1108,48.0119],[40.1242,48.0035]]]},"properties":{"GID_0":"RUS","GID_1":"RUS.58_1","GID_2":"RUS.58.60_1","NAME_1":"Rostov","NAME_2":"Zverevo"}}
]}