{"type":"FeatureCollection", "features": [
{"type":"Feature","geometry":{"type":"Polygon","coordinates":[[[86.0037,56.0917],[86.0041,56.0976],[85.9947,56.0943],[86.0037,56.0917]]]},"properties":{"GID_0":"RUS","GID_1":"RUS.27_1","GID_2":"RUS.27.1_1","NAME_1":"Kemerovo","NAME_2":"Anzhero-Sudzhensk"}},
{"type":"Feature","geometry":{"type":"Polygon","coordinates":[[[86.3322,54.4299],[86.3329,54.4388],[86.3114,54.4384],[86.3079,54.4307],[86.3322,54.4299]]]},"properties":{"GID_0":"RUS","GID_1":"RUS.27_1","GID_2":"RUS.27.2_1","NAME_1":"Kemerovo","NAME_2":"Belovo"}},
{"type":"Feature","geometry":{"type":"Polygon","coordinates":[[[87.3447,54.5732],[86.7207,54.5669],[86.5962,54.5571],[86.1733,54.4935],[86.1865,54.3632],[86.4048,54.3255],[86.5125,54.1888],[86.5436,54.1962],[86.8956,54.3262],[87.1252,54.3079],[87.4628,54.4049],[87.3447,54.5732]],[[86.3322,54.4299],[86.3079,54.4307],[86.3114,54.4384],[86.3329,54.4388],[86.3322,54.4299]]]},"properties":{"GID_0":"RUS","GID_1":"RUS.27_1","GID_2":"RUS.27.3_1","NAME_1":"Kemerovo","NAME_2":"Belovskiyrayon"}},
{"type":"Feature","geometry":{"type":"Polygon","coordinates":[[[86.2678,55.6501],[86.2788,55.6558],[86.2682,55.6633],[86.2506,55.654],[86.2678,55.6501]]]},"properties":{"GID_0":"RUS","GID_1":"RUS.27_1","GID_2":"RUS.27.4_1","NAME_1":"Kemerovo","NAME_2":"Berezovskiy"}},
{"type":"Feature","geometry":{"type":"Polygon","coordinates":[[[86.7898,55.3168],[87.0387,55.3942],[87.4541,55.4814],[88.007,55.6537],[88.2459,55.939],[88.2501,55.9725],[88.0782,56.0717],[87.643,56.106],[87.2253,55.9163],[87.0479,55.6],[86.8964,55.5999],[86.7898,55.3168]]]},"properties":{"GID_0":"RUS","GID_1":"RUS.27_1","GID_2":"RUS.27.5_1","NAME_1":"Kemerovo","NAME_2":"Chebulinskiyrayon"}},
{"type":"Feature","geometry":{"type":"Polygon","coordinates":[[[85.977,54.2805],[85.9722,54.2902],[85.9616,54.2882],[85.9639,54.2782],[85.977,54.2805]]]},"properties":{"GID_0":"RUS","GID_1":"RUS.27_1","GID_2":"RUS.27.6_1","NAME_1":"Kemerovo","NAME_2":"Gur'evsk"}},
{"type":"Feature","geometry":{"type":"Polygon","coordinates":[[[85.0385,54.6133],[85.3902,54.1964],[85.7623,54.1313],[85.9514,54.0095],[86.4669,54.177],[86.5125,54.1888],[86.4048,54.3255],[86.1865,54.3632],[86.0262,54.3291],[85.927,54.5285],[85.4514,54.4641],[85.2401,54.5984],[85.0385,54.6133]],[[85.977,54.2805],[85.9639,54.2782],[85.9616,54.2882],[85.9722,54.2902],[85.977,54.2805]]]},"properties":{"GID_0":"RUS","GID_1":"RUS.27_1","GID_2":"RUS.27.7_1","NAME_1":"Kemerovo","NAME_2":"Gur'evskiyrayon"}},
{"type":"Feature","geometry":{"type":"Polygon","coordinates":[[[87.2253,55.9163],[87.003,56.2299],[87.101,56.333],[87.0232,56.5358],[86.609,56.6141],[86.3677,56.5557],[86.6191,56.2277],[86.5589,55.9016],[86.6303,55.7718],[86.8964,55.5999],[87.0479,55.6],[87.2253,55.9163]]]},"properties":{"GID_0":"RUS","GID_1":"RUS.27_1","GID_2":"RUS.27.8_1","NAME_1":"Kemerovo","NAME_2":"Izhmorskiyrayon"}},
{"type":"Feature","geometry":{"type":"Polygon","coordinates":[[[86.0598,55.3877],[86.0673,55.4025],[86.0502,55.4063],[86.0382,55.3932],[86.0598,55.3877]]]},"properties":{"GID_0":"RUS","GID_1":"RUS.27_1","GID_2":"RUS.27.9_1","NAME_1":"Kemerovo","NAME_2":"Kemerovo"}},
{"type":"Feature","geometry":{"type":"Polygon","coordinates":[[[86.8964,55.5999],[86.6303,55.7718],[86.5589,55.9016],[86.1688,55.8219],[86.0651,55.8599],[85.6996,55.5961],[85.8158,55.4989],[85.843,55.2116],[86.0481,55.0262],[86.2801,55.0028],[86.5141,55.0826],[86.5735,55.2241],[86.7898,55.3168],[86.8964,55.5999]],[[86.2678,55.6501],[86.2506,55.654],[86.2682,55.6633],[86.2788,55.6558],[86.2678,55.6501]],[[86.0598,55.3877],[86.0382,55.3932],[86.0502,55.4063],[86.0673,55.4025],[86.0598,55.3877]]]},"properties":{"GID_0":"RUS","GID_1":"RUS.27_1","GID_2":"RUS.27.10_1","NAME_1":"Kemerovo","NAME_2":"Kemerovskiyrayon"}},
{"type":"Feature","geometry":{"type":"Polygon","coordinates":[[[86.6527,53.9752],[86.6488,53.9865],[86.6346,53.9841],[86.6382,53.9735],[86.6527,53.9752]]]},"properties":{"GID_0":"RUS","GID_1":"RUS.27_1","GID_2":"RUS.27.11_1","NAME_1":"Kemerovo","NAME_2":"Kiselevsk"}},
{"type":"Feature","geometry":{"type":"Polygon","coordinates":[[[87.3447,54.5732],[87.6593,54.7551],[87.8473,54.7244],[88.1488,54.8327],[88.0641,54.948],[87.7618,55.083],[87.5678,55.0709],[87.2322,55.1628],[87.1924,55.3178],[87.0387,55.3942],[86.7898,55.3168],[86.5735,55.2241],[86.5141,55.0826],[86.2801,55.0028],[86.0481,55.0262],[86.1413,54.8581],[86.4229,54.9437],[86.5147,54.6685],[86.7207,54.5669],[87.3447,54.5732]]]},"properties":{"GID_0":"RUS","GID_1":"RUS.27_1","GID_2":"RUS.27.12_1","NAME_1":"Kemerovo","NAME_2":"Krapivinskiyrayon"}},
{"type":"Feature","geometry":{"type":"Polygon","coordinates":[[[86.7207,54.5669],[86.5147,54.6685],[86.4229,54.9437],[86.1413,54.8581],[85.6939,54.7514],[85.2401,54.5984],[85.4514,54.4641],[85.927,54.5285],[86.0262,54.3291],[86.1865,54.3632],[86.1733,54.4935],[86.5962,54.5571],[86.7207,54.5669]]]},"properties":{"GID_0":"RUS","GID_1":"RUS.27_1","GID_2":"RUS.27.13_1","NAME_1":"Kemerovo","NAME_2":"Leninsk-Kuznetskiyrayon"}},
{"type":"Feature","geometry":{"type":"Polygon","coordinates":[[[87.7277,56.2409],[87.7269,56.2474],[87.7143,56.2454],[87.7136,56.2395],[87.7277,56.2409]]]},"properties":{"GID_0":"RUS","GID_1":"RUS.27_1","GID_2":"RUS.27.14_1","NAME_1":"Kemerovo","NAME_2":"Mariynsk"}},
{"type":"Feature","geometry":{"type":"Polygon","coordinates":[[[88.2501,55.9725],[88.3748,56.3369],[88.6241,56.4363],[88.4994,56.5546],[88.6726,56.643],[88.4108,56.8065],[87.8521,56.5828],[87.578,56.6448],[87.1759,56.6409],[87.0232,56.5358],[87.101,56.333],[87.003,56.2299],[87.2253,55.9163],[87.643,56.106],[88.0782,56.0717],[88.2501,55.9725]],[[87.7277,56.2409],[87.7136,56.2395],[87.7143,56.2454],[87.7269,56.2474],[87.7277,56.2409]]]},"properties":{"GID_0":"RUS","GID_1":"RUS.27_1","GID_2":"RUS.27.15_1","NAME_1":"Kemerovo","NAME_2":"Mariynskiyrayon"}},
{"type":"Feature","geometry":{"type":"Polygon","coordinates":[[[88.1145,53.6449],[88.1115,53.6716],[88.0643,53.6754],[88.05,53.6491],[88.1145,53.6449]]]},"properties":{"GID_0":"RUS","GID_1":"RUS.27_1","GID_2":"RUS.27.16_1","NAME_1":"Kemerovo","NAME_2":"Mezhdurechenski"}},
{"type":"Feature","geometry":{"type":"Polygon","coordinates":[[[87.1252,54.3079],[87.209,54.1719],[87.2048,54.1602],[87.6848,53.9154],[88.189,53.6633],[88.9743,53.6577],[89.2239,53.7723],[89.0639,54.0796],[89.2027,54.1734],[88.8518,54.3982],[88.5927,54.2847],[88.5637,54.6055],[88.4517,54.8007],[88.1488,54.8327],[87.8473,54.7244],[87.6593,54.7551],[87.3447,54.5732],[87.4628,54.4049],[87.1252,54.3079]]]},"properties":{"GID_0":"RUS","GID_1":"RUS.27_1","GID_2":"RUS.27.17_1","NAME_1":"Kemerovo","NAME_2":"Mezhdurechenskiyrayon"}},
{"type":"Feature","geometry":{"type":"Polygon","coordinates":[[[87.7834,53.7106],[87.7838,53.7128],[87.7777,53.7122],[87.7774,53.7106],[87.7834,53.7106]]]},"properties":{"GID_0":"RUS","GID_1":"RUS.27_1","GID_2":"RUS.27.18_1","NAME_1":"Kemerovo","NAME_2":"Myski"}},
{"type":"Feature","geometry":{"type":"Polygon","coordinates":[[[87.224,53.7282],[87.2268,53.7381],[87.2093,53.7383],[87.2075,53.7256],[87.224,53.7282]]]},"properties":{"GID_0":"RUS","GID_1":"RUS.27_1","GID_2":"RUS.27.19_1","NAME_1":"Kemerovo","NAME_2":"Novokuznetsk"}},
{"type":"Feature","geometry":{"type":"Polygon","coordinates":[[[86.4754,53.5527],[86.9041,53.4696],[86.6982,53.1614],[87.008,53.0068],[86.9469,52.851],[87.0825,52.696],[87.4158,52.6725],[87.4721,52.8128],[87.6462,52.8581],[87.7588,53.0207],[87.1344,53.1229],[87.2313,53.2741],[87.444,53.2502],[87.8163,53.3327],[88.0378,53.2433],[88.3661,53.2447],[88.4944,53.4683],[88.8203,53.4442],[88.9743,53.6577],[88.189,53.6633],[87.6848,53.9154],[87.2048,54.1602],[87.2015,54.1508],[86.966,53.9862],[87.0489,53.8483],[86.738,53.6152],[86.4754,53.5527]],[[88.1145,53.6449],[88.05,53.6491],[88.0643,53.6754],[88.1115,53.6716],[88.1145,53.6449]],[[87.7834,53.7106],[87.7774,53.7106],[87.7777,53.7122],[87.7838,53.7128],[87.7834,53.7106]],[[87.224,53.7282],[87.2075,53.7256],[87.2093,53.7383],[87.2268,53.7381],[87.224,53.7282]],[[87.3133,53.6057],[87.3074,53.6087],[87.3153,53.6111],[87.3188,53.6078],[87.3133,53.6057]],[[87.3928,53.6041],[87.387,53.6034],[87.3834,53.6066],[87.3913,53.609],[87.3928,53.6041]]]},"properties":{"GID_0":"RUS","GID_1":"RUS.27_1","GID_2":"RUS.27.20_1","NAME_1":"Kemerovo","NAME_2":"Novokuznetskiy"}},
{"type":"Feature","geometry":{"type":"Polygon","coordinates":[[[87.3133,53.6057],[87.3188,53.6078],[87.3153,53.6111],[87.3074,53.6087],[87.3133,53.6057]]]},"properties":{"GID_0":"RUS","GID_1":"RUS.27_1","GID_2":"RUS.27.21_1","NAME_1":"Kemerovo","NAME_2":"Osinniki"}},
{"type":"Feature","geometry":{"type":"Polygon","coordinates":[[[87.3928,53.6041],[87.3913,53.609],[87.3834,53.6066],[87.387,53.6034],[87.3928,53.6041]]]},"properties":{"GID_0":"RUS","GID_1":"RUS.27_1","GID_2":"RUS.27.22_1","NAME_1":"Kemerovo","NAME_2":"Osinnikskiyrayon"}},
{"type":"Feature","geometry":{"type":"Polygon","coordinates":[[[86.7349,53.8525],[86.7465,53.8622],[86.7323,53.8635],[86.7349,53.8525]]]},"properties":{"GID_0":"RUS","GID_1":"RUS.27_1","GID_2":"RUS.27.23_1","NAME_1":"Kemerovo","NAME_2":"Prokop'evsk"}},
{"type":"Feature","geometry":{"type":"Polygon","coordinates":[[[86.4754,53.5527],[86.738,53.6152],[87.0489,53.8483],[86.966,53.9862],[87.2015,54.1508],[87.209,54.1719],[87.1252,54.3079],[86.8956,54.3262],[86.5436,54.1962],[86.4669,54.177],[85.9514,54.0095],[86.1098,53.9607],[86.356,53.6353],[86.4754,53.5527]],[[86.6527,53.9752],[86.6382,53.9735],[86.6346,53.9841],[86.6488,53.9865],[86.6527,53.9752]],[[86.7349,53.8525],[86.7323,53.8635],[86.7465,53.8622],[86.7349,53.8525]]]},"properties":{"GID_0":"RUS","GID_1":"RUS.27_1","GID_2":"RUS.27.24_1","NAME_1":"Kemerovo","NAME_2":"Prokop'evskiyrayon"}},
{"type":"Feature","geometry":{"type":"Polygon","coordinates":[[[85.2401,54.5984],[85.6939,54.7514],[86.1413,54.8581],[86.0481,55.0262],[85.1178,55.0293],[84.9302,55.1093],[84.8779,54.9856],[85.079,54.8001],[85.0385,54.6133],[85.2401,54.5984]]]},"properties":{"GID_0":"RUS","GID_1":"RUS.27_1","GID_2":"RUS.27.25_1","NAME_1":"Kemerovo","NAME_2":"Promyshlennovskiyrayon"}},
{"type":"Feature","geometry":{"type":"Polygon","coordinates":[[[87.8815,52.839],[87.879,52.8432],[87.8738,52.8404],[87.8815,52.839]]]},"properties":{"GID_0":"RUS","GID_1":"RUS.27_1","GID_2":"RUS.27.26_1","NAME_1":"Kemerovo","NAME_2":"Tashtagol"}},
{"type":"Feature","geometry":{"type":"Polygon","coordinates":[[[87.0825,52.696],[87.1155,52.5973],[87.6342,52.4294],[87.9173,52.5466],[88.166,52.4111],[88.3993,52.4165],[88.4223,52.1835],[88.7001,52.2752],[88.7183,52.3897],[89.0733,52.5765],[89.0166,52.6575],[89.1927,52.8441],[88.9109,53.0325],[89.031,53.2088],[88.8203,53.4442],[88.4944,53.4683],[88.3661,53.2447],[88.0378,53.2433],[87.8163,53.3327],[87.444,53.2502],[87.2313,53.2741],[87.1344,53.1229],[87.7588,53.0207],[87.6462,52.8581],[87.4721,52.8128],[87.4158,52.6725],[87.0825,52.696]],[[87.8815,52.839],[87.8738,52.8404],[87.879,52.8432],[87.8815,52.839]]]},"properties":{"GID_0":"RUS","GID_1":"RUS.27_1","GID_2":"RUS.27.27_1","NAME_1":"Kemerovo","NAME_2":"Tashtagol'skiyrayon"}},
{"type":"Feature","geometry":{"type":"Polygon","coordinates":[[[85.599,56.051],[85.5999,56.0555],[85.5935,56.0548],[85.5939,56.0504],[85.599,56.051]]]},"properties":{"GID_0":"RUS","GID_1":"RUS.27_1","GID_2":"RUS.27.28_1","NAME_1":"Kemerovo","NAME_2":"Tayga"}},
{"type":"Feature","geometry":{"type":"Polygon","coordinates":[[[87.0387,55.3942],[87.1924,55.3178],[87.2322,55.1628],[87.5678,55.0709],[87.7618,55.083],[88.0641,54.948],[88.1488,54.8327],[88.4517,54.8007],[88.5637,54.6055],[88.7647,54.8305],[88.5494,55.0039],[88.4749,55.3206],[88.9611,55.6535],[89.2645,55.7392],[88.7267,55.772],[88.2459,55.939],[88.007,55.6537],[87.4541,55.4814],[87.0387,55.3942]]]},"properties":{"GID_0":"RUS","GID_1":"RUS.27_1","GID_2":"RUS.27.29_1","NAME_1":"Kemerovo","NAME_2":"Tisul'skiyrayon"}},
{"type":"Feature","geometry":{"type":"Polygon","coordinates":[[[85.6451,55.2947],[85.655,55.2996],[85.6422,55.3024],[85.6451,55.2947]]]},"properties":{"GID_0":"RUS","GID_1":"RUS.27_1","GID_2":"RUS.27.30_1","NAME_1":"Kemerovo","NAME_2":"Topki"}},
{"type":"Feature","geometry":{"type":"Polygon","coordinates":[[[85.6996,55.5961],[85.0727,55.4828],[84.8887,55.3415],[84.9302,55.1093],[85.1178,55.0293],[86.0481,55.0262],[85.843,55.2116],[85.8158,55.4989],[85.6996,55.5961]],[[85.6451,55.2947],[85.6422,55.3024],[85.655,55.2996],[85.6451,55.2947]]]},"properties":{"GID_0":"RUS","GID_1":"RUS.27_1","GID_2":"RUS.27.31_1","NAME_1":"Kemerovo","NAME_2":"Topkinskiyrayon"}},
{"type":"Feature","geometry":{"type":"Polygon","coordinates":[[[88.2459,55.939],[88.7267,55.772],[89.2645,55.7392],[89.4231,55.7801],[89.2217,56.1277],[88.6241,56.4363],[88.3748,56.3369],[88.2501,55.9725],[88.2459,55.939]]]},"properties":{"GID_0":"RUS","GID_1":"RUS.27_1","GID_2":"RUS.27.32_1","NAME_1":"Kemerovo","NAME_2":"Tyazhinskiyrayon"}},
{"type":"Feature","geometry":{"type":"Polygon","coordinates":[[[86.0651,55.8599],[85.8537,56.1969],[85.6298,56.2168],[85.2589,56.1999],[84.9574,56.1273],[85.0488,55.7008],[85.5857,55.6686],[85.6996,55.5961],[86.0651,55.8599]],[[85.599,56.051],[85.5939,56.0504],[85.5935,56.0548],[85.5999,56.0555],[85.599,56.051]]]},"properties":{"GID_0":"RUS","GID_1":"RUS.27_1","GID_2":"RUS.27.33_1","NAME_1":"Kemerovo","NAME_2":"Yashkinskiyrayon"}},
{"type":"Feature","geometry":{"type":"Polygon","coordinates":[[[86.3677,56.5557],[85.8878,56.432],[85.6298,56.2168],[85.8537,56.1969],[86.0651,55.8599],[86.1688,55.8219],[86.5589,55.9016],[86.6191,56.2277],[86.3677,56.5557]],[[86.0037,56.0917],[85.9947,56.0943],[86.0041,56.0976],[86.0037,56.0917]]]},"properties":{"GID_0":"RUS","GID_1":"RUS.27_1","GID_2":"RUS.27.34_1","NAME_1":"Kemerovo","NAME_2":"Yayskiyrayon"}},
{"type":"Feature","geometry":{"type":"Polygon","coordinates":[[[84.912,55.7086],[84.9047,55.7135],[84.9011,55.7094],[84.912,55.7086]]]},"properties":{"GID_0":"RUS","GID_1":"RUS.27_1","GID_2":"RUS.27.35_1","NAME_1":"Kemerovo","NAME_2":"Yurga"}},
{"type":"Feature","geometry":{"type":"Polygon","coordinates":[[[85.6996,55.5961],[85.5857,55.6686],[85.0488,55.7008],[84.9574,56.1273],[84.5905,56.0584],[84.5309,55.8776],[84.6599,55.6458],[84.8191,55.5221],[84.8887,55.3415],[85.0727,55.4828],[85.6996,55.5961]],[[84.912,55.7086],[84.9011,55.7094],[84.9047,55.7135],[84.912,55.7086]]]},"properties":{"GID_0":"RUS","GID_1":"RUS.27_1","GID_2":"RUS.27.36_1","NAME_1":"Kemerovo","NAME_2":"Yurginskiyrayon"}}
]}