{"type":"FeatureCollection", "features": [
{"type":"Feature","geometry":{"type":"Polygon","coordinates":[[[77.184,53.6676],[77.4419,53.6887],[78.0364,53.8933],[78.2482,54.059],[78.3139,54.2969],[78.1911,54.3762],[77.9761,54.2378],[77.3678,54.2018],[76.9731,53.768],[77.184,53.6676]]]},"properties":{"GID_0":"RUS","GID_1":"RUS.50_1","GID_2":"RUS.50.1_1","NAME_1":"Novosibirsk","NAME_2":"Baganskiyrayon"}},
{"type":"Feature","geometry":{"type":"Polygon","coordinates":[[[78.4254,55.3569],[78.4226,55.3753],[78.3968,55.3689],[78.4254,55.3569]]]},"properties":{"GID_0":"RUS","GID_1":"RUS.50_1","GID_2":"RUS.50.2_1","NAME_1":"Novosibirsk","NAME_2":"Barabinsk"}},
{"type":"Feature","geometry":{"type":"Polygon","coordinates":[[[77.8927,54.6534],[78.6292,54.9859],[79.0412,55.0098],[78.8935,55.2482],[78.9227,55.3439],[78.6111,55.4256],[78.2002,55.321],[77.7849,55.3371],[77.3722,55.129],[77.4368,54.9732],[77.5213,54.8635],[77.7508,54.6552],[77.8927,54.6534]],[[78.4254,55.3569],[78.3968,55.3689],[78.4226,55.3753],[78.4254,55.3569]]]},"properties":{"GID_0":"RUS","GID_1":"RUS.50_1","GID_2":"RUS.50.3_1","NAME_1":"Novosibirsk","NAME_2":"Barabinskiyrayon"}},
{"type":"Feature","geometry":{"type":"Polygon","coordinates":[[[83.2632,54.7558],[83.1273,54.7759],[83.0736,54.7227],[83.2438,54.7092],[83.2632,54.7558]]]},"properties":{"GID_0":"RUS","GID_1":"RUS.50_1","GID_2":"RUS.50.4_1","NAME_1":"Novosibirsk","NAME_2":"Berdsk"}},
{"type":"Feature","geometry":{"type":"Polygon","coordinates":[[[84.6735,55.4021],[84.7864,55.4436],[84.5309,55.8776],[83.9693,55.9902],[83.6246,55.7054],[83.6079,55.5557],[83.5638,55.5342],[83.6578,55.5271],[83.7304,55.511],[83.7897,55.4837],[83.9966,55.4978],[84.2067,55.3919],[84.5569,55.4846],[84.6735,55.4021]]]},"properties":{"GID_0":"RUS","GID_1":"RUS.50_1","GID_2":"RUS.50.5_1","NAME_1":"Novosibirsk","NAME_2":"Bolotninskiyrayon"}},
{"type":"Feature","geometry":{"type":"Polygon","coordinates":[[[77.7849,55.3371],[77.3735,55.5608],[77.2041,55.5975],[76.5538,55.4632],[76.3809,55.4615],[76.2378,55.3809],[76.3347,55.0377],[76.8203,54.9539],[77.0419,54.7637],[77.0712,54.7447],[77.5071,54.8818],[77.4368,54.9732],[77.3722,55.129],[77.7849,55.3371]]]},"properties":{"GID_0":"RUS","GID_1":"RUS.50_1","GID_2":"RUS.50.6_1","NAME_1":"Novosibirsk","NAME_2":"Chanovskiyrayon"}},
{"type":"Feature","geometry":{"type":"Polygon","coordinates":[[[83.8545,54.1173],[83.7213,54.3759],[83.2948,54.423],[82.9566,54.2464],[82.7309,54.2845],[82.7108,54.1365],[82.8372,53.9648],[83.0469,53.9796],[83.4841,54.0877],[83.8545,54.1173]]]},"properties":{"GID_0":"RUS","GID_1":"RUS.50_1","GID_2":"RUS.50.7_1","NAME_1":"Novosibirsk","NAME_2":"Cherepanovskiyrayon"}},
{"type":"Feature","geometry":{"type":"Polygon","coordinates":[[[76.85,54.4416],[77.118,54.5883],[77.0959,54.7286],[77.0419,54.7637],[76.8203,54.9539],[76.3347,55.0377],[76.0941,54.7637],[75.7577,54.6881],[75.6857,54.5316],[75.6986,54.1316],[76.2273,54.2743],[76.234,54.3561],[76.6518,54.3464],[76.85,54.4416]]]},"properties":{"GID_0":"RUS","GID_1":"RUS.50_1","GID_2":"RUS.50.8_1","NAME_1":"Novosibirsk","NAME_2":"Chistoozernyyrayon"}},
{"type":"Feature","geometry":{"type":"Polygon","coordinates":[[[80.9137,54.405],[81.0561,54.3931],[81.6837,54.6158],[81.4525,54.9473],[81.5966,55.0788],[81.4877,55.3314],[82.1469,55.4889],[81.8074,55.9951],[81.1261,55.7471],[81.1003,55.6599],[81.0135,55.3789],[80.5671,55.2158],[80.502,54.7427],[80.6933,54.5194],[80.9137,54.405]]]},"properties":{"GID_0":"RUS","GID_1":"RUS.50_1","GID_2":"RUS.50.9_1","NAME_1":"Novosibirsk","NAME_2":"Chulymskiyrayon"}},
{"type":"Feature","geometry":{"type":"Polygon","coordinates":[[[79.5581,54.8727],[79.3155,54.7805],[79.3834,54.5849],[79.1614,54.5424],[78.9009,54.3876],[78.9961,54.3159],[79.2346,54.173],[79.7835,54.1784],[80.0051,54.3004],[80.386,54.4137],[80.1396,54.5759],[80.1202,54.7664],[79.8812,54.7681],[79.5581,54.8727]]]},"properties":{"GID_0":"RUS","GID_1":"RUS.50_1","GID_2":"RUS.50.10_1","NAME_1":"Novosibirsk","NAME_2":"Dovolenskiyrayon"}},
{"type":"Feature","geometry":{"type":"Polygon","coordinates":[[[83.3877,54.6103],[83.3965,54.6197],[83.3782,54.626],[83.3731,54.6111],[83.3877,54.6103]]]},"properties":{"GID_0":"RUS","GID_1":"RUS.50_1","GID_2":"RUS.50.11_1","NAME_1":"Novosibirsk","NAME_2":"Iskitim"}},
{"type":"Feature","geometry":{"type":"Polygon","coordinates":[[[83.7213,54.3759],[84.0788,54.6871],[83.5104,54.9228],[83.2037,54.7886],[83.058,54.7787],[83.0783,54.7014],[82.7868,54.6978],[82.546,54.5926],[82.493,54.5583],[82.3759,54.4914],[82.3676,54.4689],[82.4232,54.3781],[82.7309,54.2845],[82.9566,54.2464],[83.2948,54.423],[83.7213,54.3759]],[[83.2632,54.7558],[83.2438,54.7092],[83.0736,54.7227],[83.1273,54.7759],[83.2632,54.7558]],[[83.3877,54.6103],[83.3731,54.6111],[83.3782,54.626],[83.3965,54.6197],[83.3877,54.6103]]]},"properties":{"GID_0":"RUS","GID_1":"RUS.50_1","GID_2":"RUS.50.12_1","NAME_1":"Novosibirsk","NAME_2":"Iskitimskiyrayon"}},
{"type":"Feature","geometry":{"type":"Polygon","coordinates":[[[77.184,53.6676],[77.8717,53.3065],[77.9558,53.5579],[78.2906,53.4828],[78.5905,53.5282],[78.6933,53.6559],[78.462,53.923],[78.6062,54.1204],[78.4346,54.323],[78.3139,54.2969],[78.2482,54.059],[78.0364,53.8933],[77.4419,53.6887],[77.184,53.6676]]]},"properties":{"GID_0":"RUS","GID_1":"RUS.50_1","GID_2":"RUS.50.13_1","NAME_1":"Novosibirsk","NAME_2":"Karasukskiyrayon"}},
{"type":"Feature","geometry":{"type":"Polygon","coordinates":[[[81.1003,55.6599],[80.8341,55.6457],[80.5435,55.5379],[80.1859,55.5151],[79.8674,55.2204],[79.855,55.06],[79.5581,54.8727],[79.8812,54.7681],[80.1202,54.7664],[80.1396,54.5759],[80.386,54.4137],[80.6933,54.5194],[80.502,54.7427],[80.5671,55.2158],[81.0135,55.3789],[81.1003,55.6599]]]},"properties":{"GID_0":"RUS","GID_1":"RUS.50_1","GID_2":"RUS.50.14_1","NAME_1":"Novosibirsk","NAME_2":"Kargatskiyrayon"}},
{"type":"Feature","geometry":{"type":"Polygon","coordinates":[[[81.6837,54.6158],[81.9286,54.7225],[82.1955,54.7171],[82.5123,54.756],[82.546,55.0044],[82.877,55.1831],[82.4859,55.1593],[82.1469,55.4889],[81.4877,55.3314],[81.5966,55.0788],[81.4525,54.9473],[81.6837,54.6158]]]},"properties":{"GID_0":"RUS","GID_1":"RUS.50_1","GID_2":"RUS.50.15_1","NAME_1":"Novosibirsk","NAME_2":"Kochenevskiyrayon"}},
{"type":"Feature","geometry":{"type":"Polygon","coordinates":[[[80.913,54.3614],[80.9137,54.405],[80.6933,54.5194],[80.386,54.4137],[80.0051,54.3004],[79.7835,54.1784],[79.8465,53.9102],[80.2456,54.0364],[80.5778,54.2069],[80.8191,54.2502],[80.913,54.3614]]]},"properties":{"GID_0":"RUS","GID_1":"RUS.50_1","GID_2":"RUS.50.16_1","NAME_1":"Novosibirsk","NAME_2":"Kochkovskiyrayon"}},
{"type":"Feature","geometry":{"type":"Polygon","coordinates":[[[83.6246,55.7054],[83.279,55.6743],[83.354,55.8417],[83.0896,56.2165],[83.2337,56.4201],[83.11,56.5238],[82.7803,56.3911],[82.3842,56.3687],[81.6174,56.2482],[81.8074,55.9951],[82.1469,55.4889],[82.4859,55.1593],[82.877,55.1831],[82.8889,55.3513],[83.0938,55.3649],[83.5252,55.5153],[83.6079,55.5557],[83.6246,55.7054]]]},"properties":{"GID_0":"RUS","GID_1":"RUS.50_1","GID_2":"RUS.50.17_1","NAME_1":"Novosibirsk","NAME_2":"Kolyvanovskiyrayon"}},
{"type":"Feature","geometry":{"type":"Polygon","coordinates":[[[78.6933,53.6559],[78.9972,53.6587],[79.5334,53.7315],[79.8465,53.9102],[79.7835,54.1784],[79.2346,54.173],[78.9961,54.3159],[78.9523,54.3496],[78.8934,54.3338],[78.7929,54.3187],[78.663,54.2885],[78.4346,54.323],[78.6062,54.1204],[78.462,53.923],[78.6933,53.6559]]]},"properties":{"GID_0":"RUS","GID_1":"RUS.50_1","GID_2":"RUS.50.18_1","NAME_1":"Novosibirsk","NAME_2":"Krasnozerskiyrayon"}},
{"type":"Feature","geometry":{"type":"Polygon","coordinates":[[[76.9731,53.768],[77.3678,54.2018],[77.9761,54.2378],[78.1911,54.3762],[77.8927,54.6534],[77.7508,54.6552],[77.5213,54.8635],[77.5071,54.8818],[77.0712,54.7447],[77.0959,54.7286],[77.118,54.5883],[76.85,54.4416],[76.7486,54.1604],[76.4267,54.1682],[76.5838,53.9678],[76.9731,53.768]]]},"properties":{"GID_0":"RUS","GID_1":"RUS.50_1","GID_2":"RUS.50.19_1","NAME_1":"Novosibirsk","NAME_2":"Kupinskiyrayon"}},
{"type":"Feature","geometry":{"type":"Polygon","coordinates":[[[78.3803,55.4766],[78.3908,55.4884],[78.3771,55.4934],[78.3601,55.4811],[78.3803,55.4766]]]},"properties":{"GID_0":"RUS","GID_1":"RUS.50_1","GID_2":"RUS.50.20_1","NAME_1":"Novosibirsk","NAME_2":"Kuybyshev"}},
{"type":"Feature","geometry":{"type":"Polygon","coordinates":[[[78.9227,55.3439],[79.0537,55.4725],[79.34,55.4869],[79.5538,55.6711],[79.676,55.8995],[79.6317,56.0285],[79.31,56.1101],[79.0214,56.0065],[78.8168,55.7227],[78.2454,55.8464],[78.0802,55.8202],[78.3339,55.9565],[78.123,56.0913],[78.0558,56.2368],[77.7962,56.1774],[77.3628,55.9215],[77.475,55.736],[77.3735,55.5608],[77.7849,55.3371],[78.2002,55.321],[78.6111,55.4256],[78.9227,55.3439]],[[78.3803,55.4766],[78.3601,55.4811],[78.3771,55.4934],[78.3908,55.4884],[78.3803,55.4766]]]},"properties":{"GID_0":"RUS","GID_1":"RUS.50_1","GID_2":"RUS.50.21_1","NAME_1":"Novosibirsk","NAME_2":"Kuybyshevskiyrayon"}},
{"type":"Feature","geometry":{"type":"Polygon","coordinates":[[[78.4333,57.0936],[78.0177,57.1381],[76.7883,57.1636],[76.1044,57.2295],[76.2405,56.9125],[76.2406,56.6878],[76.0378,56.4723],[76.1046,56.302],[76.291,56.1852],[76.7387,56.2674],[76.958,56.1711],[77.1473,56.2274],[77.1171,56.2957],[77.2288,56.3616],[77.2905,56.3505],[77.3353,56.3736],[77.8788,56.5364],[77.8886,56.6101],[78.331,56.8863],[78.4333,57.0936]]]},"properties":{"GID_0":"RUS","GID_1":"RUS.50_1","GID_2":"RUS.50.22_1","NAME_1":"Novosibirsk","NAME_2":"Kyshtovskiyrayon"}},
{"type":"Feature","geometry":{"type":"Polygon","coordinates":[[[83.8545,54.1173],[84.2391,54.1876],[84.419,54.1352],[84.6155,54.2805],[85.0858,54.4063],[84.9741,54.566],[84.6232,54.5302],[84.57,54.6726],[84.1515,54.6236],[84.0788,54.6871],[83.7213,54.3759],[83.8545,54.1173]]]},"properties":{"GID_0":"RUS","GID_1":"RUS.50_1","GID_2":"RUS.50.23_1","NAME_1":"Novosibirsk","NAME_2":"Maslyaninskiyrayon"}},
{"type":"Feature","geometry":{"type":"Polygon","coordinates":[[[83.5638,55.5342],[83.5252,55.5153],[83.0938,55.3649],[83.0947,55.1343],[83.229,55.0732],[83.5702,55.0944],[84.1594,55.2031],[84.2067,55.3919],[83.9966,55.4978],[83.7897,55.4837],[83.7304,55.511],[83.6578,55.5271],[83.5638,55.5342]]]},"properties":{"GID_0":"RUS","GID_1":"RUS.50_1","GID_2":"RUS.50.24_1","NAME_1":"Novosibirsk","NAME_2":"Moshkovskiyrayon"}},
{"type":"Feature","geometry":{"type":"Polygon","coordinates":[[[83.5104,54.9228],[83.5702,55.0944],[83.229,55.0732],[83.0947,55.1343],[83.0938,55.3649],[82.8889,55.3513],[82.877,55.1831],[82.546,55.0044],[82.5123,54.756],[82.1955,54.7171],[82.416,54.6347],[82.3871,54.5216],[82.3759,54.4914],[82.493,54.5583],[82.546,54.5926],[82.7868,54.6978],[83.0783,54.7014],[83.058,54.7787],[83.2037,54.7886],[83.5104,54.9228]],[[82.7042,54.9822],[82.6834,54.9821],[82.6843,55],[82.7226,54.9961],[82.7042,54.9822]]]},"properties":{"GID_0":"RUS","GID_1":"RUS.50_1","GID_2":"RUS.50.25_1","NAME_1":"Novosibirsk","NAME_2":"Novosibirskiyrayon"}},
{"type":"Feature","geometry":{"type":"Polygon","coordinates":[[[82.7042,54.9822],[82.7226,54.9961],[82.6843,55],[82.6834,54.9821],[82.7042,54.9822]]]},"properties":{"GID_0":"RUS","GID_1":"RUS.50_1","GID_2":"RUS.50.26_1","NAME_1":"Novosibirsk","NAME_2":"Ob'"}},
{"type":"Feature","geometry":{"type":"Polygon","coordinates":[[[81.6782,53.9341],[82.1273,54.1548],[82.4232,54.3781],[82.3676,54.4689],[82.3871,54.5216],[82.416,54.6347],[82.1955,54.7171],[81.9286,54.7225],[81.6837,54.6158],[81.0561,54.3931],[80.9137,54.405],[80.913,54.3614],[81.1111,54.1158],[81.4477,54.0872],[81.6782,53.9341]]]},"properties":{"GID_0":"RUS","GID_1":"RUS.50_1","GID_2":"RUS.50.27_1","NAME_1":"Novosibirsk","NAME_2":"Ordynskiyrayon"}},
{"type":"Feature","geometry":{"type":"Polygon","coordinates":[[[79.6317,56.0285],[80.3242,56.3095],[80.4022,56.4254],[80.2649,56.419],[79.7337,56.8352],[79.2923,56.9818],[78.4333,57.0936],[78.331,56.8863],[77.8886,56.6101],[77.8788,56.5364],[77.3353,56.3736],[77.2678,56.3394],[77.3189,56.2464],[77.6432,56.3009],[77.7962,56.1774],[78.0558,56.2368],[78.123,56.0913],[78.3339,55.9565],[78.0802,55.8202],[78.2454,55.8464],[78.8168,55.7227],[79.0214,56.0065],[79.31,56.1101],[79.6317,56.0285]]]},"properties":{"GID_0":"RUS","GID_1":"RUS.50_1","GID_2":"RUS.50.28_1","NAME_1":"Novosibirsk","NAME_2":"Severnyyrayon"}},
{"type":"Feature","geometry":{"type":"Polygon","coordinates":[[[81.6782,53.9341],[81.7842,53.724],[82.1876,53.6624],[82.4529,53.5141],[82.6523,53.6343],[82.7526,53.8416],[83.0469,53.9796],[82.8372,53.9648],[82.7108,54.1365],[82.7309,54.2845],[82.4232,54.3781],[82.1273,54.1548],[81.6782,53.9341]]]},"properties":{"GID_0":"RUS","GID_1":"RUS.50_1","GID_2":"RUS.50.29_1","NAME_1":"Novosibirsk","NAME_2":"Suzunskiyrayon"}},
{"type":"Feature","geometry":{"type":"Polygon","coordinates":[[[76.007,55.201],[76.0055,55.2114],[75.9902,55.212],[75.9925,55.2002],[76.007,55.201]]]},"properties":{"GID_0":"RUS","GID_1":"RUS.50_1","GID_2":"RUS.50.30_1","NAME_1":"Novosibirsk","NAME_2":"Tatarsk"}},
{"type":"Feature","geometry":{"type":"Polygon","coordinates":[[[76.3809,55.4615],[76.128,55.5076],[75.8075,55.5265],[75.5011,55.3773],[75.2487,55.5178],[75.1908,55.2686],[75.4925,54.8917],[75.7577,54.6881],[76.0941,54.7637],[76.3347,55.0377],[76.2378,55.3809],[76.3809,55.4615]],[[76.007,55.201],[75.9925,55.2002],[75.9902,55.212],[76.0055,55.2114],[76.007,55.201]]]},"properties":{"GID_0":"RUS","GID_1":"RUS.50_1","GID_2":"RUS.50.31_1","NAME_1":"Novosibirsk","NAME_2":"Tatarskiyrayon"}},
{"type":"Feature","geometry":{"type":"Polygon","coordinates":[[[84.9741,54.566],[85.079,54.8001],[84.8779,54.9856],[84.8819,55.3741],[84.6735,55.4021],[84.5569,55.4846],[84.2067,55.3919],[84.1594,55.2031],[83.5702,55.0944],[83.5104,54.9228],[84.0788,54.6871],[84.1515,54.6236],[84.57,54.6726],[84.6232,54.5302],[84.9741,54.566]]]},"properties":{"GID_0":"RUS","GID_1":"RUS.50_1","GID_2":"RUS.50.32_1","NAME_1":"Novosibirsk","NAME_2":"Toguchinskiyrayon"}},
{"type":"Feature","geometry":{"type":"Polygon","coordinates":[[[79.0412,55.0098],[79.3155,54.7805],[79.5581,54.8727],[79.855,55.06],[79.8674,55.2204],[80.1859,55.5151],[80.5435,55.5379],[80.8341,55.6457],[81.1003,55.6599],[81.1261,55.7471],[81.8074,55.9951],[81.6174,56.2482],[81.1451,56.5237],[80.4022,56.4254],[80.3242,56.3095],[79.6317,56.0285],[79.676,55.8995],[79.5538,55.6711],[79.34,55.4869],[79.0537,55.4725],[78.9227,55.3439],[78.8935,55.2482],[79.0412,55.0098]]]},"properties":{"GID_0":"RUS","GID_1":"RUS.50_1","GID_2":"RUS.50.33_1","NAME_1":"Novosibirsk","NAME_2":"Ubinskiyrayon"}},
{"type":"Feature","geometry":{"type":"Polygon","coordinates":[[[76.128,55.5076],[76.1505,55.798],[76.3517,55.8461],[76.2652,56.1452],[76.0048,56.1509],[75.5168,56.0453],[75.0954,55.6777],[75.2487,55.5178],[75.5011,55.3773],[75.8075,55.5265],[76.128,55.5076]]]},"properties":{"GID_0":"RUS","GID_1":"RUS.50_1","GID_2":"RUS.50.34_1","NAME_1":"Novosibirsk","NAME_2":"Ust'-Tarkskiyrayon"}},
{"type":"Feature","geometry":{"type":"Polygon","coordinates":[[[77.3735,55.5608],[77.475,55.736],[77.3628,55.9215],[77.7962,56.1774],[77.6432,56.3009],[77.3189,56.2464],[77.2678,56.3394],[77.2905,56.3505],[77.2288,56.3616],[77.1171,56.2957],[77.1473,56.2274],[76.958,56.1711],[76.7387,56.2674],[76.291,56.1852],[76.2652,56.1452],[76.3517,55.8461],[76.1505,55.798],[76.128,55.5076],[76.3809,55.4615],[76.5538,55.4632],[77.2041,55.5975],[77.3735,55.5608]]]},"properties":{"GID_0":"RUS","GID_1":"RUS.50_1","GID_2":"RUS.50.35_1","NAME_1":"Novosibirsk","NAME_2":"Vengerovskiyrayon"}},
{"type":"Feature","geometry":{"type":"Polygon","coordinates":[[[78.3139,54.2969],[78.4346,54.323],[78.663,54.2885],[78.7929,54.3187],[78.8934,54.3338],[78.9523,54.3496],[78.9009,54.3876],[79.1614,54.5424],[79.3834,54.5849],[79.3155,54.7805],[79.0412,55.0098],[78.6292,54.9859],[77.8927,54.6534],[78.1911,54.3762],[78.3139,54.2969]]]},"properties":{"GID_0":"RUS","GID_1":"RUS.50_1","GID_2":"RUS.50.36_1","NAME_1":"Novosibirsk","NAME_2":"Zdvinskiyrayon"}}
]}