{"type":"FeatureCollection", "features": [
{"type":"Feature","geometry":{"type":"Polygon","coordinates":[[[91.4528,53.7017],[91.4303,53.7145],[91.4251,53.6989],[91.4528,53.7017]]]},"properties":{"GID_0":"RUS","GID_1":"RUS.29_1","GID_2":"RUS.29.1_1","NAME_1":"Khakass","NAME_2":"Abakan"}},
{"type":"Feature","geometry":{"type":"Polygon","coordinates":[[[91.3848,53.0921],[91.8413,53.2883],[91.4544,53.6062],[90.8595,53.2758],[91.3848,53.0921]]]},"properties":{"GID_0":"RUS","GID_1":"RUS.29_1","GID_2":"RUS.29.2_1","NAME_1":"Khakass","NAME_2":"Altayskiyrayon"}},
{"type":"Feature","geometry":{"type":"Polygon","coordinates":[[[89.2239,53.7723],[88.8125,53.5471],[89.0198,53.0896],[89.267,53.0405],[89.538,52.7999],[89.9795,52.8707],[90.1697,52.7533],[90.2169,52.7578],[90.2412,52.9056],[90.8595,53.2758],[90.4659,53.5838],[90.138,53.4446],[89.7902,53.5665],[89.4663,53.5353],[89.2239,53.7723]]]},"properties":{"GID_0":"RUS","GID_1":"RUS.29_1","GID_2":"RUS.29.3_1","NAME_1":"Khakass","NAME_2":"Askizskiyrayon"}},
{"type":"Feature","geometry":{"type":"Polygon","coordinates":[[[90.8595,53.2758],[90.2412,52.9056],[90.2169,52.7578],[90.2611,52.7619],[90.5715,52.5803],[90.844,52.5503],[91.3963,52.868],[91.3848,53.0921],[90.8595,53.2758]]]},"properties":{"GID_0":"RUS","GID_1":"RUS.29_1","GID_2":"RUS.29.4_1","NAME_1":"Khakass","NAME_2":"Beyskiyrayon"}},
{"type":"Feature","geometry":{"type":"Polygon","coordinates":[[[91.4651,53.9661],[91.159,54.4879],[90.855,54.6268],[90.9153,54.7911],[90.4583,54.8708],[90.4125,54.2518],[89.9018,54.1938],[90.1532,54.0515],[90.761,54.1142],[90.9601,53.9166],[91.4651,53.9661]]]},"properties":{"GID_0":"RUS","GID_1":"RUS.29_1","GID_2":"RUS.29.5_1","NAME_1":"Khakass","NAME_2":"Bogradskiyrayon"}},
{"type":"Feature","geometry":{"type":"Polygon","coordinates":[[[88.8889,54.3791],[89.1574,54.6156],[90.4583,54.8708],[90.1292,55.1053],[89.6578,55.0031],[89.2008,54.9904],[88.9502,55.2891],[88.4749,55.3206],[88.5494,55.0039],[88.7647,54.8305],[88.5466,54.4296],[88.8889,54.3791]]]},"properties":{"GID_0":"RUS","GID_1":"RUS.29_1","GID_2":"RUS.29.6_1","NAME_1":"Khakass","NAME_2":"Ordzhonikidzevskiyrayon"}},
{"type":"Feature","geometry":{"type":"Polygon","coordinates":[[[91.4301,53.108],[91.4213,53.083],[91.4562,53.0842],[91.4301,53.108]]]},"properties":{"GID_0":"RUS","GID_1":"RUS.29_1","GID_2":"RUS.29.7_1","NAME_1":"Khakass","NAME_2":"Sayanogorsk"}},
{"type":"Feature","geometry":{"type":"Polygon","coordinates":[[[89.1568,53.9024],[89.3598,54.0863],[89.9018,54.1938],[90.4125,54.2518],[90.4583,54.8708],[89.1574,54.6156],[88.8889,54.3791],[89.1634,54.3189],[89.1568,53.9024]]]},"properties":{"GID_0":"RUS","GID_1":"RUS.29_1","GID_2":"RUS.29.8_1","NAME_1":"Khakass","NAME_2":"Shirinskiyrayon"}},
{"type":"Feature","geometry":{"type":"Polygon","coordinates":[[[89.0198,53.0896],[89.1927,52.8441],[89.0733,52.5765],[88.7001,52.2752],[88.0539,52.0357],[87.9161,51.8093],[88.1131,51.7217],[87.9357,51.4914],[88.4061,51.2922],[88.7416,51.5486],[89.7257,51.5604],[90.061,51.743],[89.9578,51.8921],[90.1752,52.1135],[90.452,52.1634],[90.844,52.5503],[90.5715,52.5803],[90.2611,52.7619],[90.1697,52.7533],[89.9795,52.8707],[89.538,52.7999],[89.267,53.0405],[89.0198,53.0896]]]},"properties":{"GID_0":"RUS","GID_1":"RUS.29_1","GID_2":"RUS.29.9_1","NAME_1":"Khakass","NAME_2":"Tashtypskiyrayon"}},
{"type":"Feature","geometry":{"type":"Polygon","coordinates":[[[89.2239,53.7723],[89.4663,53.5353],[89.7902,53.5665],[90.138,53.4446],[90.4659,53.5838],[90.8595,53.2758],[91.4544,53.6062],[91.3266,53.8167],[91.4651,53.9661],[90.9601,53.9166],[90.761,54.1142],[90.1532,54.0515],[89.9018,54.1938],[89.3598,54.0863],[89.1568,53.9024],[89.2239,53.7723]]]},"properties":{"GID_0":"RUS","GID_1":"RUS.29_1","GID_2":"RUS.29.10_1","NAME_1":"Khakass","NAME_2":"Ust'-Abakanskiyrayon"}}
]}