{"type":"FeatureCollection", "features": [
{"type":"Feature","geometry":{"type":"MultiPolygon","coordinates":[[[[53.1138,67.6792],[53.0434,67.6592],[53.1117,67.6714],[53.1138,67.6792]]],[[[53.1191,67.6979],[53.0836,67.7337],[52.9946,67.746],[52.9174,67.7139],[52.9399,67.6738],[52.9638,67.6625],[53.0328,67.6839],[53.0687,67.675],[53.1191,67.6979]]]]},"properties":{"GID_0":"RUS","GID_1":"RUS.46_1","GID_2":"RUS.46.1_1","NAME_1":"Nenets","NAME_2":"Nar'yan-Mar"}},
{"type":"Feature","geometry":{"type":"MultiPolygon","coordinates":[[[[54.2208,68.3083],[54.1708,68.2979],[54.1234,68.2786],[54.1167,68.2458],[54.0547,68.2328],[54.0318,68.2161],[53.9417,68.2104],[53.8917,68.2208],[53.8667,68.2167],[53.8042,68.2396],[53.7687,68.2354],[53.7167,68.2479],[53.6396,68.2375],[53.5979,68.2458],[53.5563,68.2375],[53.5167,68.2521],[53.4771,68.2521],[53.375,68.2271],[53.2807,68.2276],[53.2297,68.2182],[53.2271,68.1896],[53.2432,68.163],[53.2083,68.1583],[53.2182,68.1974],[53.2016,68.2141],[53.2349,68.2297],[53.2062,68.2729],[53.3104,68.3375],[53.3651,68.3359],[53.4161,68.3505],[53.4479,68.3708],[53.5,68.3562],[53.5938,68.3542],[53.6151,68.3318],[53.6599,68.362],[53.6036,68.3807],[53.6563,68.3875],[53.7266,68.3682],[53.738,68.3505],[53.7896,68.3354],[53.8047,68.3557],[53.8396,68.3729],[53.9021,68.3792],[53.9453,68.4026],[53.9229,68.4375],[53.9349,68.4724],[53.9016,68.5203],[53.8766,68.5411],[53.8167,68.5604],[53.7953,68.5787],[53.7318,68.5984],[53.7188,68.6208],[53.7318,68.6495],[53.8432,68.688],[53.8599,68.7078],[53.8271,68.7375],[53.8724,68.7714],[53.8651,68.7932],[53.925,68.8],[53.9661,68.7963],[54.0016,68.8151],[53.9953,68.8349],[53.95,68.8375],[53.9188,68.85],[53.8104,68.8625],[53.7604,68.8583],[53.6875,68.8688],[53.6833,68.8396],[53.6042,68.8667],[53.6333,68.9],[53.7042,68.9021],[53.7958,68.925],[53.825,68.9146],[53.8917,68.9146],[54.1583,68.9417],[54.2292,68.9437],[54.375,68.9563],[54.413,68.9724],[54.4521,68.975],[54.5229,68.9646],[54.5479,68.9833],[54.5062,68.9875],[54.2771,68.9875],[54.2396,68.9833],[54.1229,68.9812],[53.9292,68.9667],[53.5938,68.9208],[53.3479,68.8771],[53.2375,68.8479],[53.1563,68.8313],[53.088,68.812],[53.1182,68.7891],[53.1417,68.7542],[53.1661,68.7349],[53.113,68.7255],[53.1318,68.7089],[53.1766,68.7078],[53.2141,68.6849],[53.1813,68.6729],[53.0833,68.7229],[53.0104,68.7],[53.05,68.6854],[53.0953,68.6828],[53.0943,68.638],[53.1458,68.6271],[53.1667,68.6354],[53.2276,68.6328],[53.2062,68.6062],[53.1625,68.5896],[53.0938,68.5854],[53.0589,68.5964],[53.0474,68.6245],[52.9458,68.65],[52.8708,68.6604],[52.8484,68.6828],[52.8688,68.6937],[52.9979,68.7021],[53.0161,68.7089],[52.9672,68.7328],[53.0203,68.7422],[53.0682,68.7672],[53.0646,68.8042],[52.95,68.7813],[52.8271,68.7458],[52.7729,68.7354],[52.6458,68.6979],[52.4479,68.6458],[52.3104,68.6042],[52.2901,68.5901],[52.3646,68.5833],[52.4339,68.5911],[52.4568,68.6057],[52.5083,68.625],[52.5542,68.625],[52.6104,68.6375],[52.6583,68.6271],[52.6437,68.6125],[52.5625,68.6125],[52.5333,68.6229],[52.4818,68.6141],[52.5078,68.6016],[52.4979,68.5729],[52.5578,68.562],[52.5651,68.5339],[52.6005,68.5172],[52.6688,68.5083],[52.7516,68.4786],[52.7474,68.4443],[52.6688,68.4083],[52.6271,68.4083],[52.5755,68.3932],[52.5453,68.3672],[52.4125,68.325],[52.3224,68.3172],[52.3083,68.3104],[52.2172,68.3297],[52.212,68.3411],[52.1609,68.3547],[52.1547,68.3724],[52.1901,68.3932],[52.3078,68.4234],[52.2896,68.4625],[52.2583,68.4667],[52.2167,68.4875],[52.1917,68.4875],[52.1292,68.5062],[52.0667,68.475],[52.0339,68.4838],[52.0318,68.5141],[52.1375,68.5167],[52.1542,68.5333],[52.2349,68.5568],[52.2083,68.5729],[52.1312,68.5542],[51.8896,68.5104],[51.7458,68.4958],[51.7271,68.4896],[51.5458,68.4812],[51.5651,68.4526],[51.5953,68.4339],[51.5687,68.4229],[51.475,68.4167],[51.4146,68.425],[51.4068,68.4109],[51.3625,68.4042],[51.2792,68.3771],[51.1937,68.3771],[51.1193,68.362],[51.075,68.3417],[50.9625,68.3417],[50.9313,68.3354],[50.8375,68.3375],[50.7755,68.3578],[50.7359,68.3349],[50.6516,68.2963],[50.5318,68.2557],[50.4708,68.2292],[50.2453,68.1526],[50.2125,68.1458],[50.1333,68.1167],[50.0859,68.1057],[50.0057,68.0755],[49.7729,68.0021],[49.6458,67.9688],[49.5271,67.9333],[49.3917,67.9042],[49.3354,67.8875],[49.2833,67.8792],[49.1563,67.8479],[49.0229,67.8313],[48.9167,67.8292],[48.7875,67.8438],[48.7734,67.7693],[48.7896,67.7583],[48.7276,67.7037],[48.8,67.7146],[48.8521,67.7125],[48.9193,67.6755],[48.9562,67.6729],[49.0349,67.6516],[49.0542,67.6271],[49.0208,67.6125],[48.9859,67.6151],[48.9938,67.6396],[48.9354,67.6625],[48.8979,67.6646],[48.8646,67.6813],[48.8109,67.6828],[48.7813,67.6708],[48.7,67.6687],[48.6589,67.6776],[48.5984,67.6787],[48.5505,67.6578],[48.4729,67.6354],[48.425,67.6396],[48.3458,67.6667],[48.3354,67.6563],[48.2542,67.6521],[48.1979,67.6292],[48.1437,67.6188],[48.0729,67.6146],[48.0104,67.6292],[47.8828,67.5901],[47.838,67.5849],[47.8339,67.563],[47.8609,67.538],[47.8943,67.4901],[47.9245,67.4828],[47.9417,67.4563],[47.9307,67.4276],[47.887,67.3922],[47.7714,67.3349],[47.7766,67.313],[47.7505,67.2943],[47.763,67.2755],[47.8016,67.2557],[47.7953,67.238],[47.762,67.2193],[47.7193,67.212],[47.6797,67.1891],[47.7078,67.1849],[47.7172,67.1609],[47.7495,67.1516],[47.7661,67.1328],[47.7526,67.1203],[47.7599,67.0714],[47.7359,67.0141],[47.7453,67.0047],[47.6755,66.9641],[47.5776,66.9141],[47.5974,66.8807],[47.5125,66.9063],[47.4583,66.9167],[47.3792,66.9146],[47.2875,66.8896],[47.2271,66.8833],[47.0875,66.8604],[47.0786,66.8526],[46.9813,66.8521],[46.8958,66.8396],[46.825,66.8396],[46.6604,66.8146],[46.5521,66.8187],[46.5953,66.8391],[46.5724,66.8578],[46.5167,66.8667],[46.4313,66.8604],[46.3479,66.8396],[46.25,66.8271],[46.1625,66.8229],[46.0224,66.8245],[46.0036,66.8453],[45.8776,66.8672],[45.8557,66.8828],[45.8099,66.8943],[45.7474,66.9578],[45.7005,66.988],[45.6917,67.0229],[45.6182,67.0672],[45.6286,67.1078],[45.6099,67.1432],[45.5828,67.1599],[45.5021,67.1813],[45.3167,67.2104],[45.1979,67.2354],[45.1089,67.2609],[44.9583,67.3187],[44.9172,67.3234],[44.9214,67.4099],[44.9339,67.4391],[44.963,67.4745],[45.062,67.5234],[45.1917,67.575],[45.2646,67.5813],[45.3099,67.5734],[45.3411,67.6151],[45.3432,67.6661],[45.3005,67.6891],[45.3609,67.7141],[45.4792,67.7417],[45.5563,67.7521],[45.6896,67.7479],[45.8833,67.7562],[45.9813,67.7896],[46.0604,67.7854],[46.125,67.7896],[46.2625,67.8063],[46.3063,67.8146],[46.4292,67.8146],[46.4875,67.8083],[46.6104,67.8083],[46.6333,67.8021],[46.6932,67.8068],[46.7161,67.8495],[46.6839,67.8651],[46.7057,67.8912],[46.6484,67.913],[46.6141,67.9641],[46.5609,67.9943],[46.5422,68.013],[46.5214,68.0557],[46.5307,68.0911],[46.5578,68.1005],[46.5453,68.1203],[46.4484,68.1547],[46.3943,68.1797],[46.3396,68.1792],[46.2901,68.1922],[46.2391,68.2245],[46.1776,68.2505],[46.125,68.2917],[46.0062,68.3146],[46.0286,68.337],[45.9828,68.3703],[45.9359,68.3901],[45.8776,68.4255],[45.8833,68.4521],[45.775,68.475],[45.7354,68.4875],[45.6917,68.4896],[45.5646,68.5125],[45.4708,68.525],[45.4083,68.5271],[45.2833,68.5396],[45.1,68.5437],[44.9917,68.55],[44.8812,68.5521],[44.7333,68.55],[44.5563,68.55],[44.5146,68.5458],[44.2792,68.5396],[44.1437,68.5313],[44.0625,68.5313],[43.9979,68.5417],[43.9417,68.5583],[43.8026,68.5859],[43.7474,68.612],[43.6479,68.6229],[43.5292,68.6542],[43.4313,68.6687],[43.3,68.6667],[43.2714,68.6547],[43.2859,68.638],[43.3776,68.5964],[43.412,68.587],[43.5,68.5437],[43.6839,68.4838],[43.8708,68.4271],[43.8917,68.425],[43.9688,68.3958],[44.0411,68.3745],[44.2036,68.3016],[44.2161,68.287],[44.2349,68.2182],[44.2224,68.1672],[44.2057,68.1359],[44.2078,68.113],[44.1932,68.0734],[44.1589,68.0474],[44.1901,68.0193],[44.2911,68.0255],[44.2438,68.0042],[44.15,68.0062],[44.1786,67.9609],[44.1432,67.9047],[44.1828,67.9047],[44.2104,67.9292],[44.2958,67.9063],[44.2354,67.875],[44.1937,67.8812],[44.1193,67.8807],[44.0943,67.8391],[44.0984,67.8193],[44.1432,67.7891],[44.1432,67.7589],[44.1161,67.7214],[44.0714,67.6818],[44.15,67.6854],[44.1,67.6604],[44.063,67.6578],[44.0484,67.6266],[43.9786,67.5505],[43.9193,67.5016],[43.8797,67.4537],[43.812,67.3484],[43.7672,67.2599],[43.7708,67.2125],[43.7818,67.1922],[43.8854,67.1563],[43.9458,67.1625],[44.0771,67.1604],[44.1786,67.1286],[44.2089,67.1026],[44.2568,67.0797],[44.3083,67.0646],[44.3151,67.0297],[44.388,66.9964],[44.4036,66.9953],[44.4276,66.9568],[44.4828,66.9307],[44.5208,66.9],[44.4818,66.8974],[44.4672,66.8807],[44.4974,66.8318],[44.4557,66.8005],[44.4188,66.7979],[44.3589,66.7766],[44.4026,66.7151],[44.4714,66.6713],[44.55,66.6458],[44.4589,66.6453],[44.4234,66.6224],[44.3984,66.5911],[44.3755,66.5224],[44.3849,66.4953],[44.3563,66.4958],[44.3005,66.4766],[44.2234,66.4161],[44.2181,66.4007],[44.407,66.3754],[44.4576,66.3762],[44.51,66.3469],[44.6063,66.301],[44.6389,66.274],[44.7717,66.2533],[44.9039,66.2426],[45.0112,66.2262],[45.1939,66.2105],[45.3695,66.1673],[45.4635,66.1256],[45.607,66.0891],[45.6816,66.0847],[45.7505,66.1026],[45.8569,66.1156],[45.9439,66.096],[46.0305,66.0664],[46.061,66.044],[46.1478,66.0293],[46.273,66.0496],[46.4111,66.0748],[46.4973,66.0498],[46.6011,66.0073],[46.7963,65.9369],[46.9362,65.8889],[47.0334,65.8584],[47.1371,65.8354],[47.4167,65.8513],[47.5093,65.8482],[47.6766,65.8494],[47.75,65.8387],[47.8012,65.8584],[47.6782,65.9425],[47.7779,66.0145],[47.92,66.0686],[48.0547,66.105],[48.1078,66.1346],[48.3338,66.1421],[48.4756,66.1228],[48.6642,66.1303],[48.8196,66.1205],[48.9307,66.1087],[49.4921,66.2603],[50.1064,66.4216],[50.7283,66.5807],[51.2629,66.715],[51.5544,66.7796],[51.5205,66.8288],[51.5323,66.9069],[51.6434,66.9111],[51.7091,66.9419],[51.7759,66.9499],[51.8973,66.9941],[51.9643,67.002],[52.1658,67.0764],[53.5752,67.034],[54.5948,66.9933],[55.9716,66.9781],[58.2512,66.9908],[58.7555,66.9896],[58.9829,66.9866],[60.9291,66.9928],[61.1735,66.9965],[61.2719,67.0018],[61.3364,67.0004],[61.3833,66.9873],[61.455,66.997],[61.4889,67.0168],[61.549,67.0268],[61.6558,67.014],[61.7049,67.0171],[61.75,67.0374],[61.7645,67.0693],[61.8246,67.1004],[61.963,67.1371],[62.1385,67.1779],[62.501,67.274],[62.5767,67.2954],[62.7596,67.3536],[62.8878,67.3908],[62.9446,67.4036],[62.9785,67.4531],[62.9588,67.4948],[62.9684,67.5388],[63.0715,67.6077],[63.0991,67.6473],[63.1328,67.6756],[63.2632,67.7125],[63.3055,67.7426],[63.3821,67.7718],[63.5418,67.7897],[63.6375,67.777],[63.752,67.7517],[63.7356,67.7773],[63.7406,67.8033],[63.7764,67.8235],[63.8669,67.851],[63.9278,67.8765],[63.9898,67.9163],[63.9891,67.9682],[63.9344,68.0271],[64.1559,68.086],[64.2064,68.0965],[64.3425,68.1165],[64.427,68.134],[64.4554,68.1522],[64.4659,68.175],[64.6112,68.1966],[64.6295,68.2291],[64.6178,68.2597],[64.5875,68.3029],[64.5641,68.3187],[64.5842,68.3352],[64.6479,68.3522],[64.7663,68.3926],[64.8708,68.3972],[64.9542,68.3934],[65.062,68.4109],[65.2265,68.374],[65.3183,68.3717],[65.4862,68.4089],[65.6746,68.4784],[65.7112,68.5304],[65.6778,68.577],[65.5868,68.6246],[65.572,68.6503],[65.6174,68.704],[65.4425,68.7395],[65.4439,68.7847],[65.3086,68.8156],[65.2151,68.8178],[65.1181,68.807],[64.9943,68.8523],[64.8842,68.888],[64.8072,68.9015],[64.7704,68.8655],[64.6799,68.8804],[64.6464,68.9025],[64.6839,68.9304],[64.6264,68.9682],[64.5999,69.0082],[64.6558,69.0315],[64.7574,69.0475],[64.7951,69.0754],[64.7601,69.1237],[64.737,69.1339],[64.7484,69.1974],[64.7891,69.2005],[64.8037,69.2172],[64.775,69.2375],[64.7208,69.2458],[64.8224,69.2609],[64.8396,69.2833],[64.8812,69.2729],[64.9354,69.2708],[64.9849,69.2797],[64.9578,69.2932],[64.7917,69.3479],[64.7167,69.3792],[64.5818,69.4151],[64.5354,69.4333],[64.4417,69.4563],[64.3771,69.4792],[64.2333,69.5146],[64.1521,69.5292],[63.7734,69.5901],[63.6729,69.6083],[63.6229,69.6125],[63.5375,69.6292],[63.3396,69.6521],[63.1104,69.6833],[62.9562,69.7],[62.7203,69.7141],[62.6708,69.725],[62.4396,69.7271],[62.3521,69.7312],[62.2208,69.7312],[61.9958,69.7375],[61.9688,69.7479],[61.9021,69.7375],[61.7854,69.7542],[61.7146,69.7708],[61.6563,69.7625],[61.4542,69.7708],[61.3521,69.7854],[61.3453,69.8037],[61.3,69.8167],[61.1833,69.8146],[61.0911,69.8339],[61.0521,69.8271],[61.0182,69.8411],[60.8875,69.8562],[60.8354,69.8396],[60.7875,69.8438],[60.7234,69.8099],[60.7359,69.7776],[60.7724,69.7349],[60.7687,69.7146],[60.7021,69.7167],[60.7255,69.6609],[60.6229,69.6521],[60.4396,69.65],[60.375,69.6667],[60.3375,69.6625],[60.2875,69.6438],[60.2068,69.6224],[60.1964,69.6005],[60.2188,69.5833],[60.1901,69.5682],[60.1922,69.5526],[60.2453,69.5328],[60.2339,69.5182],[60.2547,69.4859],[60.3089,69.4682],[60.3089,69.4422],[60.3375,69.4375],[60.4536,69.3745],[60.4859,69.3401],[60.5682,69.3016],[60.5922,69.2734],[60.6349,69.2578],[60.6563,69.2125],[60.6422,69.1953],[60.6443,69.1339],[60.6797,69.1068],[60.7229,69.0917],[60.7682,69.0901],[60.7599,69.1255],[60.7672,69.1557],[60.8167,69.1583],[60.8891,69.1307],[60.9432,69.0745],[60.9443,69.0234],[60.9745,68.9818],[60.9516,68.9339],[60.9271,68.9187],[60.9542,68.9042],[61.0542,68.8854],[60.9943,68.8651],[60.95,68.8875],[60.8979,68.8875],[60.8167,68.8729],[60.7797,68.856],[60.7578,68.8214],[60.7068,68.7995],[60.6271,68.75],[60.5,68.7063],[60.4167,68.6896],[60.3458,68.6875],[60.2104,68.6771],[60.0938,68.6792],[60.0792,68.6729],[59.9729,68.6979],[59.937,68.6922],[59.8359,68.6599],[59.8089,68.637],[59.8422,68.5734],[59.8828,68.5578],[59.8901,68.5401],[59.937,68.5245],[59.9724,68.4995],[59.9818,68.4589],[59.9286,68.4026],[59.8859,68.3807],[59.8755,68.3609],[59.7526,68.3453],[59.687,68.3151],[59.6146,68.325],[59.5875,68.3354],[59.5062,68.3354],[59.4208,68.3625],[59.3167,68.3708],[59.2396,68.3833],[59.138,68.3943],[59.113,68.4172],[59.1151,68.4474],[59.1401,68.4828],[59.1771,68.5188],[59.1234,68.5318],[59.0964,68.5599],[59.1349,68.5693],[59.1318,68.6078],[59.187,68.6151],[59.1974,68.6276],[59.1901,68.662],[59.2125,68.6708],[59.275,68.675],[59.3271,68.6687],[59.4682,68.6693],[59.4766,68.7057],[59.4568,68.7359],[59.4599,68.7536],[59.4104,68.7854],[59.3422,68.7901],[59.3516,68.8141],[59.2693,68.8359],[59.1891,68.8766],[59.0979,68.9],[59.0208,68.9],[58.9562,68.9083],[58.9625,68.9187],[59.0833,68.9417],[59.0979,68.95],[59.1651,68.9516],[59.2354,68.9708],[59.2771,68.9583],[59.3307,68.9682],[59.2938,68.9792],[59.2292,68.9833],[59.0354,68.9833],[58.8792,68.9771],[58.7708,68.9625],[58.75,68.9542],[58.625,68.9333],[58.5125,68.9063],[58.325,68.8729],[58.3167,68.8667],[58.2021,68.8521],[58.05,68.825],[57.9714,68.8026],[58.0328,68.7995],[58.0417,68.7813],[58.0062,68.7458],[57.9672,68.7474],[57.9297,68.7724],[57.9661,68.7932],[57.9375,68.8021],[57.8333,68.7813],[57.7375,68.7708],[57.5021,68.7542],[57.3833,68.7417],[57.2417,68.7146],[57.3229,68.7146],[57.3979,68.7083],[57.4771,68.7333],[57.5271,68.7417],[57.6375,68.7417],[57.6182,68.7026],[57.5828,68.6797],[57.4922,68.6412],[57.487,68.5984],[57.4578,68.5755],[57.4193,68.5703],[57.3167,68.5292],[57.2083,68.5271],[57.1229,68.5208],[57.0542,68.5229],[56.9729,68.5417],[56.8771,68.55],[56.8318,68.5693],[56.8224,68.5828],[56.7667,68.6021],[56.6375,68.6188],[56.5354,68.6104],[56.4562,68.5896],[56.4271,68.5833],[56.3063,68.5833],[56.2354,68.5896],[56.1422,68.6172],[56.1021,68.6333],[56.0146,68.6438],[55.938,68.637],[55.9349,68.6214],[55.8729,68.6083],[55.7896,68.5771],[55.7271,68.5708],[55.6786,68.5526],[55.6104,68.5479],[55.4688,68.5583],[55.3604,68.5417],[55.2901,68.5182],[55.1396,68.4604],[55.0667,68.4354],[54.9901,68.4161],[54.937,68.3464],[54.8984,68.3234],[54.8568,68.312],[54.8609,68.3005],[54.9521,68.2562],[54.9516,68.238],[54.8792,68.2125],[54.9016,68.1995],[54.9021,68.1792],[54.8688,68.15],[54.7479,68.1542],[54.7021,68.1625],[54.6234,68.1901],[54.6297,68.2089],[54.5964,68.2234],[54.5828,68.2516],[54.5292,68.2917],[54.4646,68.2917],[54.4266,68.263],[54.4005,68.2599],[54.3229,68.2292],[54.2339,68.2182],[54.2432,68.187],[54.2245,68.1589],[54.1755,68.1245],[54.1797,68.1099],[54.1297,68.0787],[54.1078,68.0505],[54.0661,68.0276],[54.0318,68.0182],[53.9557,67.9734],[53.8563,67.9542],[53.8109,67.9349],[53.7953,67.9109],[53.7568,67.9141],[53.7641,67.9339],[53.6583,67.9021],[53.6167,67.9042],[53.5187,67.8854],[53.4271,67.8792],[53.3167,67.8438],[53.287,67.7984],[53.2214,67.7724],[53.2057,67.7547],[53.1672,67.7391],[53.1516,67.6922],[53.1138,67.6792],[53.1117,67.6714],[53.0434,67.6592],[53.0234,67.6557],[52.9771,67.6563],[52.9021,67.6625],[52.8604,67.6563],[52.7854,67.6625],[52.6464,67.6651],[52.6203,67.6891],[52.4979,67.675],[52.4766,67.6651],[52.4188,67.6667],[52.3255,67.6495],[52.3,67.6208],[52.1974,67.5943],[52.2042,67.6167],[52.2766,67.6193],[52.2708,67.6396],[52.3333,67.6604],[52.4375,67.675],[52.5599,67.7005],[52.5693,67.7245],[52.5979,67.7375],[52.6833,67.7479],[52.7792,67.7688],[52.8833,67.7854],[52.8578,67.7672],[52.8229,67.7708],[52.7687,67.7646],[52.7125,67.7438],[52.6312,67.7375],[52.5797,67.7099],[52.6714,67.6724],[52.675,67.6646],[52.7625,67.6687],[52.8187,67.6854],[52.9638,67.6625],[52.9399,67.6738],[52.9174,67.7139],[52.9946,67.746],[53.0836,67.7337],[53.1191,67.6979],[53.138,67.7328],[53.1859,67.7662],[53.2224,67.7797],[53.2495,67.813],[53.2401,67.8245],[53.2708,67.8583],[53.3187,67.8708],[53.5203,67.9026],[53.5271,67.9083],[53.6661,67.9172],[53.7276,67.9474],[53.7958,67.9667],[53.8208,67.9583],[53.8682,67.9714],[53.9146,67.9958],[54.0016,68.0214],[54.0589,68.0703],[54.1286,68.1068],[54.1589,68.1766],[54.1953,68.1964],[54.1813,68.2562],[54.1922,68.2932],[54.2208,68.3083]]],[[[54.3536,68.3318],[54.3312,68.3375],[54.2047,68.2891],[54.2068,68.2464],[54.2833,68.2479],[54.3292,68.2604],[54.3484,68.2807],[54.3536,68.3318]]],[[[53.9583,68.3688],[53.9208,68.3688],[53.8547,68.3411],[53.8609,68.3089],[53.8812,68.2979],[53.95,68.2854],[53.9932,68.313],[53.9828,68.3641],[53.9583,68.3688]]],[[[54.2704,68.8223],[54.2026,68.8193],[54.25,68.8],[54.3417,68.8042],[54.2704,68.8223]]],[[[55.4583,68.9271],[55.4,68.9208],[55.5417,68.8938],[55.5958,68.8771],[55.6203,68.8891],[55.5417,68.9146],[55.4583,68.9271]]],[[[54.9896,68.9333],[54.9146,68.9354],[54.9089,68.9255],[54.9958,68.9146],[54.9896,68.9333]]],[[[54.6609,68.9776],[54.6208,68.9854],[54.5964,68.9651],[54.6125,68.9521],[54.6625,68.95],[54.6828,68.963],[54.6609,68.9776]]],[[[46.3167,68.3583],[46.2375,68.3562],[46.225,68.3313],[46.3208,68.3271],[46.3729,68.3063],[46.3953,68.3203],[46.3745,68.3411],[46.3167,68.3583]]],[[[51.3042,68.4875],[51.1646,68.4875],[51.0229,68.4646],[50.9089,68.4245],[50.8625,68.3938],[50.9271,68.3917],[50.9578,68.4026],[50.9505,68.4203],[51.0354,68.4271],[51.0938,68.4229],[51.1458,68.4417],[51.3063,68.4417],[51.375,68.4604],[51.4396,68.4583],[51.4766,68.4797],[51.4167,68.4854],[51.3042,68.4875]]],[[[48.25,68.8063],[48.2333,68.8021],[48.2839,68.7547],[48.3354,68.7375],[48.3625,68.7417],[48.25,68.8063]]],[[[49.1563,69.5021],[48.9396,69.4938],[48.8104,69.4688],[48.7438,69.4604],[48.6172,69.4182],[48.5359,69.387],[48.4214,69.3307],[48.3568,69.2911],[48.3167,69.2479],[48.2557,69.1339],[48.2318,69.1057],[48.2328,69.0839],[48.213,69.0307],[48.2203,68.9776],[48.2047,68.9578],[48.2026,68.9213],[48.25,68.8771],[48.3,68.8625],[48.3411,68.8422],[48.2859,68.838],[48.3516,68.8161],[48.3797,68.7963],[48.5203,68.7536],[48.5589,68.7276],[48.5932,68.7182],[48.5839,68.7047],[48.7083,68.6937],[48.7161,68.7037],[48.8458,68.7125],[49.0542,68.7417],[49.1083,68.7542],[49.1896,68.7562],[49.2604,68.7729],[49.3354,68.7833],[49.3521,68.7917],[49.4979,68.8125],[49.5958,68.8458],[49.6208,68.8438],[49.7167,68.8688],[49.7359,68.9057],[49.8021,68.9458],[49.8849,68.9797],[49.8974,68.9901],[49.8693,69.0141],[49.9245,69.038],[49.9234,69.0537],[50.0245,69.0714],[50.0797,69.1141],[50.113,69.1047],[50.1828,69.1255],[50.2286,69.1307],[50.2411,69.1057],[50.2776,69.0901],[50.3036,69.1088],[50.3099,69.1307],[50.2766,69.1724],[50.1964,69.2172],[50.1495,69.2516],[50.0557,69.2745],[50.0859,69.2484],[50.1453,69.2141],[50.1693,69.1776],[50.1641,69.163],[50.1271,69.1542],[50.0651,69.1651],[50.0854,69.1937],[50.0766,69.2224],[50.0266,69.262],[49.938,69.2943],[49.9422,69.3109],[49.85,69.3375],[49.7922,69.3495],[49.6104,69.4083],[49.5479,69.4208],[49.4318,69.4568],[49.3443,69.488],[49.2458,69.5021],[49.1563,69.5021]]],[[[58.7625,69.3583],[58.7359,69.3464],[58.7687,69.3292],[58.8125,69.3229],[58.8651,69.2963],[58.9208,69.2833],[59.0062,69.2833],[59.0958,69.2542],[59.1953,69.2266],[59.2234,69.1995],[59.2255,69.1609],[59.2693,69.1391],[59.2958,69.1146],[59.3057,69.1807],[59.2526,69.1964],[59.2854,69.2229],[59.2349,69.2536],[59.0104,69.3083],[58.925,69.3167],[58.8708,69.3354],[58.821,69.3354],[58.7625,69.3583]]],[[[58.5646,69.4708],[58.5016,69.4724],[58.5089,69.4568],[58.5667,69.4583],[58.5646,69.4708]]],[[[59.4646,69.875],[59.4161,69.8588],[59.4828,69.8547],[59.4646,69.875]]],[[[61.2021,69.8604],[61.2146,69.8354],[61.2547,69.8443],[61.2021,69.8604]]],[[[59.0604,70.4458],[59.0458,70.4521],[58.9693,70.4411],[58.9437,70.425],[58.825,70.4229],[58.7672,70.4016],[58.7995,70.3755],[58.7521,70.3479],[58.6896,70.3417],[58.6703,70.313],[58.5729,70.325],[58.5167,70.3229],[58.5938,70.2958],[58.6646,70.2771],[58.7057,70.2745],[58.7479,70.2396],[58.8187,70.2354],[58.8297,70.2151],[58.8661,70.1995],[58.7521,70.1979],[58.6818,70.2151],[58.6146,70.2396],[58.5646,70.2375],[58.5208,70.25],[58.4495,70.2412],[58.5187,70.1958],[58.5208,70.1792],[58.6063,70.1396],[58.6542,70.0958],[58.6172,70.0787],[58.6589,70.038],[58.7026,70.013],[58.7349,70.0057],[58.8083,69.9625],[58.9458,69.9333],[58.9932,69.9161],[58.9943,69.8964],[59.0229,69.875],[59.0979,69.8521],[59.1667,69.8542],[59.1724,69.8786],[59.1172,69.8964],[59.075,69.9021],[59.0667,69.9208],[59.1328,69.9141],[59.1729,69.9187],[59.2646,69.8854],[59.3667,69.8812],[59.4568,69.8839],[59.5104,69.8729],[59.6349,69.8328],[59.6672,69.8026],[59.7161,69.787],[59.5984,69.7745],[59.5755,69.7568],[59.6286,69.7432],[59.6193,69.712],[59.7792,69.6854],[59.8458,69.6917],[59.9766,69.662],[59.9932,69.6828],[60.0328,69.7057],[60.1458,69.6958],[60.1849,69.6766],[60.2979,69.6771],[60.325,69.7],[60.3812,69.6979],[60.3943,69.7255],[60.45,69.7104],[60.5016,69.7286],[60.4776,69.7495],[60.5068,69.7786],[60.5661,69.7943],[60.5411,69.8287],[60.4833,69.8479],[60.4807,69.8703],[60.4568,69.8776],[60.4833,69.8979],[60.4536,69.9287],[60.3401,69.9422],[60.337,69.9537],[60.2776,69.9693],[60.1672,70.013],[60.0547,70.063],[60.0453,70.0911],[59.9625,70.0875],[59.9083,70.0938],[59.8417,70.1188],[59.7911,70.1536],[59.7375,70.1667],[59.6458,70.1979],[59.6021,70.2],[59.5411,70.2474],[59.4891,70.2766],[59.4339,70.2943],[59.3818,70.3193],[59.3818,70.3359],[59.3208,70.3604],[59.2151,70.388],[59.1813,70.4063],[59.0693,70.4318],[59.0604,70.4458]]]]},"properties":{"GID_0":"RUS","GID_1":"RUS.46_1","GID_2":"RUS.46.2_1","NAME_1":"Nenets","NAME_2":"NenetskiyAOk"}}
]}