{"type":"FeatureCollection", "features": [
{"type":"Feature","geometry":{"type":"Polygon","coordinates":[[[47.0919,53.6211],[47.0945,53.6308],[47.0781,53.6333],[47.073,53.6262],[47.0919,53.6211]]]},"properties":{"GID_0":"RUS","GID_1":"RUS.75_1","GID_2":"RUS.75.1_1","NAME_1":"Ul'yanovsk","NAME_2":"Barysh"}},
{"type":"Feature","geometry":{"type":"Polygon","coordinates":[[[46.9201,53.3682],[47.2958,53.3554],[47.6161,53.7938],[47.5176,53.8435],[47.2627,53.9045],[46.8926,53.8165],[46.736,53.4478],[46.9201,53.3682]],[[47.0919,53.6211],[47.073,53.6262],[47.0781,53.6333],[47.0945,53.6308],[47.0919,53.6211]]]},"properties":{"GID_0":"RUS","GID_1":"RUS.75_1","GID_2":"RUS.75.2_1","NAME_1":"Ul'yanovsk","NAME_2":"Baryshskiyrayon"}},
{"type":"Feature","geometry":{"type":"Polygon","coordinates":[[[46.4477,53.6647],[46.4911,53.4962],[46.736,53.4478],[46.8926,53.8165],[46.871,53.8243],[46.842,53.8387],[46.4477,53.6647]]]},"properties":{"GID_0":"RUS","GID_1":"RUS.75_1","GID_2":"RUS.75.3_1","NAME_1":"Ul'yanovsk","NAME_2":"Bazarnosyzganskiyrayon"}},
{"type":"Feature","geometry":{"type":"Polygon","coordinates":[[[49.5457,54.4849],[49.4334,54.5187],[49.1797,54.4273],[49.0314,54.5206],[48.9187,54.4845],[48.9072,54.5131],[48.9045,54.5413],[48.9006,54.5585],[48.8843,54.5475],[48.5464,54.3492],[48.5608,54.1972],[48.7367,54.124],[48.9958,53.9278],[49.1443,53.9986],[49.205,54.0227],[49.0051,54.1797],[49.1067,54.3237],[49.4336,54.3466],[49.5457,54.4849]]]},"properties":{"GID_0":"RUS","GID_1":"RUS.75_1","GID_2":"RUS.75.4_1","NAME_1":"Ul'yanovsk","NAME_2":"Cherdaklinskiyrayon"}},
{"type":"Feature","geometry":{"type":"Polygon","coordinates":[[[49.6495,54.2251],[49.6645,54.24],[49.6493,54.2495],[49.6262,54.2429],[49.6495,54.2251]]]},"properties":{"GID_0":"RUS","GID_1":"RUS.75_1","GID_2":"RUS.75.5_1","NAME_1":"Ul'yanovsk","NAME_2":"Dimitrovgrad"}},
{"type":"Feature","geometry":{"type":"Polygon","coordinates":[[[46.4179,54.2323],[46.0068,54.137],[46.0454,53.9951],[46.4477,53.6647],[46.842,53.8387],[46.819,53.8501],[46.7366,54.0119],[46.5229,54.0096],[46.4179,54.2323]]]},"properties":{"GID_0":"RUS","GID_1":"RUS.75_1","GID_2":"RUS.75.6_1","NAME_1":"Ul'yanovsk","NAME_2":"Inzenskirayon"}},
{"type":"Feature","geometry":{"type":"Polygon","coordinates":[[[46.4179,54.2323],[46.5229,54.0096],[46.7366,54.0119],[46.8985,54.127],[47.2017,54.2359],[47.4298,54.2292],[47.394,54.4529],[47.0803,54.4524],[46.6956,54.3986],[46.6923,54.3189],[46.4179,54.2323]]]},"properties":{"GID_0":"RUS","GID_1":"RUS.75_1","GID_2":"RUS.75.7_1","NAME_1":"Ul'yanovsk","NAME_2":"Karsunskiyrayon"}},
{"type":"Feature","geometry":{"type":"Polygon","coordinates":[[[48.0535,53.474],[48.0318,53.6787],[47.9463,53.8209],[48.0518,53.8605],[48.1076,54.0625],[47.8176,53.8635],[47.6161,53.7938],[47.2958,53.3554],[47.5655,53.3557],[47.6466,53.3472],[47.9864,53.39],[48.0535,53.474]]]},"properties":{"GID_0":"RUS","GID_1":"RUS.75_1","GID_2":"RUS.75.8_1","NAME_1":"Ul'yanovsk","NAME_2":"Kuzovatovskiyrayon"}},
{"type":"Feature","geometry":{"type":"Polygon","coordinates":[[[47.4159,54.532],[47.394,54.4529],[47.4298,54.2292],[47.3871,54.0524],[47.5199,53.9409],[47.5176,53.8435],[47.6161,53.7938],[47.8176,53.8635],[48.1076,54.0625],[47.9362,54.1571],[47.8245,54.3767],[47.5479,54.4233],[47.6022,54.5525],[47.4159,54.532]]]},"properties":{"GID_0":"RUS","GID_1":"RUS.75_1","GID_2":"RUS.75.9_1","NAME_1":"Ul'yanovsk","NAME_2":"Maynskiyrayon"}},
{"type":"Feature","geometry":{"type":"Polygon","coordinates":[[[50.0021,53.9954],[49.9175,54.1587],[50.002,54.3152],[50.0408,54.5427],[49.5797,54.5959],[49.5457,54.4849],[49.4336,54.3466],[49.1067,54.3237],[49.0051,54.1797],[49.205,54.0227],[49.3059,54.0611],[49.173,53.8889],[49.3691,53.8934],[49.5853,53.8292],[50.0021,53.9954]],[[49.6495,54.2251],[49.6262,54.2429],[49.6493,54.2495],[49.6645,54.24],[49.6495,54.2251]]]},"properties":{"GID_0":"RUS","GID_1":"RUS.75_1","GID_2":"RUS.75.10_1","NAME_1":"Ul'yanovsk","NAME_2":"Melekesskiyrayon"}},
{"type":"Feature","geometry":{"type":"Polygon","coordinates":[[[46.9135,52.9241],[47.3317,52.8398],[47.5321,52.9073],[47.635,52.9524],[47.5503,52.9533],[47.4977,53.0486],[47.6128,53.0655],[47.6721,53.2008],[47.5279,53.2279],[47.5724,53.2941],[47.6052,53.3516],[47.5655,53.3557],[47.2958,53.3554],[46.9201,53.3682],[46.9659,53.1602],[46.9135,52.9241]]]},"properties":{"GID_0":"RUS","GID_1":"RUS.75_1","GID_2":"RUS.75.11_1","NAME_1":"Ul'yanovsk","NAME_2":"Nikolaevskiyrayon"}},
{"type":"Feature","geometry":{"type":"Polygon","coordinates":[[[50.0021,53.9954],[50.1743,54.0727],[50.2655,54.2524],[50.2408,54.361],[50.0408,54.5427],[50.002,54.3152],[49.9175,54.1587],[50.0021,53.9954]]]},"properties":{"GID_0":"RUS","GID_1":"RUS.75_1","GID_2":"RUS.75.12_1","NAME_1":"Ul'yanovsk","NAME_2":"Novomalyklinskiyrayon"}},
{"type":"Feature","geometry":{"type":"Polygon","coordinates":[[[47.9864,53.39],[47.6466,53.3472],[47.6052,53.3516],[47.5724,53.2941],[47.5279,53.2279],[47.6721,53.2008],[47.6128,53.0655],[47.7266,53.0361],[48.204,53.0329],[48.2167,53.1458],[47.9864,53.39]]]},"properties":{"GID_0":"RUS","GID_1":"RUS.75_1","GID_2":"RUS.75.13_1","NAME_1":"Ul'yanovsk","NAME_2":"Novospasskiyrayon"}},
{"type":"Feature","geometry":{"type":"Polygon","coordinates":[[[46.9135,52.9241],[46.9845,52.8136],[46.8279,52.6984],[47.0711,52.6054],[47.4697,52.5802],[47.2942,52.6605],[47.3317,52.8398],[46.9135,52.9241]]]},"properties":{"GID_0":"RUS","GID_1":"RUS.75_1","GID_2":"RUS.75.14_1","NAME_1":"Ul'yanovsk","NAME_2":"Pavlovskiyrayon"}},
{"type":"Feature","geometry":{"type":"Polygon","coordinates":[[[48.0235,52.8065],[48.4363,52.8111],[48.556,52.9404],[48.4698,53.0009],[48.204,53.0329],[47.7266,53.0361],[47.6128,53.0655],[47.4977,53.0486],[47.5503,52.9533],[47.635,52.9524],[47.678,52.9725],[47.7742,52.9329],[47.7561,52.7612],[48.0235,52.8065]]]},"properties":{"GID_0":"RUS","GID_1":"RUS.75_1","GID_2":"RUS.75.15_1","NAME_1":"Ul'yanovsk","NAME_2":"Radishchevskiyrayon"}},
{"type":"Feature","geometry":{"type":"Polygon","coordinates":[[[48.5442,53.7833],[48.8363,53.7363],[48.8986,53.835],[48.5507,54.0817],[48.4677,54.086],[48.4508,54.0966],[48.418,54.0756],[48.3397,54.082],[48.2809,54.0342],[48.5093,53.897],[48.5442,53.7833]]]},"properties":{"GID_0":"RUS","GID_1":"RUS.75_1","GID_2":"RUS.75.16_1","NAME_1":"Ul'yanovsk","NAME_2":"Sengileevskiyrayon"}},
{"type":"Feature","geometry":{"type":"Polygon","coordinates":[[[47.4697,52.5802],[47.5968,52.6307],[47.7763,52.5802],[47.8481,52.7543],[48.0235,52.8065],[47.7561,52.7612],[47.7742,52.9329],[47.678,52.9725],[47.5321,52.9073],[47.3317,52.8398],[47.2942,52.6605],[47.4697,52.5802]]]},"properties":{"GID_0":"RUS","GID_1":"RUS.75_1","GID_2":"RUS.75.17_1","NAME_1":"Ul'yanovsk","NAME_2":"Starokulatkinskiyrayon"}},
{"type":"Feature","geometry":{"type":"Polygon","coordinates":[[[49.5797,54.5959],[49.4321,54.824],[49.3032,54.8997],[49.094,54.779],[48.9212,54.5723],[48.9006,54.5585],[48.9045,54.5413],[48.9072,54.5131],[48.9187,54.4845],[49.0314,54.5206],[49.1797,54.4273],[49.4334,54.5187],[49.5457,54.4849],[49.5797,54.5959]]]},"properties":{"GID_0":"RUS","GID_1":"RUS.75_1","GID_2":"RUS.75.18_1","NAME_1":"Ul'yanovsk","NAME_2":"Staromaynskiyrayon"}},
{"type":"Feature","geometry":{"type":"Polygon","coordinates":[[[47.4159,54.532],[47.3947,54.6449],[47.2526,54.7166],[47.0576,54.7146],[46.8724,54.6333],[46.5824,54.7142],[46.5335,54.574],[46.6956,54.3986],[47.0803,54.4524],[47.394,54.4529],[47.4159,54.532]]]},"properties":{"GID_0":"RUS","GID_1":"RUS.75_1","GID_2":"RUS.75.19_1","NAME_1":"Ul'yanovsk","NAME_2":"Surskiyrayon"}},
{"type":"Feature","geometry":{"type":"Polygon","coordinates":[[[48.5442,53.7833],[48.5093,53.897],[48.2809,54.0342],[48.1076,54.0625],[48.0518,53.8605],[47.9463,53.8209],[48.0318,53.6787],[48.0535,53.474],[48.4159,53.5207],[48.3261,53.635],[48.5442,53.7833]]]},"properties":{"GID_0":"RUS","GID_1":"RUS.75_1","GID_2":"RUS.75.20_1","NAME_1":"Ul'yanovsk","NAME_2":"Teren'gul'skiyrayon"}},
{"type":"Feature","geometry":{"type":"Polygon","coordinates":[[[48.2446,54.7563],[47.9264,54.7127],[47.7759,54.7612],[47.5811,54.6119],[47.6022,54.5525],[47.5479,54.4233],[47.8245,54.3767],[48.2425,54.5843],[48.2446,54.7563]]]},"properties":{"GID_0":"RUS","GID_1":"RUS.75_1","GID_2":"RUS.75.21_1","NAME_1":"Ul'yanovsk","NAME_2":"Tsil'ninskiyrayon"}},
{"type":"Feature","geometry":{"type":"Polygon","coordinates":[[[48.3909,54.2379],[48.4145,54.3172],[48.2824,54.327],[48.1962,54.2415],[48.3909,54.2379]]]},"properties":{"GID_0":"RUS","GID_1":"RUS.75_1","GID_2":"RUS.75.22_1","NAME_1":"Ul'yanovsk","NAME_2":"Ul'yanovsk"}},
{"type":"Feature","geometry":{"type":"Polygon","coordinates":[[[48.2446,54.7563],[48.2425,54.5843],[47.8245,54.3767],[47.9362,54.1571],[48.1076,54.0625],[48.2809,54.0342],[48.3397,54.082],[48.418,54.0756],[48.4508,54.0966],[48.438,54.1046],[48.3669,54.1805],[48.3946,54.2108],[48.3915,54.2391],[48.4171,54.3183],[48.3553,54.5201],[48.4975,54.6228],[48.2446,54.7563]],[[48.3909,54.2379],[48.1962,54.2415],[48.2824,54.327],[48.4145,54.3172],[48.3909,54.2379]]]},"properties":{"GID_0":"RUS","GID_1":"RUS.75_1","GID_2":"RUS.75.23_1","NAME_1":"Ul'yanovsk","NAME_2":"Ul'yanovskiyrayon"}},
{"type":"Feature","geometry":{"type":"Polygon","coordinates":[[[47.5176,53.8435],[47.5199,53.9409],[47.3871,54.0524],[47.4298,54.2292],[47.2017,54.2359],[46.8985,54.127],[46.7366,54.0119],[46.819,53.8501],[46.871,53.8243],[46.8926,53.8165],[47.2627,53.9045],[47.5176,53.8435]]]},"properties":{"GID_0":"RUS","GID_1":"RUS.75_1","GID_2":"RUS.75.24_1","NAME_1":"Ul'yanovsk","NAME_2":"Veshkaymskiyrayon"}},
{"type":"Feature","geometry":{"type":"Polygon","coordinates":[[[49.173,53.8889],[49.3059,54.0611],[49.1443,53.9986],[48.9958,53.9278],[48.7367,54.124],[48.5608,54.1972],[48.5464,54.3492],[48.8843,54.5475],[48.9212,54.5723],[49.094,54.779],[48.8386,54.6516],[48.4975,54.6228],[48.3553,54.5201],[48.4171,54.3183],[48.3915,54.2391],[48.3946,54.2108],[48.3669,54.1805],[48.438,54.1046],[48.4677,54.086],[48.5507,54.0817],[48.8986,53.835],[48.8363,53.7363],[49.173,53.8889]]]},"properties":{"GID_0":"RUS","GID_1":"RUS.75_1","GID_2":"RUS.75.25_1","NAME_1":"Ul'yanovsk","NAME_2":"Waterbody"}}
]}