{"type":"FeatureCollection", "features": [
{"type":"Feature","geometry":{"type":"Polygon","coordinates":[[[133.3923,44.2515],[133.4227,44.308],[133.2966,44.345],[133.3563,44.4763],[133.1577,44.4969],[133.0313,44.4313],[132.9789,44.3822],[132.8954,44.2883],[133.0236,44.2177],[133.0168,44.175],[132.9411,44.0991],[132.9578,44.0599],[132.9207,43.9624],[132.987,43.8827],[132.9691,43.8283],[132.9908,43.7287],[132.8499,43.5908],[132.8271,43.503],[132.9783,43.4139],[133.0368,43.4334],[133.1953,43.461],[133.2647,43.5194],[133.2226,43.568],[133.0909,43.5789],[133.1373,43.6518],[133.0562,43.7008],[133.0735,43.7428],[133.239,43.7823],[133.4797,43.8836],[133.5073,44.005],[133.3856,43.9889],[133.4301,44.0675],[133.3714,44.1066],[133.3036,44.1144],[133.2555,44.1629],[133.2885,44.2196],[133.3923,44.2515]]]},"properties":{"GID_0":"RUS","GID_1":"RUS.56_1","GID_2":"RUS.56.1_1","NAME_1":"Primor'ye","NAME_2":"Anuchinskiyrayon"}},
{"type":"Feature","geometry":{"type":"Polygon","coordinates":[[[133.3714,44.1066],[133.4527,44.0997],[133.5154,44.1298],[133.5237,44.1836],[133.3923,44.2515],[133.2885,44.2196],[133.2555,44.1629],[133.3036,44.1144],[133.3714,44.1066]]]},"properties":{"GID_0":"RUS","GID_1":"RUS.56_1","GID_2":"RUS.56.2_1","NAME_1":"Primor'ye","NAME_2":"Arsen'evgorod"}},
{"type":"Feature","geometry":{"type":"Polygon","coordinates":[[[132.0876,43.3176],[132.1612,43.2517],[132.2096,43.2201],[132.3229,43.3121],[132.3639,43.3076],[132.4681,43.4346],[132.4106,43.548],[132.3049,43.5998],[132.2453,43.5119],[132.1678,43.504],[132.1218,43.4406],[132.0876,43.3176]]]},"properties":{"GID_0":"RUS","GID_1":"RUS.56_1","GID_2":"RUS.56.3_1","NAME_1":"Primor'ye","NAME_2":"Artemgorsovet"}},
{"type":"Feature","geometry":{"type":"Polygon","coordinates":[[[132.3284,43.0012],[132.3332,43.005],[132.3281,43.0054],[132.3284,43.0012]]]},"properties":{"GID_0":"RUS","GID_1":"RUS.56_1","GID_2":"RUS.56.4_1","NAME_1":"Primor'ye","NAME_2":"Bol'shoyKamen'"}},
{"type":"Feature","geometry":{"type":"Polygon","coordinates":[[[132.581,44.5753],[132.582,44.5324],[132.5039,44.4802],[132.4363,44.495],[132.3837,44.4352],[132.438,44.35],[132.3875,44.1991],[132.4287,44.1342],[132.4722,44.1324],[132.6249,44.0323],[132.749,44.1353],[132.9411,44.0991],[133.0168,44.175],[133.0236,44.2177],[132.8954,44.2883],[132.9789,44.3822],[132.998,44.4001],[132.8603,44.4949],[132.744,44.5182],[132.7289,44.5585],[132.5906,44.5848],[132.581,44.5753]]]},"properties":{"GID_0":"RUS","GID_1":"RUS.56_1","GID_2":"RUS.56.5_1","NAME_1":"Primor'ye","NAME_2":"Chernigovskiyrayon"}},
{"type":"Feature","geometry":{"type":"Polygon","coordinates":[[[133.4797,43.8836],[133.6059,43.8721],[133.5339,43.7185],[133.5952,43.7087],[133.7491,43.6153],[133.8835,43.5752],[133.9744,43.6284],[134.0613,43.5402],[134.1658,43.5149],[134.2103,43.5519],[134.3101,43.539],[134.4352,43.7196],[134.5429,43.7856],[134.5696,43.8663],[134.4769,43.9479],[134.5056,44.0039],[134.4393,44.0309],[134.5084,44.144],[134.528,44.2553],[134.5792,44.3128],[134.8025,44.2881],[134.8554,44.3023],[134.9285,44.3848],[134.8102,44.5214],[134.7913,44.5728],[134.9116,44.7278],[134.9697,44.726],[135.083,44.7872],[135.1801,44.8887],[135.0746,44.9028],[135.0365,44.8572],[134.9605,44.8917],[135.0119,44.9528],[135.0139,45.011],[135.0646,45.0565],[134.9536,45.0546],[134.8911,45.079],[134.8144,44.9799],[134.6925,44.9748],[134.646,45.0588],[134.5811,45.086],[134.3936,45.0658],[134.3343,45.0266],[134.2805,45.0827],[134.1114,44.9864],[134.1523,44.9261],[134.1806,44.8065],[134.1183,44.684],[134.0419,44.6746],[133.9998,44.606],[133.8885,44.5271],[133.8539,44.4776],[133.8259,44.3377],[133.6156,44.1734],[133.5073,44.005],[133.4797,43.8836]]]},"properties":{"GID_0":"RUS","GID_1":"RUS.56_1","GID_2":"RUS.56.6_1","NAME_1":"Primor'ye","NAME_2":"Chuguevskiyrayon"}},
{"type":"Feature","geometry":{"type":"Polygon","coordinates":[[[135.6134,44.5537],[135.5858,44.5737],[135.5678,44.5514],[135.6134,44.5537]]]},"properties":{"GID_0":"RUS","GID_1":"RUS.56_1","GID_2":"RUS.56.7_1","NAME_1":"Primor'ye","NAME_2":"Dal'negorsk"}},
{"type":"Feature","geometry":{"type":"Polygon","coordinates":[[[134.9697,44.726],[135.0341,44.7163],[135.2523,44.7548],[135.2462,44.6905],[135.4867,44.5454],[135.5301,44.4188],[135.6707,44.4152],[135.6548,44.334],[135.7325,44.2649],[135.8234,44.3077],[135.8796,44.4121],[136.0367,44.4469],[136.1501,44.496],[136.1876,44.5389],[136.1352,44.5745],[136.0056,44.604],[136.0226,44.6767],[136.0857,44.722],[136.0931,44.8422],[135.9604,44.863],[136.0334,44.9726],[135.9525,45.0514],[135.8132,45.1208],[135.8249,45.1422],[135.7665,45.1247],[135.6794,45.0498],[135.5809,45.0025],[135.5461,45.0339],[135.4087,45.0743],[135.3188,45.0538],[135.2421,45.1065],[135.1728,45.0467],[135.1528,45.0967],[135.1048,45.0663],[135.0646,45.0565],[135.0139,45.011],[135.0119,44.9528],[134.9605,44.8917],[135.0365,44.8572],[135.0746,44.9028],[135.1801,44.8887],[135.083,44.7872],[134.9697,44.726]],[[135.6134,44.5537],[135.5678,44.5514],[135.5858,44.5737],[135.6134,44.5537]]]},"properties":{"GID_0":"RUS","GID_1":"RUS.56_1","GID_2":"RUS.56.8_1","NAME_1":"Primor'ye","NAME_2":"Dal'negorskiyrayon"}},
{"type":"Feature","geometry":{"type":"Polygon","coordinates":[[[133.9899,45.9851],[133.8503,45.9675],[133.7675,45.881],[133.7623,45.8284],[133.9345,45.8078],[133.9844,45.8421],[134.0206,45.9019],[133.9672,45.9187],[133.9899,45.9851]]]},"properties":{"GID_0":"RUS","GID_1":"RUS.56_1","GID_2":"RUS.56.9_1","NAME_1":"Primor'ye","NAME_2":"Dal'nerechenskgorsovet"}},
{"type":"Feature","geometry":{"type":"Polygon","coordinates":[[[133.5764,45.8671],[133.6685,45.8251],[133.8026,45.6863],[134.0762,45.5412],[133.9462,45.3822],[133.9385,45.329],[133.8476,45.2391],[133.8542,45.238],[133.9386,45.1926],[134.0486,45.188],[134.1041,45.1557],[134.3004,45.1741],[134.334,45.0991],[134.3936,45.0658],[134.5811,45.086],[134.646,45.0588],[134.6925,44.9748],[134.8144,44.9799],[134.8911,45.079],[134.9536,45.0546],[135.0646,45.0565],[135.1048,45.0663],[135.1528,45.0967],[135.1421,45.1224],[135.0085,45.286],[134.9312,45.2943],[134.7995,45.3704],[134.8065,45.4093],[134.9157,45.4102],[134.9643,45.5343],[134.7575,45.5652],[134.6624,45.5304],[134.5382,45.6326],[134.2575,45.659],[134.2183,45.7166],[134.3817,45.7313],[134.403,45.7643],[134.3471,45.8605],[134.2869,45.8818],[134.0561,45.8907],[134.0206,45.9019],[133.9844,45.8421],[133.9345,45.8078],[133.7623,45.8284],[133.7675,45.881],[133.8503,45.9675],[133.9899,45.9851],[133.998,46.0097],[134.0219,46.0559],[133.8477,46.1284],[133.6942,46.115],[133.7345,46.0473],[133.6569,45.9377],[133.5764,45.8671]]]},"properties":{"GID_0":"RUS","GID_1":"RUS.56_1","GID_2":"RUS.56.10_1","NAME_1":"Primor'ye","NAME_2":"Dal'nerechenskiyrayon"}},
{"type":"Feature","geometry":{"type":"Polygon","coordinates":[[[134.5056,44.0039],[134.5479,43.9866],[134.6645,44.0554],[134.6739,44.1529],[134.7821,44.1674],[134.8897,44.1028],[135.0745,44.0501],[135.2241,44.071],[135.3159,44.1692],[135.4048,44.2267],[135.6573,44.1351],[135.6485,44.1755],[135.8234,44.3077],[135.7325,44.2649],[135.6548,44.334],[135.6707,44.4152],[135.5301,44.4188],[135.4867,44.5454],[135.2462,44.6905],[135.2523,44.7548],[135.0341,44.7163],[134.9697,44.726],[134.9116,44.7278],[134.7913,44.5728],[134.8102,44.5214],[134.9285,44.3848],[134.8554,44.3023],[134.8025,44.2881],[134.5792,44.3128],[134.528,44.2553],[134.5084,44.144],[134.4393,44.0309],[134.5056,44.0039]]]},"properties":{"GID_0":"RUS","GID_1":"RUS.56_1","GID_2":"RUS.56.11_1","NAME_1":"Primor'ye","NAME_2":"Kavalerovskiyrayon"}},
{"type":"Feature","geometry":{"type":"Polygon","coordinates":[[[131.5305,45.0104],[131.5618,44.92],[131.5485,44.8687],[131.6503,44.8108],[131.7519,44.8327],[131.8493,44.7833],[131.8676,44.6779],[131.9997,44.6123],[131.9474,44.5719],[132.0081,44.552],[132.207,44.6187],[132.2935,44.6292],[132.1116,44.7407],[132.1836,44.9569],[132.0586,45.2356],[131.9325,45.2799],[131.9091,45.3301],[131.8268,45.3087],[131.7645,45.2096],[131.6782,45.2169],[131.6465,45.156],[131.6867,45.1142],[131.5305,45.0104]]]},"properties":{"GID_0":"RUS","GID_1":"RUS.56_1","GID_2":"RUS.56.12_1","NAME_1":"Primor'ye","NAME_2":"Khankayskiyrayon"}},
{"type":"Feature","geometry":{"type":"Polygon","coordinates":[[[131.2949,43.417],[131.259,43.2884],[131.1899,43.2009],[131.2043,43.1432],[131.0966,43.0204],[131.1266,42.9305],[131.0102,42.9167],[131.0296,42.8633],[130.7892,42.8643],[130.5443,42.8077],[130.4051,42.7223],[130.4597,42.6795],[130.5306,42.6976],[130.623,42.6227],[130.6105,42.5582],[130.5612,42.5354],[130.645,42.3483],[130.6946,42.2879],[130.7521,42.3685],[130.7785,42.4651],[130.8429,42.474],[130.8401,42.5643],[130.7732,42.5776],[130.6799,42.679],[130.839,42.6957],[130.8932,42.6501],[131.081,42.6376],[131.1763,42.5962],[131.2629,42.7765],[131.4138,42.846],[131.4093,42.9074],[131.5063,42.9474],[131.4738,42.9813],[131.5665,43.0435],[131.6951,43.1649],[131.7624,43.1979],[131.7576,43.329],[131.77757870280738,43.35338189738627],[131.77763221593383,43.35351654331736],[131.7888,43.3608],[131.6943,43.3997],[131.5919,43.4043],[131.4464,43.3862],[131.4116,43.458],[131.2949,43.417]]]},"properties":{"GID_0":"RUS","GID_1":"RUS.56_1","GID_2":"RUS.56.13_1","NAME_1":"Primor'ye","NAME_2":"Khasanskiyrayon"}},
{"type":"Feature","geometry":{"type":"Polygon","coordinates":[[[132.2935,44.6292],[132.207,44.6187],[132.0081,44.552],[131.9474,44.5719],[131.8988,44.5615],[131.8069,44.4456],[131.8035,44.3821],[131.8155,44.3203],[131.8625,44.2466],[132.0424,44.2991],[132.1563,44.1868],[132.1266,44.1181],[132.1667,44.0948],[132.3538,44.0678],[132.4287,44.1342],[132.3875,44.1991],[132.438,44.35],[132.3837,44.4352],[132.4363,44.495],[132.5039,44.4802],[132.582,44.5324],[132.581,44.5753],[132.5606,44.555],[132.2935,44.6292]]]},"properties":{"GID_0":"RUS","GID_1":"RUS.56_1","GID_2":"RUS.56.14_1","NAME_1":"Primor'ye","NAME_2":"Khorol'skiyrayon"}},
{"type":"Feature","geometry":{"type":"Polygon","coordinates":[[[133.1322,45.4179],[133.1383,45.3642],[133.0967,45.2717],[133.1584,45.2177],[133.2092,45.1108],[133.3186,45.0523],[133.2621,44.9457],[133.3501,44.9191],[133.4007,44.8692],[133.4762,44.8996],[133.5404,44.9615],[133.6384,44.9233],[133.7045,44.9152],[133.7822,44.7494],[133.9728,44.68],[134.0581,44.7471],[134.1183,44.684],[134.1806,44.8065],[134.1523,44.9261],[134.1114,44.9864],[134.2805,45.0827],[134.3343,45.0266],[134.3936,45.0658],[134.334,45.0991],[134.3004,45.1741],[134.1041,45.1557],[134.0486,45.188],[133.9386,45.1926],[133.8542,45.238],[133.812,45.2451],[133.7099,45.2202],[133.6453,45.2972],[133.4649,45.2513],[133.3512,45.3],[133.1322,45.4179]]]},"properties":{"GID_0":"RUS","GID_1":"RUS.56_1","GID_2":"RUS.56.15_1","NAME_1":"Primor'ye","NAME_2":"Kirovskiyrayon"}},
{"type":"Feature","geometry":{"type":"Polygon","coordinates":[[[135.8249,45.1422],[135.8864,45.2088],[136.0826,45.236],[136.3117,45.3355],[136.4935,45.6626],[136.6073,45.6922],[136.6607,45.799],[136.5649,45.9164],[136.6639,45.9933],[136.7159,46.06],[136.692,46.0974],[136.7719,46.1721],[136.6982,46.3052],[136.6191,46.3921],[136.2944,46.4469],[136.1966,46.4218],[136.0849,46.4711],[135.9984,46.438],[136.0123,46.5394],[135.9025,46.6362],[135.7995,46.5401],[135.6995,46.4925],[135.6931,46.579],[135.5842,46.4863],[135.5408,46.4169],[135.3248,46.3002],[135.2259,46.2871],[135.0992,46.2993],[134.9722,46.2826],[134.772,46.1947],[134.7276,46.2625],[134.6043,46.252],[134.5723,46.1915],[134.4961,46.1719],[134.4617,46.1154],[134.3617,46.149],[134.1308,46.1096],[134.0219,46.0559],[133.998,46.0097],[133.9672,45.9187],[134.0561,45.8907],[134.2869,45.8818],[134.3471,45.8605],[134.403,45.7643],[134.3817,45.7313],[134.2183,45.7166],[134.2575,45.659],[134.5382,45.6326],[134.6624,45.5304],[134.7575,45.5652],[134.9643,45.5343],[134.9157,45.4102],[134.8065,45.4093],[134.7995,45.3704],[134.9312,45.2943],[135.0085,45.286],[135.1421,45.1224],[135.1728,45.0467],[135.2421,45.1065],[135.3188,45.0538],[135.4087,45.0743],[135.5461,45.0339],[135.5809,45.0025],[135.6794,45.0498],[135.7665,45.1247],[135.8249,45.1422]]]},"properties":{"GID_0":"RUS","GID_1":"RUS.56_1","GID_2":"RUS.56.16_1","NAME_1":"Primor'ye","NAME_2":"Krasnoarmeyskiyrayon"}},
{"type":"Feature","geometry":{"type":"Polygon","coordinates":[[[134.5056,44.0039],[134.4769,43.9479],[134.5696,43.8663],[134.5429,43.7856],[134.4352,43.7196],[134.3101,43.539],[134.2103,43.5519],[134.1658,43.5149],[134.0613,43.5402],[133.9744,43.6284],[133.8835,43.5752],[133.7491,43.6153],[133.6517,43.674],[133.5941,43.5985],[133.669,43.5575],[133.694,43.5047],[133.6682,43.4385],[133.762,43.4332],[133.8528,43.3714],[133.8472,43.3386],[133.7303,43.2842],[133.6999,43.1976],[133.5,43.048],[133.4518,43.0366],[133.3143,42.9113],[133.2671,42.7954],[133.1728,42.7029],[133.229,42.7513],[133.596,42.834],[133.6413,42.8618],[133.7118,42.8238],[133.8218,42.8913],[133.911,42.8704],[134.0471,42.9724],[134.1282,42.9987],[134.1754,43.0649],[134.4854,43.1821],[134.6074,43.2374],[134.8885,43.4113],[135.0968,43.5026],[135.1349,43.5013],[135.1837,43.6115],[135.2796,43.686],[135.3718,43.7249],[135.5015,43.846],[135.4607,43.9135],[135.5307,44.0083],[135.6329,44.0351],[135.6573,44.1351],[135.4048,44.2267],[135.3159,44.1692],[135.2241,44.071],[135.0745,44.0501],[134.8897,44.1028],[134.7821,44.1674],[134.6739,44.1529],[134.6645,44.0554],[134.5479,43.9866],[134.5056,44.0039]]]},"properties":{"GID_0":"RUS","GID_1":"RUS.56_1","GID_2":"RUS.56.17_1","NAME_1":"Primor'ye","NAME_2":"Lazovskiyrayon"}},
{"type":"Feature","geometry":{"type":"Polygon","coordinates":[[[133.1322,45.4179],[133.3512,45.3],[133.4649,45.2513],[133.6453,45.2972],[133.7099,45.2202],[133.812,45.2451],[133.8476,45.2391],[133.9385,45.329],[133.9462,45.3822],[134.0762,45.5412],[133.8026,45.6863],[133.6685,45.8251],[133.5764,45.8671],[133.5042,45.8829],[133.4639,45.829],[133.4437,45.696],[133.4761,45.6544],[133.3421,45.5479],[133.2152,45.5091],[133.1322,45.4179]]]},"properties":{"GID_0":"RUS","GID_1":"RUS.56_1","GID_2":"RUS.56.18_1","NAME_1":"Primor'ye","NAME_2":"Lesozavodskiyrayon"}},
{"type":"Feature","geometry":{"type":"Polygon","coordinates":[[[132.9411,44.0991],[132.749,44.1353],[132.6249,44.0323],[132.4722,44.1324],[132.4287,44.1342],[132.3538,44.0678],[132.1667,44.0948],[132.1266,44.1181],[132.1563,44.1868],[132.0424,44.2991],[131.8625,44.2466],[131.8492,44.1225],[131.9705,44.0529],[132.0585,43.8937],[132.1348,43.915],[132.4986,43.9149],[132.4738,43.8716],[132.5713,43.7856],[132.6631,43.7715],[132.802,43.7113],[132.8013,43.6246],[132.8499,43.5908],[132.9908,43.7287],[132.9691,43.8283],[132.987,43.8827],[132.9207,43.9624],[132.9578,44.0599],[132.9411,44.0991]]]},"properties":{"GID_0":"RUS","GID_1":"RUS.56_1","GID_2":"RUS.56.19_1","NAME_1":"Primor'ye","NAME_2":"Mikhaylovskiyrayon"}},
{"type":"Feature","geometry":{"type":"Polygon","coordinates":[[[132.1678,43.504],[132.1797,43.5452],[132.0264,43.5931],[132.0392,43.654],[131.9548,43.6706],[131.9179,43.7245],[131.8019,43.7111],[131.5862,43.5515],[131.5468,43.5033],[131.4116,43.458],[131.4464,43.3862],[131.5919,43.4043],[131.6943,43.3997],[131.7888,43.3608],[131.8174,43.3015],[131.9001,43.3213],[131.9974,43.2907],[132.0638,43.3188],[132.0876,43.3176],[132.1218,43.4406],[132.1678,43.504]]]},"properties":{"GID_0":"RUS","GID_1":"RUS.56_1","GID_2":"RUS.56.20_1","NAME_1":"Primor'ye","NAME_2":"Nadezhdinskiyrayon"}},
{"type":"Feature","geometry":{"type":"MultiPolygon","coordinates":[[[[132.8007,42.8127],[132.8604,42.7335],[132.899,42.8296],[133.0079,42.8591],[132.8706,42.8538],[132.8007,42.8127]]],[[[132.573,42.9186],[132.5336,42.8787],[132.5596,42.8546],[132.7012,42.8643],[132.7832,42.8874],[132.8364,42.951],[132.7196,42.969],[132.6505,42.9342],[132.5979,42.9642],[132.573,42.9186]]]]},"properties":{"GID_0":"RUS","GID_1":"RUS.56_1","GID_2":"RUS.56.21_1","NAME_1":"Primor'ye","NAME_2":"Nakhodkagorsovet"}},
{"type":"Feature","geometry":{"type":"Polygon","coordinates":[[[131.2951,44.0684],[131.4085,43.8949],[131.4552,43.8676],[131.6243,43.8975],[131.8806,43.8749],[131.8222,43.9417],[131.7908,44.0923],[131.8492,44.1225],[131.8625,44.2466],[131.8155,44.3203],[131.8103,44.3472],[131.7265,44.3462],[131.6236,44.2765],[131.4873,44.2582],[131.3711,44.2848],[131.231,44.2822],[131.2951,44.0684]]]},"properties":{"GID_0":"RUS","GID_1":"RUS.56_1","GID_2":"RUS.56.22_1","NAME_1":"Primor'ye","NAME_2":"Oktyabr'skiy"}},
{"type":"Feature","geometry":{"type":"Polygon","coordinates":[[[133.0368,43.4334],[133.0191,43.3532],[132.9333,43.3062],[132.8792,43.1509],[132.9834,43.1578],[133.1634,43.1002],[133.184,43.041],[133.3133,43.1467],[133.3319,43.3967],[133.2647,43.5194],[133.1953,43.461],[133.0368,43.4334]]]},"properties":{"GID_0":"RUS","GID_1":"RUS.56_1","GID_2":"RUS.56.23_1","NAME_1":"Primor'ye","NAME_2":"Partizanskgorsovet"}},
{"type":"Feature","geometry":{"type":"Polygon","coordinates":[[[133.2647,43.5194],[133.3319,43.3967],[133.3133,43.1467],[133.184,43.041],[133.1634,43.1002],[132.9834,43.1578],[132.8792,43.1509],[132.78,43.0707],[132.6037,43.0489],[132.5979,42.9642],[132.6505,42.9342],[132.7196,42.969],[132.8364,42.951],[132.7832,42.8874],[132.8007,42.8127],[132.8706,42.8538],[133.0079,42.8591],[133.0656,42.8438],[133.0107,42.8396],[133.0476,42.7699],[132.9985,42.7124],[133.0313,42.6787],[133.1728,42.7029],[133.2671,42.7954],[133.3143,42.9113],[133.4518,43.0366],[133.5,43.048],[133.6999,43.1976],[133.7303,43.2842],[133.8472,43.3386],[133.8528,43.3714],[133.762,43.4332],[133.6682,43.4385],[133.694,43.5047],[133.669,43.5575],[133.5941,43.5985],[133.6517,43.674],[133.5952,43.7087],[133.5339,43.7185],[133.6059,43.8721],[133.4797,43.8836],[133.239,43.7823],[133.0735,43.7428],[133.0562,43.7008],[133.1373,43.6518],[133.0909,43.5789],[133.2226,43.568],[133.2647,43.5194]]]},"properties":{"GID_0":"RUS","GID_1":"RUS.56_1","GID_2":"RUS.56.24_1","NAME_1":"Primor'ye","NAME_2":"Partizanskiyrayon"}},
{"type":"Feature","geometry":{"type":"Polygon","coordinates":[[[131.5305,45.0104],[131.4698,44.9595],[131.3443,44.9819],[131.271,44.9224],[131.138,44.937],[131.084,44.8898],[130.9542,44.8542],[130.963,44.8176],[131.1027,44.6916],[131.231,44.2822],[131.3711,44.2848],[131.4873,44.2582],[131.6236,44.2765],[131.7265,44.3462],[131.8103,44.3472],[131.8035,44.3821],[131.8069,44.4456],[131.8988,44.5615],[131.9474,44.5719],[131.9997,44.6123],[131.8676,44.6779],[131.8493,44.7833],[131.7519,44.8327],[131.6503,44.8108],[131.5485,44.8687],[131.5618,44.92],[131.5305,45.0104]]]},"properties":{"GID_0":"RUS","GID_1":"RUS.56_1","GID_2":"RUS.56.25_1","NAME_1":"Primor'ye","NAME_2":"Pogranichnyyrayon"}},
{"type":"Feature","geometry":{"type":"Polygon","coordinates":[[[133.6942,46.115],[133.8477,46.1284],[134.0219,46.0559],[134.1308,46.1096],[134.3617,46.149],[134.4617,46.1154],[134.4961,46.1719],[134.5723,46.1915],[134.6043,46.252],[134.7276,46.2625],[134.772,46.1947],[134.9722,46.2826],[135.0992,46.2993],[135.2259,46.2871],[135.3248,46.3002],[135.5408,46.4169],[135.5842,46.4863],[135.6931,46.579],[135.6995,46.4925],[135.7995,46.5401],[135.9025,46.6362],[136.0123,46.5394],[135.9984,46.438],[136.0849,46.4711],[136.1966,46.4218],[136.2944,46.4469],[136.6191,46.3921],[136.6982,46.3052],[136.7719,46.1721],[136.8899,46.1844],[136.9716,46.1408],[137.1103,46.1459],[137.1484,46.1987],[137.263,46.1614],[137.3363,46.2021],[137.3332,46.2752],[137.5118,46.3353],[137.5432,46.4021],[137.6869,46.432],[137.78,46.5556],[137.8543,46.5343],[137.9181,46.5816],[137.8796,46.6211],[137.9193,46.6791],[137.8493,46.7452],[137.8009,46.8442],[137.826,46.913],[137.7399,46.955],[137.7581,47.0386],[137.6676,47.181],[137.5611,47.2737],[137.4158,47.2109],[137.2958,47.2398],[137.0753,47.3204],[137.0439,47.3072],[136.9369,47.1034],[136.9919,47.0223],[136.9009,46.9606],[136.7331,46.8965],[136.6004,46.8157],[136.4558,46.8309],[136.3339,46.7852],[136.1481,46.8335],[136.0506,46.8858],[135.9962,46.8142],[135.845,46.8557],[135.7493,46.9233],[135.7269,46.9801],[135.5613,46.9974],[135.4924,46.9419],[135.3771,46.9513],[135.4548,47.054],[135.3629,47.0975],[135.327,47.1942],[135.2361,47.1822],[135.0902,47.2286],[134.9885,47.1484],[134.8875,47.174],[134.8233,47.1421],[134.6904,47.1427],[134.6135,47.0407],[134.6069,46.9725],[134.4707,47.0161],[134.5057,46.9149],[134.5023,46.7627],[134.4192,46.7126],[134.0875,46.679],[133.913,46.5815],[133.8509,46.4607],[133.9421,46.3934],[133.8785,46.3555],[133.9085,46.2716],[133.8494,46.2011],[133.7001,46.1578],[133.6942,46.115]]]},"properties":{"GID_0":"RUS","GID_1":"RUS.56_1","GID_2":"RUS.56.26_1","NAME_1":"Primor'ye","NAME_2":"Pozharskiyrayon"}},
{"type":"Feature","geometry":{"type":"Polygon","coordinates":[[[133.0368,43.4334],[132.9783,43.4139],[132.8271,43.503],[132.8499,43.5908],[132.8013,43.6246],[132.802,43.7113],[132.6631,43.7715],[132.5713,43.7856],[132.4661,43.7994],[132.5608,43.6953],[132.5426,43.6418],[132.4106,43.548],[132.4681,43.4346],[132.3639,43.3076],[132.3229,43.3121],[132.384,43.2101],[132.3276,43.1149],[132.2915,42.9551],[132.2965,42.8676],[132.4401,42.9351],[132.5596,42.8546],[132.5336,42.8787],[132.573,42.9186],[132.5979,42.9642],[132.6037,43.0489],[132.78,43.0707],[132.8792,43.1509],[132.9333,43.3062],[133.0191,43.3532],[133.0368,43.4334]],[[132.3332,43.005],[132.3284,43.0012],[132.3281,43.0054],[132.3332,43.005]]]},"properties":{"GID_0":"RUS","GID_1":"RUS.56_1","GID_2":"RUS.56.27_1","NAME_1":"Primor'ye","NAME_2":"Shkotovskiyrayon"}},
{"type":"Feature","geometry":{"type":"Polygon","coordinates":[[[132.8068,44.546],[132.8137,44.5524],[132.7979,44.5584],[132.7941,44.5501],[132.8068,44.546]]]},"properties":{"GID_0":"RUS","GID_1":"RUS.56_1","GID_2":"RUS.56.28_1","NAME_1":"Primor'ye","NAME_2":"Spassk-Dal'nyy"}},
{"type":"Feature","geometry":{"type":"Polygon","coordinates":[[[132.5906,44.5848],[132.7289,44.5585],[132.744,44.5182],[132.8603,44.4949],[132.998,44.4001],[133.0313,44.4313],[133.1577,44.4969],[133.3563,44.4763],[133.5253,44.5215],[133.4892,44.644],[133.6253,44.7607],[133.6403,44.8167],[133.5721,44.8602],[133.6384,44.9233],[133.5404,44.9615],[133.4762,44.8996],[133.4007,44.8692],[133.3501,44.9191],[133.2621,44.9457],[133.3186,45.0523],[133.2092,45.1108],[133.1584,45.2177],[133.0967,45.2717],[133.1356,45.1271],[132.9727,45.0199],[132.852,45.0557],[132.6969,44.6901],[132.5906,44.5848]],[[132.8068,44.546],[132.7941,44.5501],[132.7979,44.5584],[132.8137,44.5524],[132.8068,44.546]]]},"properties":{"GID_0":"RUS","GID_1":"RUS.56_1","GID_2":"RUS.56.29_1","NAME_1":"Primor'ye","NAME_2":"Spasskiyrayon"}},
{"type":"Feature","geometry":{"type":"Polygon","coordinates":[[[137.5611,47.2737],[137.6676,47.181],[137.7581,47.0386],[137.7399,46.955],[137.826,46.913],[137.8009,46.8442],[137.8493,46.7452],[137.9193,46.6791],[137.8796,46.6211],[137.9181,46.5816],[137.8543,46.5343],[137.78,46.5556],[137.6869,46.432],[137.5432,46.4021],[137.5118,46.3353],[137.3332,46.2752],[137.3363,46.2021],[137.263,46.1614],[137.1484,46.1987],[137.1103,46.1459],[136.9716,46.1408],[136.8899,46.1844],[136.7719,46.1721],[136.692,46.0974],[136.7159,46.06],[136.6639,45.9933],[136.5649,45.9164],[136.6607,45.799],[136.6073,45.6922],[136.4935,45.6626],[136.3117,45.3355],[136.0826,45.236],[135.8864,45.2088],[135.8249,45.1422],[135.8132,45.1208],[135.9525,45.0514],[136.0334,44.9726],[135.9604,44.863],[136.0931,44.8422],[136.0857,44.722],[136.0226,44.6767],[136.0056,44.604],[136.1352,44.5745],[136.1876,44.5389],[136.2419,44.6754],[136.3382,44.731],[136.3543,44.7784],[136.5617,44.9225],[136.5531,44.95],[136.6395,45.0469],[136.7651,45.092],[136.7908,45.1852],[136.9449,45.2658],[137.0603,45.3533],[137.1397,45.3756],[137.1961,45.4508],[137.2983,45.5221],[137.3618,45.6146],[137.4875,45.672],[137.687,45.809],[137.6911,45.8526],[137.7626,45.9336],[137.9283,46.0722],[137.9344,46.0958],[138.1027,46.2368],[138.0974,46.2921],[138.1661,46.4325],[138.2342,46.4925],[138.3436,46.5392],[138.3483,46.6912],[138.4217,46.8097],[138.4842,46.8561],[138.5022,46.9376],[138.6039,47.075],[138.703,47.1361],[138.8367,47.2733],[138.9869,47.3528],[139.0524,47.4074],[138.9538,47.4311],[138.8238,47.4909],[138.6926,47.4569],[138.6034,47.4893],[138.6018,47.6192],[138.5271,47.6747],[138.5785,47.7381],[138.7676,47.8046],[138.7204,47.959],[138.5806,48.0396],[138.6326,48.1136],[138.7119,48.1335],[138.7072,48.186],[138.5898,48.1786],[138.5597,48.2485],[138.4849,48.2831],[138.444,48.4212],[138.2877,48.4529],[138.1606,48.3851],[138.1903,48.3379],[137.9187,48.2874],[137.9126,48.244],[137.7648,48.2008],[137.6317,48.2295],[137.4734,48.2004],[137.3305,48.1056],[137.4068,47.9982],[137.5655,47.9485],[137.5696,47.8782],[137.4591,47.854],[137.4667,47.7927],[137.6021,47.7979],[137.776,47.7142],[137.9373,47.7319],[138.0477,47.6735],[138.0833,47.5037],[138.0017,47.4509],[137.923,47.4436],[137.9141,47.3773],[137.8032,47.3413],[137.7009,47.3664],[137.6359,47.3445],[137.5611,47.2737]]]},"properties":{"GID_0":"RUS","GID_1":"RUS.56_1","GID_2":"RUS.56.30_1","NAME_1":"Primor'ye","NAME_2":"Terneyskiyrayon"}},
{"type":"Feature","geometry":{"type":"Polygon","coordinates":[[[131.2951,44.0684],[131.2505,44.0187],[131.2589,43.9334],[131.2035,43.8236],[131.2285,43.5986],[131.2006,43.5185],[131.3009,43.4559],[131.2949,43.417],[131.4116,43.458],[131.5468,43.5033],[131.5862,43.5515],[131.8019,43.7111],[131.9179,43.7245],[131.9548,43.6706],[132.0392,43.654],[132.0264,43.5931],[132.1797,43.5452],[132.1678,43.504],[132.2453,43.5119],[132.3049,43.5998],[132.4106,43.548],[132.5426,43.6418],[132.5608,43.6953],[132.4661,43.7994],[132.5713,43.7856],[132.4738,43.8716],[132.4986,43.9149],[132.1348,43.915],[132.0585,43.8937],[131.9705,44.0529],[131.8492,44.1225],[131.7908,44.0923],[131.8222,43.9417],[131.8806,43.8749],[131.6243,43.8975],[131.4552,43.8676],[131.4085,43.8949],[131.2951,44.0684]]]},"properties":{"GID_0":"RUS","GID_1":"RUS.56_1","GID_2":"RUS.56.31_1","NAME_1":"Primor'ye","NAME_2":"Ussuriyskiyrayon"}},
{"type":"Feature","geometry":{"type":"MultiPolygon","coordinates":[[[[131.8301,43.0682],[131.7496,42.9957],[131.8321,42.9549],[131.9354,42.9957],[131.8907,43.0621],[131.8301,43.0682]]],[[[132.1612,43.2517],[132.0876,43.3176],[132.0638,43.3188],[132.056,43.2851],[131.921,43.2038],[131.8757,43.1268],[131.9332,43.0654],[132.1629,43.2068],[132.1612,43.2517]]]]},"properties":{"GID_0":"RUS","GID_1":"RUS.56_1","GID_2":"RUS.56.32_1","NAME_1":"Primor'ye","NAME_2":"Vladivostokgorsovet"}},
{"type":"Feature","geometry":{"type":"Polygon","coordinates":[[[133.5073,44.005],[133.6156,44.1734],[133.8259,44.3377],[133.8539,44.4776],[133.8885,44.5271],[133.9998,44.606],[134.0419,44.6746],[134.1183,44.684],[134.0581,44.7471],[133.9728,44.68],[133.7822,44.7494],[133.7045,44.9152],[133.6384,44.9233],[133.5721,44.8602],[133.6403,44.8167],[133.6253,44.7607],[133.4892,44.644],[133.5253,44.5215],[133.3563,44.4763],[133.2966,44.345],[133.4227,44.308],[133.3923,44.2515],[133.5237,44.1836],[133.5154,44.1298],[133.4527,44.0997],[133.3714,44.1066],[133.4301,44.0675],[133.3856,43.9889],[133.5073,44.005]]]},"properties":{"GID_0":"RUS","GID_1":"RUS.56_1","GID_2":"RUS.56.33_1","NAME_1":"Primor'ye","NAME_2":"Yakovlevskiyrayon"}}
]}