{"type":"FeatureCollection", "features": [
{"type":"Feature","geometry":{"type":"Polygon","coordinates":[[[60.1221,65.0576],[60.598,64.9036],[61.3737,65.2338],[61.9028,65.6654],[62.7502,65.8487],[63.157,66.2366],[62.2654,66.6365],[62.2499,66.9714],[61.7645,67.0693],[60.9291,66.9928],[58.7555,66.9896],[58.7844,65.7924],[58.8333,65.3859],[59.1985,65.2156],[60.1231,65.2308],[60.1221,65.0576]]]},"properties":{"GID_0":"RUS","GID_1":"RUS.32_1","GID_2":"RUS.32.1_1","NAME_1":"Komi","NAME_2":"Intagorsovet"}},
{"type":"Feature","geometry":{"type":"Polygon","coordinates":[[[55.2102,65.5966],[55.1879,65.7527],[54.8068,65.9165],[54.1505,66.1086],[53.8516,66.2159],[53.4962,66.3488],[53.4462,66.271],[52.5192,65.221],[52.9927,64.8838],[51.921,64.5441],[53.5735,64.3764],[53.8408,64.3468],[54.1929,64.3221],[54.542,64.4049],[54.6283,65.1871],[55.2102,65.5966]]]},"properties":{"GID_0":"RUS","GID_1":"RUS.32_1","GID_2":"RUS.32.2_1","NAME_1":"Komi","NAME_2":"Izhemskiyrayon"}},
{"type":"Feature","geometry":{"type":"Polygon","coordinates":[[[50.9362,62.1706],[51.329,62.7485],[52.3606,62.6588],[52.5387,62.8843],[53.0782,62.8579],[53.213,62.8399],[52.7343,63.353],[52.508,63.3739],[52.467,63.926],[51.7972,64.3632],[51.921,64.5441],[50.9668,64.5121],[50.5033,64.0813],[49.7432,64.0651],[49.6207,63.8429],[50.309,63.6514],[50.4475,63.2672],[50.0518,63.2614],[49.6651,62.772],[49.8305,62.5238],[50.2639,62.4674],[50.6393,62.2193],[50.9362,62.1706]]]},"properties":{"GID_0":"RUS","GID_1":"RUS.32_1","GID_2":"RUS.32.3_1","NAME_1":"Komi","NAME_2":"Knyazhpogostskiyrayon"}},
{"type":"Feature","geometry":{"type":"Polygon","coordinates":[[[50.9362,62.1706],[51.2314,61.7881],[51.0689,61.6277],[51.4495,61.2779],[51.4996,60.9363],[51.8981,60.879],[52.3478,60.8591],[52.8703,61.0907],[52.5952,61.5785],[52.9938,61.5818],[52.9554,61.9528],[53.5094,62.0981],[53.6162,62.5108],[53.5044,62.6736],[53.5569,62.7975],[53.4524,62.8075],[53.0782,62.8579],[52.5387,62.8843],[52.3606,62.6588],[51.329,62.7485],[50.9362,62.1706]]]},"properties":{"GID_0":"RUS","GID_1":"RUS.32_1","GID_2":"RUS.32.4_1","NAME_1":"Komi","NAME_2":"Kortkerosskiyrayon"}},
{"type":"Feature","geometry":{"type":"Polygon","coordinates":[[[49.9879,59.7912],[51.519,59.9503],[51.9558,60.3252],[51.7679,60.612],[51.8981,60.879],[51.4996,60.9363],[50.8646,61.0055],[50.7939,60.8519],[49.8143,60.6126],[49.8516,60.6],[50.1287,60.2468],[49.9879,59.7912]]]},"properties":{"GID_0":"RUS","GID_1":"RUS.32_1","GID_2":"RUS.32.5_1","NAME_1":"Komi","NAME_2":"Koygorodskiyrayon"}},
{"type":"Feature","geometry":{"type":"Polygon","coordinates":[[[57.3256,65.1405],[57.3272,65.165],[57.2758,65.1519],[57.3256,65.1405]]]},"properties":{"GID_0":"RUS","GID_1":"RUS.32_1","GID_2":"RUS.32.6_1","NAME_1":"Komi","NAME_2":"Pechora"}},
{"type":"Feature","geometry":{"type":"Polygon","coordinates":[[[60.1221,65.0576],[60.1231,65.2308],[59.1985,65.2156],[58.8333,65.3859],[58.7844,65.7924],[55.2102,65.5966],[54.6283,65.1871],[54.542,64.4049],[54.7805,64.4607],[55.9846,64.4192],[55.9755,64.4105],[56.2312,64.4332],[56.3985,64.4446],[57.0666,64.5901],[58.3188,64.4949],[59.6313,64.7337],[60.1221,65.0576]],[[57.3256,65.1405],[57.2758,65.1519],[57.3272,65.165],[57.3256,65.1405]]]},"properties":{"GID_0":"RUS","GID_1":"RUS.32_1","GID_2":"RUS.32.7_1","NAME_1":"Komi","NAME_2":"Pechorskiyrayon"}},
{"type":"Feature","geometry":{"type":"Polygon","coordinates":[[[48.858,61.1407],[48.377,60.991],[48.7037,60.3397],[48.4229,60.1713],[48.465,59.722],[49.5649,59.3932],[49.9879,59.7912],[50.1287,60.2468],[49.8516,60.6],[49.7198,60.6445],[48.858,61.1407]]]},"properties":{"GID_0":"RUS","GID_1":"RUS.32_1","GID_2":"RUS.32.8_1","NAME_1":"Komi","NAME_2":"Priluzskiyrayon"}},
{"type":"Feature","geometry":{"type":"Polygon","coordinates":[[[53.7669,64.355],[53.631,64.2111],[53.6305,64.1416],[53.2908,64.0665],[53.7406,63.5561],[54.7376,63.0237],[54.9953,62.6405],[55.0906,62.6261],[55.2563,63.0856],[55.4977,63.3017],[55.9461,63.219],[56.6362,63.1863],[56.6912,63.2564],[56.3827,63.2571],[55.4204,63.6426],[55.7331,64.1775],[55.9846,64.4192],[54.7805,64.4607],[54.1929,64.3221],[53.8408,64.3468],[53.7669,64.355]]]},"properties":{"GID_0":"RUS","GID_1":"RUS.32_1","GID_2":"RUS.32.9_1","NAME_1":"Komi","NAME_2":"Sosnogorskiyrayon"}},
{"type":"Feature","geometry":{"type":"Polygon","coordinates":[[[49.4241,61.4672],[50.1048,61.5292],[50.3777,61.1906],[50.8646,61.0055],[51.4996,60.9363],[51.4495,61.2779],[51.0689,61.6277],[50.4888,61.6785],[50.6804,61.9053],[51.2314,61.7881],[50.9362,62.1706],[50.6393,62.2193],[49.398,61.7994],[49.2712,61.6435],[49.4241,61.4672]]]},"properties":{"GID_0":"RUS","GID_1":"RUS.32_1","GID_2":"RUS.32.10_1","NAME_1":"Komi","NAME_2":"Syktyvdinskiyrayon"}},
{"type":"Feature","geometry":{"type":"Polygon","coordinates":[[[51.2314,61.7881],[50.6804,61.9053],[50.4888,61.6785],[51.0689,61.6277],[51.2314,61.7881]]]},"properties":{"GID_0":"RUS","GID_1":"RUS.32_1","GID_2":"RUS.32.11_1","NAME_1":"Komi","NAME_2":"Syktyvkargorsovet"}},
{"type":"Feature","geometry":{"type":"Polygon","coordinates":[[[49.4241,61.4672],[49.2463,61.1783],[48.858,61.1407],[49.7198,60.6445],[49.8143,60.6126],[50.7939,60.8519],[50.8646,61.0055],[50.3777,61.1906],[50.1048,61.5292],[49.4241,61.4672]]]},"properties":{"GID_0":"RUS","GID_1":"RUS.32_1","GID_2":"RUS.32.12_1","NAME_1":"Komi","NAME_2":"Sysol'skiyrayon"}},
{"type":"Feature","geometry":{"type":"Polygon","coordinates":[[[59.2609,63.0524],[58.9657,63.3091],[58.3515,63.2839],[57.8206,63.6076],[57.72,63.1359],[56.7717,63.2562],[56.6912,63.2564],[56.6362,63.1863],[55.9461,63.219],[55.4977,63.3017],[55.2563,63.0856],[55.0906,62.6261],[55.1639,62.615],[55.6492,61.9101],[56.2006,61.8647],[56.3962,61.3816],[56.7436,61.56],[58.8498,61.5189],[59.3951,61.6983],[59.6318,62.4263],[59.2609,63.0524]]]},"properties":{"GID_0":"RUS","GID_1":"RUS.32_1","GID_2":"RUS.32.13_1","NAME_1":"Komi","NAME_2":"Troitsko-Pechorskiyrayon"}},
{"type":"Feature","geometry":{"type":"Polygon","coordinates":[[[50.4309,64.8544],[50.2645,64.5242],[49.5606,64.6098],[48.8187,64.3658],[47.805,64.3981],[45.9348,64.3275],[45.8384,63.9912],[46.3776,63.931],[46.9716,63.6963],[47.0189,63.2941],[47.5448,63.1243],[47.0313,62.8861],[47.1662,62.3456],[48.2767,62.3281],[48.3352,62.7248],[48.7266,62.8353],[49.586,62.769],[49.6651,62.772],[50.0518,63.2614],[50.4475,63.2672],[50.309,63.6514],[49.6207,63.8429],[49.7432,64.0651],[50.5033,64.0813],[50.9668,64.5121],[50.4309,64.8544]]]},"properties":{"GID_0":"RUS","GID_1":"RUS.32_1","GID_2":"RUS.32.14_1","NAME_1":"Komi","NAME_2":"Udorskiyrayon"}},
{"type":"Feature","geometry":{"type":"Polygon","coordinates":[[[51.921,64.5441],[51.7972,64.3632],[52.467,63.926],[52.508,63.3739],[52.7343,63.353],[53.213,62.8399],[53.4524,62.8075],[53.9399,62.7599],[54.7131,62.6827],[54.9953,62.6405],[54.7376,63.0237],[53.7406,63.5561],[53.2908,64.0665],[53.6305,64.1416],[53.631,64.2111],[53.7669,64.355],[53.5735,64.3764],[51.921,64.5441]]]},"properties":{"GID_0":"RUS","GID_1":"RUS.32_1","GID_2":"RUS.32.15_1","NAME_1":"Komi","NAME_2":"Ukhtagorsovet"}},
{"type":"Feature","geometry":{"type":"Polygon","coordinates":[[[57.5108,66.0507],[57.5036,66.0619],[57.4835,66.0524],[57.5108,66.0507]]]},"properties":{"GID_0":"RUS","GID_1":"RUS.32_1","GID_2":"RUS.32.16_1","NAME_1":"Komi","NAME_2":"Usinsk"}},
{"type":"Feature","geometry":{"type":"Polygon","coordinates":[[[58.7555,66.9896],[55.9716,66.9781],[53.6396,67.0315],[53.5278,66.3977],[53.4962,66.3488],[53.8516,66.2159],[54.1505,66.1086],[54.8068,65.9165],[55.1879,65.7527],[55.2102,65.5966],[58.7844,65.7924],[58.7555,66.9896]],[[57.5108,66.0507],[57.4835,66.0524],[57.5036,66.0619],[57.5108,66.0507]]]},"properties":{"GID_0":"RUS","GID_1":"RUS.32_1","GID_2":"RUS.32.17_1","NAME_1":"Komi","NAME_2":"Usinskiyrayon"}},
{"type":"Feature","geometry":{"type":"Polygon","coordinates":[[[52.8703,61.0907],[54.9895,60.9036],[55.3171,61.1586],[56.3962,61.3816],[56.2006,61.8647],[55.6492,61.9101],[55.1639,62.615],[54.7131,62.6827],[53.9399,62.7599],[53.5569,62.7975],[53.5044,62.6736],[53.6162,62.5108],[53.5094,62.0981],[52.9554,61.9528],[52.9938,61.5818],[52.5952,61.5785],[52.8703,61.0907]]]},"properties":{"GID_0":"RUS","GID_1":"RUS.32_1","GID_2":"RUS.32.18_1","NAME_1":"Komi","NAME_2":"Ust'-Kulomskiyrayon"}},
{"type":"Feature","geometry":{"type":"Polygon","coordinates":[[[50.4309,64.8544],[50.9668,64.5121],[51.921,64.5441],[52.9927,64.8838],[52.5192,65.221],[53.4462,66.271],[53.5278,66.3977],[53.6396,67.0315],[52.1658,67.0764],[51.5544,66.7796],[48.9307,66.1087],[49.0538,65.2736],[49.6153,65.32],[50.1057,64.897],[50.4309,64.8544]]]},"properties":{"GID_0":"RUS","GID_1":"RUS.32_1","GID_2":"RUS.32.19_1","NAME_1":"Komi","NAME_2":"Ust'-Tsilemskiyrayon"}},
{"type":"Feature","geometry":{"type":"Polygon","coordinates":[[[49.2712,61.6435],[49.398,61.7994],[50.6393,62.2193],[50.2639,62.4674],[49.8305,62.5238],[49.6651,62.772],[49.586,62.769],[49.0477,61.6744],[49.2712,61.6435]]]},"properties":{"GID_0":"RUS","GID_1":"RUS.32_1","GID_2":"RUS.32.20_1","NAME_1":"Komi","NAME_2":"Ust'-Vymskiyrayon"}},
{"type":"Feature","geometry":{"type":"Polygon","coordinates":[[[63.157,66.2366],[63.3385,66.4215],[65.1189,66.9011],[65.0542,67.0696],[66.1368,67.4523],[66.0702,67.9472],[65.3811,67.9744],[65.3333,68.2846],[63.9344,68.0271],[62.9446,67.4036],[61.7645,67.0693],[62.2499,66.9714],[62.2654,66.6365],[63.157,66.2366]]]},"properties":{"GID_0":"RUS","GID_1":"RUS.32_1","GID_2":"RUS.32.21_1","NAME_1":"Komi","NAME_2":"Vorkutagorsovet"}},
{"type":"Feature","geometry":{"type":"Polygon","coordinates":[[[57.406,63.8116],[57.3767,63.8352],[57.3506,63.8107],[57.406,63.8116]]]},"properties":{"GID_0":"RUS","GID_1":"RUS.32_1","GID_2":"RUS.32.22_1","NAME_1":"Komi","NAME_2":"Vuktyl"}},
{"type":"Feature","geometry":{"type":"Polygon","coordinates":[[[59.6313,64.7337],[58.3188,64.4949],[57.0666,64.5901],[56.3985,64.4446],[56.2312,64.4332],[55.9755,64.4105],[55.7331,64.1775],[55.4204,63.6426],[56.3827,63.2571],[56.7717,63.2562],[57.72,63.1359],[57.8206,63.6076],[58.3515,63.2839],[58.9657,63.3091],[59.2609,63.0524],[59.5383,63.8265],[59.897,64.0745],[59.4965,64.5053],[59.6313,64.7337]],[[57.406,63.8116],[57.3506,63.8107],[57.3767,63.8352],[57.406,63.8116]]]},"properties":{"GID_0":"RUS","GID_1":"RUS.32_1","GID_2":"RUS.32.23_1","NAME_1":"Komi","NAME_2":"Vuktyl'skiyrayon"}}
]}