{"type":"FeatureCollection", "features": [
{"type":"Feature","geometry":{"type":"Polygon","coordinates":[[[114.2756,50.4529],[114.7516,50.4458],[115.2531,50.5537],[115.289,50.5464],[115.2268,50.6375],[115.1758,50.6979],[115.087,50.8463],[115.0049,50.929],[114.4457,51.1259],[114.3067,51.2767],[113.8341,51.3434],[113.6499,51.2054],[113.7119,51.0413],[113.6753,51.034],[113.6704,50.9401],[114.1874,50.7302],[114.2756,50.4529]]]},"properties":{"GID_0":"RUS","GID_1":"RUS.83_1","GID_2":"RUS.83.1_1","NAME_1":"Zabaykal'ye","NAME_2":"Aginskiyrayon"}},
{"type":"Feature","geometry":{"type":"Polygon","coordinates":[[[113.1789,49.7906],[114.0012,50.1673],[113.8364,50.4094],[113.4976,50.4975],[113.3386,50.3975],[112.9829,50.5943],[112.6114,50.576],[112.5964,50.5985],[112.3462,50.288],[112.1624,49.9406],[112.2616,49.854],[112.7406,49.8619],[113.1789,49.7906]]]},"properties":{"GID_0":"RUS","GID_1":"RUS.83_1","GID_2":"RUS.83.2_1","NAME_1":"Zabaykal'ye","NAME_2":"Akshinskiyrayon"}},
{"type":"Feature","geometry":{"type":"Polygon","coordinates":[[[117.5398,50.3745],[117.7551,50.5283],[117.7807,50.6863],[118.2636,50.93],[118.3858,50.9734],[118.5324,51.0326],[118.6941,51.2571],[118.527,51.4417],[118.2559,51.2947],[117.9699,51.3239],[117.7927,51.2136],[117.4849,51.2423],[117.3132,51.18],[117.1226,51.1043],[117,51.0269],[117.0399,50.9907],[117.0467,50.8992],[117.0916,50.8362],[117.5307,50.7135],[117.3796,50.3807],[117.5398,50.3745]]]},"properties":{"GID_0":"RUS","GID_1":"RUS.83_1","GID_2":"RUS.83.3_1","NAME_1":"Zabaykal'ye","NAME_2":"Aleksandrovo-Zavodskiyrayon"}},
{"type":"Feature","geometry":{"type":"Polygon","coordinates":[[[116.6148,51.6004],[116.6267,51.6208],[116.6042,51.6272],[116.5819,51.6048],[116.6148,51.6004]]]},"properties":{"GID_0":"RUS","GID_1":"RUS.83_1","GID_2":"RUS.83.4_1","NAME_1":"Zabaykal'ye","NAME_2":"Baley"}},
{"type":"Feature","geometry":{"type":"Polygon","coordinates":[[[117.3132,51.18],[117.2399,51.2485],[117.299,51.5461],[117.2764,51.9303],[117.2242,51.9195],[116.843,51.8099],[116.4927,51.5914],[116.201,51.5602],[115.8889,51.2935],[116.5853,51.3058],[116.7222,51.1897],[116.7922,50.9493],[116.9441,50.9906],[117.1226,51.1043],[117.3132,51.18]],[[116.6148,51.6004],[116.5819,51.6048],[116.6042,51.6272],[116.6267,51.6208],[116.6148,51.6004]]]},"properties":{"GID_0":"RUS","GID_1":"RUS.83_1","GID_2":"RUS.83.5_1","NAME_1":"Zabaykal'ye","NAME_2":"Baleyskiyrayon"}},
{"type":"Feature","geometry":{"type":"Polygon","coordinates":[[[116.0715,50.0113],[116.1848,50.0878],[116.6086,50.1248],[116.9325,50.2654],[117.2727,50.2684],[117.3796,50.3807],[117.5307,50.7135],[117.0916,50.8362],[117.0467,50.8992],[117.0399,50.9907],[117,51.0269],[116.9441,50.9906],[116.7922,50.9493],[116.6621,50.8013],[116.2972,50.5676],[115.7512,50.3999],[115.8114,50.2096],[115.7454,50.0563],[115.4178,49.9012],[115.7209,49.8846],[116.0715,50.0113]],[[116.594,50.3759],[116.5547,50.3911],[116.5785,50.4073],[116.6069,50.3998],[116.594,50.3759]]]},"properties":{"GID_0":"RUS","GID_1":"RUS.83_1","GID_2":"RUS.83.6_1","NAME_1":"Zabaykal'ye","NAME_2":"Borzinskiyrayon"}},
{"type":"Feature","geometry":{"type":"Polygon","coordinates":[[[116.594,50.3759],[116.6069,50.3998],[116.5785,50.4073],[116.5547,50.3911],[116.594,50.3759]]]},"properties":{"GID_0":"RUS","GID_1":"RUS.83_1","GID_2":"RUS.83.7_1","NAME_1":"Zabaykal'ye","NAME_2":"Borzya"}},
{"type":"Feature","geometry":{"type":"Polygon","coordinates":[[[117.9749,53.7102],[117.9585,53.6788],[117.7726,53.4933],[117.4548,53.3944],[117.1953,53.5106],[116.961,53.4459],[117.0442,53.2485],[116.6474,53.0985],[116.4646,53.1472],[116.1291,52.8841],[116.3986,52.7702],[116.3761,52.3927],[116.4985,52.1744],[116.8791,52.1115],[117.3228,52.345],[117.2753,52.4209],[117.6751,52.7483],[118.2738,52.7943],[118.438,53.0179],[118.081,53.3885],[118.1851,53.6295],[118.0921,53.7238],[118.0086,53.6936],[117.9749,53.7102]]]},"properties":{"GID_0":"RUS","GID_1":"RUS.83_1","GID_2":"RUS.83.8_1","NAME_1":"Zabaykal'ye","NAME_2":"Chernyshevskiyrayon"}},
{"type":"Feature","geometry":{"type":"Polygon","coordinates":[[[113.4389,52.0652],[113.4377,52.1013],[113.3639,52.0987],[113.3525,52.0642],[113.4389,52.0652]]]},"properties":{"GID_0":"RUS","GID_1":"RUS.83_1","GID_2":"RUS.83.9_1","NAME_1":"Zabaykal'ye","NAME_2":"Chita"}},
{"type":"Feature","geometry":{"type":"Polygon","coordinates":[[[111.4607,51.893],[111.6461,51.7506],[111.5568,51.4686],[111.9022,51.3906],[112.701,51.7182],[113.2224,51.5856],[113.2067,51.479],[112.9207,51.1419],[112.752,51.1405],[112.9052,50.9274],[113.3809,51.1215],[113.609,51.5642],[113.7795,51.7108],[114.0596,51.7051],[114.2499,51.7846],[114.1765,51.9241],[114.4138,52.1531],[114.4451,52.6096],[114.5723,52.6831],[114.4717,53.0684],[114.2624,53.0778],[114.234,52.822],[114.0285,52.6572],[113.774,52.6271],[113.5659,52.4759],[113.1245,52.4472],[112.9256,52.3445],[112.5186,52.3334],[112.3279,52.2299],[112.1505,52.2946],[111.9043,52.1781],[111.6214,51.9404],[111.4607,51.893]],[[113.4389,52.0652],[113.3525,52.0642],[113.3639,52.0987],[113.4377,52.1013],[113.4389,52.0652]]]},"properties":{"GID_0":"RUS","GID_1":"RUS.83_1","GID_2":"RUS.83.10_1","NAME_1":"Zabaykal'ye","NAME_2":"Chitinskiyrayon"}},
{"type":"Feature","geometry":{"type":"Polygon","coordinates":[[[113.6753,51.034],[113.6526,51.0297],[113.3809,51.1215],[112.9052,50.9274],[112.752,51.1405],[112.5637,51.1645],[112.2423,50.8916],[112.4845,50.7694],[112.5822,50.62],[112.6114,50.576],[112.9829,50.5943],[113.3386,50.3975],[113.4976,50.4975],[113.8364,50.4094],[114.1467,50.4982],[114.2756,50.4529],[114.1874,50.7302],[113.6704,50.9401],[113.6753,51.034]]]},"properties":{"GID_0":"RUS","GID_1":"RUS.83_1","GID_2":"RUS.83.11_1","NAME_1":"Zabaykal'ye","NAME_2":"Dul'durginskiyrayon"}},
{"type":"Feature","geometry":{"type":"Polygon","coordinates":[[[120.3936,52.9527],[120.4553,53.1917],[119.9394,53.1881],[119.0462,52.749],[119.0569,52.6508],[119.3621,52.5273],[119.3601,52.391],[119.1734,52.2082],[118.8853,52.3381],[118.6339,52.102],[118.4823,51.8789],[118.1509,51.7155],[117.9699,51.3239],[118.2559,51.2947],[118.527,51.4417],[118.6941,51.2571],[118.7773,51.2597],[118.8351,51.3014],[118.9662,51.586],[119.1525,51.6552],[119.6992,51.9908],[119.7922,51.8817],[120.2623,52.1245],[120.346,52.3974],[120.5354,52.4496],[120.3962,52.6197],[120.0612,52.5841],[120.0246,52.7597],[120.3936,52.9527]]]},"properties":{"GID_0":"RUS","GID_1":"RUS.83_1","GID_2":"RUS.83.12_1","NAME_1":"Zabaykal'ye","NAME_2":"Gazimuro-Zavodskiyrayon"}},
{"type":"Feature","geometry":{"type":"Polygon","coordinates":[[[120.1085,55.8906],[120.0393,56.0772],[120.1796,56.2222],[120.46,56.2469],[120.2809,56.4571],[119.9451,56.4956],[119.6233,56.7856],[119.6626,57.1636],[119.3915,57.4182],[119.4462,57.5795],[119.0072,57.7272],[119.1371,58.1275],[119.0888,58.2241],[118.6365,58.1774],[118.297,58.3374],[117.7855,58.424],[117.4632,58.33],[117.5739,58.1441],[117.4074,58.0712],[117.2037,57.5304],[117.3217,57.3471],[117.6223,57.33],[117.6638,57.0798],[117.5806,56.8976],[117.2621,56.9653],[116.9767,56.7939],[116.138,56.8327],[115.8029,56.9581],[115.596,56.869],[115.7139,56.3505],[115.8639,56.1275],[115.8721,55.7033],[116.2117,55.8018],[116.5578,55.787],[117.0925,55.9313],[117.0507,55.4593],[117.33,55.5208],[117.886,55.4328],[118.0512,55.2133],[118.324,55.1849],[118.6313,55.2307],[119.3666,55.5983],[119.899,55.9035],[120.1085,55.8906]]]},"properties":{"GID_0":"RUS","GID_1":"RUS.83_1","GID_2":"RUS.83.13_1","NAME_1":"Zabaykal'ye","NAME_2":"Kalarskiyrayon"}},
{"type":"Feature","geometry":{"type":"Polygon","coordinates":[[[119.5581,50.9389],[119.0873,50.8762],[118.993,51.0627],[119.0699,51.2181],[118.9609,51.1656],[118.9335,51.2406],[118.8739,51.2637],[118.8039,51.279],[118.7773,51.2597],[118.6941,51.2571],[118.5324,51.0326],[118.3858,50.9734],[118.3539,50.9626],[118.3444,50.9277],[118.4712,50.8854],[118.5375,50.7619],[118.7639,50.6427],[119.3063,50.6185],[119.5059,50.7888],[119.5581,50.9389]]]},"properties":{"GID_0":"RUS","GID_1":"RUS.83_1","GID_2":"RUS.83.14_1","NAME_1":"Zabaykal'ye","NAME_2":"Kalganskiyrayon"}},
{"type":"Feature","geometry":{"type":"Polygon","coordinates":[[[114.3067,51.2767],[114.3931,51.3931],[114.8947,51.6612],[114.9575,51.9341],[115.1487,52.0213],[115.0102,52.2013],[115.0982,52.2884],[115.1535,52.4166],[114.6284,52.6043],[114.5723,52.6831],[114.4451,52.6096],[114.4138,52.1531],[114.1765,51.9241],[114.2499,51.7846],[114.0596,51.7051],[113.7795,51.7108],[113.609,51.5642],[113.3809,51.1215],[113.6526,51.0297],[113.7119,51.0413],[113.6499,51.2054],[113.8341,51.3434],[114.3067,51.2767]]]},"properties":{"GID_0":"RUS","GID_1":"RUS.83_1","GID_2":"RUS.83.15_1","NAME_1":"Zabaykal'ye","NAME_2":"Karymskiyrayon"}},
{"type":"Feature","geometry":{"type":"Polygon","coordinates":[[[109.6034,51.4223],[109.6478,51.28],[109.2829,51.193],[109.548,50.9855],[109.8317,51.1241],[109.9883,51.1032],[109.9404,50.685],[110.1951,50.6892],[110.8357,50.8349],[110.9756,51.0551],[111.1681,51.1245],[111.5609,51.1475],[111.9022,51.3906],[111.5568,51.4686],[111.6461,51.7506],[111.4607,51.893],[111.0071,51.7771],[110.6572,51.4973],[110.3523,51.5867],[109.8978,51.5835],[109.6034,51.4223]]]},"properties":{"GID_0":"RUS","GID_1":"RUS.83_1","GID_2":"RUS.83.16_1","NAME_1":"Zabaykal'ye","NAME_2":"Khilokskiyrayon"}},
{"type":"Feature","geometry":{"type":"Polygon","coordinates":[[[108.6017,50.4633],[107.9839,50.2657],[107.7034,50.042],[107.938,49.9257],[107.9589,49.667],[108.2843,49.5287],[108.5556,49.3343],[109.3462,49.3405],[109.3662,49.332],[109.4995,49.2798],[109.4916,49.4723],[109.7328,49.4875],[109.8484,49.3643],[110.0931,49.3763],[110.3886,49.596],[110.8034,49.5405],[110.7944,49.6138],[110.8955,49.8689],[110.7551,49.9778],[110.9334,50.1657],[111.0071,50.6663],[110.8357,50.8349],[110.1951,50.6892],[109.9404,50.685],[109.2941,50.6555],[109.1207,50.5497],[108.7055,50.5364],[108.6017,50.4633]]]},"properties":{"GID_0":"RUS","GID_1":"RUS.83_1","GID_2":"RUS.83.17_1","NAME_1":"Zabaykal'ye","NAME_2":"Krasnochikoyskiyrayon"}},
{"type":"Feature","geometry":{"type":"Polygon","coordinates":[[[118.097,50.1018],[118.0783,50.123],[118.0317,50.1036],[118.0675,50.0816],[118.097,50.1018]]]},"properties":{"GID_0":"RUS","GID_1":"RUS.83_1","GID_2":"RUS.83.18_1","NAME_1":"Zabaykal'ye","NAME_2":"Krasnokamensk"}},
{"type":"Feature","geometry":{"type":"Polygon","coordinates":[[[118.7471,49.9503],[118.5897,50.1543],[118.4435,50.1063],[118.0707,50.1741],[117.5398,50.3745],[117.3796,50.3807],[117.2727,50.2684],[117.3421,50.1531],[117.8389,49.757],[117.7514,49.5337],[118.159,49.661],[118.5866,49.9234],[118.7471,49.9503]],[[118.097,50.1018],[118.0675,50.0816],[118.0317,50.1036],[118.0783,50.123],[118.097,50.1018]]]},"properties":{"GID_0":"RUS","GID_1":"RUS.83_1","GID_2":"RUS.83.19_1","NAME_1":"Zabaykal'ye","NAME_2":"Krasnokamenskiyrayon"}},
{"type":"Feature","geometry":{"type":"Polygon","coordinates":[[[109.4995,49.2798],[110.2341,49.1651],[110.3995,49.2585],[110.7663,49.1451],[111.3923,49.3731],[111.9345,49.3955],[112.5132,49.5465],[112.7163,49.4918],[113.0875,49.6083],[113.1789,49.7906],[112.7406,49.8619],[112.2616,49.854],[112.1624,49.9406],[112.3462,50.288],[112.0431,50.3188],[111.7978,50.2628],[111.7168,50.1183],[111.4819,50.175],[111.1729,49.9034],[110.9505,49.5948],[110.8449,49.59],[110.7989,49.5762],[110.8034,49.5405],[110.3886,49.596],[110.0931,49.3763],[109.8484,49.3643],[109.7328,49.4875],[109.4916,49.4723],[109.4995,49.2798]]]},"properties":{"GID_0":"RUS","GID_1":"RUS.83_1","GID_2":"RUS.83.20_1","NAME_1":"Zabaykal'ye","NAME_2":"Kyrinskiyrayon"}},
{"type":"Feature","geometry":{"type":"Polygon","coordinates":[[[120.3936,52.9527],[120.8767,53.287],[121.2185,53.2813],[121.8153,53.4149],[121.9522,53.5535],[121.9448,53.8199],[121.6259,54.0439],[121.7319,54.1992],[121.6685,54.3357],[121.0958,54.5031],[120.8239,54.3059],[120.4993,54.2921],[120.1065,54.0847],[119.7975,54.1336],[119.2162,53.9191],[118.971,53.8871],[118.7661,54.1136],[118.0218,53.9232],[117.9995,53.7565],[117.9749,53.7102],[118.0086,53.6936],[118.0921,53.7238],[118.1851,53.6295],[118.081,53.3885],[118.438,53.0179],[118.5173,53.1388],[119.0433,53.2412],[119.4106,53.374],[119.6828,53.3241],[119.9394,53.1881],[120.4553,53.1917],[120.3936,52.9527]]]},"properties":{"GID_0":"RUS","GID_1":"RUS.83_1","GID_2":"RUS.83.21_1","NAME_1":"Zabaykal'ye","NAME_2":"Mogochinskiyrayon"}},
{"type":"Feature","geometry":{"type":"Polygon","coordinates":[[[115.289,50.5464],[115.4537,50.5149],[115.5752,50.5976],[115.6439,50.631],[115.6564,50.7824],[115.1947,50.8521],[115.7061,51.1027],[115.8096,51.3029],[115.5433,51.5002],[115.0369,51.6862],[114.8947,51.6612],[114.3931,51.3931],[114.3067,51.2767],[114.4457,51.1259],[115.0049,50.929],[115.087,50.8463],[115.1758,50.6979],[115.2268,50.6375],[115.289,50.5464]]]},"properties":{"GID_0":"RUS","GID_1":"RUS.83_1","GID_2":"RUS.83.22_1","NAME_1":"Zabaykal'ye","NAME_2":"Mogoytuyskiyrayon"}},
{"type":"Feature","geometry":{"type":"Polygon","coordinates":[[[117.2242,51.9195],[116.9798,51.9618],[116.8791,52.1115],[116.4985,52.1744],[116.3761,52.3927],[116.3986,52.7702],[116.1291,52.8841],[115.8857,52.789],[115.7449,52.463],[115.9012,52.3706],[115.8564,52.2002],[116.1648,52.0925],[116.3035,51.9427],[116.1221,51.7188],[116.201,51.5602],[116.4927,51.5914],[116.843,51.8099],[117.2242,51.9195]]]},"properties":{"GID_0":"RUS","GID_1":"RUS.83_1","GID_2":"RUS.83.23_1","NAME_1":"Zabaykal'ye","NAME_2":"Nerchinskiyrayon"}},
{"type":"Feature","geometry":{"type":"Polygon","coordinates":[[[120.3962,52.6197],[120.5354,52.4496],[120.346,52.3974],[120.2623,52.1245],[119.7922,51.8817],[119.6992,51.9908],[119.1525,51.6552],[118.9662,51.586],[118.8351,51.3014],[118.8039,51.279],[118.8739,51.2637],[118.9335,51.2406],[118.9609,51.1656],[119.0699,51.2181],[118.993,51.0627],[119.0873,50.8762],[119.5581,50.9389],[119.9874,51.4527],[120.0864,51.6691],[120.652,51.9341],[120.7563,52.2445],[120.6181,52.315],[120.7197,52.5288],[120.3962,52.6197]]]},"properties":{"GID_0":"RUS","GID_1":"RUS.83_1","GID_2":"RUS.83.24_1","NAME_1":"Zabaykal'ye","NAME_2":"Nerchinsko-Zavodskiyrayon"}},
{"type":"Feature","geometry":{"type":"Polygon","coordinates":[[[115.8889,51.2935],[115.8096,51.3029],[115.7061,51.1027],[115.1947,50.8521],[115.6564,50.7824],[115.6439,50.631],[115.6019,50.6105],[115.7512,50.3999],[116.2972,50.5676],[116.6621,50.8013],[116.7922,50.9493],[116.7222,51.1897],[116.5853,51.3058],[115.8889,51.2935]]]},"properties":{"GID_0":"RUS","GID_1":"RUS.83_1","GID_2":"RUS.83.25_1","NAME_1":"Zabaykal'ye","NAME_2":"Olovyanninskiyrayon"}},
{"type":"Feature","geometry":{"type":"Polygon","coordinates":[[[115.4178,49.9012],[115.7454,50.0563],[115.8114,50.2096],[115.7512,50.3999],[115.6019,50.6105],[115.5752,50.5976],[115.4537,50.5149],[115.371,50.5299],[115.2531,50.5537],[114.7516,50.4458],[114.2756,50.4529],[114.1467,50.4982],[113.8364,50.4094],[114.0012,50.1673],[114.3401,50.2823],[115.0041,50.1774],[115.4178,49.9012]]]},"properties":{"GID_0":"RUS","GID_1":"RUS.83_1","GID_2":"RUS.83.26_1","NAME_1":"Zabaykal'ye","NAME_2":"Ononskiyrayon"}},
{"type":"Feature","geometry":{"type":"Polygon","coordinates":[[[108.6017,50.4633],[108.7055,50.5364],[109.1207,50.5497],[109.2941,50.6555],[109.9404,50.685],[109.9883,51.1032],[109.8317,51.1241],[109.548,50.9855],[109.2829,51.193],[109.6478,51.28],[109.6034,51.4223],[109.2466,51.3499],[108.9519,51.4269],[108.4853,51.3918],[108.2951,51.0081],[108.1929,50.5926],[108.6017,50.4633]]]},"properties":{"GID_0":"RUS","GID_1":"RUS.83_1","GID_2":"RUS.83.27_1","NAME_1":"Zabaykal'ye","NAME_2":"Petrovsk-Zabaykal'skiyrayon"}},
{"type":"Feature","geometry":{"type":"Polygon","coordinates":[[[118.7471,49.9503],[119.1975,50.0121],[119.3638,50.1749],[119.1837,50.3459],[119.3063,50.6185],[118.7639,50.6427],[118.5375,50.7619],[118.4712,50.8854],[118.3444,50.9277],[118.3539,50.9626],[118.2636,50.93],[117.7807,50.6863],[117.7551,50.5283],[117.5398,50.3745],[118.0707,50.1741],[118.4435,50.1063],[118.5897,50.1543],[118.7471,49.9503]]]},"properties":{"GID_0":"RUS","GID_1":"RUS.83_1","GID_2":"RUS.83.28_1","NAME_1":"Zabaykal'ye","NAME_2":"Priargunskiyrayon"}},
{"type":"Feature","geometry":{"type":"Polygon","coordinates":[[[117.9699,51.3239],[118.1509,51.7155],[118.4823,51.8789],[118.6339,52.102],[118.2943,51.9825],[118.2513,51.8895],[117.6133,52.098],[117.2764,51.9303],[117.299,51.5461],[117.2399,51.2485],[117.3132,51.18],[117.4849,51.2423],[117.7927,51.2136],[117.9699,51.3239]]]},"properties":{"GID_0":"RUS","GID_1":"RUS.83_1","GID_2":"RUS.83.29_1","NAME_1":"Zabaykal'ye","NAME_2":"Shelopuginskiyrayon"}},
{"type":"Feature","geometry":{"type":"Polygon","coordinates":[[[116.201,51.5602],[116.1221,51.7188],[116.3035,51.9427],[116.1648,52.0925],[115.8564,52.2002],[115.5157,52.1591],[115.0982,52.2884],[115.0102,52.2013],[115.1487,52.0213],[114.9575,51.9341],[114.8947,51.6612],[115.0369,51.6862],[115.5433,51.5002],[115.8096,51.3029],[115.8889,51.2935],[116.201,51.5602]]]},"properties":{"GID_0":"RUS","GID_1":"RUS.83_1","GID_2":"RUS.83.30_1","NAME_1":"Zabaykal'ye","NAME_2":"Shilkinskiyrayon"}},
{"type":"Feature","geometry":{"type":"Polygon","coordinates":[[[117.2764,51.9303],[117.6133,52.098],[118.2513,51.8895],[118.2943,51.9825],[118.6339,52.102],[118.8853,52.3381],[119.1734,52.2082],[119.3601,52.391],[119.3621,52.5273],[119.0569,52.6508],[119.0462,52.749],[119.9394,53.1881],[119.6828,53.3241],[119.4106,53.374],[119.0433,53.2412],[118.5173,53.1388],[118.438,53.0179],[118.2738,52.7943],[117.6751,52.7483],[117.2753,52.4209],[117.3228,52.345],[116.8791,52.1115],[116.9798,51.9618],[117.2242,51.9195],[117.2764,51.9303]]]},"properties":{"GID_0":"RUS","GID_1":"RUS.83_1","GID_2":"RUS.83.31_1","NAME_1":"Zabaykal'ye","NAME_2":"Sretenskiyrayon"}},
{"type":"Feature","geometry":{"type":"Polygon","coordinates":[[[121.6685,54.3357],[122.0792,54.451],[121.6774,54.8337],[121.9527,55.0224],[121.9868,55.3913],[121.8273,55.5923],[121.3717,55.5083],[121.2498,55.9825],[120.8316,56.0254],[120.6124,55.9316],[120.1085,55.8906],[119.899,55.9035],[119.3666,55.5983],[118.6313,55.2307],[118.324,55.1849],[117.9998,54.9253],[117.997,54.6524],[117.574,54.0172],[117.1426,53.8362],[117.4771,53.6979],[118.0218,53.9232],[118.7661,54.1136],[118.971,53.8871],[119.2162,53.9191],[119.7975,54.1336],[120.1065,54.0847],[120.4993,54.2921],[120.8239,54.3059],[121.0958,54.5031],[121.6685,54.3357]]]},"properties":{"GID_0":"RUS","GID_1":"RUS.83_1","GID_2":"RUS.83.32_1","NAME_1":"Zabaykal'ye","NAME_2":"Tungiro-Olekminskiyrayon"}},
{"type":"Feature","geometry":{"type":"Polygon","coordinates":[[[115.8721,55.7033],[115.9603,55.3721],[116.4126,55.3372],[116.825,55.0801],[116.9503,54.8743],[116.712,54.5376],[116.2817,54.5138],[115.5676,54.3907],[115.4592,54.2701],[114.8557,54.0013],[114.617,53.9483],[114.4967,53.815],[113.9865,53.7155],[113.8445,53.6153],[113.944,53.276],[114.2624,53.0778],[114.4717,53.0684],[114.5723,52.6831],[114.6284,52.6043],[115.1535,52.4166],[115.0982,52.2884],[115.5157,52.1591],[115.8564,52.2002],[115.9012,52.3706],[115.7449,52.463],[115.8857,52.789],[116.1291,52.8841],[116.4646,53.1472],[116.6474,53.0985],[117.0442,53.2485],[116.961,53.4459],[117.1953,53.5106],[117.4548,53.3944],[117.7726,53.4933],[117.9585,53.6788],[117.9995,53.7565],[118.0218,53.9232],[117.4771,53.6979],[117.1426,53.8362],[117.574,54.0172],[117.997,54.6524],[117.9998,54.9253],[118.324,55.1849],[118.0512,55.2133],[117.886,55.4328],[117.33,55.5208],[117.0507,55.4593],[117.0925,55.9313],[116.5578,55.787],[116.2117,55.8018],[115.8721,55.7033]]]},"properties":{"GID_0":"RUS","GID_1":"RUS.83_1","GID_2":"RUS.83.33_1","NAME_1":"Zabaykal'ye","NAME_2":"Tungokochenskiyrayon"}},
{"type":"Feature","geometry":{"type":"Polygon","coordinates":[[[112.5964,50.5985],[112.5822,50.62],[112.4845,50.7694],[112.2423,50.8916],[112.5637,51.1645],[112.752,51.1405],[112.9207,51.1419],[113.2067,51.479],[113.2224,51.5856],[112.701,51.7182],[111.9022,51.3906],[111.5609,51.1475],[111.1681,51.1245],[110.9756,51.0551],[110.8357,50.8349],[111.0071,50.6663],[110.9334,50.1657],[110.7551,49.9778],[110.8955,49.8689],[110.7944,49.6138],[110.7989,49.5762],[110.8449,49.59],[110.9505,49.5948],[111.1729,49.9034],[111.4819,50.175],[111.7168,50.1183],[111.7978,50.2628],[112.0431,50.3188],[112.3462,50.288],[112.5964,50.5985]]]},"properties":{"GID_0":"RUS","GID_1":"RUS.83_1","GID_2":"RUS.83.34_1","NAME_1":"Zabaykal'ye","NAME_2":"Uletovskiyrayon"}},
{"type":"Feature","geometry":{"type":"Polygon","coordinates":[[[117.7514,49.5337],[117.8389,49.757],[117.3421,50.1531],[117.2727,50.2684],[116.9325,50.2654],[116.6086,50.1248],[116.1848,50.0878],[116.0715,50.0113],[116.6067,49.9403],[116.9334,49.7252],[117.7514,49.5337]]]},"properties":{"GID_0":"RUS","GID_1":"RUS.83_1","GID_2":"RUS.83.35_1","NAME_1":"Zabaykal'ye","NAME_2":"Zabaykal'skiyrayon"}}
]}