{"type":"FeatureCollection", "features": [
{"type":"Feature","geometry":{"type":"Polygon","coordinates":[[[52.7164,55.9275],[52.9194,55.9262],[53.1961,55.8736],[53.3194,55.8919],[53.2788,55.972],[53.585,56.1705],[53.5689,56.257],[53.3397,56.305],[53.3766,56.1757],[53.232,56.1484],[53.0295,56.2408],[52.9997,56.4215],[52.7386,56.3793],[52.5727,56.2747],[52.7968,56.2275],[52.7046,56.1476],[52.7384,56.0324],[52.7164,55.9275]]]},"properties":{"GID_0":"RUS","GID_1":"RUS.68_1","GID_2":"RUS.68.1_1","NAME_1":"Tatarstan","NAME_2":"Agryzskiyrayon"}},
{"type":"Feature","geometry":{"type":"Polygon","coordinates":[[[50.6219,54.918],[50.5376,54.7154],[50.6543,54.644],[51.08,54.6757],[51.113,54.7977],[51.3355,54.9157],[51.0974,54.9245],[50.8513,55.0815],[50.6809,55.0883],[50.5372,55.0062],[50.6219,54.918]]]},"properties":{"GID_0":"RUS","GID_1":"RUS.68_1","GID_2":"RUS.68.2_1","NAME_1":"Tatarstan","NAME_2":"Aksubayevskiyrayon"}},
{"type":"Feature","geometry":{"type":"Polygon","coordinates":[[[53.8524,55.381],[54.019,55.5248],[54.0101,55.5898],[54.2003,55.688],[54.1949,55.7684],[53.7979,55.9803],[53.3853,55.8749],[53.5313,55.7031],[53.4701,55.6011],[53.5271,55.5435],[53.5468,55.4829],[53.5696,55.4609],[53.5983,55.423],[53.6162,55.4219],[53.8524,55.381]]]},"properties":{"GID_0":"RUS","GID_1":"RUS.68_1","GID_2":"RUS.68.3_1","NAME_1":"Tatarstan","NAME_2":"Aktanyshskiyrayon"}},
{"type":"Feature","geometry":{"type":"Polygon","coordinates":[[[50.1843,54.5147],[50.1795,54.6486],[50.2729,54.7405],[50.2532,54.857],[50.0564,55.0055],[49.9161,55.0462],[49.6498,54.9773],[49.6004,54.8037],[49.751,54.7348],[49.7917,54.5842],[49.8758,54.5302],[50.1843,54.5147]]]},"properties":{"GID_0":"RUS","GID_1":"RUS.68_1","GID_2":"RUS.68.4_1","NAME_1":"Tatarstan","NAME_2":"Al'keevskiyrayon"}},
{"type":"Feature","geometry":{"type":"Polygon","coordinates":[[[52.3183,54.8848],[52.3062,54.9072],[52.2762,54.8963],[52.3183,54.8848]]]},"properties":{"GID_0":"RUS","GID_1":"RUS.68_1","GID_2":"RUS.68.5_1","NAME_1":"Tatarstan","NAME_2":"Al'met'evsk"}},
{"type":"Feature","geometry":{"type":"Polygon","coordinates":[[[52.7614,54.976],[52.5143,55.1029],[52.3682,55.0618],[52.2249,55.1208],[51.9714,55.1414],[51.7885,55.2483],[51.5782,55.1321],[51.4115,55.0986],[51.5694,54.9704],[51.6717,54.8394],[51.9715,54.7863],[52.0228,54.8018],[52.2179,54.7405],[52.3809,54.7859],[52.4565,54.7331],[52.6903,54.8257],[52.7614,54.976]],[[52.3183,54.8848],[52.2762,54.8963],[52.3062,54.9072],[52.3183,54.8848]]]},"properties":{"GID_0":"RUS","GID_1":"RUS.68_1","GID_2":"RUS.68.6_1","NAME_1":"Tatarstan","NAME_2":"Al'met'evskiyrayon"}},
{"type":"Feature","geometry":{"type":"Polygon","coordinates":[[[50.6809,55.0883],[50.3877,55.1741],[50.2969,55.3579],[49.9213,55.3192],[49.7691,55.2313],[49.9161,55.0462],[50.0564,55.0055],[50.2532,54.857],[50.6219,54.918],[50.5372,55.0062],[50.6809,55.0883]]]},"properties":{"GID_0":"RUS","GID_1":"RUS.68_1","GID_2":"RUS.68.7_1","NAME_1":"Tatarstan","NAME_2":"Alekseevskiyrayon"}},
{"type":"Feature","geometry":{"type":"Polygon","coordinates":[[[48.0568,55.5256],[47.8542,55.3651],[47.846,55.2729],[48.0703,55.1869],[48.3886,55.1168],[48.7244,55.1562],[48.7145,55.3265],[48.4433,55.474],[48.1507,55.4537],[48.0568,55.5256]]]},"properties":{"GID_0":"RUS","GID_1":"RUS.68_1","GID_2":"RUS.68.8_1","NAME_1":"Tatarstan","NAME_2":"Apastovskiyrayon"}},
{"type":"Feature","geometry":{"type":"Polygon","coordinates":[[[50.0407,56.4746],[49.7608,56.5565],[49.29,56.3903],[49.3619,56.3267],[49.8402,56.1414],[49.851,55.9599],[49.9029,55.9368],[50.0918,56.0364],[50.2476,56.2767],[49.9081,56.3554],[50.0407,56.4746]]]},"properties":{"GID_0":"RUS","GID_1":"RUS.68_1","GID_2":"RUS.68.9_1","NAME_1":"Tatarstan","NAME_2":"Arskiyrayon"}},
{"type":"Feature","geometry":{"type":"Polygon","coordinates":[[[49.1207,56.422],[49.1383,56.3156],[49.5329,56.1368],[49.6737,56.1533],[49.7699,55.9487],[49.851,55.9599],[49.8402,56.1414],[49.3619,56.3267],[49.29,56.3903],[49.1207,56.422]]]},"properties":{"GID_0":"RUS","GID_1":"RUS.68_1","GID_2":"RUS.68.10_1","NAME_1":"Tatarstan","NAME_2":"Atninskiyrayon"}},
{"type":"Feature","geometry":{"type":"Polygon","coordinates":[[[53.0604,54.848],[53.0578,54.8598],[53.0394,54.8567],[53.052,54.8458],[53.0604,54.848]]]},"properties":{"GID_0":"RUS","GID_1":"RUS.68_1","GID_2":"RUS.68.11_1","NAME_1":"Tatarstan","NAME_2":"Aznakaevo"}},
{"type":"Feature","geometry":{"type":"Polygon","coordinates":[[[53.1855,55.1599],[52.9802,55.2183],[52.9985,55.1709],[52.7614,54.976],[52.6903,54.8257],[52.7998,54.691],[53.0048,54.7692],[53.1113,54.7682],[53.5646,54.9232],[53.1855,55.1599]],[[53.0604,54.848],[53.052,54.8458],[53.0394,54.8567],[53.0578,54.8598],[53.0604,54.848]]]},"properties":{"GID_0":"RUS","GID_1":"RUS.68_1","GID_2":"RUS.68.12_1","NAME_1":"Tatarstan","NAME_2":"Aznakaevskiyrayon"}},
{"type":"Feature","geometry":{"type":"Polygon","coordinates":[[[50.6454,56.4314],[50.5788,56.5434],[50.355,56.7081],[50.2212,56.6805],[50.2069,56.5604],[50.0407,56.4746],[49.9081,56.3554],[50.2476,56.2767],[50.362,56.3036],[50.6454,56.4314]]]},"properties":{"GID_0":"RUS","GID_1":"RUS.68_1","GID_2":"RUS.68.13_1","NAME_1":"Tatarstan","NAME_2":"Baltasinskiyrayon"}},
{"type":"Feature","geometry":{"type":"Polygon","coordinates":[[[53.4397,54.4892],[53.0292,54.4904],[53.0524,54.4529],[53.1233,54.3057],[52.9736,54.2283],[53.0637,54.1524],[53.4268,54.1252],[53.3725,54.2682],[53.4397,54.4892]]]},"properties":{"GID_0":"RUS","GID_1":"RUS.68_1","GID_2":"RUS.68.14_1","NAME_1":"Tatarstan","NAME_2":"Bavlinskiyrayon"}},
{"type":"Feature","geometry":{"type":"Polygon","coordinates":[[[52.797,54.4889],[52.788,54.5062],[52.7712,54.4943],[52.797,54.4889]]]},"properties":{"GID_0":"RUS","GID_1":"RUS.68_1","GID_2":"RUS.68.15_1","NAME_1":"Tatarstan","NAME_2":"Bugul'ma"}},
{"type":"Feature","geometry":{"type":"Polygon","coordinates":[[[53.1233,54.3057],[53.0524,54.4529],[53.0319,54.4849],[53.0094,54.53],[53.0866,54.6128],[52.9838,54.7036],[52.9964,54.7235],[53.045,54.7695],[53.0048,54.7692],[52.7998,54.691],[52.6903,54.8257],[52.4565,54.7331],[52.4962,54.7052],[52.6885,54.5867],[52.5153,54.4523],[52.6081,54.3522],[53.1233,54.3057]],[[52.797,54.4889],[52.7712,54.4943],[52.788,54.5062],[52.797,54.4889]]]},"properties":{"GID_0":"RUS","GID_1":"RUS.68_1","GID_2":"RUS.68.16_1","NAME_1":"Tatarstan","NAME_2":"Bugul'minskiyrayon"}},
{"type":"Feature","geometry":{"type":"Polygon","coordinates":[[[48.0703,55.1869],[47.7993,54.9656],[47.872,54.8499],[48.0841,54.7643],[48.2805,54.7608],[48.584,54.9505],[48.4015,54.9877],[48.3886,55.1168],[48.0703,55.1869]]]},"properties":{"GID_0":"RUS","GID_1":"RUS.68_1","GID_2":"RUS.68.17_1","NAME_1":"Tatarstan","NAME_2":"Buinskiyrayon"}},
{"type":"Feature","geometry":{"type":"Polygon","coordinates":[[[51.1603,54.6439],[51.5071,54.6491],[51.8961,54.5227],[52.0176,54.6812],[52.0397,54.7675],[52.0293,54.786],[51.9995,54.7952],[51.9715,54.7863],[51.6717,54.8394],[51.5694,54.9704],[51.4741,54.9619],[51.3994,54.9395],[51.3355,54.9157],[51.113,54.7977],[51.08,54.6757],[51.1603,54.6439]]]},"properties":{"GID_0":"RUS","GID_1":"RUS.68_1","GID_2":"RUS.68.18_1","NAME_1":"Tatarstan","NAME_2":"Cheremshanskiyrayon"}},
{"type":"Feature","geometry":{"type":"Polygon","coordinates":[[[50.6491,55.3577],[50.6495,55.3714],[50.6359,55.3713],[50.6259,55.3605],[50.6491,55.3577]]]},"properties":{"GID_0":"RUS","GID_1":"RUS.68_1","GID_2":"RUS.68.19_1","NAME_1":"Tatarstan","NAME_2":"Chistopol'"}},
{"type":"Feature","geometry":{"type":"Polygon","coordinates":[[[50.8513,55.0815],[51.086,55.2366],[51.3282,55.3265],[51.2447,55.4205],[51.3953,55.4602],[51.4366,55.4671],[51.2529,55.4872],[51.0527,55.4133],[50.929,55.4443],[50.6392,55.3734],[50.2969,55.3579],[50.3877,55.1741],[50.6809,55.0883],[50.8513,55.0815]],[[50.6491,55.3577],[50.6259,55.3605],[50.6359,55.3713],[50.6495,55.3714],[50.6491,55.3577]]]},"properties":{"GID_0":"RUS","GID_1":"RUS.68_1","GID_2":"RUS.68.20_1","NAME_1":"Tatarstan","NAME_2":"Chistopol'skiyrayon"}},
{"type":"Feature","geometry":{"type":"Polygon","coordinates":[[[47.872,54.8499],[47.3791,54.8304],[47.2797,54.7233],[47.4427,54.5749],[47.5811,54.6119],[47.7759,54.7612],[47.9264,54.7127],[48.0841,54.7643],[47.872,54.8499]]]},"properties":{"GID_0":"RUS","GID_1":"RUS.68_1","GID_2":"RUS.68.21_1","NAME_1":"Tatarstan","NAME_2":"Drozhzhanovskiyrayon"}},
{"type":"Feature","geometry":{"type":"Polygon","coordinates":[[[48.7244,55.1562],[48.8707,55.1039],[48.8483,55.0069],[49.2635,55.1816],[49.0122,55.4536],[49.041,55.5161],[49.0394,55.5345],[49.0283,55.5493],[49.0262,55.5598],[49.0188,55.5735],[49.0182,55.5618],[48.9883,55.5162],[48.8611,55.4392],[48.8143,55.3243],[48.7145,55.3265],[48.7244,55.1562]]]},"properties":{"GID_0":"RUS","GID_1":"RUS.68_1","GID_2":"RUS.68.22_1","NAME_1":"Tatarstan","NAME_2":"Kamsko-Ust'inskiyrayon"}},
{"type":"Feature","geometry":{"type":"Polygon","coordinates":[[[50.6454,56.4314],[50.362,56.3036],[50.6355,56.1873],[50.8298,55.8719],[51.1914,56.004],[51.5368,56.0971],[51.3242,56.0987],[51.0319,56.1763],[50.9178,56.2852],[50.9625,56.357],[50.6961,56.3804],[50.6454,56.4314]]]},"properties":{"GID_0":"RUS","GID_1":"RUS.68_1","GID_2":"RUS.68.23_1","NAME_1":"Tatarstan","NAME_2":"Kukmorskiyrayon"}},
{"type":"Feature","geometry":{"type":"Polygon","coordinates":[[[49.7615,55.5978],[49.7147,55.5837],[49.2201,55.8019],[49.1584,55.7699],[49.0855,55.7821],[49.044,55.7806],[49.007,55.7763],[48.9746,55.7746],[48.987,55.7458],[49.0196,55.5876],[49.0188,55.5735],[49.0243,55.575],[49.0297,55.5718],[49.0591,55.546],[49.1032,55.4513],[49.2487,55.3031],[49.714,55.4548],[49.9299,55.3679],[49.8368,55.567],[49.8016,55.5836],[49.7615,55.5978]]]},"properties":{"GID_0":"RUS","GID_1":"RUS.68_1","GID_2":"RUS.68.24_1","NAME_1":"Tatarstan","NAME_2":"Laishevskiyrayon"}},
{"type":"Feature","geometry":{"type":"Polygon","coordinates":[[[52.4562,54.6359],[52.4604,54.653],[52.4338,54.6466],[52.4562,54.6359]]]},"properties":{"GID_0":"RUS","GID_1":"RUS.68_1","GID_2":"RUS.68.25_1","NAME_1":"Tatarstan","NAME_2":"Leninogorsk"}},
{"type":"Feature","geometry":{"type":"Polygon","coordinates":[[[52.5153,54.4523],[52.6885,54.5867],[52.4962,54.7052],[52.3809,54.7859],[52.2179,54.7405],[52.0228,54.8018],[51.9995,54.7952],[52.0293,54.786],[52.0397,54.7675],[52.0176,54.6812],[51.8961,54.5227],[52.0753,54.3417],[52.3129,54.4528],[52.5153,54.4523]],[[52.4562,54.6359],[52.4338,54.6466],[52.4604,54.653],[52.4562,54.6359]]]},"properties":{"GID_0":"RUS","GID_1":"RUS.68_1","GID_2":"RUS.68.26_1","NAME_1":"Tatarstan","NAME_2":"Leninogorskiyrayon"}},
{"type":"Feature","geometry":{"type":"Polygon","coordinates":[[[50.8298,55.8719],[50.7028,55.8046],[50.9324,55.5139],[50.9639,55.51],[51.2435,55.5212],[51.4366,55.4671],[51.4559,55.4703],[51.6279,55.563],[51.6138,55.5946],[51.5534,55.6568],[51.522,55.9451],[51.5368,56.0971],[51.1914,56.004],[50.8298,55.8719]]]},"properties":{"GID_0":"RUS","GID_1":"RUS.68_1","GID_2":"RUS.68.27_1","NAME_1":"Tatarstan","NAME_2":"Mamadyshskiyrayon"}},
{"type":"Feature","geometry":{"type":"Polygon","coordinates":[[[52.7384,56.0324],[52.4837,56.0336],[52.235,56.0754],[52.2585,55.9241],[52.1572,55.8958],[52.4457,55.7357],[52.4385,55.8938],[52.7164,55.9275],[52.7384,56.0324]]]},"properties":{"GID_0":"RUS","GID_1":"RUS.68_1","GID_2":"RUS.68.28_1","NAME_1":"Tatarstan","NAME_2":"Mendeleyevskiyrayon"}},
{"type":"Feature","geometry":{"type":"Polygon","coordinates":[[[52.7164,55.9275],[52.7986,55.8944],[52.7417,55.7219],[52.7669,55.6017],[53.0522,55.4382],[53.3423,55.4595],[53.5624,55.4253],[53.5983,55.423],[53.5696,55.4609],[53.5468,55.4829],[53.5271,55.5435],[53.4701,55.6011],[53.5313,55.7031],[53.3853,55.8749],[53.3194,55.8919],[53.1961,55.8736],[52.9194,55.9262],[52.7164,55.9275]]]},"properties":{"GID_0":"RUS","GID_1":"RUS.68_1","GID_2":"RUS.68.29_1","NAME_1":"Tatarstan","NAME_2":"Menzelinskiyrayon"}},
{"type":"Feature","geometry":{"type":"Polygon","coordinates":[[[53.8524,55.381],[53.6162,55.4219],[53.5624,55.4253],[53.3423,55.4595],[53.0522,55.4382],[52.971,55.242],[52.9802,55.2183],[53.1855,55.1599],[53.5334,55.2133],[53.8524,55.381]]]},"properties":{"GID_0":"RUS","GID_1":"RUS.68_1","GID_2":"RUS.68.30_1","NAME_1":"Tatarstan","NAME_2":"Muslyumovskiyrayon"}},
{"type":"Feature","geometry":{"type":"Polygon","coordinates":[[[52.3072,55.687],[52.3184,55.7017],[52.2821,55.7023],[52.2877,55.6909],[52.3072,55.687]]]},"properties":{"GID_0":"RUS","GID_1":"RUS.68_1","GID_2":"RUS.68.31_1","NAME_1":"Tatarstan","NAME_2":"NaberezhnyeChelny"}},
{"type":"Feature","geometry":{"type":"Polygon","coordinates":[[[51.7675,55.5951],[51.7661,55.6124],[51.7419,55.6007],[51.7675,55.5951]]]},"properties":{"GID_0":"RUS","GID_1":"RUS.68_1","GID_2":"RUS.68.32_1","NAME_1":"Tatarstan","NAME_2":"Nizhnekamskiy"}},
{"type":"Feature","geometry":{"type":"Polygon","coordinates":[[[51.7885,55.2483],[51.7677,55.3241],[51.9259,55.4762],[52.0023,55.5317],[52.1006,55.5783],[52.1109,55.6165],[52.1529,55.7125],[51.772,55.68],[51.6481,55.6111],[51.6208,55.5788],[51.6279,55.563],[51.4559,55.4703],[51.3953,55.4602],[51.2447,55.4205],[51.3282,55.3265],[51.5782,55.1321],[51.7885,55.2483]],[[51.7675,55.5951],[51.7419,55.6007],[51.7661,55.6124],[51.7675,55.5951]]]},"properties":{"GID_0":"RUS","GID_1":"RUS.68_1","GID_2":"RUS.68.33_1","NAME_1":"Tatarstan","NAME_2":"Nizhnekamskiyrayon"}},
{"type":"Feature","geometry":{"type":"Polygon","coordinates":[[[51.3355,54.9157],[51.3994,54.9395],[51.4741,54.9619],[51.5694,54.9704],[51.4115,55.0986],[51.5782,55.1321],[51.3282,55.3265],[51.086,55.2366],[50.8513,55.0815],[51.0974,54.9245],[51.3355,54.9157]]]},"properties":{"GID_0":"RUS","GID_1":"RUS.68_1","GID_2":"RUS.68.34_1","NAME_1":"Tatarstan","NAME_2":"Novosheshminskiyrayon"}},
{"type":"Feature","geometry":{"type":"Polygon","coordinates":[[[51.1603,54.6439],[51.08,54.6757],[50.6543,54.644],[50.5376,54.7154],[50.6219,54.918],[50.2532,54.857],[50.2729,54.7405],[50.1795,54.6486],[50.1843,54.5147],[50.3926,54.4764],[50.5758,54.3333],[50.7164,54.4487],[50.9559,54.3491],[51.0053,54.5373],[51.1603,54.6439]]]},"properties":{"GID_0":"RUS","GID_1":"RUS.68_1","GID_2":"RUS.68.35_1","NAME_1":"Tatarstan","NAME_2":"Oktyabr'skiy"}},
{"type":"Feature","geometry":{"type":"Polygon","coordinates":[[[49.851,55.9599],[49.7699,55.9487],[49.6226,55.8938],[49.4223,55.9358],[49.2201,55.8019],[49.7147,55.5837],[49.8036,55.6094],[49.9057,55.6267],[50.0928,55.6721],[50.1152,55.7178],[50.0926,55.8296],[50.0398,55.8519],[49.9029,55.9368],[49.851,55.9599]]]},"properties":{"GID_0":"RUS","GID_1":"RUS.68_1","GID_2":"RUS.68.36_1","NAME_1":"Tatarstan","NAME_2":"Pestrechinskiyrayon"}},
{"type":"Feature","geometry":{"type":"Polygon","coordinates":[[[49.9299,55.3679],[50.1446,55.4819],[50.3741,55.4505],[50.7355,55.4651],[50.9009,55.5177],[50.9324,55.5139],[50.7028,55.8046],[50.6651,55.7957],[50.6182,55.7872],[50.5951,55.7416],[50.2766,55.676],[50.1038,55.6924],[50.0928,55.6721],[49.9057,55.6267],[49.8036,55.6094],[49.7615,55.5978],[49.8016,55.5836],[49.8368,55.567],[49.9299,55.3679]]]},"properties":{"GID_0":"RUS","GID_1":"RUS.68_1","GID_2":"RUS.68.37_1","NAME_1":"Tatarstan","NAME_2":"Rybno-Slobodskiyrayon"}},
{"type":"Feature","geometry":{"type":"Polygon","coordinates":[[[49.9029,55.9368],[50.0398,55.8519],[50.0724,55.8381],[50.0998,55.8497],[50.2269,55.8772],[50.5462,55.8538],[50.6373,55.7907],[50.7028,55.8046],[50.8298,55.8719],[50.6355,56.1873],[50.362,56.3036],[50.2476,56.2767],[50.0918,56.0364],[49.9029,55.9368]]]},"properties":{"GID_0":"RUS","GID_1":"RUS.68_1","GID_2":"RUS.68.38_1","NAME_1":"Tatarstan","NAME_2":"Sabinskiyrayon"}},
{"type":"Feature","geometry":{"type":"Polygon","coordinates":[[[52.7614,54.976],[52.9985,55.1709],[52.971,55.242],[53.0522,55.4382],[52.7669,55.6017],[52.5227,55.4502],[52.3682,55.0618],[52.5143,55.1029],[52.7614,54.976]]]},"properties":{"GID_0":"RUS","GID_1":"RUS.68_1","GID_2":"RUS.68.39_1","NAME_1":"Tatarstan","NAME_2":"Sarmanovskiyrayon"}},
{"type":"Feature","geometry":{"type":"Polygon","coordinates":[[[49.9161,55.0462],[49.7691,55.2313],[49.4947,55.1287],[49.438,55.0299],[49.1567,54.9912],[48.9734,55.0087],[48.9805,54.8231],[49.3032,54.8997],[49.4321,54.824],[49.6455,54.5862],[49.7917,54.5842],[49.751,54.7348],[49.6004,54.8037],[49.6498,54.9773],[49.9161,55.0462]]]},"properties":{"GID_0":"RUS","GID_1":"RUS.68_1","GID_2":"RUS.68.40_1","NAME_1":"Tatarstan","NAME_2":"Spasskiyrayon"}},
{"type":"Feature","geometry":{"type":"Polygon","coordinates":[[[48.3886,55.1168],[48.4015,54.9877],[48.584,54.9505],[48.2805,54.7608],[48.2826,54.7016],[48.5109,54.6252],[48.7927,54.6576],[48.7865,54.7891],[48.88,54.8641],[48.8483,55.0069],[48.8707,55.1039],[48.7244,55.1562],[48.3886,55.1168]]]},"properties":{"GID_0":"RUS","GID_1":"RUS.68_1","GID_2":"RUS.68.41_1","NAME_1":"Tatarstan","NAME_2":"Tetyushskiyrayon"}},
{"type":"Feature","geometry":{"type":"Polygon","coordinates":[[[52.4457,55.7357],[52.3457,55.6842],[52.2176,55.6859],[52.1529,55.7125],[52.1109,55.6165],[52.0912,55.5453],[52.5227,55.4502],[52.7669,55.6017],[52.7417,55.7219],[52.7986,55.8944],[52.7164,55.9275],[52.4385,55.8938],[52.4457,55.7357]]]},"properties":{"GID_0":"RUS","GID_1":"RUS.68_1","GID_2":"RUS.68.42_1","NAME_1":"Tatarstan","NAME_2":"Tukayevskiyrayon"}},
{"type":"Feature","geometry":{"type":"Polygon","coordinates":[[[50.1038,55.6924],[50.2766,55.676],[50.5951,55.7416],[50.6182,55.7872],[50.6373,55.7907],[50.5462,55.8538],[50.2269,55.8772],[50.0998,55.8497],[50.0724,55.8381],[50.0926,55.8296],[50.1152,55.7178],[50.1038,55.6924]]]},"properties":{"GID_0":"RUS","GID_1":"RUS.68_1","GID_2":"RUS.68.43_1","NAME_1":"Tatarstan","NAME_2":"Tyulyachinskiyrayon"}},
{"type":"Feature","geometry":{"type":"Polygon","coordinates":[[[48.7145,55.3265],[48.8143,55.3243],[48.8611,55.4392],[48.9883,55.5162],[49.0182,55.5618],[49.0196,55.5876],[48.987,55.7458],[48.9665,55.7954],[48.9487,55.8062],[48.8161,55.8273],[48.5359,55.6192],[48.4433,55.474],[48.7145,55.3265]]]},"properties":{"GID_0":"RUS","GID_1":"RUS.68_1","GID_2":"RUS.68.44_1","NAME_1":"Tatarstan","NAME_2":"Verkhneuslonskiyrayon"}},
{"type":"Feature","geometry":{"type":"Polygon","coordinates":[[[49.1207,56.422],[48.9485,56.3539],[48.9827,56.1624],[48.844,56.1237],[49.0287,56.0986],[49.1348,56.0029],[48.8755,55.8182],[48.9487,55.8062],[48.9665,55.7954],[48.9746,55.7746],[49.007,55.7763],[49.044,55.7806],[49.0855,55.7821],[49.1584,55.7699],[49.2201,55.8019],[49.4223,55.9358],[49.6226,55.8938],[49.7699,55.9487],[49.6737,56.1533],[49.5329,56.1368],[49.1383,56.3156],[49.1207,56.422]]]},"properties":{"GID_0":"RUS","GID_1":"RUS.68_1","GID_2":"RUS.68.45_1","NAME_1":"Tatarstan","NAME_2":"Vysokogorskiyrayon"}},
{"type":"Feature","geometry":{"type":"Polygon","coordinates":[[[50.2969,55.3579],[50.6392,55.3734],[50.929,55.4443],[51.0527,55.4133],[51.2529,55.4872],[51.4366,55.4671],[51.2435,55.5212],[50.9639,55.51],[50.9009,55.5177],[50.7355,55.4651],[50.3741,55.4505],[50.1446,55.4819],[49.9299,55.3679],[49.714,55.4548],[49.2487,55.3031],[49.1032,55.4513],[49.0591,55.546],[49.0297,55.5718],[49.0243,55.575],[49.0188,55.5735],[49.0262,55.5598],[49.0283,55.5493],[49.0394,55.5345],[49.041,55.5161],[49.0122,55.4536],[49.2635,55.1816],[48.8483,55.0069],[48.88,54.8641],[48.7865,54.7891],[48.7927,54.6576],[48.9805,54.8231],[48.9734,55.0087],[49.1567,54.9912],[49.438,55.0299],[49.4947,55.1287],[49.7691,55.2313],[49.9213,55.3192],[50.2969,55.3579]]]},"properties":{"GID_0":"RUS","GID_1":"RUS.68_1","GID_2":"RUS.68.46_1","NAME_1":"Tatarstan","NAME_2":"Waterbody"}},
{"type":"Feature","geometry":{"type":"Polygon","coordinates":[[[52.0513,55.737],[52.0532,55.7512],[52.0264,55.7487],[52.0261,55.739],[52.0513,55.737]]]},"properties":{"GID_0":"RUS","GID_1":"RUS.68_1","GID_2":"RUS.68.47_1","NAME_1":"Tatarstan","NAME_2":"Yelabuga"}},
{"type":"Feature","geometry":{"type":"Polygon","coordinates":[[[51.6208,55.5788],[51.6481,55.6111],[51.772,55.68],[52.1529,55.7125],[52.2176,55.6859],[52.3457,55.6842],[52.4457,55.7357],[52.1572,55.8958],[52.0428,55.9663],[51.6702,55.9821],[51.522,55.9451],[51.5534,55.6568],[51.6138,55.5946],[51.6208,55.5788]],[[52.3072,55.687],[52.2877,55.6909],[52.2821,55.7023],[52.3184,55.7017],[52.3072,55.687]],[[52.0513,55.737],[52.0261,55.739],[52.0264,55.7487],[52.0532,55.7512],[52.0513,55.737]]]},"properties":{"GID_0":"RUS","GID_1":"RUS.68_1","GID_2":"RUS.68.48_1","NAME_1":"Tatarstan","NAME_2":"Yelabuzhskiyrayon"}},
{"type":"Feature","geometry":{"type":"Polygon","coordinates":[[[53.5646,54.9232],[53.1113,54.7682],[53.045,54.7695],[52.9964,54.7235],[52.9838,54.7036],[53.0866,54.6128],[53.0094,54.53],[53.0292,54.4904],[53.4397,54.4892],[53.6317,54.7054],[53.5646,54.9232]]]},"properties":{"GID_0":"RUS","GID_1":"RUS.68_1","GID_2":"RUS.68.49_1","NAME_1":"Tatarstan","NAME_2":"Yutazinskiyrayon"}},
{"type":"Feature","geometry":{"type":"Polygon","coordinates":[[[52.0541,55.2892],[52.0611,55.2945],[52.0493,55.3011],[52.0405,55.2958],[52.0541,55.2892]]]},"properties":{"GID_0":"RUS","GID_1":"RUS.68_1","GID_2":"RUS.68.50_1","NAME_1":"Tatarstan","NAME_2":"Zainsk"}},
{"type":"Feature","geometry":{"type":"Polygon","coordinates":[[[52.3682,55.0618],[52.5227,55.4502],[52.0912,55.5453],[52.1006,55.5783],[52.0023,55.5317],[51.9259,55.4762],[51.7677,55.3241],[51.7885,55.2483],[51.9714,55.1414],[52.2249,55.1208],[52.3682,55.0618]],[[52.0541,55.2892],[52.0405,55.2958],[52.0493,55.3011],[52.0611,55.2945],[52.0541,55.2892]]]},"properties":{"GID_0":"RUS","GID_1":"RUS.68_1","GID_2":"RUS.68.51_1","NAME_1":"Tatarstan","NAME_2":"Zainskiyrayon"}},
{"type":"Feature","geometry":{"type":"Polygon","coordinates":[[[48.5027,55.8319],[48.5056,55.8344],[48.4984,55.8365],[48.4955,55.834],[48.5027,55.8319]]]},"properties":{"GID_0":"RUS","GID_1":"RUS.68_1","GID_2":"RUS.68.52_1","NAME_1":"Tatarstan","NAME_2":"Zelenodol'sk"}},
{"type":"Feature","geometry":{"type":"Polygon","coordinates":[[[48.844,56.1237],[48.6895,56.0987],[48.6007,55.9715],[48.4177,55.9003],[48.4389,55.7784],[48.0357,55.6397],[48.0568,55.5256],[48.1507,55.4537],[48.4433,55.474],[48.5359,55.6192],[48.8161,55.8273],[48.8755,55.8182],[49.1348,56.0029],[49.0287,56.0986],[48.844,56.1237]],[[48.5027,55.8319],[48.4955,55.834],[48.4984,55.8365],[48.5056,55.8344],[48.5027,55.8319]]]},"properties":{"GID_0":"RUS","GID_1":"RUS.68_1","GID_2":"RUS.68.53_1","NAME_1":"Tatarstan","NAME_2":"Zelenodol'skiyrayon"}}
]}