{"type":"FeatureCollection", "features": [
{"type":"Feature","geometry":{"type":"MultiPolygon","coordinates":[[[[167.4462,54.8678],[167.4516,54.8184],[167.5606,54.7506],[167.6583,54.7153],[167.7551,54.6491],[167.8377,54.6354],[167.9161,54.5975],[167.9356,54.5675],[168.0046,54.5613],[167.8856,54.6439],[167.8367,54.6881],[167.7572,54.6981],[167.73,54.7617],[167.675,54.7822],[167.5417,54.7992],[167.565,54.8233],[167.4462,54.8678]]],[[[165.9876,55.3613],[165.9333,55.3289],[165.8089,55.3033],[165.7867,55.2842],[165.8905,55.26],[165.978,55.2281],[165.9944,55.1983],[166.0837,55.1242],[166.0725,55.0766],[166.1061,55.0369],[166.1545,55.0148],[166.1754,54.9611],[166.385,54.8317],[166.4493,54.8229],[166.4863,54.7885],[166.5583,54.7569],[166.5848,54.7169],[166.671,54.6786],[166.6768,54.7464],[166.6331,54.8738],[166.5939,54.9131],[166.4439,54.9631],[166.3989,55.0114],[166.3517,55.0914],[166.2972,55.1131],[166.2411,55.2019],[166.2772,55.3172],[166.2114,55.3121],[166.0842,55.3333],[165.9876,55.3613]]]]},"properties":{"GID_0":"RUS","GID_1":"RUS.24_1","GID_2":"RUS.24.1_1","NAME_1":"Kamchatka","NAME_2":"Aleutskiyrayon"}},
{"type":"Feature","geometry":{"type":"Polygon","coordinates":[[[156.2416,55.6548],[156.229,55.5554],[156.2571,55.4316],[156.2276,55.3185],[156.2094,55.2039],[156.2336,55.0927],[156.2538,55.0435],[156.3357,55.0075],[156.4477,55.009],[156.5719,55.0508],[156.6819,55.0681],[157.0387,54.991],[157.1608,54.9506],[157.3775,54.9286],[157.4586,54.901],[157.5135,54.8521],[157.5499,54.7681],[157.5606,54.6771],[157.8324,54.7805],[157.9233,54.9],[158.0206,54.9523],[158.2511,55.0483],[158.4716,55.2108],[158.5231,55.2879],[158.5932,55.3076],[158.6583,55.3039],[158.869,55.2412],[158.9523,55.2371],[159.0292,55.2645],[159.1014,55.3554],[159.2078,55.4693],[159.3158,55.667],[159.3722,55.7401],[159.4356,55.7626],[159.4588,55.8256],[159.4071,55.8265],[159.2972,55.8562],[159.1283,55.8965],[159.1032,55.973],[159.1356,56.0226],[159.2578,56.0894],[159.2433,56.1316],[159.1826,56.1567],[159.1474,56.2157],[159.1994,56.2468],[159.3085,56.2699],[159.4369,56.3148],[159.4735,56.4027],[159.5532,56.4699],[159.5829,56.5329],[159.5885,56.6205],[159.562,56.6913],[159.4661,56.6728],[159.3272,56.6619],[159.2241,56.6615],[158.4421,56.5267],[158.2812,56.7362],[158.0835,56.7046],[157.9645,56.7098],[157.8407,56.7513],[157.6614,56.7634],[157.4613,56.677],[157.4974,56.6151],[157.414,56.5575],[157.3551,56.4986],[157.5531,56.2919],[157.6937,56.2085],[157.825,56.1849],[157.9905,56.1805],[158.1824,56.148],[158.1922,56.1275],[157.8466,55.94],[157.7343,55.829],[157.5526,55.7309],[157.5952,55.6524],[157.5074,55.6392],[157.3865,55.679],[157.0247,55.6814],[156.4544,55.7266],[156.2416,55.6548]]]},"properties":{"GID_0":"RUS","GID_1":"RUS.24_1","GID_2":"RUS.24.2_1","NAME_1":"Kamchatka","NAME_2":"Bystrinskiyrayon"}},
{"type":"Feature","geometry":{"type":"Polygon","coordinates":[[[161.8075,55.1719],[161.5943,55.1191],[161.532,55.0868],[161.5058,55.0447],[161.4286,55.024],[161.3805,55.0292],[161.2393,55.1032],[161.1675,55.1305],[161.1014,55.1229],[160.9949,55.0909],[160.768,55.0553],[160.5619,55.0938],[160.4452,55.151],[160.3143,55.0971],[160.1941,55.0197],[160.0727,54.9274],[159.9559,54.856],[159.7744,54.7828],[159.4702,54.635],[159.3953,54.5724],[159.3655,54.5064],[159.2561,54.4173],[159.1247,54.357],[158.9723,54.3183],[158.8513,54.2515],[158.8294,54.1715],[158.7766,54.0876],[158.5749,53.9678],[158.4908,53.939],[158.2088,53.9201],[158.1445,53.9057],[158.0839,53.8734],[157.9986,53.8728],[157.9684,53.8987],[157.986,53.95],[157.9785,53.99],[157.9112,54.0288],[157.8365,54.0418],[157.6643,54.0245],[157.5349,54.0555],[157.5085,54.0806],[157.3884,53.9871],[157.3036,53.7891],[157.3021,53.7015],[157.3138,53.6033],[157.3094,53.4027],[157.3037,53.3007],[157.3423,53.1924],[157.4474,53.1058],[157.6367,53.0383],[157.7875,53.0143],[157.9259,52.965],[158.0494,52.8842],[158.0897,52.8141],[158.0985,52.7078],[158.0943,52.5937],[157.8712,52.4477],[157.7408,52.3237],[157.6593,52.1763],[157.5579,52.0523],[157.5099,51.9168],[157.4805,51.7756],[157.4215,51.6457],[157.3457,51.5199],[157.2417,51.3814],[157.0921,51.2842],[156.9592,51.208],[156.8735,51.1393],[156.8981,51.1042],[156.8819,51.0544],[156.8012,50.9742],[156.7929,50.9529],[156.8722,51.0197],[156.9394,51.0442],[157.055,51.1161],[157.0886,51.1535],[157.1323,51.1593],[157.1747,51.1954],[157.2344,51.209],[157.34,51.3253],[157.4022,51.3571],[157.4595,51.353],[157.4936,51.4395],[157.534,51.4808],[157.6165,51.5291],[157.7704,51.5677],[157.8772,51.6278],[157.9062,51.6265],[157.9684,51.7213],[157.9968,51.7269],[158.035,51.7894],[158.1028,51.8233],[158.1255,51.8511],[158.2459,51.9461],[158.2924,52.0129],[158.2835,52.0324],[158.3271,52.0741],[158.2996,52.0986],[158.3303,52.1371],[158.3837,52.1371],[158.414,52.1722],[158.3834,52.2041],[158.4582,52.2523],[158.5492,52.2901],[158.5427,52.3659],[158.5517,52.4167],[158.4814,52.4462],[158.526,52.5316],[158.4124,52.6006],[158.426,52.6201],[158.5056,52.6161],[158.6019,52.6941],[158.4872,52.7375],[158.4927,52.7806],[158.5648,52.776],[158.5761,52.8107],[158.6452,52.8456],[158.6246,52.8735],[158.6351,52.9167],[158.5376,52.9113],[158.508,52.8882],[158.4449,52.8957],[158.4132,52.9243],[158.4204,53.0165],[158.5089,53.035],[158.5678,53.0633],[158.6133,53.0497],[158.7056,52.8844],[158.8288,52.9746],[158.9394,53.0417],[159.0617,53.0974],[159.2856,53.1608],[159.4218,53.1727],[159.4456,53.2086],[159.4906,53.2314],[159.6299,53.2562],[159.7116,53.2187],[159.7853,53.2713],[159.8135,53.2615],[159.7439,53.2044],[159.9056,53.1377],[160.0239,53.095],[160.0572,53.15],[160.0322,53.1711],[160.0394,53.2142],[159.9041,53.2526],[159.9628,53.3014],[159.8975,53.3399],[159.9223,53.3808],[159.8471,53.4004],[159.8405,53.4862],[159.9227,53.4729],[159.9557,53.4975],[159.9563,53.5725],[159.8867,53.6554],[159.8506,53.6703],[159.842,53.7943],[159.8579,53.8554],[159.9186,53.9811],[159.9843,54.0808],[159.9776,54.125],[160.1328,54.2275],[160.2361,54.2614],[160.315,54.3025],[160.3789,54.3594],[160.5717,54.4619],[160.6906,54.5097],[160.8989,54.5731],[161.0435,54.5934],[161.1946,54.5851],[161.2017,54.5242],[161.2574,54.492],[161.4072,54.4977],[161.4812,54.5155],[161.5494,54.5086],[161.6128,54.5185],[161.7158,54.5053],[161.8005,54.5621],[161.8332,54.5987],[161.9461,54.6464],[161.9989,54.6959],[162.0384,54.7025],[162.1323,54.7742],[162.105,54.8011],[162.1494,54.8569],[162.0794,54.8867],[162.0444,54.9547],[161.9268,55.0501],[161.877,55.0689],[161.8075,55.1719]]]},"properties":{"GID_0":"RUS","GID_1":"RUS.24_1","GID_2":"RUS.24.3_1","NAME_1":"Kamchatka","NAME_2":"Elizovskiyrayon"}},
{"type":"Feature","geometry":{"type":"MultiPolygon","coordinates":[[[[158.1155,58],[158,58],[158,57.9803],[157.8811,57.9761],[157.9324,57.9724],[158.0389,57.9847],[158.1155,58]]],[[[164.5933,59.2342],[164.3949,59.1762],[164.3526,59.1289],[164.1877,59.0876],[164.0967,59.0561],[163.9249,59.0242],[163.8853,58.9748],[163.7731,58.8853],[163.7732,58.825],[163.7187,58.7403],[163.6656,58.7047],[163.6288,58.6345],[163.5726,58.5793],[163.4556,58.5638],[163.4085,58.5411],[163.4407,58.49],[163.5091,58.5035],[163.5746,58.5459],[163.5875,58.5741],[163.6521,58.5895],[163.7793,58.6447],[163.8611,58.6971],[163.9486,58.705],[163.9919,58.74],[164.1239,58.7836],[164.1872,58.8147],[164.2661,58.8056],[164.3278,58.8325],[164.4428,58.8628],[164.61,58.8644],[164.6962,58.9094],[164.6852,58.9696],[164.7356,59.0306],[164.642,59.128],[164.6371,59.1748],[164.5995,59.1842],[164.5933,59.2342]]],[[[164.9187,60.7178],[164.8255,60.7144],[164.7183,60.7246],[164.5174,60.7627],[164.3834,60.7314],[164.2757,60.6958],[164.242,60.6564],[164.2667,60.5992],[164.2651,60.5492],[164.2211,60.5151],[164.1233,60.5015],[163.9861,60.5169],[163.8542,60.555],[163.7376,60.5997],[163.6778,60.6733],[163.7161,60.7673],[163.6462,60.8073],[163.6684,60.8626],[163.6104,60.8667],[163.4005,60.812],[163.2729,60.7917],[163.1917,60.8042],[163.0729,60.75],[163.0042,60.7729],[162.8922,60.7474],[162.7703,60.6318],[162.6583,60.5958],[162.538,60.6099],[162.3875,60.5354],[162.2792,60.5375],[162.2042,60.5271],[162.1516,60.4797],[162.1021,60.4771],[162.0188,60.4292],[161.95,60.4208],[161.9026,60.3266],[161.9453,60.2911],[161.9432,60.2276],[161.8349,60.1547],[161.6792,60.0896],[161.5562,60.0458],[161.4734,60.0307],[161.4204,59.9784],[161.4579,59.9496],[161.3766,59.9154],[161.3362,59.8735],[161.3774,59.8135],[161.4456,59.7633],[161.5155,59.6867],[161.592,59.6313],[161.7596,59.5555],[161.823,59.4947],[161.9202,59.4289],[162.0759,59.3705],[162.1106,59.3157],[162.0659,59.277],[161.7427,59.3044],[161.6121,59.3228],[161.5377,59.2836],[161.4748,59.2343],[161.5191,59.1354],[161.5056,59.073],[161.4461,59.013],[161.3875,58.8302],[161.2932,58.7057],[161.2345,58.6546],[160.9307,58.5159],[160.8866,58.4575],[160.8939,58.3714],[160.8577,58.3069],[160.7706,58.2206],[160.6052,58.0234],[160.3888,57.8253],[160.3188,57.7746],[160.2739,57.7184],[160.286,57.5955],[160.3183,57.5568],[160.3723,57.5842],[160.4503,57.574],[160.5448,57.5105],[160.6645,57.4912],[161.0414,57.4521],[161.1894,57.3936],[161.3796,57.3329],[161.5451,57.2921],[161.6928,57.2955],[161.968,57.3572],[162.3107,57.3653],[162.3789,57.331],[162.6808,57.3448],[162.8705,57.4295],[162.9067,57.4329],[162.95,57.4383],[163.1039,57.4908],[163.145,57.5692],[163.2239,57.5883],[163.2283,57.6642],[163.3033,57.7186],[163.2128,57.8186],[163.1194,57.8144],[162.9981,57.8365],[162.8741,57.895],[162.6927,57.9393],[162.5581,57.9271],[162.4934,57.8476],[162.531,57.7511],[162.4861,57.7371],[162.4503,57.6839],[162.3789,57.7014],[162.427,57.7293],[162.4383,57.7739],[162.3016,57.7929],[162.1562,57.8395],[162.0838,57.8816],[162.0263,57.9462],[161.9906,58.0267],[162.005,58.1453],[162.0506,58.2144],[162.1306,58.3681],[162.3372,58.5908],[162.4517,58.6903],[162.5728,58.7747],[162.6328,58.7764],[162.75,58.8169],[162.6867,58.8292],[162.7178,58.8694],[162.8061,58.8733],[162.8317,58.9081],[162.9067,58.9425],[163.0061,58.9419],[163.0735,58.9924],[162.9939,59.0203],[162.9061,59.1089],[162.9989,59.1372],[163.1074,59.1313],[163.1257,59.1115],[163.2517,59.084],[163.2308,59.1389],[163.0905,59.1818],[163.0772,59.2539],[163.1647,59.2791],[163.3206,59.2881],[163.3487,59.3014],[163.3452,59.3623],[163.3176,59.4224],[163.1883,59.5158],[163.2056,59.5653],[163.2811,59.5917],[163.3622,59.5909],[163.416,59.6204],[163.423,59.6559],[163.3842,59.7152],[163.3914,59.7775],[163.4775,59.8608],[163.5231,59.8845],[163.6046,59.8921],[163.6922,59.8722],[163.7741,59.9522],[163.8737,60.0036],[163.9532,60.0165],[164.1418,59.982],[164.0045,60.0748],[163.9875,60.109],[164.0471,60.1525],[164.1347,60.1696],[164.3694,60.2395],[164.3805,60.2768],[164.4297,60.3273],[164.5039,60.3006],[164.6507,60.3116],[164.7309,60.3457],[165.0458,60.4425],[165.0996,60.4991],[165.1155,60.5412],[164.972,60.6534],[164.9187,60.7178]]]]},"properties":{"GID_0":"RUS","GID_1":"RUS.24_1","GID_2":"RUS.24.4_1","NAME_1":"Kamchatka","NAME_2":"Karaginskiyrayon"}},
{"type":"Feature","geometry":{"type":"Polygon","coordinates":[[[157.5606,54.6771],[157.6322,54.5257],[157.6772,54.4657],[157.6693,54.3912],[157.5334,54.2731],[157.5148,54.2037],[157.5085,54.0806],[157.5349,54.0555],[157.6643,54.0245],[157.8365,54.0418],[157.9112,54.0288],[157.9785,53.99],[157.986,53.95],[157.9684,53.8987],[157.9986,53.8728],[158.0839,53.8734],[158.1445,53.9057],[158.2088,53.9201],[158.4908,53.939],[158.5749,53.9678],[158.7766,54.0876],[158.8294,54.1715],[158.8513,54.2515],[158.9723,54.3183],[159.1247,54.357],[159.2561,54.4173],[159.3655,54.5064],[159.3953,54.5724],[159.4702,54.635],[159.7744,54.7828],[159.9559,54.856],[160.0727,54.9274],[160.1941,55.0197],[160.3143,55.0971],[160.4452,55.151],[160.4037,55.2023],[160.4327,55.2348],[160.4175,55.2795],[160.3266,55.3002],[160.204,55.3572],[160.1688,55.4274],[160.0367,55.481],[159.9023,55.5771],[159.8591,55.6166],[159.8486,55.6614],[159.7905,55.702],[159.6894,55.7251],[159.5723,55.8003],[159.5833,55.8242],[159.5059,55.8381],[159.4588,55.8256],[159.4356,55.7626],[159.3722,55.7401],[159.3158,55.667],[159.2078,55.4693],[159.1014,55.3554],[159.0292,55.2645],[158.9523,55.2371],[158.869,55.2412],[158.6583,55.3039],[158.5932,55.3076],[158.5231,55.2879],[158.4716,55.2108],[158.2511,55.0483],[158.0206,54.9523],[157.9233,54.9],[157.8324,54.7805],[157.5606,54.6771]]]},"properties":{"GID_0":"RUS","GID_1":"RUS.24_1","GID_2":"RUS.24.5_1","NAME_1":"Kamchatka","NAME_2":"Mil'kovskiyrayon"}},
{"type":"Feature","geometry":{"type":"Polygon","coordinates":[[[173.4563,61.5292],[173.5078,61.5599],[173.4672,61.6193],[173.512,61.6484],[173.4932,61.7297],[173.6453,61.7391],[173.7005,61.7047],[173.8729,61.6625],[173.9234,61.6953],[173.9953,61.6984],[174.0318,61.7432],[174.0089,61.8078],[174.1417,61.8292],[174.2396,61.8021],[174.3354,61.8083],[174.3771,61.8458],[174.4517,61.8403],[174.4555,61.872],[174.3844,61.9018],[174.3609,61.9642],[174.2802,61.9958],[174.2788,62.0449],[174.2378,62.0793],[174.1187,62.0654],[174.0506,62.0887],[174.0596,62.1552],[174.0293,62.2097],[173.925,62.2386],[174.001,62.2936],[174.092,62.3294],[174.0423,62.4049],[173.9549,62.4364],[173.8285,62.4406],[173.7817,62.484],[173.6733,62.4997],[173.5315,62.4762],[173.3978,62.4679],[173.2303,62.431],[173.0799,62.4066],[172.9518,62.3596],[172.8507,62.3473],[172.7692,62.3105],[172.6524,62.358],[172.4659,62.3917],[172.3315,62.3779],[172.2712,62.3503],[172.1084,62.3467],[172.0599,62.3889],[171.9394,62.412],[171.6849,62.3341],[171.6804,62.3063],[171.4599,62.2826],[171.3826,62.252],[171.2309,62.2324],[171.2513,62.2792],[171.1103,62.2473],[171.1244,62.3087],[171.0335,62.3065],[171,62.2619],[170.9046,62.2563],[170.9012,62.2173],[170.7277,62.2046],[170.6984,62.1703],[170.6083,62.173],[170.4969,62.2127],[170.2996,62.2329],[170.221,62.2504],[170.1605,62.2122],[170.0892,62.1967],[170.0296,62.2206],[169.8815,62.1951],[169.7686,62.1407],[169.6819,62.0649],[169.5654,61.9125],[169.262,61.7999],[168.9769,61.7287],[168.7088,61.6235],[168.5212,61.6351],[168.2965,61.6384],[168.0132,61.5667],[167.7273,61.4672],[167.5592,61.3993],[167.4084,61.3882],[167.3186,61.3962],[167.2586,61.4288],[167.1333,61.4185],[166.9077,61.4487],[166.7875,61.431],[166.7079,61.3818],[166.6533,61.2752],[166.5747,61.2383],[166.4573,61.2153],[166.2586,61.255],[166.1885,61.259],[165.9822,61.171],[165.8969,61.1447],[165.6501,61.1087],[165.5387,61.0548],[165.5168,60.9626],[165.4753,60.9411],[165.4852,60.8694],[165.4087,60.8331],[165.2288,60.8568],[165.1155,60.85],[165.0161,60.8268],[164.9346,60.7806],[164.9187,60.7178],[164.972,60.6534],[165.1155,60.5412],[165.0996,60.4991],[165.0458,60.4425],[164.7309,60.3457],[164.6507,60.3116],[164.5039,60.3006],[164.4297,60.3273],[164.3805,60.2768],[164.3694,60.2395],[164.1347,60.1696],[164.0471,60.1525],[163.9875,60.109],[164.0045,60.0748],[164.1418,59.982],[164.1789,59.9589],[164.1231,59.9161],[164.0656,59.8978],[164.0833,59.8639],[164.1606,59.8686],[164.1347,59.9149],[164.2157,59.9653],[164.3472,59.9958],[164.3026,60.0411],[164.3172,60.0745],[164.4563,60.1042],[164.5661,60.0641],[164.6187,60.0167],[164.7078,60],[164.7794,59.93],[164.8011,59.8675],[164.7922,59.8344],[164.8569,59.7812],[164.9713,59.8369],[165.0662,59.8447],[165.1061,59.8639],[165.1744,59.9496],[165.2341,59.9982],[165.1583,60.0146],[165.1401,60.0536],[165.1662,60.0755],[165.2724,60.1026],[165.2839,60.1224],[165.4083,60.1729],[165.5208,60.1958],[165.7828,60.2693],[165.8276,60.312],[165.9641,60.3547],[165.9526,60.3891],[166.0146,60.4229],[166.1771,60.4396],[166.2354,60.4667],[166.3,60.4688],[166.3891,60.4224],[166.3474,60.3818],[166.2813,60.3688],[166.2953,60.2786],[166.2818,60.2495],[166.3141,60.1943],[166.2807,60.1422],[166.2068,60.1286],[166.1797,60.0745],[166.1756,59.98],[166.0952,59.8795],[166.086,59.816],[166.1094,59.7999],[166.2961,59.8125],[166.3919,59.8855],[166.4172,59.9246],[166.5891,60.0047],[166.7224,60.0859],[166.7901,60.162],[166.9162,60.238],[166.9859,60.2995],[167.0891,60.3193],[167.0547,60.3505],[167.1047,60.3651],[167.2042,60.3375],[167.3828,60.3776],[167.4016,60.3953],[167.5188,60.4271],[167.5792,60.4271],[167.8099,60.487],[167.9854,60.525],[168.0479,60.55],[168.2167,60.5792],[168.4146,60.5958],[168.55,60.5958],[168.6359,60.5526],[168.7521,60.5646],[168.8958,60.5646],[169.1208,60.5521],[169.2036,60.562],[169.25,60.6146],[169.3167,60.6063],[169.3891,60.5745],[169.3917,60.5208],[169.4318,60.4901],[169.6953,60.4161],[169.7495,60.387],[169.7401,60.3297],[169.7703,60.3182],[169.7797,60.2672],[169.8818,60.2474],[169.9297,60.2224],[169.8714,60.2016],[169.9203,60.1495],[169.9526,60.0776],[170.0958,60.0396],[170.1516,60.0161],[170.1365,59.9709],[170.2112,59.963],[170.2911,59.9276],[170.3984,59.9476],[170.4307,59.9695],[170.4693,60.1745],[170.5125,60.2458],[170.5771,60.2833],[170.6458,60.2896],[170.6891,60.3161],[170.6828,60.3495],[170.6172,60.3682],[170.7375,60.4292],[170.7875,60.4188],[170.8307,60.4661],[170.7609,60.5016],[170.7958,60.5167],[170.8693,60.487],[171.0161,60.513],[171.1229,60.5563],[171.2203,60.5589],[171.3479,60.6104],[171.4818,60.6995],[171.5542,60.7188],[171.6286,60.7172],[171.6557,60.7474],[171.6193,60.7786],[171.6568,60.8078],[171.75,60.8438],[171.8833,60.8187],[171.9651,60.8391],[171.9588,60.8807],[172.0078,60.887],[172.0359,60.8464],[172.1016,60.8651],[172.1328,60.9245],[172.2182,60.9484],[172.1536,61.038],[172.275,61.0042],[172.4063,61.0083],[172.4849,61.0547],[172.4099,61.063],[172.425,61.1417],[172.3813,61.1542],[172.3401,61.2078],[172.3896,61.2271],[172.5146,61.1729],[172.6521,61.1667],[172.7026,61.2266],[172.8255,61.2714],[172.9125,61.2604],[172.9682,61.2859],[172.9516,61.3286],[172.9,61.3563],[172.7333,61.3958],[172.825,61.4521],[172.9078,61.4661],[173.0026,61.4068],[173.0792,61.3833],[173.1807,61.3964],[173.3099,61.4526],[173.3328,61.4818],[173.3047,61.5089],[173.3708,61.5417],[173.4563,61.5292]]]},"properties":{"GID_0":"RUS","GID_1":"RUS.24_1","GID_2":"RUS.24.6_1","NAME_1":"Kamchatka","NAME_2":"Olyutorskiyrayon"}},
{"type":"Feature","geometry":{"type":"Polygon","coordinates":[[[170.0296,62.2206],[170.0263,62.2593],[169.9841,62.2873],[169.9906,62.3202],[169.9122,62.3626],[169.9368,62.4036],[169.8353,62.4527],[169.8644,62.5263],[169.8242,62.5806],[169.717,62.5847],[169.6312,62.6231],[169.539,62.6211],[169.4207,62.7169],[169.2331,62.7743],[169.1533,62.8165],[168.9528,62.8754],[168.7969,62.8581],[168.621,62.8913],[168.5539,62.9384],[168.4328,62.9581],[168.2931,63.0071],[168.3037,63.0516],[168.4001,63.0685],[168.4346,63.1022],[168.5598,63.1143],[168.6293,63.1647],[168.6827,63.1776],[168.681,63.248],[168.7619,63.2728],[168.8067,63.3288],[168.9422,63.3517],[169.0288,63.4217],[169.1136,63.454],[169.2846,63.4734],[169.3906,63.5134],[169.3798,63.5384],[169.4471,63.5808],[169.4083,63.6178],[169.3337,63.7713],[169.1896,63.8099],[169.2,63.8678],[169.1047,63.8895],[169.0063,63.8862],[168.8627,63.9001],[168.8248,63.9319],[168.7186,63.9756],[168.6651,64.0521],[168.6419,64.148],[168.4447,64.1674],[168.378,64.2089],[168.3424,64.2909],[168.152,64.2711],[168.0975,64.2872],[167.9995,64.2481],[167.8439,64.2305],[167.7513,64.2441],[167.7332,64.2949],[167.5929,64.2741],[167.5258,64.2866],[167.5121,64.3839],[167.3527,64.4192],[167.2494,64.4681],[167.1438,64.5406],[167.0955,64.5874],[167.0269,64.578],[166.9236,64.5132],[166.7624,64.4844],[166.6383,64.4939],[166.4733,64.4715],[166.3093,64.5514],[166.1408,64.5647],[166.0182,64.5865],[165.9154,64.5227],[165.8049,64.5124],[165.7336,64.5312],[165.7714,64.5897],[165.7221,64.6351],[165.7074,64.6869],[165.6529,64.7142],[165.4988,64.7099],[165.2849,64.7232],[165.2035,64.798],[165.1119,64.8129],[164.9519,64.7896],[164.9069,64.7544],[164.9494,64.7147],[164.9543,64.6698],[164.8727,64.6438],[164.8165,64.6966],[164.7055,64.7634],[164.5859,64.7642],[164.5374,64.7898],[164.1886,64.8888],[164.058,64.8896],[163.9656,64.8553],[163.7948,64.8523],[163.7145,64.884],[163.5941,64.8886],[163.5322,64.9113],[163.421,64.8338],[163.3151,64.7842],[163.2082,64.7927],[163.1582,64.7768],[163.1531,64.7419],[163.2292,64.709],[163.2157,64.6026],[163.2412,64.5419],[163.3373,64.4837],[163.419,64.4617],[163.4173,64.4185],[163.5138,64.3708],[163.5104,64.3388],[163.3971,64.3102],[163.2514,64.2566],[163.2355,64.2294],[163.2886,64.1998],[163.2079,64.1701],[162.9874,64.1571],[162.8663,64.1193],[162.8419,64.0702],[162.9564,63.9869],[162.9705,63.8618],[162.8851,63.8301],[162.7886,63.7247],[162.8862,63.6903],[162.8912,63.6474],[162.9974,63.6276],[163.0605,63.5774],[163.0709,63.4994],[162.9022,63.3917],[162.7478,63.3677],[162.7416,63.3345],[162.797,63.2842],[162.7483,63.235],[162.8338,63.1971],[162.8257,63.1736],[162.7032,63.1487],[162.6104,63.0863],[162.5098,63.0739],[162.4255,63.0913],[162.3582,63.0535],[162.2885,62.9172],[162.2976,62.8602],[162.4432,62.8432],[162.5989,62.7828],[162.6715,62.7423],[162.5955,62.6925],[162.6516,62.6711],[162.763,62.6704],[162.8298,62.6451],[162.8064,62.6003],[162.6828,62.5482],[162.7221,62.4996],[162.8009,62.4385],[162.7574,62.3801],[162.7443,62.3302],[162.7796,62.2951],[162.7541,62.2612],[162.6559,62.222],[162.5314,62.1914],[162.2221,62.1449],[162.1996,62.105],[162.2706,62.0712],[162.4988,62.0487],[162.5486,61.9792],[162.4165,61.9047],[162.3424,61.9106],[162.2839,61.8842],[162.309,61.8358],[162.3724,61.7802],[162.4503,61.754],[162.4762,61.6956],[162.4468,61.6667],[162.6359,61.6484],[162.7276,61.6953],[162.8479,61.7083],[162.9328,61.6661],[162.8599,61.6151],[162.9599,61.5786],[162.9755,61.538],[163.0557,61.5193],[163.1162,61.5484],[163.0792,61.5792],[163.1109,61.6141],[163.3234,61.6641],[163.3432,61.7026],[163.25,61.7333],[163.1396,61.7438],[162.9984,61.7818],[162.9693,61.8047],[163.0099,61.8318],[163.0786,61.9453],[163.1766,62.0464],[163.0984,62.0953],[163.1411,62.1151],[163.0922,62.1734],[163.1245,62.2401],[163.2318,62.312],[163.3714,62.337],[163.3078,62.3724],[163.2276,62.3859],[163.2224,62.4203],[163.2641,62.4589],[163.2505,62.5141],[163.3833,62.5479],[163.4771,62.5479],[163.6104,62.5833],[163.6687,62.5812],[163.7625,62.6042],[163.8438,62.6083],[163.9271,62.5854],[163.9859,62.6349],[164.05,62.6521],[164.2917,62.6625],[164.3755,62.6911],[164.6062,62.6792],[164.6849,62.6349],[164.7349,62.5724],[164.7833,62.5521],[164.9021,62.5438],[165.0896,62.4875],[165.3562,62.4813],[165.1812,62.4604],[165.1089,62.4297],[165.1083,62.4063],[164.9625,62.4042],[164.7354,62.4562],[164.6354,62.4562],[164.5354,62.4396],[164.4995,62.4026],[164.4422,62.3932],[164.4411,62.362],[164.2318,62.312],[164.1568,62.2745],[164.1047,62.1651],[164.1266,62.1234],[164.0776,62.0911],[164.1141,62.0214],[164.0714,61.987],[164.0995,61.9224],[164.087,61.8755],[164.0464,61.8432],[164.0745,61.8141],[164.0703,61.7401],[164.0182,61.662],[163.9271,61.6646],[163.8734,61.6495],[163.8557,61.5839],[163.7526,61.4516],[163.8047,61.4391],[163.8917,61.4458],[163.9787,61.4161],[164.0266,61.3599],[164.0016,61.3026],[163.9484,61.2724],[163.9203,61.213],[163.763,61.1745],[163.6411,61.1151],[163.6328,61.0734],[163.5938,61.0417],[163.5109,61.0266],[163.5505,60.9797],[163.6662,60.9495],[163.7057,60.9234],[163.6684,60.8626],[163.6462,60.8073],[163.7161,60.7673],[163.6778,60.6733],[163.7376,60.5997],[163.8542,60.555],[163.9861,60.5169],[164.1233,60.5015],[164.2211,60.5151],[164.2651,60.5492],[164.2667,60.5992],[164.242,60.6564],[164.2757,60.6958],[164.3834,60.7314],[164.5174,60.7627],[164.7183,60.7246],[164.8255,60.7144],[164.9187,60.7178],[164.9346,60.7806],[165.0161,60.8268],[165.1155,60.85],[165.2288,60.8568],[165.4087,60.8331],[165.4852,60.8694],[165.4753,60.9411],[165.5168,60.9626],[165.5387,61.0548],[165.6501,61.1087],[165.8969,61.1447],[165.9822,61.171],[166.1885,61.259],[166.2586,61.255],[166.4573,61.2153],[166.5747,61.2383],[166.6533,61.2752],[166.7079,61.3818],[166.7875,61.431],[166.9077,61.4487],[167.1333,61.4185],[167.2586,61.4288],[167.3186,61.3962],[167.4084,61.3882],[167.5592,61.3993],[167.7273,61.4672],[168.0132,61.5667],[168.2965,61.6384],[168.5212,61.6351],[168.7088,61.6235],[168.9769,61.7287],[169.262,61.7999],[169.5654,61.9125],[169.6819,62.0649],[169.7686,62.1407],[169.8815,62.1951],[170.0296,62.2206]]]},"properties":{"GID_0":"RUS","GID_1":"RUS.24_1","GID_2":"RUS.24.7_1","NAME_1":"Kamchatka","NAME_2":"Penzhinskiyrayon"}},
{"type":"Feature","geometry":{"type":"Polygon","coordinates":[[[156.2416,55.6548],[156.1322,55.6464],[155.8276,55.7257],[155.6855,55.7314],[155.6372,55.747],[155.6017,55.5658],[155.5689,55.4503],[155.5561,55.3647],[155.5528,55.2481],[155.5839,55.0486],[155.6889,54.6],[155.7306,54.4483],[155.7911,54.2728],[155.8883,54.0206],[155.9367,53.8614],[155.9857,53.6646],[156.0221,53.4677],[156.0543,53.3667],[156.1006,53.1356],[156.1177,53.0104],[156.341,53.0683],[156.4767,53.0923],[156.6195,53.1004],[156.7913,53.1297],[157.0143,53.2302],[157.1255,53.2595],[157.1888,53.3013],[157.3064,53.3535],[157.3094,53.4027],[157.3138,53.6033],[157.3021,53.7015],[157.3036,53.7891],[157.3884,53.9871],[157.5085,54.0806],[157.5148,54.2037],[157.5334,54.2731],[157.6693,54.3912],[157.6772,54.4657],[157.6322,54.5257],[157.5606,54.6771],[157.5499,54.7681],[157.5135,54.8521],[157.4586,54.901],[157.3775,54.9286],[157.1608,54.9506],[157.0387,54.991],[156.6819,55.0681],[156.5719,55.0508],[156.4477,55.009],[156.3357,55.0075],[156.2538,55.0435],[156.2336,55.0927],[156.2094,55.2039],[156.2276,55.3185],[156.2571,55.4316],[156.229,55.5554],[156.2416,55.6548]]]},"properties":{"GID_0":"RUS","GID_1":"RUS.24_1","GID_2":"RUS.24.8_1","NAME_1":"Kamchatka","NAME_2":"Sobolevskiyrayon"}},
{"type":"Feature","geometry":{"type":"Polygon","coordinates":[[[159.3272,56.6619],[159.4661,56.6728],[159.5976,56.6979],[159.5522,56.7369],[159.5613,56.7573],[159.7322,56.8118],[159.7341,56.8573],[159.6425,56.892],[159.6741,56.9261],[159.774,56.9359],[159.7744,56.9812],[159.8089,57.0443],[159.8372,57.0558],[159.9359,57.05],[159.9342,57.0998],[160.0062,57.1344],[160.0959,57.2086],[160.1152,57.271],[160.1973,57.3253],[160.1947,57.3593],[160.2431,57.3855],[160.2705,57.4392],[160.2921,57.5433],[160.3183,57.5568],[160.286,57.5955],[160.2739,57.7184],[160.3188,57.7746],[160.3888,57.8253],[160.6052,58.0234],[160.7706,58.2206],[160.8577,58.3069],[160.8939,58.3714],[160.8866,58.4575],[160.9307,58.5159],[161.2345,58.6546],[161.2932,58.7057],[161.3875,58.8302],[161.4461,59.013],[161.5056,59.073],[161.5191,59.1354],[161.4748,59.2343],[161.5377,59.2836],[161.6121,59.3228],[161.7427,59.3044],[162.0659,59.277],[162.1106,59.3157],[162.0759,59.3705],[161.9202,59.4289],[161.823,59.4947],[161.7596,59.5555],[161.592,59.6313],[161.5155,59.6867],[161.4456,59.7633],[161.3774,59.8135],[161.3362,59.8735],[161.3766,59.9154],[161.4579,59.9496],[161.4204,59.9784],[161.3347,59.9278],[161.2688,59.8487],[161.1881,59.8151],[161.1106,59.7587],[161.0517,59.7462],[160.8534,59.6093],[160.6963,59.5909],[160.5789,59.5569],[160.496,59.5561],[160.4678,59.4819],[160.4128,59.3975],[160.3211,59.345],[160.1969,59.3293],[160.1563,59.2838],[159.9702,59.1755],[159.8561,59.1252],[159.8297,59.0756],[159.7244,58.9881],[159.7578,58.9619],[159.7367,58.8736],[159.6267,58.8108],[159.5778,58.7606],[159.4872,58.6975],[159.4189,58.6708],[159.3311,58.6042],[159.2262,58.5607],[159.1767,58.4994],[159.1155,58.4511],[159.0248,58.403],[158.809,58.3147],[158.6659,58.2621],[158.5717,58.2062],[158.4279,58.1383],[158.3666,58.0934],[158.3148,58.0645],[158.2208,58.0316],[158.2164,58.0205],[158.1839,58.0219],[158.1155,58],[158.0389,57.9847],[157.9324,57.9724],[157.8811,57.9761],[157.7622,57.9969],[157.7589,58.0156],[157.7472,58.0147],[157.7049,58.0112],[157.6584,58.0018],[157.6713,57.98],[157.5772,57.9309],[157.5868,57.9221],[157.5785,57.8864],[157.5336,57.8292],[157.4394,57.7903],[157.3044,57.7658],[157.1756,57.7733],[157.0522,57.8003],[157.0111,57.8536],[156.914,57.8112],[156.8494,57.7981],[156.7883,57.735],[156.8467,57.7161],[156.9033,57.6753],[156.9589,57.6019],[157.0005,57.4949],[156.9837,57.3992],[156.8928,57.2803],[156.7317,57.1089],[156.7272,57.0683],[156.6683,57.0589],[156.5598,57.1009],[156.541,57.0247],[156.4356,56.9322],[156.3689,56.8997],[156.2144,56.8503],[156.1978,56.7961],[156.0739,56.7769],[155.9956,56.69],[155.9489,56.6136],[155.88,56.4419],[155.8253,56.3329],[155.7358,56.1123],[155.6505,55.9669],[155.6483,55.8386],[155.6372,55.747],[155.6855,55.7314],[155.8276,55.7257],[156.1322,55.6464],[156.2416,55.6548],[156.4544,55.7266],[157.0247,55.6814],[157.3865,55.679],[157.5074,55.6392],[157.5952,55.6524],[157.5526,55.7309],[157.7343,55.829],[157.8466,55.94],[158.1922,56.1275],[158.1824,56.148],[157.9905,56.1805],[157.825,56.1849],[157.6937,56.2085],[157.5531,56.2919],[157.3551,56.4986],[157.414,56.5575],[157.4974,56.6151],[157.4613,56.677],[157.6614,56.7634],[157.8407,56.7513],[157.9645,56.7098],[158.0835,56.7046],[158.2812,56.7362],[158.4421,56.5267],[159.2241,56.6615],[159.3272,56.6619]]]},"properties":{"GID_0":"RUS","GID_1":"RUS.24_1","GID_2":"RUS.24.9_1","NAME_1":"Kamchatka","NAME_2":"Tigil'skiyrayon"}},
{"type":"Feature","geometry":{"type":"Polygon","coordinates":[[[157.3064,53.3535],[157.1888,53.3013],[157.1255,53.2595],[157.0143,53.2302],[156.7913,53.1297],[156.6195,53.1004],[156.4767,53.0923],[156.341,53.0683],[156.1177,53.0104],[156.1283,52.9156],[156.1532,52.8313],[156.202,52.7252],[156.2691,52.6128],[156.391,52.372],[156.4262,52.2841],[156.466,52.1397],[156.4805,52.0467],[156.5026,51.7851],[156.4995,51.6361],[156.4839,51.5214],[156.5267,51.4167],[156.5344,51.3164],[156.5907,51.2577],[156.6467,51.2541],[156.7233,51.1719],[156.703,51.1039],[156.7611,51.0712],[156.7683,50.9958],[156.7021,50.9145],[156.72,50.8931],[156.7929,50.9529],[156.8012,50.9742],[156.8819,51.0544],[156.8981,51.1042],[156.8735,51.1393],[156.9592,51.208],[157.0921,51.2842],[157.2417,51.3814],[157.3457,51.5199],[157.4215,51.6457],[157.4805,51.7756],[157.5099,51.9168],[157.5579,52.0523],[157.6593,52.1763],[157.7408,52.3237],[157.8712,52.4477],[158.0943,52.5937],[158.0985,52.7078],[158.0897,52.8141],[158.0494,52.8842],[157.9259,52.965],[157.7875,53.0143],[157.6367,53.0383],[157.4474,53.1058],[157.3423,53.1924],[157.3037,53.3007],[157.3064,53.3535]]]},"properties":{"GID_0":"RUS","GID_1":"RUS.24_1","GID_2":"RUS.24.10_1","NAME_1":"Kamchatka","NAME_2":"Ust'-Bol'sheretskiyrayon"}},
{"type":"Feature","geometry":{"type":"Polygon","coordinates":[[[159.1283,55.8965],[159.2972,55.8562],[159.4071,55.8265],[159.4588,55.8256],[159.5059,55.8381],[159.5833,55.8242],[159.5723,55.8003],[159.6894,55.7251],[159.7905,55.702],[159.8486,55.6614],[159.8591,55.6166],[159.9023,55.5771],[160.0367,55.481],[160.1688,55.4274],[160.204,55.3572],[160.3266,55.3002],[160.4175,55.2795],[160.4327,55.2348],[160.4037,55.2023],[160.4452,55.151],[160.5619,55.0938],[160.768,55.0553],[160.9949,55.0909],[161.1014,55.1229],[161.1675,55.1305],[161.2393,55.1032],[161.3805,55.0292],[161.4286,55.024],[161.5058,55.0447],[161.532,55.0868],[161.5943,55.1191],[161.8075,55.1719],[161.7824,55.2165],[161.7464,55.3314],[161.7383,55.3983],[161.7525,55.561],[161.7943,55.6496],[161.8351,55.7033],[161.9243,55.7933],[161.9297,55.8402],[161.9678,55.8932],[162.022,55.9373],[162.0261,55.9728],[162.0746,56.0144],[162.0526,56.0361],[162.0833,56.0867],[162.1605,56.1292],[162.2604,56.1628],[162.3917,56.1933],[162.4926,56.2266],[162.5372,56.2298],[162.6026,56.2623],[162.5355,56.3218],[162.4951,56.3288],[162.3988,56.3764],[162.6257,56.4394],[162.6611,56.4775],[162.7659,56.4755],[162.9062,56.4277],[162.9361,56.4402],[162.9546,56.4959],[163.0108,56.5405],[163.1072,56.5153],[163.0767,56.4542],[163.0098,56.4415],[162.9425,56.4094],[162.8695,56.3549],[162.7774,56.359],[162.7411,56.3409],[162.7102,56.2747],[162.6155,56.2331],[162.6821,56.1788],[162.7539,56.1422],[162.7525,56.12],[162.8092,56.0671],[162.9131,56.0223],[163.0226,56.0054],[163.1173,56.096],[163.1788,56.1341],[163.2796,56.1477],[163.3615,56.1844],[163.3329,56.2686],[163.3513,56.3007],[163.3111,56.3962],[163.2512,56.4387],[163.2673,56.481],[163.2469,56.5426],[163.2724,56.5679],[163.2353,56.6049],[163.2729,56.6796],[163.2267,56.7146],[163.2333,56.7405],[163.1274,56.725],[163.0785,56.7412],[163.0156,56.7288],[162.9734,56.6969],[162.9289,56.6927],[162.8345,56.7243],[162.7764,56.7749],[162.8103,56.9334],[162.8428,56.987],[162.8529,57.0388],[162.7769,57.1894],[162.7655,57.2881],[162.7821,57.3488],[162.8184,57.3838],[162.9067,57.4329],[162.8705,57.4295],[162.6808,57.3448],[162.3789,57.331],[162.3107,57.3653],[161.968,57.3572],[161.6928,57.2955],[161.5451,57.2921],[161.3796,57.3329],[161.1894,57.3936],[161.0414,57.4521],[160.6645,57.4912],[160.5448,57.5105],[160.4503,57.574],[160.3723,57.5842],[160.2921,57.5433],[160.2705,57.4392],[160.2431,57.3855],[160.1947,57.3593],[160.1973,57.3253],[160.1152,57.271],[160.0959,57.2086],[160.0062,57.1344],[159.9342,57.0998],[159.9359,57.05],[159.8372,57.0558],[159.8089,57.0443],[159.7744,56.9812],[159.774,56.9359],[159.6741,56.9261],[159.6425,56.892],[159.7341,56.8573],[159.7322,56.8118],[159.5613,56.7573],[159.5522,56.7369],[159.5976,56.6979],[159.562,56.6913],[159.5885,56.6205],[159.5829,56.5329],[159.5532,56.4699],[159.4735,56.4027],[159.4369,56.3148],[159.3085,56.2699],[159.1994,56.2468],[159.1474,56.2157],[159.1826,56.1567],[159.2433,56.1316],[159.2578,56.0894],[159.1356,56.0226],[159.1032,55.973],[159.1283,55.8965]]]},"properties":{"GID_0":"RUS","GID_1":"RUS.24_1","GID_2":"RUS.24.11_1","NAME_1":"Kamchatka","NAME_2":"Ust'-Kamchatskiyrayon"}}
]}