{"type":"FeatureCollection", "features": [
{"type":"Feature","geometry":{"type":"Polygon","coordinates":[[[46.1683,48.2546],[46.1772,48.2638],[46.1627,48.2703],[46.1507,48.26],[46.1683,48.2546]]]},"properties":{"GID_0":"RUS","GID_1":"RUS.5_1","GID_2":"RUS.5.1_1","NAME_1":"Astrakhan'","NAME_2":"Akhtubinsk"}},
{"type":"Feature","geometry":{"type":"Polygon","coordinates":[[[47.1277,47.8014],[47.0177,48],[47.1394,48.0399],[47.0976,48.211],[46.9087,48.339],[46.4919,48.443],[46.6215,48.6835],[46.2558,48.8485],[46.0658,48.8538],[45.8685,48.6923],[45.3901,48.4523],[45.6267,48.4393],[46.1247,48.2538],[46.2824,48.0939],[46.2399,47.9198],[46.28,47.9081],[46.544,47.8618],[46.7285,47.6744],[47.0436,47.7908],[47.1277,47.8014]],[[46.1683,48.2546],[46.1507,48.26],[46.1627,48.2703],[46.1772,48.2638],[46.1683,48.2546]]]},"properties":{"GID_0":"RUS","GID_1":"RUS.5_1","GID_2":"RUS.5.2_1","NAME_1":"Astrakhan'","NAME_2":"Akhtubinskiyrayon"}},
{"type":"Feature","geometry":{"type":"Polygon","coordinates":[[[48.14,46.2687],[48.2445,46.3358],[48.1529,46.4141],[48.0508,46.3666],[48.14,46.2687]]]},"properties":{"GID_0":"RUS","GID_1":"RUS.5_1","GID_2":"RUS.5.3_1","NAME_1":"Astrakhan'","NAME_2":"Astrakhan'"}},
{"type":"Feature","geometry":{"type":"Polygon","coordinates":[[[45.3901,48.4523],[45.1867,48.478],[45.0527,48.3648],[45.2053,48.2175],[45.7411,47.8852],[45.9568,47.684],[46.2399,47.9198],[46.2824,48.0939],[46.1247,48.2538],[45.6267,48.4393],[45.3901,48.4523]]]},"properties":{"GID_0":"RUS","GID_1":"RUS.5_1","GID_2":"RUS.5.4_1","NAME_1":"Astrakhan'","NAME_2":"Chernoyarskiyrayon"}},
{"type":"Feature","geometry":{"type":"MultiPolygon","coordinates":[[[[46.8115,47.5823],[46.5332,47.405],[46.8643,46.989],[47.1218,46.8601],[47.2283,46.6608],[47.3236,46.6579],[47.723,46.8222],[47.5206,46.9666],[47.4523,47.1266],[47.2073,47.1458],[47.2156,47.2683],[47.0678,47.435],[46.8115,47.5823]]],[[[46.28,47.9081],[46.2399,47.9198],[45.9568,47.684],[46.1982,47.4929],[46.3827,47.4116],[46.7305,47.6199],[46.7285,47.6744],[46.544,47.8618],[46.28,47.9081]]]]},"properties":{"GID_0":"RUS","GID_1":"RUS.5_1","GID_2":"RUS.5.5_1","NAME_1":"Astrakhan'","NAME_2":"Enotaevskiyrayon"}},
{"type":"Feature","geometry":{"type":"Polygon","coordinates":[[[47.9526,45.6284],[47.8039,45.7581],[47.8709,45.8421],[47.7923,45.9979],[47.9234,46.1416],[47.9298,46.229],[47.3317,46.0867],[47.3177,46.0136],[47.5977,45.941],[47.6503,45.701],[47.9526,45.6284]]]},"properties":{"GID_0":"RUS","GID_1":"RUS.5_1","GID_2":"RUS.5.6_1","NAME_1":"Astrakhan'","NAME_2":"Ikryaninskiyrayon"}},
{"type":"Feature","geometry":{"type":"Polygon","coordinates":[[[48.5694,45.9255],[48.3532,46.1888],[48.1983,46.0748],[47.9234,46.1416],[47.7923,45.9979],[47.8709,45.8421],[47.8039,45.7581],[47.9526,45.6284],[48.2388,45.603],[48.5694,45.9255]]]},"properties":{"GID_0":"RUS","GID_1":"RUS.5_1","GID_2":"RUS.5.7_1","NAME_1":"Astrakhan'","NAME_2":"Kamyzyakskiyrayon"}},
{"type":"Feature","geometry":{"type":"Polygon","coordinates":[[[47.1277,47.8014],[47.0436,47.7908],[46.7285,47.6744],[46.7305,47.6199],[46.8115,47.5823],[47.0678,47.435],[47.2156,47.2683],[47.2073,47.1458],[47.4523,47.1266],[47.5206,46.9666],[47.723,46.8222],[47.9034,46.6613],[48.1124,46.7438],[48.1517,47.0669],[48.3415,47.1055],[48.3708,47.4447],[48.1823,47.678],[48.0583,47.7607],[47.6873,47.745],[47.4067,47.8126],[47.3713,47.6769],[47.1277,47.8014]]]},"properties":{"GID_0":"RUS","GID_1":"RUS.5_1","GID_2":"RUS.5.8_1","NAME_1":"Astrakhan'","NAME_2":"Kharabalinskiyrayon"}},
{"type":"Feature","geometry":{"type":"Polygon","coordinates":[[[48.3708,47.4447],[48.3415,47.1055],[48.1517,47.0669],[48.1124,46.7438],[47.9034,46.6613],[48.0052,46.48],[48.1925,46.527],[48.3142,46.4049],[48.6198,46.6008],[48.4807,46.6577],[48.657,46.7713],[48.7513,46.6879],[49.0053,46.7672],[48.7813,47.0109],[48.6614,47.2091],[48.6078,47.4145],[48.3708,47.4447]]]},"properties":{"GID_0":"RUS","GID_1":"RUS.5_1","GID_2":"RUS.5.9_1","NAME_1":"Astrakhan'","NAME_2":"Krasnoyarskiyrayon"}},
{"type":"Feature","geometry":{"type":"Polygon","coordinates":[[[47.6503,45.701],[47.5977,45.941],[47.3177,46.0136],[47.3317,46.0867],[47.2564,46.0959],[46.9704,45.6269],[47.1958,45.5662],[47.5742,45.6358],[47.6503,45.701]]]},"properties":{"GID_0":"RUS","GID_1":"RUS.5_1","GID_2":"RUS.5.10_1","NAME_1":"Astrakhan'","NAME_2":"Limanskiyrayon"}},
{"type":"Feature","geometry":{"type":"Polygon","coordinates":[[[47.2283,46.6608],[47.0554,46.5851],[46.9873,46.4154],[46.7931,46.4076],[46.6057,46.2831],[46.9038,46.1779],[46.9845,46.0542],[47.2564,46.0959],[47.3317,46.0867],[47.9298,46.229],[48.0492,46.3748],[48.0052,46.48],[47.9034,46.6613],[47.723,46.8222],[47.3236,46.6579],[47.2283,46.6608]]]},"properties":{"GID_0":"RUS","GID_1":"RUS.5_1","GID_2":"RUS.5.11_1","NAME_1":"Astrakhan'","NAME_2":"Narimanovskiyrayon"}},
{"type":"Feature","geometry":{"type":"Polygon","coordinates":[[[47.9234,46.1416],[48.1983,46.0748],[48.3532,46.1888],[48.434,46.3267],[48.3142,46.4049],[48.1925,46.527],[48.0052,46.48],[48.0492,46.3748],[47.9298,46.229],[47.9234,46.1416]],[[48.14,46.2687],[48.0508,46.3666],[48.1529,46.4141],[48.2445,46.3358],[48.14,46.2687]]]},"properties":{"GID_0":"RUS","GID_1":"RUS.5_1","GID_2":"RUS.5.12_1","NAME_1":"Astrakhan'","NAME_2":"Privolzhskiyrayon"}},
{"type":"Feature","geometry":{"type":"Polygon","coordinates":[[[48.5694,45.9255],[48.7742,45.9211],[49.0156,45.9977],[49.2027,46.2094],[49.151,46.3697],[48.8162,46.4802],[48.6198,46.6008],[48.3142,46.4049],[48.434,46.3267],[48.3532,46.1888],[48.5694,45.9255]]]},"properties":{"GID_0":"RUS","GID_1":"RUS.5_1","GID_2":"RUS.5.13_1","NAME_1":"Astrakhan'","NAME_2":"Volodarskiyrayon"}}
]}