{"type":"FeatureCollection", "features": [
{"type":"Feature","geometry":{"type":"Polygon","coordinates":[[[151.1797,59.905],[151.311,59.9943],[151.2503,60.0176],[151.2275,60.2714],[151.4848,60.4005],[151.5525,60.5597],[151.7071,60.5846],[151.8716,60.4938],[151.9739,60.6324],[152.0851,60.6959],[152.3406,60.6954],[152.7395,60.7454],[152.6684,60.821],[152.8089,60.8762],[152.9048,60.9588],[152.7998,61.059],[153.1293,61.2437],[153.2907,61.2027],[153.313,61.2444],[153.3171,61.3857],[153.1394,61.5397],[153.1259,61.6108],[153.2025,61.6935],[153.424,61.8413],[153.4927,61.9159],[153.4012,61.994],[153.2213,62.0001],[153.0042,62.0676],[152.7738,62.0428],[152.4645,61.943],[152.3991,61.9507],[152.1994,62.0679],[151.824,62.0349],[151.5072,61.9288],[151.3926,61.8301],[151.3572,61.722],[151.2287,61.706],[151.0075,61.5802],[150.8733,61.5314],[150.7512,61.4369],[150.8937,61.3187],[150.9669,61.0133],[150.9368,60.9048],[151.0447,60.8328],[150.9366,60.7557],[151.1051,60.7065],[151.1626,60.5788],[151.1211,60.5395],[150.8484,60.4987],[150.673,60.4222],[150.5894,60.3893],[150.3508,60.1917],[150.2277,59.9935],[150.1455,59.9305],[150.133,59.8531],[150.5073,59.8716],[150.605,59.8459],[150.7105,59.9858],[151.0196,59.9616],[151.1797,59.905]]]},"properties":{"GID_0":"RUS","GID_1":"RUS.40_1","GID_2":"RUS.40.1_1","NAME_1":"Magadan","NAME_2":"Khasynskiyrayon"}},
{"type":"Feature","geometry":{"type":"Polygon","coordinates":[[[151.1797,59.905],[151.0196,59.9616],[150.7105,59.9858],[150.605,59.8459],[150.8704,59.7762],[150.8186,59.6418],[150.7287,59.563],[150.7614,59.4325],[150.9105,59.4446],[150.928,59.5211],[151.0336,59.5743],[150.9795,59.7046],[151.0212,59.7857],[151.1797,59.905]]]},"properties":{"GID_0":"RUS","GID_1":"RUS.40_1","GID_2":"RUS.40.2_1","NAME_1":"Magadan","NAME_2":"Magadangorsovet"}},
{"type":"Feature","geometry":{"type":"MultiPolygon","coordinates":[[[[151.2503,60.0176],[151.311,59.9943],[151.1797,59.905],[151.0212,59.7857],[150.9795,59.7046],[151.0336,59.5743],[151.2815,59.5597],[151.4086,59.6047],[151.5221,59.5054],[151.6867,59.435],[151.766,59.3394],[152.0088,59.2639],[152.1713,59.2917],[152.3244,59.2264],[152.111,59.1497],[151.7532,59.1291],[151.6499,59.1639],[151.4453,59.1609],[151.3172,59.1048],[151.1424,59.067],[151.3613,58.8574],[151.5481,58.8662],[151.6929,58.843],[151.826,58.8742],[152.0644,58.8883],[152.1468,58.9759],[152.3345,59.0142],[152.5191,58.9873],[152.5503,58.9506],[152.7463,58.9174],[152.9029,58.9368],[153.0161,59.0667],[153.3502,59.1023],[153.3567,59.2021],[153.495,59.2337],[153.6056,59.1976],[153.8095,59.1761],[153.9386,59.0703],[154.0422,59.0472],[154.1678,59.0947],[154.2973,59.0876],[154.3417,59.1758],[154.4856,59.2206],[154.6755,59.1475],[154.9211,59.1956],[155.0831,59.1912],[155.2011,59.236],[155.2103,59.3468],[155.0861,59.3914],[155.0129,59.4777],[154.7916,59.4639],[154.6556,59.5348],[154.4639,59.5208],[154.4221,59.4142],[154.1636,59.4464],[154.0775,59.5048],[154.2703,59.673],[154.2165,59.7781],[154.2207,59.8671],[154.3275,59.8961],[154.4872,59.881],[154.413,60.0682],[154.5953,60.1109],[154.8047,60.2932],[154.9588,60.3661],[155.1474,60.413],[155.25,60.4875],[155.6687,60.6583],[155.749,60.675],[155.7953,60.8612],[155.9901,60.9826],[155.7308,61.1529],[155.4904,61.2056],[155.3702,61.2715],[155.2102,61.2286],[155.1992,61.1388],[155.0542,61.0659],[154.6682,60.909],[154.6222,60.9634],[154.4438,61.0478],[154.2649,60.9555],[154.1513,60.9403],[153.9209,60.849],[153.6923,60.9135],[153.5672,60.9973],[153.4919,61.1051],[153.3127,61.0912],[153.2798,61.1822],[153.2907,61.2027],[153.1293,61.2437],[152.7998,61.059],[152.9048,60.9588],[152.8089,60.8762],[152.6684,60.821],[152.7395,60.7454],[152.3406,60.6954],[152.0851,60.6959],[151.9739,60.6324],[151.8716,60.4938],[151.7071,60.5846],[151.5525,60.5597],[151.4848,60.4005],[151.2275,60.2714],[151.2503,60.0176]]],[[[146.8436,61.0923],[146.7392,60.9383],[146.534,60.8982],[146.5334,60.6637],[146.3276,60.6877],[146.2271,60.7434],[146.0213,60.6937],[145.9933,60.6363],[145.7261,60.5583],[145.7267,60.498],[145.5992,60.4434],[145.694,60.3719],[145.7099,60.2938],[145.937,60.1838],[146.081,60.2221],[146.2147,60.2039],[146.353,60.2444],[146.4712,60.2263],[146.5728,60.1186],[146.7731,60.0959],[146.7465,59.9915],[146.8591,59.897],[147.027,59.9504],[147.231,59.8679],[147.2791,59.6448],[147.1996,59.5453],[147.1961,59.4161],[147.03,59.3962],[147.1554,59.3209],[147.2961,59.3347],[147.4207,59.2684],[147.6344,59.3071],[147.9,59.3878],[148.1688,59.4078],[148.389,59.3812],[148.4399,59.2912],[148.575,59.2382],[148.9219,59.3032],[148.9865,59.3755],[148.7399,59.3603],[148.7128,59.4539],[148.9972,59.4558],[149.1646,59.4845],[149.0833,59.6097],[149.3402,59.72],[149.6625,59.7547],[150.0697,59.6885],[150.1261,59.662],[150.4582,59.6161],[150.601,59.54],[150.7287,59.563],[150.8186,59.6418],[150.8704,59.7762],[150.605,59.8459],[150.5073,59.8716],[150.133,59.8531],[150.1455,59.9305],[150.2277,59.9935],[150.3508,60.1917],[150.5894,60.3893],[150.673,60.4222],[150.4781,60.4518],[150.3967,60.4264],[150.2629,60.4853],[150.0724,60.4586],[150.003,60.49],[150.0009,60.6666],[149.9593,60.6816],[149.6896,60.6146],[149.4624,60.6849],[149.2679,60.6803],[149.234,60.627],[149.082,60.5582],[149.0563,60.505],[148.8644,60.5079],[148.728,60.5972],[148.5145,60.575],[148.4758,60.6353],[148.7032,60.7714],[148.7298,60.8453],[148.4803,60.9878],[148.2788,60.9606],[148.0513,60.8885],[147.7961,60.8801],[147.7128,60.846],[147.6024,60.9211],[147.4471,60.945],[147.5923,61.0444],[147.4821,61.0931],[146.8436,61.0923]]]]},"properties":{"GID_0":"RUS","GID_1":"RUS.40_1","GID_2":"RUS.40.3_1","NAME_1":"Magadan","NAME_2":"Ol'skiyrayon"}},
{"type":"Feature","geometry":{"type":"Polygon","coordinates":[[[153.3171,61.3857],[153.313,61.2444],[153.2798,61.1822],[153.3127,61.0912],[153.4919,61.1051],[153.5672,60.9973],[153.6923,60.9135],[153.9209,60.849],[154.1513,60.9403],[154.2649,60.9555],[154.4438,61.0478],[154.6222,60.9634],[154.6682,60.909],[155.0542,61.0659],[155.1992,61.1388],[155.2102,61.2286],[155.3702,61.2715],[155.4904,61.2056],[155.7308,61.1529],[155.9901,60.9826],[155.7953,60.8612],[155.749,60.675],[155.9047,60.7703],[155.9234,60.8724],[156.1089,61.0161],[156.3526,61.137],[156.5604,61.2104],[156.6599,61.2068],[156.6214,61.3703],[156.688,61.5266],[156.8333,61.5187],[156.962,61.5672],[157.0318,61.6474],[157.221,61.6834],[156.8885,61.7922],[156.9417,61.873],[156.7743,61.9595],[156.8416,62.089],[157.0125,62.1737],[157.2507,62.3277],[157.3617,62.3265],[157.4173,62.3962],[157.3243,62.4655],[157.3114,62.5489],[157.431,62.7057],[157.6737,62.8354],[157.5025,62.8673],[157.6779,62.9432],[157.5913,63.0559],[157.6495,63.2312],[157.7634,63.3076],[157.9323,63.37],[157.9975,63.4567],[158.2898,63.4461],[158.3639,63.5388],[158.5635,63.5931],[158.6027,63.677],[158.521,63.7533],[158.6324,63.8328],[158.4374,63.8867],[158.3111,63.8815],[158.1903,63.9711],[158.2522,64.0846],[158.3065,64.3315],[158.4293,64.5146],[158.2767,64.5912],[158.327,64.6517],[158.2338,64.6979],[158.2546,64.7899],[158.1129,64.8839],[158.1694,64.9427],[158.187,64.9638],[157.8282,64.9451],[157.6159,64.821],[157.4283,64.7953],[157.3025,64.905],[157.0533,64.9094],[156.9763,64.9809],[156.7026,64.9735],[156.8345,64.8655],[156.6763,64.7821],[156.8985,64.7294],[157.0945,64.5976],[157.0522,64.4681],[156.9088,64.4256],[156.8368,64.3542],[156.6337,64.2892],[156.4782,64.1514],[156.3462,64.2179],[156.0829,64.232],[155.8279,64.0973],[155.7041,64.0876],[155.1673,63.8735],[155.1292,63.6538],[154.9509,63.6085],[154.9747,63.459],[155.1035,63.4203],[155.1283,63.3269],[155.2939,63.3161],[155.2693,63.1619],[155.0632,63.045],[155.0892,62.9537],[154.9895,62.8697],[154.7407,62.8145],[154.6746,62.7392],[154.4835,62.7088],[154.3948,62.5916],[154.3837,62.4184],[154.5143,62.3409],[154.6188,62.2104],[154.509,62.202],[154.3212,62.0727],[154.1626,62.0609],[153.9905,62.1215],[153.6747,62.0141],[153.5098,62.0301],[153.4012,61.994],[153.4927,61.9159],[153.424,61.8413],[153.2025,61.6935],[153.1259,61.6108],[153.1394,61.5397],[153.3171,61.3857]]]},"properties":{"GID_0":"RUS","GID_1":"RUS.40_1","GID_2":"RUS.40.4_1","NAME_1":"Magadan","NAME_2":"Omsukchanskiyrayon"}},
{"type":"Feature","geometry":{"type":"Polygon","coordinates":[[[159.9833,61.1292],[159.9318,61.0193],[159.8359,60.9766],[159.8938,60.9146],[160.1375,61.0292],[160.4422,61.0328],[160.3484,60.9172],[160.2401,60.8786],[160.2599,60.7776],[160.1563,60.6625],[160.2807,60.6068],[160.4026,60.7047],[160.8292,60.7646],[160.8651,60.8474],[161.013,60.937],[161.1807,60.9922],[161.2458,61.0479],[161.4453,61.1193],[161.4776,61.1974],[161.9854,61.3729],[162.2287,61.5172],[162.4762,61.6956],[162.2839,61.8842],[162.4165,61.9047],[162.5486,61.9792],[162.4988,62.0487],[162.2706,62.0712],[162.2221,62.1449],[162.5314,62.1914],[162.7541,62.2612],[162.8009,62.4385],[162.6828,62.5482],[162.8298,62.6451],[162.5955,62.6925],[162.6715,62.7423],[162.4432,62.8432],[162.2976,62.8602],[162.3582,63.0535],[162.4255,63.0913],[162.6104,63.0863],[162.8257,63.1736],[162.7483,63.235],[162.797,63.2842],[162.7478,63.3677],[162.9022,63.3917],[163.0709,63.4994],[163.0605,63.5774],[162.7886,63.7247],[162.9705,63.8618],[162.9564,63.9869],[162.8419,64.0702],[162.9874,64.1571],[163.2079,64.1701],[163.2514,64.2566],[163.5104,64.3388],[163.419,64.4617],[163.2412,64.5419],[163.2343,64.6692],[162.7915,64.6612],[162.5819,64.7549],[162.1087,64.7897],[161.9075,64.8499],[161.686,65.0433],[161.534,65.0546],[161.3069,65.124],[161.0819,65.1518],[160.6401,65.1753],[160.2253,65.381],[160.1321,65.5],[159.8512,65.5252],[159.7687,65.5783],[159.3952,65.6245],[158.9198,65.5133],[158.8162,65.4056],[158.9179,65.3531],[158.9592,65.2315],[158.812,65.2048],[158.451,65.2024],[158.3021,65.1057],[158.2153,64.9968],[158.1694,64.9427],[158.1129,64.8839],[158.2546,64.7899],[158.2338,64.6979],[158.327,64.6517],[158.2767,64.5912],[158.4293,64.5146],[158.3065,64.3315],[158.2522,64.0846],[158.1903,63.9711],[158.3111,63.8815],[158.4374,63.8867],[158.6324,63.8328],[158.521,63.7533],[158.6027,63.677],[158.5635,63.5931],[158.3639,63.5388],[158.2898,63.4461],[157.9975,63.4567],[157.9323,63.37],[157.7634,63.3076],[157.6495,63.2312],[157.5913,63.0559],[157.6779,62.9432],[157.5025,62.8673],[157.6737,62.8354],[157.431,62.7057],[157.3114,62.5489],[157.3243,62.4655],[157.4173,62.3962],[157.3617,62.3265],[157.2507,62.3277],[157.0125,62.1737],[156.8416,62.089],[156.7743,61.9595],[156.9417,61.873],[156.8885,61.7922],[157.221,61.6834],[157.4979,61.7896],[157.8208,61.7813],[158.0729,61.7333],[158.2937,61.8271],[158.5182,61.7984],[159.0437,61.9167],[159.2021,61.9188],[159.4057,61.8703],[159.5245,61.7964],[159.5109,61.712],[159.6,61.6646],[159.7193,61.7089],[159.875,61.7042],[160.0318,61.8453],[160.3641,61.937],[160.412,61.7609],[160.2245,61.5193],[160.1109,61.5016],[160.0354,61.3792],[159.912,61.2578],[159.9833,61.1292]]]},"properties":{"GID_0":"RUS","GID_1":"RUS.40_1","GID_2":"RUS.40.5_1","NAME_1":"Magadan","NAME_2":"Severo-Evenskiyrayon"}},
{"type":"Feature","geometry":{"type":"Polygon","coordinates":[[[159.3952,65.6245],[159.1305,65.6744],[158.9682,65.7502],[158.9783,65.9901],[159.244,66.2025],[158.9713,66.2086],[158.5754,66.3175],[158.4587,66.2243],[158.6169,66.0996],[158.3557,66.0725],[158.1465,66.1413],[157.7247,66.0887],[157.4639,65.9627],[157.4411,65.8991],[157.1351,65.9057],[156.9491,65.9662],[157.0154,66.0362],[156.7647,66.1027],[156.6868,66.1904],[156.5256,66.0689],[156.0902,66.0577],[155.9579,66.1011],[155.9059,66.1692],[155.7338,66.1242],[155.5192,66.1512],[155.2961,66.1371],[155.1226,66.1752],[155.0537,66.1231],[154.6178,66.2035],[154.458,66.1173],[154.2838,66.0728],[154.4414,65.9803],[154.4319,65.9064],[154.2506,65.794],[154.1221,65.7914],[154.088,65.8742],[153.7748,65.8682],[153.5508,65.8159],[153.5215,65.7288],[153.6021,65.6967],[153.5866,65.6025],[153.4062,65.4688],[153.5208,65.426],[153.4182,65.3292],[153.2398,65.2647],[152.9917,65.2749],[152.7608,65.2311],[152.634,65.1364],[152.6222,65.0277],[152.4938,64.9973],[152.6236,64.7777],[152.7783,64.7433],[152.751,64.6681],[152.5517,64.6182],[152.5038,64.565],[152.2892,64.5013],[152.4015,64.4254],[152.356,64.3765],[152.1098,64.35],[152.0991,64.4301],[151.9092,64.4664],[151.5938,64.4221],[151.5356,64.3498],[151.4099,64.3057],[151.5044,64.1621],[151.684,64.1438],[151.5235,64.0093],[151.5229,63.9295],[151.6775,63.8727],[151.5538,63.7399],[151.5496,63.6732],[151.2008,63.7267],[150.9738,63.6136],[151.0966,63.5291],[150.852,63.4683],[150.8481,63.3299],[151.0685,63.182],[151.2712,63.1298],[151.4743,62.8511],[151.5426,62.7102],[151.7729,62.6835],[151.8463,62.6291],[152.0105,62.5957],[152.1769,62.4045],[152.047,62.2343],[152.218,62.1239],[152.1994,62.0679],[152.3991,61.9507],[152.4645,61.943],[152.7738,62.0428],[153.0042,62.0676],[153.2213,62.0001],[153.4012,61.994],[153.5098,62.0301],[153.6747,62.0141],[153.9905,62.1215],[154.1626,62.0609],[154.3212,62.0727],[154.509,62.202],[154.6188,62.2104],[154.5143,62.3409],[154.3837,62.4184],[154.3948,62.5916],[154.4835,62.7088],[154.6746,62.7392],[154.7407,62.8145],[154.9895,62.8697],[155.0892,62.9537],[155.0632,63.045],[155.2693,63.1619],[155.2939,63.3161],[155.1283,63.3269],[155.1035,63.4203],[154.9747,63.459],[154.9509,63.6085],[155.1292,63.6538],[155.1673,63.8735],[155.7041,64.0876],[155.8279,64.0973],[156.0829,64.232],[156.3462,64.2179],[156.4782,64.1514],[156.6337,64.2892],[156.8368,64.3542],[156.9088,64.4256],[157.0522,64.4681],[157.0945,64.5976],[156.8985,64.7294],[156.6763,64.7821],[156.8345,64.8655],[156.7026,64.9735],[156.9763,64.9809],[157.0533,64.9094],[157.3025,64.905],[157.4283,64.7953],[157.6159,64.821],[157.8282,64.9451],[158.187,64.9638],[158.2153,64.9968],[158.3021,65.1057],[158.451,65.2024],[158.812,65.2048],[158.9592,65.2315],[158.9179,65.3531],[158.8162,65.4056],[158.9198,65.5133],[159.3952,65.6245]]]},"properties":{"GID_0":"RUS","GID_1":"RUS.40_1","GID_2":"RUS.40.6_1","NAME_1":"Magadan","NAME_2":"Srednekanskiyrayon"}},
{"type":"Feature","geometry":{"type":"Polygon","coordinates":[[[146.16,61.9293],[146.2949,61.9859],[146.2244,62.0369],[146.3487,62.2461],[146.6138,62.3723],[146.8163,62.4141],[147.0411,62.3909],[147.0586,62.4861],[147.2392,62.4763],[147.3209,62.4376],[147.4089,62.2986],[147.6505,62.3133],[147.7968,62.2721],[147.9238,62.2986],[147.9522,62.401],[148.1597,62.4324],[148.2684,62.3319],[148.3757,62.3697],[148.7261,62.3867],[148.8361,62.5527],[148.7552,62.655],[148.5548,62.7118],[148.5027,62.7626],[148.476,62.9995],[148.586,63.0745],[148.5095,63.1421],[148.4834,63.2604],[148.1944,63.4094],[148.1909,63.4681],[148.2902,63.5399],[148.5501,63.5722],[148.6968,63.5111],[148.9662,63.5184],[149.0386,63.4568],[149.3224,63.3894],[149.51,63.3684],[149.8122,63.4266],[149.7226,63.4926],[149.8543,63.5434],[149.8917,63.6205],[150.1999,63.6031],[150.3515,63.6484],[150.4948,63.5829],[150.52,63.4828],[150.7411,63.4001],[150.8481,63.3299],[150.852,63.4683],[151.0966,63.5291],[150.9738,63.6136],[151.2008,63.7267],[151.5496,63.6732],[151.5538,63.7399],[151.6775,63.8727],[151.5229,63.9295],[151.5235,64.0093],[151.684,64.1438],[151.5044,64.1621],[151.4099,64.3057],[151.2993,64.3679],[151.1941,64.3318],[150.8812,64.3117],[150.6642,64.335],[150.6064,64.2947],[150.6194,64.1569],[150.1765,64.2428],[150.0224,64.2995],[149.9976,64.3922],[150.1034,64.4666],[149.8048,64.5534],[149.4808,64.4145],[149.3149,64.3762],[149.0697,64.4332],[148.7646,64.4492],[148.6504,64.415],[148.502,64.4484],[148.3689,64.5286],[148.1633,64.4287],[148.0489,64.403],[148.0856,64.3233],[148.3009,64.2037],[148.029,63.9971],[148.0414,63.9361],[147.8033,63.971],[147.6348,64.0294],[147.6449,64.1411],[147.3364,64.0439],[147.2248,64.0471],[146.8899,64.1598],[146.5828,64.1388],[146.3567,64.1539],[146.2581,63.9986],[146.1374,63.925],[145.8615,63.8623],[145.654,63.8357],[145.6727,63.6731],[145.6029,63.5684],[145.4528,63.4772],[145.4733,63.4251],[145.4006,63.2943],[145.2307,63.1603],[145.3214,63.1042],[145.2546,63.0224],[145.4492,62.9508],[145.4667,62.8285],[145.3807,62.7665],[145.4788,62.6991],[145.4144,62.5926],[145.1889,62.4803],[145.2501,62.433],[145.1708,62.3587],[145.1957,62.281],[145.0381,62.1745],[144.7769,62.1019],[144.7892,62.0412],[145.0381,62.0552],[145.1157,61.996],[145.2672,61.9645],[145.4214,61.9927],[145.4917,61.9196],[145.8314,62.0048],[145.9765,61.9931],[146.16,61.9293]]]},"properties":{"GID_0":"RUS","GID_1":"RUS.40_1","GID_2":"RUS.40.7_1","NAME_1":"Magadan","NAME_2":"Susumanskiyrayon"}},
{"type":"Feature","geometry":{"type":"Polygon","coordinates":[[[146.8436,61.0923],[147.4821,61.0931],[147.5923,61.0444],[147.4471,60.945],[147.6024,60.9211],[147.7128,60.846],[147.7961,60.8801],[148.0513,60.8885],[148.2788,60.9606],[148.4803,60.9878],[148.7298,60.8453],[148.7032,60.7714],[148.4758,60.6353],[148.5145,60.575],[148.728,60.5972],[148.8644,60.5079],[149.0563,60.505],[149.082,60.5582],[149.234,60.627],[149.2679,60.6803],[149.4624,60.6849],[149.6896,60.6146],[149.9593,60.6816],[150.0009,60.6666],[150.003,60.49],[150.0724,60.4586],[150.2629,60.4853],[150.3967,60.4264],[150.4781,60.4518],[150.673,60.4222],[150.8484,60.4987],[151.1211,60.5395],[151.1626,60.5788],[151.1051,60.7065],[150.9366,60.7557],[151.0447,60.8328],[150.9368,60.9048],[150.9669,61.0133],[150.8937,61.3187],[150.7512,61.4369],[150.5551,61.3821],[150.5522,61.2653],[150.392,61.3418],[150.2012,61.3755],[150.242,61.5125],[150.1942,61.6328],[150.0184,61.7323],[149.9687,61.8167],[149.8333,61.8398],[149.6989,61.8093],[149.2513,62.0198],[149.1942,62.0795],[149.1181,62.3605],[148.9203,62.3206],[148.7261,62.3867],[148.3757,62.3697],[148.2684,62.3319],[148.1597,62.4324],[147.9522,62.401],[147.9238,62.2986],[147.7968,62.2721],[147.6505,62.3133],[147.4089,62.2986],[147.3209,62.4376],[147.2392,62.4763],[147.0586,62.4861],[147.0411,62.3909],[146.8163,62.4141],[146.6138,62.3723],[146.3487,62.2461],[146.2244,62.0369],[146.2949,61.9859],[146.16,61.9293],[146.4147,61.8049],[146.5353,61.7199],[146.5312,61.6727],[146.6899,61.5783],[146.6708,61.4607],[146.7805,61.3949],[146.7474,61.3269],[146.851,61.1752],[146.8436,61.0923]]]},"properties":{"GID_0":"RUS","GID_1":"RUS.40_1","GID_2":"RUS.40.8_1","NAME_1":"Magadan","NAME_2":"Ten'kinskiyrayon"}},
{"type":"Feature","geometry":{"type":"Polygon","coordinates":[[[152.1994,62.0679],[152.218,62.1239],[152.047,62.2343],[152.1769,62.4045],[152.0105,62.5957],[151.8463,62.6291],[151.7729,62.6835],[151.5426,62.7102],[151.4743,62.8511],[151.2712,63.1298],[151.0685,63.182],[150.8481,63.3299],[150.7411,63.4001],[150.52,63.4828],[150.4948,63.5829],[150.3515,63.6484],[150.1999,63.6031],[149.8917,63.6205],[149.8543,63.5434],[149.7226,63.4926],[149.8122,63.4266],[149.51,63.3684],[149.3224,63.3894],[149.0386,63.4568],[148.9662,63.5184],[148.6968,63.5111],[148.5501,63.5722],[148.2902,63.5399],[148.1909,63.4681],[148.1944,63.4094],[148.4834,63.2604],[148.5095,63.1421],[148.586,63.0745],[148.476,62.9995],[148.5027,62.7626],[148.5548,62.7118],[148.7552,62.655],[148.8361,62.5527],[148.7261,62.3867],[148.9203,62.3206],[149.1181,62.3605],[149.1942,62.0795],[149.2513,62.0198],[149.6989,61.8093],[149.8333,61.8398],[149.9687,61.8167],[150.0184,61.7323],[150.1942,61.6328],[150.242,61.5125],[150.2012,61.3755],[150.392,61.3418],[150.5522,61.2653],[150.5551,61.3821],[150.7512,61.4369],[150.8733,61.5314],[151.0075,61.5802],[151.2287,61.706],[151.3572,61.722],[151.3926,61.8301],[151.5072,61.9288],[151.824,62.0349],[152.1994,62.0679]]]},"properties":{"GID_0":"RUS","GID_1":"RUS.40_1","GID_2":"RUS.40.9_1","NAME_1":"Magadan","NAME_2":"Yagodninskiyrayon"}}
]}