{"type":"FeatureCollection", "features": [
{"type":"Feature","geometry":{"type":"Polygon","coordinates":[[[72.7915,54.6798],[72.8322,54.4996],[73.0652,54.5066],[73.0026,54.367],[73.1396,54.2967],[73.4332,54.3606],[73.4363,54.3597],[73.2959,54.7466],[73.0125,54.7826],[72.7915,54.6798]]]},"properties":{"GID_0":"RUS","GID_1":"RUS.51_1","GID_2":"RUS.51.1_1","NAME_1":"Omsk","NAME_2":"AzovskiyNemetskiyNatsional'nyy"}},
{"type":"Feature","geometry":{"type":"Polygon","coordinates":[[[74.4484,55.8024],[74.6834,55.9498],[74.7471,56.0182],[74.6626,56.2386],[74.7717,56.3656],[74.6362,56.5988],[74.5607,56.6528],[73.9796,56.5113],[74.0645,56.2658],[73.896,56.1095],[73.7083,56.0895],[73.7957,55.7686],[74.009,55.7086],[74.4484,55.8024]]]},"properties":{"GID_0":"RUS","GID_1":"RUS.51_1","GID_2":"RUS.51.2_1","NAME_1":"Omsk","NAME_2":"Bol'sherechenskiyrayon"}},
{"type":"Feature","geometry":{"type":"Polygon","coordinates":[[[72.3737,56.4534],[72.5473,56.4038],[72.7987,56.4356],[72.8277,56.5756],[73.2156,56.575],[73.3564,56.7158],[73.1147,56.8721],[73.3909,56.9577],[73.1943,57.1369],[73.2353,57.2509],[72.6223,57.2081],[72.4002,57.2882],[71.8314,57.3384],[71.5551,57.3077],[71.0965,57.2553],[71.1464,57.1715],[71.5462,56.9284],[71.6081,56.7413],[71.4978,56.6663],[71.6833,56.4732],[71.9567,56.5243],[72.3737,56.4534]]]},"properties":{"GID_0":"RUS","GID_1":"RUS.51_1","GID_2":"RUS.51.3_1","NAME_1":"Omsk","NAME_2":"Bol'sheukovskiyrayon"}},
{"type":"Feature","geometry":{"type":"Polygon","coordinates":[[[74.9052,53.8138],[75.0168,53.7845],[75.6986,54.1316],[75.6686,54.4332],[75.0409,54.4237],[74.9021,54.4983],[74.7555,54.5022],[74.3383,54.6425],[74.1992,54.6222],[74.1435,54.5374],[74.3486,54.3737],[74.6117,54.3648],[74.6375,54.2271],[74.9634,53.9355],[74.9052,53.8138]]]},"properties":{"GID_0":"RUS","GID_1":"RUS.51_1","GID_2":"RUS.51.4_1","NAME_1":"Omsk","NAME_2":"Cherlakskiyrayon"}},
{"type":"Feature","geometry":{"type":"Polygon","coordinates":[[[74.009,55.7086],[73.544,55.5824],[73.3957,55.4332],[73.417,55.4098],[73.9025,55.3386],[73.8193,55.2003],[74.3605,55.1583],[74.6123,55.2148],[74.6275,55.3009],[74.3999,55.5031],[74.5123,55.6626],[74.4484,55.8024],[74.009,55.7086]]]},"properties":{"GID_0":"RUS","GID_1":"RUS.51_1","GID_2":"RUS.51.5_1","NAME_1":"Omsk","NAME_2":"Gor'kovskiyrayon"}},
{"type":"Feature","geometry":{"type":"Polygon","coordinates":[[[71.2749,54.8953],[71.2747,54.9078],[71.2611,54.9075],[71.2585,54.8934],[71.2749,54.8953]]]},"properties":{"GID_0":"RUS","GID_1":"RUS.51_1","GID_2":"RUS.51.6_1","NAME_1":"Omsk","NAME_2":"Isil'kul'"}},
{"type":"Feature","geometry":{"type":"Polygon","coordinates":[[[71.1986,54.4812],[71.4526,54.4851],[71.5215,54.6435],[71.6873,54.6911],[71.5061,54.8996],[71.5236,55.1405],[71.3752,55.2739],[70.9882,55.2511],[70.9615,55.1198],[70.9995,54.8788],[71.1989,54.5853],[71.1986,54.4812]],[[71.2749,54.8953],[71.2585,54.8934],[71.2611,54.9075],[71.2747,54.9078],[71.2749,54.8953]]]},"properties":{"GID_0":"RUS","GID_1":"RUS.51_1","GID_2":"RUS.51.7_1","NAME_1":"Omsk","NAME_2":"Isil'kul'skiyrayon"}},
{"type":"Feature","geometry":{"type":"Polygon","coordinates":[[[74.6231,55.054],[74.6101,55.065],[74.6021,55.0608],[74.6107,55.0504],[74.6231,55.054]]]},"properties":{"GID_0":"RUS","GID_1":"RUS.51_1","GID_2":"RUS.51.8_1","NAME_1":"Omsk","NAME_2":"Kalachinsk"}},
{"type":"Feature","geometry":{"type":"Polygon","coordinates":[[[75.3029,54.8921],[75.3869,55.0275],[75.1908,55.2686],[75.2025,55.5243],[74.947,55.3832],[75.0607,55.1753],[74.8227,55.1781],[74.6275,55.3009],[74.6123,55.2148],[74.3605,55.1583],[74.2495,55.0503],[74.4212,54.9055],[74.3383,54.6425],[74.7555,54.5022],[74.9021,54.4983],[74.6016,54.6654],[74.6127,54.8059],[74.8264,54.8771],[74.9015,54.9859],[75.3029,54.8921]],[[74.6231,55.054],[74.6107,55.0504],[74.6021,55.0608],[74.6101,55.065],[74.6231,55.054]]]},"properties":{"GID_0":"RUS","GID_1":"RUS.51_1","GID_2":"RUS.51.9_1","NAME_1":"Omsk","NAME_2":"Kalachinskiyrayon"}},
{"type":"Feature","geometry":{"type":"Polygon","coordinates":[[[73.9796,56.5113],[73.5139,56.7867],[73.3564,56.7158],[73.2156,56.575],[72.8277,56.5756],[72.7987,56.4356],[72.9676,56.2889],[73.1621,56.0233],[73.7083,56.0895],[73.896,56.1095],[74.0645,56.2658],[73.9796,56.5113]]]},"properties":{"GID_0":"RUS","GID_1":"RUS.51_1","GID_2":"RUS.51.10_1","NAME_1":"Omsk","NAME_2":"Kolosovskiyrayon"}},
{"type":"Feature","geometry":{"type":"Polygon","coordinates":[[[74.3383,54.6425],[74.4212,54.9055],[74.2495,55.0503],[74.3605,55.1583],[73.8193,55.2003],[73.7458,54.903],[74.1341,54.613],[74.3383,54.6425]]]},"properties":{"GID_0":"RUS","GID_1":"RUS.51_1","GID_2":"RUS.51.11_1","NAME_1":"Omsk","NAME_2":"Kormilovskiyrayon"}},
{"type":"Feature","geometry":{"type":"Polygon","coordinates":[[[71.4978,56.6663],[71.2216,56.6345],[70.9695,56.4249],[71.0163,56.2809],[70.8544,56.2394],[70.9216,56.0307],[70.8456,55.906],[71.1361,55.8215],[71.3044,55.8746],[71.4514,55.7001],[71.5756,55.6661],[71.661,55.662],[71.8148,55.7433],[71.6558,55.9217],[71.9532,56.0225],[72.0798,56.1556],[72.1009,56.3758],[72.3737,56.4534],[71.9567,56.5243],[71.6833,56.4732],[71.4978,56.6663]]]},"properties":{"GID_0":"RUS","GID_1":"RUS.51_1","GID_2":"RUS.51.12_1","NAME_1":"Omsk","NAME_2":"Krutinskiyrayon"}},
{"type":"Feature","geometry":{"type":"Polygon","coordinates":[[[71.9781,55.4306],[71.8806,55.2448],[72.2352,55.1087],[72.3157,54.9918],[72.7679,55.0539],[72.8399,55.0026],[73.1178,55.051],[73.1494,55.3654],[72.7155,55.4875],[72.5054,55.5785],[71.9781,55.4306]]]},"properties":{"GID_0":"RUS","GID_1":"RUS.51_1","GID_2":"RUS.51.13_1","NAME_1":"Omsk","NAME_2":"Lyubinskiyrayon"}},
{"type":"Feature","geometry":{"type":"Polygon","coordinates":[[[73.0125,54.7826],[72.9009,54.8163],[72.8399,55.0026],[72.7679,55.0539],[72.3157,54.9918],[72.212,54.8584],[72.0117,54.7493],[72.1067,54.6472],[72.4275,54.7204],[72.7915,54.6798],[73.0125,54.7826]]]},"properties":{"GID_0":"RUS","GID_1":"RUS.51_1","GID_2":"RUS.51.14_1","NAME_1":"Omsk","NAME_2":"Mar'yanovskiyrayon"}},
{"type":"Feature","geometry":{"type":"Polygon","coordinates":[[[71.6873,54.6911],[71.9747,54.5096],[72.1067,54.6472],[72.0117,54.7493],[72.212,54.8584],[72.3157,54.9918],[72.2352,55.1087],[71.8806,55.2448],[71.5236,55.1405],[71.5061,54.8996],[71.6873,54.6911]]]},"properties":{"GID_0":"RUS","GID_1":"RUS.51_1","GID_2":"RUS.51.15_1","NAME_1":"Omsk","NAME_2":"Moskalenskiyrayon"}},
{"type":"Feature","geometry":{"type":"Polygon","coordinates":[[[76.1696,56.6405],[76.033,56.6632],[74.9694,56.6782],[74.6362,56.5988],[74.7717,56.3656],[74.6626,56.2386],[74.7471,56.0182],[74.7155,55.9843],[74.7642,55.9723],[74.7656,55.9482],[74.8298,55.9272],[74.9106,55.8086],[75.0237,55.8594],[75.3215,55.872],[75.5168,56.0453],[76.2771,56.2163],[76.1046,56.302],[76.0378,56.4723],[76.1696,56.6405]]]},"properties":{"GID_0":"RUS","GID_1":"RUS.51_1","GID_2":"RUS.51.16_1","NAME_1":"Omsk","NAME_2":"Muromtsevskiyrayon"}},
{"type":"Feature","geometry":{"type":"Polygon","coordinates":[[[71.4665,55.5426],[71.4674,55.5554],[71.447,55.5581],[71.4448,55.5434],[71.4665,55.5426]]]},"properties":{"GID_0":"RUS","GID_1":"RUS.51_1","GID_2":"RUS.51.17_1","NAME_1":"Omsk","NAME_2":"Nazyvaevsk"}},
{"type":"Feature","geometry":{"type":"Polygon","coordinates":[[[70.9615,55.1198],[70.9882,55.2511],[71.3752,55.2739],[71.5236,55.1405],[71.8806,55.2448],[71.9781,55.4306],[71.9026,55.572],[71.7299,55.6585],[71.5756,55.6661],[71.4514,55.7001],[71.3044,55.8746],[71.1361,55.8215],[70.8456,55.906],[70.5816,55.8718],[70.7103,55.4741],[70.4839,55.3714],[70.5222,55.2755],[70.8202,55.298],[70.9615,55.1198]],[[71.4665,55.5426],[71.4448,55.5434],[71.447,55.5581],[71.4674,55.5554],[71.4665,55.5426]]]},"properties":{"GID_0":"RUS","GID_1":"RUS.51_1","GID_2":"RUS.51.18_1","NAME_1":"Omsk","NAME_2":"Nazyvaevskiyrayon"}},
{"type":"Feature","geometry":{"type":"Polygon","coordinates":[[[75.3215,55.872],[75.0237,55.8594],[74.9106,55.8086],[74.8298,55.9272],[74.7656,55.9482],[74.7642,55.9723],[74.7155,55.9843],[74.6834,55.9498],[74.4484,55.8024],[74.5123,55.6626],[74.3999,55.5031],[74.6275,55.3009],[74.8227,55.1781],[75.0607,55.1753],[74.947,55.3832],[75.2025,55.5243],[75.0954,55.6777],[75.3341,55.7534],[75.3215,55.872]]]},"properties":{"GID_0":"RUS","GID_1":"RUS.51_1","GID_2":"RUS.51.19_1","NAME_1":"Omsk","NAME_2":"Nizhneomskiyrayon"}},
{"type":"Feature","geometry":{"type":"Polygon","coordinates":[[[74.9052,53.8138],[74.9634,53.9355],[74.6375,54.2271],[74.6117,54.3648],[74.3486,54.3737],[74.3154,54.2688],[74.2887,54.2247],[74.2904,53.9831],[74.4618,53.912],[74.4873,53.6822],[74.9052,53.8138]]]},"properties":{"GID_0":"RUS","GID_1":"RUS.51_1","GID_2":"RUS.51.20_1","NAME_1":"Omsk","NAME_2":"Novovarshavskiyrayon"}},
{"type":"Feature","geometry":{"type":"Polygon","coordinates":[[[72.3404,54.1753],[72.9811,54.0983],[73.061,54.0075],[73.3393,54.0949],[73.1396,54.2967],[73.0026,54.367],[73.0652,54.5066],[72.8322,54.4996],[72.7883,54.3683],[72.5371,54.1908],[72.3404,54.1753]]]},"properties":{"GID_0":"RUS","GID_1":"RUS.51_1","GID_2":"RUS.51.21_1","NAME_1":"Omsk","NAME_2":"Odesskiyrayon"}},
{"type":"Feature","geometry":{"type":"Polygon","coordinates":[[[75.6686,54.4332],[75.7938,54.6669],[75.4925,54.8917],[75.3029,54.8921],[74.9015,54.9859],[74.8264,54.8771],[74.6127,54.8059],[74.6016,54.6654],[74.9021,54.4983],[75.0409,54.4237],[75.6686,54.4332]]]},"properties":{"GID_0":"RUS","GID_1":"RUS.51_1","GID_2":"RUS.51.22_1","NAME_1":"Omsk","NAME_2":"Okoneshnikovskiyrayon"}},
{"type":"Feature","geometry":{"type":"Polygon","coordinates":[[[73.2959,54.7466],[73.5342,54.785],[73.8851,54.5747],[74.1435,54.5374],[74.1992,54.6222],[74.1341,54.613],[73.7458,54.903],[73.8193,55.2003],[73.9025,55.3386],[73.417,55.4098],[73.378,55.4526],[73.1494,55.3654],[73.1178,55.051],[72.8399,55.0026],[72.9009,54.8163],[73.0125,54.7826],[73.2959,54.7466]]]},"properties":{"GID_0":"RUS","GID_1":"RUS.51_1","GID_2":"RUS.51.23_1","NAME_1":"Omsk","NAME_2":"Omskiyrayon"}},
{"type":"Feature","geometry":{"type":"Polygon","coordinates":[[[73.7458,54.0303],[73.86,53.9152],[74.2904,53.9831],[74.2887,54.2247],[74.3026,54.2483],[74.0421,54.2345],[73.8982,54.416],[73.4617,54.3518],[73.4332,54.3606],[73.1396,54.2967],[73.3393,54.0949],[73.061,54.0075],[73.2893,53.9533],[73.7458,54.0303]]]},"properties":{"GID_0":"RUS","GID_1":"RUS.51_1","GID_2":"RUS.51.24_1","NAME_1":"Omsk","NAME_2":"Pavlogradskiyrayon"}},
{"type":"Feature","geometry":{"type":"Polygon","coordinates":[[[72.0978,54.3641],[71.9747,54.5096],[71.6873,54.6911],[71.5215,54.6435],[71.4526,54.4851],[71.1986,54.4812],[71.2031,54.3233],[71.073,54.2161],[71.354,54.1835],[71.5249,54.1086],[71.7466,54.1385],[71.7671,54.2485],[72.0094,54.2262],[72.0978,54.3641]]]},"properties":{"GID_0":"RUS","GID_1":"RUS.51_1","GID_2":"RUS.51.25_1","NAME_1":"Omsk","NAME_2":"Poltavskiyrayon"}},
{"type":"Feature","geometry":{"type":"Polygon","coordinates":[[[73.7458,54.0303],[73.6913,53.8621],[73.4743,53.8829],[73.3475,53.7928],[73.246,53.5753],[73.6494,53.5593],[73.9034,53.6484],[74.4039,53.4611],[74.4873,53.6822],[74.4618,53.912],[74.2904,53.9831],[73.86,53.9152],[73.7458,54.0303]]]},"properties":{"GID_0":"RUS","GID_1":"RUS.51_1","GID_2":"RUS.51.26_1","NAME_1":"Omsk","NAME_2":"Russko-Polyanskiyrayon"}},
{"type":"Feature","geometry":{"type":"Polygon","coordinates":[[[73.7083,56.0895],[73.1621,56.0233],[72.812,55.8749],[72.9208,55.7413],[72.7569,55.6166],[72.7155,55.4875],[73.1494,55.3654],[73.378,55.4526],[73.3957,55.4332],[73.544,55.5824],[74.009,55.7086],[73.7957,55.7686],[73.7083,56.0895]]]},"properties":{"GID_0":"RUS","GID_1":"RUS.51_1","GID_2":"RUS.51.27_1","NAME_1":"Omsk","NAME_2":"Sargatskiyrayon"}},
{"type":"Feature","geometry":{"type":"Polygon","coordinates":[[[76.1696,56.6405],[76.2405,56.9125],[76.1044,57.2295],[75.7886,57.5027],[75.6779,57.3049],[74.9706,57.224],[75.0659,57.1181],[74.7874,57.0103],[74.9309,56.8582],[74.9694,56.6782],[76.033,56.6632],[76.1696,56.6405]]]},"properties":{"GID_0":"RUS","GID_1":"RUS.51_1","GID_2":"RUS.51.28_1","NAME_1":"Omsk","NAME_2":"Sedel'nikovskiyrayon"}},
{"type":"Feature","geometry":{"type":"Polygon","coordinates":[[[72.3404,54.1753],[72.5371,54.1908],[72.7883,54.3683],[72.8322,54.4996],[72.7915,54.6798],[72.4275,54.7204],[72.1067,54.6472],[71.9747,54.5096],[72.0978,54.3641],[72.2633,54.32],[72.3404,54.1753]]]},"properties":{"GID_0":"RUS","GID_1":"RUS.51_1","GID_2":"RUS.51.29_1","NAME_1":"Omsk","NAME_2":"Sherbakul'skiyrayon"}},
{"type":"Feature","geometry":{"type":"Polygon","coordinates":[[[74.3614,56.8883],[74.374,56.8964],[74.3609,56.9044],[74.3439,56.9023],[74.3614,56.8883]]]},"properties":{"GID_0":"RUS","GID_1":"RUS.51_1","GID_2":"RUS.51.30_1","NAME_1":"Omsk","NAME_2":"Tara"}},
{"type":"Feature","geometry":{"type":"Polygon","coordinates":[[[74.6362,56.5988],[74.9694,56.6782],[74.9309,56.8582],[74.7874,57.0103],[75.0659,57.1181],[74.9706,57.224],[75.6779,57.3049],[75.7886,57.5027],[75.589,57.7135],[75.5182,57.9421],[75.0928,58.0872],[75.2337,58.2069],[75.0364,58.3067],[75.3401,58.4386],[75.1606,58.5716],[74.7349,58.3634],[74.15,58.1139],[74.0084,57.8297],[73.738,57.835],[73.7848,57.7005],[73.8927,57.6689],[73.8187,57.3693],[74.1906,56.9422],[73.8702,56.9599],[73.6446,56.9194],[73.5139,56.7867],[73.9796,56.5113],[74.5607,56.6528],[74.6362,56.5988]],[[74.3614,56.8883],[74.3439,56.9023],[74.3609,56.9044],[74.374,56.8964],[74.3614,56.8883]]]},"properties":{"GID_0":"RUS","GID_1":"RUS.51_1","GID_2":"RUS.51.31_1","NAME_1":"Omsk","NAME_2":"Tarskiyrayon"}},
{"type":"Feature","geometry":{"type":"Polygon","coordinates":[[[73.4363,54.3597],[73.4617,54.3518],[73.8982,54.416],[74.0421,54.2345],[74.3026,54.2483],[74.3154,54.2688],[74.3486,54.3737],[74.1435,54.5374],[73.8851,54.5747],[73.5342,54.785],[73.2959,54.7466],[73.4363,54.3597]]]},"properties":{"GID_0":"RUS","GID_1":"RUS.51_1","GID_2":"RUS.51.32_1","NAME_1":"Omsk","NAME_2":"Tavricheskiyrayon"}},
{"type":"Feature","geometry":{"type":"Polygon","coordinates":[[[73.2353,57.2509],[73.2386,57.3898],[73.5566,57.6335],[73.7848,57.7005],[73.738,57.835],[74.0084,57.8297],[74.15,58.1139],[73.1472,58.1344],[72.825,57.9591],[72.5298,58.0001],[72.1709,57.991],[71.8998,58.0841],[71.9865,57.9739],[71.6813,57.7861],[71.5606,57.6235],[71.5551,57.3077],[71.8314,57.3384],[72.4002,57.2882],[72.6223,57.2081],[73.2353,57.2509]]]},"properties":{"GID_0":"RUS","GID_1":"RUS.51_1","GID_2":"RUS.51.33_1","NAME_1":"Omsk","NAME_2":"Tevrizskiyrayon"}},
{"type":"Feature","geometry":{"type":"Polygon","coordinates":[[[72.235,55.878],[72.2367,55.8901],[72.2092,55.8928],[72.2044,55.8721],[72.235,55.878]]]},"properties":{"GID_0":"RUS","GID_1":"RUS.51_1","GID_2":"RUS.51.34_1","NAME_1":"Omsk","NAME_2":"Tyukalinsk"}},
{"type":"Feature","geometry":{"type":"Polygon","coordinates":[[[72.3737,56.4534],[72.1009,56.3758],[72.0798,56.1556],[71.9532,56.0225],[71.6558,55.9217],[71.8148,55.7433],[71.661,55.662],[71.7299,55.6585],[71.9026,55.572],[71.9781,55.4306],[72.5054,55.5785],[72.7155,55.4875],[72.7569,55.6166],[72.9208,55.7413],[72.812,55.8749],[73.1621,56.0233],[72.9676,56.2889],[72.7987,56.4356],[72.5473,56.4038],[72.3737,56.4534]],[[72.235,55.878],[72.2044,55.8721],[72.2092,55.8928],[72.2367,55.8901],[72.235,55.878]]]},"properties":{"GID_0":"RUS","GID_1":"RUS.51_1","GID_2":"RUS.51.35_1","NAME_1":"Omsk","NAME_2":"Tyukalinskiyrayon"}},
{"type":"Feature","geometry":{"type":"Polygon","coordinates":[[[71.5551,57.3077],[71.5606,57.6235],[71.6813,57.7861],[71.9865,57.9739],[71.8998,58.0841],[71.3031,58.0235],[71.2403,58.2136],[71.2908,58.3658],[70.8734,58.5213],[70.5483,58.042],[70.4947,57.7418],[70.7104,57.4932],[70.4251,57.369],[70.6591,57.2041],[70.8174,57.3111],[71.0965,57.2553],[71.5551,57.3077]]]},"properties":{"GID_0":"RUS","GID_1":"RUS.51_1","GID_2":"RUS.51.36_1","NAME_1":"Omsk","NAME_2":"Ust'-Ishimskiyrayon"}},
{"type":"Feature","geometry":{"type":"Polygon","coordinates":[[[73.3564,56.7158],[73.5139,56.7867],[73.6446,56.9194],[73.8702,56.9599],[74.1906,56.9422],[73.8187,57.3693],[73.8927,57.6689],[73.7848,57.7005],[73.5566,57.6335],[73.2386,57.3898],[73.2353,57.2509],[73.1943,57.1369],[73.3909,56.9577],[73.1147,56.8721],[73.3564,56.7158]]]},"properties":{"GID_0":"RUS","GID_1":"RUS.51_1","GID_2":"RUS.51.37_1","NAME_1":"Omsk","NAME_2":"Znamenskiyrayon"}}
]}