{"type":"FeatureCollection", "features": [
{"type":"Feature","geometry":{"type":"Polygon","coordinates":[[[47.7176,41.9656],[47.606,41.8294],[47.5163,41.9046],[47.4256,41.8905],[47.368,41.8129],[47.4846,41.6501],[47.6393,41.6395],[47.7831,41.6637],[47.7915,41.695],[47.8449,41.7641],[47.7997,41.8776],[47.8179,41.9368],[47.7176,41.9656]]]},"properties":{"GID_0":"RUS","GID_1":"RUS.15_1","GID_2":"RUS.15.1_1","NAME_1":"Dagestan","NAME_2":"Agul'skiyrayon"}},
{"type":"Feature","geometry":{"type":"Polygon","coordinates":[[[48.0012,41.402],[47.9036,41.4395],[47.8526,41.4598],[47.8454,41.4681],[47.6251,41.5713],[47.5537,41.5684],[47.5029,41.4641],[47.3761,41.4512],[47.2531,41.3915],[47.2624,41.3247],[47.5359,41.2072],[47.6137,41.2364],[47.7199,41.1974],[47.8788,41.2192],[47.9409,41.3599],[48.0012,41.402]]]},"properties":{"GID_0":"RUS","GID_1":"RUS.15_1","GID_2":"RUS.15.2_1","NAME_1":"Dagestan","NAME_2":"Akhtynskiyrayon"}},
{"type":"Feature","geometry":{"type":"Polygon","coordinates":[[[46.2521,42.5613],[46.3141,42.5196],[46.3444,42.4805],[46.3812,42.4627],[46.395,42.4662],[46.5176,42.5273],[46.4796,42.6053],[46.3843,42.6219],[46.2521,42.5613]]]},"properties":{"GID_0":"RUS","GID_1":"RUS.15_1","GID_2":"RUS.15.3_1","NAME_1":"Dagestan","NAME_2":"Akhvakhskiyrayon"}},
{"type":"Feature","geometry":{"type":"Polygon","coordinates":[[[47.5656,42.2633],[47.5615,42.3623],[47.4242,42.3717],[47.3375,42.3351],[47.2063,42.3639],[47.1821,42.3045],[47.1747,42.2801],[47.1966,42.2448],[47.2262,42.1916],[47.2543,42.1613],[47.3939,42.0783],[47.4385,42.0378],[47.4449,41.9238],[47.4535,41.9344],[47.5369,41.995],[47.5563,42.1124],[47.5114,42.1816],[47.5656,42.2633]]]},"properties":{"GID_0":"RUS","GID_1":"RUS.15_1","GID_2":"RUS.15.4_1","NAME_1":"Dagestan","NAME_2":"Akushinskiyrayon"}},
{"type":"Feature","geometry":{"type":"Polygon","coordinates":[[[47.4624,43.6668],[47.3213,43.7822],[47.0569,43.8019],[46.9649,43.7277],[46.8562,43.7463],[46.7626,43.7038],[46.5956,43.7057],[46.4606,43.5412],[46.7462,43.4629],[47.011,43.4605],[47.0134,43.4099],[47.0095,43.3906],[47.1236,43.3644],[47.4593,43.3162],[47.4955,43.3383],[47.4748,43.3883],[47.581,43.6292],[47.7218,43.8583],[47.6275,43.8908],[47.5252,43.7037],[47.4734,43.5126],[47.4205,43.5295],[47.4624,43.6668]]]},"properties":{"GID_0":"RUS","GID_1":"RUS.15_1","GID_2":"RUS.15.5_1","NAME_1":"Dagestan","NAME_2":"Babayurtovskiyrayon"}},
{"type":"Feature","geometry":{"type":"Polygon","coordinates":[[[46.4045,42.8471],[46.2486,42.8652],[46.1453,42.8021],[46.2334,42.7128],[46.0719,42.6856],[46.0422,42.6291],[46.1328,42.5769],[46.2521,42.5613],[46.3843,42.6219],[46.4796,42.6053],[46.5292,42.6508],[46.5398,42.6524],[46.4997,42.6575],[46.4482,42.6707],[46.4238,42.6666],[46.3704,42.6839],[46.3331,42.8076],[46.4045,42.8471]]]},"properties":{"GID_0":"RUS","GID_1":"RUS.15_1","GID_2":"RUS.15.6_1","NAME_1":"Dagestan","NAME_2":"Botlikhskiyrayon"}},
{"type":"Feature","geometry":{"type":"Polygon","coordinates":[[[47.1364,42.7906],[47.1093,42.8222],[47.0667,42.8013],[47.0992,42.7881],[47.1364,42.7906]]]},"properties":{"GID_0":"RUS","GID_1":"RUS.15_1","GID_2":"RUS.15.7_1","NAME_1":"Dagestan","NAME_2":"Buynaksk"}},
{"type":"Feature","geometry":{"type":"Polygon","coordinates":[[[47.0707,42.6065],[47.3276,42.6285],[47.2887,42.8149],[47.4666,42.8962],[47.455,42.9063],[47.3425,43.0467],[47.3463,43.0517],[47.2281,43.1219],[47.1805,43.0661],[47.0647,43.1238],[46.8487,43.1015],[46.8852,43.0639],[46.6977,42.8582],[46.8698,42.8686],[46.8661,42.7809],[47.0776,42.6168],[47.0707,42.6065]],[[47.1364,42.7906],[47.0992,42.7881],[47.0667,42.8013],[47.1093,42.8222],[47.1364,42.7906]]]},"properties":{"GID_0":"RUS","GID_1":"RUS.15_1","GID_2":"RUS.15.8_1","NAME_1":"Dagestan","NAME_2":"Buynakskiyrayon"}},
{"type":"Feature","geometry":{"type":"Polygon","coordinates":[[[46.936,42.1964],[46.798,42.3645],[46.6412,42.2874],[46.5772,42.2025],[46.6417,41.9644],[46.733,41.9655],[46.7571,41.8871],[46.822,41.9338],[46.9669,41.9418],[46.936,42.1964]]]},"properties":{"GID_0":"RUS","GID_1":"RUS.15_1","GID_2":"RUS.15.9_1","NAME_1":"Dagestan","NAME_2":"Charodinskiyrayon"}},
{"type":"Feature","geometry":{"type":"Polygon","coordinates":[[[48.1972,42.0885],[48.198,42.0972],[48.1908,42.1008],[48.1845,42.0902],[48.1972,42.0885]]]},"properties":{"GID_0":"RUS","GID_1":"RUS.15_1","GID_2":"RUS.15.10_1","NAME_1":"Dagestan","NAME_2":"DagestanskieOg"}},
{"type":"Feature","geometry":{"type":"Polygon","coordinates":[[[47.7176,41.9656],[47.747,42.2318],[47.5656,42.2633],[47.5114,42.1816],[47.5563,42.1124],[47.5369,41.995],[47.4535,41.9344],[47.4449,41.9238],[47.4256,41.8905],[47.5163,41.9046],[47.606,41.8294],[47.7176,41.9656]]]},"properties":{"GID_0":"RUS","GID_1":"RUS.15_1","GID_2":"RUS.15.11_1","NAME_1":"Dagestan","NAME_2":"Dakhadayevskiyrayon"}},
{"type":"Feature","geometry":{"type":"Polygon","coordinates":[[[48.3623,41.9082],[48.2663,42.0756],[48.2037,42.039],[48.3623,41.9082]]]},"properties":{"GID_0":"RUS","GID_1":"RUS.15_1","GID_2":"RUS.15.12_1","NAME_1":"Dagestan","NAME_2":"Derbent"}},
{"type":"Feature","geometry":{"type":"Polygon","coordinates":[[[48.0722,42.3392],[47.9742,42.2791],[47.9426,42.2528],[47.9161,42.2463],[47.938,42.2088],[47.9686,42.1225],[47.9395,42.0645],[47.9418,42.0477],[48.0695,42.0087],[48.2234,41.9075],[48.1892,41.8402],[48.3128,41.7968],[48.3764,41.7703],[48.4463,41.8953],[48.372,41.911],[48.2224,42.1519],[48.0722,42.3392]],[[48.1972,42.0885],[48.1845,42.0902],[48.1908,42.1008],[48.198,42.0972],[48.1972,42.0885]],[[48.3623,41.9082],[48.2037,42.039],[48.2663,42.0756],[48.3623,41.9082]]]},"properties":{"GID_0":"RUS","GID_1":"RUS.15_1","GID_2":"RUS.15.13_1","NAME_1":"Dagestan","NAME_2":"Derbentskiyrayon"}},
{"type":"Feature","geometry":{"type":"Polygon","coordinates":[[[47.0776,42.6168],[46.8989,42.5645],[46.886,42.5695],[46.9201,42.5421],[46.9266,42.5137],[46.9825,42.4269],[47.0897,42.4332],[47.1919,42.5093],[47.0595,42.5937],[47.0776,42.6168]]]},"properties":{"GID_0":"RUS","GID_1":"RUS.15_1","GID_2":"RUS.15.14_1","NAME_1":"Dagestan","NAME_2":"Gergebil'skiyrayon"}},
{"type":"Feature","geometry":{"type":"Polygon","coordinates":[[[46.4045,42.8471],[46.3331,42.8076],[46.3704,42.6839],[46.4238,42.6666],[46.4482,42.6707],[46.4997,42.6575],[46.5398,42.6524],[46.5588,42.6567],[46.6439,42.6438],[46.6487,42.7098],[46.7757,42.7563],[46.8698,42.8686],[46.6977,42.8582],[46.5293,42.8949],[46.4045,42.8471]]]},"properties":{"GID_0":"RUS","GID_1":"RUS.15_1","GID_2":"RUS.15.15_1","NAME_1":"Dagestan","NAME_2":"Gumbetovskiyrayon"}},
{"type":"Feature","geometry":{"type":"Polygon","coordinates":[[[46.936,42.1964],[47.0842,42.3527],[47.0897,42.4332],[46.9825,42.4269],[46.9266,42.5137],[46.7762,42.4893],[46.7724,42.4743],[46.798,42.3645],[46.936,42.1964]]]},"properties":{"GID_0":"RUS","GID_1":"RUS.15_1","GID_2":"RUS.15.16_1","NAME_1":"Dagestan","NAME_2":"Gunibskiyrayon"}},
{"type":"Feature","geometry":{"type":"Polygon","coordinates":[[[47.875,42.506],[47.8491,42.5312],[47.8062,42.5518],[47.8059,42.5223],[47.8507,42.5034],[47.875,42.506]]]},"properties":{"GID_0":"RUS","GID_1":"RUS.15_1","GID_2":"RUS.15.17_1","NAME_1":"Dagestan","NAME_2":"Izberbash"}},
{"type":"Feature","geometry":{"type":"Polygon","coordinates":[[[47.5742,42.9561],[47.4831,42.8893],[47.4666,42.8962],[47.2887,42.8149],[47.3276,42.6285],[47.3491,42.5397],[47.4896,42.4426],[47.5438,42.4959],[47.7473,42.5199],[47.756,42.5138],[47.82,42.5865],[47.7155,42.6837],[47.707,42.8789],[47.5742,42.9561]],[[47.641,42.892],[47.6054,42.8343],[47.5298,42.8733],[47.5934,42.9356],[47.641,42.892]]]},"properties":{"GID_0":"RUS","GID_1":"RUS.15_1","GID_2":"RUS.15.18_1","NAME_1":"Dagestan","NAME_2":"Karabudokhkentskiyrayon"}},
{"type":"Feature","geometry":{"type":"Polygon","coordinates":[[[47.641,42.892],[47.5934,42.9356],[47.5298,42.8733],[47.6054,42.8343],[47.641,42.892]]]},"properties":{"GID_0":"RUS","GID_1":"RUS.15_1","GID_2":"RUS.15.19_1","NAME_1":"Dagestan","NAME_2":"Kaspiysk"}},
{"type":"Feature","geometry":{"type":"Polygon","coordinates":[[[47.82,42.5865],[47.756,42.5138],[47.7864,42.4882],[47.7099,42.357],[47.7852,42.298],[47.747,42.2318],[47.8863,42.2385],[47.9426,42.2528],[47.9742,42.2791],[48.0722,42.3392],[47.8921,42.4847],[47.82,42.5865]],[[47.875,42.506],[47.8507,42.5034],[47.8059,42.5223],[47.8062,42.5518],[47.8491,42.5312],[47.875,42.506]]]},"properties":{"GID_0":"RUS","GID_1":"RUS.15_1","GID_2":"RUS.15.20_1","NAME_1":"Dagestan","NAME_2":"Kayakentskiyrayon"}},
{"type":"Feature","geometry":{"type":"Polygon","coordinates":[[[47.8179,41.9368],[47.9076,41.9577],[47.9432,42.0331],[47.9395,42.0645],[47.9686,42.1225],[47.938,42.2088],[47.9161,42.2463],[47.8863,42.2385],[47.747,42.2318],[47.7176,41.9656],[47.8179,41.9368]]]},"properties":{"GID_0":"RUS","GID_1":"RUS.15_1","GID_2":"RUS.15.21_1","NAME_1":"Dagestan","NAME_2":"Kaytagskiyrayon"}},
{"type":"Feature","geometry":{"type":"Polygon","coordinates":[[[46.5293,42.8949],[46.6977,42.8582],[46.8852,43.0639],[46.8487,43.1015],[46.7369,43.1343],[46.6354,43.1232],[46.5157,43.0481],[46.5293,42.8949]]]},"properties":{"GID_0":"RUS","GID_1":"RUS.15_1","GID_2":"RUS.15.22_1","NAME_1":"Dagestan","NAME_2":"Kazbekovskiyrayon"}},
{"type":"Feature","geometry":{"type":"Polygon","coordinates":[[[46.4625,43.254],[46.5939,43.2142],[46.6354,43.1232],[46.7369,43.1343],[46.8066,43.1669],[46.8372,43.2634],[47.0134,43.4099],[47.011,43.4605],[46.7462,43.4629],[46.4606,43.5412],[46.3672,43.4171],[46.4625,43.254]]]},"properties":{"GID_0":"RUS","GID_1":"RUS.15_1","GID_2":"RUS.15.23_1","NAME_1":"Dagestan","NAME_2":"Khasavyurtovskiyrayon"}},
{"type":"Feature","geometry":{"type":"Polygon","coordinates":[[[47.788,41.6786],[47.8677,41.6642],[47.8937,41.6457],[48.101,41.7143],[48.1191,41.7597],[47.9792,41.8422],[47.7997,41.8776],[47.8449,41.7641],[47.7915,41.695],[47.788,41.6786]]]},"properties":{"GID_0":"RUS","GID_1":"RUS.15_1","GID_2":"RUS.15.24_1","NAME_1":"Dagestan","NAME_2":"Khivskiyrayon"}},
{"type":"Feature","geometry":{"type":"Polygon","coordinates":[[[46.5176,42.5273],[46.7676,42.4619],[46.7762,42.4893],[46.9266,42.5137],[46.9201,42.5421],[46.886,42.5695],[46.8475,42.5834],[46.6708,42.6387],[46.6439,42.6438],[46.5588,42.6567],[46.5292,42.6508],[46.4796,42.6053],[46.5176,42.5273]]]},"properties":{"GID_0":"RUS","GID_1":"RUS.15_1","GID_2":"RUS.15.25_1","NAME_1":"Dagestan","NAME_2":"Khunzakhskiyrayon"}},
{"type":"Feature","geometry":{"type":"Polygon","coordinates":[[[46.8914,43.2847],[46.8481,43.2336],[46.8866,43.1859],[46.9755,43.2701],[46.8914,43.2847]]]},"properties":{"GID_0":"RUS","GID_1":"RUS.15_1","GID_2":"RUS.15.26_1","NAME_1":"Dagestan","NAME_2":"Kizilyurt"}},
{"type":"Feature","geometry":{"type":"Polygon","coordinates":[[[47.4955,43.3383],[47.4593,43.3162],[47.1236,43.3644],[47.0095,43.3906],[47.0134,43.4099],[46.8372,43.2634],[46.8066,43.1669],[46.7369,43.1343],[46.8487,43.1015],[47.0647,43.1238],[47.1805,43.0661],[47.2281,43.1219],[47.3463,43.0517],[47.354,43.0618],[47.458,43.082],[47.5256,43.2684],[47.4955,43.3383]],[[46.8914,43.2847],[46.9755,43.2701],[46.8866,43.1859],[46.8481,43.2336],[46.8914,43.2847]]]},"properties":{"GID_0":"RUS","GID_1":"RUS.15_1","GID_2":"RUS.15.27_1","NAME_1":"Dagestan","NAME_2":"Kizilyurtovskiy/Dokuzparinskiyr"}},
{"type":"Feature","geometry":{"type":"Polygon","coordinates":[[[46.7652,43.8353],[46.6377,43.8622],[46.6501,43.7966],[46.7652,43.8353]]]},"properties":{"GID_0":"RUS","GID_1":"RUS.15_1","GID_2":"RUS.15.28_1","NAME_1":"Dagestan","NAME_2":"Kizlyar"}},
{"type":"Feature","geometry":{"type":"Polygon","coordinates":[[[46.9265,44.4471],[46.821,44.2938],[46.8027,44.1027],[46.6445,43.8826],[46.546,43.8552],[46.6185,43.7903],[46.5956,43.7057],[46.7626,43.7038],[46.8562,43.7463],[46.9649,43.7277],[47.0569,43.8019],[47.3213,43.7822],[47.4624,43.6668],[47.5346,43.7779],[47.5251,43.836],[47.2538,44.1289],[47.1932,44.2411],[47.1129,44.2117],[46.9938,44.4385],[46.9265,44.4471]],[[46.7652,43.8353],[46.6501,43.7966],[46.6377,43.8622],[46.7652,43.8353]]]},"properties":{"GID_0":"RUS","GID_1":"RUS.15_1","GID_2":"RUS.15.29_1","NAME_1":"Dagestan","NAME_2":"Kizlyarskiyrayon"}},
{"type":"Feature","geometry":{"type":"Polygon","coordinates":[[[47.4256,41.8905],[47.4449,41.9238],[47.4385,42.0378],[47.3939,42.0783],[47.2543,42.1613],[47.1185,42.1146],[47.1385,42.0038],[47.0936,41.8735],[47.3112,41.7854],[47.368,41.8129],[47.4256,41.8905]]]},"properties":{"GID_0":"RUS","GID_1":"RUS.15_1","GID_2":"RUS.15.30_1","NAME_1":"Dagestan","NAME_2":"Kulinskiyrayon"}},
{"type":"Feature","geometry":{"type":"Polygon","coordinates":[[[47.4846,41.6501],[47.5537,41.5684],[47.6251,41.5713],[47.8454,41.4681],[47.9754,41.5006],[47.9864,41.5484],[47.907,41.5902],[47.8734,41.6152],[47.8726,41.6281],[47.8795,41.6392],[47.8805,41.6555],[47.8677,41.6642],[47.788,41.6786],[47.7831,41.6637],[47.6393,41.6395],[47.4846,41.6501]]]},"properties":{"GID_0":"RUS","GID_1":"RUS.15_1","GID_2":"RUS.15.31_1","NAME_1":"Dagestan","NAME_2":"Kurakhskiyrayon"}},
{"type":"Feature","geometry":{"type":"Polygon","coordinates":[[[47.1747,42.2801],[47.1713,42.2655],[47.0842,42.3527],[46.936,42.1964],[46.9669,41.9418],[47.0936,41.8735],[47.1385,42.0038],[47.1185,42.1146],[47.2543,42.1613],[47.2262,42.1916],[47.1966,42.2448],[47.1747,42.2801]]]},"properties":{"GID_0":"RUS","GID_1":"RUS.15_1","GID_2":"RUS.15.32_1","NAME_1":"Dagestan","NAME_2":"Lakskiyrayon"}},
{"type":"Feature","geometry":{"type":"Polygon","coordinates":[[[47.5615,42.3623],[47.4896,42.4426],[47.3491,42.5397],[47.3276,42.6285],[47.0707,42.6065],[47.0595,42.5937],[47.1919,42.5093],[47.0897,42.4332],[47.0842,42.3527],[47.1713,42.2655],[47.1821,42.3045],[47.2063,42.3639],[47.3375,42.3351],[47.4242,42.3717],[47.5615,42.3623]]]},"properties":{"GID_0":"RUS","GID_1":"RUS.15_1","GID_2":"RUS.15.33_1","NAME_1":"Dagestan","NAME_2":"Levashinskiyrayon"}},
{"type":"Feature","geometry":{"type":"Polygon","coordinates":[[[48.0012,41.402],[48.0511,41.4912],[48.1936,41.5032],[48.4144,41.6266],[48.498,41.8566],[48.4463,41.8953],[48.3764,41.7703],[48.3626,41.7755],[48.3277,41.7057],[48.1325,41.6392],[48.0546,41.5396],[47.9864,41.5484],[47.9754,41.5006],[47.8454,41.4681],[47.8526,41.4598],[47.9036,41.4395],[48.0012,41.402]]]},"properties":{"GID_0":"RUS","GID_1":"RUS.15_1","GID_2":"RUS.15.34_1","NAME_1":"Dagestan","NAME_2":"Magaramkentskiyrayon"}},
{"type":"Feature","geometry":{"type":"Polygon","coordinates":[[[47.458,43.082],[47.354,43.0618],[47.3425,43.0467],[47.455,42.9063],[47.4831,42.8893],[47.5742,42.9561],[47.4515,43.0402],[47.458,43.082]]]},"properties":{"GID_0":"RUS","GID_1":"RUS.15_1","GID_2":"RUS.15.35_1","NAME_1":"Dagestan","NAME_2":"Makhachkalagorsovet"}},
{"type":"Feature","geometry":{"type":"Polygon","coordinates":[[[46.3855,44.9511],[45.8284,45.0157],[45.7095,44.9896],[45.5898,44.8832],[45.6449,44.7748],[45.5042,44.5985],[45.3094,44.5253],[45.3629,44.4114],[45.503,44.3429],[45.4408,44.2545],[45.2269,44.208],[45.3577,44.1136],[45.4377,44.1472],[45.583,44.1068],[45.5694,43.9754],[45.7863,43.9013],[45.9033,43.9343],[46.1869,43.8376],[46.3976,43.9876],[46.3824,44.2185],[46.4556,44.2401],[46.3714,44.747],[46.3855,44.9511]]]},"properties":{"GID_0":"RUS","GID_1":"RUS.15_1","GID_2":"RUS.15.36_1","NAME_1":"Dagestan","NAME_2":"Nogayskiyrayon"}},
{"type":"Feature","geometry":{"type":"Polygon","coordinates":[[[46.4625,43.254],[46.4572,43.0733],[46.5157,43.0481],[46.6354,43.1232],[46.5939,43.2142],[46.4625,43.254]]]},"properties":{"GID_0":"RUS","GID_1":"RUS.15_1","GID_2":"RUS.15.37_1","NAME_1":"Dagestan","NAME_2":"Novolakskiyrayon"}},
{"type":"Feature","geometry":{"type":"Polygon","coordinates":[[[46.7392,41.8613],[46.7812,41.7854],[46.8958,41.7316],[47.0098,41.556],[47.1009,41.5872],[47.2531,41.3915],[47.3761,41.4512],[47.5029,41.4641],[47.5537,41.5684],[47.4846,41.6501],[47.368,41.8129],[47.3112,41.7854],[47.0936,41.8735],[46.9669,41.9418],[46.822,41.9338],[46.7571,41.8871],[46.7392,41.8613]]]},"properties":{"GID_0":"RUS","GID_1":"RUS.15_1","GID_2":"RUS.15.38_1","NAME_1":"Dagestan","NAME_2":"Rutul'skiyrayon"}},
{"type":"Feature","geometry":{"type":"Polygon","coordinates":[[[47.5656,42.2633],[47.747,42.2318],[47.7852,42.298],[47.7099,42.357],[47.7864,42.4882],[47.7473,42.5199],[47.5438,42.4959],[47.4896,42.4426],[47.5615,42.3623],[47.5656,42.2633]]]},"properties":{"GID_0":"RUS","GID_1":"RUS.15_1","GID_2":"RUS.15.39_1","NAME_1":"Dagestan","NAME_2":"Sergokalinskiyrayon"}},
{"type":"Feature","geometry":{"type":"Polygon","coordinates":[[[46.3444,42.4805],[46.3596,42.4623],[46.3098,42.3578],[46.4174,42.3346],[46.5772,42.2025],[46.6412,42.2874],[46.798,42.3645],[46.7724,42.4743],[46.7676,42.4619],[46.5176,42.5273],[46.395,42.4662],[46.3812,42.4627],[46.3444,42.4805]]]},"properties":{"GID_0":"RUS","GID_1":"RUS.15_1","GID_2":"RUS.15.40_1","NAME_1":"Dagestan","NAME_2":"Shamil'skiyrayon"}},
{"type":"Feature","geometry":{"type":"Polygon","coordinates":[[[48.3128,41.7968],[48.2657,41.74],[48.1191,41.7597],[48.101,41.7143],[47.8937,41.6457],[47.8805,41.6555],[47.8795,41.6392],[47.8726,41.6281],[47.8734,41.6152],[47.907,41.5902],[47.9864,41.5484],[48.0546,41.5396],[48.1325,41.6392],[48.3277,41.7057],[48.3626,41.7755],[48.3128,41.7968]]]},"properties":{"GID_0":"RUS","GID_1":"RUS.15_1","GID_2":"RUS.15.41_1","NAME_1":"Dagestan","NAME_2":"Suleyman-Stal'skiyrayon"}},
{"type":"Feature","geometry":{"type":"Polygon","coordinates":[[[47.7997,41.8776],[47.9792,41.8422],[48.1191,41.7597],[48.2657,41.74],[48.3128,41.7968],[48.1892,41.8402],[48.2234,41.9075],[48.0695,42.0087],[47.9418,42.0477],[47.9432,42.0331],[47.9076,41.9577],[47.8179,41.9368],[47.7997,41.8776]]]},"properties":{"GID_0":"RUS","GID_1":"RUS.15_1","GID_2":"RUS.15.42_1","NAME_1":"Dagestan","NAME_2":"Tabasaranskiyrayon"}},
{"type":"Feature","geometry":{"type":"Polygon","coordinates":[[[46.9265,44.4471],[46.8364,44.5382],[46.8748,44.816],[46.7495,44.7922],[46.5523,44.8509],[46.3855,44.9511],[46.3714,44.747],[46.4556,44.2401],[46.3824,44.2185],[46.3976,43.9876],[46.4491,43.9834],[46.546,43.8552],[46.6445,43.8826],[46.8027,44.1027],[46.821,44.2938],[46.9265,44.4471]]]},"properties":{"GID_0":"RUS","GID_1":"RUS.15_1","GID_2":"RUS.15.43_1","NAME_1":"Dagestan","NAME_2":"Tarumovskiyrayon"}},
{"type":"Feature","geometry":{"type":"Polygon","coordinates":[[[46.071,42.0362],[46.2262,42.0018],[46.4426,41.8893],[46.5397,41.8738],[46.5768,41.8066],[46.7392,41.8613],[46.7571,41.8871],[46.733,41.9655],[46.6417,41.9644],[46.5772,42.2025],[46.4174,42.3346],[46.3098,42.3578],[46.1596,42.2871],[46.0821,42.1919],[46.222,42.0745],[46.071,42.0362]]]},"properties":{"GID_0":"RUS","GID_1":"RUS.15_1","GID_2":"RUS.15.44_1","NAME_1":"Dagestan","NAME_2":"Tlyaratinskiyrayon"}},
{"type":"Feature","geometry":{"type":"Polygon","coordinates":[[[45.7435,42.3034],[45.8234,42.2726],[45.945,42.3593],[46.0636,42.2529],[46.1596,42.2871],[46.3098,42.3578],[46.3596,42.4623],[46.3141,42.5196],[46.2521,42.5613],[46.1328,42.5769],[46.0422,42.6291],[45.9415,42.5865],[45.9037,42.5183],[45.7313,42.3858],[45.7435,42.3034]]]},"properties":{"GID_0":"RUS","GID_1":"RUS.15_1","GID_2":"RUS.15.45_1","NAME_1":"Dagestan","NAME_2":"Tsumadinskiyrayon"}},
{"type":"Feature","geometry":{"type":"Polygon","coordinates":[[[45.7435,42.3034],[45.6407,42.2894],[45.6061,42.219],[45.7687,42.1258],[45.9065,42.0881],[45.9467,42.0254],[46.071,42.0362],[46.222,42.0745],[46.0821,42.1919],[46.1596,42.2871],[46.0636,42.2529],[45.945,42.3593],[45.8234,42.2726],[45.7435,42.3034]]]},"properties":{"GID_0":"RUS","GID_1":"RUS.15_1","GID_2":"RUS.15.46_1","NAME_1":"Dagestan","NAME_2":"Tsuntinskiyrayon"}},
{"type":"Feature","geometry":{"type":"Polygon","coordinates":[[[46.8698,42.8686],[46.7757,42.7563],[46.6487,42.7098],[46.6439,42.6438],[46.6708,42.6387],[46.8475,42.5834],[46.8989,42.5645],[47.0776,42.6168],[46.8661,42.7809],[46.8698,42.8686]]]},"properties":{"GID_0":"RUS","GID_1":"RUS.15_1","GID_2":"RUS.15.47_1","NAME_1":"Dagestan","NAME_2":"Untsukul'skiyrayon"}}
]}