{"type":"FeatureCollection", "features": [
{"type":"Feature","geometry":{"type":"Polygon","coordinates":[[[-73.7751,42.4653],[-73.7762,42.4962],[-73.7494,42.5699],[-73.7623,42.6055],[-73.7429,42.6571],[-73.7083,42.6912],[-73.6825,42.7704],[-73.7369,42.8189],[-73.7695,42.7875],[-73.8016,42.7788],[-73.8091,42.7789],[-73.811,42.7767],[-74.1773,42.73],[-74.1619,42.7166],[-74.1757,42.6499],[-74.2357,42.5705],[-74.2263,42.5046],[-74.2652,42.4177],[-74.253,42.4071],[-73.7751,42.4653]]]},"properties":{"GID_0":"USA","GID_1":"USA.33_1","GID_2":"USA.33.1_1","NAME_1":"NewYork","NAME_2":"Albany"}},
{"type":"Feature","geometry":{"type":"Polygon","coordinates":[[[-78.306,42.0001],[-77.7513,41.999],[-77.7401,42.2474],[-77.7243,42.4722],[-77.8395,42.4752],[-77.8396,42.5161],[-78.0395,42.5187],[-78.0389,42.5214],[-78.3071,42.52],[-78.3075,42.3145],[-78.31,42.2072],[-78.306,42.0001]]]},"properties":{"GID_0":"USA","GID_1":"USA.33_1","GID_2":"USA.33.2_1","NAME_1":"NewYork","NAME_2":"Allegany"}},
{"type":"Feature","geometry":{"type":"Polygon","coordinates":[[[-73.9172,40.9201],[-73.9358,40.8786],[-73.9269,40.7961],[-73.8044,40.8119],[-73.8169,40.8522],[-73.7927,40.8828],[-73.9172,40.9201]]]},"properties":{"GID_0":"USA","GID_1":"USA.33_1","GID_2":"USA.33.3_1","NAME_1":"NewYork","NAME_2":"Bronx"}},
{"type":"Feature","geometry":{"type":"Polygon","coordinates":[[[-76.1258,42.4107],[-76.0981,42.3022],[-76.1023,42.2808],[-76.0823,42.1928],[-76.1151,42.1858],[-76.106,41.9991],[-75.3545,41.9992],[-75.3983,42.0124],[-75.4224,42.0583],[-75.4166,42.195],[-75.6371,42.1954],[-75.6366,42.2472],[-75.8349,42.2495],[-75.843,42.2577],[-75.8636,42.4139],[-76.0196,42.4129],[-76.1258,42.4107]]]},"properties":{"GID_0":"USA","GID_1":"USA.33_1","GID_2":"USA.33.4_1","NAME_1":"NewYork","NAME_2":"Broome"}},
{"type":"Feature","geometry":{"type":"Polygon","coordinates":[[[-78.3071,42.52],[-78.4639,42.5188],[-78.4646,42.5333],[-78.4832,42.5334],[-78.5637,42.5083],[-78.5999,42.5106],[-78.6469,42.4909],[-78.7157,42.4855],[-78.8395,42.4447],[-78.8809,42.4404],[-78.9593,42.4788],[-79.0012,42.5314],[-79.0277,42.5388],[-79.0606,42.5379],[-79.0634,41.9987],[-78.306,42.0001],[-78.31,42.2072],[-78.3075,42.3145],[-78.3071,42.52]]]},"properties":{"GID_0":"USA","GID_1":"USA.33_1","GID_2":"USA.33.5_1","NAME_1":"NewYork","NAME_2":"Cattaraugus"}},
{"type":"Feature","geometry":{"type":"Polygon","coordinates":[[[-76.2745,42.7712],[-76.2968,42.8079],[-76.3554,42.8502],[-76.4498,42.8464],[-76.4644,43],[-76.4927,43.0052],[-76.4997,43.1002],[-76.4929,43.1067],[-76.4754,43.1591],[-76.4831,43.2582],[-76.6044,43.2541],[-76.6178,43.416],[-76.6296,43.4113],[-76.6772,43.3558],[-76.7073,43.3464],[-76.7205,43.3454],[-76.7019,43.0758],[-76.7155,43.0652],[-76.7142,43.0247],[-76.7183,43.0083],[-76.735,42.9604],[-76.7383,42.934],[-76.7396,42.9049],[-76.7215,42.871],[-76.7165,42.836],[-76.7358,42.7981],[-76.7327,42.7263],[-76.6894,42.6762],[-76.6667,42.6242],[-76.4586,42.6268],[-76.4566,42.6186],[-76.266,42.6221],[-76.2745,42.7712]]]},"properties":{"GID_0":"USA","GID_1":"USA.33_1","GID_2":"USA.33.6_1","NAME_1":"NewYork","NAME_2":"Cayuga"}},
{"type":"Feature","geometry":{"type":"Polygon","coordinates":[[[-79.0606,42.5379],[-79.1171,42.57],[-79.1382,42.5681],[-79.1469,42.556],[-79.2484,42.5327],[-79.2797,42.5122],[-79.3459,42.493],[-79.4352,42.4225],[-79.5499,42.3622],[-79.6929,42.293],[-79.7625,42.2686],[-79.7624,41.9985],[-79.0634,41.9987],[-79.0606,42.5379]]]},"properties":{"GID_0":"USA","GID_1":"USA.33_1","GID_2":"USA.33.7_1","NAME_1":"NewYork","NAME_2":"Chautauqua"}},
{"type":"Feature","geometry":{"type":"Polygon","coordinates":[[[-76.9654,42.2803],[-76.9651,42.0023],[-76.5618,42.0009],[-76.544,42.0536],[-76.5598,42.1557],[-76.5344,42.1568],[-76.5382,42.2817],[-76.6194,42.2824],[-76.641,42.2363],[-76.7323,42.2491],[-76.7362,42.2954],[-76.9649,42.2885],[-76.9654,42.2803]]]},"properties":{"GID_0":"USA","GID_1":"USA.33_1","GID_2":"USA.33.8_1","NAME_1":"NewYork","NAME_2":"Chemung"}},
{"type":"Feature","geometry":{"type":"Polygon","coordinates":[[[-75.4166,42.195],[-75.4122,42.3149],[-75.3929,42.3544],[-75.4015,42.3785],[-75.4003,42.3853],[-75.3729,42.4135],[-75.3958,42.4667],[-75.3957,42.5117],[-75.324,42.5902],[-75.3269,42.6675],[-75.2937,42.732],[-75.2905,42.7429],[-75.4272,42.7439],[-75.8896,42.7238],[-75.8728,42.5016],[-75.8636,42.4139],[-75.843,42.2577],[-75.8349,42.2495],[-75.6366,42.2472],[-75.6371,42.1954],[-75.4166,42.195]]]},"properties":{"GID_0":"USA","GID_1":"USA.33_1","GID_2":"USA.33.9_1","NAME_1":"NewYork","NAME_2":"Chenango"}},
{"type":"Feature","geometry":{"type":"Polygon","coordinates":[[[-73.3418,44.548],[-73.3812,44.5893],[-73.3889,44.6335],[-73.3634,44.6957],[-73.3645,44.7409],[-73.3369,44.7839],[-73.3813,44.837],[-73.3614,44.9011],[-73.3411,44.9199],[-73.3442,45.0103],[-73.6293,45.0034],[-73.8279,45.0031],[-74.0314,44.9955],[-74.0105,44.8898],[-74.0104,44.8368],[-73.9907,44.7079],[-73.9682,44.7095],[-73.9475,44.5756],[-73.9353,44.5759],[-73.9124,44.4306],[-73.7028,44.4453],[-73.5704,44.4653],[-73.4987,44.4866],[-73.462,44.5376],[-73.3418,44.548]]]},"properties":{"GID_0":"USA","GID_1":"USA.33_1","GID_2":"USA.33.10_1","NAME_1":"NewYork","NAME_2":"Clinton"}},
{"type":"Feature","geometry":{"type":"Polygon","coordinates":[[[-73.3546,42.5095],[-73.7751,42.4653],[-73.7722,42.4325],[-73.7901,42.3841],[-73.7779,42.3008],[-73.8056,42.2576],[-73.8421,42.2367],[-73.8593,42.1896],[-73.8932,42.1683],[-73.9044,42.1389],[-73.916,42.1199],[-73.9311,42.082],[-73.907,42.0817],[-73.7123,42.0069],[-73.5265,41.9797],[-73.5196,42.0495],[-73.4822,42.1648],[-73.3546,42.5095]]]},"properties":{"GID_0":"USA","GID_1":"USA.33_1","GID_2":"USA.33.11_1","NAME_1":"NewYork","NAME_2":"Columbia"}},
{"type":"Feature","geometry":{"type":"Polygon","coordinates":[[[-75.8636,42.4139],[-75.8728,42.5016],[-75.895,42.7897],[-76.091,42.7812],[-76.2745,42.7712],[-76.2549,42.4082],[-76.0196,42.4129],[-75.8636,42.4139]]]},"properties":{"GID_0":"USA","GID_1":"USA.33_1","GID_2":"USA.33.12_1","NAME_1":"NewYork","NAME_2":"Cortland"}},
{"type":"Feature","geometry":{"type":"Polygon","coordinates":[[[-75.3545,41.9992],[-75.3077,41.9492],[-75.2787,41.9391],[-75.2591,41.8653],[-75.2032,41.8695],[-75.1431,41.8527],[-74.5538,42.1212],[-74.5312,42.1464],[-74.504,42.1449],[-74.4516,42.1694],[-74.5348,42.201],[-74.4278,42.3492],[-74.6168,42.4219],[-74.7145,42.5175],[-74.7158,42.5162],[-74.7793,42.5038],[-74.8427,42.5114],[-74.9345,42.4705],[-74.9612,42.4774],[-74.9851,42.4421],[-75.0212,42.4272],[-75.0933,42.4188],[-75.1451,42.384],[-75.26,42.3624],[-75.303,42.3221],[-75.4122,42.3149],[-75.4224,42.0583],[-75.3983,42.0124],[-75.3545,41.9992]]]},"properties":{"GID_0":"USA","GID_1":"USA.33_1","GID_2":"USA.33.13_1","NAME_1":"NewYork","NAME_2":"Delaware"}},
{"type":"Feature","geometry":{"type":"Polygon","coordinates":[[[-73.5313,41.5229],[-73.4901,42.0497],[-73.5196,42.0495],[-73.5265,41.9797],[-73.7123,42.0069],[-73.907,42.0817],[-73.9311,42.082],[-73.9331,42.0216],[-73.9639,41.9138],[-73.9423,41.8827],[-73.9504,41.7979],[-73.938,41.7469],[-73.9513,41.6149],[-73.9526,41.5841],[-73.9948,41.5374],[-73.9997,41.4498],[-73.9869,41.4451],[-73.9828,41.4401],[-73.9315,41.4871],[-73.5803,41.5264],[-73.5313,41.5229]]]},"properties":{"GID_0":"USA","GID_1":"USA.33_1","GID_2":"USA.33.14_1","NAME_1":"NewYork","NAME_2":"Dutchess"}},
{"type":"Feature","geometry":{"type":"MultiPolygon","coordinates":[[[[-78.4832,42.5334],[-78.4646,42.5333],[-78.4613,42.6025],[-78.4627,42.7808],[-78.4864,42.7816],[-78.4845,42.8671],[-78.4626,42.8676],[-78.4623,42.9755],[-78.4651,43.0851],[-78.5584,43.0952],[-78.59,43.0708],[-78.6893,43.0889],[-78.7418,43.0699],[-78.803,43.0642],[-78.8379,43.0206],[-78.8837,43.0228],[-78.9322,42.9995],[-78.9306,42.9681],[-78.9124,42.9554],[-78.9009,42.8993],[-78.8598,42.8398],[-78.8557,42.7817],[-78.9186,42.7382],[-78.993,42.704],[-79.0491,42.6893],[-79.0644,42.6474],[-79.106,42.6199],[-79.1382,42.5681],[-79.1171,42.57],[-79.0606,42.5379],[-79.0277,42.5388],[-79.0012,42.5314],[-78.9593,42.4788],[-78.8809,42.4404],[-78.8395,42.4447],[-78.7157,42.4855],[-78.6469,42.4909],[-78.5999,42.5106],[-78.5637,42.5083],[-78.4832,42.5334]]],[[[-78.9218,43.0557],[-78.9966,43.0588],[-79.0199,43.0108],[-79.0074,42.987],[-78.9617,42.9632],[-78.9468,42.9909],[-78.9337,43.0049],[-78.8986,43.0186],[-78.9218,43.0557]]]]},"properties":{"GID_0":"USA","GID_1":"USA.33_1","GID_2":"USA.33.15_1","NAME_1":"NewYork","NAME_2":"Erie"}},
{"type":"Feature","geometry":{"type":"Polygon","coordinates":[[[-73.9124,44.4306],[-74.1426,44.4058],[-74.0957,44.1382],[-74.1143,44.1325],[-74.284,44.1209],[-74.2599,43.9704],[-74.3376,43.9232],[-74.2178,43.811],[-74.1452,43.8289],[-74.1019,43.8053],[-74.0526,43.7974],[-74.062,43.7438],[-73.808,43.7704],[-73.3829,43.8098],[-73.3783,43.8758],[-73.4101,43.9351],[-73.4107,44.0189],[-73.4434,44.0526],[-73.3991,44.1488],[-73.3927,44.1912],[-73.3233,44.2444],[-73.3132,44.2637],[-73.3374,44.3638],[-73.2947,44.4384],[-73.2998,44.4804],[-73.3418,44.548],[-73.462,44.5376],[-73.4987,44.4866],[-73.5704,44.4653],[-73.7028,44.4453],[-73.9124,44.4306]]]},"properties":{"GID_0":"USA","GID_1":"USA.33_1","GID_2":"USA.33.16_1","NAME_1":"NewYork","NAME_2":"Essex"}},
{"type":"Feature","geometry":{"type":"Polygon","coordinates":[[[-74.0105,44.8898],[-74.0313,44.9952],[-74.1501,44.9912],[-74.3476,44.9908],[-74.6375,44.9992],[-74.6475,44.9962],[-74.6565,44.9986],[-74.6863,44.9883],[-74.7024,44.9911],[-74.7269,44.9908],[-74.7196,44.9542],[-74.6435,44.9542],[-74.5869,44.5656],[-74.5253,44.1694],[-74.5412,44.1677],[-74.5333,44.0979],[-74.284,44.1209],[-74.1143,44.1325],[-74.0957,44.1382],[-74.1426,44.4058],[-73.9124,44.4306],[-73.9353,44.5759],[-73.9475,44.5756],[-73.9682,44.7095],[-73.9907,44.7079],[-74.0104,44.8368],[-74.0105,44.8898]]]},"properties":{"GID_0":"USA","GID_1":"USA.33_1","GID_2":"USA.33.17_1","NAME_1":"NewYork","NAME_2":"Franklin"}},
{"type":"Feature","geometry":{"type":"Polygon","coordinates":[[[-74.7605,43.0474],[-74.547,42.9837],[-74.0966,42.9828],[-74.1154,43.0786],[-74.1427,43.2508],[-74.2258,43.2462],[-74.2244,43.2211],[-74.3226,43.2143],[-74.3271,43.2398],[-74.5329,43.2292],[-74.6506,43.2701],[-74.717,43.2864],[-74.6982,43.173],[-74.7698,43.1134],[-74.7605,43.0474]]]},"properties":{"GID_0":"USA","GID_1":"USA.33_1","GID_2":"USA.33.18_1","NAME_1":"NewYork","NAME_2":"Fulton"}},
{"type":"Feature","geometry":{"type":"Polygon","coordinates":[[[-78.4626,42.8676],[-78.277,42.8708],[-78.0712,42.8714],[-78.071,42.865],[-77.9953,42.8665],[-77.9946,42.8638],[-77.9521,42.8628],[-77.9524,42.9069],[-77.9118,42.9463],[-77.9098,43.0141],[-77.9527,43.0392],[-77.9083,43.132],[-78.1186,43.1302],[-78.4652,43.1301],[-78.4623,42.9755],[-78.4626,42.8676]]]},"properties":{"GID_0":"USA","GID_1":"USA.33_1","GID_2":"USA.33.19_1","NAME_1":"NewYork","NAME_2":"Genesee"}},
{"type":"Feature","geometry":{"type":"Polygon","coordinates":[[[-74.253,42.4071],[-74.2748,42.3673],[-74.2861,42.3629],[-74.389,42.3697],[-74.4432,42.3547],[-74.4278,42.3492],[-74.5348,42.201],[-74.3077,42.1142],[-74.0767,42.0968],[-74.0424,42.1682],[-74.0038,42.18],[-73.9189,42.1286],[-73.9109,42.1271],[-73.9044,42.1389],[-73.8932,42.1683],[-73.8593,42.1896],[-73.8421,42.2367],[-73.8056,42.2576],[-73.7779,42.3008],[-73.7901,42.3841],[-73.7722,42.4325],[-73.7751,42.4653],[-74.253,42.4071]]]},"properties":{"GID_0":"USA","GID_1":"USA.33_1","GID_2":"USA.33.20_1","NAME_1":"NewYork","NAME_2":"Greene"}},
{"type":"Feature","geometry":{"type":"Polygon","coordinates":[[[-74.284,44.1209],[-74.8557,44.0689],[-74.8271,43.872],[-74.7779,43.4847],[-74.8713,43.3396],[-74.717,43.2864],[-74.6506,43.2701],[-74.5329,43.2292],[-74.3271,43.2398],[-74.3226,43.2143],[-74.2244,43.2211],[-74.2258,43.2462],[-74.1427,43.2508],[-74.1834,43.4897],[-74.2182,43.7245],[-74.062,43.7438],[-74.0526,43.7974],[-74.1019,43.8053],[-74.1452,43.8289],[-74.2178,43.811],[-74.3376,43.9232],[-74.2599,43.9704],[-74.284,44.1209]]]},"properties":{"GID_0":"USA","GID_1":"USA.33_1","GID_2":"USA.33.21_1","NAME_1":"NewYork","NAME_2":"Hamilton"}},
{"type":"Feature","geometry":{"type":"Polygon","coordinates":[[[-74.717,43.2864],[-74.8713,43.3396],[-74.7779,43.4847],[-74.8271,43.872],[-74.8557,44.0689],[-75.0664,44.0497],[-75.1667,44.0942],[-75.1339,43.7966],[-75.1103,43.6154],[-75.0785,43.3327],[-75.1473,43.2997],[-75.1613,43.2637],[-75.0703,43.228],[-75.1525,43.1245],[-75.22,43.0542],[-75.2054,42.9377],[-75.2019,42.8804],[-75.2119,42.88],[-75.2095,42.8554],[-75.1389,42.8585],[-75.0992,42.9056],[-74.9079,42.8235],[-74.8928,42.8303],[-74.8791,42.8961],[-74.7637,42.8614],[-74.7404,42.9954],[-74.7605,43.0474],[-74.7698,43.1134],[-74.6982,43.173],[-74.717,43.2864]]]},"properties":{"GID_0":"USA","GID_1":"USA.33_1","GID_2":"USA.33.22_1","NAME_1":"NewYork","NAME_2":"Herkimer"}},
{"type":"Feature","geometry":{"type":"MultiPolygon","coordinates":[[[[-75.5474,44.1055],[-75.5217,44.1346],[-75.4467,44.2194],[-75.8424,44.3931],[-75.8602,44.3835],[-75.983,44.3024],[-76.0369,44.2585],[-76.0903,44.2359],[-76.168,44.2168],[-76.3074,44.1432],[-76.3473,44.1256],[-76.3662,44.1114],[-76.3325,44.066],[-76.3,44.0616],[-76.3007,44.0129],[-76.2236,43.9947],[-76.2212,44.0685],[-76.1454,44.0547],[-76.1254,44.0257],[-76.2051,43.9884],[-76.1392,43.9427],[-76.1268,43.9086],[-76.2038,43.864],[-76.2257,43.8894],[-76.2725,43.8787],[-76.2968,43.8394],[-76.2292,43.8029],[-76.2008,43.6906],[-76.2013,43.6801],[-76.0253,43.6691],[-76.0269,43.7073],[-75.7762,43.6908],[-75.7899,43.7868],[-75.852,43.794],[-75.8404,43.8837],[-75.7585,43.8798],[-75.6083,43.9734],[-75.5485,43.9684],[-75.553,44.0098],[-75.5041,44.0117],[-75.5041,44.0518],[-75.4844,44.0741],[-75.5474,44.1055]]],[[[-75.9183,44.3665],[-75.952,44.3468],[-75.9833,44.3398],[-76.0114,44.3411],[-76.0534,44.3236],[-76.0238,44.2868],[-75.9341,44.3404],[-75.9183,44.3665]]],[[[-76.3475,43.8842],[-76.3391,43.8778],[-76.3165,43.8948],[-76.3433,43.9051],[-76.3546,43.8937],[-76.3475,43.8842]]],[[[-76.4029,43.8984],[-76.3966,43.9025],[-76.4257,43.8946],[-76.4029,43.8984]]],[[[-76.2722,44.1844],[-76.2933,44.1879],[-76.2969,44.1692],[-76.2721,44.1798],[-76.2722,44.1844]]]]},"properties":{"GID_0":"USA","GID_1":"USA.33_1","GID_2":"USA.33.23_1","NAME_1":"NewYork","NAME_2":"Jefferson"}},
{"type":"Feature","geometry":{"type":"Polygon","coordinates":[[[-73.96,40.7188],[-73.9984,40.7014],[-74.042,40.6284],[-73.9959,40.5708],[-73.8954,40.577],[-73.897,40.6237],[-73.8601,40.6581],[-73.869,40.6927],[-73.8861,40.6838],[-73.96,40.7188]]]},"properties":{"GID_0":"USA","GID_1":"USA.33_1","GID_2":"USA.33.24_1","NAME_1":"NewYork","NAME_2":"Kings"}},
{"type":"Feature","geometry":{"type":"Polygon","coordinates":[[[-74.6475,44.9962],[-74.6699,45.006],[-74.7334,44.9905],[-74.8262,45.0158],[-74.9086,44.9867],[-74.9922,44.9777],[-75.0175,44.9549],[-75.1305,44.9165],[-75.3077,44.841],[-75.3744,44.7877],[-75.4249,44.7672],[-75.5457,44.687],[-75.564,44.6686],[-75.7674,44.5205],[-75.812,44.4675],[-75.824,44.431],[-75.9106,44.3715],[-75.9724,44.3439],[-75.9993,44.347],[-76.0541,44.3286],[-76.0915,44.3054],[-76.1629,44.2816],[-76.1656,44.241],[-76.2437,44.2051],[-76.3157,44.1987],[-76.3543,44.1344],[-76.4411,44.0944],[-76.7983,43.6314],[-78.6812,43.6336],[-79.2028,43.451],[-79.0711,43.262],[-79.0566,43.2488],[-79.0529,43.1746],[-79.044,43.1499],[-79.0701,43.12],[-79.0748,43.0813],[-79.0017,43.0582],[-79.0221,43.018],[-79.0218,42.9994],[-79.0072,42.9834],[-78.9606,42.96],[-78.9306,42.9681],[-78.9322,42.9995],[-78.8837,43.0228],[-78.8859,43.0394],[-78.9312,43.0682],[-79.0611,43.0807],[-79.0643,43.1184],[-79.0396,43.1395],[-79.0501,43.1716],[-79.0524,43.2525],[-79.0425,43.2683],[-78.9013,43.3016],[-78.6326,43.3588],[-78.4846,43.3755],[-78.3857,43.3777],[-78.1781,43.3707],[-78.1109,43.3761],[-77.9959,43.3656],[-77.9562,43.3668],[-77.8737,43.3501],[-77.777,43.34],[-77.7148,43.3233],[-77.6555,43.2797],[-77.5428,43.2351],[-77.4262,43.2701],[-77.3792,43.2748],[-77.1718,43.2831],[-77.1309,43.2868],[-77.0432,43.2738],[-76.9873,43.2762],[-76.9727,43.2741],[-76.9856,43.2599],[-76.9291,43.2309],[-76.9244,43.2169],[-76.9242,43.2378],[-76.9482,43.2726],[-76.8945,43.2959],[-76.7873,43.3129],[-76.7237,43.3454],[-76.7073,43.3464],[-76.6772,43.3558],[-76.6296,43.4113],[-76.5977,43.4257],[-76.4919,43.4739],[-76.4187,43.5217],[-76.2968,43.5134],[-76.2339,43.5311],[-76.2047,43.5772],[-76.1945,43.6364],[-76.1983,43.636],[-76.2012,43.6664],[-76.2008,43.6906],[-76.2292,43.8029],[-76.2968,43.8394],[-76.2725,43.8787],[-76.2257,43.8894],[-76.2038,43.864],[-76.1268,43.9086],[-76.1392,43.9427],[-76.2051,43.9884],[-76.1254,44.0257],[-76.1454,44.0547],[-76.2212,44.0685],[-76.2236,43.9947],[-76.3007,44.0129],[-76.3,44.0616],[-76.3325,44.066],[-76.3662,44.1114],[-76.3473,44.1256],[-76.3074,44.1432],[-76.168,44.2168],[-76.0903,44.2359],[-76.0369,44.2585],[-75.983,44.3024],[-75.8602,44.3835],[-75.8271,44.4041],[-75.8104,44.3982],[-75.7614,44.4467],[-75.7845,44.4703],[-75.7585,44.5173],[-75.5831,44.6398],[-75.4971,44.7051],[-75.3563,44.7771],[-75.2938,44.8213],[-75.2886,44.8377],[-75.1551,44.8776],[-75.097,44.9084],[-75.0229,44.9164],[-74.9917,44.945],[-74.8618,44.9773],[-74.8145,44.9972],[-74.7816,45.002],[-74.7579,44.9873],[-74.7127,44.9925],[-74.7024,44.9911],[-74.6863,44.9883],[-74.6565,44.9986],[-74.6475,44.9962]],[[-78.9218,43.0557],[-78.8986,43.0186],[-78.9337,43.0049],[-78.9468,42.9909],[-78.9617,42.9632],[-79.0074,42.987],[-79.0199,43.0108],[-78.9966,43.0588],[-78.9218,43.0557]],[[-76.3165,43.8948],[-76.3391,43.8778],[-76.3475,43.8842],[-76.3546,43.8937],[-76.3433,43.9051],[-76.3165,43.8948]],[[-76.3966,43.9025],[-76.4029,43.8984],[-76.4257,43.8946],[-76.3966,43.9025]],[[-76.2933,44.1879],[-76.2722,44.1844],[-76.2721,44.1798],[-76.2969,44.1692],[-76.2933,44.1879]],[[-75.952,44.3468],[-75.9183,44.3665],[-75.9341,44.3404],[-76.0238,44.2868],[-76.0534,44.3236],[-76.0114,44.3411],[-75.9833,44.3398],[-75.952,44.3468]],[[-74.894,44.9889],[-74.8927,44.9821],[-74.9148,44.9721],[-74.9374,44.9667],[-74.894,44.9889]]]},"properties":{"GID_0":"USA","GID_1":"USA.33_1","GID_2":"USA.33.25_1","NAME_1":"NewYork","NAME_2":"LakeOntario"}},
{"type":"Feature","geometry":{"type":"Polygon","coordinates":[[[-75.1667,44.0942],[-75.3123,44.1573],[-75.4467,44.2194],[-75.5474,44.1055],[-75.4844,44.0741],[-75.5041,44.0518],[-75.5041,44.0117],[-75.553,44.0098],[-75.5485,43.9684],[-75.6083,43.9734],[-75.7585,43.8798],[-75.8404,43.8837],[-75.852,43.794],[-75.7899,43.7868],[-75.7762,43.6908],[-75.7576,43.471],[-75.5349,43.4212],[-75.1103,43.6154],[-75.1339,43.7966],[-75.1667,44.0942]]]},"properties":{"GID_0":"USA","GID_1":"USA.33_1","GID_2":"USA.33.26_1","NAME_1":"NewYork","NAME_2":"Lewis"}},
{"type":"Feature","geometry":{"type":"Polygon","coordinates":[[[-77.7243,42.4722],[-77.7201,42.5341],[-77.6603,42.5342],[-77.6599,42.5792],[-77.4904,42.5774],[-77.4875,42.6706],[-77.5979,42.672],[-77.6151,42.7636],[-77.5894,42.7631],[-77.5878,42.8536],[-77.5504,42.8797],[-77.5689,42.934],[-77.5805,42.9438],[-77.635,42.9443],[-77.7309,42.9468],[-77.731,42.9882],[-77.9101,42.9877],[-77.9118,42.9463],[-77.9524,42.9069],[-77.9545,42.6863],[-77.957,42.668],[-78.0139,42.5851],[-78.047,42.5545],[-78.0412,42.5305],[-78.0395,42.5187],[-77.8396,42.5161],[-77.8395,42.4752],[-77.7243,42.4722]]]},"properties":{"GID_0":"USA","GID_1":"USA.33_1","GID_2":"USA.33.27_1","NAME_1":"NewYork","NAME_2":"Livingston"}},
{"type":"Feature","geometry":{"type":"Polygon","coordinates":[[[-75.2905,42.7429],[-75.2868,42.7492],[-75.268,42.7715],[-75.2523,42.7828],[-75.2447,42.8137],[-75.2427,42.8542],[-75.2445,42.8714],[-75.4371,42.8612],[-75.4433,42.9321],[-75.5428,42.9312],[-75.5542,43.039],[-75.6005,43.0367],[-75.6062,43.0649],[-75.6376,43.0785],[-75.6565,43.1153],[-75.7219,43.1626],[-75.7778,43.1743],[-75.8638,43.1486],[-75.8713,43.149],[-75.8776,43.1558],[-75.9273,43.1639],[-75.9286,43.1739],[-75.9499,43.1733],[-75.9858,43.1864],[-75.9902,43.1855],[-75.9546,43.1192],[-75.9726,43.0928],[-75.9161,43.0884],[-75.9091,42.9552],[-75.8896,42.7238],[-75.4272,42.7439],[-75.2905,42.7429]]]},"properties":{"GID_0":"USA","GID_1":"USA.33_1","GID_2":"USA.33.28_1","NAME_1":"NewYork","NAME_2":"Madison"}},
{"type":"Feature","geometry":{"type":"Polygon","coordinates":[[[-77.9101,42.9877],[-77.731,42.9882],[-77.7309,42.9468],[-77.635,42.9443],[-77.4822,42.9431],[-77.4866,43.0321],[-77.3719,43.0329],[-77.3792,43.2748],[-77.4262,43.2701],[-77.5428,43.2351],[-77.6555,43.2797],[-77.7148,43.3233],[-77.777,43.34],[-77.8737,43.3501],[-77.9562,43.3668],[-77.9959,43.3656],[-77.9981,43.1321],[-77.9083,43.132],[-77.9527,43.0392],[-77.9098,43.0141],[-77.9101,42.9877]]]},"properties":{"GID_0":"USA","GID_1":"USA.33_1","GID_2":"USA.33.29_1","NAME_1":"NewYork","NAME_2":"Monroe"}},
{"type":"Feature","geometry":{"type":"Polygon","coordinates":[[[-74.7605,43.0474],[-74.7404,42.9954],[-74.7637,42.8614],[-74.6504,42.828],[-74.5619,42.8092],[-74.4562,42.7716],[-74.2893,42.7838],[-74.264,42.7981],[-74.2646,42.7999],[-74.2563,42.8103],[-74.0853,42.8959],[-74.0966,42.9828],[-74.547,42.9837],[-74.7605,43.0474]]]},"properties":{"GID_0":"USA","GID_1":"USA.33_1","GID_2":"USA.33.30_1","NAME_1":"NewYork","NAME_2":"Montgomery"}},
{"type":"Feature","geometry":{"type":"Polygon","coordinates":[[[-73.4231,40.6803],[-73.4604,40.8592],[-73.4608,40.8669],[-73.5414,40.8769],[-73.5657,40.9155],[-73.6341,40.8984],[-73.6764,40.8575],[-73.7297,40.8664],[-73.7658,40.8121],[-73.7528,40.7869],[-73.7056,40.7499],[-73.7288,40.7239],[-73.7251,40.6517],[-73.741,40.647],[-73.7455,40.6121],[-73.7425,40.6084],[-73.7374,40.594],[-73.7034,40.5914],[-73.6522,40.6154],[-73.5617,40.6294],[-73.4364,40.6596],[-73.4224,40.6616],[-73.4231,40.6803]]]},"properties":{"GID_0":"USA","GID_1":"USA.33_1","GID_2":"USA.33.31_1","NAME_1":"NewYork","NAME_2":"Nassau"}},
{"type":"Feature","geometry":{"type":"Polygon","coordinates":[[[-73.9358,40.8786],[-73.97,40.8164],[-74.013,40.759],[-74.0243,40.7144],[-73.9769,40.7114],[-73.9717,40.7433],[-73.9269,40.7961],[-73.9358,40.8786]]]},"properties":{"GID_0":"USA","GID_1":"USA.33_1","GID_2":"USA.33.32_1","NAME_1":"NewYork","NAME_2":"NewYork"}},
{"type":"Feature","geometry":{"type":"Polygon","coordinates":[[[-78.4651,43.0851],[-78.4653,43.1633],[-78.4616,43.2235],[-78.4656,43.3741],[-78.4846,43.3755],[-78.6326,43.3588],[-78.9013,43.3016],[-79.0425,43.2683],[-79.0524,43.2525],[-79.0501,43.1716],[-79.0396,43.1395],[-79.0643,43.1184],[-79.0611,43.0807],[-78.9312,43.0682],[-78.8859,43.0394],[-78.8379,43.0206],[-78.803,43.0642],[-78.7418,43.0699],[-78.6893,43.0889],[-78.59,43.0708],[-78.5584,43.0952],[-78.4651,43.0851]]]},"properties":{"GID_0":"USA","GID_1":"USA.33_1","GID_2":"USA.33.33_1","NAME_1":"NewYork","NAME_2":"Niagara"}},
{"type":"Feature","geometry":{"type":"Polygon","coordinates":[[[-75.1103,43.6154],[-75.5349,43.4212],[-75.8163,43.4845],[-75.8861,43.3259],[-75.864,43.3205],[-75.8845,43.1572],[-75.8776,43.1558],[-75.8713,43.149],[-75.8638,43.1486],[-75.7778,43.1743],[-75.7219,43.1626],[-75.6565,43.1153],[-75.6376,43.0785],[-75.6062,43.0649],[-75.6005,43.0367],[-75.5542,43.039],[-75.5428,42.9312],[-75.4433,42.9321],[-75.4371,42.8612],[-75.2445,42.8714],[-75.2451,42.8783],[-75.2019,42.8804],[-75.2054,42.9377],[-75.22,43.0542],[-75.1525,43.1245],[-75.0703,43.228],[-75.1613,43.2637],[-75.1473,43.2997],[-75.0785,43.3327],[-75.1103,43.6154]]]},"properties":{"GID_0":"USA","GID_1":"USA.33_1","GID_2":"USA.33.34_1","NAME_1":"NewYork","NAME_2":"Oneida"}},
{"type":"Feature","geometry":{"type":"Polygon","coordinates":[[[-76.2745,42.7712],[-76.091,42.7812],[-75.895,42.7897],[-75.9091,42.9552],[-75.9161,43.0884],[-75.9726,43.0928],[-75.9546,43.1192],[-75.9902,43.1855],[-76.0053,43.1827],[-76.1163,43.235],[-76.1686,43.2488],[-76.2107,43.2436],[-76.2737,43.2041],[-76.3243,43.2325],[-76.4808,43.2273],[-76.4754,43.1591],[-76.4929,43.1067],[-76.4997,43.1002],[-76.4927,43.0052],[-76.4644,43],[-76.4498,42.8464],[-76.3554,42.8502],[-76.2968,42.8079],[-76.2745,42.7712]]]},"properties":{"GID_0":"USA","GID_1":"USA.33_1","GID_2":"USA.33.35_1","NAME_1":"NewYork","NAME_2":"Onondaga"}},
{"type":"Feature","geometry":{"type":"Polygon","coordinates":[[[-77.4904,42.5774],[-77.3664,42.576],[-77.3658,42.6674],[-77.3387,42.7291],[-77.3127,42.7609],[-76.9719,42.7643],[-76.9739,42.772],[-76.9718,42.7906],[-76.9722,42.8379],[-76.9764,42.8611],[-76.9635,42.8726],[-76.9634,43.0122],[-77.1351,43.012],[-77.1363,43.0379],[-77.2484,43.0328],[-77.4866,43.0321],[-77.4822,42.9431],[-77.5805,42.9438],[-77.5689,42.934],[-77.5504,42.8797],[-77.5878,42.8536],[-77.5894,42.7631],[-77.6151,42.7636],[-77.5979,42.672],[-77.4875,42.6706],[-77.4904,42.5774]]]},"properties":{"GID_0":"USA","GID_1":"USA.33_1","GID_2":"USA.33.36_1","NAME_1":"NewYork","NAME_2":"Ontario"}},
{"type":"Feature","geometry":{"type":"Polygon","coordinates":[[[-74.2338,41.1431],[-73.9829,41.3212],[-73.9621,41.3472],[-73.9573,41.4016],[-73.9869,41.4451],[-73.9997,41.4498],[-73.9948,41.5374],[-73.9526,41.5841],[-73.9525,41.59],[-74.0521,41.5816],[-74.0677,41.604],[-74.1325,41.6152],[-74.1282,41.5833],[-74.25,41.6059],[-74.2667,41.6324],[-74.3583,41.5938],[-74.3867,41.5854],[-74.4201,41.5666],[-74.4781,41.5031],[-74.7541,41.4945],[-74.7506,41.4274],[-74.6955,41.3576],[-74.2338,41.1431]]]},"properties":{"GID_0":"USA","GID_1":"USA.33_1","GID_2":"USA.33.37_1","NAME_1":"NewYork","NAME_2":"Orange"}},
{"type":"Feature","geometry":{"type":"Polygon","coordinates":[[[-77.9981,43.1321],[-77.9959,43.3656],[-78.1109,43.3761],[-78.1781,43.3707],[-78.3857,43.3777],[-78.4656,43.3741],[-78.4616,43.2235],[-78.4653,43.1633],[-78.4652,43.1301],[-78.1186,43.1302],[-77.9981,43.1321]]]},"properties":{"GID_0":"USA","GID_1":"USA.33_1","GID_2":"USA.33.38_1","NAME_1":"NewYork","NAME_2":"Orleans"}},
{"type":"Feature","geometry":{"type":"Polygon","coordinates":[[[-76.4808,43.2273],[-76.3243,43.2325],[-76.2737,43.2041],[-76.2107,43.2436],[-76.1686,43.2488],[-76.1163,43.235],[-76.0053,43.1827],[-75.9858,43.1864],[-75.9499,43.1733],[-75.9286,43.1739],[-75.8845,43.1572],[-75.864,43.3205],[-75.8861,43.3259],[-75.8163,43.4845],[-75.7576,43.471],[-75.7762,43.6908],[-76.0269,43.7073],[-76.0253,43.6691],[-76.2013,43.6801],[-76.1983,43.636],[-76.1945,43.6364],[-76.2047,43.5772],[-76.2339,43.5311],[-76.2968,43.5134],[-76.4187,43.5217],[-76.4919,43.4739],[-76.5977,43.4257],[-76.6178,43.416],[-76.6044,43.2541],[-76.4831,43.2582],[-76.4808,43.2273]]]},"properties":{"GID_0":"USA","GID_1":"USA.33_1","GID_2":"USA.33.39_1","NAME_1":"NewYork","NAME_2":"Oswego"}},
{"type":"Feature","geometry":{"type":"Polygon","coordinates":[[[-75.4122,42.3149],[-75.303,42.3221],[-75.26,42.3624],[-75.1451,42.384],[-75.0933,42.4188],[-75.0212,42.4272],[-74.9851,42.4421],[-74.9612,42.4774],[-74.9345,42.4705],[-74.8427,42.5114],[-74.7793,42.5038],[-74.7158,42.5162],[-74.671,42.5654],[-74.6317,42.6242],[-74.6681,42.7513],[-74.6504,42.828],[-74.8791,42.8961],[-74.8928,42.8303],[-74.9079,42.8235],[-75.0992,42.9056],[-75.1389,42.8585],[-75.2095,42.8554],[-75.2119,42.88],[-75.2451,42.8783],[-75.2427,42.8542],[-75.2447,42.8137],[-75.2523,42.7828],[-75.268,42.7715],[-75.2868,42.7492],[-75.2937,42.732],[-75.3269,42.6675],[-75.324,42.5902],[-75.3957,42.5117],[-75.3958,42.4667],[-75.3729,42.4135],[-75.4003,42.3853],[-75.4015,42.3785],[-75.3929,42.3544],[-75.4122,42.3149]]]},"properties":{"GID_0":"USA","GID_1":"USA.33_1","GID_2":"USA.33.40_1","NAME_1":"NewYork","NAME_2":"Otsego"}},
{"type":"Feature","geometry":{"type":"Polygon","coordinates":[[[-73.5313,41.5229],[-73.5803,41.5264],[-73.9315,41.4871],[-73.9828,41.4401],[-73.9573,41.4016],[-73.9621,41.3472],[-73.9829,41.3212],[-73.5455,41.3638],[-73.5313,41.5229]]]},"properties":{"GID_0":"USA","GID_1":"USA.33_1","GID_2":"USA.33.41_1","NAME_1":"NewYork","NAME_2":"Putnam"}},
{"type":"Feature","geometry":{"type":"MultiPolygon","coordinates":[[[[-73.7425,40.6084],[-73.7455,40.6121],[-73.7374,40.594],[-73.7425,40.6084]]],[[[-73.869,40.6927],[-73.8601,40.6581],[-73.7853,40.6314],[-73.741,40.647],[-73.7251,40.6517],[-73.7288,40.7239],[-73.7056,40.7499],[-73.7467,40.7813],[-73.8198,40.801],[-73.8594,40.7853],[-73.913,40.7897],[-73.9606,40.7442],[-73.96,40.7188],[-73.8861,40.6838],[-73.869,40.6927]]]]},"properties":{"GID_0":"USA","GID_1":"USA.33_1","GID_2":"USA.33.42_1","NAME_1":"NewYork","NAME_2":"Queens"}},
{"type":"Feature","geometry":{"type":"Polygon","coordinates":[[[-73.3546,42.5095],[-73.2675,42.7452],[-73.2916,42.8041],[-73.2789,42.8337],[-73.2742,42.9419],[-73.383,42.9455],[-73.4352,42.9582],[-73.4557,42.9453],[-73.6355,42.9412],[-73.6658,42.9302],[-73.6833,42.9091],[-73.6584,42.811],[-73.6712,42.7989],[-73.7083,42.6912],[-73.7429,42.6571],[-73.7623,42.6055],[-73.7494,42.5699],[-73.7762,42.4962],[-73.7751,42.4653],[-73.3546,42.5095]]]},"properties":{"GID_0":"USA","GID_1":"USA.33_1","GID_2":"USA.33.43_1","NAME_1":"NewYork","NAME_2":"Rensselaer"}},
{"type":"Feature","geometry":{"type":"Polygon","coordinates":[[[-74.0844,40.6486],[-74.2019,40.6289],[-74.1975,40.5975],[-74.2164,40.5572],[-74.2486,40.5439],[-74.2463,40.4963],[-74.1559,40.5279],[-74.1051,40.5538],[-74.0527,40.6014],[-74.0844,40.6486]]]},"properties":{"GID_0":"USA","GID_1":"USA.33_1","GID_2":"USA.33.44_1","NAME_1":"NewYork","NAME_2":"Richmond"}},
{"type":"Feature","geometry":{"type":"Polygon","coordinates":[[[-73.8936,40.9965],[-73.8922,41.1417],[-73.9739,41.2552],[-73.9439,41.288],[-73.9829,41.3212],[-74.2338,41.1431],[-73.9057,40.9994],[-73.8936,40.9965]]]},"properties":{"GID_0":"USA","GID_1":"USA.33_1","GID_2":"USA.33.45_1","NAME_1":"NewYork","NAME_2":"Rockland"}},
{"type":"Feature","geometry":{"type":"MultiPolygon","coordinates":[[[[-74.7196,44.9542],[-74.7269,44.9908],[-74.7579,44.9873],[-74.7816,45.002],[-74.8145,44.9972],[-74.8618,44.9773],[-74.9917,44.945],[-75.0229,44.9164],[-75.097,44.9084],[-75.1551,44.8776],[-75.2886,44.8377],[-75.2938,44.8213],[-75.3563,44.7771],[-75.4971,44.7051],[-75.5831,44.6398],[-75.7585,44.5173],[-75.7845,44.4703],[-75.7614,44.4467],[-75.8104,44.3982],[-75.8271,44.4041],[-75.8424,44.3931],[-75.5284,44.2559],[-75.3123,44.1573],[-75.0664,44.0497],[-74.5333,44.0979],[-74.5412,44.1677],[-74.5253,44.1694],[-74.5869,44.5656],[-74.6435,44.9542],[-74.7196,44.9542]]],[[[-74.8927,44.9821],[-74.894,44.9889],[-74.9374,44.9667],[-74.9148,44.9721],[-74.8927,44.9821]]]]},"properties":{"GID_0":"USA","GID_1":"USA.33_1","GID_2":"USA.33.46_1","NAME_1":"NewYork","NAME_2":"SaintLawrence"}},
{"type":"Feature","geometry":{"type":"Polygon","coordinates":[[[-73.6825,42.7704],[-73.6712,42.7989],[-73.6584,42.811],[-73.6833,42.9091],[-73.6658,42.9302],[-73.6355,42.9412],[-73.5846,43.0587],[-73.5814,43.1059],[-73.5963,43.1344],[-73.5884,43.2175],[-73.6053,43.241],[-73.6016,43.3087],[-73.7384,43.2729],[-73.7705,43.225],[-73.8,43.2491],[-73.8396,43.2528],[-73.8295,43.3036],[-73.861,43.329],[-73.8909,43.3986],[-74.1619,43.3657],[-74.1154,43.0786],[-74.0928,42.9569],[-74.0062,42.9336],[-73.9582,42.899],[-73.9016,42.9115],[-73.8961,42.8509],[-73.8222,42.7804],[-73.8016,42.7788],[-73.7695,42.7875],[-73.7369,42.8189],[-73.6825,42.7704]]]},"properties":{"GID_0":"USA","GID_1":"USA.33_1","GID_2":"USA.33.47_1","NAME_1":"NewYork","NAME_2":"Saratoga"}},
{"type":"Feature","geometry":{"type":"Polygon","coordinates":[[[-73.8091,42.7789],[-73.8222,42.7804],[-73.8961,42.8509],[-73.9016,42.9115],[-73.9582,42.899],[-74.0062,42.9336],[-74.0928,42.9569],[-74.0853,42.8959],[-74.2563,42.8103],[-74.2646,42.7999],[-74.2548,42.793],[-74.266,42.7572],[-74.3067,42.7485],[-74.2687,42.714],[-74.1838,42.7123],[-74.1773,42.73],[-73.811,42.7767],[-73.8091,42.7789]]]},"properties":{"GID_0":"USA","GID_1":"USA.33_1","GID_2":"USA.33.48_1","NAME_1":"NewYork","NAME_2":"Schenectady"}},
{"type":"Feature","geometry":{"type":"Polygon","coordinates":[[[-74.1773,42.73],[-74.1838,42.7123],[-74.2687,42.714],[-74.3067,42.7485],[-74.266,42.7572],[-74.2548,42.793],[-74.264,42.7981],[-74.2893,42.7838],[-74.4562,42.7716],[-74.5619,42.8092],[-74.6504,42.828],[-74.6681,42.7513],[-74.6317,42.6242],[-74.671,42.5654],[-74.7145,42.5175],[-74.6168,42.4219],[-74.4432,42.3547],[-74.389,42.3697],[-74.2861,42.3629],[-74.2748,42.3673],[-74.253,42.4071],[-74.2652,42.4177],[-74.2263,42.5046],[-74.2357,42.5705],[-74.1757,42.6499],[-74.1619,42.7166],[-74.1773,42.73]]]},"properties":{"GID_0":"USA","GID_1":"USA.33_1","GID_2":"USA.33.49_1","NAME_1":"NewYork","NAME_2":"Schoharie"}},
{"type":"Feature","geometry":{"type":"Polygon","coordinates":[[[-76.6194,42.2824],[-76.692,42.284],[-76.6861,42.375],[-76.6959,42.5466],[-76.8962,42.5415],[-76.9009,42.4955],[-76.8898,42.463],[-76.9643,42.4591],[-76.9894,42.485],[-77.1071,42.4836],[-77.0998,42.2742],[-76.9654,42.2803],[-76.9649,42.2885],[-76.7362,42.2954],[-76.7323,42.2491],[-76.641,42.2363],[-76.6194,42.2824]]]},"properties":{"GID_0":"USA","GID_1":"USA.33_1","GID_2":"USA.33.50_1","NAME_1":"NewYork","NAME_2":"Schuyler"}},
{"type":"Feature","geometry":{"type":"Polygon","coordinates":[[[-76.7142,43.0247],[-76.9634,43.0122],[-76.9635,42.8726],[-76.9764,42.8611],[-76.9722,42.8379],[-76.9718,42.7906],[-76.9739,42.772],[-76.9719,42.7643],[-76.9463,42.7646],[-76.9335,42.7211],[-76.8935,42.6565],[-76.8937,42.5724],[-76.8962,42.5415],[-76.5857,42.5503],[-76.6412,42.5912],[-76.6667,42.6242],[-76.6894,42.6762],[-76.7327,42.7263],[-76.7358,42.7981],[-76.7165,42.836],[-76.7215,42.871],[-76.7396,42.9049],[-76.7383,42.934],[-76.735,42.9604],[-76.7183,43.0083],[-76.7142,43.0247]]]},"properties":{"GID_0":"USA","GID_1":"USA.33_1","GID_2":"USA.33.51_1","NAME_1":"NewYork","NAME_2":"Seneca"}},
{"type":"Feature","geometry":{"type":"Polygon","coordinates":[[[-77.7513,41.999],[-77.1767,42.0002],[-76.9651,42.0023],[-76.9654,42.2803],[-77.0998,42.2742],[-77.1078,42.5057],[-77.1292,42.4963],[-77.1441,42.4954],[-77.1438,42.5769],[-77.3421,42.5759],[-77.6599,42.5792],[-77.6603,42.5342],[-77.7201,42.5341],[-77.7243,42.4722],[-77.7401,42.2474],[-77.7513,41.999]]]},"properties":{"GID_0":"USA","GID_1":"USA.33_1","GID_2":"USA.33.52_1","NAME_1":"NewYork","NAME_2":"Steuben"}},
{"type":"Feature","geometry":{"type":"MultiPolygon","coordinates":[[[[-73.4224,40.6616],[-73.4364,40.6596],[-73.3868,40.6568],[-73.3159,40.6868],[-73.2807,40.685],[-73.2256,40.7181],[-73.1485,40.6984],[-73.1105,40.72],[-73.0357,40.7297],[-73.0206,40.7486],[-72.9453,40.7408],[-72.8875,40.7625],[-72.8694,40.7392],[-72.8119,40.7637],[-72.8055,40.7823],[-72.7544,40.7837],[-72.7327,40.8003],[-72.6708,40.7848],[-72.5774,40.812],[-72.5706,40.8403],[-72.5117,40.8511],[-72.4697,40.8817],[-72.4358,40.8622],[-72.3177,40.8942],[-72.1713,40.9515],[-72.0271,40.9992],[-71.9575,41.0283],[-71.8741,41.0517],[-71.8635,41.0767],[-71.915,41.0806],[-71.9689,41.0402],[-72.0556,41.0225],[-72.1103,40.9947],[-72.1594,41.0539],[-72.2789,41.0003],[-72.3172,41.0086],[-72.3717,40.9956],[-72.4072,40.95],[-72.4425,40.9456],[-72.4747,40.8994],[-72.5086,40.8964],[-72.5753,40.9339],[-72.5267,40.98],[-72.4708,40.9897],[-72.4331,41.0358],[-72.3903,41.03],[-72.4022,41.0756],[-72.339,41.1146],[-72.3536,41.1403],[-72.3967,41.0964],[-72.4452,41.0868],[-72.4789,41.0514],[-72.5192,41.0394],[-72.575,41.0022],[-72.6369,40.9814],[-72.6975,40.9803],[-72.778,40.9652],[-72.8764,40.9636],[-73.0794,40.9675],[-73.1444,40.9551],[-73.1711,40.9042],[-73.2672,40.9147],[-73.3697,40.9333],[-73.3783,40.9031],[-73.4408,40.9075],[-73.4369,40.935],[-73.4961,40.9303],[-73.4608,40.8669],[-73.4604,40.8592],[-73.4231,40.6803],[-73.4224,40.6616]]],[[[-72.3305,41.1066],[-72.3749,41.0705],[-72.3242,41.0422],[-72.3305,41.1066]]]]},"properties":{"GID_0":"USA","GID_1":"USA.33_1","GID_2":"USA.33.53_1","NAME_1":"NewYork","NAME_2":"Suffolk"}},
{"type":"Feature","geometry":{"type":"Polygon","coordinates":[[[-75.1431,41.8527],[-75.0778,41.8148],[-75.094,41.7711],[-75.0614,41.766],[-75.0446,41.6189],[-75.0729,41.6054],[-75.0247,41.5598],[-74.9859,41.483],[-74.9149,41.474],[-74.8668,41.4452],[-74.7977,41.4251],[-74.7506,41.4274],[-74.7541,41.4945],[-74.4781,41.5031],[-74.4201,41.5666],[-74.3867,41.5854],[-74.3675,41.5916],[-74.3943,41.6458],[-74.5755,41.7453],[-74.4573,41.8747],[-74.7235,41.9915],[-74.78,42.0182],[-75.1431,41.8527]]]},"properties":{"GID_0":"USA","GID_1":"USA.33_1","GID_2":"USA.33.54_1","NAME_1":"NewYork","NAME_2":"Sullivan"}},
{"type":"Feature","geometry":{"type":"Polygon","coordinates":[[[-76.1258,42.4107],[-76.2947,42.4075],[-76.2944,42.3816],[-76.2433,42.3664],[-76.25,42.2964],[-76.3507,42.3181],[-76.4153,42.3194],[-76.417,42.2631],[-76.4731,42.2808],[-76.5382,42.2817],[-76.5344,42.1568],[-76.5598,42.1557],[-76.544,42.0536],[-76.5618,42.0009],[-76.3826,41.9989],[-76.106,41.9991],[-76.1151,42.1858],[-76.0823,42.1928],[-76.1023,42.2808],[-76.0981,42.3022],[-76.1258,42.4107]]]},"properties":{"GID_0":"USA","GID_1":"USA.33_1","GID_2":"USA.33.55_1","NAME_1":"NewYork","NAME_2":"Tioga"}},
{"type":"Feature","geometry":{"type":"Polygon","coordinates":[[[-76.6667,42.6242],[-76.6412,42.5912],[-76.5857,42.5503],[-76.6959,42.5466],[-76.6861,42.375],[-76.692,42.284],[-76.4731,42.2808],[-76.417,42.2631],[-76.4153,42.3194],[-76.3507,42.3181],[-76.25,42.2964],[-76.2433,42.3664],[-76.2944,42.3816],[-76.2947,42.4075],[-76.2549,42.4082],[-76.266,42.6221],[-76.4566,42.6186],[-76.4586,42.6268],[-76.6667,42.6242]]]},"properties":{"GID_0":"USA","GID_1":"USA.33_1","GID_2":"USA.33.56_1","NAME_1":"NewYork","NAME_2":"Tompkins"}},
{"type":"Feature","geometry":{"type":"Polygon","coordinates":[[[-73.9109,42.1271],[-73.9189,42.1286],[-74.0038,42.18],[-74.0424,42.1682],[-74.0767,42.0968],[-74.3077,42.1142],[-74.4516,42.1694],[-74.504,42.1449],[-74.5312,42.1464],[-74.5538,42.1212],[-74.78,42.0182],[-74.7235,41.9915],[-74.4573,41.8747],[-74.5755,41.7453],[-74.3943,41.6458],[-74.3675,41.5916],[-74.3583,41.5938],[-74.2667,41.6324],[-74.25,41.6059],[-74.1282,41.5833],[-74.1325,41.6152],[-74.0677,41.604],[-74.0521,41.5816],[-73.9525,41.59],[-73.9513,41.6149],[-73.938,41.7469],[-73.9504,41.7979],[-73.9423,41.8827],[-73.9639,41.9138],[-73.9331,42.0216],[-73.9311,42.082],[-73.916,42.1199],[-73.9109,42.1271]]]},"properties":{"GID_0":"USA","GID_1":"USA.33_1","GID_2":"USA.33.57_1","NAME_1":"NewYork","NAME_2":"Ulster"}},
{"type":"Feature","geometry":{"type":"Polygon","coordinates":[[[-74.062,43.7438],[-74.2182,43.7245],[-74.1834,43.4897],[-74.1619,43.3657],[-73.8909,43.3986],[-73.861,43.329],[-73.8295,43.3036],[-73.8396,43.2528],[-73.8,43.2491],[-73.7705,43.225],[-73.7384,43.2729],[-73.6016,43.3087],[-73.6356,43.4712],[-73.6395,43.5104],[-73.616,43.5643],[-73.5879,43.5734],[-73.5337,43.6359],[-73.5061,43.6492],[-73.4688,43.7356],[-73.4802,43.7758],[-73.468,43.7829],[-73.4432,43.8044],[-73.808,43.7704],[-74.062,43.7438]]]},"properties":{"GID_0":"USA","GID_1":"USA.33_1","GID_2":"USA.33.58_1","NAME_1":"NewYork","NAME_2":"Warren"}},
{"type":"Feature","geometry":{"type":"Polygon","coordinates":[[[-73.4432,43.8044],[-73.468,43.7829],[-73.4802,43.7758],[-73.4688,43.7356],[-73.5061,43.6492],[-73.5337,43.6359],[-73.5879,43.5734],[-73.616,43.5643],[-73.6395,43.5104],[-73.6356,43.4712],[-73.6016,43.3087],[-73.6053,43.241],[-73.5884,43.2175],[-73.5963,43.1344],[-73.5814,43.1059],[-73.5846,43.0587],[-73.6355,42.9412],[-73.4557,42.9453],[-73.4352,42.9582],[-73.383,42.9455],[-73.2742,42.9419],[-73.2578,43.3092],[-73.2506,43.5108],[-73.2581,43.5617],[-73.2864,43.5783],[-73.3056,43.627],[-73.3751,43.6233],[-73.386,43.5812],[-73.4302,43.5834],[-73.4317,43.6439],[-73.356,43.7651],[-73.3829,43.8098],[-73.4432,43.8044]]]},"properties":{"GID_0":"USA","GID_1":"USA.33_1","GID_2":"USA.33.59_1","NAME_1":"NewYork","NAME_2":"Washington"}},
{"type":"Feature","geometry":{"type":"Polygon","coordinates":[[[-76.7205,43.3454],[-76.7237,43.3454],[-76.7873,43.3129],[-76.8945,43.2959],[-76.9482,43.2726],[-76.9242,43.2378],[-76.9244,43.2169],[-76.9291,43.2309],[-76.9856,43.2599],[-76.9727,43.2741],[-76.9873,43.2762],[-77.0432,43.2738],[-77.1309,43.2868],[-77.1718,43.2831],[-77.3792,43.2748],[-77.3719,43.0329],[-77.2484,43.0328],[-77.1363,43.0379],[-77.1351,43.012],[-76.9634,43.0122],[-76.7142,43.0247],[-76.7155,43.0652],[-76.7019,43.0758],[-76.7205,43.3454]]]},"properties":{"GID_0":"USA","GID_1":"USA.33_1","GID_2":"USA.33.60_1","NAME_1":"NewYork","NAME_2":"Wayne"}},
{"type":"Feature","geometry":{"type":"Polygon","coordinates":[[[-73.7927,40.8828],[-73.7699,40.9109],[-73.7255,40.9273],[-73.6617,40.9658],[-73.657,41.0119],[-73.7297,41.1009],[-73.4838,41.2136],[-73.5523,41.2933],[-73.5455,41.3638],[-73.9829,41.3212],[-73.9439,41.288],[-73.9739,41.2552],[-73.8922,41.1417],[-73.8936,40.9965],[-73.9172,40.9201],[-73.7927,40.8828]]]},"properties":{"GID_0":"USA","GID_1":"USA.33_1","GID_2":"USA.33.61_1","NAME_1":"NewYork","NAME_2":"Westchester"}},
{"type":"Feature","geometry":{"type":"Polygon","coordinates":[[[-78.0389,42.5214],[-78.0412,42.5305],[-78.047,42.5545],[-78.0139,42.5851],[-77.957,42.668],[-77.9545,42.6863],[-77.9521,42.8628],[-77.9946,42.8638],[-77.9953,42.8665],[-78.071,42.865],[-78.0712,42.8714],[-78.277,42.8708],[-78.4845,42.8671],[-78.4864,42.7816],[-78.4627,42.7808],[-78.4613,42.6025],[-78.4646,42.5333],[-78.4639,42.5188],[-78.0389,42.5214]]]},"properties":{"GID_0":"USA","GID_1":"USA.33_1","GID_2":"USA.33.62_1","NAME_1":"NewYork","NAME_2":"Wyoming"}},
{"type":"Feature","geometry":{"type":"Polygon","coordinates":[[[-77.3664,42.576],[-77.1438,42.5769],[-77.1441,42.4954],[-77.1292,42.4963],[-77.1078,42.5057],[-77.1071,42.4836],[-76.9894,42.485],[-76.9643,42.4591],[-76.8898,42.463],[-76.9009,42.4955],[-76.8937,42.5724],[-76.8935,42.6565],[-76.9335,42.7211],[-76.9463,42.7646],[-77.3127,42.7609],[-77.3387,42.7291],[-77.3658,42.6674],[-77.3664,42.576]]]},"properties":{"GID_0":"USA","GID_1":"USA.33_1","GID_2":"USA.33.63_1","NAME_1":"NewYork","NAME_2":"Yates"}}
]}