{"type":"FeatureCollection", "features": [
{"type":"Feature","geometry":{"type":"Polygon","coordinates":[[[-71.236,43.2842],[-71.1607,43.355],[-71.1921,43.5107],[-71.1636,43.5389],[-71.2614,43.5719],[-71.5318,43.7606],[-71.5223,43.6968],[-71.6482,43.6858],[-71.6626,43.607],[-71.7282,43.5628],[-71.639,43.4924],[-71.6199,43.4432],[-71.5607,43.4551],[-71.4006,43.375],[-71.2994,43.3207],[-71.236,43.2842]]]},"properties":{"GID_0":"USA","GID_1":"USA.30_1","GID_2":"USA.30.1_1","NAME_1":"NewHampshire","NAME_2":"Belknap"}},
{"type":"Feature","geometry":{"type":"Polygon","coordinates":[[[-71.0103,44.2845],[-71.0428,44.2372],[-71.2526,44.2441],[-71.3065,44.1367],[-71.3949,44.2151],[-71.4256,44.2106],[-71.388,44.155],[-71.3665,44.0688],[-71.3832,44.0219],[-71.3624,43.9153],[-71.5649,43.8926],[-71.5318,43.7606],[-71.2614,43.5719],[-71.1636,43.5389],[-71.1281,43.5725],[-71.112,43.5069],[-71.0374,43.5294],[-71.0245,43.4825],[-70.9614,43.5402],[-70.9743,43.5724],[-71.0103,44.2845]]]},"properties":{"GID_0":"USA","GID_1":"USA.30_1","GID_2":"USA.30.2_1","NAME_1":"NewHampshire","NAME_2":"Carroll"}},
{"type":"Feature","geometry":{"type":"Polygon","coordinates":[[[-72.4513,43.1609],[-72.4349,43.1134],[-72.4657,43.0585],[-72.4469,43.0136],[-72.4689,42.9748],[-72.5312,42.9534],[-72.5563,42.8615],[-72.5321,42.7992],[-72.4566,42.7276],[-71.9287,42.713],[-71.9748,42.7888],[-72.0065,42.9437],[-72.0629,42.9444],[-72.0343,43.1283],[-72.1071,43.1289],[-72.1786,43.1317],[-72.1572,43.1814],[-72.3767,43.1574],[-72.4513,43.1609]]]},"properties":{"GID_0":"USA","GID_1":"USA.30_1","GID_2":"USA.30.3_1","NAME_1":"NewHampshire","NAME_2":"Cheshire"}},
{"type":"Feature","geometry":{"type":"Polygon","coordinates":[[[-71.0103,44.2845],[-71.0344,44.7123],[-71.082,45.3087],[-71.1623,45.2469],[-71.23,45.2503],[-71.2839,45.3023],[-71.3603,45.2686],[-71.4132,45.2202],[-71.4342,45.1202],[-71.4847,45.0809],[-71.5428,44.9837],[-71.4969,44.9075],[-71.5497,44.8627],[-71.578,44.7893],[-71.6339,44.75],[-71.5624,44.6501],[-71.5521,44.5995],[-71.5943,44.5503],[-71.58,44.5043],[-71.7033,44.4138],[-71.7636,44.4047],[-71.6969,44.3322],[-71.5876,44.3045],[-71.5761,44.2543],[-71.4434,44.2493],[-71.4154,44.212],[-71.3949,44.2151],[-71.3065,44.1367],[-71.2526,44.2441],[-71.0428,44.2372],[-71.0103,44.2845]]]},"properties":{"GID_0":"USA","GID_1":"USA.30_1","GID_2":"USA.30.4_1","NAME_1":"NewHampshire","NAME_2":"Coos"}},
{"type":"Feature","geometry":{"type":"Polygon","coordinates":[[[-71.5318,43.7606],[-71.5649,43.8926],[-71.3624,43.9153],[-71.3832,44.0219],[-71.3665,44.0688],[-71.388,44.155],[-71.4256,44.2106],[-71.4154,44.212],[-71.4434,44.2493],[-71.5761,44.2543],[-71.5876,44.3045],[-71.6969,44.3322],[-71.7642,44.4046],[-71.8196,44.352],[-72.0282,44.3178],[-72.0656,44.2728],[-72.0693,44.1921],[-72.0428,44.1553],[-72.0463,44.0865],[-72.1154,43.9919],[-72.1186,43.9203],[-72.1728,43.8813],[-72.2043,43.7703],[-72.297,43.7071],[-72.3294,43.6001],[-72.2103,43.5852],[-72.1071,43.5534],[-71.9351,43.5281],[-71.8924,43.5747],[-71.8178,43.5439],[-71.7282,43.5628],[-71.6626,43.607],[-71.6482,43.6858],[-71.5223,43.6968],[-71.5318,43.7606]]]},"properties":{"GID_0":"USA","GID_1":"USA.30_1","GID_2":"USA.30.5_1","NAME_1":"NewHampshire","NAME_2":"Grafton"}},
{"type":"Feature","geometry":{"type":"Polygon","coordinates":[[[-71.2469,42.7432],[-71.3515,42.7719],[-71.3864,42.8228],[-71.427,42.8247],[-71.4513,42.9306],[-71.375,42.9388],[-71.3924,43.0084],[-71.4494,43.0197],[-71.5183,43.0684],[-71.6412,43.0538],[-71.6678,43.1525],[-71.8566,43.1152],[-71.9136,43.2069],[-72.0366,43.1824],[-72.038,43.1287],[-72.0343,43.1283],[-72.0629,42.9444],[-72.0065,42.9437],[-71.9748,42.7888],[-71.9287,42.713],[-71.2968,42.6978],[-71.2469,42.7432]]]},"properties":{"GID_0":"USA","GID_1":"USA.30_1","GID_2":"USA.30.6_1","NAME_1":"NewHampshire","NAME_2":"Hillsborough"}},
{"type":"Feature","geometry":{"type":"Polygon","coordinates":[[[-71.7282,43.5628],[-71.8178,43.5439],[-71.8924,43.5747],[-71.9996,43.4574],[-72.0537,43.4403],[-72.0513,43.3757],[-72.0899,43.3223],[-72.0654,43.2546],[-72.0453,43.2542],[-72.0419,43.2224],[-72.009,43.1875],[-71.9136,43.2069],[-71.8566,43.1152],[-71.6678,43.1525],[-71.6412,43.0538],[-71.5183,43.0684],[-71.4494,43.0197],[-71.3924,43.0084],[-71.3936,43.0379],[-71.2473,43.2738],[-71.236,43.2842],[-71.2994,43.3207],[-71.4006,43.375],[-71.5607,43.4551],[-71.6199,43.4432],[-71.639,43.4924],[-71.7282,43.5628]]]},"properties":{"GID_0":"USA","GID_1":"USA.30_1","GID_2":"USA.30.7_1","NAME_1":"NewHampshire","NAME_2":"Merrimack"}},
{"type":"Feature","geometry":{"type":"Polygon","coordinates":[[[-71.2469,42.7432],[-71.1843,42.7375],[-71.1891,42.7907],[-71.1333,42.8215],[-71.066,42.8063],[-71.0319,42.858],[-70.9166,42.8867],[-70.8512,42.8613],[-70.7153,43.0347],[-70.7667,43.0919],[-70.8208,43.1183],[-70.9167,43.0558],[-70.9337,43.0899],[-71.073,43.0814],[-71.0268,43.1376],[-71.2473,43.2738],[-71.3936,43.0379],[-71.3924,43.0084],[-71.375,42.9388],[-71.4513,42.9306],[-71.427,42.8247],[-71.3864,42.8228],[-71.3515,42.7719],[-71.2469,42.7432]]]},"properties":{"GID_0":"USA","GID_1":"USA.30_1","GID_2":"USA.30.8_1","NAME_1":"NewHampshire","NAME_2":"Rockingham"}},
{"type":"Feature","geometry":{"type":"Polygon","coordinates":[[[-70.9337,43.0899],[-70.8853,43.0819],[-70.835,43.1489],[-70.8123,43.2247],[-70.9744,43.3521],[-70.963,43.4432],[-71.0245,43.4825],[-71.0374,43.5294],[-71.112,43.5069],[-71.1281,43.5725],[-71.1921,43.5107],[-71.1607,43.355],[-71.2473,43.2738],[-71.0268,43.1376],[-71.073,43.0814],[-70.9337,43.0899]]]},"properties":{"GID_0":"USA","GID_1":"USA.30_1","GID_2":"USA.30.9_1","NAME_1":"NewHampshire","NAME_2":"Strafford"}},
{"type":"Feature","geometry":{"type":"Polygon","coordinates":[[[-72.038,43.1287],[-72.0366,43.1824],[-72.009,43.1875],[-72.0419,43.2224],[-72.0453,43.2542],[-72.0654,43.2546],[-72.0899,43.3223],[-72.0513,43.3757],[-72.0537,43.4403],[-71.9996,43.4574],[-71.9351,43.5281],[-72.1071,43.5534],[-72.2103,43.5852],[-72.3294,43.6001],[-72.3738,43.5775],[-72.3978,43.5158],[-72.3816,43.4814],[-72.4127,43.3641],[-72.3951,43.3137],[-72.4381,43.2468],[-72.4513,43.1609],[-72.3767,43.1574],[-72.1572,43.1814],[-72.1786,43.1317],[-72.1071,43.1289],[-72.038,43.1287]]]},"properties":{"GID_0":"USA","GID_1":"USA.30_1","GID_2":"USA.30.10_1","NAME_1":"NewHampshire","NAME_2":"Sullivan"}}
]}