{"type":"FeatureCollection", "features": [
{"type":"Feature","geometry":{"type":"Polygon","coordinates":[[[-75.3233,38.9523],[-75.3126,38.9519],[-75.3194,38.9897],[-75.341,39.0197],[-75.3914,39.0525],[-75.4039,39.0722],[-75.3998,39.0989],[-75.4128,39.1508],[-75.3957,39.1896],[-75.4081,39.2642],[-75.4342,39.2911],[-75.4389,39.3133],[-75.4825,39.3386],[-75.4907,39.3534],[-75.5056,39.365],[-75.5591,39.3446],[-75.5758,39.312],[-75.615,39.3101],[-75.6679,39.2906],[-75.6869,39.2978],[-75.7594,39.2963],[-75.7229,38.8295],[-75.5546,38.8365],[-75.5221,38.8551],[-75.5073,38.8796],[-75.4612,38.9118],[-75.4009,38.9176],[-75.3973,38.948],[-75.3789,38.9602],[-75.3233,38.9523]]]},"properties":{"GID_0":"USA","GID_1":"USA.8_1","GID_2":"USA.8.1_1","NAME_1":"Delaware","NAME_2":"Kent"}},
{"type":"Feature","geometry":{"type":"Polygon","coordinates":[[[-75.4907,39.3534],[-75.4672,39.3722],[-75.5622,39.4706],[-75.5617,39.4974],[-75.5322,39.4983],[-75.5154,39.5814],[-75.5528,39.6029],[-75.5603,39.6255],[-75.5119,39.673],[-75.5075,39.6962],[-75.4775,39.7332],[-75.4617,39.7627],[-75.4308,39.787],[-75.4053,39.7972],[-75.4547,39.8215],[-75.5307,39.8401],[-75.5955,39.8382],[-75.6775,39.8156],[-75.724,39.7866],[-75.7551,39.756],[-75.7723,39.7231],[-75.7875,39.7231],[-75.7881,39.6501],[-75.7594,39.2963],[-75.6869,39.2978],[-75.6679,39.2906],[-75.615,39.3101],[-75.5758,39.312],[-75.5591,39.3446],[-75.5056,39.365],[-75.4907,39.3534]]]},"properties":{"GID_0":"USA","GID_1":"USA.8_1","GID_2":"USA.8.2_1","NAME_1":"Delaware","NAME_2":"NewCastle"}},
{"type":"Feature","geometry":{"type":"Polygon","coordinates":[[[-75.5546,38.8365],[-75.7224,38.8295],[-75.7069,38.5976],[-75.6942,38.4593],[-75.328,38.4507],[-75.1237,38.4495],[-75.0992,38.4375],[-75.0792,38.4583],[-75.0502,38.4494],[-75.0583,38.5872],[-75.0906,38.5767],[-75.1344,38.5933],[-75.1597,38.58],[-75.1897,38.5875],[-75.1553,38.6078],[-75.1011,38.6172],[-75.15107167381977,38.643104120171664],[-75.1306,38.6417],[-75.1331,38.6878],[-75.0794,38.6947],[-75.0836,38.7753],[-75.1008,38.7867],[-75.1303,38.7814],[-75.1856,38.8033],[-75.2339,38.8453],[-75.3042,38.9136],[-75.3233,38.9523],[-75.3789,38.9602],[-75.3973,38.948],[-75.4009,38.9176],[-75.4612,38.9118],[-75.5073,38.8796],[-75.5221,38.8551],[-75.5546,38.8365]]]},"properties":{"GID_0":"USA","GID_1":"USA.8_1","GID_2":"USA.8.3_1","NAME_1":"Delaware","NAME_2":"Sussex"}}
]}