{"type":"FeatureCollection", "features": [
{"type":"Feature","geometry":{"type":"Polygon","coordinates":[[[-90.9117,40.1049],[-90.9105,40.1925],[-91.5063,40.2004],[-91.4929,40.0309],[-91.4271,39.939],[-91.4473,39.8743],[-91.3617,39.788],[-91.3654,39.759],[-90.9169,39.7566],[-90.9155,39.9893],[-90.9117,40.1049]]]},"properties":{"GID_0":"USA","GID_1":"USA.14_1","GID_2":"USA.14.1_1","NAME_1":"Illinois","NAME_2":"Adams"}},
{"type":"Feature","geometry":{"type":"Polygon","coordinates":[[[-89.2477,37.3358],[-89.4815,37.336],[-89.518,37.2767],[-89.4654,37.2526],[-89.4579,37.1869],[-89.3772,37.0912],[-89.3848,37.0454],[-89.2909,36.9895],[-89.2504,37.0633],[-89.1707,37.0681],[-89.2664,37.1119],[-89.2677,37.2266],[-89.2055,37.3153],[-89.2477,37.3358]]]},"properties":{"GID_0":"USA","GID_1":"USA.14_1","GID_2":"USA.14.2_1","NAME_1":"Illinois","NAME_2":"Alexander"}},
{"type":"Feature","geometry":{"type":"Polygon","coordinates":[[[-89.2546,38.7409],[-89.2526,38.9983],[-89.2531,39.026],[-89.5866,39.0271],[-89.5871,38.9995],[-89.6398,38.9994],[-89.6378,38.8743],[-89.6017,38.8744],[-89.5968,38.742],[-89.2546,38.7409]]]},"properties":{"GID_0":"USA","GID_1":"USA.14_1","GID_2":"USA.14.3_1","NAME_1":"Illinois","NAME_2":"Bond"}},
{"type":"Feature","geometry":{"type":"Polygon","coordinates":[[[-88.7061,42.1564],[-88.7059,42.4972],[-88.9385,42.4984],[-88.94,42.1549],[-88.7061,42.1564]]]},"properties":{"GID_0":"USA","GID_1":"USA.14_1","GID_2":"USA.14.4_1","NAME_1":"Illinois","NAME_2":"Boone"}},
{"type":"Feature","geometry":{"type":"Polygon","coordinates":[[[-90.9156,39.8442],[-90.5723,39.839],[-90.5865,39.871],[-90.5748,39.8897],[-90.5151,39.9859],[-90.6017,40.0015],[-90.6764,40.0507],[-90.6965,40.104],[-90.9117,40.1049],[-90.9155,39.9893],[-90.9156,39.8442]]]},"properties":{"GID_0":"USA","GID_1":"USA.14_1","GID_2":"USA.14.5_1","NAME_1":"Illinois","NAME_2":"Brown"}},
{"type":"Feature","geometry":{"type":"Polygon","coordinates":[[[-89.168,41.5845],[-89.3337,41.5866],[-89.861,41.5858],[-89.8568,41.2345],[-89.6394,41.2331],[-89.6392,41.1487],[-89.4659,41.1488],[-89.4665,41.2336],[-89.3553,41.2336],[-89.3405,41.2957],[-89.2677,41.3219],[-89.165,41.3099],[-89.168,41.5845]]]},"properties":{"GID_0":"USA","GID_1":"USA.14_1","GID_2":"USA.14.6_1","NAME_1":"Illinois","NAME_2":"Bureau"}},
{"type":"Feature","geometry":{"type":"Polygon","coordinates":[[[-90.6145,39.3952],[-90.9391,39.4005],[-90.7971,39.3118],[-90.725,39.2441],[-90.6825,39.1095],[-90.7131,39.0513],[-90.656,38.9208],[-90.5728,38.8692],[-90.4493,38.9685],[-90.5422,38.9652],[-90.576,39.0084],[-90.6018,39.1061],[-90.6038,39.1206],[-90.611,39.1677],[-90.5928,39.2209],[-90.6088,39.2575],[-90.6145,39.3952]]]},"properties":{"GID_0":"USA","GID_1":"USA.14_1","GID_2":"USA.14.7_1","NAME_1":"Illinois","NAME_2":"Calhoun"}},
{"type":"Feature","geometry":{"type":"Polygon","coordinates":[[[-90.3225,42.1974],[-90.1708,42.1249],[-90.1393,42.0083],[-90.1568,41.9309],[-89.8604,41.9322],[-89.6858,41.9303],[-89.6857,42.1124],[-89.689,42.201],[-89.8612,42.1992],[-89.9776,42.1979],[-90.3225,42.1974]]]},"properties":{"GID_0":"USA","GID_1":"USA.14_1","GID_2":"USA.14.8_1","NAME_1":"Illinois","NAME_2":"Carroll"}},
{"type":"Feature","geometry":{"type":"Polygon","coordinates":[[[-90.5836,39.8756],[-89.9939,39.8729],[-89.9949,40.1119],[-89.9997,40.1119],[-90.1652,40.0589],[-90.2944,40.0645],[-90.3546,40.1245],[-90.3679,40.1244],[-90.3822,40.1125],[-90.4357,40.0223],[-90.5151,39.9859],[-90.5748,39.8897],[-90.5836,39.8756]]]},"properties":{"GID_0":"USA","GID_1":"USA.14_1","GID_2":"USA.14.9_1","NAME_1":"Illinois","NAME_2":"Cass"}},
{"type":"Feature","geometry":{"type":"Polygon","coordinates":[[[-87.937,39.8791],[-87.9427,40.2252],[-87.9303,40.3226],[-87.9328,40.401],[-88.4594,40.3974],[-88.4594,40.3094],[-88.4613,40.2242],[-88.4625,40.2237],[-88.4639,39.8778],[-87.937,39.8791]]]},"properties":{"GID_0":"USA","GID_1":"USA.14_1","GID_2":"USA.14.10_1","NAME_1":"Illinois","NAME_2":"Champaign"}},
{"type":"Feature","geometry":{"type":"Polygon","coordinates":[[[-89.2193,39.811],[-89.3122,39.7704],[-89.4211,39.7501],[-89.4248,39.6835],[-89.4792,39.6395],[-89.5353,39.6395],[-89.5316,39.3458],[-89.2526,39.3469],[-89.0254,39.3453],[-89.0251,39.6536],[-89.141,39.6535],[-89.1439,39.7972],[-89.2193,39.811]]]},"properties":{"GID_0":"USA","GID_1":"USA.14_1","GID_2":"USA.14.11_1","NAME_1":"Illinois","NAME_2":"Christian"}},
{"type":"Feature","geometry":{"type":"Polygon","coordinates":[[[-88.0139,39.3795],[-88.0086,39.175],[-87.7461,39.1793],[-87.625,39.1571],[-87.5738,39.2234],[-87.6061,39.3128],[-87.5304,39.3516],[-87.5309,39.4767],[-87.685,39.4885],[-87.9033,39.4833],[-88.0159,39.4825],[-88.0139,39.3795]]]},"properties":{"GID_0":"USA","GID_1":"USA.14_1","GID_2":"USA.14.12_1","NAME_1":"Illinois","NAME_2":"Clark"}},
{"type":"Feature","geometry":{"type":"Polygon","coordinates":[[[-88.6946,38.9139],[-88.6998,38.6062],[-88.5149,38.6062],[-88.416,38.6027],[-88.2553,38.5998],[-88.2552,38.6057],[-88.3006,38.6352],[-88.2589,38.7308],[-88.2605,38.8483],[-88.3626,38.8524],[-88.3623,38.9109],[-88.6301,38.9153],[-88.6946,38.9139]]]},"properties":{"GID_0":"USA","GID_1":"USA.14_1","GID_2":"USA.14.13_1","NAME_1":"Illinois","NAME_2":"Clay"}},
{"type":"Feature","geometry":{"type":"Polygon","coordinates":[[[-89.5968,38.742],[-89.5967,38.6559],[-89.7069,38.6562],[-89.7057,38.4187],[-89.5795,38.4828],[-89.4848,38.4719],[-89.3478,38.5144],[-89.1443,38.5041],[-89.1395,38.6495],[-89.1396,38.7361],[-89.2546,38.7409],[-89.5968,38.742]]]},"properties":{"GID_0":"USA","GID_1":"USA.14_1","GID_2":"USA.14.14_1","NAME_1":"Illinois","NAME_2":"Clinton"}},
{"type":"Feature","geometry":{"type":"Polygon","coordinates":[[[-87.9605,39.4827],[-87.9649,39.6142],[-87.9657,39.6868],[-88.0267,39.6871],[-88.0644,39.6839],[-88.0638,39.6535],[-88.4737,39.6521],[-88.4723,39.3742],[-88.4378,39.373],[-88.0139,39.3795],[-88.0159,39.4825],[-87.9605,39.4827]]]},"properties":{"GID_0":"USA","GID_1":"USA.14_1","GID_2":"USA.14.15_1","NAME_1":"Illinois","NAME_2":"Coles"}},
{"type":"Feature","geometry":{"type":"Polygon","coordinates":[[[-88.0308,41.6868],[-88.0299,41.6428],[-87.9106,41.6445],[-87.9071,41.5578],[-87.7923,41.5595],[-87.7888,41.4723],[-87.5265,41.4712],[-87.524,41.7135],[-87.6031,41.8384],[-87.6747,42.0692],[-87.7393,42.1296],[-87.7572,42.1548],[-88.0042,42.157],[-88.0042,42.1557],[-88.2382,42.155],[-88.2632,42.0685],[-88.2634,41.9876],[-88.1473,41.9883],[-87.9175,41.9938],[-87.9139,41.7172],[-88.0308,41.6868]]]},"properties":{"GID_0":"USA","GID_1":"USA.14_1","GID_2":"USA.14.16_1","NAME_1":"Illinois","NAME_2":"Cook"}},
{"type":"Feature","geometry":{"type":"Polygon","coordinates":[[[-87.951,39.1766],[-87.9447,38.9956],[-87.9455,38.8506],[-87.5306,38.8524],[-87.5132,38.9554],[-87.5774,38.989],[-87.5724,39.0607],[-87.6549,39.1357],[-87.625,39.1571],[-87.7461,39.1793],[-87.951,39.1766]]]},"properties":{"GID_0":"USA","GID_1":"USA.14_1","GID_2":"USA.14.17_1","NAME_1":"Illinois","NAME_2":"Crawford"}},
{"type":"Feature","geometry":{"type":"Polygon","coordinates":[[[-88.0139,39.3795],[-88.4378,39.373],[-88.4723,39.3742],[-88.4698,39.1715],[-88.2259,39.1702],[-88.0086,39.175],[-88.0139,39.3795]]]},"properties":{"GID_0":"USA","GID_1":"USA.14_1","GID_2":"USA.14.18_1","NAME_1":"Illinois","NAME_2":"Cumberland"}},
{"type":"Feature","geometry":{"type":"Polygon","coordinates":[[[-88.94,42.1549],[-88.9408,41.9778],[-88.9381,41.6291],[-88.8158,41.6321],[-88.602,41.6331],[-88.6047,41.7085],[-88.6026,42.0676],[-88.5891,42.1556],[-88.7061,42.1564],[-88.94,42.1549]]]},"properties":{"GID_0":"USA","GID_1":"USA.14_1","GID_2":"USA.14.19_1","NAME_1":"Illinois","NAME_2":"DeKalb"}},
{"type":"Feature","geometry":{"type":"Polygon","coordinates":[[[-89.1463,40.0493],[-89.0309,40.0503],[-88.8032,40.056],[-88.7455,40.0557],[-88.7456,40.0992],[-88.6886,40.1442],[-88.5756,40.2813],[-88.9733,40.2836],[-89.1493,40.2828],[-89.1463,40.0493]]]},"properties":{"GID_0":"USA","GID_1":"USA.14_1","GID_2":"USA.14.20_1","NAME_1":"Illinois","NAME_2":"DeWitt"}},
{"type":"Feature","geometry":{"type":"Polygon","coordinates":[[[-88.4639,39.8778],[-88.4645,39.7907],[-88.4735,39.7908],[-88.4737,39.6521],[-88.0638,39.6535],[-88.0644,39.6839],[-88.0267,39.6871],[-87.9657,39.6868],[-87.9682,39.7925],[-87.937,39.8791],[-88.4639,39.8778]]]},"properties":{"GID_0":"USA","GID_1":"USA.14_1","GID_2":"USA.14.21_1","NAME_1":"Illinois","NAME_2":"Douglas"}},
{"type":"Feature","geometry":{"type":"Polygon","coordinates":[[[-88.2634,41.9876],[-88.2625,41.7251],[-88.0317,41.7295],[-88.0308,41.6868],[-87.9139,41.7172],[-87.9175,41.9938],[-88.1473,41.9883],[-88.2634,41.9876]]]},"properties":{"GID_0":"USA","GID_1":"USA.14_1","GID_2":"USA.14.22_1","NAME_1":"Illinois","NAME_2":"Dupage"}},
{"type":"Feature","geometry":{"type":"Polygon","coordinates":[[[-87.5309,39.4767],[-87.5323,39.8821],[-87.937,39.8791],[-87.9682,39.7925],[-87.9649,39.6142],[-87.9605,39.4827],[-87.685,39.4885],[-87.5309,39.4767]]]},"properties":{"GID_0":"USA","GID_1":"USA.14_1","GID_2":"USA.14.23_1","NAME_1":"Illinois","NAME_2":"Edgar"}},
{"type":"Feature","geometry":{"type":"Polygon","coordinates":[[[-88.1475,38.5688],[-88.147,38.4677],[-88.1503,38.2565],[-87.9919,38.2614],[-87.9502,38.3212],[-87.9783,38.3846],[-87.9499,38.4214],[-87.9437,38.4617],[-87.9547,38.4999],[-87.9542,38.5216],[-87.9405,38.5305],[-87.9526,38.5438],[-87.9569,38.5606],[-87.955,38.5701],[-88.1475,38.5688]]]},"properties":{"GID_0":"USA","GID_1":"USA.14_1","GID_2":"USA.14.24_1","NAME_1":"Illinois","NAME_2":"Edwards"}},
{"type":"Feature","geometry":{"type":"Polygon","coordinates":[[[-88.3623,38.9109],[-88.3606,39.1706],[-88.4698,39.1715],[-88.4704,39.2141],[-88.6337,39.2159],[-88.8077,39.2156],[-88.807,38.911],[-88.6301,38.9153],[-88.3623,38.9109]]]},"properties":{"GID_0":"USA","GID_1":"USA.14_1","GID_2":"USA.14.25_1","NAME_1":"Illinois","NAME_2":"Effingham"}},
{"type":"Feature","geometry":{"type":"Polygon","coordinates":[[[-89.2546,38.7409],[-89.1396,38.7361],[-89.1392,38.824],[-88.6962,38.8256],[-88.6946,38.9139],[-88.807,38.911],[-88.8077,39.2156],[-89.2531,39.2164],[-89.2526,38.9983],[-89.2546,38.7409]]]},"properties":{"GID_0":"USA","GID_1":"USA.14_1","GID_2":"USA.14.26_1","NAME_1":"Illinois","NAME_2":"Fayette"}},
{"type":"Feature","geometry":{"type":"Polygon","coordinates":[[[-87.9328,40.401],[-87.9364,40.4873],[-88.1195,40.4876],[-88.1315,40.9962],[-88.2467,40.9929],[-88.2357,40.6185],[-88.4592,40.6169],[-88.4594,40.3974],[-87.9328,40.401]]]},"properties":{"GID_0":"USA","GID_1":"USA.14_1","GID_2":"USA.14.27_1","NAME_1":"Illinois","NAME_2":"Ford"}},
{"type":"Feature","geometry":{"type":"Polygon","coordinates":[[[-88.7056,38.1263],[-88.8156,38.1274],[-88.9314,38.1271],[-89.011,38.1251],[-89.1327,38.126],[-89.1231,38.0603],[-89.1803,37.9516],[-89.1516,37.9516],[-89.1515,37.8645],[-88.7055,37.8643],[-88.7046,37.9508],[-88.7071,38.0392],[-88.7056,38.1263]]]},"properties":{"GID_0":"USA","GID_1":"USA.14_1","GID_2":"USA.14.28_1","NAME_1":"Illinois","NAME_2":"Franklin"}},
{"type":"Feature","geometry":{"type":"Polygon","coordinates":[[[-90.4466,40.7147],[-90.4511,40.19],[-90.2013,40.1825],[-90.1917,40.1917],[-90.121,40.2328],[-90.0372,40.3747],[-89.9662,40.4122],[-89.9458,40.4277],[-89.9115,40.4423],[-89.8714,40.5132],[-89.8737,40.6247],[-89.9894,40.6261],[-89.987,40.7114],[-90.4466,40.7147]]]},"properties":{"GID_0":"USA","GID_1":"USA.14_1","GID_2":"USA.14.29_1","NAME_1":"Illinois","NAME_2":"Fulton"}},
{"type":"Feature","geometry":{"type":"Polygon","coordinates":[[[-88.1233,37.5717],[-88.1567,37.6484],[-88.1182,37.7105],[-88.0352,37.7698],[-88.0304,37.8457],[-88.0897,37.8995],[-88.1362,37.9127],[-88.3742,37.9097],[-88.3719,37.6028],[-88.1907,37.6024],[-88.1233,37.5717]]]},"properties":{"GID_0":"USA","GID_1":"USA.14_1","GID_2":"USA.14.30_1","NAME_1":"Illinois","NAME_2":"Gallatin"}},
{"type":"Feature","geometry":{"type":"Polygon","coordinates":[[[-90.6038,39.1206],[-90.5827,39.1775],[-90.3138,39.175],[-90.3143,39.2248],[-90.2021,39.226],[-90.1502,39.2625],[-90.1555,39.5195],[-90.5813,39.5215],[-90.5823,39.5111],[-90.6145,39.3952],[-90.6088,39.2575],[-90.5928,39.2209],[-90.611,39.1677],[-90.6038,39.1206]]]},"properties":{"GID_0":"USA","GID_1":"USA.14_1","GID_2":"USA.14.31_1","NAME_1":"Illinois","NAME_2":"Greene"}},
{"type":"Feature","geometry":{"type":"Polygon","coordinates":[[[-88.2442,41.2034],[-88.2524,41.4636],[-88.5975,41.4565],[-88.59,41.2826],[-88.5873,41.1106],[-88.2414,41.1153],[-88.2442,41.2034]]]},"properties":{"GID_0":"USA","GID_1":"USA.14_1","GID_2":"USA.14.32_1","NAME_1":"Illinois","NAME_2":"Grundy"}},
{"type":"Feature","geometry":{"type":"Polygon","coordinates":[[[-88.705,37.9078],[-88.3742,37.9097],[-88.3713,38.2564],[-88.7042,38.2572],[-88.7071,38.0392],[-88.7046,37.9508],[-88.705,37.9078]]]},"properties":{"GID_0":"USA","GID_1":"USA.14_1","GID_2":"USA.14.33_1","NAME_1":"Illinois","NAME_2":"Hamilton"}},
{"type":"Feature","geometry":{"type":"Polygon","coordinates":[[[-90.9105,40.1925],[-90.9079,40.4619],[-90.9041,40.6375],[-91.1834,40.639],[-91.3446,40.6086],[-91.4131,40.5471],[-91.3643,40.5],[-91.3654,40.3993],[-91.4658,40.3334],[-91.5063,40.2004],[-90.9105,40.1925]]]},"properties":{"GID_0":"USA","GID_1":"USA.14_1","GID_2":"USA.14.34_1","NAME_1":"Illinois","NAME_2":"Hancock"}},
{"type":"Feature","geometry":{"type":"Polygon","coordinates":[[[-88.3719,37.6028],[-88.4091,37.6027],[-88.4146,37.425],[-88.3714,37.4074],[-88.2593,37.4575],[-88.085,37.4776],[-88.0736,37.5317],[-88.1233,37.5717],[-88.1907,37.6024],[-88.3719,37.6028]]]},"properties":{"GID_0":"USA","GID_1":"USA.14_1","GID_2":"USA.14.35_1","NAME_1":"Illinois","NAME_2":"Hardin"}},
{"type":"Feature","geometry":{"type":"Polygon","coordinates":[[[-90.9041,40.6375],[-90.789,40.636],[-90.7866,41.0697],[-90.9489,41.0718],[-90.9531,40.9567],[-91.0894,40.8235],[-91.1148,40.6826],[-91.1834,40.639],[-90.9041,40.6375]]]},"properties":{"GID_0":"USA","GID_1":"USA.14_1","GID_2":"USA.14.36_1","NAME_1":"Illinois","NAME_2":"Henderson"}},
{"type":"Feature","geometry":{"type":"Polygon","coordinates":[[[-89.861,41.5858],[-90.1895,41.5862],[-90.1989,41.5408],[-90.339,41.5118],[-90.4321,41.4562],[-90.4397,41.1521],[-89.8686,41.1501],[-89.8568,41.2345],[-89.861,41.5858]]]},"properties":{"GID_0":"USA","GID_1":"USA.14_1","GID_2":"USA.14.37_1","NAME_1":"Illinois","NAME_2":"Henry"}},
{"type":"Feature","geometry":{"type":"Polygon","coordinates":[[[-87.9364,40.4873],[-87.5261,40.4911],[-87.5265,41.0142],[-88.1315,40.9962],[-88.1195,40.4876],[-87.9364,40.4873]]]},"properties":{"GID_0":"USA","GID_1":"USA.14_1","GID_2":"USA.14.38_1","NAME_1":"Illinois","NAME_2":"Iroquois"}},
{"type":"Feature","geometry":{"type":"Polygon","coordinates":[[[-89.1803,37.9516],[-89.5958,37.9552],[-89.6738,37.8027],[-89.6707,37.7575],[-89.5152,37.6892],[-89.521,37.5722],[-89.449,37.5999],[-89.1545,37.6007],[-89.1519,37.773],[-89.1516,37.9516],[-89.1803,37.9516]]]},"properties":{"GID_0":"USA","GID_1":"USA.14_1","GID_2":"USA.14.39_1","NAME_1":"Illinois","NAME_2":"Jackson"}},
{"type":"Feature","geometry":{"type":"Polygon","coordinates":[[[-88.0086,39.175],[-88.2259,39.1702],[-88.3606,39.1706],[-88.3626,38.8524],[-88.1996,38.8467],[-87.9455,38.8506],[-87.9447,38.9956],[-87.951,39.1766],[-88.0086,39.175]]]},"properties":{"GID_0":"USA","GID_1":"USA.14_1","GID_2":"USA.14.40_1","NAME_1":"Illinois","NAME_2":"Jasper"}},
{"type":"Feature","geometry":{"type":"Polygon","coordinates":[[[-88.7056,38.1263],[-88.7018,38.4752],[-89.1444,38.4741],[-89.1514,38.1265],[-89.011,38.1251],[-88.9314,38.1271],[-88.7056,38.1263]]]},"properties":{"GID_0":"USA","GID_1":"USA.14_1","GID_2":"USA.14.41_1","NAME_1":"Illinois","NAME_2":"Jefferson"}},
{"type":"Feature","geometry":{"type":"Polygon","coordinates":[[[-90.4493,38.9685],[-90.2767,38.9254],[-90.2745,38.9989],[-90.1454,38.9983],[-90.1502,39.2625],[-90.2021,39.226],[-90.3143,39.2248],[-90.3138,39.175],[-90.5827,39.1775],[-90.6038,39.1206],[-90.6018,39.1061],[-90.576,39.0084],[-90.5422,38.9652],[-90.4493,38.9685]]]},"properties":{"GID_0":"USA","GID_1":"USA.14_1","GID_2":"USA.14.42_1","NAME_1":"Illinois","NAME_2":"Jersey"}},
{"type":"Feature","geometry":{"type":"Polygon","coordinates":[[[-89.9194,42.1986],[-89.9256,42.5075],[-90.6415,42.5093],[-90.6533,42.48],[-90.4762,42.3823],[-90.4162,42.3282],[-90.4105,42.2488],[-90.3225,42.1974],[-89.9194,42.1986]]]},"properties":{"GID_0":"USA","GID_1":"USA.14_1","GID_2":"USA.14.43_1","NAME_1":"Illinois","NAME_2":"JoDaviess"}},
{"type":"Feature","geometry":{"type":"Polygon","coordinates":[[[-88.707,37.3385],[-88.7072,37.6018],[-88.8321,37.5985],[-89.0412,37.5981],[-89.0417,37.4245],[-89.0425,37.2957],[-88.9499,37.2972],[-88.9342,37.303],[-88.9064,37.3169],[-88.9004,37.335],[-88.707,37.3385]]]},"properties":{"GID_0":"USA","GID_1":"USA.14_1","GID_2":"USA.14.44_1","NAME_1":"Illinois","NAME_2":"Johnson"}},
{"type":"Feature","geometry":{"type":"Polygon","coordinates":[[[-88.2382,42.155],[-88.5891,42.1556],[-88.6026,42.0676],[-88.6046,41.7207],[-88.2625,41.7251],[-88.2632,42.0685],[-88.2382,42.155]]]},"properties":{"GID_0":"USA","GID_1":"USA.14_1","GID_2":"USA.14.45_1","NAME_1":"Illinois","NAME_2":"Kane"}},
{"type":"Feature","geometry":{"type":"Polygon","coordinates":[[[-88.1315,40.9962],[-87.5265,41.0142],[-87.5265,41.2983],[-88.0145,41.294],[-88.0133,41.2073],[-88.2442,41.2034],[-88.2414,41.1153],[-88.2524,41.115],[-88.2467,40.9929],[-88.1315,40.9962]]]},"properties":{"GID_0":"USA","GID_1":"USA.14_1","GID_2":"USA.14.46_1","NAME_1":"Illinois","NAME_2":"Kankakee"}},
{"type":"Feature","geometry":{"type":"Polygon","coordinates":[[[-88.602,41.6331],[-88.5975,41.4565],[-88.2524,41.4636],[-88.2625,41.7251],[-88.6046,41.7207],[-88.602,41.6331]]]},"properties":{"GID_0":"USA","GID_1":"USA.14_1","GID_2":"USA.14.47_1","NAME_1":"Illinois","NAME_2":"Kendall"}},
{"type":"Feature","geometry":{"type":"Polygon","coordinates":[[[-89.987,40.7114],[-89.9852,40.799],[-89.9869,41.1497],[-90.4397,41.1521],[-90.441,40.8881],[-90.4466,40.7147],[-89.987,40.7114]]]},"properties":{"GID_0":"USA","GID_1":"USA.14_1","GID_2":"USA.14.48_1","NAME_1":"Illinois","NAME_2":"Knox"}},
{"type":"Feature","geometry":{"type":"Polygon","coordinates":[[[-89.165,41.3099],[-89.1617,41.1048],[-89.0477,41.1053],[-89.0482,40.9261],[-88.9314,40.9279],[-88.9306,41.1067],[-88.5873,41.1106],[-88.59,41.2826],[-88.5975,41.4565],[-88.602,41.6331],[-88.8158,41.6321],[-89.0099,41.6271],[-89.1672,41.629],[-89.168,41.5845],[-89.165,41.3099]]]},"properties":{"GID_0":"USA","GID_1":"USA.14_1","GID_2":"USA.14.49_1","NAME_1":"Illinois","NAME_2":"LaSalle"}},
{"type":"Feature","geometry":{"type":"Polygon","coordinates":[[[-87.7572,42.1548],[-87.7722,42.1755],[-87.7962,42.2067],[-87.8068,42.2282],[-87.8341,42.3062],[-87.8048,42.3881],[-87.8029,42.4962],[-88.1971,42.4981],[-88.1992,42.1555],[-88.0042,42.1557],[-88.0042,42.157],[-87.7572,42.1548]]]},"properties":{"GID_0":"USA","GID_1":"USA.14_1","GID_2":"USA.14.50_1","NAME_1":"Illinois","NAME_2":"Lake"}},
{"type":"Feature","geometry":{"type":"Polygon","coordinates":[[[-87.524,41.7135],[-87.524,41.7603],[-87.2071,41.7607],[-87.069,42.3391],[-87.0181,42.4947],[-87.8029,42.4962],[-87.8048,42.3881],[-87.8341,42.3062],[-87.8068,42.2282],[-87.7962,42.2067],[-87.7722,42.1755],[-87.7393,42.1296],[-87.6747,42.0692],[-87.6031,41.8384],[-87.524,41.7135]]]},"properties":{"GID_0":"USA","GID_1":"USA.14_1","GID_2":"USA.14.51_1","NAME_1":"Illinois","NAME_2":"LakeMichigan"}},
{"type":"Feature","geometry":{"type":"Polygon","coordinates":[[[-87.9071,38.8506],[-87.912,38.57],[-87.6507,38.5687],[-87.5986,38.6652],[-87.5369,38.683],[-87.4971,38.7431],[-87.5306,38.8524],[-87.9071,38.8506]]]},"properties":{"GID_0":"USA","GID_1":"USA.14_1","GID_2":"USA.14.52_1","NAME_1":"Illinois","NAME_2":"Lawrence"}},
{"type":"Feature","geometry":{"type":"Polygon","coordinates":[[[-89.168,41.5845],[-89.1672,41.629],[-89.0099,41.6271],[-88.9381,41.6291],[-88.9403,41.8924],[-89.3614,41.8886],[-89.4267,41.9077],[-89.4711,41.9122],[-89.6296,41.9017],[-89.6305,41.7365],[-89.6309,41.5867],[-89.3337,41.5866],[-89.168,41.5845]]]},"properties":{"GID_0":"USA","GID_1":"USA.14_1","GID_2":"USA.14.53_1","NAME_1":"Illinois","NAME_2":"Lee"}},
{"type":"Feature","geometry":{"type":"Polygon","coordinates":[[[-88.2467,40.9929],[-88.2524,41.115],[-88.9306,41.1067],[-88.9314,40.9279],[-88.9298,40.7537],[-88.5827,40.7567],[-88.5748,40.6165],[-88.2357,40.6185],[-88.2467,40.9929]]]},"properties":{"GID_0":"USA","GID_1":"USA.14_1","GID_2":"USA.14.54_1","NAME_1":"Illinois","NAME_2":"Livingston"}},
{"type":"Feature","geometry":{"type":"Polygon","coordinates":[[[-89.1493,40.2828],[-89.2632,40.2817],[-89.2643,40.3266],[-89.6038,40.3209],[-89.6013,40.2189],[-89.6037,40.2184],[-89.6011,40.0919],[-89.5794,40.0924],[-89.5781,39.9759],[-89.4839,39.9768],[-89.4845,39.9328],[-89.4047,39.9188],[-89.1439,39.9156],[-89.1493,40.2828]]]},"properties":{"GID_0":"USA","GID_1":"USA.14_1","GID_2":"USA.14.55_1","NAME_1":"Illinois","NAME_2":"Logan"}},
{"type":"Feature","geometry":{"type":"Polygon","coordinates":[[[-89.0251,39.6536],[-88.8119,39.6526],[-88.8128,39.7396],[-88.7579,39.7901],[-88.7459,39.79],[-88.7455,40.0557],[-88.8032,40.056],[-89.0309,40.0503],[-89.1463,40.0493],[-89.1439,39.9156],[-89.2183,39.9157],[-89.2193,39.811],[-89.1439,39.7972],[-89.141,39.6535],[-89.0251,39.6536]]]},"properties":{"GID_0":"USA","GID_1":"USA.14_1","GID_2":"USA.14.56_1","NAME_1":"Illinois","NAME_2":"Macon"}},
{"type":"Feature","geometry":{"type":"Polygon","coordinates":[[[-90.1502,39.2625],[-90.1454,38.9983],[-89.6978,38.9993],[-89.7047,39.3465],[-89.6994,39.3465],[-89.7017,39.5242],[-90.1555,39.5195],[-90.1502,39.2625]]]},"properties":{"GID_0":"USA","GID_1":"USA.14_1","GID_2":"USA.14.57_1","NAME_1":"Illinois","NAME_2":"Macoupin"}},
{"type":"Feature","geometry":{"type":"Polygon","coordinates":[[[-89.6398,38.9994],[-89.9992,38.998],[-90.2745,38.9989],[-90.2767,38.9254],[-90.1141,38.8508],[-90.116,38.8105],[-90.204,38.736],[-90.1811,38.6604],[-89.5967,38.6559],[-89.5968,38.742],[-89.6017,38.8744],[-89.6378,38.8743],[-89.6398,38.9994]]]},"properties":{"GID_0":"USA","GID_1":"USA.14_1","GID_2":"USA.14.58_1","NAME_1":"Illinois","NAME_2":"Madison"}},
{"type":"Feature","geometry":{"type":"Polygon","coordinates":[[[-88.6962,38.8256],[-89.1392,38.824],[-89.1395,38.6495],[-89.1444,38.4741],[-88.7018,38.4752],[-88.6962,38.8256]]]},"properties":{"GID_0":"USA","GID_1":"USA.14_1","GID_2":"USA.14.59_1","NAME_1":"Illinois","NAME_2":"Marion"}},
{"type":"Feature","geometry":{"type":"Polygon","coordinates":[[[-89.6392,41.1487],[-89.6395,40.9736],[-89.4459,40.9741],[-89.4715,40.9215],[-89.0482,40.9261],[-89.0477,41.1053],[-89.3391,41.1042],[-89.3483,41.1078],[-89.3262,41.1487],[-89.6392,41.1487]]]},"properties":{"GID_0":"USA","GID_1":"USA.14_1","GID_2":"USA.14.60_1","NAME_1":"Illinois","NAME_2":"Marshall"}},
{"type":"Feature","geometry":{"type":"Polygon","coordinates":[[[-89.9949,40.1096],[-89.9865,40.1137],[-89.9817,40.1142],[-89.9811,40.1165],[-89.9878,40.1187],[-89.9848,40.1278],[-89.9711,40.141],[-89.8314,40.1242],[-89.6776,40.1549],[-89.668,40.1603],[-89.6312,40.1531],[-89.6264,40.1427],[-89.6132,40.1323],[-89.6047,40.1228],[-89.6011,40.1223],[-89.6037,40.2184],[-89.6013,40.2189],[-89.6038,40.3209],[-89.7154,40.319],[-89.7169,40.4355],[-89.9235,40.4364],[-89.9662,40.4122],[-90.0372,40.3747],[-90.121,40.2328],[-90.1917,40.1917],[-90.203,40.178],[-90.2028,40.158],[-90.2112,40.1507],[-90.3367,40.1368],[-90.3546,40.1245],[-90.2944,40.0645],[-90.1652,40.0589],[-89.9997,40.1119],[-89.9949,40.1119],[-89.9949,40.1096]]]},"properties":{"GID_0":"USA","GID_1":"USA.14_1","GID_2":"USA.14.61_1","NAME_1":"Illinois","NAME_2":"Mason"}},
{"type":"Feature","geometry":{"type":"Polygon","coordinates":[[[-88.9273,37.3052],[-88.9273,37.2264],[-88.7954,37.1819],[-88.7328,37.1423],[-88.489,37.0648],[-88.4895,37.1564],[-88.6652,37.3005],[-88.707,37.3385],[-88.9004,37.335],[-88.9064,37.3169],[-88.9273,37.3052]]]},"properties":{"GID_0":"USA","GID_1":"USA.14_1","GID_2":"USA.14.62_1","NAME_1":"Illinois","NAME_2":"Massac"}},
{"type":"Feature","geometry":{"type":"Polygon","coordinates":[[[-90.4473,40.6285],[-90.6727,40.6312],[-90.789,40.636],[-90.9041,40.6375],[-90.9098,40.2832],[-90.4505,40.277],[-90.4473,40.6285]]]},"properties":{"GID_0":"USA","GID_1":"USA.14_1","GID_2":"USA.14.63_1","NAME_1":"Illinois","NAME_2":"McDonough"}},
{"type":"Feature","geometry":{"type":"Polygon","coordinates":[[[-88.7061,42.1564],[-88.1992,42.1555],[-88.1971,42.4981],[-88.7059,42.4972],[-88.7061,42.1564]]]},"properties":{"GID_0":"USA","GID_1":"USA.14_1","GID_2":"USA.14.64_1","NAME_1":"Illinois","NAME_2":"McHenry"}},
{"type":"Feature","geometry":{"type":"Polygon","coordinates":[[[-88.4594,40.3974],[-88.4592,40.6169],[-88.5748,40.6165],[-88.5827,40.7567],[-88.9874,40.7535],[-88.985,40.6646],[-89.0456,40.6639],[-89.1332,40.5975],[-89.2682,40.5947],[-89.2632,40.2817],[-88.9733,40.2836],[-88.4605,40.2813],[-88.4594,40.3974]]]},"properties":{"GID_0":"USA","GID_1":"USA.14_1","GID_2":"USA.14.65_1","NAME_1":"Illinois","NAME_2":"McLean"}},
{"type":"Feature","geometry":{"type":"Polygon","coordinates":[[[-89.9941,39.9029],[-89.7687,39.9026],[-89.701,39.9164],[-89.6975,39.9758],[-89.5781,39.9759],[-89.5794,40.0924],[-89.6011,40.0919],[-89.6011,40.1223],[-89.6047,40.1228],[-89.6132,40.1323],[-89.6264,40.1427],[-89.6312,40.1531],[-89.668,40.1603],[-89.6776,40.1549],[-89.8314,40.1242],[-89.9711,40.141],[-89.9848,40.1278],[-89.9878,40.1187],[-89.9811,40.1165],[-89.9817,40.1142],[-89.9865,40.1137],[-89.9949,40.1096],[-89.9941,39.9029]]]},"properties":{"GID_0":"USA","GID_1":"USA.14_1","GID_2":"USA.14.66_1","NAME_1":"Illinois","NAME_2":"Menard"}},
{"type":"Feature","geometry":{"type":"Polygon","coordinates":[[[-90.7866,41.0697],[-90.4842,41.0624],[-90.4397,41.0641],[-90.4397,41.1521],[-90.4347,41.3273],[-90.7834,41.3293],[-91.0711,41.3343],[-91.1142,41.2443],[-91.0514,41.1684],[-90.992,41.1578],[-90.9489,41.0718],[-90.7866,41.0697]]]},"properties":{"GID_0":"USA","GID_1":"USA.14_1","GID_2":"USA.14.67_1","NAME_1":"Illinois","NAME_2":"Mercer"}},
{"type":"Feature","geometry":{"type":"Polygon","coordinates":[[[-90.2652,38.5207],[-90.2984,38.4254],[-90.3724,38.3224],[-90.3603,38.2356],[-90.2057,38.0891],[-90.0355,38.1358],[-90.0355,38.2228],[-89.8996,38.2215],[-89.9234,38.2768],[-89.913,38.3081],[-90.0369,38.3253],[-90.2652,38.5207]]]},"properties":{"GID_0":"USA","GID_1":"USA.14_1","GID_2":"USA.14.68_1","NAME_1":"Illinois","NAME_2":"Monroe"}},
{"type":"Feature","geometry":{"type":"Polygon","coordinates":[[[-89.2531,39.026],[-89.2531,39.2164],[-89.1408,39.2165],[-89.142,39.3466],[-89.5316,39.3458],[-89.5335,39.5248],[-89.7017,39.5242],[-89.6994,39.3465],[-89.7047,39.3465],[-89.6978,38.9993],[-89.5871,38.9995],[-89.5866,39.0271],[-89.2531,39.026]]]},"properties":{"GID_0":"USA","GID_1":"USA.14_1","GID_2":"USA.14.69_1","NAME_1":"Illinois","NAME_2":"Montgomery"}},
{"type":"Feature","geometry":{"type":"Polygon","coordinates":[[[-90.5723,39.839],[-90.5785,39.8144],[-90.6003,39.7884],[-90.4835,39.7884],[-90.4842,39.7526],[-90.3736,39.7525],[-90.3737,39.6655],[-90.3023,39.6365],[-90.3022,39.52],[-90.1555,39.5195],[-89.9259,39.5228],[-89.9231,39.5595],[-89.9833,39.7193],[-89.9939,39.8729],[-90.5836,39.8756],[-90.5865,39.871],[-90.5723,39.839]]]},"properties":{"GID_0":"USA","GID_1":"USA.14_1","GID_2":"USA.14.70_1","NAME_1":"Illinois","NAME_2":"Morgan"}},
{"type":"Feature","geometry":{"type":"Polygon","coordinates":[[[-88.4737,39.6521],[-88.4735,39.7908],[-88.7579,39.7901],[-88.8128,39.7396],[-88.8102,39.5791],[-88.7189,39.5782],[-88.7195,39.5197],[-88.6432,39.5196],[-88.5868,39.4481],[-88.4724,39.4467],[-88.4737,39.6521]]]},"properties":{"GID_0":"USA","GID_1":"USA.14_1","GID_2":"USA.14.71_1","NAME_1":"Illinois","NAME_2":"Moultrie"}},
{"type":"Feature","geometry":{"type":"Polygon","coordinates":[[[-89.6858,41.9303],[-89.6296,41.9299],[-89.6296,41.9017],[-89.4711,41.9122],[-89.4267,41.9077],[-89.3614,41.8886],[-88.9403,41.8924],[-88.9408,41.9778],[-88.94,42.1549],[-89.1721,42.1525],[-89.1731,42.207],[-89.689,42.201],[-89.6857,42.1124],[-89.6858,41.9303]]]},"properties":{"GID_0":"USA","GID_1":"USA.14_1","GID_2":"USA.14.72_1","NAME_1":"Illinois","NAME_2":"Ogle"}},
{"type":"Feature","geometry":{"type":"Polygon","coordinates":[[[-89.8714,40.5132],[-89.8025,40.5437],[-89.6683,40.5598],[-89.6562,40.5726],[-89.6007,40.676],[-89.545,40.7196],[-89.5547,40.7582],[-89.5553,40.8017],[-89.4715,40.9215],[-89.4459,40.9741],[-89.7539,40.9734],[-89.9857,40.9754],[-89.9852,40.799],[-89.9894,40.6261],[-89.8737,40.6247],[-89.8714,40.5132]]]},"properties":{"GID_0":"USA","GID_1":"USA.14_1","GID_2":"USA.14.73_1","NAME_1":"Illinois","NAME_2":"Peoria"}},
{"type":"Feature","geometry":{"type":"Polygon","coordinates":[[[-89.1327,38.126],[-89.1514,38.1265],[-89.1498,38.2135],[-89.5938,38.2204],[-89.5958,37.9552],[-89.1803,37.9516],[-89.1231,38.0603],[-89.1327,38.126]]]},"properties":{"GID_0":"USA","GID_1":"USA.14_1","GID_2":"USA.14.74_1","NAME_1":"Illinois","NAME_2":"Perry"}},
{"type":"Feature","geometry":{"type":"Polygon","coordinates":[[[-88.4605,40.2813],[-88.5756,40.2813],[-88.6886,40.1442],[-88.7456,40.0992],[-88.7459,39.79],[-88.4645,39.7907],[-88.4625,40.2237],[-88.4613,40.2242],[-88.4605,40.2813]]]},"properties":{"GID_0":"USA","GID_1":"USA.14_1","GID_2":"USA.14.75_1","NAME_1":"Illinois","NAME_2":"Piatt"}},
{"type":"Feature","geometry":{"type":"Polygon","coordinates":[[[-91.3654,39.759],[-91.3662,39.7285],[-91.0944,39.5323],[-91.0548,39.4644],[-90.9391,39.4005],[-90.6145,39.3952],[-90.5823,39.5111],[-90.582,39.5279],[-90.5752,39.551],[-90.6042,39.6147],[-90.6467,39.6946],[-90.6055,39.7797],[-90.5979,39.7934],[-90.5785,39.8144],[-90.5723,39.839],[-90.9156,39.8442],[-90.9169,39.7566],[-91.3654,39.759]]]},"properties":{"GID_0":"USA","GID_1":"USA.14_1","GID_2":"USA.14.76_1","NAME_1":"Illinois","NAME_2":"Pike"}},
{"type":"Feature","geometry":{"type":"Polygon","coordinates":[[[-88.4091,37.6027],[-88.7072,37.6018],[-88.707,37.3385],[-88.6652,37.3005],[-88.4895,37.1564],[-88.489,37.0648],[-88.425,37.1543],[-88.5108,37.2672],[-88.4742,37.3871],[-88.4146,37.425],[-88.4091,37.6027]]]},"properties":{"GID_0":"USA","GID_1":"USA.14_1","GID_2":"USA.14.77_1","NAME_1":"Illinois","NAME_2":"Pope"}},
{"type":"Feature","geometry":{"type":"Polygon","coordinates":[[[-89.1707,37.0681],[-89.0797,37.1717],[-89.0071,37.2232],[-88.9273,37.2264],[-88.9273,37.3052],[-88.9342,37.303],[-88.9499,37.2972],[-89.0425,37.2957],[-89.0423,37.3311],[-89.2477,37.3358],[-89.2055,37.3153],[-89.2677,37.2266],[-89.2664,37.1119],[-89.1707,37.0681]]]},"properties":{"GID_0":"USA","GID_1":"USA.14_1","GID_2":"USA.14.78_1","NAME_1":"Illinois","NAME_2":"Pulaski"}},
{"type":"Feature","geometry":{"type":"Polygon","coordinates":[[[-89.4659,41.1488],[-89.3262,41.1487],[-89.3483,41.1078],[-89.3391,41.1042],[-89.1617,41.1048],[-89.165,41.3099],[-89.2677,41.3219],[-89.3405,41.2957],[-89.3553,41.2336],[-89.4665,41.2336],[-89.4659,41.1488]]]},"properties":{"GID_0":"USA","GID_1":"USA.14_1","GID_2":"USA.14.79_1","NAME_1":"Illinois","NAME_2":"Putnam"}},
{"type":"Feature","geometry":{"type":"Polygon","coordinates":[[[-89.5958,37.9552],[-89.5938,38.2204],[-89.817,38.2204],[-90.0355,38.2228],[-90.0355,38.1358],[-90.2057,38.0891],[-89.9827,37.9607],[-89.9494,37.8822],[-89.8418,37.9044],[-89.7961,37.8589],[-89.6738,37.8027],[-89.5958,37.9552]]]},"properties":{"GID_0":"USA","GID_1":"USA.14_1","GID_2":"USA.14.80_1","NAME_1":"Illinois","NAME_2":"Randolph"}},
{"type":"Feature","geometry":{"type":"Polygon","coordinates":[[[-88.2553,38.5998],[-88.1475,38.5987],[-88.1475,38.5688],[-87.912,38.57],[-87.9071,38.8506],[-88.1512,38.8467],[-88.2605,38.8483],[-88.2589,38.7308],[-88.3006,38.6352],[-88.2552,38.6057],[-88.2553,38.5998]]]},"properties":{"GID_0":"USA","GID_1":"USA.14_1","GID_2":"USA.14.81_1","NAME_1":"Illinois","NAME_2":"Richland"}},
{"type":"Feature","geometry":{"type":"Polygon","coordinates":[[[-90.1895,41.5862],[-90.163,41.6431],[-90.2384,41.6808],[-90.2443,41.7833],[-90.3179,41.736],[-90.3419,41.5999],[-90.4838,41.5181],[-90.5526,41.5254],[-90.6613,41.4598],[-90.8494,41.4539],[-90.9307,41.4232],[-91.0422,41.419],[-91.0711,41.3343],[-90.7834,41.3293],[-90.4347,41.3273],[-90.4321,41.4562],[-90.339,41.5118],[-90.1989,41.5408],[-90.1895,41.5862]]]},"properties":{"GID_0":"USA","GID_1":"USA.14_1","GID_2":"USA.14.82_1","NAME_1":"Illinois","NAME_2":"RockIsland"}},
{"type":"Feature","geometry":{"type":"Polygon","coordinates":[[[-89.7069,38.6562],[-90.1811,38.6604],[-90.1923,38.6025],[-90.2652,38.5207],[-90.0369,38.3253],[-89.913,38.3081],[-89.9234,38.2768],[-89.8996,38.2215],[-89.7051,38.2202],[-89.7069,38.6562]]]},"properties":{"GID_0":"USA","GID_1":"USA.14_1","GID_2":"USA.14.83_1","NAME_1":"Illinois","NAME_2":"SaintClair"}},
{"type":"Feature","geometry":{"type":"Polygon","coordinates":[[[-88.7055,37.8643],[-88.7072,37.6018],[-88.3719,37.6028],[-88.3742,37.9097],[-88.705,37.9078],[-88.7055,37.8643]]]},"properties":{"GID_0":"USA","GID_1":"USA.14_1","GID_2":"USA.14.84_1","NAME_1":"Illinois","NAME_2":"Saline"}},
{"type":"Feature","geometry":{"type":"Polygon","coordinates":[[[-89.9939,39.8729],[-89.9833,39.7193],[-89.9231,39.5595],[-89.9259,39.5228],[-89.5335,39.5248],[-89.5353,39.6395],[-89.4792,39.6395],[-89.4248,39.6835],[-89.4211,39.7501],[-89.3122,39.7704],[-89.2193,39.811],[-89.2183,39.9157],[-89.4047,39.9188],[-89.4845,39.9328],[-89.4839,39.9768],[-89.6975,39.9758],[-89.701,39.9164],[-89.7687,39.9026],[-89.9941,39.9029],[-89.9939,39.8729]]]},"properties":{"GID_0":"USA","GID_1":"USA.14_1","GID_2":"USA.14.85_1","NAME_1":"Illinois","NAME_2":"Sangamon"}},
{"type":"Feature","geometry":{"type":"Polygon","coordinates":[[[-90.9117,40.1049],[-90.6965,40.104],[-90.6764,40.0507],[-90.6017,40.0015],[-90.5151,39.9859],[-90.4357,40.0223],[-90.3822,40.1125],[-90.3679,40.1244],[-90.3367,40.1368],[-90.2112,40.1507],[-90.2028,40.158],[-90.203,40.178],[-90.2013,40.1825],[-90.4511,40.19],[-90.4505,40.277],[-90.9098,40.2832],[-90.9117,40.1049]]]},"properties":{"GID_0":"USA","GID_1":"USA.14_1","GID_2":"USA.14.86_1","NAME_1":"Illinois","NAME_2":"Schuyler"}},
{"type":"Feature","geometry":{"type":"Polygon","coordinates":[[[-90.3022,39.52],[-90.3023,39.6365],[-90.3737,39.6655],[-90.3736,39.7525],[-90.4842,39.7526],[-90.4835,39.7884],[-90.6003,39.7884],[-90.6055,39.7797],[-90.6467,39.6946],[-90.6042,39.6147],[-90.5752,39.551],[-90.582,39.5279],[-90.5813,39.5215],[-90.3022,39.52]]]},"properties":{"GID_0":"USA","GID_1":"USA.14_1","GID_2":"USA.14.87_1","NAME_1":"Illinois","NAME_2":"Scott"}},
{"type":"Feature","geometry":{"type":"Polygon","coordinates":[[[-89.142,39.3466],[-89.1408,39.2165],[-88.6337,39.2159],[-88.4704,39.2141],[-88.4724,39.4467],[-88.5868,39.4481],[-88.6432,39.5196],[-88.7195,39.5197],[-88.7189,39.5782],[-88.8102,39.5791],[-88.8119,39.6526],[-89.0251,39.6536],[-89.0254,39.3453],[-89.142,39.3466]]]},"properties":{"GID_0":"USA","GID_1":"USA.14_1","GID_2":"USA.14.88_1","NAME_1":"Illinois","NAME_2":"Shelby"}},
{"type":"Feature","geometry":{"type":"Polygon","coordinates":[[[-89.8568,41.2345],[-89.8686,41.1501],[-89.9869,41.1497],[-89.9857,40.9754],[-89.6395,40.9736],[-89.6394,41.2331],[-89.8568,41.2345]]]},"properties":{"GID_0":"USA","GID_1":"USA.14_1","GID_2":"USA.14.89_1","NAME_1":"Illinois","NAME_2":"Stark"}},
{"type":"Feature","geometry":{"type":"Polygon","coordinates":[[[-89.689,42.201],[-89.3992,42.2038],[-89.3995,42.4146],[-89.4031,42.503],[-89.9256,42.5075],[-89.9194,42.1986],[-89.8612,42.1992],[-89.689,42.201]]]},"properties":{"GID_0":"USA","GID_1":"USA.14_1","GID_2":"USA.14.90_1","NAME_1":"Illinois","NAME_2":"Stephenson"}},
{"type":"Feature","geometry":{"type":"Polygon","coordinates":[[[-89.9235,40.4364],[-89.7169,40.4355],[-89.7154,40.319],[-89.2643,40.3266],[-89.2694,40.616],[-89.3281,40.6152],[-89.3308,40.749],[-89.5504,40.7477],[-89.545,40.7196],[-89.6007,40.676],[-89.6562,40.5726],[-89.6683,40.5598],[-89.8025,40.5437],[-89.8714,40.5132],[-89.9115,40.4423],[-89.9235,40.4364]]]},"properties":{"GID_0":"USA","GID_1":"USA.14_1","GID_2":"USA.14.91_1","NAME_1":"Illinois","NAME_2":"Tazewell"}},
{"type":"Feature","geometry":{"type":"Polygon","coordinates":[[[-89.2477,37.3358],[-89.0423,37.3311],[-89.0417,37.4245],[-89.0412,37.5981],[-89.1545,37.6007],[-89.449,37.5999],[-89.521,37.5722],[-89.4926,37.4934],[-89.4242,37.3941],[-89.4426,37.3423],[-89.2477,37.3358]]]},"properties":{"GID_0":"USA","GID_1":"USA.14_1","GID_2":"USA.14.92_1","NAME_1":"Illinois","NAME_2":"Union"}},
{"type":"Feature","geometry":{"type":"Polygon","coordinates":[[[-87.937,39.8791],[-87.5323,39.8821],[-87.5261,40.4911],[-87.9364,40.4873],[-87.9303,40.3226],[-87.9427,40.2252],[-87.937,39.8791]]]},"properties":{"GID_0":"USA","GID_1":"USA.14_1","GID_2":"USA.14.93_1","NAME_1":"Illinois","NAME_2":"Vermilion"}},
{"type":"Feature","geometry":{"type":"Polygon","coordinates":[[[-87.9919,38.2614],[-87.9869,38.2574],[-87.9344,38.2952],[-87.8323,38.2975],[-87.8279,38.3375],[-87.7445,38.4109],[-87.7381,38.4794],[-87.6475,38.5175],[-87.6507,38.5687],[-87.955,38.5701],[-87.9569,38.5606],[-87.9526,38.5438],[-87.9405,38.5305],[-87.9542,38.5216],[-87.9547,38.4999],[-87.9437,38.4617],[-87.9499,38.4214],[-87.9783,38.3846],[-87.9502,38.3212],[-87.9919,38.2614]]]},"properties":{"GID_0":"USA","GID_1":"USA.14_1","GID_2":"USA.14.94_1","NAME_1":"Illinois","NAME_2":"Wabash"}},
{"type":"Feature","geometry":{"type":"Polygon","coordinates":[[[-90.4466,40.7147],[-90.441,40.8881],[-90.4397,41.0641],[-90.4842,41.0624],[-90.7866,41.0697],[-90.789,40.636],[-90.6727,40.6312],[-90.4473,40.6285],[-90.4466,40.7147]]]},"properties":{"GID_0":"USA","GID_1":"USA.14_1","GID_2":"USA.14.95_1","NAME_1":"Illinois","NAME_2":"Warren"}},
{"type":"Feature","geometry":{"type":"Polygon","coordinates":[[[-89.7057,38.4187],[-89.7051,38.2202],[-89.5938,38.2204],[-89.1498,38.2135],[-89.1443,38.5041],[-89.3478,38.5144],[-89.4848,38.4719],[-89.5795,38.4828],[-89.7057,38.4187]]]},"properties":{"GID_0":"USA","GID_1":"USA.14_1","GID_2":"USA.14.96_1","NAME_1":"Illinois","NAME_2":"Washington"}},
{"type":"Feature","geometry":{"type":"Polygon","coordinates":[[[-88.6998,38.6062],[-88.7042,38.2572],[-88.325,38.2565],[-88.2224,38.2577],[-88.1503,38.2565],[-88.147,38.4677],[-88.1475,38.5987],[-88.416,38.6027],[-88.5838,38.6072],[-88.6998,38.6062]]]},"properties":{"GID_0":"USA","GID_1":"USA.14_1","GID_2":"USA.14.97_1","NAME_1":"Illinois","NAME_2":"Wayne"}},
{"type":"Feature","geometry":{"type":"Polygon","coordinates":[[[-88.1503,38.2565],[-88.2224,38.2577],[-88.3713,38.2564],[-88.3742,37.9097],[-88.1362,37.9127],[-88.0897,37.8995],[-88.0129,37.8973],[-88.0344,38.0341],[-87.9613,38.0716],[-87.9656,38.1869],[-87.9869,38.2574],[-87.9919,38.2614],[-88.1503,38.2565]]]},"properties":{"GID_0":"USA","GID_1":"USA.14_1","GID_2":"USA.14.98_1","NAME_1":"Illinois","NAME_2":"White"}},
{"type":"Feature","geometry":{"type":"Polygon","coordinates":[[[-89.6309,41.5867],[-89.6305,41.7365],[-89.6296,41.9299],[-89.8604,41.9322],[-90.1568,41.9309],[-90.1959,41.8018],[-90.2443,41.7833],[-90.2384,41.6808],[-90.163,41.6431],[-90.1895,41.5862],[-89.6309,41.5867]]]},"properties":{"GID_0":"USA","GID_1":"USA.14_1","GID_2":"USA.14.99_1","NAME_1":"Illinois","NAME_2":"Whiteside"}},
{"type":"Feature","geometry":{"type":"Polygon","coordinates":[[[-88.0308,41.6868],[-88.0317,41.7295],[-88.2625,41.7251],[-88.2442,41.2034],[-88.0133,41.2073],[-88.0145,41.294],[-87.5265,41.2983],[-87.5265,41.4712],[-87.7888,41.4723],[-87.7923,41.5595],[-87.9071,41.5578],[-87.9106,41.6445],[-88.0299,41.6428],[-88.0308,41.6868]]]},"properties":{"GID_0":"USA","GID_1":"USA.14_1","GID_2":"USA.14.100_1","NAME_1":"Illinois","NAME_2":"Will"}},
{"type":"Feature","geometry":{"type":"Polygon","coordinates":[[[-89.1515,37.8645],[-89.1519,37.773],[-89.1545,37.6007],[-88.8321,37.5985],[-88.7072,37.6018],[-88.7055,37.8643],[-89.1515,37.8645]]]},"properties":{"GID_0":"USA","GID_1":"USA.14_1","GID_2":"USA.14.101_1","NAME_1":"Illinois","NAME_2":"Williamson"}},
{"type":"Feature","geometry":{"type":"Polygon","coordinates":[[[-88.9385,42.4984],[-89.4031,42.503],[-89.3995,42.4146],[-89.3992,42.2038],[-89.1731,42.207],[-89.1721,42.1525],[-88.94,42.1549],[-88.9385,42.4984]]]},"properties":{"GID_0":"USA","GID_1":"USA.14_1","GID_2":"USA.14.102_1","NAME_1":"Illinois","NAME_2":"Winnebago"}},
{"type":"Feature","geometry":{"type":"Polygon","coordinates":[[[-89.0482,40.9261],[-89.4715,40.9215],[-89.5553,40.8017],[-89.5547,40.7582],[-89.5504,40.7477],[-89.3308,40.749],[-89.3281,40.6152],[-89.2694,40.616],[-89.2682,40.5947],[-89.1332,40.5975],[-89.0456,40.6639],[-88.985,40.6646],[-88.9874,40.7535],[-88.9298,40.7537],[-88.9314,40.9279],[-89.0482,40.9261]]]},"properties":{"GID_0":"USA","GID_1":"USA.14_1","GID_2":"USA.14.103_1","NAME_1":"Illinois","NAME_2":"Woodford"}}
]}