{"type":"FeatureCollection", "features": [
{"type":"Feature","geometry":{"type":"Polygon","coordinates":[[[-116.286,43.808],[-116.5113,43.8071],[-116.5118,43.7032],[-116.4691,43.6274],[-116.4712,43.4589],[-116.5141,43.4592],[-116.5122,43.2867],[-116.4325,43.2952],[-116.3831,43.1912],[-116.2977,43.1187],[-116.2681,43.1178],[-116.2649,43.1137],[-116.1563,43.1133],[-115.9807,43.1172],[-115.9739,43.4176],[-115.9794,43.5841],[-116.286,43.808]]]},"properties":{"GID_0":"USA","GID_1":"USA.13_1","GID_2":"USA.13.1_1","NAME_1":"Idaho","NAME_2":"Ada"}},
{"type":"Feature","geometry":{"type":"Polygon","coordinates":[[[-116.1583,44.5002],[-116.1825,44.5979],[-116.1602,44.7095],[-116.2067,44.7678],[-116.1884,44.8853],[-116.1293,44.945],[-116.1403,45.0786],[-116.1423,45.1087],[-116.2787,45.1335],[-116.3425,45.2683],[-116.6802,45.2703],[-116.7284,45.145],[-116.8413,45.0287],[-116.8328,44.938],[-116.8932,44.8424],[-116.625,44.8412],[-116.6227,44.6633],[-116.5281,44.6141],[-116.527,44.4932],[-116.4053,44.4449],[-116.3009,44.4445],[-116.1857,44.4957],[-116.1583,44.5002]]]},"properties":{"GID_0":"USA","GID_1":"USA.13_1","GID_2":"USA.13.2_1","NAME_1":"Idaho","NAME_2":"Adams"}},
{"type":"Feature","geometry":{"type":"Polygon","coordinates":[[[-112.7504,42.9529],[-112.7007,42.9353],[-112.594,42.9731],[-112.5152,42.9104],[-112.4959,42.7327],[-112.3891,42.6241],[-112.419,42.503],[-112.2564,42.3539],[-112.193,42.3541],[-112.1245,42.2883],[-111.9875,42.2876],[-111.8956,42.2558],[-111.8976,42.4172],[-111.8809,42.4168],[-111.8806,42.49],[-111.9158,42.5312],[-111.9152,42.6312],[-111.9612,42.703],[-111.9718,42.7182],[-112.1338,42.7454],[-112.127,42.944],[-112.0596,43.0251],[-112.6546,43.0234],[-112.7504,42.9529]]]},"properties":{"GID_0":"USA","GID_1":"USA.13_1","GID_2":"USA.13.3_1","NAME_1":"Idaho","NAME_2":"Bannock"}},
{"type":"Feature","geometry":{"type":"Polygon","coordinates":[[[-111.507,42.0028],[-111.0463,42.0005],[-111.0475,42.5136],[-111.0645,42.5101],[-111.1607,42.4768],[-111.2365,42.48],[-111.2804,42.5536],[-111.3616,42.5895],[-111.6031,42.5911],[-111.6335,42.5704],[-111.6332,42.5607],[-111.5983,42.4153],[-111.5511,42.3519],[-111.5733,42.2684],[-111.626,42.2042],[-111.5954,42.094],[-111.5172,42.0722],[-111.507,42.0028]]]},"properties":{"GID_0":"USA","GID_1":"USA.13_1","GID_2":"USA.13.4_1","NAME_1":"Idaho","NAME_2":"BearLake"}},
{"type":"Feature","geometry":{"type":"Polygon","coordinates":[[[-116.3267,47.0231],[-116.3245,47.3277],[-116.325,47.4137],[-116.588,47.4145],[-116.6301,47.3716],[-117.0422,47.3665],[-117.0414,47.1284],[-116.8922,47.0778],[-116.8321,47.0356],[-116.4589,47.0382],[-116.3267,47.0231]]]},"properties":{"GID_0":"USA","GID_1":"USA.13_1","GID_2":"USA.13.5_1","NAME_1":"Idaho","NAME_2":"Benewah"}},
{"type":"Feature","geometry":{"type":"Polygon","coordinates":[[[-112.0596,43.0251],[-111.8497,43.0224],[-111.5908,43.0228],[-111.5879,43.2826],[-111.8227,43.2816],[-111.8232,43.3663],[-112.0437,43.367],[-112.1034,43.4259],[-112.5189,43.4246],[-112.52,43.6286],[-112.6953,43.6233],[-112.6982,43.5378],[-112.817,43.5344],[-112.8159,43.4478],[-112.9345,43.4484],[-112.9482,43.2875],[-113.0074,43.2872],[-113.0074,43.0243],[-113.0122,42.8615],[-112.8145,42.8642],[-112.7504,42.9529],[-112.6546,43.0234],[-112.0596,43.0251]]]},"properties":{"GID_0":"USA","GID_1":"USA.13_1","GID_2":"USA.13.6_1","NAME_1":"Idaho","NAME_2":"Bingham"}},
{"type":"Feature","geometry":{"type":"Polygon","coordinates":[[[-113.0074,43.2872],[-113.3616,43.2849],[-113.3615,43.369],[-113.6342,43.3685],[-113.6339,43.4527],[-113.7281,43.5898],[-113.7978,43.5697],[-113.9014,43.6484],[-114.0143,43.7691],[-114.119,43.7398],[-114.2796,43.8368],[-114.2813,43.8805],[-114.473,43.8957],[-114.5218,43.8492],[-114.6806,43.9279],[-114.8122,43.9278],[-114.8722,43.9934],[-114.9709,43.9399],[-114.9875,43.8602],[-114.8552,43.7923],[-114.7126,43.8149],[-114.6936,43.7922],[-114.6804,43.6146],[-114.5589,43.4991],[-114.5273,43.3881],[-114.5374,43.3298],[-114.3977,43.3121],[-114.3777,43.1997],[-114.1591,43.2006],[-113.4133,43.198],[-113.4113,42.8487],[-113.4707,42.8491],[-113.4734,42.6673],[-113.3647,42.6773],[-113.3076,42.6291],[-113.2165,42.6319],[-113.1758,42.6742],[-113.1766,42.7628],[-113.2359,42.7634],[-113.2434,43.1114],[-113.0067,43.1134],[-113.0074,43.2872]]]},"properties":{"GID_0":"USA","GID_1":"USA.13_1","GID_2":"USA.13.7_1","NAME_1":"Idaho","NAME_2":"Blaine"}},
{"type":"Feature","geometry":{"type":"Polygon","coordinates":[[[-115.9794,43.5841],[-115.8715,43.5912],[-115.6465,43.7026],[-115.5954,43.7946],[-115.5368,43.8119],[-115.5181,43.8777],[-115.2745,43.9458],[-115.1807,44.0921],[-115.1332,43.9844],[-114.9843,43.9495],[-114.9648,43.9823],[-115.048,44.0467],[-115.003,44.077],[-115.0298,44.1621],[-115.1327,44.1944],[-115.1659,44.2061],[-115.1632,44.2558],[-115.1622,44.2772],[-115.1846,44.2899],[-115.1967,44.2834],[-115.2044,44.2857],[-115.2931,44.3399],[-115.4412,44.2494],[-115.4859,44.2392],[-115.5183,44.2349],[-116.1059,44.2373],[-116.1192,44.1501],[-116.2754,44.1531],[-116.2722,43.9822],[-116.286,43.808],[-115.9794,43.5841]]]},"properties":{"GID_0":"USA","GID_1":"USA.13_1","GID_2":"USA.13.8_1","NAME_1":"Idaho","NAME_2":"Boise"}},
{"type":"Feature","geometry":{"type":"Polygon","coordinates":[[[-116.0503,48.5024],[-116.7839,48.5016],[-116.7866,48.8471],[-117.0331,48.8466],[-117.0391,48.5904],[-117.0427,47.9773],[-116.6318,47.9768],[-116.5013,47.9912],[-116.5015,47.8898],[-116.3235,47.889],[-116.3224,48.0176],[-116.2332,48.068],[-116.0644,47.9889],[-116.0503,48.5024]]]},"properties":{"GID_0":"USA","GID_1":"USA.13_1","GID_2":"USA.13.9_1","NAME_1":"Idaho","NAME_2":"Bonner"}},
{"type":"Feature","geometry":{"type":"Polygon","coordinates":[[[-111.5908,43.0228],[-111.2353,43.0226],[-111.0441,43.02],[-111.0439,43.4998],[-111.0591,43.512],[-111.2083,43.5477],[-111.2383,43.6218],[-111.5652,43.6226],[-111.5657,43.6276],[-112.0426,43.6265],[-112.52,43.6286],[-112.5189,43.4246],[-112.1034,43.4259],[-112.0437,43.367],[-111.8232,43.3663],[-111.8227,43.2816],[-111.5879,43.2826],[-111.5908,43.0228]]]},"properties":{"GID_0":"USA","GID_1":"USA.13_1","GID_2":"USA.13.10_1","NAME_1":"Idaho","NAME_2":"Bonneville"}},
{"type":"Feature","geometry":{"type":"Polygon","coordinates":[[[-116.0503,48.5024],[-116.0507,49.0004],[-117.0294,48.9996],[-117.0331,48.8466],[-116.7866,48.8471],[-116.7839,48.5016],[-116.0503,48.5024]]]},"properties":{"GID_0":"USA","GID_1":"USA.13_1","GID_2":"USA.13.11_1","NAME_1":"Idaho","NAME_2":"Boundary"}},
{"type":"Feature","geometry":{"type":"Polygon","coordinates":[[[-112.6953,43.6233],[-112.6937,43.9717],[-112.9936,43.9732],[-112.9904,44.2334],[-113.4165,44.2334],[-113.4161,44.0575],[-113.462,43.8871],[-113.4154,43.8625],[-113.3947,43.8478],[-113.4883,43.7388],[-113.7523,43.6286],[-113.7978,43.5697],[-113.7281,43.5898],[-113.6339,43.4527],[-113.6342,43.3685],[-113.3615,43.369],[-113.3616,43.2849],[-112.9482,43.2875],[-112.9345,43.4484],[-112.8159,43.4478],[-112.817,43.5344],[-112.6982,43.5378],[-112.6953,43.6233]]]},"properties":{"GID_0":"USA","GID_1":"USA.13_1","GID_2":"USA.13.12_1","NAME_1":"Idaho","NAME_2":"Butte"}},
{"type":"Feature","geometry":{"type":"Polygon","coordinates":[[[-114.9875,43.8602],[-115.0308,43.8026],[-115.0085,43.7103],[-115.0078,43.6994],[-115.035,43.6141],[-115.0836,43.6062],[-115.0867,43.3727],[-115.0864,43.1984],[-114.3777,43.1997],[-114.3977,43.3121],[-114.5374,43.3298],[-114.5273,43.3881],[-114.5589,43.4991],[-114.6804,43.6146],[-114.6936,43.7922],[-114.7126,43.8149],[-114.8552,43.7923],[-114.9875,43.8602]]]},"properties":{"GID_0":"USA","GID_1":"USA.13_1","GID_2":"USA.13.13_1","NAME_1":"Idaho","NAME_2":"Camas"}},
{"type":"Feature","geometry":{"type":"Polygon","coordinates":[[[-116.5113,43.8071],[-116.7511,43.807],[-116.8518,43.7928],[-116.9818,43.882],[-117.0323,43.8298],[-117.0273,43.6816],[-116.8094,43.5722],[-116.7752,43.4749],[-116.5888,43.3214],[-116.5122,43.2867],[-116.5141,43.4592],[-116.4712,43.4589],[-116.4691,43.6274],[-116.5118,43.7032],[-116.5113,43.8071]]]},"properties":{"GID_0":"USA","GID_1":"USA.13_1","GID_2":"USA.13.14_1","NAME_1":"Idaho","NAME_2":"Canyon"}},
{"type":"Feature","geometry":{"type":"Polygon","coordinates":[[[-111.8809,42.4168],[-111.7417,42.4162],[-111.5983,42.4153],[-111.6332,42.5607],[-111.6335,42.5704],[-111.6031,42.5911],[-111.3616,42.5895],[-111.2804,42.5536],[-111.2365,42.48],[-111.1607,42.4768],[-111.0645,42.5101],[-111.0469,42.5137],[-111.0441,43.02],[-111.2353,43.0226],[-111.8497,43.0224],[-112.0596,43.0251],[-112.127,42.944],[-112.1338,42.7454],[-111.9718,42.7182],[-111.9612,42.703],[-111.9152,42.6312],[-111.9158,42.5312],[-111.8806,42.49],[-111.8809,42.4168]]]},"properties":{"GID_0":"USA","GID_1":"USA.13_1","GID_2":"USA.13.15_1","NAME_1":"Idaho","NAME_2":"Caribou"}},
{"type":"Feature","geometry":{"type":"Polygon","coordinates":[[[-113.4734,42.6673],[-113.5709,42.6499],[-113.6445,42.5436],[-113.8891,42.549],[-113.909,42.5414],[-113.9427,42.532],[-114.0099,42.5291],[-114.0711,42.5048],[-114.0697,42.4175],[-114.2865,42.4185],[-114.2817,41.9947],[-113.8526,41.9898],[-113.0028,41.9985],[-113.0034,42.2551],[-113.0019,42.4146],[-113.0068,42.5892],[-113.1762,42.5896],[-113.2165,42.6319],[-113.3076,42.6291],[-113.3647,42.6773],[-113.4734,42.6673]]]},"properties":{"GID_0":"USA","GID_1":"USA.13_1","GID_2":"USA.13.16_1","NAME_1":"Idaho","NAME_2":"Cassia"}},
{"type":"Feature","geometry":{"type":"Polygon","coordinates":[[[-112.6937,43.9717],[-112.692,44.0587],[-112.2745,44.0592],[-112.0328,44.0572],[-112.0334,44.1443],[-111.9117,44.1447],[-111.8557,44.191],[-111.8495,44.3163],[-111.7901,44.3169],[-111.7887,44.4003],[-111.6134,44.4008],[-111.6167,44.5491],[-111.7012,44.5587],[-111.7628,44.5281],[-111.8693,44.5662],[-112.1144,44.5254],[-112.2862,44.5691],[-112.3558,44.533],[-112.3834,44.4493],[-112.4599,44.477],[-112.6651,44.4881],[-112.7149,44.5056],[-112.8264,44.4465],[-112.8215,44.4069],[-112.8125,44.2299],[-112.9904,44.2334],[-112.9936,43.9732],[-112.6937,43.9717]]]},"properties":{"GID_0":"USA","GID_1":"USA.13_1","GID_2":"USA.13.17_1","NAME_1":"Idaho","NAME_2":"Clark"}},
{"type":"Feature","geometry":{"type":"Polygon","coordinates":[[[-116.1745,46.3764],[-116.076,46.3633],[-115.9738,46.2962],[-115.7773,46.2721],[-115.7298,46.3688],[-115.6275,46.4732],[-114.5988,46.6375],[-114.6702,46.7399],[-114.7679,46.7603],[-114.9225,46.8283],[-114.9595,46.9332],[-115.6002,46.9307],[-116.3282,46.9326],[-116.3264,46.6293],[-116.4566,46.6289],[-116.443,46.4977],[-116.3708,46.4706],[-116.3072,46.4114],[-116.1958,46.4119],[-116.1745,46.3764]]]},"properties":{"GID_0":"USA","GID_1":"USA.13_1","GID_2":"USA.13.18_1","NAME_1":"Idaho","NAME_2":"Clearwater"}},
{"type":"Feature","geometry":{"type":"Polygon","coordinates":[[[-113.7978,43.5697],[-113.7523,43.6286],[-113.4883,43.7388],[-113.3947,43.8478],[-113.4154,43.8625],[-113.462,43.8871],[-113.4161,44.0575],[-113.4165,44.2334],[-113.3157,44.2344],[-113.361,44.3488],[-113.4444,44.4488],[-113.4992,44.4219],[-113.7909,44.4808],[-113.9986,44.6272],[-114.0844,44.7558],[-114.2187,44.7528],[-114.1908,44.8244],[-114.2176,44.8715],[-114.3916,44.7508],[-114.3866,44.6769],[-114.4874,44.588],[-114.5682,44.5766],[-114.6081,44.6381],[-114.7345,44.6549],[-114.8178,44.7445],[-114.8123,44.8103],[-114.8296,44.8025],[-114.959,44.72],[-115.0885,44.7687],[-115.1486,44.7297],[-115.169,44.6493],[-115.2815,44.6099],[-115.3017,44.5806],[-115.2222,44.462],[-115.2931,44.3399],[-115.2044,44.2857],[-115.1967,44.2834],[-115.1846,44.2899],[-115.1622,44.2772],[-115.1632,44.2558],[-115.1659,44.2061],[-115.1327,44.1944],[-115.0298,44.1621],[-115.003,44.077],[-115.048,44.0467],[-114.9648,43.9823],[-114.9843,43.9495],[-114.9709,43.9399],[-114.8722,43.9934],[-114.8122,43.9278],[-114.6806,43.9279],[-114.5218,43.8492],[-114.473,43.8957],[-114.2813,43.8805],[-114.2796,43.8368],[-114.119,43.7398],[-114.0143,43.7691],[-113.9014,43.6484],[-113.7978,43.5697]]]},"properties":{"GID_0":"USA","GID_1":"USA.13_1","GID_2":"USA.13.19_1","NAME_1":"Idaho","NAME_2":"Custer"}},
{"type":"Feature","geometry":{"type":"Polygon","coordinates":[[[-116.2649,43.1137],[-116.2092,43.0953],[-116.1932,43.0837],[-116.195,43.0787],[-116.2051,43.0558],[-116.0159,42.9495],[-115.9689,42.9791],[-115.8092,42.9758],[-115.7716,42.9416],[-115.6385,42.9574],[-115.5925,42.9368],[-115.4409,42.9339],[-115.4531,42.7688],[-115.0391,42.7698],[-115.0377,42.8257],[-115.039,42.9139],[-115.0478,42.918],[-115.0628,42.9138],[-115.0872,42.921],[-115.0867,43.3727],[-115.0836,43.6062],[-115.035,43.6141],[-115.0078,43.6994],[-115.0085,43.7103],[-115.0308,43.8026],[-114.9875,43.8602],[-114.9709,43.9399],[-114.9843,43.9495],[-115.1332,43.9844],[-115.1807,44.0921],[-115.2745,43.9458],[-115.5181,43.8777],[-115.5368,43.8119],[-115.5954,43.7946],[-115.6465,43.7026],[-115.8715,43.5912],[-115.9794,43.5841],[-115.9739,43.4176],[-115.9807,43.1172],[-116.1563,43.1133],[-116.2649,43.1137]]]},"properties":{"GID_0":"USA","GID_1":"USA.13_1","GID_2":"USA.13.20_1","NAME_1":"Idaho","NAME_2":"Elmore"}},
{"type":"Feature","geometry":{"type":"Polygon","coordinates":[[[-112.1245,42.2883],[-112.0727,42.2433],[-112.1112,42.17],[-112.109,41.9982],[-111.507,42.0028],[-111.5172,42.0722],[-111.5954,42.094],[-111.626,42.2042],[-111.5733,42.2684],[-111.5511,42.3519],[-111.5983,42.4153],[-111.7417,42.4162],[-111.8976,42.4172],[-111.8956,42.2558],[-111.9875,42.2876],[-112.1245,42.2883]]]},"properties":{"GID_0":"USA","GID_1":"USA.13_1","GID_2":"USA.13.21_1","NAME_1":"Idaho","NAME_2":"Franklin"}},
{"type":"Feature","geometry":{"type":"Polygon","coordinates":[[[-112.1555,44.0581],[-112.1573,43.9706],[-111.9774,43.9705],[-111.9765,43.9258],[-111.8373,43.8972],[-111.5597,43.884],[-111.4935,43.9317],[-111.3997,43.9254],[-111.1897,43.9322],[-111.0466,43.9855],[-111.0487,44.4772],[-111.2285,44.5803],[-111.2549,44.6509],[-111.3355,44.7321],[-111.3928,44.751],[-111.4876,44.7031],[-111.5212,44.6147],[-111.5076,44.5623],[-111.6167,44.5491],[-111.6134,44.4008],[-111.7887,44.4003],[-111.7901,44.3169],[-111.8495,44.3163],[-111.8557,44.191],[-111.9117,44.1447],[-112.0334,44.1443],[-112.0328,44.0572],[-112.1555,44.0581]]]},"properties":{"GID_0":"USA","GID_1":"USA.13_1","GID_2":"USA.13.22_1","NAME_1":"Idaho","NAME_2":"Fremont"}},
{"type":"Feature","geometry":{"type":"Polygon","coordinates":[[[-116.286,43.808],[-116.2722,43.9822],[-116.2754,44.1531],[-116.2142,44.1521],[-116.2141,44.3253],[-116.1534,44.3251],[-116.1513,44.5002],[-116.1857,44.4957],[-116.3009,44.4445],[-116.3204,44.4087],[-116.3457,44.3249],[-116.3556,44.1529],[-116.4493,44.1534],[-116.4532,44.0658],[-116.534,44.066],[-116.5729,43.9833],[-116.7121,43.9834],[-116.7113,43.8072],[-116.286,43.808]]]},"properties":{"GID_0":"USA","GID_1":"USA.13_1","GID_2":"USA.13.23_1","NAME_1":"Idaho","NAME_2":"Gem"}},
{"type":"Feature","geometry":{"type":"Polygon","coordinates":[[[-115.0864,43.1984],[-115.0872,42.921],[-115.0628,42.9138],[-115.0478,42.918],[-115.0358,42.9121],[-114.9652,42.916],[-114.9028,42.8476],[-114.9418,42.7829],[-114.8548,42.7541],[-114.8089,42.6633],[-114.6156,42.6504],[-114.6153,42.8513],[-114.5928,42.8513],[-114.591,42.9537],[-114.5923,42.9978],[-114.5907,43.1997],[-115.0864,43.1984]]]},"properties":{"GID_0":"USA","GID_1":"USA.13_1","GID_2":"USA.13.24_1","NAME_1":"Idaho","NAME_2":"Gooding"}},
{"type":"Feature","geometry":{"type":"Polygon","coordinates":[[[-116.1423,45.1087],[-116.1425,45.116],[-116.1209,45.1597],[-115.9768,45.1961],[-114.695,45.1958],[-114.6911,45.1981],[-114.6026,45.2854],[-114.6748,45.3626],[-114.7957,45.44],[-114.7954,45.5086],[-114.6543,45.486],[-114.579,45.5468],[-114.51,45.6565],[-114.5007,45.718],[-114.5655,45.7773],[-114.4943,45.8521],[-114.386,45.8863],[-114.4128,45.9773],[-114.5062,46.0359],[-114.4603,46.0945],[-114.4203,46.3914],[-114.3446,46.5173],[-114.3309,46.6586],[-114.5988,46.6375],[-115.6275,46.4732],[-115.7298,46.3688],[-115.7773,46.2721],[-115.9738,46.2962],[-116.076,46.3633],[-116.1745,46.3764],[-116.1197,46.2914],[-116.1311,46.2175],[-116.1873,46.1572],[-116.4505,46.1968],[-116.5142,46.1322],[-116.5298,46.0003],[-116.6246,46.0382],[-116.7007,45.9962],[-116.7549,45.9378],[-116.7479,45.9191],[-116.7285,45.9035],[-116.7429,45.8785],[-116.789,45.8586],[-116.5924,45.7793],[-116.4616,45.6093],[-116.5203,45.5553],[-116.667,45.3271],[-116.6802,45.2703],[-116.3425,45.2683],[-116.2787,45.1335],[-116.1423,45.1087]]]},"properties":{"GID_0":"USA","GID_1":"USA.13_1","GID_2":"USA.13.25_1","NAME_1":"Idaho","NAME_2":"Idaho"}},
{"type":"Feature","geometry":{"type":"Polygon","coordinates":[[[-112.52,43.6286],[-112.0426,43.6265],[-111.6232,43.6275],[-111.7137,43.6577],[-111.9324,43.7655],[-111.9773,43.8548],[-111.9774,43.9705],[-112.1573,43.9706],[-112.1555,44.0581],[-112.692,44.0587],[-112.6937,43.9717],[-112.6953,43.6233],[-112.52,43.6286]]]},"properties":{"GID_0":"USA","GID_1":"USA.13_1","GID_2":"USA.13.26_1","NAME_1":"Idaho","NAME_2":"Jefferson"}},
{"type":"Feature","geometry":{"type":"Polygon","coordinates":[[[-113.9309,42.5351],[-113.9321,42.7651],[-114.0526,42.767],[-114.0536,42.8083],[-114.3472,42.8077],[-114.3677,42.8499],[-114.6153,42.8513],[-114.6156,42.6504],[-114.4622,42.6005],[-114.3863,42.6004],[-114.2475,42.5616],[-114.2233,42.5506],[-114.1345,42.4981],[-114.0099,42.5291],[-113.9427,42.532],[-113.9309,42.5351]]]},"properties":{"GID_0":"USA","GID_1":"USA.13_1","GID_2":"USA.13.27_1","NAME_1":"Idaho","NAME_2":"Jerome"}},
{"type":"Feature","geometry":{"type":"Polygon","coordinates":[[[-116.325,47.4137],[-116.3224,47.5857],[-116.3235,47.889],[-116.5015,47.8898],[-116.5013,47.9912],[-116.6318,47.9768],[-117.0427,47.9773],[-117.0422,47.3665],[-116.6301,47.3716],[-116.588,47.4145],[-116.325,47.4137]]]},"properties":{"GID_0":"USA","GID_1":"USA.13_1","GID_2":"USA.13.28_1","NAME_1":"Idaho","NAME_2":"Kootenai"}},
{"type":"Feature","geometry":{"type":"Polygon","coordinates":[[[-117.0414,47.1284],[-117.0386,46.5437],[-116.7144,46.5452],[-116.6141,46.6316],[-116.5889,46.6297],[-116.3264,46.6293],[-116.3282,46.9326],[-116.3267,47.0231],[-116.4589,47.0382],[-116.8321,47.0356],[-116.8922,47.0778],[-117.0414,47.1284]]]},"properties":{"GID_0":"USA","GID_1":"USA.13_1","GID_2":"USA.13.29_1","NAME_1":"Idaho","NAME_2":"Latah"}},
{"type":"Feature","geometry":{"type":"Polygon","coordinates":[[[-112.9904,44.2334],[-112.8125,44.2299],[-112.8215,44.4069],[-112.8508,44.3581],[-112.9786,44.4322],[-113.1041,44.7306],[-113.2475,44.8229],[-113.3286,44.7888],[-113.456,44.87],[-113.4548,45.0599],[-113.5728,45.126],[-113.5906,45.1806],[-113.6874,45.2579],[-113.7748,45.4161],[-113.7586,45.4842],[-113.8202,45.5218],[-113.8186,45.6101],[-113.9856,45.7047],[-114.1356,45.5586],[-114.2294,45.5474],[-114.2715,45.484],[-114.3406,45.4595],[-114.4677,45.5647],[-114.579,45.5468],[-114.6543,45.486],[-114.7954,45.5086],[-114.7957,45.44],[-114.6748,45.3626],[-114.6026,45.2854],[-114.6911,45.1981],[-114.7002,45.1898],[-114.7324,45.1528],[-114.7251,44.8908],[-114.788,44.84],[-114.8123,44.8103],[-114.8178,44.7445],[-114.7345,44.6549],[-114.6081,44.6381],[-114.5682,44.5766],[-114.4874,44.588],[-114.3866,44.6769],[-114.3916,44.7508],[-114.2176,44.8715],[-114.1908,44.8244],[-114.2187,44.7528],[-114.0844,44.7558],[-113.9986,44.6272],[-113.7909,44.4808],[-113.4992,44.4219],[-113.4444,44.4488],[-113.361,44.3488],[-113.3157,44.2344],[-112.9904,44.2334]]]},"properties":{"GID_0":"USA","GID_1":"USA.13_1","GID_2":"USA.13.30_1","NAME_1":"Idaho","NAME_2":"Lemhi"}},
{"type":"Feature","geometry":{"type":"Polygon","coordinates":[[[-116.3708,46.4706],[-116.3823,46.3416],[-116.4898,46.3259],[-116.7189,46.3251],[-116.7041,46.2374],[-116.7007,45.9962],[-116.6246,46.0382],[-116.5298,46.0003],[-116.5142,46.1322],[-116.4505,46.1968],[-116.1873,46.1572],[-116.1311,46.2175],[-116.1197,46.2914],[-116.1745,46.3764],[-116.1958,46.4119],[-116.3072,46.4114],[-116.3708,46.4706]]]},"properties":{"GID_0":"USA","GID_1":"USA.13_1","GID_2":"USA.13.31_1","NAME_1":"Idaho","NAME_2":"Lewis"}},
{"type":"Feature","geometry":{"type":"Polygon","coordinates":[[[-114.3777,43.1997],[-114.5907,43.1997],[-114.5923,42.9978],[-114.591,42.9537],[-114.5928,42.8513],[-114.3677,42.8499],[-114.3472,42.8077],[-114.0536,42.8083],[-114.0526,42.767],[-113.761,42.7647],[-113.7188,42.8499],[-113.7187,43.1974],[-114.1591,43.2006],[-114.3777,43.1997]]]},"properties":{"GID_0":"USA","GID_1":"USA.13_1","GID_2":"USA.13.32_1","NAME_1":"Idaho","NAME_2":"Lincoln"}},
{"type":"Feature","geometry":{"type":"Polygon","coordinates":[[[-111.3989,43.6225],[-111.3997,43.9254],[-111.4935,43.9317],[-111.5597,43.884],[-111.8373,43.8972],[-111.9765,43.9258],[-111.9773,43.8548],[-111.9324,43.7655],[-111.7137,43.6577],[-111.6232,43.6275],[-111.5657,43.6276],[-111.5652,43.6226],[-111.3989,43.6225]]]},"properties":{"GID_0":"USA","GID_1":"USA.13_1","GID_2":"USA.13.33_1","NAME_1":"Idaho","NAME_2":"Madison"}},
{"type":"Feature","geometry":{"type":"Polygon","coordinates":[[[-113.7187,43.1974],[-113.7188,42.8499],[-113.761,42.7647],[-113.9321,42.7651],[-113.9309,42.5351],[-113.8891,42.549],[-113.6445,42.5436],[-113.5709,42.6499],[-113.4734,42.6673],[-113.4707,42.8491],[-113.4113,42.8487],[-113.4133,43.198],[-113.7187,43.1974]]]},"properties":{"GID_0":"USA","GID_1":"USA.13_1","GID_2":"USA.13.34_1","NAME_1":"Idaho","NAME_2":"Minidoka"}},
{"type":"Feature","geometry":{"type":"Polygon","coordinates":[[[-116.4566,46.6289],[-116.5889,46.6297],[-116.6141,46.6316],[-116.7144,46.5452],[-117.0386,46.5437],[-117.0323,46.4131],[-117.0605,46.3629],[-116.987,46.2957],[-116.9218,46.1711],[-116.9438,46.0646],[-116.866,45.9152],[-116.789,45.8586],[-116.7429,45.8785],[-116.7285,45.9035],[-116.7479,45.9191],[-116.7549,45.9378],[-116.7007,45.9962],[-116.7041,46.2374],[-116.7189,46.3251],[-116.4898,46.3259],[-116.3823,46.3416],[-116.3708,46.4706],[-116.443,46.4977],[-116.4566,46.6289]]]},"properties":{"GID_0":"USA","GID_1":"USA.13_1","GID_2":"USA.13.35_1","NAME_1":"Idaho","NAME_2":"NezPerce"}},
{"type":"Feature","geometry":{"type":"Polygon","coordinates":[[[-112.419,42.503],[-112.4976,42.5029],[-112.4979,42.4174],[-112.6551,42.417],[-112.6562,42.3315],[-112.8151,42.3282],[-113.0031,42.3283],[-113.0028,41.9985],[-112.1718,42.0018],[-112.109,41.9982],[-112.1112,42.17],[-112.0727,42.2433],[-112.1245,42.2883],[-112.193,42.3541],[-112.2564,42.3539],[-112.419,42.503]]]},"properties":{"GID_0":"USA","GID_1":"USA.13_1","GID_2":"USA.13.36_1","NAME_1":"Idaho","NAME_2":"Oneida"}},
{"type":"Feature","geometry":{"type":"Polygon","coordinates":[[[-116.5122,43.2867],[-116.5888,43.3214],[-116.7752,43.4749],[-116.8094,43.5722],[-117.0273,43.6816],[-117.0293,42.0003],[-115.2264,41.9945],[-115.0387,41.996],[-115.0391,42.7698],[-115.4531,42.7688],[-115.4409,42.9339],[-115.5925,42.9368],[-115.6385,42.9574],[-115.7716,42.9416],[-115.8092,42.9758],[-115.9689,42.9791],[-116.0159,42.9495],[-116.2051,43.0558],[-116.195,43.0787],[-116.1932,43.0837],[-116.2092,43.0953],[-116.2649,43.1137],[-116.2681,43.1178],[-116.2977,43.1187],[-116.3831,43.1912],[-116.4325,43.2952],[-116.5122,43.2867]]]},"properties":{"GID_0":"USA","GID_1":"USA.13_1","GID_2":"USA.13.37_1","NAME_1":"Idaho","NAME_2":"Owyhee"}},
{"type":"Feature","geometry":{"type":"Polygon","coordinates":[[[-116.7113,43.8072],[-116.7121,43.9834],[-116.5729,43.9833],[-116.534,44.066],[-116.4532,44.0658],[-116.4493,44.1534],[-116.8961,44.1552],[-116.9689,44.0873],[-116.936,43.9916],[-116.9818,43.882],[-116.8518,43.7928],[-116.7511,43.807],[-116.7113,43.8072]]]},"properties":{"GID_0":"USA","GID_1":"USA.13_1","GID_2":"USA.13.38_1","NAME_1":"Idaho","NAME_2":"Payette"}},
{"type":"Feature","geometry":{"type":"Polygon","coordinates":[[[-112.7504,42.9529],[-112.8145,42.8642],[-113.0122,42.8615],[-113.0093,42.9375],[-113.0067,43.1134],[-113.2434,43.1114],[-113.2359,42.7634],[-113.1766,42.7628],[-113.1758,42.6742],[-113.2165,42.6319],[-113.1762,42.5896],[-113.0068,42.5892],[-113.0019,42.4146],[-113.0031,42.3283],[-112.8151,42.3282],[-112.6562,42.3315],[-112.6551,42.417],[-112.4979,42.4174],[-112.4976,42.5029],[-112.419,42.503],[-112.3891,42.6241],[-112.4959,42.7327],[-112.5152,42.9104],[-112.594,42.9731],[-112.7007,42.9353],[-112.7504,42.9529]]]},"properties":{"GID_0":"USA","GID_1":"USA.13_1","GID_2":"USA.13.39_1","NAME_1":"Idaho","NAME_2":"Power"}},
{"type":"Feature","geometry":{"type":"Polygon","coordinates":[[[-116.3267,47.0231],[-116.3282,46.9326],[-115.6002,46.9307],[-114.9595,46.9332],[-115.0499,46.9707],[-115.1406,47.1019],[-115.2963,47.1886],[-115.3201,47.2581],[-115.5029,47.2873],[-115.6043,47.3787],[-115.752,47.4367],[-115.6897,47.4875],[-115.6898,47.5926],[-115.7254,47.7],[-115.8314,47.7523],[-115.9003,47.8425],[-116.0644,47.9889],[-116.2332,48.068],[-116.3224,48.0176],[-116.3235,47.889],[-116.3224,47.5857],[-116.3245,47.3277],[-116.3267,47.0231]]]},"properties":{"GID_0":"USA","GID_1":"USA.13_1","GID_2":"USA.13.40_1","NAME_1":"Idaho","NAME_2":"Shoshone"}},
{"type":"Feature","geometry":{"type":"Polygon","coordinates":[[[-111.0591,43.512],[-111.0466,43.9855],[-111.1897,43.9322],[-111.3997,43.9254],[-111.3989,43.6225],[-111.2383,43.6218],[-111.2083,43.5477],[-111.0591,43.512]]]},"properties":{"GID_0":"USA","GID_1":"USA.13_1","GID_2":"USA.13.41_1","NAME_1":"Idaho","NAME_2":"Teton"}},
{"type":"Feature","geometry":{"type":"Polygon","coordinates":[[[-114.0099,42.5291],[-114.1345,42.4981],[-114.2233,42.5506],[-114.2475,42.5616],[-114.3863,42.6004],[-114.4622,42.6005],[-114.6156,42.6504],[-114.8089,42.6633],[-114.8548,42.7541],[-114.9418,42.7829],[-114.9028,42.8476],[-114.9652,42.916],[-115.0358,42.9121],[-115.039,42.9139],[-115.0377,42.8257],[-115.0391,42.7698],[-115.0387,41.996],[-114.8546,42.0003],[-114.2817,41.9947],[-114.2865,42.4185],[-114.0697,42.4175],[-114.0711,42.5048],[-114.0099,42.5291]]]},"properties":{"GID_0":"USA","GID_1":"USA.13_1","GID_2":"USA.13.42_1","NAME_1":"Idaho","NAME_2":"TwinFalls"}},
{"type":"Feature","geometry":{"type":"Polygon","coordinates":[[[-116.1583,44.5002],[-116.1513,44.5002],[-116.1534,44.3251],[-116.2141,44.3253],[-116.2142,44.1521],[-116.1192,44.1501],[-116.1059,44.2373],[-115.5183,44.2349],[-115.4859,44.2392],[-115.4412,44.2494],[-115.2931,44.3399],[-115.2222,44.462],[-115.3017,44.5806],[-115.2815,44.6099],[-115.169,44.6493],[-115.1486,44.7297],[-115.0885,44.7687],[-114.959,44.72],[-114.8296,44.8025],[-114.788,44.84],[-114.7251,44.8908],[-114.7324,45.1528],[-114.7002,45.1898],[-114.695,45.1958],[-115.9768,45.1961],[-116.1209,45.1597],[-116.1425,45.116],[-116.1403,45.0786],[-116.1293,44.945],[-116.1884,44.8853],[-116.2067,44.7678],[-116.1602,44.7095],[-116.1825,44.5979],[-116.1583,44.5002]]]},"properties":{"GID_0":"USA","GID_1":"USA.13_1","GID_2":"USA.13.43_1","NAME_1":"Idaho","NAME_2":"Valley"}},
{"type":"Feature","geometry":{"type":"Polygon","coordinates":[[[-116.8932,44.8424],[-116.9352,44.783],[-117.0285,44.7511],[-117.1414,44.57],[-117.224,44.4799],[-117.2402,44.3893],[-117.1921,44.3442],[-117.181,44.2644],[-117.0924,44.2718],[-116.971,44.2348],[-116.8952,44.1552],[-116.3556,44.1529],[-116.3457,44.3249],[-116.3204,44.4087],[-116.3009,44.4445],[-116.4053,44.4449],[-116.527,44.4932],[-116.5281,44.6141],[-116.6227,44.6633],[-116.625,44.8412],[-116.8932,44.8424]]]},"properties":{"GID_0":"USA","GID_1":"USA.13_1","GID_2":"USA.13.44_1","NAME_1":"Idaho","NAME_2":"Washington"}}
]}