{"type":"FeatureCollection", "features": [
{"type":"Feature","geometry":{"type":"Polygon","coordinates":[[[-92.3525,40.3057],[-92.353,40.347],[-92.6842,40.3433],[-92.8573,40.3434],[-92.8534,40.0392],[-92.3458,40.0409],[-92.3478,40.2191],[-92.3525,40.3057]]]},"properties":{"GID_0":"USA","GID_1":"USA.26_1","GID_2":"USA.26.1_1","NAME_1":"Missouri","NAME_2":"Adair"}},
{"type":"Feature","geometry":{"type":"Polygon","coordinates":[[[-94.8793,39.8208],[-94.6069,39.8193],[-94.6062,40.0383],[-94.6099,40.1258],[-95.0426,40.1301],[-95.0437,40.1282],[-95.0461,40.1264],[-95.0364,40.108],[-95.0375,40.1034],[-95.0102,40.0472],[-94.991,39.9429],[-95.0077,39.9217],[-94.9949,39.8997],[-94.8793,39.8208]]]},"properties":{"GID_0":"USA","GID_1":"USA.26_1","GID_2":"USA.26.2_1","NAME_1":"Missouri","NAME_2":"Andrew"}},
{"type":"Feature","geometry":{"type":"Polygon","coordinates":[[[-95.2027,40.579],[-95.7651,40.5856],[-95.7691,40.5365],[-95.699,40.5052],[-95.6174,40.3137],[-95.5526,40.2617],[-95.1805,40.2615],[-95.1772,40.4793],[-95.2027,40.579]]]},"properties":{"GID_0":"USA","GID_1":"USA.26_1","GID_2":"USA.26.3_1","NAME_1":"Missouri","NAME_2":"Atchison"}},
{"type":"Feature","geometry":{"type":"Polygon","coordinates":[[[-92.1115,39.0649],[-91.6327,39.062],[-91.6292,39.1495],[-91.4098,39.1459],[-91.438,39.3221],[-91.7199,39.3246],[-91.7197,39.3405],[-92.082,39.3413],[-92.3104,39.3491],[-92.3142,39.2467],[-92.1058,39.2398],[-92.1115,39.0649]]]},"properties":{"GID_0":"USA","GID_1":"USA.26_1","GID_2":"USA.26.4_1","NAME_1":"Missouri","NAME_2":"Audrain"}},
{"type":"Feature","geometry":{"type":"Polygon","coordinates":[[[-94.076,36.4991],[-93.5843,36.4975],[-93.574,36.8193],[-93.6119,36.8198],[-93.6106,36.9237],[-94.0621,36.9336],[-94.0675,36.7472],[-94.076,36.4991]]]},"properties":{"GID_0":"USA","GID_1":"USA.26_1","GID_2":"USA.26.5_1","NAME_1":"Missouri","NAME_2":"Barry"}},
{"type":"Feature","geometry":{"type":"Polygon","coordinates":[[[-94.6174,37.3641],[-94.0848,37.3487],[-94.0747,37.6398],[-94.6164,37.6539],[-94.6174,37.3641]]]},"properties":{"GID_0":"USA","GID_1":"USA.26_1","GID_2":"USA.26.6_1","NAME_1":"Missouri","NAME_2":"Barton"}},
{"type":"Feature","geometry":{"type":"Polygon","coordinates":[[[-94.6147,38.0596],[-94.2402,38.051],[-94.1333,38.0584],[-94.0667,38.0312],[-94.0627,38.0353],[-94.0581,38.0363],[-94.0501,38.214],[-94.0753,38.2146],[-94.065,38.4473],[-94.2001,38.4455],[-94.3119,38.4711],[-94.6123,38.4758],[-94.6147,38.0596]]]},"properties":{"GID_0":"USA","GID_1":"USA.26_1","GID_2":"USA.26.7_1","NAME_1":"Missouri","NAME_2":"Bates"}},
{"type":"Feature","geometry":{"type":"Polygon","coordinates":[[[-93.0775,38.2605],[-93.0731,38.4473],[-93.0702,38.5339],[-93.2891,38.5377],[-93.2941,38.5077],[-93.513,38.5143],[-93.5151,38.454],[-93.5234,38.2105],[-93.5146,38.2083],[-93.4969,38.1994],[-93.504,38.0733],[-93.0643,38.0644],[-93.0623,38.1899],[-93.0775,38.2605]]]},"properties":{"GID_0":"USA","GID_1":"USA.26_1","GID_2":"USA.26.8_1","NAME_1":"Missouri","NAME_2":"Benton"}},
{"type":"Feature","geometry":{"type":"Polygon","coordinates":[[[-89.8632,37.5997],[-90.1474,37.5978],[-90.1403,37.5465],[-90.1472,37.3117],[-90.2177,37.3153],[-90.2223,37.0882],[-90.1122,37.0861],[-90.1113,37.0412],[-90,37.0398],[-89.9631,37.0563],[-89.9596,37.127],[-89.8695,37.1273],[-89.8646,37.2184],[-89.8632,37.5997]]]},"properties":{"GID_0":"USA","GID_1":"USA.26_1","GID_2":"USA.26.9_1","NAME_1":"Missouri","NAME_2":"Bollinger"}},
{"type":"Feature","geometry":{"type":"Polygon","coordinates":[[[-92.3142,39.2467],[-92.4307,39.249],[-92.5683,38.9966],[-92.5647,38.9739],[-92.557,38.9716],[-92.512,38.9363],[-92.5049,38.9291],[-92.4901,38.9182],[-92.4771,38.8801],[-92.4706,38.8697],[-92.3797,38.8026],[-92.4028,38.7455],[-92.3912,38.7406],[-92.3876,38.7363],[-92.3481,38.6754],[-92.2206,38.6431],[-92.2207,38.6935],[-92.1322,38.8193],[-92.1633,38.8692],[-92.1324,39.0192],[-92.1115,39.0649],[-92.1058,39.2398],[-92.3142,39.2467]]]},"properties":{"GID_0":"USA","GID_1":"USA.26_1","GID_2":"USA.26.10_1","NAME_1":"Missouri","NAME_2":"Boone"}},
{"type":"Feature","geometry":{"type":"Polygon","coordinates":[[[-95.1011,39.5328],[-94.6045,39.5296],[-94.6069,39.8193],[-94.8793,39.8208],[-94.8813,39.7291],[-94.9675,39.7389],[-94.9697,39.695],[-95.0367,39.6571],[-95.0505,39.5902],[-95.108,39.5786],[-95.1011,39.5328]]]},"properties":{"GID_0":"USA","GID_1":"USA.26_1","GID_2":"USA.26.11_1","NAME_1":"Missouri","NAME_2":"Buchanan"}},
{"type":"Feature","geometry":{"type":"Polygon","coordinates":[[[-90.2196,36.4964],[-90.1865,36.5882],[-90.1481,36.6228],[-90.156,36.6289],[-90.1508,36.6301],[-90.1432,36.6341],[-90.1449,36.6354],[-90.147,36.6387],[-90.1434,36.6985],[-90.1687,36.7348],[-90.1771,36.7422],[-90.1758,36.7476],[-90.1785,36.7518],[-90.2583,36.9089],[-90.2576,36.9125],[-90.2592,36.9157],[-90.2585,36.922],[-90.6781,36.9282],[-90.6797,36.8842],[-90.6596,36.8834],[-90.6619,36.8109],[-90.6269,36.8099],[-90.6279,36.6798],[-90.5911,36.6797],[-90.5744,36.5919],[-90.5769,36.4965],[-90.2196,36.4964]]]},"properties":{"GID_0":"USA","GID_1":"USA.26_1","GID_2":"USA.26.12_1","NAME_1":"Missouri","NAME_2":"Butler"}},
{"type":"Feature","geometry":{"type":"Polygon","coordinates":[[[-93.7619,39.6126],[-93.7631,39.7867],[-93.9882,39.7851],[-94.2085,39.7882],[-94.2125,39.5274],[-93.7627,39.5255],[-93.7619,39.6126]]]},"properties":{"GID_0":"USA","GID_1":"USA.26_1","GID_2":"USA.26.13_1","NAME_1":"Missouri","NAME_2":"Caldwell"}},
{"type":"Feature","geometry":{"type":"Polygon","coordinates":[[[-92.1115,39.0649],[-92.1324,39.0192],[-92.1633,38.8692],[-92.1322,38.8193],[-92.2207,38.6935],[-92.2206,38.6431],[-92.2026,38.6036],[-92.1524,38.5742],[-92.1137,38.5621],[-92.0622,38.5574],[-92.0128,38.568],[-91.9787,38.589],[-91.9442,38.5972],[-91.8684,38.6687],[-91.84,38.678],[-91.6953,38.708],[-91.6469,38.7031],[-91.6327,39.062],[-92.1115,39.0649]]]},"properties":{"GID_0":"USA","GID_1":"USA.26_1","GID_2":"USA.26.14_1","NAME_1":"Missouri","NAME_2":"Callaway"}},
{"type":"Feature","geometry":{"type":"Polygon","coordinates":[[[-93.0643,38.0644],[-93.0712,37.9057],[-92.6203,37.892],[-92.6004,37.8408],[-92.5468,37.7991],[-92.4092,37.8589],[-92.4055,38.0244],[-92.5171,38.0262],[-92.6061,38.1268],[-92.6056,38.173],[-92.6847,38.2205],[-92.697,38.2282],[-92.7643,38.195],[-92.9599,38.2021],[-93.0055,38.1902],[-93.0185,38.2019],[-93.0418,38.2693],[-93.0577,38.2747],[-93.0775,38.2605],[-93.0623,38.1899],[-93.0643,38.0644]]]},"properties":{"GID_0":"USA","GID_1":"USA.26_1","GID_2":"USA.26.15_1","NAME_1":"Missouri","NAME_2":"Camden"}},
{"type":"Feature","geometry":{"type":"Polygon","coordinates":[[[-89.4718,37.2523],[-89.5186,37.2857],[-89.4242,37.3941],[-89.4926,37.4934],[-89.5215,37.566],[-89.5339,37.5663],[-89.5386,37.5685],[-89.5489,37.5694],[-89.6037,37.5925],[-89.6819,37.5843],[-89.8161,37.5996],[-89.8632,37.5997],[-89.8646,37.2184],[-89.8695,37.1273],[-89.7604,37.1258],[-89.7068,37.155],[-89.6872,37.1999],[-89.6223,37.2333],[-89.4718,37.2523]]]},"properties":{"GID_0":"USA","GID_1":"USA.26_1","GID_2":"USA.26.16_1","NAME_1":"Missouri","NAME_2":"CapeGirardeau"}},
{"type":"Feature","geometry":{"type":"Polygon","coordinates":[[[-93.7627,39.5255],[-93.7613,39.205],[-93.7186,39.2046],[-93.6569,39.2459],[-93.5626,39.2196],[-93.4915,39.2338],[-93.4999,39.2781],[-93.4934,39.2868],[-93.4781,39.2924],[-93.4159,39.2665],[-93.4077,39.2285],[-93.352,39.2362],[-93.3367,39.307],[-93.221,39.3313],[-93.1772,39.4118],[-93.152,39.387],[-93.1251,39.3776],[-93.112,39.3822],[-93.126,39.412],[-93.2113,39.427],[-93.2701,39.4738],[-93.2868,39.5213],[-93.2854,39.6133],[-93.2848,39.6156],[-93.6466,39.6119],[-93.7619,39.6126],[-93.7627,39.5255]]]},"properties":{"GID_0":"USA","GID_1":"USA.26_1","GID_2":"USA.26.17_1","NAME_1":"Missouri","NAME_2":"Carroll"}},
{"type":"Feature","geometry":{"type":"Polygon","coordinates":[[[-90.6781,36.9282],[-90.6953,36.9284],[-90.7311,36.9992],[-90.7316,37.0505],[-90.9639,37.0537],[-91.0184,37.0988],[-91.0682,37.0921],[-91.108,37.0912],[-91.2159,37.0892],[-91.2245,36.8254],[-91.0083,36.8234],[-90.9476,36.8145],[-90.6619,36.8109],[-90.6596,36.8834],[-90.6797,36.8842],[-90.6781,36.9282]]]},"properties":{"GID_0":"USA","GID_1":"USA.26_1","GID_2":"USA.26.18_1","NAME_1":"Missouri","NAME_2":"Carter"}},
{"type":"Feature","geometry":{"type":"Polygon","coordinates":[[[-94.6082,38.8463],[-94.6123,38.4758],[-94.3119,38.4711],[-94.2001,38.4455],[-94.065,38.4473],[-94.064,38.5665],[-94.1218,38.5689],[-94.1308,38.6558],[-94.1223,38.8323],[-94.4007,38.837],[-94.6082,38.8463]]]},"properties":{"GID_0":"USA","GID_1":"USA.26_1","GID_2":"USA.26.19_1","NAME_1":"Missouri","NAME_2":"Cass"}},
{"type":"Feature","geometry":{"type":"Polygon","coordinates":[[[-94.0764,37.5822],[-93.6163,37.5751],[-93.6089,37.742],[-93.6316,37.7431],[-93.6289,37.8302],[-93.8131,37.8338],[-93.8112,37.8927],[-94.0663,37.9024],[-94.0737,37.7559],[-94.0714,37.7564],[-94.0764,37.5822]]]},"properties":{"GID_0":"USA","GID_1":"USA.26_1","GID_2":"USA.26.20_1","NAME_1":"Missouri","NAME_2":"Cedar"}},
{"type":"Feature","geometry":{"type":"Polygon","coordinates":[[[-93.112,39.3822],[-93.0977,39.3813],[-93.0616,39.3253],[-93.0443,39.3172],[-92.9687,39.3139],[-92.9153,39.2234],[-92.8963,39.2217],[-92.8844,39.2249],[-92.8524,39.2295],[-92.7917,39.3448],[-92.7083,39.3209],[-92.702,39.6111],[-92.6984,39.6111],[-92.6939,39.6999],[-92.8607,39.7009],[-93.0843,39.7069],[-93.2595,39.7037],[-93.2842,39.6183],[-93.2854,39.6133],[-93.2868,39.5213],[-93.2701,39.4738],[-93.2113,39.427],[-93.126,39.412],[-93.112,39.3822]]]},"properties":{"GID_0":"USA","GID_1":"USA.26_1","GID_2":"USA.26.21_1","NAME_1":"Missouri","NAME_2":"Chariton"}},
{"type":"Feature","geometry":{"type":"Polygon","coordinates":[[[-92.9022,37.0723],[-92.9017,37.0891],[-93.065,37.0902],[-93.6086,37.0987],[-93.6094,36.9958],[-93.3356,36.9925],[-93.3428,36.8166],[-93.1796,36.8149],[-92.9071,36.8093],[-92.9022,37.0723]]]},"properties":{"GID_0":"USA","GID_1":"USA.26_1","GID_2":"USA.26.22_1","NAME_1":"Missouri","NAME_2":"Christian"}},
{"type":"Feature","geometry":{"type":"Polygon","coordinates":[[[-91.4966,40.2479],[-91.4419,40.3847],[-91.5239,40.4123],[-91.6204,40.5164],[-91.6833,40.5553],[-91.7284,40.614],[-91.9432,40.6065],[-91.9525,40.2589],[-91.4966,40.2479]]]},"properties":{"GID_0":"USA","GID_1":"USA.26_1","GID_2":"USA.26.23_1","NAME_1":"Missouri","NAME_2":"Clark"}},
{"type":"Feature","geometry":{"type":"Polygon","coordinates":[[[-94.6082,39.1147],[-94.508,39.1508],[-94.4592,39.1226],[-94.3718,39.1611],[-94.2906,39.2371],[-94.2222,39.2099],[-94.2127,39.2073],[-94.2113,39.4535],[-94.6059,39.4561],[-94.6044,39.16],[-94.6082,39.1147]]]},"properties":{"GID_0":"USA","GID_1":"USA.26_1","GID_2":"USA.26.24_1","NAME_1":"Missouri","NAME_2":"Clay"}},
{"type":"Feature","geometry":{"type":"Polygon","coordinates":[[[-94.6045,39.5296],[-94.6059,39.4561],[-94.2113,39.4535],[-94.2125,39.5274],[-94.2098,39.7433],[-94.6054,39.7472],[-94.6045,39.5296]]]},"properties":{"GID_0":"USA","GID_1":"USA.26_1","GID_2":"USA.26.25_1","NAME_1":"Missouri","NAME_2":"Clinton"}},
{"type":"Feature","geometry":{"type":"Polygon","coordinates":[[[-92.3928,38.7409],[-92.4931,38.4314],[-92.4038,38.4296],[-92.4075,38.3443],[-92.1945,38.3427],[-92.1939,38.3684],[-92.1189,38.3932],[-92.1141,38.4569],[-92.041,38.4669],[-92.0077,38.4992],[-92.0089,38.5704],[-92.0128,38.568],[-92.0622,38.5574],[-92.1137,38.5621],[-92.1524,38.5742],[-92.2026,38.6036],[-92.2206,38.6431],[-92.3481,38.6754],[-92.3876,38.7363],[-92.3928,38.7409]]]},"properties":{"GID_0":"USA","GID_1":"USA.26_1","GID_2":"USA.26.26_1","NAME_1":"Missouri","NAME_2":"Cole"}},
{"type":"Feature","geometry":{"type":"Polygon","coordinates":[[[-92.5647,38.9739],[-92.7162,38.9864],[-92.7754,38.9741],[-92.8571,38.9843],[-92.9064,39.0127],[-92.9232,39.0412],[-92.9345,39.0643],[-93.0518,38.975],[-93.0633,38.6975],[-92.8392,38.6875],[-92.6199,38.6852],[-92.499,38.9254],[-92.5049,38.9291],[-92.512,38.9363],[-92.557,38.9716],[-92.5647,38.9739]]]},"properties":{"GID_0":"USA","GID_1":"USA.26_1","GID_2":"USA.26.27_1","NAME_1":"Missouri","NAME_2":"Cooper"}},
{"type":"Feature","geometry":{"type":"Polygon","coordinates":[[[-91.1524,37.6988],[-91.1446,37.7436],[-91.1004,37.7431],[-91.0925,38.005],[-91.0963,38.2072],[-91.3674,38.2077],[-91.3674,38.2127],[-91.536,38.2164],[-91.5356,38.1571],[-91.5257,38.1565],[-91.5282,37.7912],[-91.3069,37.7879],[-91.31,37.7],[-91.1524,37.6988]]]},"properties":{"GID_0":"USA","GID_1":"USA.26_1","GID_2":"USA.26.28_1","NAME_1":"Missouri","NAME_2":"Crawford"}},
{"type":"Feature","geometry":{"type":"Polygon","coordinates":[[[-94.0848,37.3487],[-94.0864,37.2911],[-93.6258,37.2817],[-93.6163,37.5751],[-94.0764,37.5822],[-94.0848,37.3487]]]},"properties":{"GID_0":"USA","GID_1":"USA.26_1","GID_2":"USA.26.29_1","NAME_1":"Missouri","NAME_2":"Dade"}},
{"type":"Feature","geometry":{"type":"Polygon","coordinates":[[[-93.0712,37.9057],[-93.1832,37.9078],[-93.1915,37.7301],[-93.1734,37.7297],[-93.1816,37.421],[-93.0733,37.4179],[-93.0726,37.4878],[-92.8534,37.4854],[-92.8458,37.7239],[-92.8609,37.7243],[-92.8548,37.8988],[-93.0712,37.9057]]]},"properties":{"GID_0":"USA","GID_1":"USA.26_1","GID_2":"USA.26.30_1","NAME_1":"Missouri","NAME_2":"Dallas"}},
{"type":"Feature","geometry":{"type":"Polygon","coordinates":[[[-93.7631,39.7867],[-93.7647,39.8759],[-93.762,39.9594],[-93.7644,40.1326],[-94.2168,40.1345],[-94.2204,40.0333],[-94.2053,40.0326],[-94.2085,39.7882],[-93.9882,39.7851],[-93.7631,39.7867]]]},"properties":{"GID_0":"USA","GID_1":"USA.26_1","GID_2":"USA.26.31_1","NAME_1":"Missouri","NAME_2":"Daviess"}},
{"type":"Feature","geometry":{"type":"Polygon","coordinates":[[[-94.6069,39.8193],[-94.6054,39.7472],[-94.2098,39.7433],[-94.2085,39.7882],[-94.2053,40.0326],[-94.3322,40.0367],[-94.6062,40.0383],[-94.6069,39.8193]]]},"properties":{"GID_0":"USA","GID_1":"USA.26_1","GID_2":"USA.26.32_1","NAME_1":"Missouri","NAME_2":"DeKalb"}},
{"type":"Feature","geometry":{"type":"Polygon","coordinates":[[[-91.5282,37.7912],[-91.8024,37.794],[-91.8083,37.6018],[-91.7531,37.601],[-91.7514,37.4279],[-91.2097,37.4179],[-91.2087,37.5058],[-91.3137,37.506],[-91.3118,37.593],[-91.1538,37.5891],[-91.1524,37.6988],[-91.31,37.7],[-91.3069,37.7879],[-91.5282,37.7912]]]},"properties":{"GID_0":"USA","GID_1":"USA.26_1","GID_2":"USA.26.33_1","NAME_1":"Missouri","NAME_2":"Dent"}},
{"type":"Feature","geometry":{"type":"Polygon","coordinates":[[[-92.9071,36.8093],[-92.5295,36.8023],[-92.4398,36.7986],[-92.0979,36.7916],[-92.0896,37.0596],[-92.2493,37.0632],[-92.5232,37.0662],[-92.9022,37.0723],[-92.9071,36.8093]]]},"properties":{"GID_0":"USA","GID_1":"USA.26_1","GID_2":"USA.26.34_1","NAME_1":"Missouri","NAME_2":"Douglas"}},
{"type":"Feature","geometry":{"type":"Polygon","coordinates":[[[-90.2196,36.4964],[-90.1536,36.4963],[-90.1441,36.4231],[-90.0669,36.3862],[-90.068,36.2978],[-90.1284,36.2305],[-90.2217,36.1811],[-90.2384,36.1382],[-90.2905,36.115],[-90.3773,35.9951],[-89.9587,35.9994],[-89.9617,36.3854],[-89.9732,36.3852],[-89.9533,36.5494],[-89.963,36.6014],[-89.9628,36.6259],[-89.961,36.6272],[-90.1508,36.6301],[-90.156,36.6289],[-90.1481,36.6228],[-90.1865,36.5882],[-90.2196,36.4964]]]},"properties":{"GID_0":"USA","GID_1":"USA.26_1","GID_2":"USA.26.35_1","NAME_1":"Missouri","NAME_2":"Dunklin"}},
{"type":"Feature","geometry":{"type":"Polygon","coordinates":[[[-91.0963,38.2072],[-90.7788,38.2077],[-90.7386,38.4184],[-90.7319,38.6449],[-90.7373,38.6414],[-90.7854,38.5759],[-90.8604,38.5647],[-90.9093,38.5381],[-90.9539,38.5414],[-91.0053,38.5611],[-91.0685,38.6099],[-91.1176,38.6],[-91.2267,38.6225],[-91.2315,38.6497],[-91.2711,38.6787],[-91.291,38.6888],[-91.3279,38.7073],[-91.3422,38.6979],[-91.3686,38.7014],[-91.3674,38.2077],[-91.0963,38.2072]]]},"properties":{"GID_0":"USA","GID_1":"USA.26_1","GID_2":"USA.26.36_1","NAME_1":"Missouri","NAME_2":"Franklin"}},
{"type":"Feature","geometry":{"type":"Polygon","coordinates":[[[-91.3674,38.2127],[-91.3686,38.7014],[-91.4422,38.7115],[-91.5523,38.678],[-91.6334,38.703],[-91.6399,38.7035],[-91.6445,38.1583],[-91.5356,38.1571],[-91.536,38.2164],[-91.3674,38.2127]]]},"properties":{"GID_0":"USA","GID_1":"USA.26_1","GID_2":"USA.26.37_1","NAME_1":"Missouri","NAME_2":"Gasconade"}},
{"type":"Feature","geometry":{"type":"Polygon","coordinates":[[[-94.6062,40.0383],[-94.3322,40.0367],[-94.2204,40.0333],[-94.2168,40.1345],[-94.2155,40.3821],[-94.6013,40.3854],[-94.6099,40.1258],[-94.6062,40.0383]]]},"properties":{"GID_0":"USA","GID_1":"USA.26_1","GID_2":"USA.26.38_1","NAME_1":"Missouri","NAME_2":"Gentry"}},
{"type":"Feature","geometry":{"type":"Polygon","coordinates":[[[-93.065,37.0902],[-93.0589,37.2729],[-93.0768,37.2733],[-93.0733,37.4179],[-93.6216,37.43],[-93.6258,37.2817],[-93.6049,37.2814],[-93.6086,37.0987],[-93.065,37.0902]]]},"properties":{"GID_0":"USA","GID_1":"USA.26_1","GID_2":"USA.26.39_1","NAME_1":"Missouri","NAME_2":"Greene"}},
{"type":"Feature","geometry":{"type":"Polygon","coordinates":[[[-93.762,39.9594],[-93.3643,39.9678],[-93.3638,40.0335],[-93.3705,40.0335],[-93.3685,40.2661],[-93.7637,40.2637],[-93.762,39.9594]]]},"properties":{"GID_0":"USA","GID_1":"USA.26_1","GID_2":"USA.26.40_1","NAME_1":"Missouri","NAME_2":"Grundy"}},
{"type":"Feature","geometry":{"type":"Polygon","coordinates":[[[-93.7784,40.5769],[-94.234,40.5706],[-94.214,40.4692],[-94.2168,40.1345],[-93.7644,40.1326],[-93.765,40.4723],[-93.7784,40.5769]]]},"properties":{"GID_0":"USA","GID_1":"USA.26_1","GID_2":"USA.26.41_1","NAME_1":"Missouri","NAME_2":"Harrison"}},
{"type":"Feature","geometry":{"type":"Polygon","coordinates":[[[-94.0501,38.214],[-93.5544,38.2021],[-93.5334,38.2095],[-93.5234,38.2105],[-93.5151,38.454],[-93.5118,38.5591],[-94.064,38.5665],[-94.065,38.4473],[-94.0753,38.2146],[-94.0501,38.214]]]},"properties":{"GID_0":"USA","GID_1":"USA.26_1","GID_2":"USA.26.42_1","NAME_1":"Missouri","NAME_2":"Henry"}},
{"type":"Feature","geometry":{"type":"Polygon","coordinates":[[[-93.504,38.0733],[-93.5135,37.9137],[-93.5683,37.915],[-93.5717,37.8284],[-93.5758,37.8288],[-93.5762,37.8153],[-93.1887,37.8058],[-93.1832,37.9078],[-93.0712,37.9057],[-93.0643,38.0644],[-93.504,38.0733]]]},"properties":{"GID_0":"USA","GID_1":"USA.26_1","GID_2":"USA.26.43_1","NAME_1":"Missouri","NAME_2":"Hickory"}},
{"type":"Feature","geometry":{"type":"Polygon","coordinates":[[[-94.9949,39.8997],[-95.0077,39.9217],[-94.991,39.9429],[-95.0102,40.0472],[-95.0375,40.1034],[-95.0364,40.108],[-95.0461,40.1264],[-95.0437,40.1282],[-95.0457,40.1314],[-95.0494,40.1358],[-95.0518,40.1358],[-95.0561,40.1361],[-95.058,40.1384],[-95.0768,40.2609],[-95.5526,40.2617],[-95.4709,40.2348],[-95.4789,40.1857],[-95.3933,40.1216],[-95.4212,40.0591],[-95.3488,40.0293],[-95.2062,39.9115],[-95.1277,39.8757],[-95.0416,39.8667],[-94.9949,39.8997]]]},"properties":{"GID_0":"USA","GID_1":"USA.26_1","GID_2":"USA.26.44_1","NAME_1":"Missouri","NAME_2":"Holt"}},
{"type":"Feature","geometry":{"type":"Polygon","coordinates":[[[-92.4307,39.249],[-92.7083,39.3209],[-92.7917,39.3448],[-92.8524,39.2295],[-92.8901,39.1805],[-92.9055,39.1645],[-92.9089,39.141],[-92.9373,39.1282],[-92.9342,39.0992],[-92.9069,39.0929],[-92.9074,39.0843],[-92.9174,39.0734],[-92.9345,39.0643],[-92.9232,39.0412],[-92.9064,39.0127],[-92.8571,38.9843],[-92.7754,38.9741],[-92.7162,38.9864],[-92.5647,38.9739],[-92.5683,38.9966],[-92.4307,39.249]]]},"properties":{"GID_0":"USA","GID_1":"USA.26_1","GID_2":"USA.26.45_1","NAME_1":"Missouri","NAME_2":"Howard"}},
{"type":"Feature","geometry":{"type":"Polygon","coordinates":[[[-91.6725,36.4982],[-91.6787,36.6068],[-91.6733,36.7877],[-91.6573,36.8873],[-91.6554,37.0487],[-91.871,37.0559],[-92.0896,37.0596],[-92.0979,36.7916],[-92.114,36.7912],[-92.123,36.4968],[-91.6725,36.4982]]]},"properties":{"GID_0":"USA","GID_1":"USA.26_1","GID_2":"USA.26.46_1","NAME_1":"Missouri","NAME_2":"Howell"}},
{"type":"Feature","geometry":{"type":"Polygon","coordinates":[[[-91.1524,37.6988],[-91.1538,37.5891],[-91.0992,37.5885],[-90.9821,37.6075],[-90.7678,37.6024],[-90.7731,37.3762],[-90.7552,37.2739],[-90.6777,37.276],[-90.551,37.2731],[-90.5471,37.5995],[-90.5349,37.6441],[-90.6483,37.6437],[-90.6454,37.7365],[-90.8921,37.7369],[-91.1446,37.7436],[-91.1524,37.6988]]]},"properties":{"GID_0":"USA","GID_1":"USA.26_1","GID_2":"USA.26.47_1","NAME_1":"Missouri","NAME_2":"Iron"}},
{"type":"Feature","geometry":{"type":"Polygon","coordinates":[[[-94.6082,38.8463],[-94.4007,38.837],[-94.1223,38.8323],[-94.1091,39.1434],[-94.1187,39.1488],[-94.1412,39.1711],[-94.1914,39.1881],[-94.1769,39.2024],[-94.1926,39.2144],[-94.2067,39.2079],[-94.2168,39.2077],[-94.2222,39.2099],[-94.2906,39.2371],[-94.3718,39.1611],[-94.4592,39.1226],[-94.508,39.1508],[-94.6082,39.1147],[-94.6082,38.8463]]]},"properties":{"GID_0":"USA","GID_1":"USA.26_1","GID_2":"USA.26.48_1","NAME_1":"Missouri","NAME_2":"Jackson"}},
{"type":"Feature","geometry":{"type":"Polygon","coordinates":[[[-94.6187,37.0585],[-94.0611,37.0493],[-94.0546,37.2901],[-94.0864,37.2911],[-94.0848,37.3487],[-94.6174,37.3641],[-94.6187,37.0585]]]},"properties":{"GID_0":"USA","GID_1":"USA.26_1","GID_2":"USA.26.49_1","NAME_1":"Missouri","NAME_2":"Jasper"}},
{"type":"Feature","geometry":{"type":"Polygon","coordinates":[[[-90.3435,38.3872],[-90.356,38.4617],[-90.4089,38.5039],[-90.5906,38.5064],[-90.6547,38.4598],[-90.7358,38.4832],[-90.7386,38.4184],[-90.7788,38.2077],[-90.6582,38.0867],[-90.6367,38.0801],[-90.6333,38.0773],[-90.583,38.009],[-90.4137,38.0447],[-90.3315,38.0995],[-90.2493,38.1239],[-90.3498,38.2141],[-90.3724,38.3224],[-90.3435,38.3872]]]},"properties":{"GID_0":"USA","GID_1":"USA.26_1","GID_2":"USA.26.50_1","NAME_1":"Missouri","NAME_2":"Jefferson"}},
{"type":"Feature","geometry":{"type":"Polygon","coordinates":[[[-94.064,38.5665],[-93.5118,38.5591],[-93.5076,38.6362],[-93.5,38.9019],[-93.4992,38.9291],[-93.8378,38.9381],[-93.839,38.9091],[-94.1183,38.9171],[-94.1308,38.6558],[-94.1218,38.5689],[-94.064,38.5665]]]},"properties":{"GID_0":"USA","GID_1":"USA.26_1","GID_2":"USA.26.51_1","NAME_1":"Missouri","NAME_2":"Johnson"}},
{"type":"Feature","geometry":{"type":"Polygon","coordinates":[[[-92.3458,40.0409],[-92.3416,40.0414],[-92.3466,39.9539],[-91.9549,39.951],[-91.948,40.2176],[-91.9546,40.218],[-91.9504,40.3055],[-92.0643,40.3083],[-92.3525,40.3057],[-92.3478,40.2191],[-92.3458,40.0409]]]},"properties":{"GID_0":"USA","GID_1":"USA.26_1","GID_2":"USA.26.52_1","NAME_1":"Missouri","NAME_2":"Knox"}},
{"type":"Feature","geometry":{"type":"Polygon","coordinates":[[[-92.8548,37.8988],[-92.8609,37.7243],[-92.8458,37.7239],[-92.8534,37.4854],[-92.2508,37.4762],[-92.2496,37.6493],[-92.4135,37.7144],[-92.4092,37.8589],[-92.5468,37.7991],[-92.6004,37.8408],[-92.6203,37.892],[-92.8548,37.8988]]]},"properties":{"GID_0":"USA","GID_1":"USA.26_1","GID_2":"USA.26.53_1","NAME_1":"Missouri","NAME_2":"Laclede"}},
{"type":"Feature","geometry":{"type":"Polygon","coordinates":[[[-93.7613,39.205],[-93.8327,39.2129],[-93.8993,39.1845],[-94.0382,39.1842],[-94.0462,39.1433],[-94.0917,39.1364],[-94.1091,39.1434],[-94.1183,38.9171],[-93.839,38.9091],[-93.8378,38.9381],[-93.4992,38.9291],[-93.4929,39.0746],[-93.481,39.2914],[-93.4952,39.285],[-93.4999,39.2781],[-93.4915,39.2338],[-93.5626,39.2196],[-93.6569,39.2459],[-93.7186,39.2046],[-93.7613,39.205]]]},"properties":{"GID_0":"USA","GID_1":"USA.26_1","GID_2":"USA.26.54_1","NAME_1":"Missouri","NAME_2":"Lafayette"}},
{"type":"Feature","geometry":{"type":"Polygon","coordinates":[[[-93.6106,36.9237],[-93.6049,37.2814],[-94.0546,37.2901],[-94.0611,37.0493],[-94.0621,36.9336],[-93.6106,36.9237]]]},"properties":{"GID_0":"USA","GID_1":"USA.26_1","GID_2":"USA.26.55_1","NAME_1":"Missouri","NAME_2":"Lawrence"}},
{"type":"Feature","geometry":{"type":"Polygon","coordinates":[[[-91.437,39.9479],[-91.4929,40.0309],[-91.5126,40.1759],[-91.4966,40.2479],[-91.9525,40.2589],[-91.9546,40.218],[-91.948,40.2176],[-91.9549,39.951],[-91.437,39.9479]]]},"properties":{"GID_0":"USA","GID_1":"USA.26_1","GID_2":"USA.26.56_1","NAME_1":"Missouri","NAME_2":"Lewis"}},
{"type":"Feature","geometry":{"type":"Polygon","coordinates":[[[-90.7212,39.2282],[-91.1852,39.2303],[-91.185,39.1419],[-91.2633,39.1432],[-91.264,38.995],[-91.187,38.9951],[-91.1887,38.9339],[-91.1106,38.9349],[-91.1106,38.875],[-90.9563,38.875],[-90.9085,38.8957],[-90.8065,38.8831],[-90.7433,38.9329],[-90.7332,38.9337],[-90.7066,38.9075],[-90.6988,38.9119],[-90.7146,38.9185],[-90.6856,38.9208],[-90.6637,38.9369],[-90.7131,39.0513],[-90.6825,39.1095],[-90.7212,39.2282]]]},"properties":{"GID_0":"USA","GID_1":"USA.26_1","GID_2":"USA.26.57_1","NAME_1":"Missouri","NAME_2":"Lincoln"}},
{"type":"Feature","geometry":{"type":"Polygon","coordinates":[[[-92.8534,40.0392],[-93.3638,40.0335],[-93.3683,39.7039],[-93.0843,39.7069],[-92.8607,39.7009],[-92.8474,40.0392],[-92.8534,40.0392]]]},"properties":{"GID_0":"USA","GID_1":"USA.26_1","GID_2":"USA.26.58_1","NAME_1":"Missouri","NAME_2":"Linn"}},
{"type":"Feature","geometry":{"type":"Polygon","coordinates":[[[-93.7619,39.6126],[-93.6466,39.6119],[-93.2848,39.6156],[-93.2842,39.6183],[-93.2595,39.7037],[-93.3683,39.7039],[-93.3643,39.9678],[-93.762,39.9594],[-93.7647,39.8759],[-93.7619,39.6126]]]},"properties":{"GID_0":"USA","GID_1":"USA.26_1","GID_2":"USA.26.59_1","NAME_1":"Missouri","NAME_2":"Livingston"}},
{"type":"Feature","geometry":{"type":"Polygon","coordinates":[[[-92.8474,40.0392],[-92.8607,39.7009],[-92.6939,39.6999],[-92.6984,39.6111],[-92.2996,39.6056],[-92.2961,39.7788],[-92.2902,39.9543],[-92.3466,39.9539],[-92.3416,40.0414],[-92.8474,40.0392]]]},"properties":{"GID_0":"USA","GID_1":"USA.26_1","GID_2":"USA.26.60_1","NAME_1":"Missouri","NAME_2":"Macon"}},
{"type":"Feature","geometry":{"type":"Polygon","coordinates":[[[-90.1474,37.5978],[-90.1489,37.6423],[-90.5349,37.6441],[-90.5471,37.5995],[-90.5499,37.3175],[-90.2177,37.3153],[-90.1472,37.3117],[-90.1403,37.5465],[-90.1474,37.5978]]]},"properties":{"GID_0":"USA","GID_1":"USA.26_1","GID_2":"USA.26.61_1","NAME_1":"Missouri","NAME_2":"Madison"}},
{"type":"Feature","geometry":{"type":"Polygon","coordinates":[[[-91.6441,38.2911],[-91.8639,38.2997],[-91.8775,38.2925],[-92.1953,38.2978],[-92.1981,38.1659],[-92.1859,38.0213],[-91.9674,38.0137],[-91.8946,38.0578],[-91.6317,38.0544],[-91.631,38.1573],[-91.6445,38.1583],[-91.6441,38.2911]]]},"properties":{"GID_0":"USA","GID_1":"USA.26_1","GID_2":"USA.26.62_1","NAME_1":"Missouri","NAME_2":"Maries"}},
{"type":"Feature","geometry":{"type":"Polygon","coordinates":[[[-91.437,39.9479],[-91.8409,39.9504],[-91.8471,39.6608],[-91.7175,39.6596],[-91.7178,39.6863],[-91.3089,39.6872],[-91.3662,39.7285],[-91.3617,39.788],[-91.4473,39.8743],[-91.437,39.9479]]]},"properties":{"GID_0":"USA","GID_1":"USA.26_1","GID_2":"USA.26.63_1","NAME_1":"Missouri","NAME_2":"Marion"}},
{"type":"Feature","geometry":{"type":"Polygon","coordinates":[[[-94.076,36.4991],[-94.0675,36.7472],[-94.6196,36.7664],[-94.6182,36.4984],[-94.076,36.4991]]]},"properties":{"GID_0":"USA","GID_1":"USA.26_1","GID_2":"USA.26.64_1","NAME_1":"Missouri","NAME_2":"McDonald"}},
{"type":"Feature","geometry":{"type":"Polygon","coordinates":[[[-93.7784,40.5769],[-93.765,40.4723],[-93.7637,40.2637],[-93.3685,40.2661],[-93.371,40.472],[-93.3826,40.5798],[-93.7784,40.5769]]]},"properties":{"GID_0":"USA","GID_1":"USA.26_1","GID_2":"USA.26.65_1","NAME_1":"Missouri","NAME_2":"Mercer"}},
{"type":"Feature","geometry":{"type":"Polygon","coordinates":[[[-92.4055,38.0244],[-92.1859,38.0213],[-92.1981,38.1659],[-92.1945,38.3427],[-92.4075,38.3443],[-92.4038,38.4296],[-92.6306,38.4345],[-92.6334,38.352],[-92.6891,38.3533],[-92.697,38.2282],[-92.6847,38.2205],[-92.6056,38.173],[-92.6061,38.1268],[-92.5171,38.0262],[-92.4055,38.0244]]]},"properties":{"GID_0":"USA","GID_1":"USA.26_1","GID_2":"USA.26.66_1","NAME_1":"Missouri","NAME_2":"Miller"}},
{"type":"Feature","geometry":{"type":"Polygon","coordinates":[[[-89.3105,37.0068],[-89.3773,36.9931],[-89.4668,36.9042],[-89.5209,36.877],[-89.5221,36.8462],[-89.4859,36.8317],[-89.4471,36.7672],[-89.3757,36.7005],[-89.3327,36.6309],[-89.2749,36.5717],[-89.2289,36.5677],[-89.166,36.6636],[-89.2016,36.7251],[-89.1612,36.7912],[-89.1785,36.8388],[-89.1311,36.8588],[-89.1017,36.9445],[-89.1719,36.9713],[-89.2504,37.0633],[-89.3105,37.0068]]]},"properties":{"GID_0":"USA","GID_1":"USA.26_1","GID_2":"USA.26.67_1","NAME_1":"Missouri","NAME_2":"Mississippi"}},
{"type":"Feature","geometry":{"type":"Polygon","coordinates":[[[-92.499,38.9254],[-92.6199,38.6852],[-92.8392,38.6875],[-92.8429,38.5973],[-92.6242,38.435],[-92.4931,38.4314],[-92.3928,38.7409],[-92.4028,38.7455],[-92.3797,38.8026],[-92.4706,38.8697],[-92.4771,38.8801],[-92.4901,38.9182],[-92.499,38.9254]]]},"properties":{"GID_0":"USA","GID_1":"USA.26_1","GID_2":"USA.26.68_1","NAME_1":"Missouri","NAME_2":"Moniteau"}},
{"type":"Feature","geometry":{"type":"Polygon","coordinates":[[[-91.7197,39.3405],[-91.7139,39.6011],[-91.7187,39.6011],[-91.7175,39.6596],[-92.0246,39.6607],[-92.1853,39.6634],[-92.1873,39.6054],[-92.3026,39.6056],[-92.3104,39.3491],[-92.082,39.3413],[-91.7197,39.3405]]]},"properties":{"GID_0":"USA","GID_1":"USA.26_1","GID_2":"USA.26.69_1","NAME_1":"Missouri","NAME_2":"Monroe"}},
{"type":"Feature","geometry":{"type":"Polygon","coordinates":[[[-91.6327,39.062],[-91.6469,38.7031],[-91.6334,38.703],[-91.5523,38.678],[-91.4422,38.7115],[-91.418,38.7122],[-91.4142,38.8491],[-91.2642,38.8454],[-91.2651,38.9673],[-91.2633,39.1432],[-91.6292,39.1495],[-91.6327,39.062]]]},"properties":{"GID_0":"USA","GID_1":"USA.26_1","GID_2":"USA.26.70_1","NAME_1":"Missouri","NAME_2":"Montgomery"}},
{"type":"Feature","geometry":{"type":"Polygon","coordinates":[[[-93.0775,38.2605],[-93.0577,38.2747],[-93.0418,38.2693],[-93.0185,38.2019],[-93.0055,38.1902],[-92.9599,38.2021],[-92.7643,38.195],[-92.697,38.2282],[-92.6891,38.3533],[-92.6334,38.352],[-92.6306,38.4345],[-92.6242,38.435],[-92.8429,38.5973],[-92.8392,38.6875],[-93.0633,38.6975],[-93.0731,38.4473],[-93.0775,38.2605]]]},"properties":{"GID_0":"USA","GID_1":"USA.26_1","GID_2":"USA.26.71_1","NAME_1":"Missouri","NAME_2":"Morgan"}},
{"type":"Feature","geometry":{"type":"Polygon","coordinates":[[[-89.5519,36.3384],[-89.5192,36.3883],[-89.5515,36.4414],[-89.5249,36.4844],[-89.573,36.5462],[-89.4989,36.578],[-89.4196,36.498],[-89.3777,36.6179],[-89.3327,36.6309],[-89.3757,36.7005],[-89.4471,36.7672],[-89.4859,36.8317],[-89.5221,36.8462],[-89.5218,36.868],[-89.6078,36.861],[-89.7064,36.8579],[-89.7041,36.6251],[-89.961,36.6272],[-89.9628,36.6259],[-89.963,36.6014],[-89.9533,36.5494],[-89.9732,36.3852],[-89.7748,36.384],[-89.7275,36.4274],[-89.6719,36.3993],[-89.5911,36.4024],[-89.5519,36.3384]]]},"properties":{"GID_0":"USA","GID_1":"USA.26_1","GID_2":"USA.26.72_1","NAME_1":"Missouri","NAME_2":"NewMadrid"}},
{"type":"Feature","geometry":{"type":"Polygon","coordinates":[[[-94.6187,37.0585],[-94.6196,36.7664],[-94.0675,36.7472],[-94.0621,36.9336],[-94.0611,37.0493],[-94.6187,37.0585]]]},"properties":{"GID_0":"USA","GID_1":"USA.26_1","GID_2":"USA.26.73_1","NAME_1":"Missouri","NAME_2":"Newton"}},
{"type":"Feature","geometry":{"type":"Polygon","coordinates":[[[-95.2027,40.579],[-95.1772,40.4793],[-95.1805,40.2615],[-95.0768,40.2609],[-95.058,40.1384],[-95.0561,40.1361],[-95.0518,40.1358],[-95.0494,40.1358],[-95.0457,40.1314],[-95.0426,40.1301],[-94.6099,40.1258],[-94.6013,40.3854],[-94.611,40.3857],[-94.6335,40.4724],[-94.6328,40.5714],[-95.2027,40.579]]]},"properties":{"GID_0":"USA","GID_1":"USA.26_1","GID_2":"USA.26.74_1","NAME_1":"Missouri","NAME_2":"Nodaway"}},
{"type":"Feature","geometry":{"type":"Polygon","coordinates":[[[-91.6725,36.4982],[-91.127,36.4973],[-91.1202,36.7753],[-91.1173,36.7753],[-91.1164,36.8247],[-91.2245,36.8254],[-91.2234,36.8857],[-91.6573,36.8873],[-91.6733,36.7877],[-91.6787,36.6068],[-91.6725,36.4982]]]},"properties":{"GID_0":"USA","GID_1":"USA.26_1","GID_2":"USA.26.75_1","NAME_1":"Missouri","NAME_2":"Oregon"}},
{"type":"Feature","geometry":{"type":"Polygon","coordinates":[[[-92.0089,38.5704],[-92.0077,38.4992],[-92.041,38.4669],[-92.1141,38.4569],[-92.1189,38.3932],[-92.1939,38.3684],[-92.1953,38.2978],[-91.8775,38.2925],[-91.8639,38.2997],[-91.6441,38.2911],[-91.6399,38.7035],[-91.6588,38.7014],[-91.6953,38.708],[-91.84,38.678],[-91.8684,38.6687],[-91.9442,38.5972],[-91.9787,38.589],[-92.0089,38.5704]]]},"properties":{"GID_0":"USA","GID_1":"USA.26_1","GID_2":"USA.26.76_1","NAME_1":"Missouri","NAME_2":"Osage"}},
{"type":"Feature","geometry":{"type":"Polygon","coordinates":[[[-92.7743,36.497],[-92.123,36.4968],[-92.114,36.7912],[-92.4398,36.7986],[-92.5295,36.8023],[-92.7645,36.8061],[-92.7743,36.497]]]},"properties":{"GID_0":"USA","GID_1":"USA.26_1","GID_2":"USA.26.77_1","NAME_1":"Missouri","NAME_2":"Ozark"}},
{"type":"Feature","geometry":{"type":"Polygon","coordinates":[[[-89.9587,35.9994],[-89.7169,36.0015],[-89.6564,36.1024],[-89.5896,36.1475],[-89.6985,36.2309],[-89.6083,36.2409],[-89.5456,36.2791],[-89.5519,36.3384],[-89.5911,36.4024],[-89.6719,36.3993],[-89.7275,36.4274],[-89.7748,36.384],[-89.9617,36.3854],[-89.9587,35.9994]]]},"properties":{"GID_0":"USA","GID_1":"USA.26_1","GID_2":"USA.26.78_1","NAME_1":"Missouri","NAME_2":"Pemiscot"}},
{"type":"Feature","geometry":{"type":"Polygon","coordinates":[[[-89.5215,37.566],[-89.4763,37.5935],[-89.5159,37.6389],[-89.5152,37.6892],[-89.6707,37.7575],[-89.6626,37.7892],[-89.7397,37.8467],[-89.7961,37.8589],[-89.8418,37.9044],[-89.9372,37.8742],[-90.0041,37.8167],[-90.1114,37.6715],[-90.1489,37.6423],[-90.1474,37.5978],[-89.8161,37.5996],[-89.6819,37.5843],[-89.6037,37.5925],[-89.5489,37.5694],[-89.5386,37.5685],[-89.5339,37.5663],[-89.5215,37.566]]]},"properties":{"GID_0":"USA","GID_1":"USA.26_1","GID_2":"USA.26.79_1","NAME_1":"Missouri","NAME_2":"Perry"}},
{"type":"Feature","geometry":{"type":"Polygon","coordinates":[[[-93.0702,38.5339],[-93.0538,38.9323],[-93.3852,38.9399],[-93.4989,38.9459],[-93.5,38.9019],[-93.5076,38.6362],[-93.513,38.5143],[-93.2941,38.5077],[-93.2891,38.5377],[-93.0702,38.5339]]]},"properties":{"GID_0":"USA","GID_1":"USA.26_1","GID_2":"USA.26.80_1","NAME_1":"Missouri","NAME_2":"Pettis"}},
{"type":"Feature","geometry":{"type":"Polygon","coordinates":[[[-91.5356,38.1571],[-91.631,38.1573],[-91.6317,38.0544],[-91.8946,38.0578],[-91.9674,38.0137],[-92.0212,38.0153],[-92.0308,37.6047],[-91.8083,37.6018],[-91.8024,37.794],[-91.5282,37.7912],[-91.5257,38.1565],[-91.5356,38.1571]]]},"properties":{"GID_0":"USA","GID_1":"USA.26_1","GID_2":"USA.26.81_1","NAME_1":"Missouri","NAME_2":"Phelps"}},
{"type":"Feature","geometry":{"type":"Polygon","coordinates":[[[-90.7212,39.2282],[-90.7324,39.2574],[-90.8574,39.3525],[-91.0578,39.468],[-91.0944,39.5323],[-91.1636,39.5573],[-91.2071,39.6005],[-91.4617,39.4524],[-91.438,39.3221],[-91.4098,39.1459],[-91.185,39.1419],[-91.1852,39.2303],[-90.7212,39.2282]]]},"properties":{"GID_0":"USA","GID_1":"USA.26_1","GID_2":"USA.26.82_1","NAME_1":"Missouri","NAME_2":"Pike"}},
{"type":"Feature","geometry":{"type":"Polygon","coordinates":[[[-95.1011,39.5328],[-95.0346,39.4617],[-94.9913,39.4479],[-94.9241,39.385],[-94.8877,39.2907],[-94.8374,39.2244],[-94.7486,39.1723],[-94.6899,39.1819],[-94.6044,39.16],[-94.6059,39.4561],[-94.6045,39.5296],[-95.1011,39.5328]]]},"properties":{"GID_0":"USA","GID_1":"USA.26_1","GID_2":"USA.26.83_1","NAME_1":"Missouri","NAME_2":"Platte"}},
{"type":"Feature","geometry":{"type":"Polygon","coordinates":[[[-93.6163,37.5751],[-93.6216,37.43],[-93.1816,37.421],[-93.1734,37.7297],[-93.1915,37.7301],[-93.1887,37.8058],[-93.5762,37.8153],[-93.5758,37.8288],[-93.6289,37.8302],[-93.6316,37.7431],[-93.6089,37.742],[-93.6163,37.5751]]]},"properties":{"GID_0":"USA","GID_1":"USA.26_1","GID_2":"USA.26.84_1","NAME_1":"Missouri","NAME_2":"Polk"}},
{"type":"Feature","geometry":{"type":"Polygon","coordinates":[[[-92.4092,37.8589],[-92.4135,37.7144],[-92.2496,37.6493],[-92.2498,37.6044],[-92.1777,37.6056],[-92.0308,37.6047],[-92.0212,38.0153],[-92.1859,38.0213],[-92.4055,38.0244],[-92.4092,37.8589]]]},"properties":{"GID_0":"USA","GID_1":"USA.26_1","GID_2":"USA.26.85_1","NAME_1":"Missouri","NAME_2":"Pulaski"}},
{"type":"Feature","geometry":{"type":"Polygon","coordinates":[[[-92.7151,40.5902],[-93.3826,40.5798],[-93.371,40.472],[-93.3699,40.3831],[-92.8575,40.3878],[-92.8573,40.3434],[-92.6842,40.3433],[-92.6705,40.4132],[-92.7104,40.444],[-92.6804,40.5229],[-92.7151,40.5902]]]},"properties":{"GID_0":"USA","GID_1":"USA.26_1","GID_2":"USA.26.86_1","NAME_1":"Missouri","NAME_2":"Putnam"}},
{"type":"Feature","geometry":{"type":"Polygon","coordinates":[[[-91.3089,39.6872],[-91.7178,39.6863],[-91.7187,39.6011],[-91.7139,39.6011],[-91.7199,39.3246],[-91.438,39.3221],[-91.4617,39.4524],[-91.2071,39.6005],[-91.3089,39.6872]]]},"properties":{"GID_0":"USA","GID_1":"USA.26_1","GID_2":"USA.26.87_1","NAME_1":"Missouri","NAME_2":"Ralls"}},
{"type":"Feature","geometry":{"type":"Polygon","coordinates":[[[-92.3104,39.3491],[-92.3026,39.6056],[-92.702,39.6111],[-92.7083,39.3209],[-92.4307,39.249],[-92.3142,39.2467],[-92.3104,39.3491]]]},"properties":{"GID_0":"USA","GID_1":"USA.26_1","GID_2":"USA.26.88_1","NAME_1":"Missouri","NAME_2":"Randolph"}},
{"type":"Feature","geometry":{"type":"Polygon","coordinates":[[[-94.2125,39.5274],[-94.211,39.4404],[-94.2127,39.2073],[-94.2067,39.2079],[-94.1926,39.2144],[-94.1769,39.2024],[-94.1914,39.1881],[-94.1412,39.1711],[-94.1187,39.1488],[-94.0917,39.1364],[-94.0462,39.1433],[-94.0382,39.1842],[-93.8993,39.1845],[-93.8327,39.2129],[-93.7613,39.205],[-93.7627,39.5255],[-94.2125,39.5274]]]},"properties":{"GID_0":"USA","GID_1":"USA.26_1","GID_2":"USA.26.89_1","NAME_1":"Missouri","NAME_2":"Ray"}},
{"type":"Feature","geometry":{"type":"Polygon","coordinates":[[[-90.78,37.0503],[-90.7791,37.1414],[-90.7369,37.1689],[-90.7384,37.2737],[-90.7552,37.2739],[-90.7731,37.3762],[-90.7678,37.6024],[-90.9821,37.6075],[-91.0992,37.5885],[-91.3118,37.593],[-91.3137,37.506],[-91.2087,37.5058],[-91.2097,37.4179],[-91.1749,37.4161],[-91.1767,37.3164],[-91.1279,37.2034],[-91.0366,37.1697],[-91.0184,37.0988],[-90.9639,37.0537],[-90.78,37.0503]]]},"properties":{"GID_0":"USA","GID_1":"USA.26_1","GID_2":"USA.26.90_1","NAME_1":"Missouri","NAME_2":"Reynolds"}},
{"type":"Feature","geometry":{"type":"Polygon","coordinates":[[[-90.5769,36.4965],[-90.5744,36.5919],[-90.5911,36.6797],[-90.6279,36.6798],[-90.6269,36.8099],[-90.9476,36.8145],[-91.0083,36.8234],[-91.1164,36.8247],[-91.1173,36.7753],[-91.1202,36.7753],[-91.127,36.4973],[-90.5769,36.4965]]]},"properties":{"GID_0":"USA","GID_1":"USA.26_1","GID_2":"USA.26.91_1","NAME_1":"Missouri","NAME_2":"Ripley"}},
{"type":"Feature","geometry":{"type":"Polygon","coordinates":[[[-90.6637,38.9369],[-90.6856,38.9208],[-90.7146,38.9185],[-90.6988,38.9119],[-90.7066,38.9075],[-90.7332,38.9337],[-90.7433,38.9329],[-90.8065,38.8831],[-90.9085,38.8957],[-90.9563,38.875],[-90.9644,38.5474],[-90.9539,38.5414],[-90.9093,38.5381],[-90.8604,38.5647],[-90.7854,38.5759],[-90.7373,38.6414],[-90.7158,38.6533],[-90.6459,38.6913],[-90.5641,38.6846],[-90.5307,38.6972],[-90.5335,38.7267],[-90.4404,38.8272],[-90.3606,38.829],[-90.3371,38.8848],[-90.2868,38.8848],[-90.2006,38.8239],[-90.1185,38.806],[-90.1141,38.8508],[-90.2607,38.9237],[-90.3992,38.9634],[-90.4697,38.9614],[-90.4977,38.9134],[-90.5728,38.8692],[-90.6637,38.9369]]]},"properties":{"GID_0":"USA","GID_1":"USA.26_1","GID_2":"USA.26.92_1","NAME_1":"Missouri","NAME_2":"SaintCharles"}},
{"type":"Feature","geometry":{"type":"Polygon","coordinates":[[[-94.0581,38.0363],[-94.0663,37.9024],[-93.8112,37.8927],[-93.8131,37.8338],[-93.5717,37.8284],[-93.5683,37.915],[-93.5135,37.9137],[-93.4969,38.1994],[-93.5146,38.2083],[-93.5334,38.2095],[-93.5544,38.2021],[-94.0501,38.214],[-94.0581,38.0363]]]},"properties":{"GID_0":"USA","GID_1":"USA.26_1","GID_2":"USA.26.93_1","NAME_1":"Missouri","NAME_2":"SaintClair"}},
{"type":"Feature","geometry":{"type":"Polygon","coordinates":[[[-90.5349,37.6441],[-90.1489,37.6423],[-90.1114,37.6715],[-90.1535,37.7004],[-90.2027,37.6701],[-90.4574,37.8823],[-90.3254,37.9861],[-90.4137,38.0447],[-90.583,38.009],[-90.6333,38.0773],[-90.6396,38.081],[-90.6454,37.7365],[-90.6483,37.6437],[-90.5349,37.6441]]]},"properties":{"GID_0":"USA","GID_1":"USA.26_1","GID_2":"USA.26.94_1","NAME_1":"Missouri","NAME_2":"SaintFrancois"}},
{"type":"Feature","geometry":{"type":"Polygon","coordinates":[[[-90.1185,38.806],[-90.2006,38.8239],[-90.2868,38.8848],[-90.3371,38.8848],[-90.3606,38.829],[-90.4404,38.8272],[-90.5335,38.7267],[-90.5307,38.6972],[-90.5641,38.6846],[-90.6459,38.6913],[-90.7158,38.6533],[-90.7319,38.6449],[-90.7358,38.4832],[-90.6547,38.4598],[-90.5906,38.5064],[-90.4089,38.5039],[-90.356,38.4617],[-90.3435,38.3872],[-90.2984,38.4254],[-90.2595,38.533],[-90.1984,38.595],[-90.1783,38.6459],[-90.2095,38.7288],[-90.1185,38.806]]]},"properties":{"GID_0":"USA","GID_1":"USA.26_1","GID_2":"USA.26.95_1","NAME_1":"Missouri","NAME_2":"SaintLouis"}},
{"type":"Feature","geometry":{"type":"Polygon","coordinates":[[[-90.2493,38.1239],[-90.3315,38.0995],[-90.4137,38.0447],[-90.3254,37.9861],[-90.4574,37.8823],[-90.2027,37.6701],[-90.1535,37.7004],[-90.1114,37.6715],[-90.0041,37.8167],[-89.9372,37.8742],[-89.9827,37.9607],[-90.1924,38.0816],[-90.2493,38.1239]]]},"properties":{"GID_0":"USA","GID_1":"USA.26_1","GID_2":"USA.26.96_1","NAME_1":"Missouri","NAME_2":"SainteGenevieve"}},
{"type":"Feature","geometry":{"type":"Polygon","coordinates":[[[-93.481,39.2914],[-93.4989,38.9459],[-93.3852,38.9399],[-93.0538,38.9323],[-93.0518,38.975],[-92.9298,39.0684],[-92.9174,39.0734],[-92.9074,39.0843],[-92.9069,39.0929],[-92.9342,39.0992],[-92.9373,39.1282],[-92.9089,39.141],[-92.9055,39.1645],[-92.8901,39.1805],[-92.8524,39.2295],[-92.8844,39.2249],[-92.8963,39.2217],[-92.9153,39.2234],[-92.9687,39.3139],[-93.0443,39.3172],[-93.0616,39.3253],[-93.0977,39.3813],[-93.1251,39.3776],[-93.152,39.387],[-93.1772,39.4118],[-93.221,39.3313],[-93.3367,39.307],[-93.352,39.2362],[-93.4077,39.2285],[-93.4159,39.2665],[-93.4781,39.2924],[-93.481,39.2914]]]},"properties":{"GID_0":"USA","GID_1":"USA.26_1","GID_2":"USA.26.97_1","NAME_1":"Missouri","NAME_2":"Saline"}},
{"type":"Feature","geometry":{"type":"Polygon","coordinates":[[[-92.7151,40.5902],[-92.6804,40.5229],[-92.7104,40.444],[-92.6705,40.4132],[-92.6842,40.3433],[-92.353,40.347],[-92.3555,40.5969],[-92.7151,40.5902]]]},"properties":{"GID_0":"USA","GID_1":"USA.26_1","GID_2":"USA.26.98_1","NAME_1":"Missouri","NAME_2":"Schuyler"}},
{"type":"Feature","geometry":{"type":"Polygon","coordinates":[[[-92.3555,40.5969],[-92.3525,40.3057],[-92.0643,40.3083],[-91.9504,40.3055],[-91.9432,40.6065],[-92.3555,40.5969]]]},"properties":{"GID_0":"USA","GID_1":"USA.26_1","GID_2":"USA.26.99_1","NAME_1":"Missouri","NAME_2":"Scotland"}},
{"type":"Feature","geometry":{"type":"Polygon","coordinates":[[[-89.4718,37.2523],[-89.6223,37.2333],[-89.6872,37.1999],[-89.7068,37.155],[-89.7604,37.1258],[-89.7651,37.1255],[-89.7862,37.0833],[-89.6884,36.9223],[-89.689,36.9205],[-89.6915,36.9015],[-89.6913,36.892],[-89.6928,36.8662],[-89.6912,36.8625],[-89.6919,36.8589],[-89.6078,36.861],[-89.5218,36.868],[-89.5209,36.877],[-89.4668,36.9042],[-89.3773,36.9931],[-89.3105,37.0068],[-89.3848,37.0454],[-89.3772,37.0912],[-89.4579,37.1869],[-89.4718,37.2523]]]},"properties":{"GID_0":"USA","GID_1":"USA.26_1","GID_2":"USA.26.100_1","NAME_1":"Missouri","NAME_2":"Scott"}},
{"type":"Feature","geometry":{"type":"Polygon","coordinates":[[[-91.0184,37.0988],[-91.0366,37.1697],[-91.1279,37.2034],[-91.1767,37.3164],[-91.1749,37.4161],[-91.2097,37.4179],[-91.6465,37.4254],[-91.6503,37.2504],[-91.6573,36.8873],[-91.2234,36.8857],[-91.2159,37.0892],[-91.108,37.0912],[-91.0682,37.0921],[-91.0184,37.0988]]]},"properties":{"GID_0":"USA","GID_1":"USA.26_1","GID_2":"USA.26.101_1","NAME_1":"Missouri","NAME_2":"Shannon"}},
{"type":"Feature","geometry":{"type":"Polygon","coordinates":[[[-92.2902,39.9543],[-92.2961,39.7788],[-92.2996,39.6056],[-92.1873,39.6054],[-92.1853,39.6634],[-92.0246,39.6607],[-91.8471,39.6608],[-91.8409,39.9504],[-92.2902,39.9543]]]},"properties":{"GID_0":"USA","GID_1":"USA.26_1","GID_2":"USA.26.102_1","NAME_1":"Missouri","NAME_2":"Shelby"}},
{"type":"Feature","geometry":{"type":"Polygon","coordinates":[[[-90.1113,37.0412],[-90.1499,37.0415],[-90.2238,36.9631],[-90.243,36.9208],[-90.2585,36.922],[-90.2591,36.9202],[-90.2576,36.9125],[-90.2583,36.9089],[-90.1785,36.7518],[-90.1758,36.7476],[-90.1771,36.7422],[-90.1687,36.7348],[-90.1434,36.6985],[-90.147,36.6387],[-90.1449,36.6354],[-90.1432,36.6341],[-89.961,36.6272],[-89.7041,36.6251],[-89.7064,36.8579],[-89.6919,36.8589],[-89.6912,36.8625],[-89.6928,36.8662],[-89.6913,36.892],[-89.6915,36.9015],[-89.689,36.9205],[-89.6884,36.9223],[-89.7862,37.0833],[-89.7651,37.1255],[-89.8695,37.1273],[-89.9596,37.127],[-89.9631,37.0563],[-90,37.0398],[-90.1113,37.0412]]]},"properties":{"GID_0":"USA","GID_1":"USA.26_1","GID_2":"USA.26.103_1","NAME_1":"Missouri","NAME_2":"Stoddard"}},
{"type":"Feature","geometry":{"type":"Polygon","coordinates":[[[-93.3152,36.4971],[-93.3066,36.8168],[-93.3428,36.8166],[-93.3356,36.9925],[-93.6094,36.9958],[-93.6119,36.8198],[-93.574,36.8193],[-93.5843,36.4975],[-93.3152,36.4971]]]},"properties":{"GID_0":"USA","GID_1":"USA.26_1","GID_2":"USA.26.104_1","NAME_1":"Missouri","NAME_2":"Stone"}},
{"type":"Feature","geometry":{"type":"Polygon","coordinates":[[[-92.8573,40.3434],[-92.8575,40.3878],[-93.3699,40.3831],[-93.3685,40.2661],[-93.3705,40.0335],[-92.8534,40.0392],[-92.8573,40.3434]]]},"properties":{"GID_0":"USA","GID_1":"USA.26_1","GID_2":"USA.26.105_1","NAME_1":"Missouri","NAME_2":"Sullivan"}},
{"type":"Feature","geometry":{"type":"Polygon","coordinates":[[[-93.3152,36.4971],[-92.7743,36.497],[-92.7645,36.8061],[-93.3066,36.8168],[-93.3152,36.4971]]]},"properties":{"GID_0":"USA","GID_1":"USA.26_1","GID_2":"USA.26.106_1","NAME_1":"Missouri","NAME_2":"Taney"}},
{"type":"Feature","geometry":{"type":"Polygon","coordinates":[[[-91.8083,37.6018],[-92.1777,37.6056],[-92.2498,37.6044],[-92.2521,37.2577],[-92.2493,37.0632],[-91.871,37.0559],[-91.6554,37.0487],[-91.6503,37.2504],[-91.6465,37.4254],[-91.7514,37.4279],[-91.7531,37.601],[-91.8083,37.6018]]]},"properties":{"GID_0":"USA","GID_1":"USA.26_1","GID_2":"USA.26.107_1","NAME_1":"Missouri","NAME_2":"Texas"}},
{"type":"Feature","geometry":{"type":"Polygon","coordinates":[[[-94.6147,38.0596],[-94.6164,37.6539],[-94.0747,37.6398],[-94.0714,37.7564],[-94.0737,37.7559],[-94.0581,38.0363],[-94.0627,38.0353],[-94.0667,38.0312],[-94.1333,38.0584],[-94.2402,38.051],[-94.6147,38.0596]]]},"properties":{"GID_0":"USA","GID_1":"USA.26_1","GID_2":"USA.26.108_1","NAME_1":"Missouri","NAME_2":"Vernon"}},
{"type":"Feature","geometry":{"type":"Polygon","coordinates":[[[-90.9644,38.5474],[-90.9563,38.875],[-91.1106,38.875],[-91.1106,38.9349],[-91.1887,38.9339],[-91.187,38.9951],[-91.264,38.995],[-91.2651,38.9673],[-91.2642,38.8454],[-91.4142,38.8491],[-91.418,38.7122],[-91.3686,38.7014],[-91.3422,38.6979],[-91.3279,38.7073],[-91.291,38.6888],[-91.2711,38.6787],[-91.2315,38.6497],[-91.2267,38.6225],[-91.1176,38.6],[-91.0685,38.6099],[-91.0053,38.5611],[-90.9644,38.5474]]]},"properties":{"GID_0":"USA","GID_1":"USA.26_1","GID_2":"USA.26.109_1","NAME_1":"Missouri","NAME_2":"Warren"}},
{"type":"Feature","geometry":{"type":"Polygon","coordinates":[[[-91.1004,37.7431],[-90.8921,37.7369],[-90.6454,37.7365],[-90.6396,38.081],[-90.6582,38.0867],[-90.7788,38.2077],[-91.0963,38.2072],[-91.0925,38.005],[-91.1004,37.7431]]]},"properties":{"GID_0":"USA","GID_1":"USA.26_1","GID_2":"USA.26.110_1","NAME_1":"Missouri","NAME_2":"Washington"}},
{"type":"Feature","geometry":{"type":"Polygon","coordinates":[[[-90.2177,37.3153],[-90.5499,37.3175],[-90.551,37.2731],[-90.6777,37.276],[-90.7384,37.2737],[-90.7369,37.1689],[-90.7791,37.1414],[-90.78,37.0503],[-90.7316,37.0505],[-90.7311,36.9992],[-90.6953,36.9284],[-90.243,36.9208],[-90.2238,36.9631],[-90.1499,37.0415],[-90.1113,37.0412],[-90.1122,37.0861],[-90.2223,37.0882],[-90.2177,37.3153]]]},"properties":{"GID_0":"USA","GID_1":"USA.26_1","GID_2":"USA.26.111_1","NAME_1":"Missouri","NAME_2":"Wayne"}},
{"type":"Feature","geometry":{"type":"Polygon","coordinates":[[[-92.9022,37.0723],[-92.6824,37.0696],[-92.6765,37.2655],[-92.6898,37.2655],[-92.6869,37.4826],[-93.0726,37.4878],[-93.0768,37.2733],[-93.0589,37.2729],[-93.065,37.0902],[-92.9017,37.0891],[-92.9022,37.0723]]]},"properties":{"GID_0":"USA","GID_1":"USA.26_1","GID_2":"USA.26.112_1","NAME_1":"Missouri","NAME_2":"Webster"}},
{"type":"Feature","geometry":{"type":"Polygon","coordinates":[[[-94.234,40.5706],[-94.6328,40.5714],[-94.6335,40.4724],[-94.611,40.3857],[-94.2155,40.3821],[-94.214,40.4692],[-94.234,40.5706]]]},"properties":{"GID_0":"USA","GID_1":"USA.26_1","GID_2":"USA.26.113_1","NAME_1":"Missouri","NAME_2":"Worth"}},
{"type":"Feature","geometry":{"type":"Polygon","coordinates":[[[-92.2493,37.0632],[-92.2521,37.2577],[-92.2508,37.4762],[-92.6869,37.4826],[-92.6898,37.2655],[-92.6765,37.2655],[-92.6824,37.0696],[-92.5232,37.0662],[-92.2493,37.0632]]]},"properties":{"GID_0":"USA","GID_1":"USA.26_1","GID_2":"USA.26.114_1","NAME_1":"Missouri","NAME_2":"Wright"}}
]}