{"type":"FeatureCollection", "features": [
{"type":"Feature","geometry":{"type":"Polygon","coordinates":[[[-82.6566,29.5649],[-82.6565,29.5356],[-82.5564,29.5375],[-82.5568,29.4802],[-82.4966,29.4785],[-82.4923,29.4858],[-82.21,29.4833],[-82.192,29.4652],[-82.2123,29.449],[-82.2054,29.426],[-82.1763,29.4195],[-82.1495,29.4227],[-82.1351,29.4326],[-82.1169,29.4309],[-82.1041,29.4384],[-82.0844,29.4317],[-82.0559,29.4413],[-82.0559,29.6645],[-82.0494,29.7189],[-82.0546,29.7419],[-82.0803,29.7666],[-82.0787,29.7757],[-82.1084,29.7836],[-82.1241,29.8047],[-82.1238,29.8236],[-82.1329,29.8351],[-82.1767,29.8392],[-82.1926,29.8482],[-82.2043,29.8439],[-82.2467,29.851],[-82.279,29.8442],[-82.3383,29.8785],[-82.3735,29.8795],[-82.3955,29.8876],[-82.4132,29.9236],[-82.4384,29.9308],[-82.4716,29.9285],[-82.4825,29.9378],[-82.5087,29.9437],[-82.5298,29.9412],[-82.5433,29.9249],[-82.557,29.9247],[-82.5746,29.9125],[-82.5759,29.8983],[-82.593,29.8821],[-82.5896,29.8628],[-82.6283,29.8473],[-82.6338,29.8313],[-82.6586,29.8302],[-82.6566,29.5649]]]},"properties":{"GID_0":"USA","GID_1":"USA.10_1","GID_2":"USA.10.1_1","NAME_1":"Florida","NAME_2":"Alachua"}},
{"type":"Feature","geometry":{"type":"Polygon","coordinates":[[[-82.0494,30.1434],[-82.05,30.3617],[-82.0671,30.3571],[-82.112,30.3671],[-82.1618,30.3591],[-82.1777,30.3644],[-82.1986,30.3902],[-82.2079,30.4163],[-82.2016,30.475],[-82.2071,30.4941],[-82.2271,30.512],[-82.24,30.5387],[-82.2332,30.5574],[-82.2213,30.5687],[-82.4599,30.5837],[-82.4581,30.3975],[-82.4582,30.1367],[-82.3541,30.1411],[-82.0494,30.1434]]]},"properties":{"GID_0":"USA","GID_1":"USA.10_1","GID_2":"USA.10.2_1","NAME_1":"Florida","NAME_2":"Baker"}},
{"type":"Feature","geometry":{"type":"MultiPolygon","coordinates":[[[[-85.3891,29.9247],[-85.3919,30.0273],[-85.4353,30.0406],[-85.4481,30.0194],[-85.4831,30.0219],[-85.4983,30.0314],[-85.5108,30.0514],[-85.5294,30.0653],[-85.5328,30.0789],[-85.5572,30.0828],[-85.565,30.0925],[-85.6006,30.0917],[-85.6203,30.1022],[-85.6192,30.1217],[-85.6556,30.1225],[-85.6692,30.1389],[-85.6864,30.125],[-85.6719,30.1056],[-85.6517,30.0972],[-85.6386,30.0836],[-85.6194,30.0769],[-85.5919,30.0514],[-85.5811,30.0358],[-85.5675,30.04],[-85.4901,29.9826],[-85.4928,29.9736],[-85.4768,29.9567],[-85.4533,29.9569],[-85.4122,29.9431],[-85.3891,29.9247]]],[[[-85.995,30.2825],[-85.9886,30.2661],[-85.9222,30.2383],[-85.83,30.1897],[-85.7756,30.1567],[-85.7481,30.1356],[-85.7308,30.1481],[-85.7247,30.1622],[-85.7517,30.1719],[-85.7519,30.195],[-85.7442,30.2128],[-85.7681,30.2287],[-85.7625,30.2417],[-85.7986,30.2531],[-85.8158,30.24],[-85.8217,30.2264],[-85.8492,30.2325],[-85.8536,30.2522],[-85.8458,30.2764],[-85.8511,30.2867],[-85.8156,30.285],[-85.8028,30.2956],[-85.7803,30.2867],[-85.7631,30.3],[-85.7347,30.2742],[-85.725,30.2394],[-85.7067,30.2419],[-85.6981,30.2581],[-85.6506,30.2719],[-85.6361,30.2647],[-85.6247,30.2742],[-85.5989,30.2769],[-85.5922,30.3175],[-85.5786,30.3014],[-85.5958,30.2675],[-85.61,30.2542],[-85.6367,30.2528],[-85.6564,30.2572],[-85.6792,30.2497],[-85.6878,30.2203],[-85.7078,30.2011],[-85.73,30.1872],[-85.7025,30.1658],[-85.6714,30.16],[-85.6469,30.1347],[-85.6162,30.136],[-85.6022,30.1183],[-85.58,30.1156],[-85.5542,30.1244],[-85.5256,30.1153],[-85.5228,30.0933],[-85.4897,30.0897],[-85.4944,30.0633],[-85.4839,30.0347],[-85.4583,30.0297],[-85.4369,30.0589],[-85.415,30.0481],[-85.3947,30.0483],[-85.3904,30.0356],[-85.3896,30.1744],[-85.389,30.3587],[-85.3865,30.4288],[-85.3846,30.5664],[-85.4859,30.567],[-85.4878,30.4366],[-85.8536,30.4407],[-85.8842,30.4104],[-85.9074,30.4059],[-85.9246,30.4161],[-85.9403,30.4081],[-85.9573,30.4119],[-85.976,30.396],[-85.9833,30.3913],[-85.9928,30.3893],[-85.995,30.2825]]]]},"properties":{"GID_0":"USA","GID_1":"USA.10_1","GID_2":"USA.10.3_1","NAME_1":"Florida","NAME_2":"Bay"}},
{"type":"Feature","geometry":{"type":"Polygon","coordinates":[[[-82.0494,29.7189],[-82.0461,29.7472],[-82.0489,29.9387],[-82.0494,30.1434],[-82.1429,30.1432],[-82.1456,30.1368],[-82.1407,30.1207],[-82.1451,30.1117],[-82.1725,30.0924],[-82.182,30.067],[-82.2136,30.0469],[-82.2255,30.0343],[-82.2599,30.0252],[-82.2732,29.9934],[-82.3056,29.9554],[-82.3404,29.9578],[-82.3482,29.9377],[-82.3847,29.9268],[-82.4132,29.9236],[-82.3955,29.8876],[-82.3735,29.8795],[-82.3383,29.8785],[-82.279,29.8442],[-82.2467,29.851],[-82.2043,29.8439],[-82.1926,29.8482],[-82.1767,29.8392],[-82.1329,29.8351],[-82.1238,29.8236],[-82.1241,29.8047],[-82.1084,29.7836],[-82.0787,29.7757],[-82.0803,29.7666],[-82.0546,29.7419],[-82.0494,29.7189]]]},"properties":{"GID_0":"USA","GID_1":"USA.10_1","GID_2":"USA.10.4_1","NAME_1":"Florida","NAME_2":"Bradford"}},
{"type":"Feature","geometry":{"type":"MultiPolygon","coordinates":[[[[-80.5092,27.8297],[-80.4908,27.8569],[-80.4936,27.8691],[-80.5339,27.9476],[-80.544,27.9724],[-80.5661,28.0086],[-80.5747,28.0331],[-80.6156,28.1056],[-80.6239,28.1303],[-80.6567,28.1925],[-80.6739,28.2431],[-80.6894,28.2806],[-80.7142,28.3286],[-80.7489,28.4089],[-80.7603,28.4467],[-80.7614,28.4669],[-80.7819,28.5086],[-80.7819,28.5367],[-80.7978,28.5589],[-80.7975,28.5764],[-80.8056,28.6044],[-80.8042,28.6194],[-80.8172,28.6281],[-80.8189,28.6525],[-80.8294,28.6997],[-80.8436,28.75],[-80.845,28.7778],[-80.8529,28.804],[-80.8529,28.7911],[-80.9677,28.7903],[-80.964,28.6055],[-80.9522,28.6015],[-80.9318,28.5641],[-80.9386,28.5358],[-80.9236,28.5326],[-80.9058,28.5119],[-80.8862,28.5095],[-80.871,28.4713],[-80.8903,28.4678],[-80.8994,28.4322],[-80.8848,28.4074],[-80.8876,28.3858],[-80.8727,28.3693],[-80.8632,28.3474],[-80.8616,28.2503],[-80.8625,28.1004],[-80.8698,28.0849],[-80.8687,27.8225],[-80.7669,27.8241],[-80.7407,27.8228],[-80.5095,27.8223],[-80.5092,27.8297]]],[[[-80.7331,28.7911],[-80.7286,28.7681],[-80.6942,28.7328],[-80.6956,28.7203],[-80.6778,28.7133],[-80.6442,28.6675],[-80.6533,28.6622],[-80.6856,28.6706],[-80.7178,28.7022],[-80.7669,28.7572],[-80.7884,28.7915],[-80.8292,28.7914],[-80.8156,28.7853],[-80.7867,28.7522],[-80.7739,28.7533],[-80.7444,28.7217],[-80.7458,28.7053],[-80.7581,28.6956],[-80.7847,28.6903],[-80.7875,28.6778],[-80.7722,28.6481],[-80.7842,28.6219],[-80.7661,28.6072],[-80.7422,28.6014],[-80.7261,28.6042],[-80.7181,28.5769],[-80.7258,28.5506],[-80.7331,28.4897],[-80.7211,28.4719],[-80.7231,28.4231],[-80.7203,28.3914],[-80.7028,28.3394],[-80.6731,28.2994],[-80.6833,28.3397],[-80.6614,28.3678],[-80.6653,28.3775],[-80.66,28.4328],[-80.635,28.5022],[-80.6133,28.5372],[-80.6044,28.5789],[-80.5872,28.5744],[-80.5925,28.5375],[-80.585,28.5158],[-80.5908,28.4767],[-80.6047,28.4194],[-80.6303,28.4189],[-80.6086,28.3758],[-80.6333,28.3392],[-80.6436,28.3111],[-80.6236,28.3086],[-80.6086,28.2803],[-80.6078,28.2639],[-80.6178,28.2425],[-80.6186,28.2122],[-80.6128,28.1706],[-80.6022,28.1372],[-80.5781,28.0939],[-80.5747,28.0808],[-80.5229,27.9929],[-80.5259,27.9761],[-80.5103,27.9559],[-80.5108,27.9359],[-80.4791,27.9118],[-80.5125,27.9764],[-80.5611,28.0792],[-80.5717,28.11],[-80.5931,28.1906],[-80.6053,28.2675],[-80.6081,28.3106],[-80.6031,28.3642],[-80.5908,28.4078],[-80.5642,28.4356],[-80.525,28.4581],[-80.5561,28.5161],[-80.5756,28.5864],[-80.62,28.6381],[-80.6472,28.6778],[-80.71,28.7564],[-80.7331,28.7911]]]]},"properties":{"GID_0":"USA","GID_1":"USA.10_1","GID_2":"USA.10.5_1","NAME_1":"Florida","NAME_2":"Brevard"}},
{"type":"Feature","geometry":{"type":"Polygon","coordinates":[[[-80.1182,25.9749],[-80.1093,26.0874],[-80.1049,26.0954],[-80.1021,26.1429],[-80.0963,26.1718],[-80.0888,26.234],[-80.0799,26.2576],[-80.0746,26.321],[-80.088,26.3207],[-80.1018,26.3281],[-80.2044,26.3278],[-80.2293,26.3352],[-80.8814,26.3342],[-80.8796,26.1727],[-80.8759,26.1073],[-80.873,25.9795],[-80.6798,25.9789],[-80.6802,25.9573],[-80.2955,25.9566],[-80.2953,25.9709],[-80.1182,25.9749]]]},"properties":{"GID_0":"USA","GID_1":"USA.10_1","GID_2":"USA.10.6_1","NAME_1":"Florida","NAME_2":"Broward"}},
{"type":"Feature","geometry":{"type":"Polygon","coordinates":[[[-85.3901,30.2013],[-85.1158,30.1999],[-85.1076,30.2178],[-85.0699,30.2493],[-85.0644,30.2709],[-85.053,30.287],[-85.0579,30.3011],[-85.048,30.3127],[-85.0504,30.3374],[-85.0406,30.3557],[-85.0398,30.3731],[-85.0145,30.3871],[-85.0274,30.3984],[-85.0277,30.4272],[-85.0104,30.4361],[-84.9875,30.471],[-84.9951,30.4879],[-84.9928,30.5186],[-84.9659,30.5723],[-84.9447,30.5812],[-84.9449,30.5953],[-84.9328,30.6064],[-84.9987,30.6058],[-85.1665,30.6083],[-85.1717,30.5644],[-85.3846,30.5664],[-85.3865,30.4288],[-85.389,30.3587],[-85.3901,30.2013]]]},"properties":{"GID_0":"USA","GID_1":"USA.10_1","GID_2":"USA.10.7_1","NAME_1":"Florida","NAME_2":"Calhoun"}},
{"type":"Feature","geometry":{"type":"MultiPolygon","coordinates":[[[[-82.2557,26.9451],[-82.3549,26.9465],[-82.3543,26.9449],[-82.351,26.9421],[-82.3526,26.9382],[-82.3479,26.9379],[-82.3474,26.9343],[-82.3426,26.9301],[-82.3424,26.9224],[-82.3182,26.8926],[-82.3213,26.8682],[-82.2826,26.8163],[-82.2715,26.829],[-82.2585,26.8276],[-82.2438,26.8076],[-82.2279,26.8113],[-82.1913,26.791],[-82.1732,26.7963],[-82.1535,26.7854],[-82.1479,26.8018],[-82.1568,26.8565],[-82.1807,26.9176],[-82.1835,26.9365],[-82.209,26.9543],[-82.2224,26.9554],[-82.2418,26.9746],[-82.2557,26.9968],[-82.2557,26.9451]]],[[[-82.2555,27.0054],[-82.2368,27.001],[-82.2274,26.9857],[-82.2318,26.9715],[-82.2196,26.9646],[-82.1813,26.9615],[-82.1738,26.9418],[-82.1532,26.924],[-82.1413,26.9238],[-82.1265,26.9385],[-82.1174,26.9615],[-82.099,26.9532],[-82.081,26.9588],[-82.0638,26.9532],[-82.0532,26.9654],[-82.0143,26.9693],[-82.0088,26.9526],[-82.0338,26.9499],[-82.054,26.9413],[-82.066,26.9263],[-82.0854,26.9282],[-82.0971,26.9151],[-82.0921,26.8918],[-82.0601,26.8793],[-82.0563,26.8679],[-82.0607,26.8379],[-82.0543,26.7951],[-82.0612,26.7682],[-81.5661,26.7697],[-81.5632,26.9086],[-81.5627,27.0332],[-81.979,27.0352],[-81.9969,27.0313],[-82.2554,27.0328],[-82.2555,27.0054]]]]},"properties":{"GID_0":"USA","GID_1":"USA.10_1","GID_2":"USA.10.8_1","NAME_1":"Florida","NAME_2":"Charlotte"}},
{"type":"Feature","geometry":{"type":"Polygon","coordinates":[[[-82.6352,28.6935],[-82.4182,28.6951],[-82.4183,28.6657],[-82.2631,28.6679],[-82.2494,28.7017],[-82.2491,28.7177],[-82.2104,28.7548],[-82.1895,28.7604],[-82.1865,28.781],[-82.1707,28.7904],[-82.1835,28.8236],[-82.2046,28.8341],[-82.2193,28.8509],[-82.2373,28.8617],[-82.2427,28.8765],[-82.2765,28.9014],[-82.2974,28.9485],[-82.3087,28.9551],[-82.3172,28.9723],[-82.3605,28.9936],[-82.3661,29.0019],[-82.4153,29.0146],[-82.4451,29.0389],[-82.4777,29.0526],[-82.5013,29.0424],[-82.5357,29.0452],[-82.5776,29.0283],[-82.5974,29.0277],[-82.6108,29.0095],[-82.6398,29.0199],[-82.6746,29.0268],[-82.6901,29.0343],[-82.7125,29.0314],[-82.7568,28.9952],[-82.7339,28.9953],[-82.7327,28.9714],[-82.7238,28.9538],[-82.6672,28.9167],[-82.6392,28.91],[-82.6561,28.8781],[-82.6414,28.8519],[-82.6628,28.8533],[-82.679,28.8703],[-82.7125,28.8708],[-82.7307,28.8587],[-82.7309,28.837],[-82.6928,28.8167],[-82.6856,28.7936],[-82.696,28.7845],[-82.6978,28.7675],[-82.652,28.748],[-82.6541,28.74],[-82.685,28.7353],[-82.6911,28.7153],[-82.6819,28.7067],[-82.6633,28.7154],[-82.6352,28.6935]]]},"properties":{"GID_0":"USA","GID_1":"USA.10_1","GID_2":"USA.10.9_1","NAME_1":"Florida","NAME_2":"Citrus"}},
{"type":"Feature","geometry":{"type":"Polygon","coordinates":[[[-82.0494,30.1434],[-82.0489,29.9387],[-82.0461,29.7472],[-82.0494,29.7189],[-82.0294,29.7185],[-82.0047,29.7405],[-81.9756,29.7473],[-81.9404,29.7471],[-81.9312,29.7553],[-81.9205,29.7866],[-81.8908,29.7984],[-81.8629,29.8001],[-81.8227,29.8259],[-81.813,29.8367],[-81.5752,29.8402],[-81.5992,29.8959],[-81.5992,29.9199],[-81.5884,29.9516],[-81.6,29.9748],[-81.6441,30.0066],[-81.6735,30.0445],[-81.6704,30.1277],[-81.675,30.1598],[-81.6712,30.1853],[-81.6833,30.1908],[-81.9559,30.1861],[-82.0494,30.1869],[-82.0494,30.1434]]]},"properties":{"GID_0":"USA","GID_1":"USA.10_1","GID_2":"USA.10.10_1","NAME_1":"Florida","NAME_2":"Clay"}},
{"type":"Feature","geometry":{"type":"MultiPolygon","coordinates":[[[[-81.6751,25.8765],[-81.6974,25.8704],[-81.6804,25.8457],[-81.6693,25.866],[-81.6751,25.8765]]],[[[-81.7279,25.974],[-81.7504,25.9588],[-81.7298,25.9277],[-81.7288,25.9079],[-81.6924,25.9093],[-81.6982,25.9271],[-81.6865,25.9365],[-81.6735,25.9007],[-81.6496,25.9046],[-81.6565,25.9176],[-81.6552,25.9426],[-81.6685,25.9504],[-81.7046,25.9524],[-81.7279,25.974]]],[[[-81.7696,26.0417],[-81.7701,26.0362],[-81.7588,26.0154],[-81.7468,26.024],[-81.7568,26.0296],[-81.7696,26.0417]]],[[[-81.3962,25.8046],[-81.3687,25.8141],[-81.3924,25.8282],[-81.3962,25.8046]]],[[[-81.4118,25.8031],[-81.3949,25.8313],[-81.4246,25.8554],[-81.4799,25.8443],[-81.4604,25.8179],[-81.4351,25.8215],[-81.4118,25.8031]]],[[[-80.873,25.9795],[-80.8769,26.1239],[-80.8796,26.1727],[-80.88,26.2593],[-81.2688,26.2531],[-81.272,26.4225],[-81.2716,26.5173],[-81.4021,26.5169],[-81.4817,26.5133],[-81.5642,26.5133],[-81.5622,26.4227],[-81.6598,26.4207],[-81.658,26.3177],[-81.8191,26.3165],[-81.8192,26.3305],[-81.8463,26.3305],[-81.8365,26.3068],[-81.8185,26.2268],[-81.8149,26.184],[-81.8087,26.1515],[-81.8012,26.0899],[-81.771,26.0362],[-81.7718,26.044],[-81.7632,26.0399],[-81.7526,26.0396],[-81.7337,26.0299],[-81.7396,26.0163],[-81.7349,25.9988],[-81.7001,25.9604],[-81.6657,25.9504],[-81.6335,25.9265],[-81.5968,25.9318],[-81.5796,25.9099],[-81.6118,25.9157],[-81.6082,25.8954],[-81.589,25.8799],[-81.5582,25.8993],[-81.5301,25.8929],[-81.5304,25.8687],[-81.5201,25.8557],[-81.5193,25.8396],[-81.4882,25.8576],[-81.4718,25.8501],[-81.4596,25.861],[-81.4235,25.8668],[-81.3996,25.8568],[-81.3785,25.8363],[-81.3479,25.8193],[-81.3443,25.8035],[-80.9816,25.8039],[-80.8731,25.8059],[-80.873,25.9795]]]]},"properties":{"GID_0":"USA","GID_1":"USA.10_1","GID_2":"USA.10.11_1","NAME_1":"Florida","NAME_2":"Collier"}},
{"type":"Feature","geometry":{"type":"Polygon","coordinates":[[[-82.5298,29.9412],[-82.5306,29.9559],[-82.55,29.9612],[-82.5682,29.9775],[-82.5703,30.0059],[-82.5649,30.0145],[-82.5404,30.0256],[-82.5319,30.0603],[-82.5136,30.0811],[-82.5003,30.0887],[-82.4573,30.1023],[-82.4521,30.1233],[-82.4582,30.1367],[-82.4581,30.3975],[-82.4599,30.5837],[-82.6896,30.5976],[-82.7064,30.574],[-82.7263,30.5582],[-82.715,30.5307],[-82.7242,30.5184],[-82.7075,30.5022],[-82.6984,30.4751],[-82.6556,30.4353],[-82.6464,30.4141],[-82.6472,30.3949],[-82.6584,30.3914],[-82.6646,30.3677],[-82.6817,30.3583],[-82.682,30.3418],[-82.7167,30.3212],[-82.7324,30.3305],[-82.7469,30.3169],[-82.7606,30.324],[-82.7881,30.3252],[-82.7948,30.3367],[-82.7941,29.9861],[-82.7604,29.9867],[-82.7623,29.9647],[-82.7856,29.9549],[-82.7921,29.9444],[-82.7916,29.9422],[-82.7991,29.9363],[-82.8007,29.9322],[-82.7922,29.9344],[-82.7702,29.9268],[-82.771,29.9099],[-82.7323,29.8572],[-82.7088,29.8473],[-82.6937,29.8343],[-82.6717,29.8318],[-82.6586,29.8302],[-82.6338,29.8313],[-82.6283,29.8473],[-82.5896,29.8628],[-82.593,29.8821],[-82.5759,29.8983],[-82.5746,29.9125],[-82.557,29.9247],[-82.5433,29.9249],[-82.5298,29.9412]]]},"properties":{"GID_0":"USA","GID_1":"USA.10_1","GID_2":"USA.10.12_1","NAME_1":"Florida","NAME_2":"Columbia"}},
{"type":"Feature","geometry":{"type":"Polygon","coordinates":[[[-81.5627,27.0332],[-81.5637,27.3409],[-81.8579,27.3404],[-81.8754,27.3366],[-82.0562,27.3382],[-82.0575,27.032],[-81.9969,27.0313],[-81.979,27.0352],[-81.5627,27.0332]]]},"properties":{"GID_0":"USA","GID_1":"USA.10_1","GID_2":"USA.10.13_1","NAME_1":"Florida","NAME_2":"Desoto"}},
{"type":"Feature","geometry":{"type":"MultiPolygon","coordinates":[[[[-83.1642,29.3159],[-83.1641,29.3102],[-83.1614,29.311],[-83.1609,29.3156],[-83.1642,29.3159]]],[[[-83.1504,29.3123],[-83.1393,29.3273],[-83.0901,29.3324],[-83.0685,29.3437],[-83.0656,29.3726],[-83.0456,29.3802],[-83.0158,29.4226],[-83.022,29.4295],[-83.0002,29.4632],[-82.986,29.4672],[-82.9822,29.5171],[-82.9701,29.5253],[-82.9778,29.5396],[-82.9482,29.5576],[-82.9378,29.5914],[-82.9552,29.5856],[-82.9727,29.6092],[-82.9725,29.6266],[-82.9566,29.6393],[-82.9579,29.6988],[-82.9395,29.7009],[-82.9503,29.7239],[-82.939,29.7435],[-82.9504,29.756],[-82.9374,29.7843],[-82.9302,29.8186],[-82.9206,29.8244],[-83.0011,29.8252],[-83.3193,29.8226],[-83.3197,29.7786],[-83.3319,29.7618],[-83.3437,29.7357],[-83.3508,29.695],[-83.3736,29.6658],[-83.401,29.6727],[-83.4123,29.6624],[-83.4036,29.6419],[-83.4008,29.6035],[-83.4084,29.5923],[-83.3945,29.5332],[-83.3976,29.5185],[-83.3783,29.5042],[-83.3556,29.4997],[-83.3311,29.4753],[-83.3122,29.4738],[-83.2953,29.4368],[-83.2647,29.4374],[-83.2336,29.4323],[-83.2183,29.4197],[-83.1905,29.369],[-83.1737,29.3305],[-83.1603,29.3192],[-83.1578,29.3133],[-83.1504,29.3123]]]]},"properties":{"GID_0":"USA","GID_1":"USA.10_1","GID_2":"USA.10.14_1","NAME_1":"Florida","NAME_2":"Dixie"}},
{"type":"Feature","geometry":{"type":"Polygon","coordinates":[[[-82.0494,30.1869],[-81.9559,30.1861],[-81.6833,30.1908],[-81.6712,30.1853],[-81.675,30.1598],[-81.6712,30.128],[-81.6541,30.1218],[-81.6013,30.131],[-81.5668,30.121],[-81.5388,30.1203],[-81.5388,30.1038],[-81.4342,30.1056],[-81.437,30.2521],[-81.3797,30.253],[-81.3894,30.2936],[-81.3967,30.3456],[-81.3975,30.3744],[-81.3894,30.3969],[-81.4139,30.4211],[-81.4075,30.4338],[-81.412,30.4855],[-81.4238,30.4837],[-81.451,30.5045],[-81.4512,30.5199],[-81.4723,30.5292],[-81.498,30.5587],[-81.5105,30.5672],[-81.5195,30.5486],[-81.5435,30.5269],[-81.5574,30.5486],[-81.5744,30.5393],[-81.5861,30.5447],[-81.5868,30.564],[-81.604,30.5679],[-81.6136,30.5818],[-81.63,30.584],[-81.6603,30.5655],[-81.6762,30.5644],[-81.7222,30.5718],[-81.7359,30.5579],[-81.7369,30.541],[-81.7631,30.5347],[-81.7729,30.5061],[-81.7952,30.5056],[-81.81,30.4848],[-81.8317,30.4674],[-82.0122,30.3052],[-82.0495,30.2734],[-82.0494,30.1869]]]},"properties":{"GID_0":"USA","GID_1":"USA.10_1","GID_2":"USA.10.15_1","NAME_1":"Florida","NAME_2":"Duval"}},
{"type":"Feature","geometry":{"type":"MultiPolygon","coordinates":[[[[-87.3122,30.3269],[-87.3244,30.3192],[-87.36,30.3172],[-87.3667,30.3114],[-87.4089,30.3008],[-87.4256,30.3122],[-87.4519,30.2964],[-87.4099,30.299],[-87.3162,30.3176],[-87.3122,30.3269]]],[[[-86.8506,30.3797],[-86.8508,30.3856],[-86.9339,30.3733],[-86.9883,30.3619],[-87.0158,30.3597],[-87.1291,30.3358],[-87.1489,30.3406],[-87.1539,30.3279],[-87.0167,30.3542],[-86.9956,30.355],[-86.8758,30.3775],[-86.8506,30.3797]]],[[[-87.1628,31.0008],[-87.6012,31.0004],[-87.5913,30.9713],[-87.5921,30.9539],[-87.6115,30.9226],[-87.6239,30.8884],[-87.6372,30.867],[-87.6258,30.8476],[-87.6059,30.834],[-87.6004,30.8222],[-87.5822,30.8132],[-87.5531,30.7842],[-87.5285,30.7411],[-87.5017,30.7222],[-87.482,30.7173],[-87.4685,30.7014],[-87.4515,30.6992],[-87.4071,30.6731],[-87.3966,30.655],[-87.3974,30.6106],[-87.4077,30.6025],[-87.4093,30.5839],[-87.4479,30.526],[-87.445,30.5068],[-87.4341,30.4974],[-87.435,30.4797],[-87.4003,30.4525],[-87.3744,30.4589],[-87.3586,30.4542],[-87.3408,30.43],[-87.3583,30.4172],[-87.3908,30.4114],[-87.3981,30.4003],[-87.4256,30.4025],[-87.425,30.3803],[-87.4408,30.3653],[-87.4169,30.3425],[-87.4314,30.3361],[-87.4497,30.3131],[-87.4301,30.3143],[-87.4011,30.309],[-87.387,30.3233],[-87.35,30.3258],[-87.3231,30.3319],[-87.3064,30.3451],[-87.265,30.3442],[-87.2658,30.3717],[-87.2576,30.3884],[-87.2064,30.4086],[-87.1731,30.4323],[-87.1603,30.4683],[-87.1581,30.4961],[-87.1619,30.5152],[-87.1877,30.5308],[-87.1872,30.5413],[-87.1818,30.5438],[-87.1794,30.5436],[-87.1905,30.5496],[-87.2103,30.5549],[-87.2246,30.5811],[-87.2573,30.6135],[-87.2688,30.6758],[-87.2678,30.6919],[-87.2714,30.716],[-87.2998,30.7206],[-87.3126,30.7344],[-87.3039,30.7676],[-87.3105,30.7871],[-87.2928,30.8114],[-87.3008,30.8372],[-87.3136,30.8496],[-87.3024,30.8628],[-87.2983,30.8812],[-87.2847,30.8875],[-87.2825,30.9246],[-87.268,30.9347],[-87.2556,30.9314],[-87.2279,30.961],[-87.2059,30.9694],[-87.1628,31.0008]]]]},"properties":{"GID_0":"USA","GID_1":"USA.10_1","GID_2":"USA.10.16_1","NAME_1":"Florida","NAME_2":"Escambia"}},
{"type":"Feature","geometry":{"type":"Polygon","coordinates":[[[-81.2131,29.6706],[-81.2474,29.659],[-81.2597,29.6689],[-81.2797,29.6506],[-81.3007,29.6511],[-81.3241,29.6256],[-81.5237,29.6225],[-81.5211,29.4978],[-81.491,29.4544],[-81.479,29.3987],[-81.4552,29.3894],[-81.434,29.3985],[-81.4209,29.4001],[-81.4173,29.261],[-81.1501,29.2658],[-81.1556,29.4109],[-81.1491,29.4167],[-81.1084,29.427],[-81.1075,29.427],[-81.1183,29.4631],[-81.1653,29.5575],[-81.2131,29.6706]]]},"properties":{"GID_0":"USA","GID_1":"USA.10_1","GID_2":"USA.10.17_1","NAME_1":"Florida","NAME_2":"Flagler"}},
{"type":"Feature","geometry":{"type":"MultiPolygon","coordinates":[[[[-85.0861,29.6214],[-85.053,29.5899],[-85.0261,29.5965],[-85.0686,29.6089],[-85.0861,29.6214]]],[[[-85.1183,29.6884],[-85.1375,29.6858],[-85.15,29.6737],[-85.1858,29.6839],[-85.2222,29.6787],[-85.1828,29.6638],[-85.1357,29.6313],[-85.0975,29.6322],[-85.075,29.6741],[-85.0951,29.6851],[-85.1183,29.6884]]],[[[-84.6931,29.7666],[-84.7126,29.7468],[-84.7403,29.7267],[-84.775,29.7089],[-84.7856,29.6922],[-84.8169,29.6797],[-84.8583,29.6725],[-84.8753,29.6564],[-84.7842,29.6867],[-84.7675,29.6972],[-84.7153,29.7419],[-84.6931,29.7666]]],[[[-84.5717,29.8258],[-84.6036,29.8108],[-84.5989,29.7997],[-84.5792,29.8067],[-84.5717,29.8258]]],[[[-85.2177,29.6942],[-85.1361,29.7128],[-85.1025,29.7186],[-85.0683,29.7181],[-85.0417,29.713],[-84.9906,29.715],[-84.9684,29.7272],[-84.9697,29.7419],[-84.9245,29.7611],[-84.9029,29.7864],[-84.8711,29.7811],[-84.8858,29.7667],[-84.9019,29.7344],[-84.8939,29.7263],[-84.8656,29.744],[-84.7991,29.7689],[-84.757,29.788],[-84.7013,29.8251],[-84.6761,29.8317],[-84.6597,29.8447],[-84.6361,29.8525],[-84.5978,29.8794],[-84.5708,29.8892],[-84.5331,29.9114],[-84.5092,29.9169],[-84.4928,29.9122],[-84.472,29.9241],[-84.4444,29.9297],[-84.3982,29.9213],[-84.3636,29.9097],[-84.3489,29.8969],[-84.3364,29.9117],[-84.3386,29.9472],[-84.3832,29.9611],[-84.4267,29.9597],[-84.4436,29.9632],[-84.4361,29.9833],[-84.4572,29.9726],[-84.4595,29.9936],[-84.4727,30.0018],[-84.4895,29.9875],[-84.5132,29.9888],[-84.5238,30.0039],[-84.5449,30.0106],[-84.8518,30.0114],[-85.0078,30.0137],[-85.0237,29.9738],[-85.0121,29.9308],[-85.0161,29.8708],[-85.0338,29.8551],[-85.0329,29.8299],[-85.0202,29.8209],[-85.0205,29.8071],[-85.0346,29.7951],[-85.0402,29.779],[-85.0666,29.7865],[-85.0795,29.7681],[-85.1101,29.7769],[-85.2064,29.7109],[-85.2177,29.6942]]]]},"properties":{"GID_0":"USA","GID_1":"USA.10_1","GID_2":"USA.10.18_1","NAME_1":"Florida","NAME_2":"Franklin"}},
{"type":"Feature","geometry":{"type":"Polygon","coordinates":[[[-84.9328,30.6064],[-84.884,30.6054],[-84.8827,30.5332],[-84.8163,30.5333],[-84.8162,30.5186],[-84.7817,30.5189],[-84.7812,30.4599],[-84.7144,30.4603],[-84.714,30.4174],[-84.6806,30.4171],[-84.6809,30.3883],[-84.6465,30.388],[-84.6223,30.4101],[-84.59,30.4126],[-84.5578,30.4361],[-84.5298,30.4394],[-84.5251,30.4491],[-84.4944,30.4597],[-84.4621,30.4571],[-84.4224,30.466],[-84.3975,30.4866],[-84.4061,30.509],[-84.3945,30.5159],[-84.3878,30.5512],[-84.3778,30.574],[-84.3445,30.5965],[-84.3027,30.6383],[-84.2975,30.6794],[-84.2811,30.6863],[-84.8665,30.7116],[-84.8584,30.6998],[-84.8751,30.6718],[-84.8904,30.6598],[-84.904,30.6382],[-84.9054,30.6222],[-84.9328,30.6064]]]},"properties":{"GID_0":"USA","GID_1":"USA.10_1","GID_2":"USA.10.19_1","NAME_1":"Florida","NAME_2":"Gadsden"}},
{"type":"Feature","geometry":{"type":"Polygon","coordinates":[[[-82.6586,29.8302],[-82.6717,29.8318],[-82.6937,29.8343],[-82.7088,29.8473],[-82.7323,29.8572],[-82.771,29.9099],[-82.7702,29.9268],[-82.7922,29.9344],[-82.8096,29.9318],[-82.8347,29.9128],[-82.8579,29.9122],[-82.8803,29.8868],[-82.8772,29.8858],[-82.878,29.862],[-82.8887,29.8498],[-82.8938,29.826],[-82.9206,29.8244],[-82.9302,29.8186],[-82.9374,29.7843],[-82.9504,29.756],[-82.939,29.7435],[-82.9503,29.7239],[-82.9395,29.7009],[-82.9579,29.6988],[-82.9566,29.6393],[-82.9725,29.6266],[-82.9727,29.6092],[-82.9552,29.5856],[-82.9378,29.5914],[-82.8565,29.5911],[-82.8566,29.5842],[-82.7748,29.5851],[-82.757,29.5776],[-82.7562,29.5625],[-82.6566,29.5649],[-82.6586,29.8302]]]},"properties":{"GID_0":"USA","GID_1":"USA.10_1","GID_2":"USA.10.20_1","NAME_1":"Florida","NAME_2":"Gilchrist"}},
{"type":"Feature","geometry":{"type":"Polygon","coordinates":[[[-81.5661,26.7697],[-81.4596,26.7685],[-81.4594,26.7834],[-81.4349,26.7833],[-81.4354,26.7683],[-80.9455,26.7686],[-80.8855,26.9586],[-80.8689,27.1459],[-80.8865,27.1662],[-80.9091,27.1756],[-80.9157,27.1901],[-80.9381,27.2051],[-80.9435,27.2108],[-81.1691,27.2088],[-81.1684,27.1216],[-81.2678,27.121],[-81.2675,27.0324],[-81.5627,27.0332],[-81.5632,26.9086],[-81.5661,26.7697]]]},"properties":{"GID_0":"USA","GID_1":"USA.10_1","GID_2":"USA.10.21_1","NAME_1":"Florida","NAME_2":"Glades"}},
{"type":"Feature","geometry":{"type":"Polygon","coordinates":[[[-85.3901,30.2013],[-85.39,30.0336],[-85.3911,30.0281],[-85.392,30.0091],[-85.3891,29.9247],[-85.36,29.8933],[-85.3428,29.8572],[-85.3231,29.8436],[-85.3122,29.8156],[-85.3023,29.8066],[-85.3056,29.7272],[-85.3128,29.6883],[-85.3294,29.6886],[-85.3536,29.6801],[-85.3763,29.7026],[-85.41,29.805],[-85.4096,29.8322],[-85.3994,29.8528],[-85.4126,29.8593],[-85.4167,29.8161],[-85.4114,29.7878],[-85.3953,29.7344],[-85.3808,29.7017],[-85.3517,29.6636],[-85.3303,29.6779],[-85.3045,29.6838],[-85.2458,29.6817],[-85.2177,29.6942],[-85.2064,29.7109],[-85.1101,29.7769],[-85.0795,29.7681],[-85.0666,29.7865],[-85.0402,29.779],[-85.0346,29.7951],[-85.0205,29.8071],[-85.0202,29.8209],[-85.0329,29.8299],[-85.0338,29.8551],[-85.0161,29.8708],[-85.0121,29.9308],[-85.0264,29.9829],[-85.0455,29.9882],[-85.0583,30.0041],[-85.072,30.0044],[-85.097,30.0207],[-85.1139,30.0228],[-85.1321,30.0386],[-85.1388,30.0715],[-85.1342,30.0802],[-85.1375,30.0871],[-85.1489,30.1112],[-85.1371,30.1352],[-85.1396,30.1621],[-85.1351,30.1809],[-85.1158,30.1999],[-85.3901,30.2013]]]},"properties":{"GID_0":"USA","GID_1":"USA.10_1","GID_2":"USA.10.22_1","NAME_1":"Florida","NAME_2":"Gulf"}},
{"type":"Feature","geometry":{"type":"Polygon","coordinates":[[[-82.6896,30.5976],[-83.2945,30.6319],[-83.2691,30.6217],[-83.2588,30.5951],[-83.2575,30.5548],[-83.2397,30.5268],[-83.2423,30.4825],[-83.2191,30.4636],[-83.2174,30.4233],[-83.1815,30.4098],[-83.1711,30.3855],[-83.1598,30.4114],[-83.1475,30.42],[-83.1395,30.425],[-83.08,30.4415],[-83.0706,30.4263],[-83.0276,30.43],[-82.9879,30.4274],[-82.9516,30.4106],[-82.928,30.3907],[-82.8533,30.3547],[-82.8429,30.3432],[-82.8291,30.3467],[-82.7948,30.3367],[-82.7881,30.3252],[-82.7606,30.324],[-82.7469,30.3169],[-82.7324,30.3305],[-82.7167,30.3212],[-82.682,30.3418],[-82.6817,30.3583],[-82.6646,30.3677],[-82.6584,30.3914],[-82.6472,30.3949],[-82.6464,30.4141],[-82.6556,30.4353],[-82.6984,30.4751],[-82.7075,30.5022],[-82.7242,30.5184],[-82.715,30.5307],[-82.7263,30.5582],[-82.7064,30.574],[-82.6896,30.5976]]]},"properties":{"GID_0":"USA","GID_1":"USA.10_1","GID_2":"USA.10.23_1","NAME_1":"Florida","NAME_2":"Hamilton"}},
{"type":"Feature","geometry":{"type":"Polygon","coordinates":[[[-81.5637,27.3409],[-81.5637,27.6464],[-82.0543,27.6465],[-82.0562,27.3382],[-81.8754,27.3366],[-81.8579,27.3404],[-81.5637,27.3409]]]},"properties":{"GID_0":"USA","GID_1":"USA.10_1","GID_2":"USA.10.24_1","NAME_1":"Florida","NAME_2":"Hardee"}},
{"type":"Feature","geometry":{"type":"Polygon","coordinates":[[[-80.8814,26.3342],[-80.8855,26.9586],[-80.9455,26.7686],[-81.4354,26.7683],[-81.4349,26.7833],[-81.4594,26.7834],[-81.4596,26.7685],[-81.5661,26.7697],[-81.5668,26.7092],[-81.5642,26.5133],[-81.4817,26.5133],[-81.4021,26.5169],[-81.2716,26.5173],[-81.272,26.4225],[-81.2688,26.2531],[-80.8801,26.2593],[-80.8814,26.3342]]]},"properties":{"GID_0":"USA","GID_1":"USA.10_1","GID_2":"USA.10.25_1","NAME_1":"Florida","NAME_2":"Hendry"}},
{"type":"Feature","geometry":{"type":"Polygon","coordinates":[[[-82.2631,28.6679],[-82.4183,28.6657],[-82.4182,28.6951],[-82.6352,28.6935],[-82.6489,28.6742],[-82.6653,28.6632],[-82.6672,28.6415],[-82.6539,28.6203],[-82.6614,28.6045],[-82.6497,28.5878],[-82.6563,28.5752],[-82.6464,28.5629],[-82.6578,28.5503],[-82.6496,28.5337],[-82.655,28.5142],[-82.6694,28.5119],[-82.665,28.4894],[-82.67,28.4697],[-82.6668,28.4334],[-82.2534,28.4348],[-82.253,28.4785],[-82.0553,28.4787],[-82.0548,28.5219],[-82.0696,28.5318],[-82.09,28.5235],[-82.1077,28.5426],[-82.1253,28.5434],[-82.1348,28.5583],[-82.1542,28.5719],[-82.1647,28.5657],[-82.2147,28.5766],[-82.2227,28.5928],[-82.2601,28.6357],[-82.2589,28.6481],[-82.2753,28.6566],[-82.2631,28.6679]]]},"properties":{"GID_0":"USA","GID_1":"USA.10_1","GID_2":"USA.10.26_1","NAME_1":"Florida","NAME_2":"Hernando"}},
{"type":"Feature","geometry":{"type":"Polygon","coordinates":[[[-81.5627,27.0332],[-81.2675,27.0324],[-81.2678,27.121],[-81.1684,27.1216],[-81.1691,27.2088],[-80.9435,27.2108],[-80.9489,27.2188],[-80.9658,27.2165],[-80.9806,27.2299],[-80.9826,27.2451],[-80.9988,27.2654],[-80.9987,27.2968],[-81.0205,27.3016],[-81.03,27.3207],[-81.0434,27.3326],[-81.0393,27.3625],[-81.0677,27.3831],[-81.1044,27.386],[-81.116,27.3909],[-81.1413,27.4142],[-81.142,27.44],[-81.1694,27.462],[-81.183,27.484],[-81.2032,27.4914],[-81.2017,27.5075],[-81.2096,27.5308],[-81.2014,27.5476],[-81.1596,27.5728],[-81.1427,27.6027],[-81.1424,27.6432],[-81.3673,27.6463],[-81.5637,27.6464],[-81.5627,27.0332]]]},"properties":{"GID_0":"USA","GID_1":"USA.10_1","GID_2":"USA.10.27_1","NAME_1":"Florida","NAME_2":"Highlands"}},
{"type":"Feature","geometry":{"type":"Polygon","coordinates":[[[-82.6486,28.0207],[-82.6378,28.0069],[-82.6044,27.9825],[-82.5706,27.9747],[-82.5539,27.9667],[-82.5308,27.9281],[-82.5352,27.8942],[-82.5297,27.8773],[-82.5546,27.8517],[-82.5117,27.8275],[-82.4722,27.8228],[-82.4692,27.8431],[-82.4882,27.8652],[-82.4806,27.8861],[-82.4914,27.9148],[-82.4619,27.9375],[-82.4622,27.9097],[-82.4278,27.9127],[-82.4338,27.9304],[-82.4131,27.9294],[-82.4353,27.8997],[-82.4156,27.9],[-82.4012,27.8779],[-82.4031,27.8539],[-82.3928,27.8364],[-82.3958,27.8147],[-82.4349,27.7768],[-82.4328,27.7658],[-82.4783,27.7472],[-82.4724,27.7108],[-82.4922,27.7094],[-82.5175,27.6964],[-82.5361,27.675],[-82.5536,27.6461],[-82.0543,27.6465],[-82.0545,27.7266],[-82.0564,27.7542],[-82.0546,27.8781],[-82.0566,27.9273],[-82.0562,28.1716],[-82.4218,28.1712],[-82.6513,28.173],[-82.6489,28.0989],[-82.6486,28.0207]]]},"properties":{"GID_0":"USA","GID_1":"USA.10_1","GID_2":"USA.10.28_1","NAME_1":"Florida","NAME_2":"Hillsborough"}},
{"type":"Feature","geometry":{"type":"Polygon","coordinates":[[[-86.0354,30.9943],[-86.0377,30.7045],[-85.8452,30.7028],[-85.8266,30.7274],[-85.8291,30.7689],[-85.8216,30.7905],[-85.7524,30.7894],[-85.7356,30.775],[-85.7366,30.7462],[-85.619,30.7434],[-85.6205,30.7699],[-85.6035,30.7967],[-85.5999,30.8305],[-85.5961,30.8539],[-85.5752,30.8994],[-85.5486,30.9318],[-85.5316,30.938],[-85.5331,30.9603],[-85.4986,30.9966],[-85.8058,30.9945],[-86.0354,30.9943]]]},"properties":{"GID_0":"USA","GID_1":"USA.10_1","GID_2":"USA.10.29_1","NAME_1":"Florida","NAME_2":"Holmes"}},
{"type":"Feature","geometry":{"type":"MultiPolygon","coordinates":[[[[-80.7669,27.8241],[-80.882,27.8225],[-80.8807,27.734],[-80.8736,27.731],[-80.8732,27.6425],[-80.7783,27.6434],[-80.7774,27.5586],[-80.3558,27.5573],[-80.3639,27.5952],[-80.3752,27.6248],[-80.3754,27.653],[-80.4045,27.7145],[-80.4246,27.7446],[-80.4431,27.7796],[-80.4614,27.8059],[-80.4802,27.8424],[-80.5092,27.8297],[-80.5095,27.8223],[-80.7407,27.8228],[-80.7669,27.8241]]],[[[-80.4178,27.7619],[-80.4091,27.7327],[-80.3956,27.7348],[-80.4039,27.7556],[-80.4178,27.7619]]],[[[-80.3209,27.557],[-80.33,27.5961],[-80.3488,27.6278],[-80.358,27.6661],[-80.3806,27.7339],[-80.4005,27.7734],[-80.4312,27.8253],[-80.4417,27.8056],[-80.4247,27.7972],[-80.4183,27.7665],[-80.4028,27.7569],[-80.394,27.7359],[-80.3978,27.7217],[-80.3806,27.6783],[-80.3695,27.6691],[-80.3727,27.6526],[-80.3422,27.5958],[-80.3328,27.5574],[-80.3209,27.557]]]]},"properties":{"GID_0":"USA","GID_1":"USA.10_1","GID_2":"USA.10.30_1","NAME_1":"Florida","NAME_2":"IndianRiver"}},
{"type":"Feature","geometry":{"type":"Polygon","coordinates":[[[-85.4986,30.9966],[-85.5331,30.9603],[-85.5316,30.938],[-85.5486,30.9318],[-85.5752,30.8994],[-85.5961,30.8539],[-85.5999,30.8305],[-85.4828,30.8299],[-85.483,30.786],[-85.433,30.7857],[-85.4355,30.5672],[-85.1717,30.5644],[-85.1665,30.6083],[-84.9987,30.6058],[-84.9328,30.6064],[-84.9054,30.6222],[-84.904,30.6382],[-84.8904,30.6598],[-84.8751,30.6718],[-84.8584,30.6998],[-84.873,30.7225],[-84.8989,30.7521],[-84.9143,30.751],[-84.921,30.7779],[-84.9313,30.7961],[-84.937,30.8328],[-84.9276,30.8441],[-84.936,30.8557],[-84.9367,30.8872],[-84.9723,30.9297],[-84.9819,30.9346],[-84.979,30.9579],[-85.0001,30.9729],[-85.0035,31.0021],[-85.3781,31.0003],[-85.4986,30.9966]]]},"properties":{"GID_0":"USA","GID_1":"USA.10_1","GID_2":"USA.10.31_1","NAME_1":"Florida","NAME_2":"Jackson"}},
{"type":"Feature","geometry":{"type":"Polygon","coordinates":[[[-84.0765,30.0956],[-84.0639,30.1008],[-84.0206,30.1031],[-84.0136,30.0969],[-83.9844,30.1058],[-83.9798,30.1191],[-83.9603,30.1525],[-83.9518,30.1864],[-83.9296,30.1891],[-83.9265,30.1923],[-83.918,30.2152],[-83.9164,30.2408],[-83.91,30.2476],[-83.8793,30.2691],[-83.8381,30.28],[-83.82,30.2997],[-83.8195,30.3111],[-83.8131,30.3175],[-83.7925,30.3189],[-83.7871,30.3317],[-83.8046,30.3527],[-83.8066,30.3719],[-83.7579,30.3851],[-83.7515,30.4084],[-83.7217,30.4344],[-83.7285,30.4541],[-83.7279,30.4902],[-83.7368,30.5081],[-83.7262,30.5227],[-83.7044,30.524],[-83.7044,30.5377],[-83.6715,30.5376],[-83.6714,30.5532],[-83.6375,30.5526],[-83.6215,30.5672],[-83.6209,30.5818],[-83.6044,30.5818],[-83.6047,30.638],[-83.6121,30.6504],[-84.0073,30.6734],[-84.0084,30.6263],[-84.002,30.5834],[-83.9818,30.5546],[-83.9776,30.5221],[-84.0413,30.5221],[-84.0418,30.4631],[-84.0746,30.4343],[-84.0765,30.0956]]]},"properties":{"GID_0":"USA","GID_1":"USA.10_1","GID_2":"USA.10.32_1","NAME_1":"Florida","NAME_2":"Jefferson"}},
{"type":"Feature","geometry":{"type":"Polygon","coordinates":[[[-82.9206,29.8244],[-82.8938,29.826],[-82.8887,29.8498],[-82.878,29.862],[-82.8772,29.8858],[-82.885,29.8873],[-82.898,29.9016],[-82.919,29.9082],[-82.9203,29.9302],[-82.932,29.9578],[-82.9526,29.9594],[-82.9637,29.9943],[-82.9804,30.0077],[-83.0031,30.0098],[-83.0082,30.0244],[-83.0415,30.0545],[-83.0667,30.0652],[-83.0703,30.0818],[-83.1129,30.0917],[-83.1143,30.1023],[-83.1207,30.1051],[-83.1323,30.0969],[-83.1623,30.11],[-83.1851,30.0941],[-83.1988,30.1061],[-83.213,30.103],[-83.2266,30.1141],[-83.2248,30.1383],[-83.239,30.1522],[-83.232,30.1677],[-83.2451,30.1769],[-83.2501,30.2012],[-83.2399,30.2267],[-83.2535,30.2374],[-83.2481,30.2456],[-83.2534,30.2506],[-83.2517,30.2589],[-83.2501,30.2602],[-83.367,30.2605],[-83.3714,29.8879],[-83.353,29.8878],[-83.353,29.8224],[-83.0011,29.8252],[-82.9206,29.8244]]]},"properties":{"GID_0":"USA","GID_1":"USA.10_1","GID_2":"USA.10.33_1","NAME_1":"Florida","NAME_2":"Lafayette"}},
{"type":"Feature","geometry":{"type":"Polygon","coordinates":[[[-81.3672,28.8793],[-81.356,28.8891],[-81.3583,28.9131],[-81.3528,28.9244],[-81.3566,28.9502],[-81.3675,28.9675],[-81.3556,28.9837],[-81.3761,28.9952],[-81.4019,29.0353],[-81.4307,29.0466],[-81.454,29.0705],[-81.4569,29.0949],[-81.4974,29.1],[-81.503,29.1245],[-81.524,29.1722],[-81.545,29.1864],[-81.5813,29.2216],[-81.6413,29.3281],[-81.641,29.1317],[-81.6387,29.0477],[-81.6595,29.0477],[-81.6588,28.9604],[-81.9541,28.96],[-81.9538,28.5862],[-81.9581,28.345],[-81.8578,28.3463],[-81.8579,28.3619],[-81.7907,28.3619],[-81.7911,28.3463],[-81.6578,28.3471],[-81.6568,28.5691],[-81.6475,28.5845],[-81.6576,28.5953],[-81.6585,28.7667],[-81.6466,28.7857],[-81.4138,28.7859],[-81.4201,28.8181],[-81.4135,28.829],[-81.3836,28.8526],[-81.3672,28.8793]]]},"properties":{"GID_0":"USA","GID_1":"USA.10_1","GID_2":"USA.10.34_1","NAME_1":"Florida","NAME_2":"Lake"}},
{"type":"Feature","geometry":{"type":"MultiPolygon","coordinates":[[[[-81.5668,26.7092],[-81.5661,26.7697],[-82.0612,26.7682],[-82.0693,26.7363],[-82.0826,26.7129],[-82.0818,26.666],[-82.0735,26.6596],[-82.0643,26.6338],[-82.0468,26.609],[-82.0474,26.5838],[-82.064,26.5671],[-82.0496,26.5407],[-82.039,26.5313],[-82.0165,26.529],[-82.0099,26.5174],[-82.0115,26.4835],[-81.9715,26.4785],[-81.9465,26.4715],[-81.9199,26.4415],[-81.8801,26.4474],[-81.8707,26.4579],[-81.8546,26.4451],[-81.8574,26.434],[-81.8396,26.3796],[-81.8571,26.3782],[-81.8635,26.3629],[-81.8463,26.3305],[-81.8192,26.3305],[-81.8191,26.3165],[-81.658,26.3177],[-81.6598,26.4207],[-81.5622,26.4227],[-81.5668,26.7092]]],[[[-82.1971,26.5518],[-82.189,26.4971],[-82.1729,26.4688],[-82.1443,26.4518],[-82.1279,26.4368],[-82.0907,26.4224],[-82.0715,26.4215],[-82.0368,26.4382],[-82.034,26.4526],[-82.0568,26.4685],[-82.0704,26.4588],[-82.0732,26.4457],[-82.0876,26.4432],[-82.1015,26.4665],[-82.1537,26.4793],[-82.174,26.4938],[-82.1971,26.5518]]],[[[-82.1599,26.7065],[-82.1837,26.6943],[-82.1813,26.6804],[-82.1571,26.6635],[-82.1382,26.6329],[-82.1415,26.6157],[-82.1321,26.6096],[-82.1113,26.5407],[-82.1071,26.514],[-82.0943,26.489],[-82.0624,26.4921],[-82.0726,26.5243],[-82.0679,26.536],[-82.0801,26.5462],[-82.0771,26.5818],[-82.0651,26.6107],[-82.0813,26.6376],[-82.1068,26.6404],[-82.1024,26.6604],[-82.1243,26.699],[-82.1599,26.7065]]],[[[-82.2471,26.7065],[-82.2554,26.7051],[-82.2565,26.6724],[-82.2401,26.6724],[-82.2471,26.7065]]],[[[-82.2649,26.7871],[-82.2688,26.7807],[-82.2637,26.7429],[-82.2529,26.7507],[-82.2646,26.7738],[-82.2649,26.7871]]]]},"properties":{"GID_0":"USA","GID_1":"USA.10_1","GID_2":"USA.10.35_1","NAME_1":"Florida","NAME_2":"Lee"}},
{"type":"Feature","geometry":{"type":"Polygon","coordinates":[[[-84.6465,30.388],[-84.6631,30.3803],[-84.687,30.3517],[-84.7138,30.3313],[-84.701,30.3182],[-84.7135,30.3003],[-84.2501,30.3037],[-84.2416,30.2739],[-84.076,30.2737],[-84.0746,30.4343],[-84.0418,30.4631],[-84.0413,30.5221],[-83.9776,30.5221],[-83.9818,30.5546],[-84.002,30.5834],[-84.0084,30.6263],[-84.0073,30.6734],[-84.2811,30.6863],[-84.2975,30.6794],[-84.3027,30.6383],[-84.3445,30.5965],[-84.3778,30.574],[-84.3878,30.5512],[-84.3945,30.5159],[-84.4061,30.509],[-84.3975,30.4866],[-84.4224,30.466],[-84.4621,30.4571],[-84.4944,30.4597],[-84.5251,30.4491],[-84.5298,30.4394],[-84.5578,30.4361],[-84.59,30.4126],[-84.6223,30.4101],[-84.6465,30.388]]]},"properties":{"GID_0":"USA","GID_1":"USA.10_1","GID_2":"USA.10.36_1","NAME_1":"Florida","NAME_2":"Leon"}},
{"type":"Feature","geometry":{"type":"Polygon","coordinates":[[[-82.5568,29.4802],[-82.5564,29.5375],[-82.6565,29.5356],[-82.6566,29.5649],[-82.7562,29.5625],[-82.757,29.5776],[-82.7748,29.5851],[-82.8566,29.5842],[-82.8565,29.5911],[-82.9378,29.5914],[-82.9482,29.5576],[-82.9778,29.5396],[-82.9701,29.5253],[-82.9822,29.5171],[-82.986,29.4672],[-83.0002,29.4632],[-83.022,29.4295],[-83.0158,29.4226],[-83.0456,29.3802],[-83.0656,29.3726],[-83.0685,29.3437],[-83.0901,29.3324],[-83.1393,29.3273],[-83.1504,29.3123],[-83.1578,29.3133],[-83.1603,29.3192],[-83.1642,29.3159],[-83.1609,29.3156],[-83.1614,29.311],[-83.1641,29.3102],[-83.1646,29.306],[-83.1568,29.3055],[-83.1375,29.2837],[-83.1111,29.2764],[-83.107,29.2684],[-83.0813,29.2666],[-83.0692,29.2386],[-83.0767,29.2192],[-83.0636,29.2156],[-83.0711,29.1917],[-83.0308,29.1692],[-83.0582,29.1388],[-83.0303,29.1333],[-83.0236,29.17],[-82.9811,29.1747],[-82.9775,29.1697],[-82.9372,29.1669],[-82.8997,29.1686],[-82.8322,29.1567],[-82.8076,29.1595],[-82.8025,29.1167],[-82.8231,29.0992],[-82.8097,29.0778],[-82.7867,29.0786],[-82.775,29.0603],[-82.7642,29.0594],[-82.7442,29.0256],[-82.7661,29.0017],[-82.7568,28.9952],[-82.7125,29.0314],[-82.6901,29.0343],[-82.6746,29.0268],[-82.6398,29.0199],[-82.6108,29.0095],[-82.5974,29.0277],[-82.5776,29.0283],[-82.5357,29.0452],[-82.5366,29.142],[-82.5353,29.2145],[-82.4032,29.2153],[-82.4069,29.485],[-82.4923,29.4858],[-82.4966,29.4785],[-82.5568,29.4802]]]},"properties":{"GID_0":"USA","GID_1":"USA.10_1","GID_2":"USA.10.37_1","NAME_1":"Florida","NAME_2":"Levy"}},
{"type":"Feature","geometry":{"type":"Polygon","coordinates":[[[-85.1158,30.1999],[-85.1351,30.1809],[-85.1396,30.1621],[-85.1371,30.1352],[-85.1489,30.1112],[-85.1375,30.0871],[-85.1342,30.0802],[-85.1388,30.0715],[-85.1321,30.0386],[-85.1139,30.0228],[-85.097,30.0207],[-85.072,30.0044],[-85.0583,30.0041],[-85.0455,29.9882],[-85.0264,29.9829],[-85.0237,29.9738],[-85.0078,30.0137],[-84.8518,30.0114],[-84.5449,30.0106],[-84.5729,30.0192],[-84.5984,30.0378],[-84.6133,30.0624],[-84.6329,30.0697],[-84.6532,30.097],[-84.6528,30.1162],[-84.6676,30.123],[-84.671,30.1436],[-84.6692,30.1811],[-84.6782,30.1884],[-84.6843,30.2204],[-84.7002,30.2313],[-84.7057,30.2504],[-84.7381,30.2667],[-84.7266,30.2915],[-84.7135,30.3003],[-84.701,30.3182],[-84.7138,30.3313],[-84.687,30.3517],[-84.6631,30.3803],[-84.6465,30.388],[-84.6809,30.3883],[-84.6806,30.4171],[-84.714,30.4174],[-84.7144,30.4603],[-84.7812,30.4599],[-84.7817,30.5189],[-84.8162,30.5186],[-84.8163,30.5333],[-84.8827,30.5332],[-84.884,30.6054],[-84.9328,30.6064],[-84.9449,30.5953],[-84.9447,30.5812],[-84.9659,30.5723],[-84.9928,30.5186],[-84.9951,30.4879],[-84.9875,30.471],[-85.0104,30.4361],[-85.0277,30.4272],[-85.0274,30.3984],[-85.0145,30.3871],[-85.0398,30.3731],[-85.0406,30.3557],[-85.0504,30.3374],[-85.048,30.3127],[-85.0579,30.3011],[-85.053,30.287],[-85.0644,30.2709],[-85.0699,30.2493],[-85.1076,30.2178],[-85.1158,30.1999]]]},"properties":{"GID_0":"USA","GID_1":"USA.10_1","GID_2":"USA.10.38_1","NAME_1":"Florida","NAME_2":"Liberty"}},
{"type":"Feature","geometry":{"type":"Polygon","coordinates":[[[-83.2945,30.6319],[-83.6121,30.6504],[-83.6047,30.638],[-83.6044,30.5818],[-83.6209,30.5818],[-83.6215,30.5672],[-83.6375,30.5526],[-83.6714,30.5532],[-83.6715,30.5376],[-83.7044,30.5377],[-83.7044,30.524],[-83.7262,30.5227],[-83.7368,30.5081],[-83.7279,30.4902],[-83.7285,30.4541],[-83.7217,30.4344],[-83.7515,30.4084],[-83.7579,30.3851],[-83.8066,30.3719],[-83.8046,30.3527],[-83.7871,30.3317],[-83.7925,30.3189],[-83.8131,30.3175],[-83.8195,30.3111],[-83.8205,30.3033],[-83.4687,30.304],[-83.4696,30.2601],[-83.2396,30.2602],[-83.2249,30.3021],[-83.21,30.3116],[-83.2134,30.3446],[-83.1985,30.3482],[-83.1919,30.3751],[-83.1711,30.3855],[-83.1815,30.4098],[-83.2174,30.4233],[-83.2191,30.4636],[-83.2423,30.4825],[-83.2397,30.5268],[-83.2575,30.5548],[-83.2588,30.5951],[-83.2691,30.6217],[-83.2945,30.6319]]]},"properties":{"GID_0":"USA","GID_1":"USA.10_1","GID_2":"USA.10.39_1","NAME_1":"Florida","NAME_2":"Madison"}},
{"type":"Feature","geometry":{"type":"MultiPolygon","coordinates":[[[[-82.0566,27.2078],[-82.0566,27.276],[-82.0543,27.6465],[-82.5537,27.6457],[-82.5669,27.6269],[-82.5583,27.6093],[-82.5772,27.6061],[-82.5836,27.591],[-82.6039,27.5825],[-82.5701,27.5617],[-82.603,27.5253],[-82.5902,27.5134],[-82.5433,27.5103],[-82.505,27.521],[-82.5109,27.5083],[-82.5532,27.4983],[-82.5956,27.5022],[-82.6281,27.5139],[-82.6417,27.5252],[-82.6649,27.5227],[-82.6858,27.511],[-82.6864,27.4856],[-82.6626,27.4878],[-82.6436,27.5014],[-82.6408,27.4743],[-82.6563,27.4661],[-82.6721,27.476],[-82.6883,27.467],[-82.642,27.4433],[-82.6294,27.4317],[-82.603,27.4261],[-82.5739,27.4053],[-82.566,27.3893],[-82.4475,27.3885],[-82.447,27.3862],[-82.2529,27.3859],[-82.2539,27.2089],[-82.0566,27.2078]]],[[[-82.6436,27.3905],[-82.6542,27.4194],[-82.667,27.4183],[-82.6436,27.3905]]],[[[-82.6078,27.5706],[-82.6268,27.5602],[-82.6092,27.5508],[-82.6078,27.5706]]]]},"properties":{"GID_0":"USA","GID_1":"USA.10_1","GID_2":"USA.10.40_1","NAME_1":"Florida","NAME_2":"Manatee"}},
{"type":"Feature","geometry":{"type":"Polygon","coordinates":[[[-82.4069,29.485],[-82.4032,29.2153],[-82.5353,29.2145],[-82.5366,29.142],[-82.5357,29.0452],[-82.5013,29.0424],[-82.4777,29.0526],[-82.4451,29.0389],[-82.4153,29.0146],[-82.3661,29.0019],[-82.3605,28.9936],[-82.3172,28.9723],[-82.3117,28.9602],[-81.6588,28.9604],[-81.6595,29.0477],[-81.6387,29.0477],[-81.641,29.1317],[-81.6413,29.3426],[-81.6503,29.3589],[-81.6473,29.3709],[-81.7415,29.3711],[-81.742,29.4297],[-81.7749,29.4291],[-81.7766,29.4873],[-81.8426,29.4867],[-81.8428,29.5207],[-81.9103,29.5051],[-81.9304,29.5173],[-81.9638,29.5038],[-82.0136,29.4992],[-82.0322,29.4922],[-82.0435,29.4786],[-82.0562,29.472],[-82.0559,29.4413],[-82.0844,29.4317],[-82.1041,29.4384],[-82.1169,29.4309],[-82.1351,29.4326],[-82.1495,29.4227],[-82.1763,29.4195],[-82.2054,29.426],[-82.2123,29.449],[-82.192,29.4652],[-82.21,29.4833],[-82.4069,29.485]]]},"properties":{"GID_0":"USA","GID_1":"USA.10_1","GID_2":"USA.10.41_1","NAME_1":"Florida","NAME_2":"Marion"}},
{"type":"Feature","geometry":{"type":"MultiPolygon","coordinates":[[[[-80.6777,27.1212],[-80.8855,26.9586],[-80.4179,26.9574],[-80.3766,26.9588],[-80.1228,26.9557],[-80.1242,26.971],[-80.1096,26.9709],[-80.086,26.9708],[-80.0804,26.9707],[-80.097,27.0277],[-80.1201,27.0804],[-80.1389,27.1118],[-80.1575,27.1629],[-80.1917,27.1642],[-80.1969,27.1799],[-80.2094,27.1865],[-80.2203,27.2061],[-80.247,27.1994],[-80.2854,27.2107],[-80.2856,27.2062],[-80.6779,27.206],[-80.6777,27.1212]]],[[[-80.2907,27.241],[-80.2777,27.2154],[-80.2428,27.2139],[-80.2135,27.2175],[-80.2332,27.2629],[-80.2846,27.2638],[-80.2907,27.241]]],[[[-80.2105,27.263],[-80.1863,27.2306],[-80.1846,27.2111],[-80.1661,27.1994],[-80.1994,27.263],[-80.2105,27.263]]]]},"properties":{"GID_0":"USA","GID_1":"USA.10_1","GID_2":"USA.10.42_1","NAME_1":"Florida","NAME_2":"Martin"}},
{"type":"Feature","geometry":{"type":"MultiPolygon","coordinates":[[[[-80.2407,25.3985],[-80.254,25.3829],[-80.2513,25.3537],[-80.2415,25.3563],[-80.229,25.3832],[-80.2407,25.3985]]],[[[-80.6798,25.9789],[-80.873,25.9795],[-80.8736,25.3715],[-80.8623,25.3647],[-80.8623,25.2501],[-80.8581,25.2429],[-80.8579,25.1797],[-80.8729,25.1789],[-80.8349,25.1732],[-80.8257,25.1604],[-80.7974,25.1662],[-80.7551,25.1593],[-80.7462,25.1651],[-80.7099,25.151],[-80.6809,25.1741],[-80.664,25.1791],[-80.6299,25.1982],[-80.6038,25.201],[-80.5946,25.1899],[-80.5821,25.2104],[-80.5296,25.214],[-80.519,25.2224],[-80.5062,25.2071],[-80.4829,25.2124],[-80.4585,25.2062],[-80.4582,25.2397],[-80.4328,25.2271],[-80.4171,25.1959],[-80.3944,25.1873],[-80.3881,25.1981],[-80.412,25.2115],[-80.4143,25.2265],[-80.4315,25.2461],[-80.4255,25.2607],[-80.3954,25.2763],[-80.4009,25.2873],[-80.3821,25.2949],[-80.3757,25.3171],[-80.364,25.3276],[-80.349,25.3257],[-80.3274,25.3565],[-80.3107,25.3713],[-80.3085,25.3838],[-80.3257,25.3935],[-80.3293,25.4068],[-80.3254,25.4379],[-80.3368,25.4557],[-80.3407,25.4982],[-80.3313,25.529],[-80.3165,25.5404],[-80.3026,25.5688],[-80.3085,25.6054],[-80.2982,25.6274],[-80.2804,25.6271],[-80.2718,25.6393],[-80.2582,25.6863],[-80.2501,25.6887],[-80.2487,25.7129],[-80.2296,25.7335],[-80.2004,25.7455],[-80.1762,25.7454],[-80.1562,25.7282],[-80.1671,25.7011],[-80.1782,25.686],[-80.1532,25.6712],[-80.1568,25.6951],[-80.1471,25.7393],[-80.1888,25.7551],[-80.1844,25.8107],[-80.1468,25.806],[-80.1432,25.7715],[-80.1315,25.7671],[-80.1184,25.8338],[-80.1218,25.8988],[-80.1393,25.889],[-80.1304,25.8671],[-80.1424,25.8649],[-80.146,25.8487],[-80.1721,25.8526],[-80.1704,25.8671],[-80.1421,25.9021],[-80.1212,25.8999],[-80.1182,25.9749],[-80.2953,25.9709],[-80.2955,25.9566],[-80.6802,25.9573],[-80.6798,25.9789]]]]},"properties":{"GID_0":"USA","GID_1":"USA.10_1","GID_2":"USA.10.43_1","NAME_1":"Florida","NAME_2":"Miami-Dade"}},
{"type":"Feature","geometry":{"type":"MultiPolygon","coordinates":[[[[-81.7951,24.5936],[-81.8118,24.5451],[-81.7529,24.5521],[-81.7251,24.5657],[-81.7393,24.5904],[-81.7785,24.5637],[-81.7937,24.5654],[-81.7951,24.5936]]],[[[-82.1243,24.5968],[-82.1174,24.569],[-82.0996,24.5796],[-82.1243,24.5968]]],[[[-81.6601,24.6157],[-81.6705,24.6029],[-81.7082,24.5774],[-81.7185,24.5576],[-81.6857,24.5582],[-81.6579,24.5732],[-81.6457,24.5946],[-81.6629,24.6021],[-81.6601,24.6157]]],[[[-81.5621,24.6926],[-81.5663,24.6696],[-81.5837,24.6499],[-81.5674,24.6307],[-81.5937,24.6101],[-81.5985,24.6365],[-81.6271,24.6324],[-81.6162,24.6151],[-81.6221,24.601],[-81.6038,24.5857],[-81.5554,24.6113],[-81.5101,24.6257],[-81.5076,24.6424],[-81.5157,24.6593],[-81.5621,24.6926]]],[[[-81.4135,24.6704],[-81.4251,24.6468],[-81.4029,24.6499],[-81.4135,24.6704]]],[[[-81.4557,24.6945],[-81.4685,24.6754],[-81.4618,24.666],[-81.4413,24.6651],[-81.4432,24.6854],[-81.4557,24.6945]]],[[[-81.5176,24.7096],[-81.5221,24.7024],[-81.5212,24.6701],[-81.479,24.6593],[-81.4782,24.6821],[-81.5176,24.7096]]],[[[-81.4498,24.7463],[-81.4546,24.7221],[-81.4412,24.7152],[-81.4204,24.6813],[-81.4082,24.676],[-81.396,24.6549],[-81.3871,24.6763],[-81.4098,24.7004],[-81.4224,24.7001],[-81.4498,24.7463]]],[[[-81.3938,24.7447],[-81.4018,24.7335],[-81.394,24.7029],[-81.3766,24.6807],[-81.3668,24.656],[-81.3574,24.6599],[-81.3468,24.6351],[-81.3279,24.6457],[-81.339,24.6724],[-81.3538,24.6854],[-81.3618,24.7049],[-81.3887,24.7299],[-81.3938,24.7447]]],[[[-81.3393,24.7051],[-81.3285,24.6813],[-81.3146,24.6829],[-81.3184,24.7007],[-81.3393,24.7051]]],[[[-81.0299,24.7304],[-81.0432,24.7363],[-81.081,24.7179],[-81.1132,24.7104],[-81.1087,24.6882],[-81.0871,24.6907],[-81.0676,24.7149],[-81.0299,24.7304]]],[[[-81.0488,25.2879],[-81.0628,25.289],[-81.0693,25.256],[-81.0496,25.2429],[-81.0371,25.2485],[-81.0624,25.269],[-81.0488,25.2879]]],[[[-81.4393,24.7957],[-81.4221,24.7707],[-81.3943,24.7527],[-81.3901,24.7594],[-81.4301,24.7846],[-81.4393,24.7957]]],[[[-80.9182,24.7782],[-80.9863,24.7526],[-80.9938,24.7435],[-81.0196,24.7326],[-81.024,24.7165],[-80.9674,24.7465],[-80.9507,24.7612],[-80.9182,24.7782]]],[[[-80.6471,24.9132],[-80.6215,24.926],[-80.6087,24.9407],[-80.5876,24.9515],[-80.566,24.9557],[-80.534,24.9915],[-80.5307,24.9996],[-80.494,25.0235],[-80.4935,25.039],[-80.474,25.0607],[-80.4432,25.076],[-80.4226,25.1065],[-80.4096,25.1029],[-80.3768,25.1304],[-80.3696,25.1499],[-80.3496,25.1693],[-80.3512,25.1907],[-80.3071,25.2582],[-80.2851,25.2874],[-80.2785,25.3074],[-80.2579,25.3349],[-80.2785,25.3338],[-80.3074,25.3001],[-80.3293,25.2874],[-80.3507,25.2868],[-80.3302,25.2579],[-80.3363,25.2315],[-80.3501,25.2107],[-80.3814,25.1997],[-80.3763,25.1829],[-80.393,25.1625],[-80.4034,25.1407],[-80.4471,25.0907],[-80.4971,25.0471],[-80.5126,25.0179],[-80.5415,25.0124],[-80.5432,24.9999],[-80.5674,24.9646],[-80.6007,24.9635],[-80.5993,24.9507],[-80.6243,24.9474],[-80.621,24.9346],[-80.6471,24.9132]]],[[[-81.0057,25.2732],[-81.014,25.2721],[-81.0462,25.2374],[-81.0207,25.2279],[-81.0054,25.2282],[-81.0007,25.2162],[-80.9896,25.2196],[-80.9676,25.2185],[-80.9693,25.2274],[-81.0132,25.2654],[-81.0057,25.2732]]],[[[-81.1315,25.3424],[-81.1282,25.3324],[-81.1004,25.3182],[-81.086,25.3274],[-81.1059,25.3379],[-81.1315,25.3424]]],[[[-80.8736,25.3715],[-80.8731,25.8059],[-80.9816,25.8039],[-81.344,25.8035],[-81.3321,25.786],[-81.3607,25.7704],[-81.336,25.7576],[-81.3429,25.7421],[-81.3399,25.7218],[-81.3179,25.7038],[-81.2999,25.6974],[-81.2929,25.7057],[-81.2746,25.6965],[-81.281,25.6832],[-81.2681,25.6671],[-81.2729,25.6515],[-81.2471,25.6324],[-81.2232,25.5801],[-81.234,25.5724],[-81.2151,25.551],[-81.1877,25.5549],[-81.1912,25.5399],[-81.2043,25.534],[-81.2099,25.5063],[-81.1896,25.4813],[-81.1657,25.4779],[-81.1685,25.4588],[-81.1499,25.4151],[-81.1501,25.3882],[-81.1221,25.3785],[-81.1243,25.3607],[-81.1118,25.3496],[-81.0865,25.3513],[-81.051,25.344],[-81.0371,25.3229],[-81.0179,25.3285],[-80.9901,25.3477],[-80.959,25.3207],[-80.9665,25.3151],[-80.9418,25.2729],[-80.9154,25.2671],[-80.9038,25.2399],[-80.916,25.2324],[-80.9193,25.2168],[-80.9829,25.2071],[-80.9918,25.2121],[-81.0024,25.2135],[-81.0032,25.2182],[-81.0182,25.2276],[-81.029,25.2263],[-81.0476,25.2365],[-81.0699,25.2551],[-81.0676,25.279],[-81.081,25.2815],[-81.0929,25.2971],[-81.0888,25.311],[-81.1282,25.3315],[-81.1457,25.3268],[-81.1596,25.2988],[-81.1582,25.2779],[-81.1671,25.2693],[-81.1718,25.2235],[-81.1368,25.1846],[-81.1132,25.1632],[-81.0842,25.1485],[-81.0968,25.1312],[-81.0882,25.1162],[-81.0543,25.1279],[-81.0254,25.1293],[-81.0021,25.124],[-80.9713,25.1343],[-80.9457,25.1329],[-80.9196,25.1418],[-80.8999,25.1399],[-80.8979,25.1626],[-80.8729,25.1789],[-80.8579,25.1797],[-80.8581,25.2429],[-80.8623,25.2501],[-80.8623,25.3647],[-80.8736,25.3715]]]]},"properties":{"GID_0":"USA","GID_1":"USA.10_1","GID_2":"USA.10.44_1","NAME_1":"Florida","NAME_2":"Monroe"}},
{"type":"Feature","geometry":{"type":"Polygon","coordinates":[[[-82.0495,30.2734],[-82.0122,30.3052],[-81.8317,30.4674],[-81.81,30.4848],[-81.7952,30.5056],[-81.7729,30.5061],[-81.7631,30.5347],[-81.7369,30.541],[-81.7359,30.5579],[-81.7222,30.5718],[-81.6762,30.5644],[-81.6603,30.5655],[-81.63,30.584],[-81.6136,30.5818],[-81.604,30.5679],[-81.5868,30.564],[-81.5861,30.5447],[-81.5744,30.5393],[-81.5574,30.5486],[-81.5435,30.5269],[-81.5195,30.5486],[-81.5105,30.5672],[-81.498,30.5587],[-81.4723,30.5292],[-81.4512,30.5199],[-81.436,30.5245],[-81.4438,30.5632],[-81.4435,30.5989],[-81.4301,30.671],[-81.4287,30.6938],[-81.435,30.705],[-81.4581,30.7047],[-81.4686,30.6958],[-81.5015,30.7286],[-81.5616,30.7162],[-81.5651,30.7276],[-81.6115,30.7241],[-81.6251,30.7367],[-81.647,30.7287],[-81.6526,30.7443],[-81.6673,30.755],[-81.6882,30.7435],[-81.7205,30.7469],[-81.7617,30.7748],[-81.7858,30.7752],[-81.8094,30.7913],[-81.8365,30.7893],[-81.8816,30.8026],[-81.892,30.8234],[-81.9107,30.8175],[-81.9553,30.8243],[-81.9615,30.7992],[-81.9761,30.7784],[-82.0116,30.7924],[-82.0244,30.7852],[-82.0151,30.765],[-82.0243,30.7537],[-82.0418,30.7508],[-82.045,30.727],[-82.0386,30.7082],[-82.0532,30.6751],[-82.0515,30.6577],[-82.0104,30.583],[-82.009,30.5634],[-82.019,30.5333],[-82.0197,30.4747],[-82.0332,30.4447],[-82.0364,30.4219],[-82.0446,30.4115],[-82.0363,30.3825],[-82.05,30.3617],[-82.0495,30.2734]]]},"properties":{"GID_0":"USA","GID_1":"USA.10_1","GID_2":"USA.10.45_1","NAME_1":"Florida","NAME_2":"Nassau"}},
{"type":"Feature","geometry":{"type":"MultiPolygon","coordinates":[[[[-86.8506,30.3797],[-86.7279,30.3941],[-86.6319,30.3968],[-86.6369,30.4019],[-86.7331,30.4022],[-86.7647,30.3947],[-86.8025,30.3936],[-86.8506,30.3856],[-86.8506,30.3797]]],[[[-86.3974,30.3983],[-86.47,30.4086],[-86.4882,30.418],[-86.5161,30.3972],[-86.5025,30.3819],[-86.4544,30.3836],[-86.3992,30.3789],[-86.3974,30.3983]]],[[[-86.3892,30.9943],[-86.7016,30.9956],[-86.7859,31],[-86.7997,30.4058],[-86.7692,30.41],[-86.7528,30.4025],[-86.7197,30.4108],[-86.6975,30.4064],[-86.6761,30.4086],[-86.6047,30.4011],[-86.5867,30.4103],[-86.5849,30.4364],[-86.5575,30.4297],[-86.5364,30.4542],[-86.51,30.4553],[-86.4872,30.4653],[-86.4673,30.4847],[-86.4464,30.4892],[-86.4222,30.4522],[-86.3947,30.4534],[-86.3922,30.6274],[-86.3924,30.7403],[-86.3883,30.9667],[-86.3892,30.9943]]]]},"properties":{"GID_0":"USA","GID_1":"USA.10_1","GID_2":"USA.10.46_1","NAME_1":"Florida","NAME_2":"Okaloosa"}},
{"type":"Feature","geometry":{"type":"Polygon","coordinates":[[[-80.8855,26.9586],[-80.6777,27.1212],[-80.6791,27.2941],[-80.6777,27.3688],[-80.6801,27.5579],[-80.7774,27.5586],[-80.7783,27.6434],[-81.066,27.6421],[-81.1424,27.6432],[-81.1427,27.6027],[-81.1596,27.5728],[-81.2014,27.5476],[-81.2096,27.5308],[-81.2017,27.5075],[-81.2032,27.4914],[-81.183,27.484],[-81.1694,27.462],[-81.142,27.44],[-81.1413,27.4142],[-81.116,27.3909],[-81.1044,27.386],[-81.0677,27.3831],[-81.0393,27.3625],[-81.0434,27.3326],[-81.03,27.3207],[-81.0205,27.3016],[-80.9987,27.2968],[-80.9988,27.2654],[-80.9826,27.2451],[-80.9806,27.2299],[-80.9658,27.2165],[-80.9489,27.2188],[-80.9381,27.2051],[-80.9157,27.1901],[-80.9091,27.1756],[-80.8865,27.1662],[-80.8689,27.1459],[-80.8855,26.9586]]]},"properties":{"GID_0":"USA","GID_1":"USA.10_1","GID_2":"USA.10.47_1","NAME_1":"Florida","NAME_2":"Okeechobee"}},
{"type":"Feature","geometry":{"type":"Polygon","coordinates":[[[-80.964,28.6055],[-80.9876,28.613],[-81.3279,28.6101],[-81.329,28.64],[-81.4597,28.6404],[-81.4591,28.7134],[-81.4419,28.7162],[-81.4198,28.7424],[-81.4138,28.7859],[-81.6466,28.7857],[-81.6585,28.7667],[-81.6576,28.5953],[-81.6475,28.5845],[-81.6568,28.5691],[-81.6578,28.3471],[-80.8632,28.3474],[-80.8727,28.3693],[-80.8876,28.3858],[-80.8848,28.4074],[-80.8994,28.4322],[-80.8903,28.4678],[-80.871,28.4713],[-80.8862,28.5095],[-80.9058,28.5119],[-80.9236,28.5326],[-80.9386,28.5358],[-80.9318,28.5641],[-80.9522,28.6015],[-80.964,28.6055]]]},"properties":{"GID_0":"USA","GID_1":"USA.10_1","GID_2":"USA.10.48_1","NAME_1":"Florida","NAME_2":"Orange"}},
{"type":"Feature","geometry":{"type":"Polygon","coordinates":[[[-80.8632,28.3474],[-81.6578,28.3471],[-81.6576,28.2593],[-81.5574,28.2598],[-81.5245,28.2011],[-81.5247,28.1431],[-81.4556,28.1429],[-81.4558,28.0854],[-81.3465,28.085],[-81.3486,28.0676],[-81.3646,28.068],[-81.3629,28.0389],[-81.3761,28.0287],[-81.3947,28.0282],[-81.4318,28.0425],[-81.4437,28.0593],[-81.4561,28.0564],[-81.4592,28.0399],[-81.4388,28.033],[-81.4182,27.9998],[-81.3877,28.0037],[-81.3755,27.9799],[-81.3517,27.9683],[-81.3374,27.95],[-81.341,27.9321],[-81.314,27.9231],[-81.3141,27.9056],[-81.3015,27.8634],[-81.2589,27.8471],[-81.2414,27.8471],[-81.2182,27.8332],[-81.1978,27.7967],[-81.1728,27.7629],[-81.1767,27.7515],[-81.1644,27.7369],[-81.1673,27.7268],[-81.1487,27.7134],[-81.1435,27.6714],[-81.131,27.6609],[-81.1424,27.6432],[-80.8732,27.6425],[-80.8736,27.731],[-80.8807,27.734],[-80.882,27.8225],[-80.8687,27.8225],[-80.8698,28.0849],[-80.8625,28.1004],[-80.8616,28.2503],[-80.8632,28.3474]]]},"properties":{"GID_0":"USA","GID_1":"USA.10_1","GID_2":"USA.10.49_1","NAME_1":"Florida","NAME_2":"Osceola"}},
{"type":"Feature","geometry":{"type":"MultiPolygon","coordinates":[[[[-80.088,26.3207],[-80.074,26.3213],[-80.0701,26.3363],[-80.0618,26.4321],[-80.0365,26.5882],[-80.0371,26.6499],[-80.0324,26.701],[-80.0368,26.7604],[-80.0462,26.7062],[-80.0399,26.6779],[-80.0382,26.6101],[-80.046,26.5754],[-80.044,26.5471],[-80.0535,26.5412],[-80.0457,26.6157],[-80.0501,26.7101],[-80.0485,26.7415],[-80.0515,26.7754],[-80.0332,26.784],[-80.031,26.7963],[-80.0485,26.8701],[-80.0654,26.9199],[-80.0793,26.9088],[-80.0646,26.869],[-80.0649,26.8351],[-80.0526,26.8388],[-80.0349,26.8046],[-80.0521,26.794],[-80.0551,26.8285],[-80.066,26.8357],[-80.0657,26.8693],[-80.0807,26.9082],[-80.0862,26.9399],[-80.1228,26.9557],[-80.3766,26.9588],[-80.4179,26.9574],[-80.8855,26.9586],[-80.8814,26.3342],[-80.2293,26.3352],[-80.2044,26.3278],[-80.1018,26.3281],[-80.088,26.3207]]],[[[-80.1096,26.9709],[-80.0974,26.9504],[-80.0813,26.9474],[-80.086,26.9708],[-80.1096,26.9709]]]]},"properties":{"GID_0":"USA","GID_1":"USA.10_1","GID_2":"USA.10.50_1","NAME_1":"Florida","NAME_2":"PalmBeach"}},
{"type":"Feature","geometry":{"type":"Polygon","coordinates":[[[-82.6668,28.4334],[-82.6974,28.4206],[-82.7075,28.3856],[-82.7019,28.375],[-82.7107,28.3521],[-82.7312,28.3255],[-82.7367,28.3],[-82.7331,28.2828],[-82.7631,28.2408],[-82.7578,28.2264],[-82.7701,28.2086],[-82.7824,28.2076],[-82.7987,28.1866],[-82.7859,28.1737],[-82.5678,28.1733],[-82.4218,28.1712],[-82.1062,28.1716],[-82.1063,28.259],[-82.0562,28.259],[-82.0553,28.4787],[-82.253,28.4785],[-82.2534,28.4348],[-82.6668,28.4334]]]},"properties":{"GID_0":"USA","GID_1":"USA.10_1","GID_2":"USA.10.51_1","NAME_1":"Florida","NAME_2":"Pasco"}},
{"type":"Feature","geometry":{"type":"Polygon","coordinates":[[[-82.6486,28.0207],[-82.6513,28.173],[-82.7859,28.1737],[-82.7989,28.1722],[-82.7856,28.1442],[-82.7795,28.0991],[-82.7858,28.0658],[-82.7922,28.0064],[-82.8058,27.9547],[-82.8244,27.9139],[-82.8483,27.8786],[-82.8372,27.8418],[-82.804,27.8254],[-82.7947,27.8108],[-82.7554,27.7881],[-82.7442,27.7724],[-82.7564,27.7614],[-82.7503,27.7494],[-82.7128,27.7356],[-82.6939,27.7367],[-82.6988,27.7197],[-82.6888,27.709],[-82.6545,27.6992],[-82.6381,27.7039],[-82.6244,27.7297],[-82.6294,27.75],[-82.6214,27.7897],[-82.6109,27.79],[-82.5883,27.8308],[-82.5983,27.8569],[-82.6233,27.8872],[-82.6375,27.8892],[-82.655,27.9108],[-82.6736,27.912],[-82.7109,27.929],[-82.7264,27.9414],[-82.7219,27.9539],[-82.6947,27.9625],[-82.6919,27.9844],[-82.6754,28.0052],[-82.6911,28.0308],[-82.6655,28.0285],[-82.6486,28.0207]]]},"properties":{"GID_0":"USA","GID_1":"USA.10_1","GID_2":"USA.10.52_1","NAME_1":"Florida","NAME_2":"Pinellas"}},
{"type":"Feature","geometry":{"type":"Polygon","coordinates":[[[-81.5637,27.6464],[-81.3673,27.6463],[-81.1424,27.6432],[-81.131,27.6609],[-81.1435,27.6714],[-81.1487,27.7134],[-81.1673,27.7268],[-81.1644,27.7369],[-81.1767,27.7515],[-81.1728,27.7629],[-81.1978,27.7967],[-81.2182,27.8332],[-81.2414,27.8471],[-81.2589,27.8471],[-81.3015,27.8634],[-81.3141,27.9056],[-81.314,27.9231],[-81.341,27.9321],[-81.3374,27.95],[-81.3517,27.9683],[-81.3755,27.9799],[-81.3877,28.0037],[-81.4182,27.9998],[-81.4388,28.033],[-81.4592,28.0399],[-81.4561,28.0564],[-81.4437,28.0593],[-81.4318,28.0425],[-81.3947,28.0282],[-81.3761,28.0287],[-81.3629,28.0389],[-81.3646,28.068],[-81.3486,28.0676],[-81.3465,28.085],[-81.4558,28.0854],[-81.4556,28.1429],[-81.5247,28.1431],[-81.5245,28.2011],[-81.5574,28.2598],[-81.6576,28.2593],[-81.6578,28.3471],[-81.7911,28.3463],[-81.7907,28.3619],[-81.8579,28.3619],[-81.8578,28.3463],[-81.9581,28.345],[-81.958,28.3082],[-81.9864,28.3055],[-81.9985,28.3191],[-82.0232,28.3242],[-82.045,28.3186],[-82.0565,28.3119],[-82.0562,28.259],[-82.1063,28.259],[-82.1062,28.1716],[-82.0562,28.1716],[-82.0566,27.9273],[-82.0546,27.8781],[-82.0564,27.7542],[-82.0545,27.7266],[-82.0543,27.6465],[-81.5637,27.6464]]]},"properties":{"GID_0":"USA","GID_1":"USA.10_1","GID_2":"USA.10.53_1","NAME_1":"Florida","NAME_2":"Polk"}},
{"type":"Feature","geometry":{"type":"Polygon","coordinates":[[[-82.0562,29.472],[-82.0435,29.4786],[-82.0322,29.4922],[-82.0136,29.4992],[-81.9638,29.5038],[-81.9304,29.5173],[-81.9103,29.5051],[-81.8428,29.5207],[-81.8426,29.4867],[-81.7766,29.4873],[-81.7749,29.4291],[-81.742,29.4297],[-81.7415,29.3711],[-81.6473,29.3709],[-81.6503,29.3589],[-81.6413,29.3426],[-81.6413,29.33],[-81.4524,29.3783],[-81.434,29.3985],[-81.4552,29.3894],[-81.479,29.3987],[-81.491,29.4544],[-81.5211,29.4978],[-81.5259,29.76],[-81.5752,29.8402],[-81.813,29.8367],[-81.8227,29.8259],[-81.8629,29.8001],[-81.8908,29.7984],[-81.9205,29.7866],[-81.9312,29.7553],[-81.9404,29.7471],[-81.9756,29.7473],[-82.0047,29.7405],[-82.0294,29.7185],[-82.0494,29.7189],[-82.0559,29.6645],[-82.0562,29.472]]]},"properties":{"GID_0":"USA","GID_1":"USA.10_1","GID_2":"USA.10.54_1","NAME_1":"Florida","NAME_2":"Putnam"}},
{"type":"Feature","geometry":{"type":"Polygon","coordinates":[[[-81.5752,29.8402],[-81.5259,29.76],[-81.5237,29.6225],[-81.3241,29.6256],[-81.3007,29.6511],[-81.2797,29.6506],[-81.2597,29.6689],[-81.2474,29.659],[-81.2131,29.6706],[-81.2275,29.7111],[-81.2417,29.7403],[-81.2583,29.7869],[-81.2656,29.8431],[-81.2644,29.8567],[-81.276,29.9022],[-81.2892,29.9144],[-81.3014,29.9414],[-81.3228,30.0231],[-81.3504,30.1445],[-81.3797,30.253],[-81.437,30.2521],[-81.4342,30.1056],[-81.5388,30.1038],[-81.5388,30.1203],[-81.5668,30.121],[-81.6013,30.131],[-81.6541,30.1218],[-81.6704,30.1277],[-81.6735,30.0445],[-81.6441,30.0066],[-81.6,29.9748],[-81.5884,29.9516],[-81.5992,29.9199],[-81.5992,29.8959],[-81.5752,29.8402]]]},"properties":{"GID_0":"USA","GID_1":"USA.10_1","GID_2":"USA.10.55_1","NAME_1":"Florida","NAME_2":"SaintJohns"}},
{"type":"Feature","geometry":{"type":"MultiPolygon","coordinates":[[[[-80.1994,27.263],[-80.237,27.3495],[-80.2635,27.3998],[-80.2891,27.4641],[-80.2961,27.4453],[-80.2807,27.4279],[-80.2748,27.401],[-80.2639,27.3948],[-80.2584,27.3714],[-80.2592,27.3481],[-80.236,27.3283],[-80.2223,27.3082],[-80.2269,27.2978],[-80.2154,27.2851],[-80.2105,27.263],[-80.1994,27.263]]],[[[-80.3558,27.5573],[-80.6801,27.5579],[-80.6777,27.3688],[-80.6791,27.2941],[-80.6779,27.206],[-80.2856,27.2062],[-80.2854,27.2107],[-80.2976,27.2294],[-80.2907,27.241],[-80.2846,27.2638],[-80.2332,27.2629],[-80.2669,27.3246],[-80.3158,27.4273],[-80.3212,27.4625],[-80.3316,27.4741],[-80.3558,27.5573]]],[[[-80.3209,27.557],[-80.3328,27.5574],[-80.3372,27.5443],[-80.3248,27.5319],[-80.3288,27.5186],[-80.3199,27.4839],[-80.3108,27.4678],[-80.2894,27.4738],[-80.3115,27.5252],[-80.3209,27.557]]]]},"properties":{"GID_0":"USA","GID_1":"USA.10_1","GID_2":"USA.10.56_1","NAME_1":"Florida","NAME_2":"SaintLucie"}},
{"type":"Feature","geometry":{"type":"Polygon","coordinates":[[[-86.7859,31],[-87.1628,31.0008],[-87.2059,30.9694],[-87.2279,30.961],[-87.2556,30.9314],[-87.268,30.9347],[-87.2825,30.9246],[-87.2847,30.8875],[-87.2983,30.8812],[-87.3024,30.8628],[-87.3136,30.8496],[-87.3008,30.8372],[-87.2928,30.8114],[-87.3105,30.7871],[-87.3039,30.7676],[-87.3126,30.7344],[-87.2998,30.7206],[-87.2714,30.716],[-87.2678,30.6919],[-87.2688,30.6758],[-87.2573,30.6135],[-87.2246,30.5811],[-87.2103,30.5549],[-87.1781,30.5447],[-87.1722,30.5567],[-87.1894,30.5783],[-87.1588,30.5805],[-87.1281,30.5469],[-87.1328,30.5322],[-87.098,30.5158],[-87.0942,30.4748],[-87.1027,30.4497],[-87.0919,30.4386],[-87.0677,30.4478],[-87.0647,30.4679],[-87.0473,30.502],[-87.0477,30.5128],[-87.0303,30.5447],[-87.0029,30.5491],[-87.0006,30.5306],[-87.0112,30.5196],[-87.013,30.4984],[-86.9872,30.4867],[-86.9356,30.4547],[-86.9836,30.4172],[-87.0147,30.4034],[-87.0464,30.3981],[-87.0865,30.3991],[-87.1308,30.3836],[-87.1442,30.3689],[-87.1772,30.3717],[-87.1922,30.3622],[-87.175,30.3515],[-87.0963,30.3729],[-86.9917,30.3867],[-86.9497,30.3953],[-86.8633,30.3994],[-86.8194,30.4078],[-86.7997,30.4058],[-86.7859,31]]]},"properties":{"GID_0":"USA","GID_1":"USA.10_1","GID_2":"USA.10.57_1","NAME_1":"Florida","NAME_2":"SantaRosa"}},
{"type":"Feature","geometry":{"type":"MultiPolygon","coordinates":[[[[-82.566,27.3893],[-82.5672,27.3761],[-82.5494,27.3483],[-82.5402,27.3152],[-82.5411,27.27],[-82.5304,27.2539],[-82.5092,27.2381],[-82.5019,27.2097],[-82.4917,27.1908],[-82.4942,27.1794],[-82.4719,27.1492],[-82.4681,27.1228],[-82.4444,27.0575],[-82.4176,27.0181],[-82.3801,26.979],[-82.3635,26.9562],[-82.3571,26.9518],[-82.3543,26.9457],[-82.2557,26.9451],[-82.2557,26.9968],[-82.2555,27.0054],[-82.2554,27.0328],[-82.0575,27.032],[-82.0566,27.2078],[-82.2539,27.2089],[-82.2529,27.3859],[-82.447,27.3862],[-82.4475,27.3885],[-82.566,27.3893]]],[[[-82.5511,27.3047],[-82.57,27.2794],[-82.5422,27.2583],[-82.5444,27.2769],[-82.5544,27.29],[-82.5511,27.3047]]],[[[-82.6391,27.3889],[-82.6241,27.3627],[-82.6156,27.3791],[-82.6391,27.3889]]]]},"properties":{"GID_0":"USA","GID_1":"USA.10_1","GID_2":"USA.10.58_1","NAME_1":"Florida","NAME_2":"Sarasota"}},
{"type":"Feature","geometry":{"type":"Polygon","coordinates":[[[-81.4138,28.7859],[-81.4198,28.7424],[-81.4419,28.7162],[-81.4591,28.7134],[-81.4597,28.6404],[-81.329,28.64],[-81.3279,28.6101],[-80.9876,28.613],[-81.007,28.6356],[-81.0189,28.6663],[-81.0165,28.6906],[-81.0377,28.721],[-81.0611,28.7506],[-81.0538,28.7826],[-81.0764,28.8181],[-81.1073,28.8286],[-81.1247,28.8217],[-81.1301,28.8007],[-81.1428,28.7918],[-81.2003,28.798],[-81.2267,28.8326],[-81.3208,28.8341],[-81.3397,28.8456],[-81.3593,28.8497],[-81.3672,28.8793],[-81.3836,28.8526],[-81.4135,28.829],[-81.4201,28.8181],[-81.4138,28.7859]]]},"properties":{"GID_0":"USA","GID_1":"USA.10_1","GID_2":"USA.10.59_1","NAME_1":"Florida","NAME_2":"Seminole"}},
{"type":"Feature","geometry":{"type":"Polygon","coordinates":[[[-82.2631,28.6679],[-82.2753,28.6566],[-82.2589,28.6481],[-82.2601,28.6357],[-82.2227,28.5928],[-82.2147,28.5766],[-82.1647,28.5657],[-82.1542,28.5719],[-82.1348,28.5583],[-82.1253,28.5434],[-82.1077,28.5426],[-82.09,28.5235],[-82.0696,28.5318],[-82.0548,28.5219],[-82.0565,28.3119],[-82.045,28.3186],[-82.0232,28.3242],[-81.9985,28.3191],[-81.9864,28.3055],[-81.958,28.3082],[-81.9538,28.5862],[-81.9541,28.96],[-82.3117,28.9602],[-82.3087,28.9551],[-82.2974,28.9485],[-82.2765,28.9014],[-82.2427,28.8765],[-82.2373,28.8617],[-82.2193,28.8509],[-82.2046,28.8341],[-82.1835,28.8236],[-82.1707,28.7904],[-82.1865,28.781],[-82.1895,28.7604],[-82.2104,28.7548],[-82.2491,28.7177],[-82.2494,28.7017],[-82.2631,28.6679]]]},"properties":{"GID_0":"USA","GID_1":"USA.10_1","GID_2":"USA.10.60_1","NAME_1":"Florida","NAME_2":"Sumter"}},
{"type":"Feature","geometry":{"type":"Polygon","coordinates":[[[-82.7948,30.3367],[-82.8291,30.3467],[-82.8429,30.3432],[-82.8533,30.3547],[-82.928,30.3907],[-82.9516,30.4106],[-82.9879,30.4274],[-83.0276,30.43],[-83.0706,30.4263],[-83.08,30.4415],[-83.1395,30.425],[-83.1475,30.42],[-83.1598,30.4114],[-83.1711,30.3855],[-83.1919,30.3751],[-83.1985,30.3482],[-83.2134,30.3446],[-83.21,30.3116],[-83.2249,30.3021],[-83.2396,30.2602],[-83.2501,30.2602],[-83.2517,30.2589],[-83.2534,30.2506],[-83.2481,30.2456],[-83.2535,30.2374],[-83.2399,30.2267],[-83.2501,30.2012],[-83.2451,30.1769],[-83.232,30.1677],[-83.239,30.1522],[-83.2248,30.1383],[-83.2266,30.1141],[-83.213,30.103],[-83.1988,30.1061],[-83.1851,30.0941],[-83.1623,30.11],[-83.1323,30.0969],[-83.1207,30.1051],[-83.1143,30.1023],[-83.1129,30.0917],[-83.0703,30.0818],[-83.0667,30.0652],[-83.0415,30.0545],[-83.0082,30.0244],[-83.0031,30.0098],[-82.9804,30.0077],[-82.9637,29.9943],[-82.9526,29.9594],[-82.932,29.9578],[-82.9203,29.9302],[-82.919,29.9082],[-82.898,29.9016],[-82.885,29.8873],[-82.8803,29.8868],[-82.8579,29.9122],[-82.8347,29.9128],[-82.8096,29.9318],[-82.8007,29.9322],[-82.7991,29.9363],[-82.7916,29.9422],[-82.7921,29.9444],[-82.7856,29.9549],[-82.7623,29.9647],[-82.7604,29.9867],[-82.7941,29.9861],[-82.7948,30.3367]]]},"properties":{"GID_0":"USA","GID_1":"USA.10_1","GID_2":"USA.10.61_1","NAME_1":"Florida","NAME_2":"Suwannee"}},
{"type":"Feature","geometry":{"type":"Polygon","coordinates":[[[-83.3319,29.7618],[-83.3197,29.7786],[-83.3193,29.8226],[-83.353,29.8224],[-83.353,29.8878],[-83.3714,29.8879],[-83.367,30.2605],[-83.4696,30.2601],[-83.4687,30.304],[-83.8205,30.3033],[-83.82,30.2997],[-83.8381,30.28],[-83.8793,30.2691],[-83.91,30.2476],[-83.9164,30.2408],[-83.918,30.2152],[-83.9265,30.1923],[-83.9296,30.1891],[-83.9518,30.1864],[-83.9603,30.1525],[-83.9798,30.1191],[-83.9833,30.1047],[-83.9913,30.0954],[-83.9868,30.081],[-83.9278,30.0464],[-83.9175,30.0353],[-83.8798,30.0137],[-83.8369,29.9933],[-83.8289,29.9822],[-83.808,29.9767],[-83.7842,29.9786],[-83.7744,29.9692],[-83.7487,29.9596],[-83.7279,29.9407],[-83.6806,29.9226],[-83.6792,29.9132],[-83.6371,29.884],[-83.6189,29.8422],[-83.6036,29.8353],[-83.5899,29.8036],[-83.5769,29.792],[-83.585,29.7596],[-83.5672,29.7625],[-83.5535,29.7368],[-83.5339,29.7214],[-83.499,29.7136],[-83.4809,29.6895],[-83.4478,29.675],[-83.4333,29.6778],[-83.4209,29.6685],[-83.3997,29.6747],[-83.3736,29.6658],[-83.3508,29.695],[-83.3437,29.7357],[-83.3319,29.7618]]]},"properties":{"GID_0":"USA","GID_1":"USA.10_1","GID_2":"USA.10.62_1","NAME_1":"Florida","NAME_2":"Taylor"}},
{"type":"Feature","geometry":{"type":"Polygon","coordinates":[[[-82.4132,29.9236],[-82.3847,29.9268],[-82.3482,29.9377],[-82.3404,29.9578],[-82.3056,29.9554],[-82.2732,29.9934],[-82.2599,30.0252],[-82.2255,30.0343],[-82.2136,30.0469],[-82.182,30.067],[-82.1725,30.0924],[-82.1451,30.1117],[-82.1407,30.1207],[-82.1456,30.1368],[-82.1429,30.1432],[-82.3541,30.1411],[-82.4582,30.1367],[-82.4521,30.1233],[-82.4573,30.1023],[-82.5003,30.0887],[-82.5136,30.0811],[-82.5319,30.0603],[-82.5404,30.0256],[-82.5649,30.0145],[-82.5703,30.0059],[-82.5682,29.9775],[-82.55,29.9612],[-82.5306,29.9559],[-82.5298,29.9412],[-82.5087,29.9437],[-82.4825,29.9378],[-82.4716,29.9285],[-82.4384,29.9308],[-82.4132,29.9236]]]},"properties":{"GID_0":"USA","GID_1":"USA.10_1","GID_2":"USA.10.63_1","NAME_1":"Florida","NAME_2":"Union"}},
{"type":"Feature","geometry":{"type":"MultiPolygon","coordinates":[[[[-80.7331,28.7911],[-80.7781,28.8622],[-80.8672,28.9917],[-80.9008,29.0475],[-80.9107,29.0719],[-80.9194,29.0689],[-80.9037,29.0444],[-80.9049,29.0338],[-80.9154,29.0265],[-80.9078,29.0094],[-80.8928,28.9986],[-80.8889,28.9758],[-80.8736,28.9681],[-80.8689,28.9556],[-80.8475,28.9575],[-80.8181,28.9147],[-80.8217,28.9056],[-80.8028,28.8897],[-80.765,28.8339],[-80.7667,28.8136],[-80.7467,28.8089],[-80.7454,28.7912],[-80.7331,28.7911]]],[[[-80.8292,28.7914],[-80.7884,28.7915],[-80.8256,28.8475],[-80.8583,28.9092],[-80.8689,28.9403],[-80.8828,28.9569],[-80.9067,28.9967],[-80.9192,29.0294],[-80.9081,29.0347],[-80.9097,29.0514],[-80.9385,29.0631],[-80.9517,29.0881],[-80.9497,29.0975],[-80.9692,29.1364],[-80.9781,29.1286],[-81.0017,29.1775],[-81.0202,29.226],[-81.0527,29.2794],[-81.0855,29.3543],[-81.0869,29.3767],[-81.1084,29.427],[-81.1491,29.4167],[-81.1556,29.4109],[-81.1501,29.2658],[-81.4173,29.261],[-81.4209,29.4001],[-81.434,29.3985],[-81.4524,29.3783],[-81.6413,29.33],[-81.5813,29.2216],[-81.545,29.1864],[-81.524,29.1722],[-81.503,29.1245],[-81.4974,29.1],[-81.4569,29.0949],[-81.454,29.0705],[-81.4307,29.0466],[-81.4019,29.0353],[-81.3761,28.9952],[-81.3556,28.9837],[-81.3675,28.9675],[-81.3566,28.9502],[-81.3528,28.9244],[-81.3583,28.9131],[-81.356,28.8891],[-81.3672,28.8793],[-81.3593,28.8497],[-81.3397,28.8456],[-81.3208,28.8341],[-81.2267,28.8326],[-81.2003,28.798],[-81.1428,28.7918],[-81.1301,28.8007],[-81.1247,28.8217],[-81.1073,28.8286],[-81.0764,28.8181],[-81.0538,28.7826],[-81.0611,28.7506],[-81.0377,28.721],[-81.0165,28.6906],[-81.0189,28.6663],[-81.007,28.6356],[-80.9876,28.613],[-80.964,28.6055],[-80.9677,28.7903],[-80.8529,28.7911],[-80.8529,28.804],[-80.8292,28.7914]]],[[[-81.1075,29.427],[-81.0903,29.3903],[-81.0666,29.3275],[-81.0376,29.2645],[-81.0137,29.2202],[-80.9658,29.1411],[-80.9649,29.1282],[-80.9356,29.0814],[-80.9214,29.08],[-80.9483,29.1158],[-80.9961,29.2036],[-81.005,29.2244],[-81.0622,29.3389],[-81.1025,29.4264],[-81.1075,29.427]]]]},"properties":{"GID_0":"USA","GID_1":"USA.10_1","GID_2":"USA.10.64_1","NAME_1":"Florida","NAME_2":"Volusia"}},
{"type":"Feature","geometry":{"type":"MultiPolygon","coordinates":[[[[-84.3467,30.0528],[-84.3606,30.0217],[-84.3322,30.0392],[-84.3467,30.0528]]],[[[-84.5449,30.0106],[-84.5238,30.0039],[-84.5132,29.9888],[-84.4895,29.9875],[-84.4727,30.0018],[-84.4595,29.9936],[-84.4572,29.9726],[-84.4361,29.9833],[-84.3947,29.9822],[-84.3547,29.9694],[-84.3603,30],[-84.3775,30.0092],[-84.3869,30.0264],[-84.3672,30.0269],[-84.3572,30.0653],[-84.3417,30.0639],[-84.3122,30.0742],[-84.289,30.0571],[-84.2794,30.068],[-84.275,30.0933],[-84.2644,30.1064],[-84.2353,30.0889],[-84.2122,30.0919],[-84.2019,30.1114],[-84.1875,30.0942],[-84.1728,30.0919],[-84.179,30.0728],[-84.1567,30.0722],[-84.1317,30.0925],[-84.0765,30.0956],[-84.076,30.2737],[-84.2416,30.2739],[-84.2501,30.3037],[-84.7135,30.3003],[-84.7266,30.2915],[-84.7381,30.2667],[-84.7057,30.2504],[-84.7002,30.2313],[-84.6843,30.2204],[-84.6782,30.1884],[-84.6692,30.1811],[-84.671,30.1436],[-84.6676,30.123],[-84.6528,30.1162],[-84.6532,30.097],[-84.6329,30.0697],[-84.6133,30.0624],[-84.5984,30.0378],[-84.5729,30.0192],[-84.5449,30.0106]]]]},"properties":{"GID_0":"USA","GID_1":"USA.10_1","GID_2":"USA.10.65_1","NAME_1":"Florida","NAME_2":"Wakulla"}},
{"type":"Feature","geometry":{"type":"Polygon","coordinates":[[[-86.3892,30.9943],[-86.3886,30.9379],[-86.3924,30.7403],[-86.3922,30.6274],[-86.3951,30.454],[-86.3722,30.4644],[-86.3497,30.4664],[-86.3192,30.4775],[-86.3006,30.4717],[-86.255,30.4867],[-86.2358,30.4745],[-86.205,30.4764],[-86.1881,30.4547],[-86.1608,30.4589],[-86.1586,30.4361],[-86.1344,30.4236],[-86.1122,30.3861],[-86.1189,30.3794],[-86.1583,30.3803],[-86.2019,30.3983],[-86.2255,30.4189],[-86.2497,30.4287],[-86.2661,30.4161],[-86.2375,30.4003],[-86.2456,30.39],[-86.2664,30.3975],[-86.3006,30.4025],[-86.3189,30.4175],[-86.3283,30.3917],[-86.3431,30.3856],[-86.3974,30.3983],[-86.3982,30.3794],[-86.3331,30.3703],[-86.2494,30.3514],[-86.1444,30.3211],[-86.0653,30.2955],[-86.0064,30.273],[-85.995,30.2825],[-85.9916,30.4071],[-85.9831,30.427],[-85.9502,30.4458],[-85.9134,30.4392],[-85.9019,30.4449],[-85.8881,30.4671],[-85.8755,30.4709],[-85.8586,30.4973],[-85.8805,30.5065],[-85.8863,30.5279],[-85.8786,30.5363],[-85.8807,30.5586],[-85.8897,30.5814],[-85.9124,30.5993],[-85.9138,30.6363],[-85.8877,30.6573],[-85.8703,30.6644],[-85.8697,30.6805],[-85.8452,30.7028],[-86.0377,30.7045],[-86.0354,30.9943],[-86.3892,30.9943]]]},"properties":{"GID_0":"USA","GID_1":"USA.10_1","GID_2":"USA.10.66_1","NAME_1":"Florida","NAME_2":"Walton"}},
{"type":"Feature","geometry":{"type":"Polygon","coordinates":[[[-85.4355,30.5672],[-85.433,30.7857],[-85.483,30.786],[-85.4828,30.8299],[-85.5999,30.8305],[-85.6035,30.7967],[-85.6205,30.7699],[-85.619,30.7434],[-85.7366,30.7462],[-85.7356,30.775],[-85.7524,30.7894],[-85.8216,30.7905],[-85.8291,30.7689],[-85.8266,30.7274],[-85.8452,30.7028],[-85.8697,30.6805],[-85.8703,30.6644],[-85.8877,30.6573],[-85.9138,30.6363],[-85.9124,30.5993],[-85.8897,30.5814],[-85.8807,30.5586],[-85.8786,30.5363],[-85.8863,30.5279],[-85.8805,30.5065],[-85.8586,30.4973],[-85.8755,30.4709],[-85.8881,30.4671],[-85.9019,30.4449],[-85.9134,30.4392],[-85.9502,30.4458],[-85.9831,30.427],[-85.9916,30.4071],[-85.9928,30.3893],[-85.9833,30.3913],[-85.976,30.396],[-85.9573,30.4119],[-85.9403,30.4081],[-85.9246,30.4161],[-85.9074,30.4059],[-85.8842,30.4104],[-85.8536,30.4407],[-85.4878,30.4366],[-85.4859,30.567],[-85.4355,30.5672]]]},"properties":{"GID_0":"USA","GID_1":"USA.10_1","GID_2":"USA.10.67_1","NAME_1":"Florida","NAME_2":"Washington"}}
]}