{"type":"FeatureCollection", "features": [
{"type":"Feature","geometry":{"type":"MultiPolygon","coordinates":[[[[-74.3278,39.4436],[-74.3553,39.4378],[-74.3814,39.4192],[-74.3761,39.4044],[-74.4203,39.3864],[-74.4045,39.3737],[-74.3613,39.4071],[-74.3278,39.4436]]],[[[-74.3167,39.4894],[-74.3617,39.4875],[-74.3667,39.4381],[-74.3242,39.4522],[-74.3167,39.4894]]],[[[-74.6958,39.2908],[-74.6769,39.2981],[-74.6194,39.3036],[-74.5867,39.3131],[-74.5719,39.3033],[-74.5181,39.3633],[-74.5155,39.3846],[-74.4594,39.3636],[-74.5103,39.3419],[-74.4917,39.3306],[-74.4078,39.3642],[-74.4503,39.3969],[-74.4914,39.3989],[-74.4656,39.4219],[-74.4574,39.4474],[-74.4286,39.4553],[-74.4128,39.4261],[-74.3917,39.4434],[-74.4079,39.5019],[-74.4142,39.5497],[-74.4178,39.5583],[-74.4751,39.5525],[-74.5503,39.5928],[-74.5766,39.5982],[-74.6232,39.6254],[-74.6591,39.634],[-74.6573,39.6675],[-74.6753,39.6938],[-74.7358,39.7322],[-74.9856,39.5162],[-74.8575,39.4259],[-74.8545,39.4096],[-74.8537,39.3729],[-74.8642,39.3271],[-74.8254,39.3059],[-74.7784,39.3051],[-74.6958,39.2908]]]]},"properties":{"GID_0":"USA","GID_1":"USA.31_1","GID_2":"USA.31.1_1","NAME_1":"NewJersey","NAME_2":"Atlantic"}},
{"type":"Feature","geometry":{"type":"Polygon","coordinates":[[[-73.9866,40.7938],[-73.97,40.8164],[-73.9214,40.9083],[-73.8964,40.9808],[-73.9057,40.9994],[-74.1533,41.1098],[-74.2129,41.1344],[-74.2731,41.0183],[-74.2494,40.9911],[-74.2251,40.9783],[-74.1734,40.9737],[-74.1394,40.964],[-74.1504,40.9432],[-74.1317,40.92],[-74.1307,40.8873],[-74.1149,40.8723],[-74.1212,40.8324],[-74.1328,40.8189],[-74.1383,40.8084],[-74.1378,40.7994],[-74.147,40.7849],[-74.1397,40.7835],[-74.1234,40.7689],[-74.1016,40.7734],[-74.0625,40.8067],[-74.0303,40.8126],[-74.0229,40.8139],[-74.0174,40.8185],[-73.9866,40.7938]]]},"properties":{"GID_0":"USA","GID_1":"USA.31_1","GID_2":"USA.31.2_1","NAME_1":"NewJersey","NAME_2":"Bergen"}},
{"type":"Feature","geometry":{"type":"Polygon","coordinates":[[[-74.4178,39.5583],[-74.4023,39.5701],[-74.391,39.5964],[-74.3841,39.7637],[-74.4738,39.9278],[-74.5284,40.0362],[-74.5922,40.1395],[-74.6229,40.1418],[-74.6765,40.1712],[-74.6777,40.1771],[-74.7138,40.1797],[-74.7108,40.1716],[-74.7252,40.1521],[-74.7842,40.1237],[-74.8153,40.1287],[-74.8662,40.0855],[-74.9335,40.0706],[-74.9736,40.0516],[-75.0129,40.0241],[-75.0455,40.013],[-75.0602,39.9937],[-75.0224,39.992],[-75.0097,39.9798],[-75.0179,39.9485],[-74.9649,39.9211],[-74.9293,39.8822],[-74.9006,39.7898],[-74.8898,39.7831],[-74.8665,39.7836],[-74.8509,39.7882],[-74.8174,39.7873],[-74.7874,39.7706],[-74.7616,39.7449],[-74.7358,39.7322],[-74.6753,39.6938],[-74.6573,39.6675],[-74.6591,39.634],[-74.6232,39.6254],[-74.5766,39.5982],[-74.5503,39.5928],[-74.4751,39.5525],[-74.4178,39.5583]]]},"properties":{"GID_0":"USA","GID_1":"USA.31_1","GID_2":"USA.31.3_1","NAME_1":"NewJersey","NAME_2":"Burlington"}},
{"type":"Feature","geometry":{"type":"Polygon","coordinates":[[[-74.7358,39.7322],[-74.7616,39.7449],[-74.7874,39.7706],[-74.8174,39.7873],[-74.8509,39.7882],[-74.8665,39.7836],[-74.8898,39.7831],[-74.9006,39.7898],[-74.9293,39.8822],[-74.9649,39.9211],[-75.0179,39.9485],[-75.0097,39.9798],[-75.0224,39.992],[-75.0602,39.9937],[-75.1357,39.9535],[-75.1311,39.9153],[-75.141,39.8895],[-75.0836,39.8431],[-75.0876,39.8145],[-75.0218,39.7472],[-75.0223,39.7309],[-74.9791,39.7048],[-74.9354,39.694],[-74.9107,39.6683],[-74.8919,39.6194],[-74.8841,39.6131],[-74.8775,39.6095],[-74.7358,39.7322]]]},"properties":{"GID_0":"USA","GID_1":"USA.31_1","GID_2":"USA.31.4_1","NAME_1":"NewJersey","NAME_2":"Camden"}},
{"type":"Feature","geometry":{"type":"MultiPolygon","coordinates":[[[[-74.8042,39.0308],[-74.8103,39.0078],[-74.8304,39.0061],[-74.8345,38.9812],[-74.8711,38.9614],[-74.8647,38.9417],[-74.8319,38.9719],[-74.7869,39.0014],[-74.8042,39.0308]]],[[[-74.6958,39.2908],[-74.7784,39.3051],[-74.8254,39.3059],[-74.8642,39.3271],[-74.8849,39.3057],[-74.8952,39.2377],[-74.9266,39.2231],[-74.9277,39.2018],[-74.9267,39.1825],[-74.9006,39.1739],[-74.8861,39.1434],[-74.8986,39.0961],[-74.9412,39.0308],[-74.957,38.9983],[-74.9725,38.9387],[-74.9629,38.9301],[-74.9117,38.9308],[-74.877,38.9494],[-74.8752,38.9713],[-74.8339,38.9908],[-74.8525,39.0081],[-74.828,39.0146],[-74.8081,39.0394],[-74.823,39.0589],[-74.8006,39.0706],[-74.7825,39.0428],[-74.7619,39.0603],[-74.785,39.0753],[-74.7892,39.1022],[-74.7403,39.1197],[-74.711,39.1206],[-74.6864,39.1675],[-74.71,39.1844],[-74.692,39.1979],[-74.6378,39.2172],[-74.5989,39.2589],[-74.6303,39.2583],[-74.6207,39.2876],[-74.6767,39.297],[-74.6958,39.2908]]],[[[-74.7117,39.1136],[-74.7442,39.1072],[-74.7644,39.0742],[-74.7389,39.0729],[-74.7084,39.1007],[-74.7117,39.1136]]]]},"properties":{"GID_0":"USA","GID_1":"USA.31_1","GID_2":"USA.31.5_1","NAME_1":"NewJersey","NAME_2":"CapeMay"}},
{"type":"Feature","geometry":{"type":"Polygon","coordinates":[[[-74.8545,39.4096],[-74.8575,39.4259],[-75.0617,39.5698],[-75.0682,39.5584],[-75.0729,39.5525],[-75.0748,39.4823],[-75.0829,39.4591],[-75.2389,39.5598],[-75.3157,39.4931],[-75.3442,39.488],[-75.3683,39.4583],[-75.4047,39.4617],[-75.4192,39.4321],[-75.4164,39.3926],[-75.391,39.3596],[-75.3664,39.3467],[-75.3276,39.3405],[-75.316,39.3125],[-75.288,39.2908],[-75.2769,39.3067],[-75.2511,39.3],[-75.2406,39.2743],[-75.1982,39.2566],[-75.1709,39.2353],[-75.1671,39.203],[-75.1276,39.1904],[-75.1087,39.2187],[-75.0903,39.2106],[-75.0489,39.2151],[-75.0278,39.1943],[-74.9825,39.195],[-74.9425,39.1853],[-74.9277,39.2018],[-74.9266,39.2231],[-74.8952,39.2377],[-74.8849,39.3057],[-74.8642,39.3271],[-74.8537,39.3729],[-74.8545,39.4096]]]},"properties":{"GID_0":"USA","GID_1":"USA.31_1","GID_2":"USA.31.6_1","NAME_1":"NewJersey","NAME_2":"Cumberland"}},
{"type":"Feature","geometry":{"type":"Polygon","coordinates":[[[-74.1383,40.8084],[-74.1328,40.8189],[-74.2316,40.8758],[-74.265,40.8877],[-74.285,40.8959],[-74.3208,40.9073],[-74.3324,40.9073],[-74.3379,40.9005],[-74.3404,40.8805],[-74.324,40.8628],[-74.335,40.8166],[-74.3411,40.8116],[-74.3679,40.7948],[-74.3722,40.7377],[-74.3292,40.7177],[-74.2843,40.7208],[-74.2171,40.703],[-74.2068,40.688],[-74.1599,40.6872],[-74.1275,40.6931],[-74.1169,40.7385],[-74.1478,40.7341],[-74.1599,40.7341],[-74.1636,40.7396],[-74.1659,40.7482],[-74.161,40.7622],[-74.1537,40.7736],[-74.15,40.7767],[-74.1439,40.7912],[-74.1378,40.7994],[-74.1383,40.8084]]]},"properties":{"GID_0":"USA","GID_1":"USA.31_1","GID_2":"USA.31.7_1","NAME_1":"NewJersey","NAME_2":"Essex"}},
{"type":"Feature","geometry":{"type":"Polygon","coordinates":[[[-75.4321,39.786],[-75.3869,39.7547],[-75.3624,39.715],[-75.3113,39.6886],[-75.2551,39.6817],[-75.2453,39.6659],[-75.2005,39.667],[-74.9856,39.5162],[-74.8775,39.6095],[-74.8919,39.6194],[-74.9107,39.6683],[-74.9354,39.694],[-74.9791,39.7048],[-75.0223,39.7309],[-75.0218,39.7472],[-75.0876,39.8145],[-75.0836,39.8431],[-75.141,39.8895],[-75.19,39.8815],[-75.2432,39.8553],[-75.283,39.8483],[-75.3221,39.8508],[-75.3544,39.841],[-75.4144,39.8033],[-75.4321,39.786]]]},"properties":{"GID_0":"USA","GID_1":"USA.31_1","GID_2":"USA.31.8_1","NAME_1":"NewJersey","NAME_2":"Gloucester"}},
{"type":"Feature","geometry":{"type":"MultiPolygon","coordinates":[[[[-74.0174,40.8185],[-74.0229,40.8139],[-74.0303,40.8126],[-74.0603,40.8044],[-74.0889,40.7794],[-74.1028,40.7008],[-74.1461,40.6492],[-74.1225,40.645],[-74.0861,40.6533],[-74.0906,40.6681],[-74.0243,40.7144],[-74.013,40.759],[-73.9866,40.7938],[-74.0174,40.8185]]],[[[-74.1016,40.7734],[-74.1234,40.7689],[-74.1397,40.7835],[-74.147,40.7849],[-74.15,40.7767],[-74.1555,40.7708],[-74.1641,40.7559],[-74.166,40.745],[-74.1599,40.7341],[-74.1478,40.7341],[-74.1169,40.7385],[-74.1016,40.7734]]]]},"properties":{"GID_0":"USA","GID_1":"USA.31_1","GID_2":"USA.31.9_1","NAME_1":"NewJersey","NAME_2":"Hudson"}},
{"type":"Feature","geometry":{"type":"Polygon","coordinates":[[[-74.7484,40.4241],[-74.7977,40.5156],[-74.7747,40.5043],[-74.7434,40.5529],[-74.7102,40.5829],[-74.7218,40.5997],[-74.7133,40.6119],[-74.7261,40.6346],[-74.728,40.665],[-74.7154,40.7049],[-74.7276,40.7216],[-74.8005,40.7415],[-74.8235,40.7423],[-74.885,40.7889],[-74.9382,40.7465],[-74.9689,40.7124],[-75.0572,40.6775],[-75.109,40.6428],[-75.1452,40.6291],[-75.1908,40.5916],[-75.1801,40.5676],[-75.1411,40.5756],[-75.0996,40.5683],[-75.0682,40.5432],[-75.0631,40.4855],[-75.0714,40.4529],[-75.0606,40.4205],[-75.0296,40.4055],[-74.9973,40.412],[-74.9692,40.4014],[-74.9372,40.3387],[-74.8579,40.3449],[-74.8695,40.3766],[-74.8032,40.3863],[-74.8094,40.4163],[-74.7484,40.4241]]]},"properties":{"GID_0":"USA","GID_1":"USA.31_1","GID_2":"USA.31.10_1","NAME_1":"NewJersey","NAME_2":"Hunterdon"}},
{"type":"Feature","geometry":{"type":"Polygon","coordinates":[[[-74.5922,40.1395],[-74.6139,40.1812],[-74.5676,40.1872],[-74.5447,40.2153],[-74.4815,40.243],[-74.4851,40.2543],[-74.4821,40.2742],[-74.4954,40.2797],[-74.5297,40.2928],[-74.5599,40.2937],[-74.625,40.325],[-74.6209,40.3735],[-74.6245,40.3871],[-74.6578,40.3911],[-74.7199,40.3738],[-74.7484,40.4241],[-74.8094,40.4163],[-74.8032,40.3863],[-74.8695,40.3766],[-74.8579,40.3449],[-74.9372,40.3387],[-74.9149,40.3201],[-74.8836,40.3092],[-74.8607,40.2855],[-74.8374,40.2478],[-74.7759,40.2183],[-74.7566,40.1883],[-74.7233,40.1618],[-74.7252,40.1521],[-74.7108,40.1716],[-74.7138,40.1797],[-74.6777,40.1771],[-74.6765,40.1712],[-74.6229,40.1418],[-74.5922,40.1395]]]},"properties":{"GID_0":"USA","GID_1":"USA.31_1","GID_2":"USA.31.11_1","NAME_1":"NewJersey","NAME_2":"Mercer"}},
{"type":"Feature","geometry":{"type":"Polygon","coordinates":[[[-74.4851,40.2543],[-74.4592,40.2507],[-74.3978,40.2778],[-74.3935,40.2878],[-74.2484,40.4064],[-74.2477,40.4345],[-74.2243,40.4528],[-74.2614,40.4647],[-74.2669,40.4992],[-74.25,40.5208],[-74.2533,40.5517],[-74.215,40.5642],[-74.2061,40.5922],[-74.2454,40.5978],[-74.2926,40.5892],[-74.3046,40.6065],[-74.4651,40.594],[-74.4687,40.5976],[-74.4772,40.5949],[-74.5135,40.5799],[-74.5268,40.5631],[-74.4857,40.5128],[-74.4585,40.491],[-74.4833,40.4815],[-74.5352,40.4389],[-74.586,40.4175],[-74.5913,40.3966],[-74.6209,40.3735],[-74.625,40.325],[-74.5599,40.2937],[-74.5297,40.2928],[-74.4954,40.2797],[-74.4821,40.2742],[-74.4851,40.2543]]]},"properties":{"GID_0":"USA","GID_1":"USA.31_1","GID_2":"USA.31.12_1","NAME_1":"NewJersey","NAME_2":"Middlesex"}},
{"type":"Feature","geometry":{"type":"Polygon","coordinates":[[[-74.5922,40.1395],[-74.5531,40.0788],[-74.5266,40.0906],[-74.4087,40.1713],[-74.2643,40.1679],[-74.2416,40.113],[-74.1629,40.1083],[-74.1546,40.0951],[-74.111,40.1363],[-74.0917,40.1161],[-74.0702,40.0945],[-74.0307,40.1244],[-73.9867,40.2573],[-73.972,40.3283],[-74.0017,40.3519],[-73.9767,40.3636],[-73.9883,40.4072],[-74.0593,40.4229],[-74.1349,40.4566],[-74.18,40.4586],[-74.1928,40.4419],[-74.2243,40.4528],[-74.2477,40.4345],[-74.2484,40.4064],[-74.3935,40.2878],[-74.3978,40.2778],[-74.4592,40.2507],[-74.5447,40.2153],[-74.5676,40.1872],[-74.6139,40.1812],[-74.5922,40.1395]]]},"properties":{"GID_0":"USA","GID_1":"USA.31_1","GID_2":"USA.31.13_1","NAME_1":"NewJersey","NAME_2":"Monmouth"}},
{"type":"Feature","geometry":{"type":"Polygon","coordinates":[[[-74.2729,40.8954],[-74.2655,40.9099],[-74.2837,40.9181],[-74.2788,40.9539],[-74.2957,40.998],[-74.3894,41.0126],[-74.4557,41.0544],[-74.4819,41.0453],[-74.5014,41.0353],[-74.4838,41.0694],[-74.5026,41.0857],[-74.611,40.9922],[-74.6426,40.9618],[-74.6352,40.9454],[-74.6528,40.9214],[-74.7106,40.8995],[-74.7422,40.9189],[-74.7684,40.9112],[-74.8065,40.8843],[-74.804,40.8617],[-74.8185,40.8362],[-74.8535,40.8026],[-74.885,40.7889],[-74.8235,40.7423],[-74.8005,40.7415],[-74.7276,40.7216],[-74.5572,40.759],[-74.5487,40.7327],[-74.516,40.6992],[-74.5329,40.667],[-74.5214,40.6493],[-74.5105,40.6502],[-74.462,40.6711],[-74.4517,40.6856],[-74.3722,40.7377],[-74.3679,40.7948],[-74.3411,40.8116],[-74.335,40.8166],[-74.324,40.8628],[-74.3404,40.8805],[-74.3379,40.9005],[-74.3324,40.9073],[-74.3208,40.9073],[-74.285,40.8959],[-74.2729,40.8954]]]},"properties":{"GID_0":"USA","GID_1":"USA.31_1","GID_2":"USA.31.14_1","NAME_1":"NewJersey","NAME_2":"Morris"}},
{"type":"Feature","geometry":{"type":"Polygon","coordinates":[[[-74.4023,39.5701],[-74.4178,39.5583],[-74.4142,39.5497],[-74.3528,39.5451],[-74.3072,39.5094],[-74.2981,39.5381],[-74.3381,39.5686],[-74.307,39.6016],[-74.2535,39.627],[-74.2508,39.6444],[-74.2202,39.6441],[-74.213,39.6695],[-74.1953,39.6773],[-74.1812,39.7037],[-74.16,39.7064],[-74.168,39.7391],[-74.1925,39.7647],[-74.1805,39.7978],[-74.1362,39.8566],[-74.1329,39.9001],[-74.1075,39.9204],[-74.1162,39.9448],[-74.1094,39.9748],[-74.1173,40.0012],[-74.0865,40.0124],[-74.0728,40.0006],[-74.0797,39.9356],[-74.0881,39.91],[-74.0923,39.831],[-74.0597,39.9975],[-74.0336,40.1017],[-74.0656,40.0889],[-74.0971,40.1037],[-74.0917,40.1161],[-74.111,40.1363],[-74.1546,40.0951],[-74.1629,40.1083],[-74.2416,40.113],[-74.2643,40.1679],[-74.4087,40.1713],[-74.5266,40.0906],[-74.5531,40.0788],[-74.5284,40.0362],[-74.4738,39.9278],[-74.3841,39.7637],[-74.391,39.5964],[-74.4023,39.5701]]]},"properties":{"GID_0":"USA","GID_1":"USA.31_1","GID_2":"USA.31.15_1","NAME_1":"NewJersey","NAME_2":"Ocean"}},
{"type":"Feature","geometry":{"type":"Polygon","coordinates":[[[-74.2129,41.1344],[-74.3259,41.1823],[-74.3677,41.2033],[-74.5026,41.0857],[-74.4838,41.0694],[-74.5014,41.0353],[-74.4819,41.0453],[-74.4557,41.0544],[-74.3894,41.0126],[-74.2957,40.998],[-74.2788,40.9539],[-74.2837,40.9181],[-74.2655,40.9099],[-74.2729,40.8954],[-74.265,40.8877],[-74.2316,40.8758],[-74.1328,40.8189],[-74.1212,40.8324],[-74.1149,40.8723],[-74.1307,40.8873],[-74.1317,40.92],[-74.1504,40.9432],[-74.1394,40.964],[-74.1734,40.9737],[-74.2251,40.9783],[-74.2494,40.9911],[-74.2731,41.0183],[-74.2129,41.1344]]]},"properties":{"GID_0":"USA","GID_1":"USA.31_1","GID_2":"USA.31.16_1","NAME_1":"NewJersey","NAME_2":"Passaic"}},
{"type":"Feature","geometry":{"type":"Polygon","coordinates":[[[-75.4321,39.786],[-75.4617,39.7627],[-75.4775,39.7332],[-75.5075,39.6962],[-75.5119,39.673],[-75.5603,39.6255],[-75.5528,39.6029],[-75.5154,39.5814],[-75.5322,39.4983],[-75.5617,39.4974],[-75.5622,39.4706],[-75.4672,39.3722],[-75.4397,39.3928],[-75.4166,39.3899],[-75.4164,39.3926],[-75.4192,39.4321],[-75.4047,39.4617],[-75.3683,39.4583],[-75.3442,39.488],[-75.3157,39.4931],[-75.2389,39.5598],[-75.0829,39.4591],[-75.0748,39.4823],[-75.0729,39.5525],[-75.0682,39.5584],[-75.0617,39.5698],[-75.2005,39.667],[-75.2453,39.6659],[-75.2551,39.6817],[-75.3113,39.6886],[-75.3624,39.715],[-75.3869,39.7547],[-75.4321,39.786]]]},"properties":{"GID_0":"USA","GID_1":"USA.31_1","GID_2":"USA.31.17_1","NAME_1":"NewJersey","NAME_2":"Salem"}},
{"type":"Feature","geometry":{"type":"Polygon","coordinates":[[[-74.7484,40.4241],[-74.7199,40.3738],[-74.6578,40.3911],[-74.6245,40.3871],[-74.6209,40.3735],[-74.5913,40.3966],[-74.586,40.4175],[-74.5352,40.4389],[-74.4833,40.4815],[-74.4585,40.491],[-74.4857,40.5128],[-74.5268,40.5631],[-74.5135,40.5799],[-74.4772,40.5949],[-74.4318,40.6175],[-74.4057,40.6542],[-74.462,40.6711],[-74.5105,40.6502],[-74.5214,40.6493],[-74.5329,40.667],[-74.516,40.6992],[-74.5487,40.7327],[-74.5572,40.759],[-74.7276,40.7216],[-74.7154,40.7049],[-74.728,40.665],[-74.7261,40.6346],[-74.7133,40.6119],[-74.7218,40.5997],[-74.7102,40.5829],[-74.7434,40.5529],[-74.7747,40.5043],[-74.7977,40.5156],[-74.7484,40.4241]]]},"properties":{"GID_0":"USA","GID_1":"USA.31_1","GID_2":"USA.31.18_1","NAME_1":"NewJersey","NAME_2":"Somerset"}},
{"type":"Feature","geometry":{"type":"Polygon","coordinates":[[[-74.5026,41.0857],[-74.3677,41.2033],[-74.4101,41.2248],[-74.6955,41.3576],[-74.7506,41.3455],[-74.767,41.3283],[-74.828,41.29],[-74.8662,41.2322],[-74.8598,41.2193],[-74.8834,41.1812],[-74.9196,41.1416],[-74.9624,41.1157],[-74.9659,41.0939],[-74.827,40.9632],[-74.7684,40.9112],[-74.7422,40.9189],[-74.7106,40.8995],[-74.6528,40.9214],[-74.6352,40.9454],[-74.6426,40.9618],[-74.611,40.9922],[-74.5026,41.0857]]]},"properties":{"GID_0":"USA","GID_1":"USA.31_1","GID_2":"USA.31.19_1","NAME_1":"NewJersey","NAME_2":"Sussex"}},
{"type":"Feature","geometry":{"type":"Polygon","coordinates":[[[-74.2454,40.5978],[-74.2008,40.6003],[-74.2067,40.6247],[-74.19,40.6442],[-74.1481,40.6597],[-74.1599,40.6872],[-74.2068,40.688],[-74.2171,40.703],[-74.2843,40.7208],[-74.3292,40.7177],[-74.3722,40.7377],[-74.4517,40.6856],[-74.462,40.6711],[-74.4057,40.6542],[-74.4318,40.6175],[-74.4687,40.5976],[-74.4651,40.594],[-74.3046,40.6065],[-74.2926,40.5892],[-74.2454,40.5978]]]},"properties":{"GID_0":"USA","GID_1":"USA.31_1","GID_2":"USA.31.20_1","NAME_1":"NewJersey","NAME_2":"Union"}},
{"type":"Feature","geometry":{"type":"Polygon","coordinates":[[[-74.885,40.7889],[-74.8535,40.8026],[-74.8185,40.8362],[-74.804,40.8617],[-74.8065,40.8843],[-74.7684,40.9112],[-74.827,40.9632],[-74.9659,41.0939],[-75.0102,41.0686],[-75.0265,41.0416],[-75.0592,41.0227],[-75.1073,41.0063],[-75.1326,40.9903],[-75.0954,40.9253],[-75.081,40.9148],[-75.0537,40.8656],[-75.0664,40.849],[-75.0955,40.842],[-75.0867,40.818],[-75.1339,40.7754],[-75.1721,40.7761],[-75.1966,40.7481],[-75.1826,40.7332],[-75.2039,40.6927],[-75.1812,40.6815],[-75.1962,40.6585],[-75.1908,40.5916],[-75.1452,40.6291],[-75.109,40.6428],[-75.0572,40.6775],[-74.9689,40.7124],[-74.9382,40.7465],[-74.885,40.7889]]]},"properties":{"GID_0":"USA","GID_1":"USA.31_1","GID_2":"USA.31.21_1","NAME_1":"NewJersey","NAME_2":"Warren"}}
]}