{"type":"FeatureCollection", "features": [
{"type":"Feature","geometry":{"type":"Polygon","coordinates":[[[-92.6304,30.4827],[-92.6222,30.4586],[-92.5963,30.4282],[-92.6048,30.3888],[-92.6295,30.3762],[-92.6194,30.3324],[-92.6292,30.3144],[-92.6229,30.2761],[-92.6228,30.233],[-92.6103,30.2103],[-92.5923,30.2068],[-92.5904,30.184],[-92.6167,30.1723],[-92.607,30.1586],[-92.6278,30.1383],[-92.6232,30.1104],[-92.6169,30.1077],[-92.6199,30.0981],[-92.6182,30.0908],[-92.6145,30.0899],[-92.5946,30.0988],[-92.5584,30.1142],[-92.5329,30.1058],[-92.5073,30.0804],[-92.4808,30.0674],[-92.4152,30.056],[-92.3978,30.0589],[-92.3831,30.0636],[-92.3695,30.0729],[-92.3575,30.0835],[-92.3355,30.1024],[-92.3204,30.1254],[-92.302,30.1292],[-92.2853,30.1477],[-92.2517,30.1699],[-92.2524,30.1918],[-92.2379,30.2189],[-92.2146,30.2223],[-92.2106,30.2406],[-92.1762,30.2413],[-92.1764,30.2701],[-92.159,30.2702],[-92.1422,30.2845],[-92.1419,30.3206],[-92.1589,30.321],[-92.1591,30.3503],[-92.1755,30.3511],[-92.1773,30.438],[-92.2446,30.4371],[-92.245,30.4805],[-92.6304,30.4827]]]},"properties":{"GID_0":"USA","GID_1":"USA.19_1","GID_2":"USA.19.1_1","NAME_1":"Louisiana","NAME_2":"Acadia"}},
{"type":"Feature","geometry":{"type":"Polygon","coordinates":[[[-93.1309,30.4257],[-93.0663,30.4266],[-93.0655,30.4395],[-92.7766,30.4391],[-92.7742,30.4885],[-92.6284,30.4896],[-92.618,30.5021],[-92.6241,30.5208],[-92.6051,30.531],[-92.5844,30.5683],[-92.5979,30.5832],[-92.5984,30.8977],[-92.7204,30.8987],[-92.7214,30.8923],[-92.8242,30.892],[-92.8251,30.8778],[-92.8762,30.8768],[-92.9764,30.8777],[-92.976,30.827],[-92.9793,30.5984],[-93.1301,30.6],[-93.1309,30.4257]]]},"properties":{"GID_0":"USA","GID_1":"USA.19_1","GID_2":"USA.19.2_1","NAME_1":"Louisiana","NAME_2":"Allen"}},
{"type":"Feature","geometry":{"type":"Polygon","coordinates":[[[-90.9636,30.0668],[-90.9356,30.0858],[-90.9153,30.1137],[-90.6419,30.1663],[-90.6323,30.2212],[-90.6465,30.2327],[-90.6779,30.2092],[-90.6733,30.1981],[-90.6988,30.1764],[-90.7198,30.1898],[-90.7228,30.2072],[-90.7479,30.238],[-90.7696,30.2382],[-90.7874,30.257],[-90.782,30.2753],[-90.8094,30.2769],[-90.8252,30.2953],[-90.8318,30.3195],[-90.8565,30.3417],[-90.8951,30.3465],[-90.9174,30.3415],[-90.9846,30.3465],[-91.0058,30.3401],[-91.025,30.3201],[-91.0213,30.3146],[-91.0599,30.2132],[-91.0718,30.162],[-91.0914,30.157],[-91.09,30.109],[-91.1069,30.1081],[-91.1061,30.0628],[-91.0749,30.0819],[-91.0512,30.0749],[-91.0073,30.0798],[-90.989,30.0655],[-90.9636,30.0668]]]},"properties":{"GID_0":"USA","GID_1":"USA.19_1","GID_2":"USA.19.3_1","NAME_1":"Louisiana","NAME_2":"Ascension"}},
{"type":"Feature","geometry":{"type":"Polygon","coordinates":[[[-91.1061,30.0628],[-91.2244,30.0256],[-91.2392,30],[-91.2603,29.9854],[-91.2509,29.9611],[-91.2299,29.9336],[-91.2316,29.9176],[-91.2153,29.9089],[-91.1997,29.8612],[-91.185,29.847],[-91.1335,29.8376],[-91.1114,29.827],[-91.0926,29.8018],[-91.1006,29.7729],[-91.0897,29.7555],[-91.1066,29.7336],[-91.1051,29.7175],[-91.0995,29.6868],[-91.106,29.6433],[-91.0825,29.6262],[-90.9806,29.745],[-90.9474,29.7917],[-90.9247,29.8299],[-90.91,29.8772],[-90.8853,29.8771],[-90.8862,29.9352],[-90.9202,29.935],[-90.9204,29.9784],[-90.9537,29.9785],[-90.9543,30.0356],[-90.9636,30.0668],[-90.989,30.0655],[-91.0073,30.0798],[-91.0512,30.0749],[-91.0749,30.0819],[-91.1061,30.0628]]]},"properties":{"GID_0":"USA","GID_1":"USA.19_1","GID_2":"USA.19.4_1","NAME_1":"Louisiana","NAME_2":"Assumption"}},
{"type":"Feature","geometry":{"type":"Polygon","coordinates":[[[-91.8347,31.2666],[-91.855,31.2643],[-91.8701,31.2811],[-91.9092,31.297],[-91.9269,31.2951],[-91.9471,31.2722],[-91.948,31.2425],[-91.9625,31.2438],[-91.9806,31.2236],[-92.0125,31.2815],[-92.0169,31.3029],[-92.0036,31.3249],[-92.0224,31.3303],[-92.037,31.3435],[-92.0525,31.3361],[-92.0813,31.3241],[-92.0846,31.335],[-92.0916,31.3359],[-92.1235,31.3083],[-92.1631,31.3017],[-92.1837,31.3281],[-92.2121,31.3315],[-92.2313,31.3209],[-92.2328,31.2506],[-92.2305,31.115],[-92.2207,31.0383],[-92.2148,30.9662],[-92.2809,30.9653],[-92.2811,30.9365],[-92.2381,30.8924],[-92.2377,30.8486],[-92.1078,30.8503],[-91.8154,30.8483],[-91.8021,30.8721],[-91.8002,30.926],[-91.8063,30.9699],[-91.8041,30.9781],[-91.7807,30.9868],[-91.768,31.0092],[-91.7504,31.0193],[-91.743,31.0308],[-91.7248,31.0422],[-91.7158,31.0591],[-91.7064,31.114],[-91.7176,31.1395],[-91.7033,31.1624],[-91.6835,31.1633],[-91.6777,31.188],[-91.7045,31.2085],[-91.7221,31.1993],[-91.7408,31.2052],[-91.7585,31.2225],[-91.7917,31.2261],[-91.8148,31.2416],[-91.8347,31.2666]]]},"properties":{"GID_0":"USA","GID_1":"USA.19_1","GID_2":"USA.19.5_1","NAME_1":"Louisiana","NAME_2":"Avoyelles"}},
{"type":"Feature","geometry":{"type":"Polygon","coordinates":[[[-92.9764,30.8777],[-93.0329,30.8797],[-93.1341,30.8783],[-93.1342,30.8847],[-93.43,30.884],[-93.4795,30.8617],[-93.5418,30.8816],[-93.5607,30.8684],[-93.5564,30.8274],[-93.5651,30.8059],[-93.5818,30.8033],[-93.5956,30.7642],[-93.6153,30.7545],[-93.6156,30.7195],[-93.6309,30.6797],[-93.6561,30.6696],[-93.6844,30.6347],[-93.6966,30.5955],[-93.7238,30.5786],[-93.7254,30.5595],[-93.739,30.5415],[-93.7057,30.5117],[-93.716,30.4816],[-93.7038,30.4665],[-93.6988,30.4425],[-93.7411,30.4037],[-93.4875,30.4038],[-93.4865,30.4908],[-93.3846,30.4902],[-93.3859,30.4051],[-93.1321,30.4033],[-93.1301,30.6],[-92.9793,30.5984],[-92.976,30.827],[-92.9764,30.8777]]]},"properties":{"GID_0":"USA","GID_1":"USA.19_1","GID_2":"USA.19.6_1","NAME_1":"Louisiana","NAME_2":"Beauregard"}},
{"type":"Feature","geometry":{"type":"Polygon","coordinates":[[[-92.7768,32.4548],[-92.8795,32.4541],[-92.8779,32.5202],[-92.8807,32.5853],[-92.9998,32.5838],[-93.18,32.5863],[-93.1724,32.5577],[-93.1642,32.5036],[-93.1474,32.4801],[-93.1485,32.4564],[-93.2371,32.4555],[-93.2371,32.41],[-93.3729,32.4105],[-93.3916,32.3947],[-93.4162,32.4016],[-93.4248,32.3773],[-93.4056,32.3703],[-93.4244,32.314],[-93.4226,32.2871],[-93.4101,32.2832],[-93.4125,32.2485],[-93.4284,32.236],[-93.2139,32.2358],[-93.2097,32.1934],[-93.1987,32.1872],[-93.1937,32.18],[-93.186,32.1487],[-92.8207,32.149],[-92.8177,32.165],[-92.7986,32.1916],[-92.8011,32.2085],[-92.7739,32.2366],[-92.7732,32.2648],[-92.7768,32.4548]]]},"properties":{"GID_0":"USA","GID_1":"USA.19_1","GID_2":"USA.19.7_1","NAME_1":"Louisiana","NAME_2":"Bienville"}},
{"type":"Feature","geometry":{"type":"Polygon","coordinates":[[[-93.8146,33.0205],[-93.8271,33.0098],[-93.8134,32.97],[-93.8439,32.9521],[-93.81,32.9406],[-93.8139,32.9167],[-93.8256,32.9028],[-93.8195,32.882],[-93.7931,32.8588],[-93.7883,32.8248],[-93.8023,32.7972],[-93.7895,32.7715],[-93.825,32.733],[-93.79,32.7305],[-93.7818,32.712],[-93.7885,32.6781],[-93.7654,32.6526],[-93.7357,32.5858],[-93.7472,32.5673],[-93.7634,32.5625],[-93.7452,32.5163],[-93.711,32.4997],[-93.6911,32.4732],[-93.6886,32.4458],[-93.6617,32.4286],[-93.6825,32.4114],[-93.6283,32.3946],[-93.6304,32.3709],[-93.6151,32.3484],[-93.5913,32.3488],[-93.5788,32.3276],[-93.5446,32.3278],[-93.5274,32.3117],[-93.5207,32.2859],[-93.5021,32.2761],[-93.4904,32.2435],[-93.4713,32.237],[-93.4284,32.236],[-93.4125,32.2485],[-93.4101,32.2832],[-93.4226,32.2871],[-93.4244,32.314],[-93.4056,32.3703],[-93.4248,32.3773],[-93.4162,32.4016],[-93.3916,32.3947],[-93.3729,32.4105],[-93.4414,32.4108],[-93.4413,32.4978],[-93.4479,32.4991],[-93.4467,32.7637],[-93.4681,32.7684],[-93.475,32.7837],[-93.458,32.8223],[-93.4678,32.8435],[-93.4531,32.8661],[-93.4838,32.8938],[-93.4718,32.9154],[-93.4982,32.9222],[-93.5294,32.9668],[-93.5331,32.9836],[-93.5188,33.0025],[-93.5214,33.0194],[-93.8146,33.0205]]]},"properties":{"GID_0":"USA","GID_1":"USA.19_1","GID_2":"USA.19.8_1","NAME_1":"Louisiana","NAME_2":"Bossier"}},
{"type":"Feature","geometry":{"type":"Polygon","coordinates":[[[-93.8146,33.0205],[-94.0456,33.0206],[-94.0435,32.196],[-93.9512,32.1957],[-93.9296,32.2131],[-93.8959,32.2288],[-93.8641,32.2532],[-93.849,32.2918],[-93.8137,32.3108],[-93.8056,32.3305],[-93.7811,32.3443],[-93.7659,32.3464],[-93.7157,32.3168],[-93.6986,32.3249],[-93.6789,32.3189],[-93.6597,32.3111],[-93.6164,32.2736],[-93.6149,32.2376],[-93.4713,32.237],[-93.4904,32.2435],[-93.5021,32.2761],[-93.5207,32.2859],[-93.5274,32.3117],[-93.5446,32.3278],[-93.5788,32.3276],[-93.5913,32.3488],[-93.6151,32.3484],[-93.6304,32.3709],[-93.6283,32.3946],[-93.6825,32.4114],[-93.6617,32.4286],[-93.6886,32.4458],[-93.6911,32.4732],[-93.711,32.4997],[-93.7452,32.5163],[-93.7634,32.5625],[-93.7472,32.5673],[-93.7357,32.5858],[-93.7654,32.6526],[-93.7885,32.6781],[-93.7818,32.712],[-93.79,32.7305],[-93.825,32.733],[-93.7895,32.7715],[-93.8023,32.7972],[-93.7883,32.8248],[-93.7931,32.8588],[-93.8195,32.882],[-93.8256,32.9028],[-93.8139,32.9167],[-93.81,32.9406],[-93.8439,32.9521],[-93.8134,32.97],[-93.8271,33.0098],[-93.8146,33.0205]]]},"properties":{"GID_0":"USA","GID_1":"USA.19_1","GID_2":"USA.19.9_1","NAME_1":"Louisiana","NAME_2":"Caddo"}},
{"type":"Feature","geometry":{"type":"Polygon","coordinates":[[[-93.7411,30.4037],[-93.7573,30.3899],[-93.7534,30.3604],[-93.7619,30.3535],[-93.7428,30.3028],[-93.7085,30.2875],[-93.7051,30.2597],[-93.7204,30.209],[-93.6964,30.1518],[-93.7048,30.1109],[-93.7326,30.0836],[-93.7175,30.0704],[-93.7218,30.0543],[-93.1294,30.0541],[-93.1291,30.0404],[-92.9951,30.04],[-92.9922,30.084],[-92.8893,30.0831],[-92.9075,30.1259],[-92.8893,30.1421],[-92.8932,30.1586],[-92.9962,30.1577],[-92.9971,30.2624],[-93.0309,30.2624],[-93.031,30.3796],[-93.1311,30.3804],[-93.1321,30.4033],[-93.3859,30.4051],[-93.3846,30.4902],[-93.4865,30.4908],[-93.4875,30.4038],[-93.7411,30.4037]]]},"properties":{"GID_0":"USA","GID_1":"USA.19_1","GID_2":"USA.19.10_1","NAME_1":"Louisiana","NAME_2":"Calcasieu"}},
{"type":"Feature","geometry":{"type":"Polygon","coordinates":[[[-92.3114,32.1483],[-92.3129,31.9276],[-91.9044,31.9276],[-91.9051,31.9718],[-91.8884,31.9723],[-91.8987,31.9891],[-91.9043,32.0201],[-91.8984,32.0334],[-91.9126,32.0561],[-91.9299,32.0684],[-91.9116,32.0848],[-91.8938,32.0817],[-91.8668,32.0964],[-91.874,32.1273],[-91.8973,32.1432],[-91.8963,32.1546],[-91.9104,32.1692],[-91.9413,32.1754],[-91.9527,32.1749],[-91.976,32.1794],[-91.9795,32.214],[-92.0007,32.2317],[-91.9934,32.2769],[-92.1078,32.2777],[-92.1077,32.2631],[-92.1521,32.2637],[-92.1652,32.2769],[-92.3121,32.2773],[-92.3114,32.1483]]]},"properties":{"GID_0":"USA","GID_1":"USA.19_1","GID_2":"USA.19.11_1","NAME_1":"Louisiana","NAME_2":"Caldwell"}},
{"type":"Feature","geometry":{"type":"Polygon","coordinates":[[[-93.7218,30.0543],[-93.7426,30.0231],[-93.7901,29.9873],[-93.8096,29.9527],[-93.8257,29.9028],[-93.8388,29.8828],[-93.8657,29.8586],[-93.8955,29.8417],[-93.9263,29.8165],[-93.9237,29.7865],[-93.895,29.7703],[-93.8906,29.7456],[-93.8717,29.7354],[-93.8403,29.6914],[-93.8133,29.7091],[-93.7455,29.7341],[-93.6872,29.7459],[-93.4987,29.7686],[-93.4058,29.7672],[-93.3417,29.7614],[-93.276,29.7763],[-93.2344,29.7775],[-93.1856,29.7716],[-93.0276,29.7343],[-92.9242,29.6986],[-92.7361,29.6181],[-92.6603,29.5939],[-92.6262,29.5918],[-92.615,29.5839],[-92.6157,29.7469],[-92.6138,29.8014],[-92.6154,29.9992],[-92.617,30.039],[-93.1291,30.0404],[-93.1294,30.0541],[-93.7218,30.0543]]]},"properties":{"GID_0":"USA","GID_1":"USA.19_1","GID_2":"USA.19.12_1","NAME_1":"Louisiana","NAME_2":"Cameron"}},
{"type":"Feature","geometry":{"type":"Polygon","coordinates":[[[-91.8347,31.2666],[-91.8224,31.2845],[-91.8235,31.2936],[-91.8439,31.2926],[-91.8648,31.3053],[-91.8629,31.3574],[-91.8442,31.3771],[-91.796,31.3763],[-91.7886,31.396],[-91.8347,31.4018],[-91.8562,31.4241],[-91.8645,31.4642],[-91.8485,31.5017],[-91.8303,31.499],[-91.8075,31.4388],[-91.7801,31.4412],[-91.7554,31.4307],[-91.7275,31.4358],[-91.7249,31.46],[-91.74,31.4677],[-91.7792,31.4681],[-91.805,31.4794],[-91.7793,31.5169],[-91.7864,31.5383],[-91.8209,31.5647],[-91.8258,31.5893],[-91.8061,31.6318],[-91.7696,31.6484],[-91.7577,31.6242],[-91.7334,31.616],[-91.7109,31.6348],[-91.7061,31.6503],[-91.7142,31.6777],[-91.7014,31.7033],[-91.6988,31.7265],[-91.6805,31.7439],[-91.6627,31.7293],[-91.6396,31.7284],[-91.617,31.7421],[-91.603,31.7618],[-91.5879,31.7595],[-91.5728,31.7362],[-91.5502,31.7226],[-91.5362,31.7427],[-91.5664,31.781],[-91.5772,31.8033],[-91.5686,31.827],[-91.5772,31.8795],[-91.5762,31.8827],[-91.5977,31.8826],[-91.5973,31.9706],[-91.6481,31.9706],[-91.6691,31.9314],[-91.6954,31.9131],[-91.7062,31.8957],[-91.7294,31.8824],[-91.7531,31.8856],[-91.7816,31.8723],[-91.7958,31.9065],[-91.8142,31.9242],[-91.8412,31.9369],[-91.8473,31.9551],[-91.8884,31.9723],[-91.9051,31.9718],[-91.9044,31.9276],[-92.0058,31.9276],[-92.0057,31.8154],[-92.009,31.752],[-92.0072,31.381],[-92.0085,31.3258],[-92.0036,31.3249],[-92.0169,31.3029],[-92.0125,31.2815],[-91.9806,31.2236],[-91.9625,31.2438],[-91.948,31.2425],[-91.9471,31.2722],[-91.9269,31.2951],[-91.9092,31.297],[-91.8701,31.2811],[-91.855,31.2643],[-91.8347,31.2666]]]},"properties":{"GID_0":"USA","GID_1":"USA.19_1","GID_2":"USA.19.13_1","NAME_1":"Louisiana","NAME_2":"Catahoula"}},
{"type":"Feature","geometry":{"type":"Polygon","coordinates":[[[-93.2396,33.0182],[-93.2377,32.8851],[-93.2379,32.717],[-93.1866,32.7169],[-93.1868,32.6741],[-93.1762,32.6615],[-93.1777,32.6036],[-93.1818,32.5926],[-93.18,32.5863],[-92.9998,32.5838],[-92.8807,32.5853],[-92.881,32.6003],[-92.8669,32.6068],[-92.8609,32.6374],[-92.8686,32.6729],[-92.8409,32.7106],[-92.8284,32.7125],[-92.8287,32.7603],[-92.7256,32.7597],[-92.7252,32.8039],[-92.7339,32.8033],[-92.7341,32.8179],[-92.7254,32.818],[-92.7246,33.0147],[-93.2396,33.0182]]]},"properties":{"GID_0":"USA","GID_1":"USA.19_1","GID_2":"USA.19.14_1","NAME_1":"Louisiana","NAME_2":"Claiborne"}},
{"type":"Feature","geometry":{"type":"Polygon","coordinates":[[[-91.7211,31.0495],[-91.7099,31.0459],[-91.6987,31.045],[-91.6635,31.0451],[-91.6447,31.0213],[-91.6543,31.009],[-91.6586,30.9916],[-91.6639,30.977],[-91.6622,30.9706],[-91.6553,30.9866],[-91.6397,30.9998],[-91.5921,31.0224],[-91.5721,31.0369],[-91.562,31.0561],[-91.5945,31.0877],[-91.6278,31.1273],[-91.625,31.1435],[-91.6015,31.1703],[-91.5965,31.1896],[-91.6179,31.2194],[-91.6494,31.2424],[-91.6463,31.2661],[-91.627,31.2698],[-91.5846,31.2642],[-91.5339,31.2722],[-91.5146,31.2904],[-91.5138,31.3181],[-91.5509,31.35],[-91.5494,31.3849],[-91.5709,31.3776],[-91.5795,31.3986],[-91.5704,31.4214],[-91.5479,31.4319],[-91.5435,31.4137],[-91.5167,31.3712],[-91.4883,31.3708],[-91.4765,31.3808],[-91.4712,31.4045],[-91.5125,31.447],[-91.5178,31.4748],[-91.513,31.5314],[-91.4829,31.5326],[-91.4445,31.5464],[-91.4082,31.5756],[-91.4114,31.5925],[-91.4427,31.5957],[-91.4861,31.586],[-91.5066,31.5989],[-91.52,31.6179],[-91.5081,31.6413],[-91.4947,31.645],[-91.4772,31.6294],[-91.4388,31.6131],[-91.4141,31.6163],[-91.3987,31.6323],[-91.3949,31.6565],[-91.397,31.7167],[-91.3736,31.7471],[-91.3994,31.7536],[-91.5448,31.7541],[-91.5362,31.7427],[-91.5502,31.7226],[-91.5728,31.7362],[-91.5879,31.7595],[-91.603,31.7618],[-91.617,31.7421],[-91.6396,31.7284],[-91.6627,31.7293],[-91.6805,31.7439],[-91.6988,31.7265],[-91.7014,31.7033],[-91.7142,31.6777],[-91.7061,31.6503],[-91.7109,31.6348],[-91.7334,31.616],[-91.7577,31.6242],[-91.7696,31.6484],[-91.8061,31.6318],[-91.8258,31.5893],[-91.8209,31.5647],[-91.7864,31.5383],[-91.7793,31.5169],[-91.805,31.4794],[-91.7792,31.4681],[-91.74,31.4677],[-91.7249,31.46],[-91.7275,31.4358],[-91.7554,31.4307],[-91.7801,31.4412],[-91.8075,31.4388],[-91.8303,31.499],[-91.8485,31.5017],[-91.8645,31.4642],[-91.8562,31.4241],[-91.8347,31.4018],[-91.7886,31.396],[-91.796,31.3763],[-91.8442,31.3771],[-91.8629,31.3574],[-91.8648,31.3053],[-91.8439,31.2926],[-91.8235,31.2936],[-91.8224,31.2845],[-91.8347,31.2666],[-91.8148,31.2416],[-91.7917,31.2261],[-91.7585,31.2225],[-91.7408,31.2052],[-91.7221,31.1993],[-91.7045,31.2085],[-91.6777,31.188],[-91.6835,31.1633],[-91.7033,31.1624],[-91.7176,31.1395],[-91.7064,31.114],[-91.7158,31.0591],[-91.7211,31.0495]]]},"properties":{"GID_0":"USA","GID_1":"USA.19_1","GID_2":"USA.19.15_1","NAME_1":"Louisiana","NAME_2":"Concordia"}},
{"type":"Feature","geometry":{"type":"Polygon","coordinates":[[[-94.0435,32.196],[-94.0419,31.9939],[-94.0233,31.9912],[-93.9775,31.9287],[-93.9303,31.896],[-93.8973,31.8883],[-93.8802,31.8456],[-93.4412,31.8454],[-93.4407,31.8942],[-93.4407,31.9143],[-93.4238,31.9314],[-93.3987,31.9182],[-93.3548,31.9321],[-93.3803,31.965],[-93.4079,31.9887],[-93.4431,31.9904],[-93.4638,32.022],[-93.4814,32.0335],[-93.4798,32.0568],[-93.5049,32.0641],[-93.5135,32.0858],[-93.541,32.104],[-93.5099,32.1333],[-93.521,32.145],[-93.5215,32.1669],[-93.5379,32.1926],[-93.5672,32.1952],[-93.594,32.2061],[-93.6149,32.2376],[-93.6164,32.2736],[-93.6597,32.3111],[-93.6789,32.3189],[-93.6986,32.3249],[-93.7157,32.3168],[-93.7659,32.3464],[-93.7811,32.3443],[-93.8056,32.3305],[-93.8137,32.3108],[-93.849,32.2918],[-93.8641,32.2532],[-93.8959,32.2288],[-93.9296,32.2131],[-93.9512,32.1957],[-94.0435,32.196]]]},"properties":{"GID_0":"USA","GID_1":"USA.19_1","GID_2":"USA.19.16_1","NAME_1":"Louisiana","NAME_2":"DeSoto"}},
{"type":"Feature","geometry":{"type":"Polygon","coordinates":[[[-90.8951,30.3465],[-90.9347,30.37],[-90.9446,30.3925],[-90.9593,30.4026],[-90.9777,30.4301],[-90.9902,30.4663],[-90.9759,30.4676],[-90.9713,30.5119],[-90.9845,30.5308],[-90.9738,30.5398],[-90.9715,30.5632],[-90.982,30.5879],[-90.9447,30.6065],[-90.9323,30.6343],[-90.9104,30.6506],[-90.8788,30.6866],[-90.8495,30.7001],[-90.8477,30.7198],[-91.2492,30.7072],[-91.2711,30.6808],[-91.2891,30.6781],[-91.2977,30.6493],[-91.2999,30.631],[-91.3164,30.5903],[-91.3117,30.5752],[-91.2666,30.571],[-91.2502,30.5632],[-91.246,30.5395],[-91.2811,30.5189],[-91.2684,30.5047],[-91.2094,30.5229],[-91.1973,30.5073],[-91.196,30.4396],[-91.1997,30.42],[-91.2418,30.3579],[-91.2228,30.3409],[-91.1873,30.3468],[-91.145,30.3315],[-91.1382,30.3169],[-91.1255,30.3127],[-91.0678,30.3212],[-91.025,30.3201],[-91.0058,30.3401],[-90.9846,30.3465],[-90.9174,30.3415],[-90.8951,30.3465]]]},"properties":{"GID_0":"USA","GID_1":"USA.19_1","GID_2":"USA.19.17_1","NAME_1":"Louisiana","NAME_2":"EastBatonRouge"}},
{"type":"Feature","geometry":{"type":"Polygon","coordinates":[[[-91.2605,33.005],[-91.2792,32.9759],[-91.2771,32.9545],[-91.3105,32.9359],[-91.3106,32.8827],[-91.3205,32.8649],[-91.3396,32.8622],[-91.3458,32.7502],[-91.3753,32.7134],[-91.383,32.6888],[-91.4026,32.672],[-91.395,32.6451],[-91.4054,32.6264],[-91.4016,32.6059],[-91.4277,32.5996],[-91.4457,32.5818],[-91.431,32.5613],[-91.4577,32.5376],[-91.1341,32.5379],[-91.1084,32.5629],[-91.0749,32.5627],[-91.0436,32.5754],[-91.0042,32.6117],[-91.0162,32.642],[-91.0367,32.6387],[-91.0555,32.6075],[-91.1119,32.5906],[-91.1333,32.5935],[-91.1495,32.6182],[-91.1543,32.6396],[-91.0931,32.6854],[-91.0622,32.704],[-91.0598,32.7282],[-91.0863,32.7373],[-91.155,32.7459],[-91.1656,32.7613],[-91.1576,32.7768],[-91.1624,32.8008],[-91.1455,32.8427],[-91.1028,32.8602],[-91.0809,32.8777],[-91.064,32.9052],[-91.0688,32.9321],[-91.0877,32.9729],[-91.1211,32.9855],[-91.1391,32.9705],[-91.1307,32.921],[-91.1488,32.9037],[-91.1906,32.9049],[-91.2126,32.9303],[-91.1944,32.9736],[-91.1631,33.0045],[-91.2605,33.005]]]},"properties":{"GID_0":"USA","GID_1":"USA.19_1","GID_2":"USA.19.18_1","NAME_1":"Louisiana","NAME_2":"EastCarroll"}},
{"type":"Feature","geometry":{"type":"Polygon","coordinates":[[[-90.8477,30.7198],[-90.8523,30.744],[-90.8404,30.7732],[-90.8434,30.7933],[-90.8347,30.8166],[-90.8598,30.8743],[-90.8484,30.8962],[-90.8619,30.9451],[-90.8458,30.9619],[-90.8435,30.9839],[-90.8268,30.9992],[-91.1757,31],[-91.1822,30.9739],[-91.1956,30.9598],[-91.1872,30.9369],[-91.208,30.9183],[-91.2065,30.8927],[-91.2225,30.8813],[-91.2194,30.8644],[-91.2345,30.8246],[-91.2372,30.7945],[-91.2602,30.7621],[-91.2863,30.7475],[-91.2922,30.7188],[-91.3114,30.7083],[-91.3146,30.6927],[-91.3051,30.6529],[-91.2993,30.6516],[-91.2977,30.6493],[-91.2891,30.6781],[-91.2711,30.6808],[-91.2492,30.7072],[-90.8477,30.7198]]]},"properties":{"GID_0":"USA","GID_1":"USA.19_1","GID_2":"USA.19.19_1","NAME_1":"Louisiana","NAME_2":"EastFeliciana"}},
{"type":"Feature","geometry":{"type":"Polygon","coordinates":[[[-92.4942,30.4818],[-92.4805,30.4924],[-92.4637,30.5008],[-92.4508,30.532],[-92.4148,30.5405],[-92.263,30.5385],[-92.2622,30.5682],[-92.2113,30.569],[-92.2117,30.6129],[-92.2009,30.6564],[-92.1729,30.6758],[-92.1694,30.7677],[-92.2073,30.7848],[-92.2127,30.7948],[-92.2132,30.8487],[-92.2377,30.8486],[-92.2381,30.8924],[-92.2811,30.9365],[-92.2809,30.9653],[-92.315,30.9655],[-92.3579,30.9848],[-92.3784,31.0029],[-92.405,30.994],[-92.4154,30.9788],[-92.4568,30.9589],[-92.4861,30.9536],[-92.4798,30.9226],[-92.4961,30.9037],[-92.5253,30.8943],[-92.5537,30.9031],[-92.5658,30.8948],[-92.5989,30.8945],[-92.5979,30.5832],[-92.5844,30.5683],[-92.6051,30.531],[-92.6241,30.5208],[-92.618,30.5021],[-92.6284,30.4896],[-92.6304,30.4827],[-92.4942,30.4818]]]},"properties":{"GID_0":"USA","GID_1":"USA.19_1","GID_2":"USA.19.20_1","NAME_1":"Louisiana","NAME_2":"Evangeline"}},
{"type":"Feature","geometry":{"type":"Polygon","coordinates":[[[-91.8884,31.9723],[-91.8473,31.9551],[-91.8412,31.9369],[-91.8142,31.9242],[-91.7958,31.9065],[-91.7816,31.8723],[-91.7531,31.8856],[-91.7294,31.8824],[-91.7062,31.8957],[-91.6954,31.9131],[-91.6691,31.9314],[-91.6481,31.9706],[-91.5973,31.9706],[-91.5977,31.8826],[-91.5762,31.8827],[-91.5724,31.8895],[-91.5471,31.9123],[-91.5276,31.9151],[-91.5115,31.9301],[-91.5131,31.9543],[-91.5271,31.9634],[-91.4963,32.009],[-91.5093,32.0195],[-91.5017,32.0664],[-91.4904,32.0933],[-91.5099,32.0979],[-91.505,32.1407],[-91.4925,32.1562],[-91.4931,32.2032],[-91.5359,32.2036],[-91.5429,32.2592],[-91.5245,32.2515],[-91.5299,32.2939],[-91.5251,32.3021],[-91.5104,32.298],[-91.5045,32.3148],[-91.4719,32.3171],[-91.4665,32.3508],[-91.4518,32.3686],[-91.4746,32.3836],[-91.4757,32.4028],[-91.4784,32.4064],[-91.6337,32.405],[-91.6575,32.3881],[-91.6803,32.3839],[-91.703,32.3561],[-91.715,32.3433],[-91.7258,32.3333],[-91.7632,32.3319],[-91.7738,32.2708],[-91.7722,32.253],[-91.7948,32.2274],[-91.8197,32.2164],[-91.8229,32.1963],[-91.8412,32.1781],[-91.878,32.1743],[-91.8963,32.1546],[-91.8973,32.1432],[-91.874,32.1273],[-91.8668,32.0964],[-91.8938,32.0817],[-91.9116,32.0848],[-91.9299,32.0684],[-91.9126,32.0561],[-91.8984,32.0334],[-91.9043,32.0201],[-91.8987,31.9891],[-91.8884,31.9723]]]},"properties":{"GID_0":"USA","GID_1":"USA.19_1","GID_2":"USA.19.21_1","NAME_1":"Louisiana","NAME_2":"Franklin"}},
{"type":"Feature","geometry":{"type":"Polygon","coordinates":[[[-92.1967,31.4781],[-92.1984,31.4804],[-92.2383,31.5007],[-92.2769,31.4954],[-92.2745,31.5269],[-92.2966,31.535],[-92.3052,31.5888],[-92.3434,31.5958],[-92.3645,31.6061],[-92.3685,31.6252],[-92.3663,31.6723],[-92.3471,31.6907],[-92.3709,31.6987],[-92.3695,31.7206],[-92.3579,31.7444],[-92.3376,31.7596],[-92.3638,31.7886],[-92.3628,31.7968],[-92.6193,31.7978],[-92.6202,31.7101],[-92.9647,31.7098],[-92.9593,31.7063],[-92.961,31.6807],[-92.9378,31.681],[-92.9263,31.6684],[-92.9032,31.6668],[-92.9025,31.6294],[-92.8669,31.6207],[-92.8532,31.6067],[-92.803,31.5978],[-92.7877,31.5788],[-92.7562,31.5581],[-92.7598,31.549],[-92.719,31.5179],[-92.6972,31.4917],[-92.7074,31.4546],[-92.6936,31.4315],[-92.6943,31.4077],[-92.6624,31.3894],[-92.6319,31.3906],[-92.3826,31.4431],[-92.1967,31.4781]]]},"properties":{"GID_0":"USA","GID_1":"USA.19_1","GID_2":"USA.19.22_1","NAME_1":"Louisiana","NAME_2":"Grant"}},
{"type":"Feature","geometry":{"type":"MultiPolygon","coordinates":[[[[-91.9017,29.6353],[-91.9214,29.6322],[-91.9336,29.6122],[-91.9675,29.6078],[-91.9825,29.6147],[-92.0051,29.6033],[-92.0263,29.5674],[-92.0036,29.555],[-91.9547,29.5381],[-91.8831,29.5011],[-91.8608,29.5025],[-91.847,29.4799],[-91.8217,29.4742],[-91.805,29.4869],[-91.7875,29.4819],[-91.7672,29.4894],[-91.7739,29.5039],[-91.7644,29.5242],[-91.7164,29.5519],[-91.7278,29.5617],[-91.7767,29.5797],[-91.7844,29.5944],[-91.8264,29.5703],[-91.8236,29.6033],[-91.8647,29.6317],[-91.9017,29.6353]]],[[[-91.2392,30],[-91.2222,30.0307],[-91.2222,30.0394],[-91.2275,30.043],[-91.2423,30.0298],[-91.2686,30.061],[-91.3688,30.0589],[-91.488,30.0585],[-91.5086,30.0328],[-91.5998,30.0337],[-91.6103,30.0465],[-91.6088,30.0694],[-91.6304,30.0721],[-91.6616,30.1101],[-91.7039,30.1214],[-91.7313,30.1228],[-91.7682,30.108],[-91.7729,30.0897],[-91.8029,30.0741],[-91.8192,30.0456],[-91.8746,30.0693],[-91.8952,30.0587],[-91.9074,30.0728],[-91.9512,30.0736],[-91.9818,29.9906],[-91.9938,29.9699],[-91.972,29.8335],[-91.9381,29.8161],[-91.9155,29.8184],[-91.889,29.8359],[-91.8625,29.8261],[-91.8255,29.8239],[-91.8271,29.7772],[-91.8503,29.7881],[-91.8775,29.7475],[-91.8548,29.7393],[-91.7109,29.8458],[-91.6233,29.946],[-91.2556,29.9717],[-91.2603,29.9854],[-91.2392,30]]]]},"properties":{"GID_0":"USA","GID_1":"USA.19_1","GID_2":"USA.19.23_1","NAME_1":"Louisiana","NAME_2":"Iberia"}},
{"type":"Feature","geometry":{"type":"Polygon","coordinates":[[[-91.025,30.3201],[-91.0678,30.3212],[-91.1255,30.3127],[-91.1382,30.3169],[-91.1419,30.3237],[-91.3144,30.3246],[-91.3202,30.3443],[-91.3371,30.3526],[-91.3714,30.3874],[-91.3947,30.3956],[-91.3947,30.4094],[-91.4524,30.4743],[-91.4853,30.4972],[-91.5261,30.4972],[-91.5818,30.4825],[-91.5839,30.4967],[-91.7011,30.4975],[-91.7016,30.4925],[-91.6926,30.481],[-91.6682,30.4747],[-91.6374,30.4427],[-91.6246,30.3947],[-91.6457,30.365],[-91.6245,30.3544],[-91.6282,30.3302],[-91.6213,30.3105],[-91.59,30.2772],[-91.5884,30.257],[-91.563,30.242],[-91.4922,30.2369],[-91.4763,30.2255],[-91.4906,30.2017],[-91.4742,30.1875],[-91.4727,30.1431],[-91.4616,30.1317],[-91.4727,30.1143],[-91.4642,30.1029],[-91.3893,30.1024],[-91.3777,30.095],[-91.3688,30.0589],[-91.2686,30.061],[-91.2423,30.0298],[-91.2275,30.043],[-91.2222,30.0394],[-91.2222,30.0307],[-91.2244,30.0256],[-91.1061,30.0628],[-91.1069,30.1081],[-91.09,30.109],[-91.0914,30.157],[-91.0718,30.162],[-91.0599,30.2132],[-91.0213,30.3146],[-91.025,30.3201]]]},"properties":{"GID_0":"USA","GID_1":"USA.19_1","GID_2":"USA.19.24_1","NAME_1":"Louisiana","NAME_2":"Iberville"}},
{"type":"Feature","geometry":{"type":"Polygon","coordinates":[[[-92.8207,32.149],[-92.3114,32.1483],[-92.312,32.3206],[-92.4155,32.4077],[-92.4155,32.4952],[-92.6231,32.497],[-92.6231,32.4537],[-92.7768,32.4548],[-92.7732,32.2648],[-92.7739,32.2366],[-92.8011,32.2085],[-92.7986,32.1916],[-92.8177,32.165],[-92.8207,32.149]]]},"properties":{"GID_0":"USA","GID_1":"USA.19_1","GID_2":"USA.19.25_1","NAME_1":"Louisiana","NAME_2":"Jackson"}},
{"type":"Feature","geometry":{"type":"MultiPolygon","coordinates":[[[[-90.0769,29.5106],[-90.1011,29.4906],[-90.0814,29.4778],[-90.0769,29.5106]]],[[[-89.9756,29.4641],[-89.9642,29.4902],[-89.9798,29.4955],[-89.9791,29.5344],[-89.9893,29.5506],[-89.98,29.5977],[-89.988,29.6221],[-90.0021,29.6227],[-90.0159,29.6742],[-90.0678,29.7386],[-90.0757,29.7717],[-90.0643,29.7894],[-90.0724,29.8069],[-90.0689,29.8293],[-90.0274,29.854],[-90.0082,29.8958],[-90.0584,29.9455],[-90.072,29.9191],[-90.118,29.9092],[-90.1327,29.9135],[-90.14,29.9484],[-90.1248,29.9743],[-90.1187,30.0264],[-90.1059,30.1919],[-90.1691,30.2037],[-90.2169,30.2198],[-90.2776,30.2306],[-90.2807,30.0497],[-90.2803,29.9718],[-90.2686,29.9058],[-90.2427,29.8807],[-90.2403,29.8619],[-90.1674,29.8171],[-90.1696,29.8061],[-90.2007,29.751],[-90.2275,29.6919],[-90.2059,29.6912],[-90.1767,29.6662],[-90.17,29.6245],[-90.1541,29.6023],[-90.1639,29.5786],[-90.1714,29.5661],[-90.1486,29.5331],[-90.1339,29.5525],[-90.0919,29.5283],[-90.0692,29.5097],[-90.0131,29.4953],[-89.9756,29.4641]]]]},"properties":{"GID_0":"USA","GID_1":"USA.19_1","GID_2":"USA.19.26_1","NAME_1":"Louisiana","NAME_2":"Jefferson"}},
{"type":"Feature","geometry":{"type":"Polygon","coordinates":[[[-92.6304,30.4827],[-92.6284,30.4896],[-92.7742,30.4885],[-92.7766,30.4391],[-93.0655,30.4395],[-93.0663,30.4266],[-93.1309,30.4257],[-93.1321,30.4033],[-93.1311,30.3804],[-93.031,30.3796],[-93.0309,30.2624],[-92.9971,30.2624],[-92.9962,30.1577],[-92.8932,30.1586],[-92.8893,30.1421],[-92.9075,30.1259],[-92.8893,30.0831],[-92.9922,30.084],[-92.9951,30.04],[-92.7346,30.0396],[-92.7021,30.0519],[-92.6545,30.0794],[-92.6422,30.0727],[-92.6241,30.0944],[-92.6182,30.0908],[-92.6199,30.0981],[-92.6169,30.1077],[-92.6232,30.1104],[-92.6278,30.1383],[-92.607,30.1586],[-92.6167,30.1723],[-92.5904,30.184],[-92.5923,30.2068],[-92.6103,30.2103],[-92.6228,30.233],[-92.6229,30.2761],[-92.6292,30.3144],[-92.6194,30.3324],[-92.6295,30.3762],[-92.6048,30.3888],[-92.5963,30.4282],[-92.6222,30.4586],[-92.6304,30.4827]]]},"properties":{"GID_0":"USA","GID_1":"USA.19_1","GID_2":"USA.19.27_1","NAME_1":"Louisiana","NAME_2":"JeffersonDavis"}},
{"type":"Feature","geometry":{"type":"Polygon","coordinates":[[[-92.0085,31.3258],[-92.0072,31.381],[-92.009,31.752],[-92.0057,31.8154],[-92.0058,31.9276],[-92.3129,31.9276],[-92.3126,31.8966],[-92.3409,31.8157],[-92.3628,31.7968],[-92.3638,31.7886],[-92.3376,31.7596],[-92.3579,31.7444],[-92.3695,31.7206],[-92.3709,31.6987],[-92.3471,31.6907],[-92.3663,31.6723],[-92.3685,31.6252],[-92.3645,31.6061],[-92.3434,31.5958],[-92.3052,31.5888],[-92.2966,31.535],[-92.2745,31.5269],[-92.2769,31.4954],[-92.2383,31.5007],[-92.1984,31.4804],[-92.1886,31.4681],[-92.1607,31.466],[-92.161,31.4391],[-92.1495,31.4058],[-92.1246,31.38],[-92.0988,31.3751],[-92.0767,31.356],[-92.0889,31.3377],[-92.0846,31.335],[-92.0813,31.3241],[-92.0525,31.3361],[-92.037,31.3435],[-92.0224,31.3303],[-92.0085,31.3258]]]},"properties":{"GID_0":"USA","GID_1":"USA.19_1","GID_2":"USA.19.28_1","NAME_1":"Louisiana","NAME_2":"LaSalle"}},
{"type":"Feature","geometry":{"type":"Polygon","coordinates":[[[-92.2853,30.1477],[-92.2514,30.1392],[-92.2092,30.1436],[-92.1287,30.1162],[-92.0929,30.1287],[-92.087,30.1091],[-92.064,30.073],[-92.0149,30.0536],[-91.9647,30.0364],[-91.9366,30.1148],[-91.9056,30.1543],[-91.9211,30.1881],[-91.9803,30.1824],[-91.9794,30.2094],[-91.9583,30.2117],[-91.9595,30.2374],[-91.9691,30.2602],[-91.9518,30.2799],[-91.9551,30.3088],[-91.9685,30.3339],[-91.9538,30.36],[-91.9893,30.3704],[-92.0126,30.3716],[-92.0258,30.361],[-92.0497,30.3801],[-92.0851,30.3575],[-92.0881,30.3356],[-92.0986,30.3305],[-92.1423,30.2991],[-92.1422,30.2845],[-92.159,30.2702],[-92.1764,30.2701],[-92.1762,30.2413],[-92.2106,30.2406],[-92.2146,30.2223],[-92.2379,30.2189],[-92.2524,30.1918],[-92.2517,30.1699],[-92.2853,30.1477]]]},"properties":{"GID_0":"USA","GID_1":"USA.19_1","GID_2":"USA.19.29_1","NAME_1":"Louisiana","NAME_2":"Lafayette"}},
{"type":"Feature","geometry":{"type":"Polygon","coordinates":[[[-90.91,29.8772],[-90.9247,29.8299],[-90.9474,29.7917],[-90.9806,29.745],[-91.0066,29.7147],[-90.8802,29.7167],[-90.8821,29.7461],[-90.8416,29.7463],[-90.8219,29.7778],[-90.8056,29.7745],[-90.8048,29.7497],[-90.788,29.7473],[-90.7669,29.6965],[-90.7439,29.6766],[-90.7048,29.6634],[-90.6495,29.6025],[-90.619,29.5982],[-90.6038,29.5743],[-90.5745,29.5588],[-90.5573,29.5358],[-90.5431,29.5223],[-90.5381,29.5062],[-90.469,29.4543],[-90.4588,29.4317],[-90.4196,29.3905],[-90.3967,29.3797],[-90.3798,29.3525],[-90.3865,29.3246],[-90.3783,29.3099],[-90.3839,29.281],[-90.3967,29.2642],[-90.3782,29.2753],[-90.3503,29.3222],[-90.3078,29.2722],[-90.2728,29.1958],[-90.255,29.1789],[-90.2556,29.1426],[-90.2347,29.1292],[-90.2406,29.0958],[-90.2207,29.0865],[-90.1553,29.1217],[-90.09,29.1639],[-90.0872,29.1874],[-90.1249,29.2203],[-90.1061,29.2283],[-90.1097,29.2736],[-90.1278,29.2925],[-90.1353,29.3297],[-90.1494,29.3475],[-90.1361,29.3703],[-90.1039,29.34],[-90.0967,29.3531],[-90.0708,29.3581],[-90.0419,29.35],[-90.0483,29.3792],[-90.0711,29.3986],[-90.0564,29.4211],[-90.0664,29.4458],[-90.1725,29.4669],[-90.2011,29.5003],[-90.2211,29.5006],[-90.225,29.5364],[-90.2072,29.565],[-90.1639,29.5786],[-90.1541,29.6023],[-90.17,29.6245],[-90.1767,29.6662],[-90.2059,29.6912],[-90.3397,29.693],[-90.3603,29.707],[-90.3614,29.7391],[-90.381,29.7654],[-90.4282,29.7765],[-90.4756,29.8126],[-90.4799,29.847],[-90.5002,29.866],[-90.5149,29.8647],[-90.5303,29.8869],[-90.5409,29.8919],[-90.5943,29.8921],[-90.6089,29.8834],[-90.6267,29.895],[-90.6563,29.8895],[-90.6999,29.9036],[-90.7861,29.922],[-90.7851,29.9073],[-90.8857,29.9052],[-90.8853,29.8771],[-90.91,29.8772]]]},"properties":{"GID_0":"USA","GID_1":"USA.19_1","GID_2":"USA.19.30_1","NAME_1":"Louisiana","NAME_2":"Lafourche"}},
{"type":"Feature","geometry":{"type":"Polygon","coordinates":[[[-92.7768,32.4548],[-92.6231,32.4537],[-92.6231,32.497],[-92.4155,32.4952],[-92.4132,32.5845],[-92.4153,32.672],[-92.5188,32.6725],[-92.5195,32.7239],[-92.5472,32.7205],[-92.5672,32.7453],[-92.5968,32.7551],[-92.6361,32.7597],[-92.8287,32.7603],[-92.8284,32.7125],[-92.8409,32.7106],[-92.8686,32.6729],[-92.8609,32.6374],[-92.8669,32.6068],[-92.881,32.6003],[-92.8779,32.5202],[-92.8795,32.4541],[-92.7768,32.4548]]]},"properties":{"GID_0":"USA","GID_1":"USA.19_1","GID_2":"USA.19.31_1","NAME_1":"Louisiana","NAME_2":"Lincoln"}},
{"type":"Feature","geometry":{"type":"Polygon","coordinates":[[[-90.6323,30.2212],[-90.5996,30.2168],[-90.5824,30.1979],[-90.5618,30.1931],[-90.5395,30.203],[-90.5165,30.2275],[-90.4998,30.2553],[-90.4838,30.2647],[-90.4016,30.2854],[-90.4426,30.3046],[-90.475,30.3365],[-90.48,30.3585],[-90.5043,30.3637],[-90.5019,30.3848],[-90.5196,30.4124],[-90.5459,30.4304],[-90.5502,30.4657],[-90.567,30.4869],[-90.5674,30.6313],[-90.5704,30.6501],[-90.9104,30.6506],[-90.9323,30.6343],[-90.9447,30.6065],[-90.982,30.5879],[-90.9715,30.5632],[-90.9738,30.5398],[-90.9845,30.5308],[-90.9713,30.5119],[-90.9759,30.4676],[-90.9902,30.4663],[-90.9777,30.4301],[-90.9593,30.4026],[-90.9446,30.3925],[-90.9347,30.37],[-90.8951,30.3465],[-90.8565,30.3417],[-90.8318,30.3195],[-90.8252,30.2953],[-90.8094,30.2769],[-90.782,30.2753],[-90.7874,30.257],[-90.7696,30.2382],[-90.7479,30.238],[-90.7228,30.2072],[-90.7198,30.1898],[-90.6988,30.1764],[-90.6733,30.1981],[-90.6779,30.2092],[-90.6465,30.2327],[-90.6323,30.2212]]]},"properties":{"GID_0":"USA","GID_1":"USA.19_1","GID_2":"USA.19.32_1","NAME_1":"Louisiana","NAME_2":"Livingston"}},
{"type":"Feature","geometry":{"type":"MultiPolygon","coordinates":[[[[-91.053,32.1237],[-91.0301,32.1204],[-91.0119,32.1293],[-91.0021,32.1617],[-91.0384,32.1729],[-91.053,32.1237]]],[[[-91.1341,32.5379],[-91.4577,32.5376],[-91.48,32.5098],[-91.4811,32.4711],[-91.4751,32.4492],[-91.4855,32.4369],[-91.4871,32.4133],[-91.4757,32.4028],[-91.4746,32.3836],[-91.4518,32.3686],[-91.4665,32.3508],[-91.4719,32.3171],[-91.5045,32.3148],[-91.5104,32.298],[-91.5251,32.3021],[-91.5299,32.2939],[-91.5245,32.2515],[-91.5429,32.2592],[-91.5359,32.2036],[-91.3198,32.2053],[-91.2731,32.2326],[-91.2353,32.2102],[-91.2189,32.2334],[-91.1848,32.2456],[-91.1338,32.2495],[-91.1225,32.2404],[-91.1216,32.2136],[-91.0738,32.2264],[-91.0485,32.239],[-91.0142,32.2295],[-91.0047,32.2052],[-90.9812,32.217],[-90.9755,32.2546],[-90.9818,32.2868],[-90.9612,32.2962],[-90.9499,32.2839],[-90.9051,32.317],[-90.9066,32.3446],[-90.9354,32.3448],[-90.9929,32.354],[-91.0084,32.3703],[-90.9914,32.4012],[-90.9663,32.4261],[-90.9707,32.4406],[-91.0018,32.4499],[-91.0337,32.4364],[-91.0751,32.4483],[-91.1114,32.479],[-91.1164,32.4969],[-91.1091,32.5324],[-91.0934,32.5484],[-91.0786,32.5403],[-91.052,32.5046],[-91.0197,32.4848],[-90.9952,32.4846],[-90.9897,32.5023],[-91.0016,32.5138],[-91.0584,32.535],[-91.0749,32.5627],[-91.1084,32.5629],[-91.1341,32.5379]]]]},"properties":{"GID_0":"USA","GID_1":"USA.19_1","GID_2":"USA.19.33_1","NAME_1":"Louisiana","NAME_2":"Madison"}},
{"type":"Feature","geometry":{"type":"Polygon","coordinates":[[[-92.0647,33.0089],[-92.082,32.9815],[-92.0851,32.9569],[-92.0728,32.9251],[-92.084,32.8777],[-92.0564,32.8446],[-92.0661,32.8213],[-92.0533,32.7941],[-92.0554,32.7699],[-92.0519,32.7435],[-92.0654,32.723],[-92.0499,32.6893],[-91.9705,32.7111],[-91.9703,32.6902],[-91.938,32.6598],[-91.907,32.6608],[-91.9215,32.632],[-91.9208,32.5942],[-91.9294,32.5828],[-91.9167,32.5414],[-91.9122,32.5077],[-91.8933,32.5415],[-91.8546,32.5175],[-91.8454,32.5166],[-91.8427,32.5389],[-91.8368,32.5467],[-91.8053,32.57],[-91.7884,32.5619],[-91.7395,32.5602],[-91.7282,32.5989],[-91.707,32.6144],[-91.6895,32.6094],[-91.6558,32.6231],[-91.639,32.6696],[-91.6227,32.692],[-91.6375,32.7124],[-91.6015,32.7448],[-91.5961,32.7644],[-91.6054,32.7858],[-91.5765,32.8222],[-91.5711,32.8496],[-91.5422,32.8773],[-91.5192,32.876],[-91.4952,32.8937],[-91.4974,32.9079],[-91.4766,32.9302],[-91.4733,32.947],[-91.44,32.9857],[-91.4378,33.0058],[-92.0647,33.0089]]]},"properties":{"GID_0":"USA","GID_1":"USA.19_1","GID_2":"USA.19.34_1","NAME_1":"Louisiana","NAME_2":"Morehouse"}},
{"type":"Feature","geometry":{"type":"Polygon","coordinates":[[[-93.186,32.1487],[-93.1526,32.1049],[-93.1636,32.0865],[-93.1444,32.0713],[-93.138,32.0518],[-93.1554,32.0278],[-93.1582,32.0082],[-93.1213,31.9727],[-93.2385,31.9728],[-93.2403,31.9071],[-93.2592,31.91],[-93.2713,31.8938],[-93.3208,31.8885],[-93.3507,31.8989],[-93.3548,31.9321],[-93.3987,31.9182],[-93.4238,31.9314],[-93.4407,31.9143],[-93.4407,31.8942],[-93.4418,31.7149],[-93.34,31.7148],[-93.3382,31.5391],[-93.2372,31.5398],[-93.2361,31.365],[-93.034,31.3639],[-92.9916,31.3599],[-92.9817,31.3468],[-92.9474,31.3468],[-92.9478,31.3678],[-92.9135,31.3682],[-92.9145,31.391],[-92.8898,31.3918],[-92.8739,31.4043],[-92.8737,31.4203],[-92.8501,31.421],[-92.8487,31.4352],[-92.8134,31.4416],[-92.7876,31.4697],[-92.719,31.5179],[-92.7598,31.549],[-92.7562,31.5581],[-92.7877,31.5788],[-92.803,31.5978],[-92.8532,31.6067],[-92.8669,31.6207],[-92.9025,31.6294],[-92.9032,31.6668],[-92.9263,31.6684],[-92.9378,31.681],[-92.961,31.6807],[-92.9593,31.7063],[-92.9734,31.7147],[-92.9657,31.7354],[-92.973,31.7512],[-92.967,31.7759],[-92.9547,31.7816],[-92.9389,31.8288],[-92.9464,31.8574],[-92.9101,31.851],[-92.8992,31.8598],[-92.9033,31.8926],[-92.8951,31.9174],[-92.8735,31.9459],[-92.8888,31.9562],[-92.8832,31.9804],[-92.8906,32.0018],[-92.8873,32.0269],[-92.8998,32.0628],[-92.9131,32.0781],[-92.9079,32.0914],[-92.935,32.1257],[-92.9407,32.148],[-93.186,32.1487]]]},"properties":{"GID_0":"USA","GID_1":"USA.19_1","GID_2":"USA.19.35_1","NAME_1":"Louisiana","NAME_2":"Natchitoches"}},
{"type":"Feature","geometry":{"type":"Polygon","coordinates":[[[-90.118,29.9092],[-90.072,29.9191],[-90.0584,29.9455],[-90.0082,29.8958],[-89.9875,29.9052],[-89.9346,29.893],[-89.9177,29.8666],[-89.9087,29.8692],[-89.9042,29.8829],[-89.9241,29.9189],[-89.9777,29.9252],[-90.0137,29.944],[-89.9908,29.9876],[-89.9743,29.9943],[-89.9455,29.982],[-89.9056,30.0029],[-89.8812,29.9856],[-89.8742,29.9887],[-89.8645,29.9991],[-89.8186,30.045],[-89.7706,30.0475],[-89.7329,30.0222],[-89.7169,30.0278],[-89.7317,30.0486],[-89.7269,30.0636],[-89.685,30.0758],[-89.68,30.1036],[-89.6569,30.1186],[-89.6306,30.1565],[-89.6548,30.1583],[-89.6798,30.1765],[-89.7172,30.1621],[-89.7521,30.1759],[-89.7915,30.1508],[-89.8119,30.1557],[-89.819,30.1815],[-89.8631,30.1901],[-89.8753,30.1982],[-89.8985,30.1924],[-89.999,30.1491],[-90.0367,30.1719],[-90.0755,30.1792],[-90.1059,30.1919],[-90.1187,30.0264],[-90.1248,29.9743],[-90.14,29.9484],[-90.1327,29.9135],[-90.118,29.9092]]]},"properties":{"GID_0":"USA","GID_1":"USA.19_1","GID_2":"USA.19.36_1","NAME_1":"Louisiana","NAME_2":"Orleans"}},
{"type":"Feature","geometry":{"type":"Polygon","coordinates":[[[-92.0346,32.2771],[-92.0201,32.3032],[-92.0116,32.3333],[-92.0065,32.3793],[-91.9855,32.4127],[-91.9661,32.4264],[-91.9462,32.457],[-91.936,32.4885],[-91.9122,32.5077],[-91.9167,32.5414],[-91.9294,32.5828],[-91.9208,32.5942],[-91.9215,32.632],[-91.907,32.6608],[-91.938,32.6598],[-91.9703,32.6902],[-91.9705,32.7111],[-92.0499,32.6893],[-92.0654,32.723],[-92.0902,32.6878],[-92.1201,32.6735],[-92.2187,32.6114],[-92.2288,32.5909],[-92.2625,32.5906],[-92.2766,32.5814],[-92.4132,32.5845],[-92.4155,32.4952],[-92.4155,32.4077],[-92.312,32.3206],[-92.3121,32.2773],[-92.1652,32.2769],[-92.1521,32.2637],[-92.1077,32.2631],[-92.1078,32.2777],[-92.0346,32.2771]]]},"properties":{"GID_0":"USA","GID_1":"USA.19_1","GID_2":"USA.19.37_1","NAME_1":"Louisiana","NAME_2":"Ouachita"}},
{"type":"Feature","geometry":{"type":"MultiPolygon","coordinates":[[[[-89.3433,29.0333],[-89.3675,28.9981],[-89.393,28.9845],[-89.395,28.96],[-89.3381,29.0264],[-89.3433,29.0333]]],[[[-89.2753,29.0879],[-89.3097,29.0558],[-89.3722,28.9747],[-89.3264,29.0067],[-89.2903,29.0486],[-89.2583,29.0669],[-89.2753,29.0879]]],[[[-89.7008,29.3828],[-89.7325,29.3636],[-89.7278,29.3419],[-89.7431,29.3342],[-89.7681,29.3372],[-89.79,29.3283],[-89.7803,29.3122],[-89.7342,29.3067],[-89.6836,29.2938],[-89.6594,29.3219],[-89.6658,29.3361],[-89.6322,29.3594],[-89.6492,29.3703],[-89.7008,29.3411],[-89.7172,29.3647],[-89.7008,29.3828]]],[[[-89.7008,29.4431],[-89.7153,29.4475],[-89.7375,29.4178],[-89.7147,29.3878],[-89.6831,29.3928],[-89.7008,29.4431]]],[[[-89.5781,29.3606],[-89.5819,29.3356],[-89.5497,29.3417],[-89.5781,29.3606]]],[[[-90.0082,29.8958],[-90.0274,29.854],[-90.0689,29.8293],[-90.0724,29.8069],[-90.0643,29.7894],[-90.0757,29.7717],[-90.0678,29.7386],[-90.0159,29.6742],[-90.0021,29.6227],[-89.988,29.6221],[-89.98,29.5977],[-89.9893,29.5506],[-89.9791,29.5344],[-89.9798,29.4955],[-89.9642,29.4902],[-89.9756,29.4641],[-89.9567,29.4567],[-89.9361,29.4608],[-89.93,29.4881],[-89.8997,29.4917],[-89.8411,29.4761],[-89.8144,29.4586],[-89.8367,29.4508],[-89.8344,29.4203],[-89.8108,29.4275],[-89.8128,29.4044],[-89.7906,29.4103],[-89.7761,29.4017],[-89.7247,29.4408],[-89.7297,29.4686],[-89.7003,29.4658],[-89.6775,29.4356],[-89.6369,29.3969],[-89.6083,29.3872],[-89.5974,29.3589],[-89.5841,29.364],[-89.5631,29.3603],[-89.5342,29.3469],[-89.4764,29.295],[-89.4725,29.2611],[-89.4912,29.2543],[-89.4878,29.2318],[-89.4564,29.1939],[-89.4225,29.2106],[-89.3925,29.2047],[-89.3817,29.2244],[-89.3514,29.2119],[-89.3109,29.2245],[-89.2997,29.2197],[-89.2711,29.1672],[-89.2756,29.1425],[-89.3022,29.1153],[-89.2946,29.0894],[-89.3203,29.0572],[-89.3439,29.0572],[-89.335,29.0314],[-89.3092,29.0644],[-89.2844,29.0875],[-89.2631,29.13],[-89.2536,29.1014],[-89.2185,29.0711],[-89.2117,29.0406],[-89.1894,29.0281],[-89.1697,29.0064],[-89.1486,29.0519],[-89.151,29.073],[-89.1181,29.0742],[-89.1186,29.11],[-89.0913,29.1198],[-89.0734,29.1055],[-89.0567,29.1064],[-89.0669,29.1317],[-89.1019,29.1351],[-89.1144,29.1578],[-89.0939,29.1772],[-89.1347,29.2203],[-89.1544,29.2292],[-89.1389,29.2858],[-89.1546,29.2906],[-89.1744,29.3214],[-89.1906,29.3167],[-89.1997,29.3444],[-89.2297,29.3075],[-89.24,29.3036],[-89.2442,29.2683],[-89.2664,29.2517],[-89.2578,29.2358],[-89.2683,29.2094],[-89.2872,29.2489],[-89.3103,29.2544],[-89.3244,29.2678],[-89.3224,29.2912],[-89.2977,29.3047],[-89.2736,29.3044],[-89.2707,29.3473],[-89.2875,29.3478],[-89.2922,29.3669],[-89.3192,29.3525],[-89.3383,29.3544],[-89.3617,29.34],[-89.3944,29.345],[-89.3972,29.3742],[-89.4372,29.3789],[-89.4703,29.4014],[-89.5119,29.3828],[-89.5617,29.3933],[-89.5736,29.415],[-89.5489,29.4217],[-89.5467,29.4489],[-89.5764,29.4647],[-89.5903,29.4953],[-89.6203,29.4761],[-89.6539,29.5144],[-89.6681,29.51],[-89.6864,29.5236],[-89.6775,29.5414],[-89.6944,29.5508],[-89.7086,29.5764],[-89.7278,29.5917],[-89.7536,29.6247],[-89.7361,29.6303],[-89.6875,29.6183],[-89.6611,29.6261],[-89.6619,29.6539],[-89.6761,29.6653],[-89.6403,29.6825],[-89.6128,29.6583],[-89.5813,29.6661],[-89.6272,29.6797],[-89.6617,29.7101],[-89.6826,29.7145],[-89.6921,29.7385],[-89.7195,29.7578],[-89.7821,29.7569],[-89.7865,29.7735],[-89.8096,29.799],[-89.8248,29.8025],[-89.8655,29.793],[-89.8952,29.8333],[-89.9113,29.8688],[-89.9177,29.8666],[-89.9346,29.893],[-89.9875,29.9052],[-90.0082,29.8958]]],[[[-89.5697,29.5486],[-89.6058,29.5381],[-89.5858,29.5256],[-89.5697,29.5486]]],[[[-89.6794,29.425],[-89.6875,29.4094],[-89.6672,29.3894],[-89.6453,29.3897],[-89.6794,29.425]]]]},"properties":{"GID_0":"USA","GID_1":"USA.19_1","GID_2":"USA.19.38_1","NAME_1":"Louisiana","NAME_2":"Plaquemines"}},
{"type":"Feature","geometry":{"type":"Polygon","coordinates":[[[-91.8154,30.8483],[-91.7978,30.8442],[-91.8089,30.8145],[-91.7688,30.7858],[-91.7554,30.7534],[-91.7581,30.7415],[-91.7335,30.7018],[-91.7328,30.668],[-91.7466,30.6588],[-91.7412,30.6327],[-91.755,30.6126],[-91.7512,30.5994],[-91.7575,30.5628],[-91.7324,30.5102],[-91.7568,30.4978],[-91.5839,30.4967],[-91.5818,30.4825],[-91.5261,30.4972],[-91.4815,30.4972],[-91.4821,30.5114],[-91.4147,30.5118],[-91.3993,30.569],[-91.3648,30.5689],[-91.3653,30.5877],[-91.3355,30.616],[-91.312,30.6484],[-91.3312,30.6585],[-91.3354,30.6603],[-91.3528,30.7225],[-91.381,30.7591],[-91.4602,30.7354],[-91.5001,30.7413],[-91.5533,30.7308],[-91.5937,30.7491],[-91.5906,30.7692],[-91.5512,30.7806],[-91.5273,30.8103],[-91.5156,30.8615],[-91.5214,30.8903],[-91.5497,30.9168],[-91.6099,30.9168],[-91.6131,30.9003],[-91.5742,30.893],[-91.5624,30.8816],[-91.5566,30.8487],[-91.5997,30.8469],[-91.6252,30.8404],[-91.6529,30.8482],[-91.662,30.86],[-91.661,30.8952],[-91.6451,30.9291],[-91.6574,30.9514],[-91.6639,30.977],[-91.6586,30.9916],[-91.6586,30.9944],[-91.6709,31.0108],[-91.6938,31.0203],[-91.7141,31.0066],[-91.7504,31.0193],[-91.768,31.0092],[-91.7807,30.9868],[-91.8041,30.9781],[-91.8063,30.9699],[-91.8002,30.926],[-91.8021,30.8721],[-91.8154,30.8483]]]},"properties":{"GID_0":"USA","GID_1":"USA.19_1","GID_2":"USA.19.39_1","NAME_1":"Louisiana","NAME_2":"PointeCoupee"}},
{"type":"Feature","geometry":{"type":"Polygon","coordinates":[[[-92.5989,30.8945],[-92.5658,30.8948],[-92.5537,30.9031],[-92.5253,30.8943],[-92.4961,30.9037],[-92.4798,30.9226],[-92.4861,30.9536],[-92.4568,30.9589],[-92.4154,30.9788],[-92.405,30.994],[-92.3784,31.0029],[-92.3579,30.9848],[-92.315,30.9655],[-92.2148,30.9662],[-92.2207,31.0383],[-92.2305,31.115],[-92.2328,31.2506],[-92.2313,31.3209],[-92.2121,31.3315],[-92.1837,31.3281],[-92.1631,31.3017],[-92.1235,31.3083],[-92.0916,31.3359],[-92.0889,31.3377],[-92.0767,31.356],[-92.0988,31.3751],[-92.1246,31.38],[-92.1495,31.4058],[-92.161,31.4391],[-92.1607,31.466],[-92.1886,31.4681],[-92.1967,31.4781],[-92.3826,31.4431],[-92.6319,31.3906],[-92.6624,31.3894],[-92.6943,31.4077],[-92.6936,31.4315],[-92.7074,31.4546],[-92.6972,31.4917],[-92.719,31.5179],[-92.7876,31.4697],[-92.8134,31.4416],[-92.8487,31.4352],[-92.8501,31.421],[-92.8737,31.4203],[-92.8739,31.4043],[-92.8898,31.3918],[-92.9145,31.391],[-92.9135,31.3682],[-92.9478,31.3678],[-92.9474,31.3468],[-92.9817,31.3468],[-92.9643,31.3328],[-92.93,31.3328],[-92.8799,31.3175],[-92.8784,31.2887],[-92.846,31.2745],[-92.8467,31.2535],[-92.8301,31.2528],[-92.8278,31.0112],[-92.8241,31.0113],[-92.8242,30.892],[-92.7214,30.8923],[-92.7204,30.8987],[-92.5984,30.8977],[-92.5989,30.8945]]]},"properties":{"GID_0":"USA","GID_1":"USA.19_1","GID_2":"USA.19.40_1","NAME_1":"Louisiana","NAME_2":"Rapides"}},
{"type":"Feature","geometry":{"type":"Polygon","coordinates":[[[-93.4284,32.236],[-93.6149,32.2376],[-93.594,32.2061],[-93.5672,32.1952],[-93.5379,32.1926],[-93.5215,32.1669],[-93.521,32.145],[-93.5099,32.1333],[-93.541,32.104],[-93.5135,32.0858],[-93.5049,32.0641],[-93.4798,32.0568],[-93.4814,32.0335],[-93.4638,32.022],[-93.4431,31.9904],[-93.4079,31.9887],[-93.3803,31.965],[-93.3548,31.9321],[-93.3507,31.8989],[-93.3208,31.8885],[-93.2713,31.8938],[-93.2592,31.91],[-93.2403,31.9071],[-93.2385,31.9728],[-93.1213,31.9727],[-93.1582,32.0082],[-93.1554,32.0278],[-93.138,32.0518],[-93.1444,32.0713],[-93.1636,32.0865],[-93.1526,32.1049],[-93.186,32.1487],[-93.1937,32.18],[-93.1987,32.1872],[-93.2097,32.1934],[-93.2139,32.2358],[-93.4284,32.236]]]},"properties":{"GID_0":"USA","GID_1":"USA.19_1","GID_2":"USA.19.41_1","NAME_1":"Louisiana","NAME_2":"RedRiver"}},
{"type":"Feature","geometry":{"type":"Polygon","coordinates":[[[-91.8963,32.1546],[-91.878,32.1743],[-91.8412,32.1781],[-91.8229,32.1963],[-91.8197,32.2164],[-91.7948,32.2274],[-91.7722,32.253],[-91.7738,32.2708],[-91.7632,32.3319],[-91.7258,32.3333],[-91.715,32.3433],[-91.703,32.3561],[-91.6803,32.3839],[-91.6575,32.3881],[-91.6337,32.405],[-91.4784,32.4064],[-91.4871,32.4133],[-91.4855,32.4369],[-91.4751,32.4492],[-91.4811,32.4711],[-91.48,32.5098],[-91.4577,32.5376],[-91.431,32.5613],[-91.4457,32.5818],[-91.5964,32.5822],[-91.5976,32.6688],[-91.639,32.6696],[-91.6558,32.6231],[-91.6895,32.6094],[-91.707,32.6144],[-91.7282,32.5989],[-91.7395,32.5602],[-91.7884,32.5619],[-91.8053,32.57],[-91.8368,32.5467],[-91.8427,32.5389],[-91.8454,32.5166],[-91.8546,32.5175],[-91.8933,32.5415],[-91.9122,32.5077],[-91.936,32.4885],[-91.9462,32.457],[-91.9661,32.4264],[-91.9855,32.4127],[-92.0065,32.3793],[-92.0116,32.3333],[-92.0201,32.3032],[-92.0346,32.2771],[-91.9934,32.2769],[-92.0007,32.2317],[-91.9795,32.214],[-91.976,32.1794],[-91.9527,32.1749],[-91.9413,32.1754],[-91.9104,32.1692],[-91.8963,32.1546]]]},"properties":{"GID_0":"USA","GID_1":"USA.19_1","GID_2":"USA.19.42_1","NAME_1":"Louisiana","NAME_2":"Richland"}},
{"type":"Feature","geometry":{"type":"Polygon","coordinates":[[[-93.8802,31.8456],[-93.8706,31.8139],[-93.8408,31.8002],[-93.8251,31.7701],[-93.837,31.7503],[-93.8181,31.7309],[-93.8156,31.707],[-93.7962,31.7],[-93.8269,31.6642],[-93.8207,31.6525],[-93.8207,31.6151],[-93.8382,31.6021],[-93.8179,31.5572],[-93.7841,31.5287],[-93.7405,31.5144],[-93.7189,31.5155],[-93.7238,31.4942],[-93.7494,31.4686],[-93.6946,31.4405],[-93.7019,31.4098],[-93.6739,31.3975],[-93.665,31.3657],[-93.671,31.338],[-93.6895,31.3066],[-93.6682,31.2976],[-93.6408,31.2709],[-93.6155,31.2566],[-93.6174,31.2343],[-93.5968,31.223],[-93.606,31.2085],[-93.6012,31.1784],[-93.5824,31.1677],[-93.5537,31.1867],[-93.5446,31.2032],[-93.5501,31.23],[-93.5336,31.2787],[-93.4426,31.2772],[-93.3911,31.3671],[-93.2361,31.365],[-93.2372,31.5398],[-93.3382,31.5391],[-93.34,31.7148],[-93.4418,31.7149],[-93.4412,31.8454],[-93.8802,31.8456]]]},"properties":{"GID_0":"USA","GID_1":"USA.19_1","GID_2":"USA.19.43_1","NAME_1":"Louisiana","NAME_2":"Sabine"}},
{"type":"Feature","geometry":{"type":"MultiPolygon","coordinates":[[[[-89.8812,29.9856],[-89.9056,30.0029],[-89.9455,29.982],[-89.9743,29.9943],[-89.9908,29.9876],[-90.0137,29.944],[-89.9777,29.9252],[-89.9241,29.9189],[-89.9042,29.8829],[-89.9087,29.8692],[-89.9113,29.8688],[-89.8952,29.8333],[-89.8655,29.793],[-89.8248,29.8025],[-89.8096,29.799],[-89.7865,29.7735],[-89.7821,29.7569],[-89.7195,29.7578],[-89.6921,29.7385],[-89.6826,29.7145],[-89.6617,29.7101],[-89.6272,29.6797],[-89.5813,29.6661],[-89.5689,29.6642],[-89.5355,29.6526],[-89.5187,29.6498],[-89.5125,29.6428],[-89.5303,29.6633],[-89.5683,29.6664],[-89.6069,29.6836],[-89.6189,29.6997],[-89.6494,29.7131],[-89.656,29.7395],[-89.6442,29.7583],[-89.6133,29.7603],[-89.5992,29.7492],[-89.5817,29.7583],[-89.5617,29.74],[-89.5389,29.7453],[-89.4694,29.7217],[-89.4761,29.7081],[-89.4414,29.6819],[-89.4325,29.7064],[-89.4731,29.7347],[-89.4536,29.7822],[-89.4714,29.7939],[-89.4783,29.8194],[-89.4669,29.8267],[-89.4453,29.8025],[-89.4358,29.7822],[-89.4186,29.7789],[-89.3936,29.7906],[-89.3697,29.7811],[-89.3492,29.7881],[-89.4236,29.8283],[-89.4256,29.8519],[-89.4167,29.8719],[-89.4456,29.9206],[-89.4419,29.9303],[-89.4022,29.9481],[-89.4053,29.9614],[-89.4464,29.9539],[-89.505,29.9953],[-89.5046,30.0176],[-89.4697,29.9911],[-89.4483,30.0122],[-89.4394,30.0567],[-89.4903,30.0733],[-89.4967,30.0608],[-89.4878,30.0414],[-89.5803,29.9894],[-89.57,29.9625],[-89.58,29.9325],[-89.5931,29.9167],[-89.5908,29.8853],[-89.6206,29.8669],[-89.6544,29.8611],[-89.7044,29.8739],[-89.7458,29.9097],[-89.7469,29.9258],[-89.7142,29.9467],[-89.7314,29.9572],[-89.7553,29.9422],[-89.7936,29.9322],[-89.8383,29.9422],[-89.8645,29.9991],[-89.8742,29.9887],[-89.8812,29.9856]]],[[[-89.3797,29.9092],[-89.3997,29.8811],[-89.4167,29.8689],[-89.4036,29.8261],[-89.3578,29.8511],[-89.3553,29.8725],[-89.3861,29.8772],[-89.3797,29.9092]]],[[[-89.2239,30.0811],[-89.2383,30.0458],[-89.21,30.0419],[-89.2239,30.0811]]]]},"properties":{"GID_0":"USA","GID_1":"USA.19_1","GID_2":"USA.19.44_1","NAME_1":"Louisiana","NAME_2":"SaintBernard"}},
{"type":"Feature","geometry":{"type":"Polygon","coordinates":[[[-90.2776,30.2306],[-90.4507,30.0349],[-90.4956,30.0299],[-90.539,30.0179],[-90.5497,30.0024],[-90.5496,29.9673],[-90.532,29.9676],[-90.5303,29.8869],[-90.5149,29.8647],[-90.5002,29.866],[-90.4799,29.847],[-90.4756,29.8126],[-90.4282,29.7765],[-90.381,29.7654],[-90.3614,29.7391],[-90.3603,29.707],[-90.3397,29.693],[-90.2275,29.6919],[-90.2007,29.751],[-90.1696,29.8061],[-90.1674,29.8171],[-90.2403,29.8619],[-90.2427,29.8807],[-90.2686,29.9058],[-90.2803,29.9718],[-90.2807,30.0497],[-90.2776,30.2306]]]},"properties":{"GID_0":"USA","GID_1":"USA.19_1","GID_2":"USA.19.45_1","NAME_1":"Louisiana","NAME_2":"SaintCharles"}},
{"type":"Feature","geometry":{"type":"Polygon","coordinates":[[[-90.9104,30.6506],[-90.5704,30.6501],[-90.5664,30.7241],[-90.568,30.768],[-90.5669,31],[-90.8268,30.9992],[-90.8435,30.9839],[-90.8458,30.9619],[-90.8619,30.9451],[-90.8484,30.8962],[-90.8598,30.8743],[-90.8347,30.8166],[-90.8434,30.7933],[-90.8404,30.7732],[-90.8523,30.744],[-90.8477,30.7198],[-90.8495,30.7001],[-90.8788,30.6866],[-90.9104,30.6506]]]},"properties":{"GID_0":"USA","GID_1":"USA.19_1","GID_2":"USA.19.46_1","NAME_1":"Louisiana","NAME_2":"SaintHelena"}},
{"type":"Feature","geometry":{"type":"Polygon","coordinates":[[[-90.9636,30.0668],[-90.9543,30.0356],[-90.9537,29.9785],[-90.9204,29.9784],[-90.9202,29.935],[-90.8862,29.9352],[-90.8857,29.9052],[-90.7851,29.9073],[-90.7861,29.922],[-90.6999,29.9036],[-90.6563,29.8895],[-90.6646,29.9065],[-90.6662,29.9518],[-90.6747,29.9519],[-90.6751,29.9661],[-90.6654,29.9816],[-90.6891,30.0362],[-90.661,30.0511],[-90.6711,30.0942],[-90.6537,30.0964],[-90.6419,30.1663],[-90.9153,30.1137],[-90.9356,30.0858],[-90.9636,30.0668]]]},"properties":{"GID_0":"USA","GID_1":"USA.19_1","GID_2":"USA.19.47_1","NAME_1":"Louisiana","NAME_2":"SaintJames"}},
{"type":"Feature","geometry":{"type":"Polygon","coordinates":[[[-90.6419,30.1663],[-90.6537,30.0964],[-90.6711,30.0942],[-90.661,30.0511],[-90.6891,30.0362],[-90.6654,29.9816],[-90.6751,29.9661],[-90.6747,29.9519],[-90.6662,29.9518],[-90.6646,29.9065],[-90.6563,29.8895],[-90.6267,29.895],[-90.6089,29.8834],[-90.5943,29.8921],[-90.5409,29.8919],[-90.5303,29.8869],[-90.532,29.9676],[-90.5496,29.9673],[-90.5497,30.0024],[-90.539,30.0179],[-90.4956,30.0299],[-90.4507,30.0349],[-90.2776,30.2306],[-90.2972,30.294],[-90.349,30.2973],[-90.373,30.2833],[-90.4016,30.2854],[-90.4838,30.2647],[-90.4998,30.2553],[-90.5165,30.2275],[-90.5395,30.203],[-90.5618,30.1931],[-90.5824,30.1979],[-90.5996,30.2168],[-90.6323,30.2212],[-90.6419,30.1663]]]},"properties":{"GID_0":"USA","GID_1":"USA.19_1","GID_2":"USA.19.48_1","NAME_1":"Louisiana","NAME_2":"SaintJohntheBaptist"}},
{"type":"Feature","geometry":{"type":"Polygon","coordinates":[[[-92.1423,30.2991],[-92.0986,30.3305],[-92.0881,30.3356],[-92.0851,30.3575],[-92.0497,30.3801],[-92.0258,30.361],[-92.0126,30.3716],[-91.9893,30.3704],[-91.9831,30.3923],[-91.9784,30.4079],[-91.9705,30.4121],[-91.9317,30.3971],[-91.8688,30.4184],[-91.8497,30.4066],[-91.8126,30.3962],[-91.6945,30.4019],[-91.719,30.4494],[-91.7365,30.4517],[-91.7568,30.4978],[-91.7324,30.5102],[-91.7575,30.5628],[-91.7512,30.5994],[-91.755,30.6126],[-91.7412,30.6327],[-91.7466,30.6588],[-91.7328,30.668],[-91.7335,30.7018],[-91.7581,30.7415],[-91.7554,30.7534],[-91.7688,30.7858],[-91.8089,30.8145],[-91.7978,30.8442],[-91.8154,30.8483],[-92.1078,30.8503],[-92.2132,30.8487],[-92.2127,30.7948],[-92.2073,30.7848],[-92.1694,30.7677],[-92.1729,30.6758],[-92.2009,30.6564],[-92.2117,30.6129],[-92.2113,30.569],[-92.2622,30.5682],[-92.263,30.5385],[-92.4148,30.5405],[-92.4508,30.532],[-92.4637,30.5008],[-92.4805,30.4924],[-92.4942,30.4818],[-92.245,30.4805],[-92.2446,30.4371],[-92.1773,30.438],[-92.1755,30.3511],[-92.1591,30.3503],[-92.1589,30.321],[-92.1419,30.3206],[-92.1423,30.2991]]]},"properties":{"GID_0":"USA","GID_1":"USA.19_1","GID_2":"USA.19.49_1","NAME_1":"Louisiana","NAME_2":"SaintLandry"}},
{"type":"Feature","geometry":{"type":"MultiPolygon","coordinates":[[[[-91.2509,29.9611],[-91.2556,29.9717],[-91.4721,29.9562],[-91.4719,29.9481],[-91.4111,29.9027],[-91.4013,29.8728],[-91.3738,29.8346],[-91.3856,29.7827],[-91.3507,29.7653],[-91.297,29.7646],[-91.2308,29.7487],[-91.2144,29.75],[-91.1811,29.7286],[-91.1335,29.7239],[-91.112,29.7027],[-91.1051,29.7175],[-91.1066,29.7336],[-91.0897,29.7555],[-91.1006,29.7729],[-91.0926,29.8018],[-91.1114,29.827],[-91.1335,29.8376],[-91.185,29.847],[-91.1997,29.8612],[-91.2153,29.9089],[-91.2316,29.9176],[-91.2299,29.9336],[-91.2509,29.9611]]],[[[-91.9512,30.0736],[-91.9074,30.0728],[-91.8952,30.0587],[-91.8746,30.0693],[-91.8192,30.0456],[-91.8029,30.0741],[-91.7729,30.0897],[-91.7682,30.108],[-91.7313,30.1228],[-91.7039,30.1214],[-91.6616,30.1101],[-91.6304,30.0721],[-91.6088,30.0694],[-91.6103,30.0465],[-91.5998,30.0337],[-91.5086,30.0328],[-91.488,30.0585],[-91.3688,30.0589],[-91.3777,30.095],[-91.3893,30.1024],[-91.4642,30.1029],[-91.4727,30.1143],[-91.4616,30.1317],[-91.4727,30.1431],[-91.4742,30.1875],[-91.4906,30.2017],[-91.4763,30.2255],[-91.4922,30.2369],[-91.563,30.242],[-91.5884,30.257],[-91.59,30.2772],[-91.6213,30.3105],[-91.6282,30.3302],[-91.6245,30.3544],[-91.6457,30.365],[-91.6246,30.3947],[-91.6374,30.4427],[-91.6682,30.4747],[-91.6926,30.481],[-91.7016,30.4925],[-91.7011,30.4975],[-91.7568,30.4978],[-91.7365,30.4517],[-91.719,30.4494],[-91.6945,30.4019],[-91.8126,30.3962],[-91.8497,30.4066],[-91.8688,30.4184],[-91.9317,30.3971],[-91.9705,30.4121],[-91.9784,30.4079],[-91.9831,30.3923],[-91.9893,30.3704],[-91.9538,30.36],[-91.9685,30.3339],[-91.9551,30.3088],[-91.9518,30.2799],[-91.9691,30.2602],[-91.9595,30.2374],[-91.9583,30.2117],[-91.9794,30.2094],[-91.9803,30.1824],[-91.9211,30.1881],[-91.9056,30.1543],[-91.9366,30.1148],[-91.9512,30.0736]]]]},"properties":{"GID_0":"USA","GID_1":"USA.19_1","GID_2":"USA.19.50_1","NAME_1":"Louisiana","NAME_2":"SaintMartin"}},
{"type":"Feature","geometry":{"type":"MultiPolygon","coordinates":[[[[-91.2842,29.4714],[-91.3211,29.4647],[-91.331,29.4411],[-91.2914,29.4581],[-91.2842,29.4714]]],[[[-91.0995,29.6868],[-91.112,29.7027],[-91.1335,29.7239],[-91.1811,29.7286],[-91.2144,29.75],[-91.2308,29.7487],[-91.297,29.7646],[-91.3507,29.7653],[-91.3856,29.7827],[-91.3738,29.8346],[-91.4013,29.8728],[-91.4111,29.9027],[-91.4719,29.9481],[-91.4721,29.9562],[-91.6233,29.946],[-91.7109,29.8458],[-91.8548,29.7393],[-91.8608,29.71],[-91.7716,29.7464],[-91.7361,29.7497],[-91.7142,29.7376],[-91.67,29.7464],[-91.6156,29.74],[-91.6169,29.7103],[-91.6264,29.6547],[-91.6367,29.6414],[-91.6245,29.6285],[-91.5842,29.6389],[-91.5522,29.6335],[-91.5357,29.5861],[-91.5381,29.5684],[-91.5178,29.5292],[-91.4744,29.5433],[-91.4678,29.53],[-91.4316,29.5416],[-91.4306,29.5217],[-91.4131,29.4969],[-91.3908,29.5126],[-91.3567,29.5158],[-91.3385,29.4903],[-91.2951,29.4772],[-91.2674,29.4789],[-91.2607,29.5068],[-91.2674,29.5379],[-91.2438,29.5434],[-91.2186,29.569],[-91.2248,29.5777],[-91.1848,29.6078],[-91.1623,29.5927],[-91.1387,29.6095],[-91.0825,29.6262],[-91.106,29.6433],[-91.0995,29.6868]]]]},"properties":{"GID_0":"USA","GID_1":"USA.19_1","GID_2":"USA.19.51_1","NAME_1":"Louisiana","NAME_2":"SaintMary"}},
{"type":"Feature","geometry":{"type":"Polygon","coordinates":[[[-90.1059,30.1919],[-90.0755,30.1792],[-90.0367,30.1719],[-89.999,30.1491],[-89.8985,30.1924],[-89.8753,30.1982],[-89.8631,30.1901],[-89.819,30.1815],[-89.8119,30.1557],[-89.7915,30.1508],[-89.7521,30.1759],[-89.7172,30.1621],[-89.6798,30.1765],[-89.6548,30.1583],[-89.6306,30.1565],[-89.5867,30.1506],[-89.5564,30.1806],[-89.5748,30.1831],[-89.5948,30.2093],[-89.6132,30.2199],[-89.6154,30.2446],[-89.631,30.2579],[-89.6362,30.2895],[-89.6348,30.3465],[-89.6565,30.36],[-89.6842,30.41],[-89.6785,30.4205],[-89.6897,30.459],[-89.709,30.4759],[-89.772,30.5189],[-89.7789,30.5428],[-89.7931,30.5476],[-89.8293,30.6208],[-89.8178,30.6362],[-89.8327,30.6567],[-89.8503,30.6628],[-89.9947,30.6653],[-90.256,30.7124],[-90.2567,30.7024],[-90.2485,30.6799],[-90.2458,30.6469],[-90.2467,30.5925],[-90.2442,30.5093],[-90.2433,30.2247],[-90.2169,30.2198],[-90.1691,30.2037],[-90.1059,30.1919]]]},"properties":{"GID_0":"USA","GID_1":"USA.19_1","GID_2":"USA.19.52_1","NAME_1":"Louisiana","NAME_2":"SaintTammany"}},
{"type":"Feature","geometry":{"type":"Polygon","coordinates":[[[-90.2433,30.2247],[-90.2442,30.5093],[-90.2467,30.5925],[-90.2458,30.6469],[-90.2485,30.6799],[-90.2567,30.7024],[-90.2552,30.7284],[-90.2651,30.7413],[-90.2648,30.7655],[-90.2913,30.8033],[-90.2971,30.8445],[-90.3159,30.8703],[-90.3167,30.8913],[-90.3468,30.9058],[-90.3482,31.0012],[-90.5669,31],[-90.568,30.768],[-90.5664,30.7241],[-90.5704,30.6501],[-90.5674,30.6313],[-90.567,30.4869],[-90.5502,30.4657],[-90.5459,30.4304],[-90.5196,30.4124],[-90.5019,30.3848],[-90.5043,30.3637],[-90.48,30.3585],[-90.475,30.3365],[-90.4426,30.3046],[-90.4016,30.2854],[-90.373,30.2833],[-90.349,30.2973],[-90.2972,30.294],[-90.2776,30.2306],[-90.2433,30.2247]]]},"properties":{"GID_0":"USA","GID_1":"USA.19_1","GID_2":"USA.19.53_1","NAME_1":"Louisiana","NAME_2":"Tangipahoa"}},
{"type":"Feature","geometry":{"type":"Polygon","coordinates":[[[-91.5448,31.7541],[-91.3994,31.7536],[-91.3736,31.7471],[-91.3351,31.7508],[-91.2768,31.7432],[-91.2685,31.7693],[-91.2868,31.7703],[-91.3558,31.7572],[-91.371,31.7704],[-91.3393,31.8415],[-91.3033,31.8574],[-91.2931,31.8512],[-91.2797,31.815],[-91.2564,31.8142],[-91.2486,31.8352],[-91.271,31.851],[-91.2668,31.8619],[-91.2158,31.8928],[-91.2023,31.9105],[-91.1819,31.9208],[-91.1847,31.96],[-91.164,31.9812],[-91.0966,31.9919],[-91.0817,32.013],[-91.091,32.0379],[-91.1487,32.0497],[-91.1614,32.0696],[-91.1465,32.0832],[-91.1248,32.0769],[-91.1066,32.0539],[-91.0774,32.0483],[-91.0805,32.0839],[-91.0431,32.097],[-91.0301,32.1204],[-91.053,32.1237],[-91.0819,32.1339],[-91.1266,32.1279],[-91.1696,32.1422],[-91.1746,32.1584],[-91.1675,32.1918],[-91.153,32.2054],[-91.1216,32.2136],[-91.1225,32.2404],[-91.1338,32.2495],[-91.1848,32.2456],[-91.2189,32.2334],[-91.2353,32.2102],[-91.2731,32.2326],[-91.3198,32.2053],[-91.4931,32.2032],[-91.4925,32.1562],[-91.505,32.1407],[-91.5099,32.0979],[-91.4904,32.0933],[-91.5017,32.0664],[-91.5093,32.0195],[-91.4963,32.009],[-91.5271,31.9634],[-91.5131,31.9543],[-91.5115,31.9301],[-91.5276,31.9151],[-91.5471,31.9123],[-91.5724,31.8895],[-91.5772,31.8795],[-91.5686,31.827],[-91.5772,31.8033],[-91.5664,31.781],[-91.5448,31.7541]]]},"properties":{"GID_0":"USA","GID_1":"USA.19_1","GID_2":"USA.19.54_1","NAME_1":"Louisiana","NAME_2":"Tensas"}},
{"type":"Feature","geometry":{"type":"MultiPolygon","coordinates":[[[[-91.2387,29.3531],[-91.2394,29.3703],[-91.2672,29.3597],[-91.2767,29.3294],[-91.295,29.3094],[-91.33,29.3083],[-91.3342,29.2995],[-91.3025,29.2667],[-91.2792,29.2494],[-91.2114,29.225],[-91.1314,29.2217],[-91.1675,29.265],[-91.2033,29.2672],[-91.1933,29.2972],[-91.2233,29.3286],[-91.2387,29.3531]]],[[[-91.1672,29.325],[-91.1925,29.31],[-91.1714,29.2739],[-91.1672,29.325]]],[[[-91.2631,29.4581],[-91.2825,29.4536],[-91.2817,29.4336],[-91.2569,29.4383],[-91.2631,29.4581]]],[[[-90.5573,29.5358],[-90.5745,29.5588],[-90.6038,29.5743],[-90.619,29.5982],[-90.6495,29.6025],[-90.7048,29.6634],[-90.7439,29.6766],[-90.7669,29.6965],[-90.788,29.7473],[-90.8048,29.7497],[-90.8056,29.7745],[-90.8219,29.7778],[-90.8416,29.7463],[-90.8821,29.7461],[-90.8802,29.7167],[-91.0066,29.7147],[-91.0825,29.6262],[-91.1387,29.6095],[-91.1623,29.5927],[-91.1848,29.6078],[-91.2248,29.5777],[-91.2186,29.569],[-91.2438,29.5434],[-91.2674,29.5379],[-91.2607,29.5068],[-91.2674,29.4789],[-91.2581,29.445],[-91.2197,29.4367],[-91.2125,29.425],[-91.2191,29.3963],[-91.1994,29.375],[-91.1617,29.3611],[-91.1336,29.3414],[-91.1192,29.3056],[-91.1333,29.2814],[-91.1167,29.2575],[-91.1325,29.2472],[-91.1291,29.2195],[-91.0943,29.1911],[-91.0619,29.1833],[-91.0293,29.2076],[-91.0064,29.2181],[-91.0109,29.1748],[-90.9822,29.1737],[-90.9702,29.189],[-90.9425,29.175],[-90.8906,29.1294],[-90.8547,29.1481],[-90.8397,29.1703],[-90.8167,29.1536],[-90.7904,29.1771],[-90.7703,29.1664],[-90.7903,29.1494],[-90.7842,29.1336],[-90.7261,29.1461],[-90.7183,29.1819],[-90.6878,29.2103],[-90.6936,29.2211],[-90.6475,29.2411],[-90.6261,29.2592],[-90.62,29.3],[-90.5772,29.3189],[-90.5606,29.3083],[-90.5453,29.3306],[-90.5319,29.3108],[-90.5125,29.3],[-90.4992,29.3069],[-90.4761,29.2949],[-90.4519,29.3193],[-90.4603,29.3372],[-90.4301,29.348],[-90.4253,29.3272],[-90.3981,29.3072],[-90.3967,29.2642],[-90.3839,29.281],[-90.3783,29.3099],[-90.3865,29.3246],[-90.3798,29.3525],[-90.3967,29.3797],[-90.4196,29.3905],[-90.4588,29.4317],[-90.469,29.4543],[-90.5381,29.5062],[-90.5431,29.5223],[-90.5573,29.5358]]]]},"properties":{"GID_0":"USA","GID_1":"USA.19_1","GID_2":"USA.19.55_1","NAME_1":"Louisiana","NAME_2":"Terrebonne"}},
{"type":"Feature","geometry":{"type":"Polygon","coordinates":[[[-92.7246,33.0147],[-92.7254,32.818],[-92.7341,32.8179],[-92.7339,32.8033],[-92.7252,32.8039],[-92.7256,32.7597],[-92.6361,32.7597],[-92.5968,32.7551],[-92.5672,32.7453],[-92.5472,32.7205],[-92.5195,32.7239],[-92.5188,32.6725],[-92.4153,32.672],[-92.4132,32.5845],[-92.2766,32.5814],[-92.2625,32.5906],[-92.2288,32.5909],[-92.2187,32.6114],[-92.1201,32.6735],[-92.0902,32.6878],[-92.0654,32.723],[-92.0519,32.7435],[-92.0554,32.7699],[-92.0533,32.7941],[-92.0661,32.8213],[-92.0564,32.8446],[-92.084,32.8777],[-92.0728,32.9251],[-92.0851,32.9569],[-92.082,32.9815],[-92.0647,33.0089],[-92.7246,33.0147]]]},"properties":{"GID_0":"USA","GID_1":"USA.19_1","GID_2":"USA.19.56_1","NAME_1":"Louisiana","NAME_2":"Union"}},
{"type":"Feature","geometry":{"type":"MultiPolygon","coordinates":[[[[-92.1419,29.7819],[-92.1631,29.7792],[-92.2044,29.7533],[-92.1786,29.7419],[-92.1567,29.7525],[-92.1452,29.7676],[-92.1311,29.7664],[-92.1419,29.7819]]],[[[-92.5946,30.0988],[-92.6145,30.0899],[-92.6241,30.0944],[-92.6422,30.0727],[-92.6545,30.0794],[-92.7021,30.0519],[-92.7346,30.0396],[-92.617,30.039],[-92.6154,29.9992],[-92.6138,29.8014],[-92.6157,29.7469],[-92.615,29.5839],[-92.5997,29.58],[-92.5594,29.5892],[-92.5586,29.5756],[-92.5258,29.5683],[-92.4619,29.5608],[-92.3453,29.5342],[-92.2783,29.5339],[-92.2508,29.5411],[-92.1983,29.5688],[-92.147,29.5852],[-92.1052,29.5875],[-92.0774,29.5831],[-92.0704,29.6],[-92.0376,29.618],[-92.0825,29.6233],[-92.1073,29.6127],[-92.1366,29.6672],[-92.1037,29.6992],[-92.1661,29.6989],[-92.2003,29.7256],[-92.2157,29.7485],[-92.1764,29.7742],[-92.1536,29.7842],[-92.1388,29.7843],[-92.1383,29.7806],[-92.1108,29.7422],[-92.0381,29.7811],[-91.9856,29.7947],[-91.9858,29.8202],[-91.972,29.8335],[-91.9938,29.9699],[-91.9818,29.9906],[-91.9647,30.0364],[-92.0149,30.0536],[-92.064,30.073],[-92.087,30.1091],[-92.0929,30.1287],[-92.1287,30.1162],[-92.2092,30.1436],[-92.2514,30.1392],[-92.2853,30.1477],[-92.302,30.1292],[-92.3204,30.1254],[-92.3355,30.1024],[-92.3575,30.0835],[-92.3753,30.0683],[-92.392,30.0603],[-92.4152,30.056],[-92.4808,30.0674],[-92.5073,30.0804],[-92.5329,30.1058],[-92.5584,30.1142],[-92.5946,30.0988]]]]},"properties":{"GID_0":"USA","GID_1":"USA.19_1","GID_2":"USA.19.57_1","NAME_1":"Louisiana","NAME_2":"Vermilion"}},
{"type":"Feature","geometry":{"type":"Polygon","coordinates":[[[-92.8242,30.892],[-92.8241,31.0113],[-92.8278,31.0112],[-92.8301,31.2528],[-92.8467,31.2535],[-92.846,31.2745],[-92.8784,31.2887],[-92.8799,31.3175],[-92.93,31.3328],[-92.9643,31.3328],[-92.9817,31.3468],[-92.9916,31.3599],[-93.034,31.3639],[-93.3911,31.3671],[-93.4426,31.2772],[-93.5336,31.2787],[-93.5501,31.23],[-93.5446,31.2032],[-93.5537,31.1867],[-93.5381,31.1592],[-93.5492,31.1528],[-93.5398,31.1197],[-93.5642,31.0944],[-93.5478,31.0779],[-93.5208,31.0657],[-93.5228,31.0391],[-93.5106,31.0281],[-93.5402,31.01],[-93.5588,31.006],[-93.5729,30.9719],[-93.5347,30.9571],[-93.5268,30.9319],[-93.5592,30.9146],[-93.5732,30.8783],[-93.5607,30.8684],[-93.5418,30.8816],[-93.4795,30.8617],[-93.43,30.884],[-93.1342,30.8847],[-93.1341,30.8783],[-93.0329,30.8797],[-92.8762,30.8768],[-92.8251,30.8778],[-92.8242,30.892]]]},"properties":{"GID_0":"USA","GID_1":"USA.19_1","GID_2":"USA.19.58_1","NAME_1":"Louisiana","NAME_2":"Vernon"}},
{"type":"Feature","geometry":{"type":"Polygon","coordinates":[[[-89.8503,30.6628],[-89.8422,30.6695],[-89.8272,30.7582],[-89.8303,30.7824],[-89.8149,30.8035],[-89.7848,30.8181],[-89.7904,30.8496],[-89.7727,30.8536],[-89.7793,30.8774],[-89.7726,30.8961],[-89.7503,30.9135],[-89.7561,30.9424],[-89.7393,30.9618],[-89.7291,30.9906],[-89.7344,31.0034],[-89.7589,31.0021],[-90.3482,31.0012],[-90.3468,30.9058],[-90.3167,30.8913],[-90.3159,30.8703],[-90.2971,30.8445],[-90.2913,30.8033],[-90.2648,30.7655],[-90.2651,30.7413],[-90.2552,30.7284],[-90.256,30.7124],[-89.9947,30.6653],[-89.8503,30.6628]]]},"properties":{"GID_0":"USA","GID_1":"USA.19_1","GID_2":"USA.19.59_1","NAME_1":"Louisiana","NAME_2":"Washington"}},
{"type":"Feature","geometry":{"type":"Polygon","coordinates":[[[-93.2396,33.0182],[-93.5214,33.0194],[-93.5188,33.0025],[-93.5331,32.9836],[-93.5294,32.9668],[-93.4982,32.9222],[-93.4718,32.9154],[-93.4838,32.8938],[-93.4531,32.8661],[-93.4678,32.8435],[-93.458,32.8223],[-93.475,32.7837],[-93.4681,32.7684],[-93.4467,32.7637],[-93.4479,32.4991],[-93.4413,32.4978],[-93.4414,32.4108],[-93.2371,32.41],[-93.2371,32.4555],[-93.1485,32.4564],[-93.1474,32.4801],[-93.1642,32.5036],[-93.1724,32.5577],[-93.1818,32.5926],[-93.1777,32.6036],[-93.1762,32.6615],[-93.1868,32.6741],[-93.1866,32.7169],[-93.2379,32.717],[-93.2377,32.8851],[-93.2396,33.0182]]]},"properties":{"GID_0":"USA","GID_1":"USA.19_1","GID_2":"USA.19.60_1","NAME_1":"Louisiana","NAME_2":"Webster"}},
{"type":"Feature","geometry":{"type":"Polygon","coordinates":[[[-91.2977,30.6493],[-91.2993,30.6516],[-91.3312,30.6585],[-91.312,30.6484],[-91.3355,30.616],[-91.3653,30.5877],[-91.3648,30.5689],[-91.3993,30.569],[-91.4147,30.5118],[-91.4821,30.5114],[-91.4815,30.4972],[-91.4853,30.4972],[-91.4524,30.4743],[-91.3947,30.4094],[-91.3947,30.3956],[-91.3714,30.3874],[-91.3371,30.3526],[-91.3202,30.3443],[-91.3144,30.3246],[-91.1419,30.3237],[-91.145,30.3315],[-91.1873,30.3468],[-91.2228,30.3409],[-91.2418,30.3579],[-91.1997,30.42],[-91.196,30.4396],[-91.1973,30.5073],[-91.2094,30.5229],[-91.2684,30.5047],[-91.2811,30.5189],[-91.246,30.5395],[-91.2502,30.5632],[-91.2666,30.571],[-91.3117,30.5752],[-91.3164,30.5903],[-91.2999,30.631],[-91.2977,30.6493]]]},"properties":{"GID_0":"USA","GID_1":"USA.19_1","GID_2":"USA.19.61_1","NAME_1":"Louisiana","NAME_2":"WestBatonRouge"}},
{"type":"Feature","geometry":{"type":"Polygon","coordinates":[[[-91.4378,33.0058],[-91.44,32.9857],[-91.4733,32.947],[-91.4766,32.9302],[-91.4974,32.9079],[-91.4952,32.8937],[-91.5192,32.876],[-91.5422,32.8773],[-91.5711,32.8496],[-91.5765,32.8222],[-91.6054,32.7858],[-91.5961,32.7644],[-91.6015,32.7448],[-91.6375,32.7124],[-91.6227,32.692],[-91.639,32.6696],[-91.5976,32.6688],[-91.5964,32.5822],[-91.4457,32.5818],[-91.4277,32.5996],[-91.4016,32.6059],[-91.4054,32.6264],[-91.395,32.6451],[-91.4026,32.672],[-91.383,32.6888],[-91.3753,32.7134],[-91.3458,32.7502],[-91.3396,32.8622],[-91.3205,32.8649],[-91.3106,32.8827],[-91.3105,32.9359],[-91.2771,32.9545],[-91.2792,32.9759],[-91.2605,33.005],[-91.4378,33.0058]]]},"properties":{"GID_0":"USA","GID_1":"USA.19_1","GID_2":"USA.19.62_1","NAME_1":"Louisiana","NAME_2":"WestCarroll"}},
{"type":"Feature","geometry":{"type":"MultiPolygon","coordinates":[[[[-91.6553,30.9866],[-91.6622,30.9706],[-91.6574,30.9514],[-91.6451,30.9291],[-91.661,30.8952],[-91.662,30.86],[-91.6529,30.8482],[-91.6252,30.8404],[-91.5997,30.8469],[-91.5566,30.8487],[-91.5624,30.8816],[-91.5742,30.893],[-91.6131,30.9003],[-91.6099,30.9168],[-91.5497,30.9168],[-91.5214,30.8903],[-91.5156,30.8615],[-91.5273,30.8103],[-91.5512,30.7806],[-91.5906,30.7692],[-91.5937,30.7491],[-91.5533,30.7308],[-91.5001,30.7413],[-91.4602,30.7354],[-91.381,30.7591],[-91.3528,30.7225],[-91.3354,30.6603],[-91.3051,30.6529],[-91.3146,30.6927],[-91.3114,30.7083],[-91.2922,30.7188],[-91.2863,30.7475],[-91.2602,30.7621],[-91.2372,30.7945],[-91.2345,30.8246],[-91.2194,30.8644],[-91.2225,30.8813],[-91.2065,30.8927],[-91.208,30.9183],[-91.1872,30.9369],[-91.1956,30.9598],[-91.1822,30.9739],[-91.1757,31],[-91.6397,30.9998],[-91.6553,30.9866]]],[[[-91.743,31.0308],[-91.7504,31.0193],[-91.7141,31.0066],[-91.6938,31.0203],[-91.6709,31.0108],[-91.6586,30.9944],[-91.6543,31.009],[-91.6447,31.0213],[-91.6635,31.0451],[-91.6987,31.045],[-91.7099,31.0459],[-91.7211,31.0495],[-91.7248,31.0422],[-91.743,31.0308]]]]},"properties":{"GID_0":"USA","GID_1":"USA.19_1","GID_2":"USA.19.63_1","NAME_1":"Louisiana","NAME_2":"WestFeliciana"}},
{"type":"Feature","geometry":{"type":"Polygon","coordinates":[[[-92.9407,32.148],[-92.935,32.1257],[-92.9079,32.0914],[-92.9131,32.0781],[-92.8998,32.0628],[-92.8873,32.0269],[-92.8906,32.0018],[-92.8832,31.9804],[-92.8888,31.9562],[-92.8735,31.9459],[-92.8951,31.9174],[-92.9033,31.8926],[-92.8992,31.8598],[-92.9101,31.851],[-92.9464,31.8574],[-92.9389,31.8288],[-92.9547,31.7816],[-92.967,31.7759],[-92.973,31.7512],[-92.9657,31.7354],[-92.9734,31.7147],[-92.9647,31.7098],[-92.6202,31.7101],[-92.6193,31.7978],[-92.3628,31.7968],[-92.3409,31.8157],[-92.3126,31.8966],[-92.3114,32.1483],[-92.9407,32.148]]]},"properties":{"GID_0":"USA","GID_1":"USA.19_1","GID_2":"USA.19.64_1","NAME_1":"Louisiana","NAME_2":"Winn"}}
]}