{"type":"FeatureCollection", "features": [
{"type":"Feature","geometry":{"type":"Polygon","coordinates":[[[-73.3132,44.2637],[-73.3927,44.1912],[-73.4434,44.0526],[-73.3783,43.8758],[-73.3648,43.7532],[-73.2065,43.7664],[-73.2193,43.8369],[-73.0291,43.8469],[-73.0168,43.8046],[-72.9586,43.8262],[-72.9722,43.8681],[-72.8101,43.936],[-72.7418,44.0295],[-72.917,44.0719],[-72.9532,44.1615],[-72.9733,44.2941],[-73.3132,44.2637]]]},"properties":{"GID_0":"USA","GID_1":"USA.46_1","GID_2":"USA.46.1_1","NAME_1":"Vermont","NAME_2":"Addison"}},
{"type":"Feature","geometry":{"type":"Polygon","coordinates":[[[-73.2577,43.3146],[-73.2754,42.7456],[-72.9302,42.738],[-72.9213,42.9268],[-73.0083,42.9301],[-72.9972,43.1189],[-72.8691,43.1129],[-72.8485,43.2622],[-72.8196,43.2554],[-72.8198,43.2991],[-72.9759,43.3041],[-73.2577,43.3146]]]},"properties":{"GID_0":"USA","GID_1":"USA.46_1","GID_2":"USA.46.2_1","NAME_1":"Vermont","NAME_2":"Bennington"}},
{"type":"Feature","geometry":{"type":"Polygon","coordinates":[[[-71.8376,44.347],[-71.9333,44.441],[-71.8567,44.4963],[-71.9087,44.5471],[-71.9098,44.647],[-71.8379,44.7165],[-71.9402,44.7689],[-72.0127,44.699],[-72.1152,44.7495],[-72.2625,44.5427],[-72.3752,44.5839],[-72.4349,44.506],[-72.2238,44.4246],[-72.3688,44.2042],[-72.3052,44.1831],[-72.17,44.192],[-72.0434,44.157],[-72.0656,44.2728],[-72.0282,44.3178],[-71.8376,44.347]]]},"properties":{"GID_0":"USA","GID_1":"USA.46_1","GID_2":"USA.46.3_1","NAME_1":"Vermont","NAME_2":"Caledonia"}},
{"type":"Feature","geometry":{"type":"Polygon","coordinates":[[[-73.3642,44.5629],[-73.2998,44.4804],[-73.3374,44.3638],[-73.3132,44.2637],[-72.9733,44.2941],[-72.9532,44.1615],[-72.9119,44.2815],[-72.8048,44.4514],[-72.8388,44.4591],[-72.8038,44.5061],[-72.9108,44.6308],[-73.038,44.6509],[-73.2288,44.7229],[-73.2331,44.6499],[-73.3642,44.5629]]]},"properties":{"GID_0":"USA","GID_1":"USA.46_1","GID_2":"USA.46.4_1","NAME_1":"Vermont","NAME_2":"Chittenden"}},
{"type":"Feature","geometry":{"type":"Polygon","coordinates":[[[-71.8975,45.0079],[-71.9294,44.9049],[-71.8749,44.8768],[-71.9748,44.7864],[-71.8379,44.7165],[-71.9098,44.647],[-71.9087,44.5471],[-71.8567,44.4963],[-71.9333,44.441],[-71.8376,44.347],[-71.5796,44.502],[-71.5624,44.6501],[-71.6339,44.75],[-71.4969,44.9075],[-71.5533,45.0125],[-71.8975,45.0079]]]},"properties":{"GID_0":"USA","GID_1":"USA.46_1","GID_2":"USA.46.5_1","NAME_1":"Vermont","NAME_2":"Essex"}},
{"type":"Feature","geometry":{"type":"Polygon","coordinates":[[[-72.5544,45.0081],[-73.1926,45.0134],[-73.1921,44.9066],[-73.2581,44.7629],[-73.2288,44.7229],[-73.038,44.6509],[-72.925,44.633],[-72.9269,44.6348],[-72.9243,44.6367],[-72.9276,44.6403],[-72.9244,44.6408],[-72.9276,44.6453],[-72.9026,44.6463],[-72.8924,44.655],[-72.8509,44.7113],[-72.7963,44.6922],[-72.7471,44.7859],[-72.5787,44.7815],[-72.533,44.8335],[-72.5544,45.0081]]]},"properties":{"GID_0":"USA","GID_1":"USA.46_1","GID_2":"USA.46.6_1","NAME_1":"Vermont","NAME_2":"Franklin"}},
{"type":"Feature","geometry":{"type":"Polygon","coordinates":[[[-73.1926,45.0134],[-73.3442,45.0103],[-73.3813,44.837],[-73.3384,44.8035],[-73.3889,44.6335],[-73.3642,44.5629],[-73.2331,44.6499],[-73.2288,44.7229],[-73.2581,44.7629],[-73.1921,44.9066],[-73.1926,45.0134]]]},"properties":{"GID_0":"USA","GID_1":"USA.46_1","GID_2":"USA.46.7_1","NAME_1":"Vermont","NAME_2":"GrandIsle"}},
{"type":"Feature","geometry":{"type":"Polygon","coordinates":[[[-72.3752,44.5839],[-72.4822,44.6337],[-72.4179,44.7231],[-72.5787,44.7815],[-72.7471,44.7859],[-72.7963,44.6922],[-72.8509,44.7113],[-72.8924,44.655],[-72.9026,44.6463],[-72.9276,44.6453],[-72.9244,44.6408],[-72.9276,44.6403],[-72.9243,44.6367],[-72.9269,44.6348],[-72.925,44.633],[-72.9108,44.6308],[-72.8038,44.5061],[-72.8388,44.4591],[-72.7651,44.4428],[-72.6543,44.3979],[-72.5969,44.4795],[-72.4912,44.4258],[-72.4349,44.506],[-72.3752,44.5839]]]},"properties":{"GID_0":"USA","GID_1":"USA.46_1","GID_2":"USA.46.8_1","NAME_1":"Vermont","NAME_2":"Lamoille"}},
{"type":"Feature","geometry":{"type":"Polygon","coordinates":[[[-72.0434,44.157],[-72.17,44.192],[-72.3052,44.1831],[-72.4198,44.2211],[-72.4435,44.1286],[-72.5894,44.1604],[-72.6839,44.0127],[-72.7418,44.0295],[-72.7912,43.9615],[-72.7834,43.9287],[-72.2043,43.7703],[-72.1728,43.8813],[-72.0463,44.0865],[-72.0434,44.157]]]},"properties":{"GID_0":"USA","GID_1":"USA.46_1","GID_2":"USA.46.9_1","NAME_1":"Vermont","NAME_2":"Orange"}},
{"type":"Feature","geometry":{"type":"Polygon","coordinates":[[[-72.5544,45.0081],[-72.533,44.8335],[-72.5787,44.7815],[-72.4179,44.7231],[-72.4822,44.6337],[-72.3752,44.5839],[-72.2625,44.5427],[-72.1152,44.7495],[-72.0127,44.699],[-71.9402,44.7689],[-71.9748,44.7864],[-71.8749,44.8768],[-71.9294,44.9049],[-71.8975,45.0079],[-72.5544,45.0081]]]},"properties":{"GID_0":"USA","GID_1":"USA.46_1","GID_2":"USA.46.10_1","NAME_1":"Vermont","NAME_2":"Orleans"}},
{"type":"Feature","geometry":{"type":"Polygon","coordinates":[[[-73.2577,43.3146],[-72.9759,43.3041],[-72.8682,43.3003],[-72.866,43.3468],[-72.8258,43.3801],[-72.7703,43.3584],[-72.7272,43.4686],[-72.791,43.4948],[-72.7014,43.6825],[-72.8205,43.7169],[-72.7829,43.804],[-72.8744,43.8579],[-73.0168,43.8046],[-73.0291,43.8469],[-73.2193,43.8369],[-73.2065,43.7664],[-73.3648,43.7532],[-73.4317,43.6439],[-73.3056,43.627],[-73.2542,43.5572],[-73.2577,43.3146]]]},"properties":{"GID_0":"USA","GID_1":"USA.46_1","GID_2":"USA.46.11_1","NAME_1":"Vermont","NAME_2":"Rutland"}},
{"type":"Feature","geometry":{"type":"Polygon","coordinates":[[[-72.7418,44.0295],[-72.6839,44.0127],[-72.5894,44.1604],[-72.4435,44.1286],[-72.4198,44.2211],[-72.3688,44.2042],[-72.2238,44.4246],[-72.4349,44.506],[-72.4912,44.4258],[-72.5969,44.4795],[-72.6543,44.3979],[-72.7651,44.4428],[-72.8048,44.4514],[-72.9119,44.2815],[-72.9532,44.1615],[-72.917,44.0719],[-72.7418,44.0295]]]},"properties":{"GID_0":"USA","GID_1":"USA.46_1","GID_2":"USA.46.12_1","NAME_1":"Vermont","NAME_2":"Washington"}},
{"type":"Feature","geometry":{"type":"Polygon","coordinates":[[[-72.9302,42.738],[-72.4566,42.7276],[-72.5563,42.8615],[-72.5324,42.9484],[-72.4689,42.9748],[-72.4339,43.2336],[-72.6856,43.2225],[-72.8485,43.2622],[-72.8691,43.1129],[-72.9972,43.1189],[-73.0083,42.9301],[-72.9213,42.9268],[-72.9302,42.738]]]},"properties":{"GID_0":"USA","GID_1":"USA.46_1","GID_2":"USA.46.13_1","NAME_1":"Vermont","NAME_2":"Windham"}},
{"type":"Feature","geometry":{"type":"Polygon","coordinates":[[[-72.2043,43.7703],[-72.7834,43.9287],[-72.7912,43.9615],[-72.8101,43.936],[-72.9722,43.8681],[-72.9586,43.8262],[-72.8744,43.8579],[-72.7829,43.804],[-72.8205,43.7169],[-72.7014,43.6825],[-72.791,43.4948],[-72.7272,43.4686],[-72.7703,43.3584],[-72.8258,43.3801],[-72.866,43.3468],[-72.8682,43.3003],[-72.8198,43.2991],[-72.8196,43.2554],[-72.6856,43.2225],[-72.4339,43.2336],[-72.3738,43.5775],[-72.297,43.7071],[-72.2043,43.7703]]]},"properties":{"GID_0":"USA","GID_1":"USA.46_1","GID_2":"USA.46.14_1","NAME_1":"Vermont","NAME_2":"Windsor"}}
]}