{"type":"FeatureCollection", "features": [
{"type":"Feature","geometry":{"type":"Polygon","coordinates":[[[-79.0658,39.4795],[-79.039,39.4779],[-79.0338,39.4683],[-79.013,39.4646],[-78.9645,39.4397],[-78.9564,39.4627],[-78.9418,39.4689],[-78.9358,39.4842],[-78.9178,39.4869],[-78.8911,39.5244],[-78.8744,39.5241],[-78.8687,39.5387],[-78.8376,39.5673],[-78.809,39.6085],[-78.796,39.6118],[-78.7982,39.6328],[-78.7741,39.6379],[-78.7639,39.6215],[-78.7456,39.6276],[-78.7332,39.6143],[-78.7626,39.6105],[-78.7729,39.5993],[-78.7567,39.5825],[-78.7333,39.579],[-78.7246,39.5671],[-78.6803,39.5442],[-78.6505,39.5369],[-78.6241,39.5402],[-78.5767,39.5283],[-78.5636,39.5208],[-78.5213,39.5266],[-78.4992,39.5191],[-78.4702,39.5185],[-78.4617,39.5266],[-78.4606,39.5487],[-78.4422,39.543],[-78.4177,39.552],[-78.451,39.5725],[-78.4583,39.5842],[-78.4398,39.5902],[-78.4128,39.5796],[-78.3969,39.5933],[-78.4253,39.6086],[-78.4206,39.6253],[-78.3876,39.611],[-78.3723,39.6311],[-78.3551,39.6416],[-78.3278,39.6365],[-78.3607,39.6611],[-78.3333,39.6649],[-78.3203,39.6786],[-78.317,39.7017],[-78.3441,39.7229],[-78.9146,39.7232],[-79.0658,39.4795]]]},"properties":{"GID_0":"USA","GID_1":"USA.21_1","GID_2":"USA.21.1_1","NAME_1":"Maryland","NAME_2":"Allegany"}},
{"type":"Feature","geometry":{"type":"Polygon","coordinates":[[[-76.5689,39.2164],[-76.5833,39.2058],[-76.6035,39.227],[-76.6182,39.2375],[-76.6308,39.224],[-76.6646,39.2311],[-76.6944,39.2213],[-76.7107,39.2014],[-76.7227,39.1852],[-76.7471,39.1813],[-76.7692,39.166],[-76.7885,39.1312],[-76.8165,39.1241],[-76.8392,39.1052],[-76.8369,39.0984],[-76.8346,39.0852],[-76.836,39.0694],[-76.81,39.0624],[-76.7923,39.0469],[-76.7492,39.0335],[-76.7446,39.019],[-76.7012,38.9834],[-76.7049,38.9702],[-76.6789,38.9084],[-76.6708,38.8998],[-76.6787,38.8745],[-76.6931,38.8582],[-76.7004,38.8388],[-76.6977,38.8197],[-76.7107,38.813],[-76.7109,38.7958],[-76.7064,38.7814],[-76.6854,38.7544],[-76.6599,38.7646],[-76.6245,38.7653],[-76.6237,38.7295],[-76.6168,38.7204],[-76.5365,38.7211],[-76.5284,38.7134],[-76.5575,38.7453],[-76.5594,38.7669],[-76.54,38.7747],[-76.4981,38.8153],[-76.5019,38.8456],[-76.5369,38.8522],[-76.5108,38.8686],[-76.4894,38.8894],[-76.5044,38.8961],[-76.515,38.9114],[-76.5089,38.9192],[-76.5436,38.945],[-76.5269,38.9478],[-76.5006,38.9236],[-76.485,38.9272],[-76.4772,38.9153],[-76.4506,38.9411],[-76.4702,38.9548],[-76.4764,38.9817],[-76.5486,39.0331],[-76.5733,39.0369],[-76.5704,39.0582],[-76.5412,39.058],[-76.5366,39.0405],[-76.5135,39.0154],[-76.4886,39.0039],[-76.4708,38.9825],[-76.4478,38.9833],[-76.45,38.995],[-76.4228,38.9975],[-76.3944,39.0122],[-76.4069,39.034],[-76.4368,39.0526],[-76.4497,39.0508],[-76.5107,39.0727],[-76.5192,39.0847],[-76.4758,39.0794],[-76.455,39.0962],[-76.4259,39.0919],[-76.4332,39.1121],[-76.4307,39.132],[-76.4679,39.1524],[-76.4891,39.1572],[-76.5231,39.1764],[-76.5381,39.2053],[-76.5504,39.1972],[-76.5705,39.2032],[-76.5689,39.2164]]]},"properties":{"GID_0":"USA","GID_1":"USA.21_1","GID_2":"USA.21.2_1","NAME_1":"Maryland","NAME_2":"AnneArundel"}},
{"type":"Feature","geometry":{"type":"MultiPolygon","coordinates":[[[[-76.3478,39.2506],[-76.3569,39.2622],[-76.3864,39.2481],[-76.3694,39.2369],[-76.3478,39.2506]]],[[[-76.5689,39.2164],[-76.5705,39.2032],[-76.5504,39.1972],[-76.5381,39.2053],[-76.5519,39.2172],[-76.5689,39.2164]]],[[[-76.6182,39.2375],[-76.6035,39.227],[-76.5847,39.2074],[-76.5769,39.2253],[-76.5586,39.2328],[-76.5824,39.2515],[-76.6078,39.2436],[-76.6039,39.2614],[-76.5777,39.264],[-76.5383,39.2531],[-76.5181,39.241],[-76.5006,39.2189],[-76.4963,39.2019],[-76.4621,39.2057],[-76.4612,39.2198],[-76.4439,39.2186],[-76.4503,39.2019],[-76.425,39.2058],[-76.4212,39.2318],[-76.4408,39.2428],[-76.4516,39.2576],[-76.4522,39.2853],[-76.4395,39.2819],[-76.4369,39.2539],[-76.4162,39.2477],[-76.4044,39.2546],[-76.3931,39.2776],[-76.4,39.3158],[-76.3729,39.302],[-76.3644,39.3217],[-76.3402,39.3104],[-76.3345,39.3243],[-76.3381,39.3733],[-76.3583,39.3816],[-76.3602,39.3999],[-76.3795,39.4251],[-76.3874,39.4528],[-76.3943,39.4665],[-76.4333,39.4904],[-76.4284,39.5017],[-76.4658,39.5115],[-76.4877,39.5249],[-76.5109,39.5273],[-76.5333,39.5461],[-76.5343,39.5606],[-76.5483,39.5865],[-76.5601,39.5971],[-76.567,39.6175],[-76.5698,39.7213],[-76.7887,39.7207],[-76.8702,39.4943],[-76.8908,39.4558],[-76.8952,39.4264],[-76.8817,39.4132],[-76.8818,39.391],[-76.8914,39.3802],[-76.8797,39.3638],[-76.881,39.3515],[-76.877,39.3343],[-76.8533,39.3188],[-76.7945,39.3148],[-76.7786,39.2971],[-76.7908,39.2677],[-76.7754,39.2608],[-76.743,39.232],[-76.7222,39.2301],[-76.701,39.2145],[-76.6944,39.2213],[-76.6646,39.2311],[-76.6308,39.224],[-76.6182,39.2375]]]]},"properties":{"GID_0":"USA","GID_1":"USA.21_1","GID_2":"USA.21.3_1","NAME_1":"Maryland","NAME_2":"Baltimore"}},
{"type":"Feature","geometry":{"type":"Polygon","coordinates":[[[-76.6854,38.7544],[-76.6833,38.7381],[-76.6975,38.7147],[-76.6953,38.6897],[-76.6822,38.6608],[-76.6911,38.6475],[-76.6892,38.6333],[-76.6769,38.6289],[-76.6669,38.5992],[-76.6731,38.5667],[-76.66,38.5569],[-76.6686,38.5392],[-76.6539,38.5194],[-76.6625,38.4992],[-76.6469,38.4866],[-76.645,38.4686],[-76.6153,38.4597],[-76.6081,38.4467],[-76.5714,38.4225],[-76.5539,38.4214],[-76.5422,38.4097],[-76.5233,38.4124],[-76.5108,38.3925],[-76.4989,38.3867],[-76.4708,38.3492],[-76.4699,38.3296],[-76.4214,38.3192],[-76.3861,38.3631],[-76.3911,38.3755],[-76.3811,38.3856],[-76.4022,38.3942],[-76.4167,38.4156],[-76.4506,38.4422],[-76.4572,38.4531],[-76.4917,38.4817],[-76.5064,38.5056],[-76.5178,38.5361],[-76.5172,38.5731],[-76.5114,38.615],[-76.5253,38.6475],[-76.5322,38.6772],[-76.5284,38.7134],[-76.5365,38.7211],[-76.6168,38.7204],[-76.6237,38.7295],[-76.6245,38.7653],[-76.6599,38.7646],[-76.6854,38.7544]]]},"properties":{"GID_0":"USA","GID_1":"USA.21_1","GID_2":"USA.21.4_1","NAME_1":"Maryland","NAME_2":"Calvert"}},
{"type":"Feature","geometry":{"type":"Polygon","coordinates":[[[-75.7095,38.6371],[-75.7224,38.8295],[-75.7472,39.144],[-75.7705,39.1362],[-75.7944,39.1306],[-75.8352,39.1076],[-75.8484,39.0751],[-75.8708,39.0569],[-75.8827,39.0289],[-75.9152,39.0044],[-75.9377,38.9775],[-75.9363,38.9598],[-75.9499,38.9305],[-75.9443,38.9177],[-75.9467,38.8842],[-75.9377,38.8673],[-75.9201,38.8576],[-75.9235,38.8372],[-75.8995,38.8269],[-75.8902,38.8144],[-75.9294,38.7975],[-75.9345,38.7875],[-75.9486,38.778],[-75.9643,38.7737],[-75.9805,38.7615],[-75.998,38.7553],[-75.9931,38.7369],[-76.0093,38.735],[-75.9882,38.6992],[-75.9681,38.6937],[-75.9664,38.6831],[-75.934,38.681],[-75.9282,38.6768],[-75.8959,38.6991],[-75.873,38.6924],[-75.8569,38.7008],[-75.8344,38.7037],[-75.8257,38.7],[-75.7969,38.695],[-75.7955,38.6769],[-75.7749,38.6761],[-75.7623,38.6864],[-75.7095,38.6371]]]},"properties":{"GID_0":"USA","GID_1":"USA.21_1","GID_2":"USA.21.5_1","NAME_1":"Maryland","NAME_2":"Caroline"}},
{"type":"Feature","geometry":{"type":"Polygon","coordinates":[[[-76.7887,39.7207],[-77.2152,39.7196],[-77.2229,39.7045],[-77.2439,39.6937],[-77.2374,39.676],[-77.2643,39.6611],[-77.2805,39.6303],[-77.3104,39.6304],[-77.2991,39.6113],[-77.2716,39.6117],[-77.2383,39.5876],[-77.215,39.5762],[-77.2013,39.5785],[-77.1704,39.5548],[-77.1687,39.5358],[-77.1538,39.5344],[-77.1063,39.493],[-77.1195,39.4749],[-77.116,39.4608],[-77.1472,39.4183],[-77.1466,39.4101],[-77.1683,39.3545],[-77.1511,39.3503],[-77.1248,39.3634],[-77.0939,39.3692],[-77.0344,39.3545],[-77.0154,39.3521],[-76.985,39.3606],[-76.9042,39.3553],[-76.881,39.3515],[-76.8797,39.3638],[-76.8914,39.3802],[-76.8818,39.391],[-76.8817,39.4132],[-76.8952,39.4264],[-76.8908,39.4558],[-76.8702,39.4943],[-76.7887,39.7207]]]},"properties":{"GID_0":"USA","GID_1":"USA.21_1","GID_2":"USA.21.6_1","NAME_1":"Maryland","NAME_2":"Carroll"}},
{"type":"Feature","geometry":{"type":"Polygon","coordinates":[[[-75.7658,39.3769],[-75.7881,39.6501],[-75.7875,39.7231],[-76.2349,39.7213],[-76.2122,39.6878],[-76.1679,39.6561],[-76.1592,39.6442],[-76.1483,39.6214],[-76.1382,39.6163],[-76.0866,39.5568],[-76.0575,39.5458],[-76.0451,39.5518],[-76.0186,39.5467],[-76,39.5611],[-75.9703,39.5714],[-75.9647,39.5864],[-75.9484,39.5801],[-75.97,39.5575],[-75.961,39.5349],[-75.9809,39.5285],[-75.9937,39.4765],[-75.9697,39.4742],[-75.9572,39.4895],[-75.927,39.5053],[-75.915,39.5186],[-75.9008,39.5129],[-75.884,39.5406],[-75.8622,39.5572],[-75.8553,39.5439],[-75.8814,39.5269],[-75.8733,39.5147],[-75.8939,39.5044],[-75.9156,39.5033],[-75.923,39.4853],[-75.9458,39.4744],[-75.9558,39.4617],[-75.9731,39.4547],[-75.9817,39.4361],[-75.9951,39.4318],[-76.0061,39.4145],[-76.035,39.4022],[-76.0374,39.386],[-75.9962,39.3849],[-75.9623,39.378],[-75.9503,39.3847],[-75.9201,39.3701],[-75.8566,39.3674],[-75.831,39.3749],[-75.8105,39.3793],[-75.7658,39.3769]]]},"properties":{"GID_0":"USA","GID_1":"USA.21_1","GID_2":"USA.21.7_1","NAME_1":"Maryland","NAME_2":"Cecil"}},
{"type":"Feature","geometry":{"type":"Polygon","coordinates":[[[-76.7122,38.5098],[-76.7059,38.4998],[-76.6995,38.4966],[-76.7028,38.4989],[-76.6986,38.4975],[-76.6853,38.4975],[-76.6736,38.5147],[-76.6758,38.5297],[-76.7007,38.5406],[-76.7411,38.558],[-76.7437,38.5934],[-76.7499,38.6179],[-76.8633,38.6584],[-76.8916,38.6545],[-76.9299,38.6542],[-76.9652,38.6612],[-77.0195,38.6487],[-77.0278,38.6338],[-77.0491,38.6176],[-77.0761,38.6906],[-77.1003,38.6858],[-77.1145,38.6711],[-77.1095,38.6268],[-77.1475,38.6059],[-77.182,38.6018],[-77.2053,38.5743],[-77.2043,38.5638],[-77.1696,38.5784],[-77.1713,38.5656],[-77.2033,38.5529],[-77.235,38.5535],[-77.2298,38.5363],[-77.2552,38.5253],[-77.2736,38.4817],[-77.2642,38.4685],[-77.2655,38.4434],[-77.2564,38.4318],[-77.2649,38.4137],[-77.2503,38.3833],[-77.2067,38.3597],[-77.1853,38.3661],[-77.1359,38.3922],[-77.1262,38.4032],[-77.1185,38.4417],[-77.1029,38.4263],[-77.1101,38.4091],[-77.0915,38.4076],[-77.0754,38.425],[-77.0419,38.4443],[-77.0465,38.455],[-77.0403,38.4795],[-77.0015,38.4216],[-76.975,38.3479],[-76.9304,38.323],[-76.922,38.311],[-76.9263,38.2945],[-76.8644,38.2706],[-76.8343,38.2732],[-76.8528,38.3086],[-76.8567,38.3236],[-76.8711,38.3333],[-76.8564,38.3589],[-76.8886,38.3731],[-76.9011,38.3896],[-76.8621,38.391],[-76.8485,38.4009],[-76.8188,38.4375],[-76.774,38.5093],[-76.761,38.5142],[-76.7122,38.5098]]]},"properties":{"GID_0":"USA","GID_1":"USA.21_1","GID_2":"USA.21.8_1","NAME_1":"Maryland","NAME_2":"Charles"}},
{"type":"Feature","geometry":{"type":"MultiPolygon","coordinates":[[[[-76.0619,38.2039],[-76.09,38.1717],[-76.075,38.1581],[-76.0548,38.1503],[-76.0319,38.1486],[-76.0376,38.1648],[-76.0226,38.1778],[-76.0494,38.2044],[-76.0619,38.2039]]],[[[-76.1694,38.295],[-76.1947,38.295],[-76.2008,38.2872],[-76.1867,38.2644],[-76.1653,38.2428],[-76.1358,38.2314],[-76.1253,38.24],[-76.1736,38.2558],[-76.1827,38.2797],[-76.1694,38.295]]],[[[-75.7088,38.5605],[-75.702,38.5622],[-75.7095,38.6371],[-75.7623,38.6864],[-75.7749,38.6761],[-75.7955,38.6769],[-75.7969,38.695],[-75.8257,38.7],[-75.8344,38.7037],[-75.8569,38.7008],[-75.873,38.6924],[-75.8959,38.6991],[-75.9282,38.6768],[-75.934,38.681],[-75.9508,38.6666],[-75.9483,38.6528],[-75.9705,38.6312],[-75.9789,38.5842],[-76,38.5844],[-76.0078,38.5717],[-76.0447,38.5619],[-76.0775,38.5797],[-76.0903,38.5925],[-76.1133,38.5814],[-76.1329,38.5956],[-76.1686,38.6019],[-76.1641,38.6215],[-76.1931,38.6194],[-76.2067,38.6086],[-76.2339,38.6089],[-76.2541,38.6226],[-76.2656,38.6111],[-76.2642,38.5861],[-76.2994,38.5755],[-76.2719,38.5519],[-76.2369,38.5447],[-76.2164,38.5658],[-76.2028,38.5619],[-76.213,38.5301],[-76.2531,38.5181],[-76.2653,38.4967],[-76.2833,38.4939],[-76.3011,38.5008],[-76.3331,38.4872],[-76.3319,38.4742],[-76.3069,38.4475],[-76.2822,38.4144],[-76.2833,38.3908],[-76.2443,38.3584],[-76.2319,38.3869],[-76.2139,38.3867],[-76.1967,38.3631],[-76.1836,38.3601],[-76.1725,38.3356],[-76.1275,38.3028],[-76.0997,38.2917],[-76.0872,38.2792],[-76.0714,38.2417],[-76.0553,38.2261],[-76.0358,38.2314],[-76.0406,38.2503],[-76.0272,38.2817],[-76.0448,38.3017],[-76.0481,38.3156],[-76.0175,38.3326],[-76.0107,38.3643],[-75.9928,38.3693],[-75.9739,38.3658],[-75.9616,38.3431],[-75.9638,38.3246],[-76.0083,38.305],[-75.9625,38.2514],[-75.9379,38.275],[-75.9404,38.3061],[-75.9141,38.3275],[-75.9144,38.3386],[-75.8995,38.3494],[-75.8634,38.3592],[-75.8708,38.3775],[-75.8583,38.3875],[-75.8478,38.4222],[-75.8286,38.4242],[-75.8231,38.4361],[-75.8342,38.4411],[-75.8369,38.4558],[-75.8181,38.4683],[-75.8261,38.4794],[-75.8156,38.4897],[-75.7956,38.4933],[-75.7581,38.5131],[-75.7567,38.5297],[-75.7442,38.5389],[-75.7258,38.5408],[-75.7088,38.5605]]]]},"properties":{"GID_0":"USA","GID_1":"USA.21_1","GID_2":"USA.21.9_1","NAME_1":"Maryland","NAME_2":"Dorchester"}},
{"type":"Feature","geometry":{"type":"Polygon","coordinates":[[[-77.2152,39.7196],[-77.4674,39.7205],[-77.4842,39.7071],[-77.5057,39.6862],[-77.4931,39.6781],[-77.517,39.6455],[-77.532,39.6318],[-77.5451,39.6341],[-77.5726,39.6191],[-77.5851,39.577],[-77.6011,39.5411],[-77.6112,39.5298],[-77.6225,39.4999],[-77.6153,39.4695],[-77.6331,39.4437],[-77.6378,39.406],[-77.6503,39.3775],[-77.6734,39.3416],[-77.6769,39.3266],[-77.6539,39.3145],[-77.5989,39.3027],[-77.5699,39.3082],[-77.5367,39.2651],[-77.4909,39.2511],[-77.4564,39.2284],[-77.4575,39.2198],[-77.1683,39.3545],[-77.1466,39.4101],[-77.1472,39.4183],[-77.116,39.4608],[-77.1195,39.4749],[-77.1063,39.493],[-77.1538,39.5344],[-77.1687,39.5358],[-77.1704,39.5548],[-77.2013,39.5785],[-77.215,39.5762],[-77.2383,39.5876],[-77.2716,39.6117],[-77.2991,39.6113],[-77.3104,39.6304],[-77.2805,39.6303],[-77.2643,39.6611],[-77.2374,39.676],[-77.2439,39.6937],[-77.2229,39.7045],[-77.2152,39.7196]]]},"properties":{"GID_0":"USA","GID_1":"USA.21_1","GID_2":"USA.21.10_1","NAME_1":"Maryland","NAME_2":"Frederick"}},
{"type":"Feature","geometry":{"type":"Polygon","coordinates":[[[-78.9146,39.7232],[-79.4774,39.7216],[-79.4779,39.5319],[-79.4818,39.5322],[-79.4869,39.2846],[-79.4872,39.2067],[-79.4708,39.2034],[-79.4253,39.2249],[-79.4212,39.235],[-79.3754,39.2727],[-79.3597,39.2765],[-79.3427,39.2964],[-79.3115,39.3064],[-79.2929,39.3005],[-79.2795,39.3249],[-79.2532,39.3406],[-79.2544,39.3548],[-79.2135,39.364],[-79.1956,39.3897],[-79.1716,39.396],[-79.1564,39.4177],[-79.128,39.4205],[-79.1259,39.4306],[-79.1025,39.4525],[-79.0915,39.473],[-79.0658,39.4795],[-78.9146,39.7232]]]},"properties":{"GID_0":"USA","GID_1":"USA.21_1","GID_2":"USA.21.11_1","NAME_1":"Maryland","NAME_2":"Garrett"}},
{"type":"Feature","geometry":{"type":"MultiPolygon","coordinates":[[[[-76.0803,39.4756],[-76.0933,39.4544],[-76.0819,39.4378],[-76.06,39.4497],[-76.0728,39.4756],[-76.0803,39.4756]]],[[[-76.3602,39.3999],[-76.3292,39.3875],[-76.3144,39.3892],[-76.3019,39.3736],[-76.3081,39.3534],[-76.295,39.3472],[-76.2992,39.3306],[-76.2892,39.3164],[-76.2563,39.338],[-76.2715,39.3769],[-76.2693,39.4027],[-76.2561,39.4108],[-76.2495,39.4269],[-76.2578,39.4436],[-76.2412,39.4613],[-76.2315,39.454],[-76.2397,39.4392],[-76.2256,39.4275],[-76.2543,39.3773],[-76.2499,39.3617],[-76.2283,39.35],[-76.2003,39.365],[-76.2014,39.3794],[-76.1787,39.3837],[-76.1624,39.404],[-76.1398,39.4086],[-76.1021,39.4353],[-76.0983,39.4758],[-76.1335,39.4887],[-76.1128,39.502],[-76.0866,39.5568],[-76.1382,39.6163],[-76.1483,39.6214],[-76.1592,39.6442],[-76.1679,39.6561],[-76.2122,39.6878],[-76.2349,39.7213],[-76.5698,39.7213],[-76.567,39.6175],[-76.5601,39.5971],[-76.5483,39.5865],[-76.5343,39.5606],[-76.5333,39.5461],[-76.5109,39.5273],[-76.4877,39.5249],[-76.4658,39.5115],[-76.4284,39.5017],[-76.4333,39.4904],[-76.3943,39.4665],[-76.3874,39.4528],[-76.3795,39.4251],[-76.3602,39.3999]]]]},"properties":{"GID_0":"USA","GID_1":"USA.21_1","GID_2":"USA.21.12_1","NAME_1":"Maryland","NAME_2":"Harford"}},
{"type":"Feature","geometry":{"type":"Polygon","coordinates":[[[-76.701,39.2145],[-76.7222,39.2301],[-76.743,39.232],[-76.7754,39.2608],[-76.7908,39.2677],[-76.7786,39.2971],[-76.7945,39.3148],[-76.8533,39.3188],[-76.877,39.3343],[-76.881,39.3515],[-76.9042,39.3553],[-76.985,39.3606],[-77.0154,39.3521],[-77.0344,39.3545],[-77.0939,39.3692],[-77.1248,39.3634],[-77.1511,39.3503],[-77.1683,39.3545],[-77.182,39.3481],[-77.1827,39.3341],[-77.1673,39.3127],[-77.1442,39.2973],[-77.133,39.2723],[-77.1034,39.2668],[-77.0666,39.2535],[-77.0288,39.218],[-77.0134,39.2084],[-77.0082,39.1826],[-76.9965,39.1667],[-76.9728,39.162],[-76.9475,39.1311],[-76.9273,39.1378],[-76.9031,39.1268],[-76.8923,39.1309],[-76.884,39.1313],[-76.8581,39.1103],[-76.8392,39.1052],[-76.8165,39.1241],[-76.7885,39.1312],[-76.7692,39.166],[-76.7471,39.1813],[-76.7227,39.1852],[-76.7107,39.2014],[-76.701,39.2145]]]},"properties":{"GID_0":"USA","GID_1":"USA.21_1","GID_2":"USA.21.13_1","NAME_1":"Maryland","NAME_2":"Howard"}},
{"type":"Feature","geometry":{"type":"MultiPolygon","coordinates":[[[[-76.2197,39.0544],[-76.2372,39.0456],[-76.2426,39.0291],[-76.2177,39.0131],[-76.1997,39.0128],[-76.2144,39.0339],[-76.2197,39.0544]]],[[[-75.7929,39.2444],[-75.7556,39.2466],[-75.7658,39.3769],[-75.8105,39.3793],[-75.8496,39.3668],[-75.9101,39.362],[-75.946,39.3659],[-75.9658,39.3725],[-75.9802,39.353],[-75.9922,39.372],[-76.0236,39.3617],[-76.0569,39.3713],[-76.1109,39.3722],[-76.1175,39.3603],[-76.1356,39.3506],[-76.1292,39.3339],[-76.1583,39.3361],[-76.1847,39.3203],[-76.1787,39.2995],[-76.2061,39.2631],[-76.2208,39.2599],[-76.2299,39.2379],[-76.2548,39.1934],[-76.2738,39.1681],[-76.2782,39.1483],[-76.2456,39.1303],[-76.2475,39.1164],[-76.2356,39.0992],[-76.2281,39.0539],[-76.2094,39.0617],[-76.2033,39.0854],[-76.1845,39.096],[-76.17,39.1325],[-76.1595,39.1043],[-76.1411,39.1131],[-76.1314,39.1262],[-76.1101,39.1232],[-76.1086,39.1386],[-76.0855,39.1397],[-76.0851,39.1583],[-76.0481,39.1678],[-76.0455,39.1796],[-76.0701,39.1976],[-76.0319,39.2343],[-76.008,39.2444],[-75.9727,39.2531],[-75.9586,39.2479],[-75.9176,39.2447],[-75.8723,39.2518],[-75.8531,39.2611],[-75.8208,39.2461],[-75.7929,39.2444]]]]},"properties":{"GID_0":"USA","GID_1":"USA.21_1","GID_2":"USA.21.14_1","NAME_1":"Maryland","NAME_2":"Kent"}},
{"type":"Feature","geometry":{"type":"Polygon","coordinates":[[[-77.0085,38.9696],[-76.8882,39.1317],[-76.9031,39.1268],[-76.9273,39.1378],[-76.9475,39.1311],[-76.9728,39.162],[-76.9965,39.1667],[-77.0082,39.1826],[-77.0134,39.2084],[-77.0288,39.218],[-77.0666,39.2535],[-77.1034,39.2668],[-77.133,39.2723],[-77.1442,39.2973],[-77.1673,39.3127],[-77.1827,39.3341],[-77.182,39.3481],[-77.4575,39.2198],[-77.4718,39.2067],[-77.476,39.1908],[-77.5044,39.1799],[-77.5151,39.1704],[-77.5246,39.1428],[-77.5199,39.1265],[-77.4847,39.111],[-77.4532,39.0729],[-77.3823,39.0644],[-77.3314,39.0617],[-77.297,39.0517],[-77.2706,39.0348],[-77.2521,39.0301],[-77.2427,39.0175],[-77.2489,39.0007],[-77.2447,38.9868],[-77.2257,38.9761],[-77.1949,38.9692],[-77.1548,38.9674],[-77.1409,38.958],[-77.1205,38.9337],[-77.0415,38.9951],[-77.0085,38.9696]]]},"properties":{"GID_0":"USA","GID_1":"USA.21_1","GID_2":"USA.21.15_1","NAME_1":"Maryland","NAME_2":"Montgomery"}},
{"type":"Feature","geometry":{"type":"Polygon","coordinates":[[[-77.0085,38.9696],[-76.9097,38.8925],[-77.0252,38.802],[-77.0134,38.7883],[-77.0297,38.7738],[-77.0258,38.753],[-77.0324,38.7158],[-77.0442,38.6976],[-77.0761,38.6906],[-77.0491,38.6176],[-77.0278,38.6338],[-77.0195,38.6487],[-76.9652,38.6612],[-76.9299,38.6542],[-76.8916,38.6545],[-76.8633,38.6584],[-76.7499,38.6179],[-76.7437,38.5934],[-76.7411,38.558],[-76.7007,38.5406],[-76.6772,38.5433],[-76.6856,38.5867],[-76.6739,38.6175],[-76.6944,38.6367],[-76.6936,38.6475],[-76.6844,38.6603],[-76.7037,38.6907],[-76.6986,38.7497],[-76.7156,38.7778],[-76.7109,38.7958],[-76.7107,38.813],[-76.6977,38.8197],[-76.7004,38.8388],[-76.6931,38.8582],[-76.6787,38.8745],[-76.6708,38.8998],[-76.6789,38.9084],[-76.7049,38.9702],[-76.7012,38.9834],[-76.7446,39.019],[-76.7492,39.0335],[-76.7923,39.0469],[-76.81,39.0624],[-76.836,39.0694],[-76.8346,39.0852],[-76.8369,39.0984],[-76.8581,39.1103],[-76.884,39.1313],[-76.8882,39.1317],[-77.0085,38.9696]]]},"properties":{"GID_0":"USA","GID_1":"USA.21_1","GID_2":"USA.21.16_1","NAME_1":"Maryland","NAME_2":"PrinceGeorge's"}},
{"type":"Feature","geometry":{"type":"MultiPolygon","coordinates":[[[[-76.3008,39.0325],[-76.3105,39.0359],[-76.3225,39.0158],[-76.3227,39],[-76.3553,38.9561],[-76.3667,38.9089],[-76.3636,38.8497],[-76.3306,38.8636],[-76.3406,38.8953],[-76.3364,38.9156],[-76.3163,38.9158],[-76.3148,38.9342],[-76.3258,38.9425],[-76.3072,38.9533],[-76.2944,38.9336],[-76.2717,38.9425],[-76.2517,38.9431],[-76.2508,38.9686],[-76.2606,38.9836],[-76.2789,38.9833],[-76.2917,38.9997],[-76.3008,39.0325]]],[[[-76.114,38.8857],[-76.1319,38.9067],[-76.1647,38.8928],[-76.1897,38.8708],[-76.1703,38.8694],[-76.1635,38.8834],[-76.1141,38.8825],[-76.114,38.8857]]],[[[-75.7472,39.144],[-75.7556,39.2466],[-75.7929,39.2444],[-75.8208,39.2461],[-75.8531,39.2611],[-75.8723,39.2518],[-75.9176,39.2447],[-75.9586,39.2479],[-75.9727,39.2531],[-76.008,39.2444],[-76.0319,39.2343],[-76.0701,39.1976],[-76.0455,39.1796],[-76.0481,39.1678],[-76.0851,39.1583],[-76.0855,39.1397],[-76.1086,39.1386],[-76.1101,39.1232],[-76.1314,39.1262],[-76.1411,39.1131],[-76.1595,39.1043],[-76.1425,39.1044],[-76.1589,39.0654],[-76.1573,39.0517],[-76.1747,39.0436],[-76.178,39.0322],[-76.1625,39.0069],[-76.2022,38.9722],[-76.2225,38.9678],[-76.2278,38.9519],[-76.2089,38.9397],[-76.2039,38.8939],[-76.1947,38.8839],[-76.1628,38.9069],[-76.1131,38.91],[-76.1148,38.9174],[-76.1125,38.936],[-76.0986,38.9495],[-76.071,38.941],[-76.0138,38.9295],[-75.9855,38.9268],[-75.9443,38.9177],[-75.9499,38.9305],[-75.9363,38.9598],[-75.9377,38.9775],[-75.9152,39.0044],[-75.8827,39.0289],[-75.8708,39.0569],[-75.8484,39.0751],[-75.8352,39.1076],[-75.7944,39.1306],[-75.7705,39.1362],[-75.7472,39.144]]]]},"properties":{"GID_0":"USA","GID_1":"USA.21_1","GID_2":"USA.21.17_1","NAME_1":"Maryland","NAME_2":"QueenAnne's"}},
{"type":"Feature","geometry":{"type":"Polygon","coordinates":[[[-76.6964,38.4956],[-76.7065,38.5003],[-76.7122,38.5098],[-76.761,38.5142],[-76.774,38.5093],[-76.8188,38.4375],[-76.8485,38.4009],[-76.8621,38.391],[-76.9011,38.3896],[-76.8719,38.3888],[-76.8225,38.3511],[-76.8336,38.3315],[-76.8248,38.3011],[-76.8023,38.2806],[-76.8053,38.2523],[-76.79,38.2518],[-76.7798,38.2306],[-76.7514,38.2225],[-76.7143,38.2658],[-76.72,38.2764],[-76.7056,38.2861],[-76.7061,38.2508],[-76.69,38.2609],[-76.6655,38.2584],[-76.6869,38.2416],[-76.6498,38.2249],[-76.6294,38.2252],[-76.5913,38.2149],[-76.55,38.1828],[-76.5358,38.1465],[-76.5017,38.1383],[-76.4649,38.1409],[-76.4683,38.1531],[-76.4381,38.16],[-76.4374,38.1345],[-76.4228,38.1118],[-76.3928,38.1031],[-76.3739,38.0839],[-76.3615,38.0598],[-76.3344,38.0561],[-76.3314,38.0984],[-76.3414,38.1145],[-76.34,38.1278],[-76.32,38.1383],[-76.3341,38.159],[-76.3864,38.2202],[-76.3992,38.2569],[-76.3936,38.2792],[-76.3733,38.2989],[-76.4004,38.3098],[-76.4222,38.3047],[-76.4413,38.2916],[-76.4619,38.296],[-76.4778,38.3167],[-76.5094,38.3394],[-76.4972,38.3469],[-76.5031,38.3603],[-76.5519,38.3886],[-76.585,38.3972],[-76.6192,38.4178],[-76.6453,38.4397],[-76.6625,38.4656],[-76.6636,38.4775],[-76.6964,38.4956]]]},"properties":{"GID_0":"USA","GID_1":"USA.21_1","GID_2":"USA.21.18_1","NAME_1":"Maryland","NAME_2":"SaintMary's"}},
{"type":"Feature","geometry":{"type":"MultiPolygon","coordinates":[[[[-76.0331,38.0011],[-76.0506,37.9874],[-76.0453,37.9489],[-76.0256,37.9442],[-76.0247,37.9642],[-76.0003,37.9692],[-76.0138,37.9894],[-76.0331,38.0011]]],[[[-76.0259,38.0353],[-76.0478,38.02],[-76.023,38.0147],[-76.005,37.995],[-75.9811,37.9919],[-75.9819,38.0061],[-76.0259,38.0353]]],[[[-75.8542,38.0372],[-75.8725,38.0336],[-75.8661,38.0206],[-75.8978,37.9756],[-75.8789,37.97],[-75.8558,37.9981],[-75.8453,38.0211],[-75.8542,38.0372]]],[[[-76.0328,38.1183],[-76.0481,38.1081],[-76.025,38.0831],[-76.0078,38.0919],[-76.0328,38.1183]]],[[[-75.7954,38.2639],[-75.802,38.2533],[-75.8267,38.2518],[-75.8611,38.2328],[-75.8186,38.2269],[-75.827,38.2185],[-75.8753,38.1983],[-75.8883,38.204],[-75.9231,38.1906],[-75.9368,38.1898],[-75.9589,38.1397],[-75.9558,38.1306],[-75.9289,38.1311],[-75.925,38.1505],[-75.9011,38.1456],[-75.8866,38.15],[-75.8597,38.1406],[-75.8339,38.1517],[-75.8079,38.1406],[-75.8386,38.1246],[-75.8434,38.0923],[-75.8664,38.0956],[-75.8547,38.0694],[-75.7748,38.0733],[-75.7925,38.0556],[-75.8314,38.0408],[-75.8644,37.9803],[-75.8656,37.9506],[-75.8922,37.9558],[-75.8981,37.9203],[-75.8906,37.9122],[-75.8647,37.9133],[-75.8211,37.9392],[-75.8281,37.9519],[-75.8189,37.9669],[-75.8031,37.9558],[-75.7786,37.9736],[-75.6758,37.9678],[-75.6578,37.9597],[-75.6237,37.9955],[-75.6365,38.0241],[-75.6612,38.039],[-75.6204,38.0583],[-75.6177,38.0727],[-75.5827,38.0686],[-75.5682,38.0887],[-75.5507,38.0862],[-75.5428,38.0983],[-75.5556,38.123],[-75.574,38.1346],[-75.576,38.1483],[-75.5509,38.1669],[-75.5476,38.18],[-75.6075,38.243],[-75.6154,38.2785],[-75.6612,38.2991],[-75.683,38.2927],[-75.6885,38.2837],[-75.7005,38.264],[-75.7192,38.2647],[-75.7361,38.2822],[-75.7419,38.2783],[-75.7533,38.2847],[-75.7678,38.2835],[-75.7689,38.2756],[-75.7789,38.2669],[-75.7954,38.2639]]]]},"properties":{"GID_0":"USA","GID_1":"USA.21_1","GID_2":"USA.21.19_1","NAME_1":"Maryland","NAME_2":"Somerset"}},
{"type":"Feature","geometry":{"type":"Polygon","coordinates":[[[-75.9804,38.7656],[-75.9629,38.7811],[-75.9507,38.7792],[-75.9272,38.8008],[-75.8902,38.8144],[-75.8995,38.8269],[-75.9235,38.8372],[-75.9201,38.8576],[-75.9377,38.8673],[-75.9467,38.8842],[-75.9443,38.9177],[-75.9855,38.9268],[-76.0138,38.9295],[-76.071,38.941],[-76.0986,38.9495],[-76.1125,38.936],[-76.1148,38.9174],[-76.1017,38.8911],[-76.1036,38.88],[-76.125,38.8728],[-76.1336,38.8789],[-76.1606,38.8797],[-76.1688,38.8619],[-76.1981,38.845],[-76.19,38.8347],[-76.2,38.8036],[-76.1858,38.785],[-76.1556,38.7722],[-76.1706,38.7536],[-76.1839,38.7581],[-76.2158,38.7867],[-76.2133,38.8069],[-76.2275,38.82],[-76.2506,38.8253],[-76.2572,38.8414],[-76.2981,38.8283],[-76.3086,38.8142],[-76.31,38.7969],[-76.3272,38.7672],[-76.3428,38.75],[-76.3337,38.7033],[-76.3148,38.738],[-76.3181,38.7642],[-76.2992,38.7597],[-76.2953,38.7308],[-76.27,38.7244],[-76.2435,38.7499],[-76.2439,38.7606],[-76.2072,38.7439],[-76.2089,38.7336],[-76.2365,38.724],[-76.2122,38.705],[-76.2197,38.6978],[-76.2013,38.6723],[-76.1719,38.7103],[-76.1536,38.7058],[-76.15,38.7206],[-76.1281,38.7128],[-76.1422,38.7022],[-76.1767,38.6919],[-76.1775,38.6756],[-76.1556,38.6567],[-76.1475,38.6372],[-76.1318,38.6381],[-76.1083,38.6214],[-76.0542,38.6042],[-76.0533,38.5942],[-76.0306,38.5792],[-76.0178,38.5917],[-75.9992,38.5957],[-75.9875,38.6106],[-75.9924,38.6293],[-75.9646,38.6457],[-75.9517,38.6736],[-75.9977,38.6974],[-76.0047,38.7167],[-76.0167,38.7292],[-76.0008,38.7558],[-75.9804,38.7656]]]},"properties":{"GID_0":"USA","GID_1":"USA.21_1","GID_2":"USA.21.20_1","NAME_1":"Maryland","NAME_2":"Talbot"}},
{"type":"Feature","geometry":{"type":"Polygon","coordinates":[[[-78.3278,39.6365],[-78.2873,39.6223],[-78.2639,39.6206],[-78.2561,39.6385],[-78.2245,39.6615],[-78.2235,39.678],[-78.2013,39.6799],[-78.1848,39.6957],[-78.1692,39.6972],[-78.1021,39.6807],[-78.0744,39.6663],[-78.0379,39.637],[-78.0138,39.6077],[-78.0036,39.6014],[-77.9514,39.6044],[-77.939,39.588],[-77.9195,39.6057],[-77.8859,39.6003],[-77.8822,39.6183],[-77.8328,39.6022],[-77.8298,39.5847],[-77.8443,39.5664],[-77.882,39.5625],[-77.8678,39.5425],[-77.8628,39.5168],[-77.8294,39.517],[-77.8413,39.4986],[-77.7995,39.4901],[-77.781,39.467],[-77.7923,39.4331],[-77.756,39.4277],[-77.7354,39.3895],[-77.7503,39.3838],[-77.7445,39.3606],[-77.7579,39.3442],[-77.7483,39.3334],[-77.6936,39.3214],[-77.6769,39.3266],[-77.6734,39.3416],[-77.6503,39.3775],[-77.6378,39.406],[-77.6331,39.4437],[-77.6153,39.4695],[-77.6225,39.4999],[-77.6112,39.5298],[-77.6011,39.5411],[-77.5851,39.577],[-77.5726,39.6191],[-77.5451,39.6341],[-77.532,39.6318],[-77.517,39.6455],[-77.4931,39.6781],[-77.5057,39.6862],[-77.4842,39.7071],[-77.4674,39.7205],[-77.938,39.724],[-78.3441,39.7229],[-78.317,39.7017],[-78.3203,39.6786],[-78.3333,39.6649],[-78.3607,39.6611],[-78.3278,39.6365]]]},"properties":{"GID_0":"USA","GID_1":"USA.21_1","GID_2":"USA.21.21_1","NAME_1":"Maryland","NAME_2":"Washington"}},
{"type":"Feature","geometry":{"type":"Polygon","coordinates":[[[-75.3394,38.4512],[-75.5707,38.4558],[-75.6942,38.4593],[-75.7019,38.5597],[-75.7247,38.5397],[-75.7444,38.5369],[-75.7619,38.5056],[-75.7789,38.5017],[-75.7986,38.4883],[-75.8225,38.4806],[-75.8094,38.4689],[-75.8308,38.4567],[-75.8189,38.4431],[-75.82,38.4275],[-75.8331,38.4208],[-75.8427,38.4219],[-75.8492,38.4039],[-75.8322,38.39],[-75.8642,38.3778],[-75.8492,38.3647],[-75.8574,38.3493],[-75.8831,38.3283],[-75.9083,38.2925],[-75.9017,38.2858],[-75.9188,38.2645],[-75.9092,38.2558],[-75.8998,38.2323],[-75.8731,38.2553],[-75.8636,38.2471],[-75.8465,38.2566],[-75.8215,38.2617],[-75.8106,38.2561],[-75.8014,38.258],[-75.7965,38.2667],[-75.7829,38.2681],[-75.7725,38.2759],[-75.7708,38.285],[-75.7628,38.2886],[-75.7499,38.2834],[-75.7414,38.2799],[-75.7339,38.2836],[-75.7283,38.277],[-75.7194,38.2669],[-75.7007,38.2659],[-75.6885,38.2837],[-75.683,38.2927],[-75.6612,38.2991],[-75.6154,38.2785],[-75.3646,38.2934],[-75.3562,38.3178],[-75.3235,38.3326],[-75.3094,38.3528],[-75.3285,38.3803],[-75.3173,38.4037],[-75.3307,38.4252],[-75.3394,38.4512]]]},"properties":{"GID_0":"USA","GID_1":"USA.21_1","GID_2":"USA.21.22_1","NAME_1":"Maryland","NAME_2":"Wicomico"}},
{"type":"Feature","geometry":{"type":"MultiPolygon","coordinates":[[[[-75.6237,37.9955],[-75.3775,38.0175],[-75.3808,38.0311],[-75.3636,38.0333],[-75.3506,38.0583],[-75.3644,38.0756],[-75.3419,38.0869],[-75.3269,38.1053],[-75.3136,38.1017],[-75.2883,38.135],[-75.2836,38.1528],[-75.2656,38.1636],[-75.2686,38.1739],[-75.2608,38.2045],[-75.2194,38.2464],[-75.1925,38.2447],[-75.19,38.2275],[-75.1642,38.2367],[-75.1522,38.2472],[-75.1519,38.2614],[-75.141,38.2838],[-75.1164,38.3028],[-75.11,38.3189],[-75.0958,38.3289],[-75.0942,38.3469],[-75.1275,38.3653],[-75.1294,38.3917],[-75.1661,38.4083],[-75.1592,38.4133],[-75.1125,38.3992],[-75.1,38.4053],[-75.1178,38.4311],[-75.1237,38.4495],[-75.3394,38.4512],[-75.3307,38.4252],[-75.3173,38.4037],[-75.3285,38.3803],[-75.3094,38.3528],[-75.3235,38.3326],[-75.3562,38.3178],[-75.3646,38.2934],[-75.6154,38.2785],[-75.6075,38.243],[-75.5476,38.18],[-75.5509,38.1669],[-75.576,38.1483],[-75.574,38.1346],[-75.5556,38.123],[-75.5428,38.0983],[-75.5507,38.0862],[-75.5682,38.0887],[-75.5827,38.0686],[-75.6177,38.0727],[-75.6204,38.0583],[-75.6612,38.039],[-75.6365,38.0241],[-75.6237,37.9955]]],[[[-75.2506,38.0311],[-75.2386,38.0356],[-75.2183,38.0597],[-75.1875,38.1094],[-75.1644,38.1761],[-75.1817,38.1744],[-75.1933,38.1378],[-75.1917,38.1172],[-75.2122,38.1028],[-75.2128,38.0819],[-75.2291,38.0717],[-75.2506,38.0311]]],[[[-75.05,38.4478],[-75.0673,38.4493],[-75.0639,38.4314],[-75.0775,38.3619],[-75.0706,38.3617],[-75.0561,38.4108],[-75.05,38.4478]]]]},"properties":{"GID_0":"USA","GID_1":"USA.21_1","GID_2":"USA.21.23_1","NAME_1":"Maryland","NAME_2":"Worcester"}}
]}