{"type":"FeatureCollection", "features": [
{"type":"Feature","geometry":{"type":"Polygon","coordinates":[[[-83.89,44.8553],[-83.8861,44.507],[-83.7655,44.5101],[-83.3182,44.512],[-83.3074,44.6322],[-83.2727,44.7122],[-83.2935,44.7346],[-83.298,44.7484],[-83.2934,44.8054],[-83.3207,44.853],[-83.3205,44.859],[-83.89,44.8553]]]},"properties":{"GID_0":"USA","GID_1":"USA.23_1","GID_2":"USA.23.1_1","NAME_1":"Michigan","NAME_2":"Alcona"}},
{"type":"Feature","geometry":{"type":"MultiPolygon","coordinates":[[[[-87.119,46.4959],[-87.1178,46.1578],[-86.6163,46.1587],[-86.6173,46.3327],[-86.3646,46.3322],[-86.3655,46.5055],[-85.864,46.5041],[-85.8642,46.6925],[-85.9735,46.6811],[-86.0789,46.6567],[-86.1568,46.6725],[-86.2662,46.6149],[-86.3753,46.5669],[-86.448,46.5468],[-86.5615,46.4881],[-86.6405,46.4124],[-86.6669,46.4468],[-86.7078,46.443],[-86.7343,46.4755],[-86.789,46.4786],[-86.8212,46.4391],[-86.8706,46.4376],[-86.9454,46.4796],[-86.954,46.4928],[-86.9574,46.502],[-86.9787,46.5271],[-87.023,46.5334],[-87.119,46.4959]]],[[[-86.6367,46.4706],[-86.6485,46.4614],[-86.6235,46.456],[-86.6083,46.4725],[-86.6473,46.4853],[-86.6289,46.5352],[-86.6547,46.5627],[-86.7128,46.5457],[-86.6875,46.4985],[-86.6901,46.4559],[-86.6696,46.4522],[-86.6598,46.4701],[-86.6367,46.4706]]],[[[-86.7211,46.4792],[-86.7112,46.4751],[-86.7205,46.4847],[-86.7211,46.4792]]],[[[-86.7338,46.5186],[-86.7476,46.5154],[-86.7337,46.5035],[-86.7338,46.5186]]]]},"properties":{"GID_0":"USA","GID_1":"USA.23_1","GID_2":"USA.23.2_1","NAME_1":"Michigan","NAME_2":"Alger"}},
{"type":"Feature","geometry":{"type":"Polygon","coordinates":[[[-85.5485,42.7677],[-86.018,42.7671],[-86.2091,42.769],[-86.208,42.7381],[-86.2321,42.6218],[-86.2273,42.5927],[-86.2582,42.4569],[-86.2745,42.4201],[-85.8975,42.4185],[-85.5421,42.4195],[-85.5485,42.7677]]]},"properties":{"GID_0":"USA","GID_1":"USA.23_1","GID_2":"USA.23.3_1","NAME_1":"Michigan","NAME_2":"Allegan"}},
{"type":"Feature","geometry":{"type":"MultiPolygon","coordinates":[[[[-83.3298,44.893],[-83.3203,44.89],[-83.3214,44.8941],[-83.3298,44.893]]],[[[-83.4206,45.0216],[-83.4272,45.0181],[-83.4208,45.017],[-83.4206,45.0216]]],[[[-83.89,44.8553],[-83.3205,44.859],[-83.3162,44.8808],[-83.3969,44.905],[-83.4408,44.9467],[-83.4639,45.0057],[-83.4533,45.0114],[-83.4211,45.0668],[-83.2925,45.0273],[-83.2666,45.0285],[-83.3138,45.0547],[-83.318,45.1421],[-83.3301,45.146],[-83.3875,45.2059],[-83.39,45.2087],[-83.6393,45.2069],[-83.883,45.2018],[-83.8806,45.0309],[-83.8883,45.0311],[-83.89,44.8553]]],[[[-83.2284,45.0435],[-83.22,45.0424],[-83.2236,45.0503],[-83.2284,45.0435]]],[[[-83.2015,45.0525],[-83.2112,45.0509],[-83.2027,45.0397],[-83.193,45.0404],[-83.1909,45.0445],[-83.2015,45.0525]]],[[[-83.3067,45.0665],[-83.2918,45.0679],[-83.2991,45.0777],[-83.3067,45.0665]]]]},"properties":{"GID_0":"USA","GID_1":"USA.23_1","GID_2":"USA.23.4_1","NAME_1":"Michigan","NAME_2":"Alpena"}},
{"type":"Feature","geometry":{"type":"Polygon","coordinates":[[[-84.8605,45.1163],[-85.225,45.1166],[-85.224,45.2057],[-85.3915,45.208],[-85.3891,45.2016],[-85.366,45.1092],[-85.3819,45.0513],[-85.3845,44.9669],[-85.4345,44.8664],[-85.4443,44.8596],[-85.3831,44.8591],[-85.3317,44.8158],[-85.2968,44.8584],[-84.8513,44.8578],[-84.851,45.0294],[-84.8606,45.0295],[-84.8605,45.1163]]]},"properties":{"GID_0":"USA","GID_1":"USA.23_1","GID_2":"USA.23.5_1","NAME_1":"Michigan","NAME_2":"Antrim"}},
{"type":"Feature","geometry":{"type":"Polygon","coordinates":[[[-83.9127,43.9112],[-83.9113,43.9153],[-83.8356,43.9995],[-83.7776,43.9869],[-83.7624,43.9866],[-83.6985,43.993],[-83.6763,44.039],[-83.608,44.058],[-83.5683,44.1223],[-83.5688,44.1552],[-83.5665,44.1642],[-83.6884,44.1623],[-84.1684,44.1616],[-84.1677,43.9961],[-84.0462,43.9958],[-84.0467,43.9119],[-83.9127,43.9112]]]},"properties":{"GID_0":"USA","GID_1":"USA.23_1","GID_2":"USA.23.6_1","NAME_1":"Michigan","NAME_2":"Arenac"}},
{"type":"Feature","geometry":{"type":"Polygon","coordinates":[[[-88.6816,46.4189],[-88.1174,46.4194],[-88.1185,46.6793],[-87.9921,46.6785],[-87.9921,46.7652],[-88.0464,46.7655],[-88.0459,46.9123],[-88.0633,46.9186],[-88.0766,46.9207],[-88.1394,46.9081],[-88.1574,46.9643],[-88.2436,46.9306],[-88.3838,46.8402],[-88.4577,46.7589],[-88.4962,46.7638],[-88.4796,46.7843],[-88.4754,46.8862],[-88.4559,46.9236],[-88.4511,46.9393],[-88.5521,46.9388],[-88.5527,46.8529],[-88.682,46.8505],[-88.6794,46.5909],[-88.6816,46.4189]]]},"properties":{"GID_0":"USA","GID_1":"USA.23_1","GID_2":"USA.23.7_1","NAME_1":"Michigan","NAME_2":"Baraga"}},
{"type":"Feature","geometry":{"type":"Polygon","coordinates":[[[-85.5421,42.4195],[-85.3091,42.4185],[-85.0736,42.4211],[-85.0745,42.7707],[-85.5485,42.7677],[-85.5421,42.4195]]]},"properties":{"GID_0":"USA","GID_1":"USA.23_1","GID_2":"USA.23.8_1","NAME_1":"Michigan","NAME_2":"Barry"}},
{"type":"Feature","geometry":{"type":"Polygon","coordinates":[[[-84.1677,43.9961],[-84.169,43.8267],[-84.1682,43.7406],[-84.1702,43.5689],[-84.0521,43.5668],[-84.0524,43.5235],[-83.8188,43.5217],[-83.8186,43.478],[-83.7,43.4787],[-83.6989,43.5966],[-83.7038,43.6004],[-83.7816,43.6321],[-83.8232,43.6361],[-83.909,43.6747],[-83.9548,43.7558],[-83.9259,43.7985],[-83.9144,43.9017],[-83.9127,43.9112],[-84.0467,43.9119],[-84.0462,43.9958],[-84.1677,43.9961]]]},"properties":{"GID_0":"USA","GID_1":"USA.23_1","GID_2":"USA.23.9_1","NAME_1":"Michigan","NAME_2":"Bay"}},
{"type":"Feature","geometry":{"type":"Polygon","coordinates":[[[-85.816,44.7744],[-86.0783,44.7778],[-86.0764,44.7677],[-86.1159,44.7277],[-86.155,44.731],[-86.2541,44.6925],[-86.2581,44.6564],[-86.2225,44.5838],[-86.2252,44.5428],[-86.2343,44.5186],[-86.0594,44.5141],[-85.8205,44.5117],[-85.816,44.7744]]]},"properties":{"GID_0":"USA","GID_1":"USA.23_1","GID_2":"USA.23.10_1","NAME_1":"Michigan","NAME_2":"Benzie"}},
{"type":"Feature","geometry":{"type":"Polygon","coordinates":[[[-86.8262,41.7609],[-86.2255,41.7615],[-86.2255,42.2451],[-86.3637,42.2453],[-86.4158,42.1836],[-86.4883,42.1137],[-86.6092,41.9029],[-86.7064,41.8265],[-86.8262,41.7609]]]},"properties":{"GID_0":"USA","GID_1":"USA.23_1","GID_2":"USA.23.11_1","NAME_1":"Michigan","NAME_2":"Berrien"}},
{"type":"Feature","geometry":{"type":"Polygon","coordinates":[[[-85.2913,41.7606],[-84.8273,41.7606],[-84.8285,42.0724],[-85.1771,42.0733],[-85.2928,42.0717],[-85.2913,41.7606]]]},"properties":{"GID_0":"USA","GID_1":"USA.23_1","GID_2":"USA.23.12_1","NAME_1":"Michigan","NAME_2":"Branch"}},
{"type":"Feature","geometry":{"type":"Polygon","coordinates":[[[-85.2979,42.4188],[-85.2928,42.0717],[-85.0609,42.0734],[-84.7116,42.0709],[-84.7195,42.2464],[-84.7207,42.4209],[-84.9561,42.4221],[-85.2979,42.4188]]]},"properties":{"GID_0":"USA","GID_1":"USA.23_1","GID_2":"USA.23.13_1","NAME_1":"Michigan","NAME_2":"Calhoun"}},
{"type":"Feature","geometry":{"type":"Polygon","coordinates":[[[-85.7874,41.7615],[-85.7586,41.8032],[-85.7638,42.0698],[-85.9913,42.0686],[-86.2243,42.0716],[-86.2255,41.7615],[-85.7874,41.7615]]]},"properties":{"GID_0":"USA","GID_1":"USA.23_1","GID_2":"USA.23.14_1","NAME_1":"Michigan","NAME_2":"Cass"}},
{"type":"Feature","geometry":{"type":"MultiPolygon","coordinates":[[[[-85.3915,45.208],[-85.224,45.2057],[-85.225,45.1166],[-84.9774,45.1172],[-84.7364,45.1143],[-84.7318,45.2878],[-84.9761,45.289],[-85.0161,45.2967],[-85.097,45.367],[-85.1158,45.3677],[-85.2035,45.3622],[-85.212,45.3586],[-85.2587,45.3234],[-85.2789,45.3144],[-85.3047,45.3211],[-85.379,45.2641],[-85.3913,45.2208],[-85.3915,45.208]]],[[[-85.4985,45.7148],[-85.5036,45.7213],[-85.5404,45.7517],[-85.6065,45.6831],[-85.6243,45.6229],[-85.6196,45.5799],[-85.5599,45.5694],[-85.4917,45.6064],[-85.505,45.6742],[-85.4985,45.7148]]],[[[-85.3763,45.8109],[-85.3711,45.8053],[-85.3583,45.7901],[-85.351,45.8024],[-85.3763,45.8109]]],[[[-85.4924,45.7734],[-85.4793,45.7751],[-85.4774,45.7742],[-85.4708,45.78],[-85.4924,45.7734]]],[[[-85.6429,45.7433],[-85.6951,45.745],[-85.6958,45.7422],[-85.7017,45.7377],[-85.6983,45.6974],[-85.6865,45.6978],[-85.6429,45.7433]]],[[[-85.6901,45.7779],[-85.6804,45.7746],[-85.6784,45.7787],[-85.6894,45.7811],[-85.6901,45.7779]]]]},"properties":{"GID_0":"USA","GID_1":"USA.23_1","GID_2":"USA.23.15_1","NAME_1":"Michigan","NAME_2":"Charlevoix"}},
{"type":"Feature","geometry":{"type":"Polygon","coordinates":[[[-84.7341,45.202],[-84.6138,45.1999],[-84.2507,45.1984],[-84.2486,45.2811],[-84.2544,45.2812],[-84.2493,45.4543],[-84.2508,45.6413],[-84.3218,45.6626],[-84.4147,45.6508],[-84.4739,45.654],[-84.5751,45.7131],[-84.7211,45.7673],[-84.7242,45.7737],[-84.7252,45.7847],[-84.7304,45.7866],[-84.7321,45.7226],[-84.7318,45.2878],[-84.7341,45.202]]]},"properties":{"GID_0":"USA","GID_1":"USA.23_1","GID_2":"USA.23.16_1","NAME_1":"Michigan","NAME_2":"Cheboygan"}},
{"type":"Feature","geometry":{"type":"MultiPolygon","coordinates":[[[[-83.8243,45.9438],[-83.8334,45.9454],[-83.831,45.9389],[-83.8243,45.9438]]],[[[-83.9139,45.9625],[-83.9231,45.9604],[-83.9153,45.9589],[-83.9139,45.9625]]],[[[-83.8798,45.9641],[-83.8838,45.9624],[-83.88,45.9587],[-83.8798,45.9641]]],[[[-83.5822,46.09],[-83.6315,46.1029],[-83.7228,46.1002],[-83.6744,46.0507],[-83.7573,46.0272],[-83.803,45.9842],[-83.8702,46.0056],[-83.8835,45.9688],[-83.7656,45.9541],[-83.7161,45.9321],[-83.6365,45.956],[-83.5826,45.9174],[-83.5202,45.9215],[-83.4727,45.9873],[-83.5426,46.0213],[-83.5775,46.0766],[-83.5822,46.09]]],[[[-83.8844,46.0297],[-83.887,46.0284],[-83.8839,46.0251],[-83.8844,46.0297]]],[[[-83.8297,46.0355],[-83.8238,46.0368],[-83.8302,46.0392],[-83.8297,46.0355]]],[[[-83.7201,46.0558],[-83.7248,46.0536],[-83.7184,46.0484],[-83.7201,46.0558]]],[[[-83.7671,46.0595],[-83.7759,46.0528],[-83.7704,46.044],[-83.7702,46.0499],[-83.7551,46.0656],[-83.7671,46.0595]]],[[[-83.876,46.0584],[-83.8769,46.0534],[-83.8722,46.0551],[-83.876,46.0584]]],[[[-83.842,46.0568],[-83.8577,46.0576],[-83.8565,46.0548],[-83.8447,46.0541],[-83.842,46.0568]]],[[[-83.8216,46.0587],[-83.8287,46.0611],[-83.8295,46.0575],[-83.8216,46.0587]]],[[[-83.8743,46.0689],[-83.8843,46.065],[-83.8751,46.0662],[-83.8743,46.0689]]],[[[-83.7096,46.072],[-83.7077,46.0683],[-83.6985,46.07],[-83.7096,46.072]]],[[[-83.7172,46.0768],[-83.7238,46.0765],[-83.7153,46.0749],[-83.7172,46.0768]]],[[[-83.7581,46.0891],[-83.7559,46.0931],[-83.7663,46.0956],[-83.7633,46.0891],[-83.7581,46.0891]]],[[[-83.868,46.0784],[-83.8623,46.0746],[-83.8569,46.0777],[-83.8614,46.081],[-83.868,46.0784]]],[[[-84.0287,45.9564],[-84.0352,45.9565],[-84.0394,45.9507],[-84.0322,45.9501],[-84.0287,45.9564]]],[[[-83.9716,46.0277],[-83.967,46.0276],[-83.9669,46.0313],[-83.9714,46.0327],[-83.9716,46.0277]]],[[[-83.9403,46.0413],[-83.9306,46.0379],[-83.9318,46.0407],[-83.9403,46.0413]]],[[[-84.004,46.0897],[-83.9776,46.0777],[-83.98,46.0833],[-84.004,46.0897]]],[[[-83.9836,46.0929],[-83.9762,46.096],[-83.9794,46.0984],[-83.9836,46.0929]]],[[[-84.2,46.1884],[-84.2086,46.1871],[-84.2068,46.1821],[-84.2,46.1884]]],[[[-84.2172,46.2033],[-84.2079,46.2087],[-84.2118,46.2097],[-84.2172,46.2033]]],[[[-84.1444,46.2012],[-84.1393,46.1956],[-84.1385,46.1997],[-84.1444,46.2012]]],[[[-84.1558,46.2119],[-84.1663,46.2121],[-84.158,46.2055],[-84.1558,46.2119]]],[[[-84.2275,46.2122],[-84.2201,46.2144],[-84.2253,46.2168],[-84.2275,46.2122]]],[[[-84.2084,46.326],[-84.2004,46.329],[-84.2023,46.3314],[-84.2097,46.3278],[-84.2084,46.326]]],[[[-84.2015,46.3359],[-84.2001,46.3382],[-84.2074,46.3374],[-84.2015,46.3359]]],[[[-84.1736,46.2296],[-84.1698,46.2263],[-84.1657,46.2313],[-84.1736,46.2296]]],[[[-84.1329,46.2289],[-84.1175,46.2374],[-84.1358,46.3119],[-84.2066,46.3204],[-84.2082,46.293],[-84.1539,46.2288],[-84.1635,46.2189],[-84.1479,46.2127],[-84.1329,46.2289]]],[[[-84.3428,46.5042],[-84.3752,46.5019],[-84.4079,46.4901],[-84.4541,46.4706],[-84.4663,46.4368],[-84.5746,46.4329],[-84.6246,46.4831],[-84.6772,46.4889],[-84.7984,46.4469],[-84.8664,46.4702],[-85.0231,46.482],[-85.0381,46.4909],[-85.0573,46.5204],[-85.0255,46.554],[-85.0369,46.6023],[-85.0226,46.7108],[-84.9728,46.7745],[-85.0347,46.7624],[-85.1625,46.7664],[-85.2157,46.7587],[-85.2416,46.7561],[-85.2368,46.2454],[-85.1152,46.2447],[-85.115,46.1572],[-84.3646,46.1581],[-84.3621,46.0715],[-84.2388,46.0722],[-84.2399,45.9886],[-84.1134,45.9859],[-84.113,45.979],[-84.0929,45.9722],[-84.0123,45.9566],[-83.8945,45.9892],[-83.9368,46.0293],[-83.9803,46.0219],[-84.0688,46.0945],[-84.0266,46.1345],[-84.0872,46.147],[-84.1771,46.1862],[-84.216,46.1639],[-84.2478,46.1745],[-84.2415,46.1854],[-84.2713,46.1978],[-84.2116,46.233],[-84.1912,46.2711],[-84.2175,46.2908],[-84.2206,46.3532],[-84.2992,46.4856],[-84.3428,46.5042]]],[[[-84.2448,46.4164],[-84.237,46.4135],[-84.2363,46.4163],[-84.2448,46.4164]]],[[[-84.1473,46.3598],[-84.1504,46.3639],[-84.1568,46.3888],[-84.1632,46.3935],[-84.178,46.4057],[-84.1908,46.4169],[-84.1507,46.4671],[-84.1386,46.5292],[-84.2181,46.5295],[-84.2364,46.507],[-84.28,46.4885],[-84.2857,46.4767],[-84.2723,46.4609],[-84.2602,46.4671],[-84.2555,46.4693],[-84.2492,46.4632],[-84.2421,46.4379],[-84.224,46.3904],[-84.184,46.3654],[-84.1732,46.3345],[-84.1117,46.3252],[-84.1437,46.368],[-84.1473,46.3598]]],[[[-84.521,46.4386],[-84.5117,46.4426],[-84.5229,46.4432],[-84.521,46.4386]]],[[[-84.9662,46.4892],[-84.965,46.4846],[-84.959,46.4859],[-84.9662,46.4892]]],[[[-84.95,46.5317],[-84.9561,46.5276],[-84.9528,46.5271],[-84.95,46.5317]]]]},"properties":{"GID_0":"USA","GID_1":"USA.23_1","GID_2":"USA.23.17_1","NAME_1":"Michigan","NAME_2":"Chippewa"}},
{"type":"Feature","geometry":{"type":"Polygon","coordinates":[[[-84.6101,44.1595],[-84.8484,44.1599],[-85.0867,44.1631],[-85.0889,43.8124],[-84.6076,43.8145],[-84.6061,44.0733],[-84.6101,44.1595]]]},"properties":{"GID_0":"USA","GID_1":"USA.23_1","GID_2":"USA.23.18_1","NAME_1":"Michigan","NAME_2":"Clare"}},
{"type":"Feature","geometry":{"type":"Polygon","coordinates":[[[-84.6062,42.7693],[-84.3657,42.7701],[-84.3681,43.1172],[-84.8382,43.1199],[-84.8391,42.7706],[-84.6062,42.7693]]]},"properties":{"GID_0":"USA","GID_1":"USA.23_1","GID_2":"USA.23.19_1","NAME_1":"Michigan","NAME_2":"Clinton"}},
{"type":"Feature","geometry":{"type":"Polygon","coordinates":[[[-84.8513,44.8578],[-84.8487,44.5967],[-84.8533,44.5106],[-84.7303,44.5122],[-84.373,44.5075],[-84.3729,44.856],[-84.8513,44.8578]]]},"properties":{"GID_0":"USA","GID_1":"USA.23_1","GID_2":"USA.23.20_1","NAME_1":"Michigan","NAME_2":"Crawford"}},
{"type":"Feature","geometry":{"type":"MultiPolygon","coordinates":[[[[-86.7094,45.5076],[-86.7153,45.5026],[-86.7075,45.5012],[-86.7094,45.5076]]],[[[-86.664,45.5346],[-86.6659,45.525],[-86.6575,45.5214],[-86.664,45.5346]]],[[[-86.6772,45.6132],[-86.6935,45.616],[-86.6902,45.6045],[-86.6772,45.6132]]],[[[-86.6469,45.7431],[-86.6476,45.7495],[-86.6541,45.7399],[-86.6469,45.7431]]],[[[-86.4916,46.1587],[-87.2445,46.1572],[-87.2465,45.9841],[-87.3709,45.9847],[-87.3704,45.8978],[-87.3292,45.898],[-87.3301,45.5495],[-87.2676,45.549],[-87.2644,45.5527],[-87.1699,45.6647],[-87.0726,45.7159],[-87.0625,45.753],[-87.064,45.7699],[-87.0572,45.8125],[-86.9769,45.9071],[-86.9524,45.8728],[-87.0077,45.8305],[-86.9771,45.7529],[-86.9865,45.7057],[-86.8672,45.7093],[-86.7731,45.8125],[-86.7805,45.8605],[-86.6706,45.8364],[-86.5858,45.896],[-86.5688,45.8992],[-86.5289,45.8571],[-86.5602,45.8091],[-86.6221,45.7509],[-86.6638,45.7289],[-86.6833,45.6878],[-86.7217,45.6767],[-86.6799,45.6269],[-86.6173,45.622],[-86.6285,45.6604],[-86.5432,45.7094],[-86.536,45.7108],[-86.536,45.7414],[-86.476,45.7647],[-86.4629,45.7592],[-86.4616,45.8951],[-86.4923,45.8955],[-86.4916,46.1587]]]]},"properties":{"GID_0":"USA","GID_1":"USA.23_1","GID_2":"USA.23.21_1","NAME_1":"Michigan","NAME_2":"Delta"}},
{"type":"Feature","geometry":{"type":"Polygon","coordinates":[[[-87.8468,45.7218],[-87.6994,45.7219],[-87.6993,45.8976],[-87.6208,45.8973],[-87.6189,46.2476],[-88.1178,46.2471],[-88.1187,46.1216],[-88.1171,45.9225],[-88.0728,45.8721],[-88.1359,45.8164],[-88.0549,45.7819],[-87.9971,45.7967],[-87.9591,45.7588],[-87.8775,45.7536],[-87.8468,45.7218]]]},"properties":{"GID_0":"USA","GID_1":"USA.23_1","GID_2":"USA.23.22_1","NAME_1":"Michigan","NAME_2":"Dickinson"}},
{"type":"Feature","geometry":{"type":"Polygon","coordinates":[[[-85.0736,42.4211],[-84.6026,42.4215],[-84.6062,42.7693],[-85.0745,42.7707],[-85.0736,42.4211]]]},"properties":{"GID_0":"USA","GID_1":"USA.23_1","GID_2":"USA.23.23_1","NAME_1":"Michigan","NAME_2":"Eaton"}},
{"type":"Feature","geometry":{"type":"MultiPolygon","coordinates":[[[[-84.9761,45.289],[-84.7318,45.2878],[-84.7321,45.7226],[-84.7304,45.7866],[-84.7448,45.7822],[-84.7882,45.7704],[-84.7866,45.7557],[-84.7946,45.7495],[-84.8071,45.7455],[-84.9308,45.758],[-84.9389,45.7215],[-85.0081,45.6555],[-85.0679,45.6355],[-85.1192,45.5794],[-85.112,45.5189],[-85.0965,45.4827],[-85.0345,45.4326],[-84.9341,45.4224],[-84.9239,45.3898],[-84.9728,45.3757],[-85.0743,45.3663],[-85.097,45.367],[-85.0161,45.2967],[-84.9761,45.289]]],[[[-85.0272,45.7645],[-85.0162,45.7608],[-85.0155,45.7639],[-85.0238,45.7732],[-85.0272,45.7645]]]]},"properties":{"GID_0":"USA","GID_1":"USA.23_1","GID_2":"USA.23.24_1","NAME_1":"Michigan","NAME_2":"Emmet"}},
{"type":"Feature","geometry":{"type":"Polygon","coordinates":[[[-83.694,43.2223],[-83.9318,43.2204],[-83.9283,43.0451],[-83.9309,42.9574],[-83.9225,42.7812],[-83.6863,42.7822],[-83.6902,42.871],[-83.4541,42.8766],[-83.4607,43.2235],[-83.694,43.2223]]]},"properties":{"GID_0":"USA","GID_1":"USA.23_1","GID_2":"USA.23.25_1","NAME_1":"Michigan","NAME_2":"Genesee"}},
{"type":"Feature","geometry":{"type":"Polygon","coordinates":[[[-84.1684,44.1616],[-84.6101,44.1595],[-84.6061,44.0733],[-84.6076,43.8145],[-84.3673,43.8136],[-84.3669,43.8268],[-84.169,43.8267],[-84.1684,44.1616]]]},"properties":{"GID_0":"USA","GID_1":"USA.23_1","GID_2":"USA.23.26_1","NAME_1":"Michigan","NAME_2":"Gladwin"}},
{"type":"Feature","geometry":{"type":"Polygon","coordinates":[[[-88.9921,46.3311],[-89.3661,46.3329],[-89.365,46.5044],[-89.7388,46.5071],[-89.7377,46.5919],[-89.866,46.5934],[-89.863,46.7674],[-89.8875,46.7677],[-89.899,46.7592],[-90.0187,46.6782],[-90.1749,46.6433],[-90.305,46.6044],[-90.3305,46.6097],[-90.4187,46.567],[-90.3895,46.5375],[-90.3123,46.5435],[-90.308,46.5187],[-90.2168,46.5055],[-90.1592,46.4302],[-90.1178,46.3366],[-89.3759,46.1949],[-89.0854,46.1365],[-88.9879,46.0971],[-88.9921,46.3311]]]},"properties":{"GID_0":"USA","GID_1":"USA.23_1","GID_2":"USA.23.27_1","NAME_1":"Michigan","NAME_2":"Gogebic"}},
{"type":"Feature","geometry":{"type":"Polygon","coordinates":[[[-85.4443,44.8596],[-85.4501,44.8551],[-85.5024,44.8017],[-85.5341,44.7476],[-85.5738,44.7575],[-85.5606,44.782],[-85.5569,44.8135],[-85.5082,44.8464],[-85.495,44.866],[-85.4879,44.9567],[-85.5794,44.8159],[-85.5948,44.7736],[-85.6385,44.7729],[-85.816,44.7744],[-85.8205,44.5117],[-85.3363,44.512],[-85.3317,44.8158],[-85.3831,44.8591],[-85.4443,44.8596]]]},"properties":{"GID_0":"USA","GID_1":"USA.23_1","GID_2":"USA.23.28_1","NAME_1":"Michigan","NAME_2":"GrandTraverse"}},
{"type":"Feature","geometry":{"type":"Polygon","coordinates":[[[-84.3681,43.1172],[-84.3718,43.4654],[-84.8469,43.4658],[-84.8472,43.2933],[-84.8372,43.2932],[-84.8382,43.1199],[-84.3681,43.1172]]]},"properties":{"GID_0":"USA","GID_1":"USA.23_1","GID_2":"USA.23.29_1","NAME_1":"Michigan","NAME_2":"Gratiot"}},
{"type":"Feature","geometry":{"type":"Polygon","coordinates":[[[-84.8273,41.7606],[-84.8067,41.6958],[-84.3623,41.7082],[-84.3666,42.0734],[-84.7116,42.0709],[-84.8285,42.0724],[-84.8273,41.7606]]]},"properties":{"GID_0":"USA","GID_1":"USA.23_1","GID_2":"USA.23.30_1","NAME_1":"Michigan","NAME_2":"Hillsdale"}},
{"type":"Feature","geometry":{"type":"MultiPolygon","coordinates":[[[[-88.5521,46.9388],[-88.4511,46.9393],[-88.4466,46.9688],[-88.4456,47.0005],[-88.4939,47.0361],[-88.5241,47.1109],[-88.6157,47.1192],[-88.6499,47.1692],[-88.6551,47.2256],[-88.7701,47.153],[-88.8883,47.1042],[-88.9132,47.0578],[-88.9355,47.0294],[-88.9317,46.7655],[-88.8641,46.7658],[-88.8643,46.6795],[-88.992,46.68],[-88.9927,46.4182],[-88.6816,46.4189],[-88.6794,46.5909],[-88.682,46.8505],[-88.5527,46.8529],[-88.5521,46.9388]]],[[[-88.2352,47.1934],[-88.2274,47.2],[-88.2994,47.199],[-88.3011,47.2845],[-88.5142,47.2857],[-88.5783,47.2447],[-88.6241,47.2344],[-88.6394,47.1717],[-88.6119,47.1271],[-88.5051,47.1195],[-88.4643,47.07],[-88.4731,47.0308],[-88.4124,46.9798],[-88.3709,47.0157],[-88.35,47.0766],[-88.3006,47.0975],[-88.2837,47.1368],[-88.2477,47.1358],[-88.2352,47.1934]]]]},"properties":{"GID_0":"USA","GID_1":"USA.23_1","GID_2":"USA.23.31_1","NAME_1":"Michigan","NAME_2":"Houghton"}},
{"type":"Feature","geometry":{"type":"MultiPolygon","coordinates":[[[[-83.4686,43.7583],[-83.4597,43.7576],[-83.4614,43.7631],[-83.4686,43.7583]]],[[[-83.4959,43.7721],[-83.4911,43.7647],[-83.4871,43.771],[-83.4959,43.7721]]],[[[-83.4664,43.6657],[-82.7601,43.6854],[-82.6072,43.6906],[-82.6099,43.6998],[-82.6358,43.8345],[-82.7408,43.9916],[-82.7967,44.0274],[-82.8753,44.0464],[-82.9256,44.0706],[-83.0305,44.0474],[-83.0671,44.0037],[-83.1172,44.0063],[-83.1787,43.986],[-83.2642,43.979],[-83.2754,43.9451],[-83.314,43.9209],[-83.3747,43.9137],[-83.3264,43.8989],[-83.4624,43.7417],[-83.4668,43.7409],[-83.4664,43.6657]]]]},"properties":{"GID_0":"USA","GID_1":"USA.23_1","GID_2":"USA.23.32_1","NAME_1":"Michigan","NAME_2":"Huron"}},
{"type":"Feature","geometry":{"type":"Polygon","coordinates":[[[-84.6062,42.7693],[-84.6026,42.4215],[-84.3677,42.4224],[-84.3676,42.4242],[-84.1402,42.4239],[-84.146,42.5999],[-84.1593,42.7779],[-84.3649,42.7746],[-84.3657,42.7701],[-84.6062,42.7693]]]},"properties":{"GID_0":"USA","GID_1":"USA.23_1","GID_2":"USA.23.33_1","NAME_1":"Michigan","NAME_2":"Ingham"}},
{"type":"Feature","geometry":{"type":"Polygon","coordinates":[[[-85.0745,42.7707],[-84.8391,42.7706],[-84.8382,43.1199],[-85.3127,43.1182],[-85.3112,42.7694],[-85.0745,42.7707]]]},"properties":{"GID_0":"USA","GID_1":"USA.23_1","GID_2":"USA.23.34_1","NAME_1":"Michigan","NAME_2":"Ionia"}},
{"type":"Feature","geometry":{"type":"Polygon","coordinates":[[[-83.8861,44.507],[-83.8847,44.1622],[-83.6884,44.1623],[-83.5665,44.1642],[-83.5573,44.1868],[-83.5285,44.261],[-83.5068,44.2755],[-83.4791,44.2808],[-83.4284,44.2724],[-83.3707,44.3317],[-83.3377,44.3282],[-83.3245,44.4036],[-83.3182,44.512],[-83.7655,44.5101],[-83.8861,44.507]]]},"properties":{"GID_0":"USA","GID_1":"USA.23_1","GID_2":"USA.23.35_1","NAME_1":"Michigan","NAME_2":"Iosco"}},
{"type":"Feature","geometry":{"type":"Polygon","coordinates":[[[-88.6816,46.4189],[-88.9927,46.4182],[-88.9914,46.2445],[-88.9879,46.0971],[-88.8103,46.0238],[-88.7317,46.0273],[-88.6679,45.9909],[-88.6195,45.9884],[-88.6016,46.0189],[-88.5099,46.0174],[-88.4173,45.9795],[-88.3761,45.9911],[-88.2856,45.9533],[-88.1985,45.9539],[-88.1171,45.9225],[-88.1187,46.1216],[-88.1174,46.4194],[-88.6816,46.4189]]]},"properties":{"GID_0":"USA","GID_1":"USA.23_1","GID_2":"USA.23.36_1","NAME_1":"Michigan","NAME_2":"Iron"}},
{"type":"Feature","geometry":{"type":"Polygon","coordinates":[[[-85.0889,43.8124],[-85.0894,43.7267],[-85.0847,43.4663],[-84.6084,43.4658],[-84.6076,43.8145],[-85.0889,43.8124]]]},"properties":{"GID_0":"USA","GID_1":"USA.23_1","GID_2":"USA.23.37_1","NAME_1":"Michigan","NAME_2":"Isabella"}},
{"type":"Feature","geometry":{"type":"Polygon","coordinates":[[[-84.7116,42.0709],[-84.3666,42.0734],[-84.1353,42.073],[-84.1333,42.4238],[-84.3676,42.4242],[-84.3677,42.4224],[-84.7207,42.4209],[-84.7195,42.2464],[-84.7116,42.0709]]]},"properties":{"GID_0":"USA","GID_1":"USA.23_1","GID_2":"USA.23.38_1","NAME_1":"Michigan","NAME_2":"Jackson"}},
{"type":"Feature","geometry":{"type":"Polygon","coordinates":[[[-85.7663,42.4196],[-85.7638,42.0698],[-85.2928,42.0717],[-85.2979,42.4188],[-85.7663,42.4196]]]},"properties":{"GID_0":"USA","GID_1":"USA.23_1","GID_2":"USA.23.39_1","NAME_1":"Michigan","NAME_2":"Kalamazoo"}},
{"type":"Feature","geometry":{"type":"Polygon","coordinates":[[[-85.3317,44.8158],[-85.3363,44.512],[-84.8533,44.5106],[-84.8487,44.5967],[-84.8513,44.8578],[-85.2968,44.8584],[-85.3317,44.8158]]]},"properties":{"GID_0":"USA","GID_1":"USA.23_1","GID_2":"USA.23.40_1","NAME_1":"Michigan","NAME_2":"Kalkaska"}},
{"type":"Feature","geometry":{"type":"Polygon","coordinates":[[[-85.5485,42.7677],[-85.3112,42.7694],[-85.3147,43.2929],[-85.5639,43.294],[-85.7917,43.2923],[-85.7839,42.7674],[-85.5485,42.7677]]]},"properties":{"GID_0":"USA","GID_1":"USA.23_1","GID_2":"USA.23.41_1","NAME_1":"Michigan","NAME_2":"Kent"}},
{"type":"Feature","geometry":{"type":"MultiPolygon","coordinates":[[[[-88.5142,47.2857],[-88.3011,47.2845],[-88.2994,47.199],[-88.2274,47.2],[-88.2176,47.2079],[-88.1677,47.2145],[-88.0609,47.2961],[-87.9378,47.3453],[-87.9601,47.385],[-87.8506,47.3962],[-87.8169,47.3842],[-87.7545,47.4054],[-87.7197,47.443],[-87.8108,47.4766],[-87.8501,47.4684],[-87.9401,47.4795],[-88.188,47.4569],[-88.4258,47.3688],[-88.5142,47.2857]]],[[[-88.5734,48.1654],[-88.5627,48.1687],[-88.5735,48.17],[-88.5734,48.1654]]],[[[-88.5439,48.1755],[-88.5508,48.1781],[-88.552,48.173],[-88.5439,48.1755]]],[[[-88.7819,47.8957],[-88.799,47.8835],[-88.7935,47.8817],[-88.7803,47.8898],[-88.7819,47.8957]]],[[[-88.7982,47.9374],[-88.8081,47.9308],[-88.8026,47.9286],[-88.7899,47.9311],[-88.7982,47.9374]]],[[[-89.1763,47.8298],[-89.119,47.829],[-89.1045,47.8366],[-88.9158,47.8893],[-89.0008,47.9076],[-88.8066,47.9852],[-88.7574,47.986],[-88.6333,48.0308],[-88.5887,48.0522],[-88.5804,48.0892],[-88.5135,48.133],[-88.5313,48.1618],[-88.656,48.1263],[-88.7636,48.0868],[-88.7744,48.0686],[-88.8516,48.0517],[-89.1779,47.9343],[-89.22,47.9077],[-89.1974,47.8828],[-89.2299,47.8554],[-89.1763,47.8298]]]]},"properties":{"GID_0":"USA","GID_1":"USA.23_1","GID_2":"USA.23.42_1","NAME_1":"Michigan","NAME_2":"Keweenaw"}},
{"type":"Feature","geometry":{"type":"Polygon","coordinates":[[[-86.0413,44.1662],[-86.038,43.9024],[-86.0386,43.8141],[-85.5644,43.8143],[-85.562,43.9869],[-85.564,44.1655],[-85.9177,44.1634],[-86.0413,44.1662]]]},"properties":{"GID_0":"USA","GID_1":"USA.23_1","GID_2":"USA.23.43_1","NAME_1":"Michigan","NAME_2":"Lake"}},
{"type":"Feature","geometry":{"type":"Polygon","coordinates":[[[-82.4237,42.9923],[-82.4243,42.9983],[-82.3321,43.1766],[-82.1229,43.5884],[-82.2077,43.9512],[-82.4175,44.9067],[-82.4496,45.0264],[-82.5254,45.3409],[-83.1983,45.644],[-83.5921,45.8187],[-83.4356,45.9965],[-83.5711,46.1026],[-83.6544,46.1194],[-83.7567,46.1015],[-83.8258,46.1165],[-83.9036,46.0585],[-83.9548,46.0562],[-84.0005,46.1143],[-84.005,46.1506],[-84.0726,46.1875],[-84.1046,46.2389],[-84.1173,46.3148],[-84.1065,46.3215],[-84.1396,46.3818],[-84.1432,46.4171],[-84.1099,46.5021],[-84.1293,46.5313],[-84.2223,46.5343],[-84.2505,46.5027],[-84.3015,46.4944],[-84.3395,46.505],[-84.3711,46.5083],[-84.4174,46.4976],[-84.4167,46.487],[-84.4079,46.4901],[-84.3752,46.5019],[-84.3428,46.5042],[-84.2992,46.4856],[-84.2206,46.3532],[-84.2175,46.2908],[-84.1912,46.2711],[-84.2116,46.233],[-84.2713,46.1978],[-84.2415,46.1854],[-84.2478,46.1745],[-84.216,46.1639],[-84.1771,46.1862],[-84.0872,46.147],[-84.0266,46.1345],[-84.0688,46.0945],[-83.9803,46.0219],[-83.9368,46.0293],[-83.8945,45.9892],[-84.0123,45.9566],[-84.0929,45.9722],[-84.1227,45.981],[-84.1792,45.9756],[-84.2143,45.9844],[-84.2968,45.9835],[-84.3186,45.9994],[-84.3593,45.995],[-84.4664,46.0076],[-84.5326,46.0054],[-84.5594,46.0309],[-84.608,46.0275],[-84.6551,46.0524],[-84.6925,46.0282],[-84.6929,45.987],[-84.7379,45.9459],[-84.7217,45.8652],[-84.7026,45.848],[-84.7313,45.8461],[-84.7301,45.7865],[-84.7252,45.7847],[-84.7242,45.7737],[-84.7211,45.7673],[-84.5751,45.7131],[-84.4739,45.654],[-84.4147,45.6508],[-84.3218,45.6626],[-84.2184,45.6367],[-84.1378,45.5745],[-84.1185,45.5147],[-84.0459,45.4905],[-83.9398,45.4927],[-83.9057,45.4838],[-83.8458,45.4374],[-83.7704,45.4071],[-83.7143,45.4128],[-83.6067,45.3625],[-83.5922,45.3535],[-83.585,45.3543],[-83.5717,45.348],[-83.4958,45.3605],[-83.484,45.3502],[-83.4166,45.2628],[-83.4155,45.2586],[-83.3973,45.2175],[-83.3875,45.2059],[-83.3301,45.146],[-83.318,45.1421],[-83.3138,45.0547],[-83.2666,45.0285],[-83.2925,45.0273],[-83.4211,45.0668],[-83.4533,45.0114],[-83.4639,45.0057],[-83.4408,44.9467],[-83.3969,44.905],[-83.3162,44.8808],[-83.3207,44.853],[-83.2934,44.8054],[-83.298,44.7484],[-83.2935,44.7346],[-83.2727,44.7122],[-83.3074,44.6322],[-83.3182,44.512],[-83.3245,44.4036],[-83.3377,44.3282],[-83.3707,44.3317],[-83.4284,44.2724],[-83.4791,44.2808],[-83.5068,44.2755],[-83.5285,44.261],[-83.5573,44.1868],[-83.5688,44.1552],[-83.5683,44.1223],[-83.608,44.058],[-83.6763,44.039],[-83.6985,43.993],[-83.7624,43.9866],[-83.7776,43.9869],[-83.8356,43.9995],[-83.9113,43.9153],[-83.9144,43.9017],[-83.9259,43.7985],[-83.9548,43.7558],[-83.909,43.6747],[-83.8232,43.6361],[-83.7816,43.6321],[-83.7038,43.6004],[-83.694,43.5929],[-83.6473,43.6056],[-83.5259,43.724],[-83.472,43.7392],[-83.4624,43.7417],[-83.3264,43.8989],[-83.3747,43.9137],[-83.314,43.9209],[-83.2754,43.9451],[-83.2642,43.979],[-83.1787,43.986],[-83.1172,44.0063],[-83.0671,44.0037],[-83.0305,44.0474],[-82.9256,44.0706],[-82.8753,44.0464],[-82.7967,44.0274],[-82.7408,43.9916],[-82.6358,43.8345],[-82.6099,43.6998],[-82.6041,43.6782],[-82.6009,43.6029],[-82.5854,43.541],[-82.5395,43.4385],[-82.5318,43.3103],[-82.5169,43.2092],[-82.5079,43.1907],[-82.4999,43.1663],[-82.4949,43.1448],[-82.4853,43.1044],[-82.424,43.0156],[-82.4275,42.9975],[-82.4196,42.9723],[-82.4151,42.9746],[-82.4237,42.9923]],[[-83.3203,44.89],[-83.3298,44.893],[-83.3214,44.8941],[-83.3203,44.89]],[[-83.4272,45.0181],[-83.4206,45.0216],[-83.4208,45.017],[-83.4272,45.0181]],[[-83.22,45.0424],[-83.2284,45.0435],[-83.2236,45.0503],[-83.22,45.0424]],[[-83.2112,45.0509],[-83.2015,45.0525],[-83.1909,45.0445],[-83.193,45.0404],[-83.2027,45.0397],[-83.2112,45.0509]],[[-83.2918,45.0679],[-83.3067,45.0665],[-83.2991,45.0777],[-83.2918,45.0679]],[[-83.831,45.9389],[-83.8334,45.9454],[-83.8243,45.9438],[-83.831,45.9389]],[[-84.0322,45.9501],[-84.0394,45.9507],[-84.0352,45.9565],[-84.0287,45.9564],[-84.0322,45.9501]],[[-83.9153,45.9589],[-83.9231,45.9604],[-83.9139,45.9625],[-83.9153,45.9589]],[[-83.88,45.9587],[-83.8838,45.9624],[-83.8798,45.9641],[-83.88,45.9587]],[[-83.8839,46.0251],[-83.887,46.0284],[-83.8844,46.0297],[-83.8839,46.0251]],[[-83.9714,46.0327],[-83.9669,46.0313],[-83.967,46.0276],[-83.9716,46.0277],[-83.9714,46.0327]],[[-83.8302,46.0392],[-83.8238,46.0368],[-83.8297,46.0355],[-83.8302,46.0392]],[[-83.9306,46.0379],[-83.9403,46.0413],[-83.9318,46.0407],[-83.9306,46.0379]],[[-83.7184,46.0484],[-83.7248,46.0536],[-83.7201,46.0558],[-83.7184,46.0484]],[[-83.8722,46.0551],[-83.8769,46.0534],[-83.876,46.0584],[-83.8722,46.0551]],[[-83.8447,46.0541],[-83.8565,46.0548],[-83.8577,46.0576],[-83.842,46.0568],[-83.8447,46.0541]],[[-83.8216,46.0587],[-83.8295,46.0575],[-83.8287,46.0611],[-83.8216,46.0587]],[[-83.7702,46.0499],[-83.7704,46.044],[-83.7759,46.0528],[-83.7671,46.0595],[-83.7551,46.0656],[-83.7702,46.0499]],[[-83.8843,46.065],[-83.8743,46.0689],[-83.8751,46.0662],[-83.8843,46.065]],[[-83.6985,46.07],[-83.7077,46.0683],[-83.7096,46.072],[-83.6985,46.07]],[[-83.7153,46.0749],[-83.7238,46.0765],[-83.7172,46.0768],[-83.7153,46.0749]],[[-83.8569,46.0777],[-83.8623,46.0746],[-83.868,46.0784],[-83.8614,46.081],[-83.8569,46.0777]],[[-83.9776,46.0777],[-84.004,46.0897],[-83.98,46.0833],[-83.9776,46.0777]],[[-83.7633,46.0891],[-83.7663,46.0956],[-83.7559,46.0931],[-83.7581,46.0891],[-83.7633,46.0891]],[[-83.9762,46.096],[-83.9836,46.0929],[-83.9794,46.0984],[-83.9762,46.096]],[[-83.5822,46.09],[-83.5775,46.0766],[-83.5426,46.0213],[-83.4727,45.9873],[-83.5202,45.9215],[-83.5826,45.9174],[-83.6365,45.956],[-83.7161,45.9321],[-83.7656,45.9541],[-83.8835,45.9688],[-83.8702,46.0056],[-83.803,45.9842],[-83.7573,46.0272],[-83.6744,46.0507],[-83.7228,46.1002],[-83.6315,46.1029],[-83.5822,46.09]],[[-84.2068,46.1821],[-84.2086,46.1871],[-84.2,46.1884],[-84.2068,46.1821]],[[-84.1385,46.1997],[-84.1393,46.1956],[-84.1444,46.2012],[-84.1385,46.1997]],[[-84.2079,46.2087],[-84.2172,46.2033],[-84.2118,46.2097],[-84.2079,46.2087]],[[-84.1663,46.2121],[-84.1558,46.2119],[-84.158,46.2055],[-84.1663,46.2121]],[[-84.2201,46.2144],[-84.2275,46.2122],[-84.2253,46.2168],[-84.2201,46.2144]],[[-84.1657,46.2313],[-84.1698,46.2263],[-84.1736,46.2296],[-84.1657,46.2313]],[[-84.1175,46.2374],[-84.1329,46.2289],[-84.1479,46.2127],[-84.1635,46.2189],[-84.1539,46.2288],[-84.2082,46.293],[-84.2066,46.3204],[-84.1358,46.3119],[-84.1175,46.2374]],[[-84.2097,46.3278],[-84.2023,46.3314],[-84.2004,46.329],[-84.2084,46.326],[-84.2097,46.3278]],[[-84.2015,46.3359],[-84.2074,46.3374],[-84.2001,46.3382],[-84.2015,46.3359]],[[-84.237,46.4135],[-84.2448,46.4164],[-84.2363,46.4163],[-84.237,46.4135]],[[-84.1568,46.3888],[-84.1504,46.3639],[-84.1473,46.3598],[-84.1437,46.368],[-84.1117,46.3252],[-84.1732,46.3345],[-84.184,46.3654],[-84.224,46.3904],[-84.2421,46.4379],[-84.2492,46.4632],[-84.2555,46.4693],[-84.2602,46.4671],[-84.2723,46.4609],[-84.2857,46.4767],[-84.28,46.4885],[-84.2364,46.507],[-84.2181,46.5295],[-84.1386,46.5292],[-84.1507,46.4671],[-84.1908,46.4169],[-84.178,46.4057],[-84.1632,46.3935],[-84.1568,46.3888]],[[-83.4597,43.7576],[-83.4686,43.7583],[-83.4614,43.7631],[-83.4597,43.7576]],[[-83.4911,43.7647],[-83.4959,43.7721],[-83.4871,43.771],[-83.4911,43.7647]],[[-84.4246,45.9186],[-84.4331,45.9188],[-84.4328,45.9297],[-84.4246,45.9186]],[[-84.3496,45.9523],[-84.3433,45.9444],[-84.3656,45.9411],[-84.3805,45.9459],[-84.417,45.9524],[-84.4351,45.96],[-84.3845,45.9876],[-84.3496,45.9523]],[[-84.5626,45.9436],[-84.5704,45.9446],[-84.5683,45.9482],[-84.5599,45.9458],[-84.5626,45.9436]],[[-84.6302,45.9587],[-84.6344,45.9738],[-84.6071,45.9648],[-84.623,45.9572],[-84.6302,45.9587]],[[-84.4209,45.973],[-84.4287,45.9745],[-84.4383,45.982],[-84.4209,45.973]],[[-84.3427,45.9618],[-84.3366,45.969],[-84.3466,45.9847],[-84.3327,45.9872],[-84.3186,45.9586],[-84.3421,45.9599],[-84.3427,45.9618]],[[-84.3009,45.9794],[-84.3074,45.9795],[-84.3149,45.9906],[-84.3009,45.9794]],[[-84.2612,45.9714],[-84.2722,45.9744],[-84.2702,45.9775],[-84.2624,45.9765],[-84.2612,45.9714]],[[-84.601,45.8585],[-84.6026,45.8489],[-84.6137,45.8482],[-84.601,45.8585]],[[-84.6072,45.8247],[-84.609,45.8298],[-84.6154,45.8349],[-84.5922,45.8213],[-84.6072,45.8247]],[[-84.389,45.784],[-84.3554,45.7707],[-84.4178,45.7186],[-84.4962,45.7353],[-84.5469,45.7877],[-84.5057,45.8109],[-84.389,45.784]]]},"properties":{"GID_0":"USA","GID_1":"USA.23_1","GID_2":"USA.23.44_1","NAME_1":"Michigan","NAME_2":"LakeHurron"}},
{"type":"Feature","geometry":{"type":"MultiPolygon","coordinates":[[[[-87.6173,45.1012],[-87.4373,45.0778],[-87.4035,45.2045],[-87.3075,45.243],[-87.1797,45.3424],[-87.0963,45.442],[-86.7605,45.444],[-86.2496,45.2338],[-86.4284,45.1272],[-86.5085,45.0665],[-86.6438,44.934],[-86.7029,44.8527],[-86.7916,44.6901],[-86.8627,44.5335],[-86.9652,44.2582],[-87.0344,44.0461],[-87.0814,43.8869],[-87.1248,43.7105],[-87.1482,43.571],[-87.1552,43.4436],[-87.1438,43.3053],[-87.1233,43.1971],[-87.0181,42.4947],[-87.069,42.3391],[-87.2071,41.7607],[-86.8262,41.7609],[-86.7064,41.8265],[-86.6092,41.9029],[-86.4883,42.1137],[-86.4158,42.1836],[-86.3544,42.2612],[-86.2814,42.4065],[-86.2582,42.4569],[-86.2273,42.5927],[-86.2321,42.6218],[-86.208,42.7381],[-86.2115,42.7795],[-86.2153,42.9168],[-86.227,42.9896],[-86.2598,43.0929],[-86.261,43.1015],[-86.2816,43.1407],[-86.3379,43.2267],[-86.3975,43.3209],[-86.4534,43.4484],[-86.4679,43.4957],[-86.5336,43.604],[-86.5273,43.6801],[-86.4456,43.7643],[-86.4285,43.8153],[-86.4341,43.8595],[-86.4607,43.9711],[-86.5173,44.0604],[-86.4428,44.1082],[-86.3949,44.1715],[-86.3879,44.1815],[-86.3579,44.2111],[-86.3393,44.2507],[-86.2669,44.3464],[-86.2487,44.4188],[-86.2459,44.4872],[-86.2252,44.5428],[-86.2225,44.5838],[-86.2581,44.6564],[-86.2541,44.6925],[-86.155,44.731],[-86.1159,44.7277],[-86.0764,44.7677],[-86.0801,44.7915],[-86.069,44.8216],[-86.0795,44.8873],[-86.0394,44.9191],[-85.9776,44.9038],[-85.932,44.9698],[-85.8749,44.9404],[-85.8233,44.9433],[-85.783,44.976],[-85.7826,45.013],[-85.7505,45.0525],[-85.6835,45.0937],[-85.6787,45.1188],[-85.6216,45.186],[-85.5533,45.2116],[-85.5416,45.2106],[-85.5285,45.1826],[-85.6165,45.1275],[-85.5852,45.0547],[-85.6482,44.9743],[-85.6354,44.9655],[-85.6009,44.989],[-85.6038,44.9694],[-85.6044,44.9242],[-85.631,44.9103],[-85.6512,44.8406],[-85.6385,44.7729],[-85.5948,44.7736],[-85.5794,44.8159],[-85.4879,44.9567],[-85.495,44.866],[-85.5082,44.8464],[-85.5569,44.8135],[-85.5606,44.782],[-85.5738,44.7575],[-85.5341,44.7476],[-85.5024,44.8017],[-85.4501,44.8551],[-85.4345,44.8664],[-85.3845,44.9669],[-85.3819,45.0513],[-85.366,45.1092],[-85.3891,45.2016],[-85.3921,45.2103],[-85.3913,45.2208],[-85.379,45.2641],[-85.3047,45.3211],[-85.2789,45.3144],[-85.2587,45.3234],[-85.212,45.3586],[-85.2035,45.3622],[-85.1158,45.3677],[-85.0743,45.3663],[-84.9728,45.3757],[-84.9239,45.3898],[-84.9341,45.4224],[-85.0345,45.4326],[-85.0965,45.4827],[-85.112,45.5189],[-85.1192,45.5794],[-85.0679,45.6355],[-85.0081,45.6555],[-84.9389,45.7215],[-84.9308,45.758],[-84.8071,45.7455],[-84.7946,45.7495],[-84.7866,45.7557],[-84.7882,45.7704],[-84.7448,45.7822],[-84.7301,45.7865],[-84.7313,45.8461],[-84.7432,45.8458],[-84.8393,45.8964],[-84.917,45.9266],[-85.0061,46.0091],[-85.1324,46.0457],[-85.2573,46.0629],[-85.3426,46.0943],[-85.3803,46.0777],[-85.4081,46.0999],[-85.5309,46.0876],[-85.6012,46.0326],[-85.6538,45.9675],[-85.6925,45.9595],[-85.8101,45.9798],[-85.8646,45.9682],[-85.9564,45.9379],[-86.0048,45.9528],[-86.0557,45.9635],[-86.0969,45.9668],[-86.1507,45.9532],[-86.1991,45.9634],[-86.2168,45.9589],[-86.2312,45.9461],[-86.2692,45.9448],[-86.3196,45.9101],[-86.3572,45.7921],[-86.3768,45.7907],[-86.4133,45.7953],[-86.4551,45.7588],[-86.4649,45.7592],[-86.476,45.7647],[-86.536,45.7414],[-86.536,45.7108],[-86.5432,45.7094],[-86.6285,45.6604],[-86.6173,45.622],[-86.6799,45.6269],[-86.7217,45.6767],[-86.6833,45.6878],[-86.6638,45.7289],[-86.6221,45.7509],[-86.5602,45.8091],[-86.5289,45.8571],[-86.5688,45.8992],[-86.5858,45.896],[-86.6706,45.8364],[-86.7805,45.8605],[-86.7731,45.8125],[-86.8672,45.7093],[-86.9865,45.7057],[-86.9771,45.7529],[-87.0077,45.8305],[-86.9524,45.8728],[-86.9769,45.9071],[-87.0572,45.8125],[-87.064,45.7699],[-87.0625,45.753],[-87.0726,45.7159],[-87.1699,45.6647],[-87.2644,45.5527],[-87.2695,45.5467],[-87.336,45.4476],[-87.3306,45.4307],[-87.394,45.3691],[-87.4409,45.2924],[-87.5424,45.1939],[-87.586,45.1698],[-87.6173,45.1012]],[[-85.6951,45.745],[-85.6429,45.7433],[-85.6865,45.6978],[-85.6983,45.6974],[-85.7017,45.7377],[-85.6958,45.7422],[-85.6951,45.745]],[[-85.5036,45.7213],[-85.4985,45.7148],[-85.505,45.6742],[-85.4917,45.6064],[-85.5599,45.5694],[-85.6196,45.5799],[-85.6243,45.6229],[-85.6065,45.6831],[-85.5404,45.7517],[-85.5036,45.7213]],[[-85.6804,45.7746],[-85.6901,45.7779],[-85.6894,45.7811],[-85.6784,45.7787],[-85.6804,45.7746]],[[-85.3711,45.8053],[-85.3763,45.8109],[-85.351,45.8024],[-85.3583,45.7901],[-85.3711,45.8053]],[[-85.4793,45.7751],[-85.4924,45.7734],[-85.4708,45.78],[-85.4774,45.7742],[-85.4793,45.7751]],[[-86.7075,45.5012],[-86.7153,45.5026],[-86.7094,45.5076],[-86.7075,45.5012]],[[-86.6575,45.5214],[-86.6659,45.525],[-86.664,45.5346],[-86.6575,45.5214]],[[-86.6935,45.616],[-86.6772,45.6132],[-86.6902,45.6045],[-86.6935,45.616]],[[-86.6476,45.7495],[-86.6469,45.7431],[-86.6541,45.7399],[-86.6476,45.7495]],[[-85.0162,45.7608],[-85.0272,45.7645],[-85.0238,45.7732],[-85.0155,45.7639],[-85.0162,45.7608]],[[-84.7495,45.8294],[-84.7519,45.8354],[-84.7434,45.8357],[-84.7495,45.8294]],[[-85.7685,45.4724],[-85.7719,45.4619],[-85.78,45.4912],[-85.771,45.4825],[-85.7685,45.4724]],[[-86.052,45.1561],[-85.9778,45.1371],[-85.9859,45.0837],[-86.0421,45.0899],[-86.0608,45.0986],[-86.0657,45.1365],[-86.0611,45.1475],[-86.052,45.1561]]],[[[-86.0786,45.0311],[-86.0948,45.0321],[-86.1012,45.028],[-86.0786,45.0311]]]]},"properties":{"GID_0":"USA","GID_1":"USA.23_1","GID_2":"USA.23.45_1","NAME_1":"Michigan","NAME_2":"LakeMichigan"}},
{"type":"Feature","geometry":{"type":"MultiPolygon","coordinates":[[[[-83.0183,42.335],[-82.995,42.3303],[-82.9358,42.3446],[-82.8683,42.3276],[-82.8661,42.3649],[-82.828,42.3735],[-82.6412,42.5548],[-82.6002,42.5496],[-82.5213,42.6104],[-82.483,42.7089],[-82.4779,42.7365],[-82.4674,42.7552],[-82.4669,42.7739],[-82.4782,42.8031],[-82.4532,42.9257],[-82.4113,42.9707],[-82.4237,42.9923],[-82.4151,42.9746],[-82.4196,42.9723],[-82.4556,42.9365],[-82.4764,42.8911],[-82.4851,42.8168],[-82.4696,42.7599],[-82.4875,42.7422],[-82.4888,42.72],[-82.5117,42.6702],[-82.5165,42.6298],[-82.5375,42.6109],[-82.6323,42.6433],[-82.6235,42.6563],[-82.6877,42.6914],[-82.7276,42.6807],[-82.8002,42.6541],[-82.8252,42.5702],[-82.8623,42.5408],[-82.8771,42.5194],[-82.8687,42.4537],[-82.8938,42.3898],[-82.9308,42.3585],[-82.9863,42.355],[-83.0183,42.335]],[[-82.5622,42.6157],[-82.5466,42.6053],[-82.5371,42.6068],[-82.5266,42.617],[-82.529,42.607],[-82.5824,42.5663],[-82.6162,42.5751],[-82.5927,42.6158],[-82.5622,42.6157]],[[-82.6669,42.582],[-82.6626,42.581],[-82.6447,42.5905],[-82.6678,42.5771],[-82.6669,42.582]],[[-82.6212,42.6189],[-82.6358,42.6266],[-82.6431,42.6191],[-82.6401,42.6281],[-82.597,42.6182],[-82.6237,42.5971],[-82.6406,42.5958],[-82.6212,42.6189]],[[-82.6814,42.5338],[-82.6885,42.5299],[-82.6842,42.5393],[-82.6814,42.5338]]],[[[-82.6537,42.6189],[-82.6495,42.6261],[-82.6657,42.6375],[-82.6537,42.6189]]]]},"properties":{"GID_0":"USA","GID_1":"USA.23_1","GID_2":"USA.23.46_1","NAME_1":"Michigan","NAME_2":"LakeSt.Clair"}},
{"type":"Feature","geometry":{"type":"Polygon","coordinates":[[[-84.4174,46.4976],[-84.4456,46.4881],[-84.4764,46.4532],[-84.5561,46.4597],[-84.7638,46.6349],[-84.8434,46.8873],[-86.0434,47.3856],[-86.7729,47.6817],[-87.4059,47.9341],[-87.8649,48.1137],[-88.3709,48.3042],[-88.689,48.2415],[-89.3391,47.9699],[-89.4877,48.0109],[-89.958,47.2912],[-90.4187,46.567],[-90.3305,46.6097],[-90.305,46.6044],[-90.1749,46.6433],[-90.0187,46.6782],[-89.899,46.7592],[-89.8441,46.8],[-89.7769,46.8223],[-89.7433,46.8282],[-89.6686,46.8336],[-89.6163,46.8205],[-89.5112,46.8435],[-89.4078,46.8462],[-89.2203,46.918],[-89.129,46.9937],[-89.0427,46.9981],[-89.0209,47.0022],[-88.9405,47.0229],[-88.9132,47.0578],[-88.8883,47.1042],[-88.7701,47.153],[-88.6551,47.2256],[-88.6499,47.1692],[-88.6157,47.1192],[-88.5241,47.1109],[-88.4939,47.0361],[-88.4456,47.0005],[-88.4466,46.9688],[-88.4505,46.9407],[-88.4559,46.9236],[-88.4754,46.8862],[-88.4796,46.7843],[-88.4962,46.7638],[-88.4577,46.7589],[-88.3838,46.8402],[-88.2436,46.9306],[-88.1574,46.9643],[-88.1394,46.9081],[-88.0766,46.9207],[-88.0633,46.9186],[-88.0385,46.9097],[-87.9051,46.9111],[-87.8775,46.8962],[-87.8481,46.886],[-87.7796,46.8797],[-87.7123,46.8257],[-87.6331,46.8117],[-87.5922,46.7822],[-87.5834,46.7305],[-87.506,46.6471],[-87.4668,46.6369],[-87.4331,46.5908],[-87.3894,46.5847],[-87.3802,46.5393],[-87.3546,46.5015],[-87.2977,46.489],[-87.2337,46.4875],[-87.119,46.4959],[-87.023,46.5334],[-86.9787,46.5271],[-86.9574,46.502],[-86.954,46.4928],[-86.9454,46.4796],[-86.8706,46.4376],[-86.8212,46.4391],[-86.789,46.4786],[-86.7343,46.4755],[-86.7078,46.443],[-86.6669,46.4468],[-86.6405,46.4124],[-86.5615,46.4881],[-86.448,46.5468],[-86.3753,46.5669],[-86.2662,46.6149],[-86.1568,46.6725],[-86.0789,46.6567],[-85.9735,46.6811],[-85.8642,46.6925],[-85.7697,46.6797],[-85.6711,46.6823],[-85.5203,46.6758],[-85.4965,46.678],[-85.3688,46.715],[-85.2488,46.7562],[-85.2157,46.7587],[-85.1625,46.7664],[-85.0347,46.7624],[-84.9728,46.7745],[-85.0226,46.7108],[-85.0369,46.6023],[-85.0255,46.554],[-85.0573,46.5204],[-85.0381,46.4909],[-85.0231,46.482],[-84.8664,46.4702],[-84.7984,46.4469],[-84.6772,46.4889],[-84.6246,46.4831],[-84.5746,46.4329],[-84.4663,46.4368],[-84.4541,46.4706],[-84.4167,46.487],[-84.4174,46.4976]],[[-86.7112,46.4751],[-86.7211,46.4792],[-86.7205,46.4847],[-86.7112,46.4751]],[[-86.7476,46.5154],[-86.7338,46.5186],[-86.7337,46.5035],[-86.7476,46.5154]],[[-86.6485,46.4614],[-86.6367,46.4706],[-86.6598,46.4701],[-86.6696,46.4522],[-86.6901,46.4559],[-86.6875,46.4985],[-86.7128,46.5457],[-86.6547,46.5627],[-86.6289,46.5352],[-86.6473,46.4853],[-86.6083,46.4725],[-86.6235,46.456],[-86.6485,46.4614]],[[-84.5229,46.4432],[-84.5117,46.4426],[-84.521,46.4386],[-84.5229,46.4432]],[[-84.959,46.4859],[-84.965,46.4846],[-84.9662,46.4892],[-84.959,46.4859]],[[-84.9528,46.5271],[-84.9561,46.5276],[-84.95,46.5317],[-84.9528,46.5271]],[[-88.5142,47.2857],[-88.4258,47.3688],[-88.188,47.4569],[-87.9401,47.4795],[-87.8501,47.4684],[-87.8108,47.4766],[-87.7197,47.443],[-87.7545,47.4054],[-87.8169,47.3842],[-87.8506,47.3962],[-87.9601,47.385],[-87.9378,47.3453],[-88.0609,47.2961],[-88.1677,47.2145],[-88.2176,47.2079],[-88.2352,47.1934],[-88.2477,47.1358],[-88.2837,47.1368],[-88.3006,47.0975],[-88.35,47.0766],[-88.3709,47.0157],[-88.4124,46.9798],[-88.4731,47.0308],[-88.4643,47.07],[-88.5051,47.1195],[-88.6119,47.1271],[-88.6394,47.1717],[-88.6241,47.2344],[-88.5783,47.2447],[-88.5142,47.2857]],[[-88.799,47.8835],[-88.7819,47.8957],[-88.7803,47.8898],[-88.7935,47.8817],[-88.799,47.8835]],[[-88.7899,47.9311],[-88.8026,47.9286],[-88.8081,47.9308],[-88.7982,47.9374],[-88.7899,47.9311]],[[-88.5735,48.17],[-88.5627,48.1687],[-88.5734,48.1654],[-88.5735,48.17]],[[-88.552,48.173],[-88.5508,48.1781],[-88.5439,48.1755],[-88.552,48.173]],[[-89.1045,47.8366],[-89.119,47.829],[-89.1763,47.8298],[-89.2299,47.8554],[-89.1974,47.8828],[-89.22,47.9077],[-89.1779,47.9343],[-88.8516,48.0517],[-88.7744,48.0686],[-88.7636,48.0868],[-88.656,48.1263],[-88.5313,48.1618],[-88.5135,48.133],[-88.5804,48.0892],[-88.5887,48.0522],[-88.6333,48.0308],[-88.7574,47.986],[-88.8066,47.9852],[-89.0008,47.9076],[-88.9158,47.8893],[-89.1045,47.8366]],[[-87.9953,46.9675],[-87.9925,46.9602],[-88.0032,46.9624],[-87.9953,46.9675]],[[-87.4155,46.6115],[-87.4134,46.6015],[-87.4201,46.6042],[-87.4155,46.6115]],[[-87.3739,46.5619],[-87.3818,46.5595],[-87.3799,46.565],[-87.3739,46.5619]]]},"properties":{"GID_0":"USA","GID_1":"USA.23_1","GID_2":"USA.23.47_1","NAME_1":"Michigan","NAME_2":"LakeSuperior"}},
{"type":"Feature","geometry":{"type":"Polygon","coordinates":[[[-83.4546,42.8798],[-83.2227,42.887],[-83.1025,42.8884],[-82.9839,42.8939],[-82.9945,43.1545],[-83.0003,43.2862],[-83.12,43.2844],[-83.1217,43.3267],[-83.3537,43.3225],[-83.3533,43.2351],[-83.4609,43.2335],[-83.455,42.9681],[-83.4546,42.8798]]]},"properties":{"GID_0":"USA","GID_1":"USA.23_1","GID_2":"USA.23.48_1","NAME_1":"Michigan","NAME_2":"Lapeer"}},
{"type":"Feature","geometry":{"type":"MultiPolygon","coordinates":[[[[-86.0783,44.7778],[-85.945,44.7764],[-85.6385,44.7729],[-85.6512,44.8406],[-85.631,44.9103],[-85.6044,44.9242],[-85.6038,44.9694],[-85.6009,44.989],[-85.6354,44.9655],[-85.6482,44.9743],[-85.5852,45.0547],[-85.6165,45.1275],[-85.5285,45.1826],[-85.5416,45.2106],[-85.5533,45.2116],[-85.6216,45.186],[-85.6787,45.1188],[-85.6835,45.0937],[-85.7505,45.0525],[-85.7826,45.013],[-85.783,44.976],[-85.8233,44.9433],[-85.8749,44.9404],[-85.932,44.9698],[-85.9776,44.9038],[-86.0394,44.9191],[-86.0795,44.8873],[-86.069,44.8216],[-86.0801,44.7915],[-86.0783,44.7778]]],[[[-85.7719,45.4619],[-85.7685,45.4724],[-85.771,45.4825],[-85.78,45.4912],[-85.7719,45.4619]]],[[[-86.0608,45.0986],[-86.0421,45.0899],[-85.9859,45.0837],[-85.9778,45.1371],[-86.052,45.1561],[-86.0611,45.1475],[-86.0657,45.1365],[-86.0608,45.0986]]]]},"properties":{"GID_0":"USA","GID_1":"USA.23_1","GID_2":"USA.23.49_1","NAME_1":"Michigan","NAME_2":"Leelanau"}},
{"type":"Feature","geometry":{"type":"Polygon","coordinates":[[[-84.3623,41.7082],[-83.9997,41.7157],[-83.7663,41.7229],[-83.7763,42.0823],[-84.0164,42.0789],[-84.1353,42.073],[-84.3666,42.0734],[-84.3623,41.7082]]]},"properties":{"GID_0":"USA","GID_1":"USA.23_1","GID_2":"USA.23.50_1","NAME_1":"Michigan","NAME_2":"Lenawee"}},
{"type":"Feature","geometry":{"type":"Polygon","coordinates":[[[-83.9225,42.7812],[-84.1593,42.7779],[-84.146,42.5999],[-84.1402,42.4239],[-84.0196,42.423],[-83.6669,42.4312],[-83.6733,42.5196],[-83.6863,42.7822],[-83.9225,42.7812]]]},"properties":{"GID_0":"USA","GID_1":"USA.23_1","GID_2":"USA.23.51_1","NAME_1":"Michigan","NAME_2":"Livingston"}},
{"type":"Feature","geometry":{"type":"Polygon","coordinates":[[[-85.864,46.5041],[-85.8652,46.2447],[-85.2368,46.2454],[-85.2416,46.7561],[-85.2488,46.7562],[-85.3688,46.715],[-85.4965,46.678],[-85.5203,46.6758],[-85.6711,46.6823],[-85.7697,46.6797],[-85.8642,46.6925],[-85.864,46.5041]]]},"properties":{"GID_0":"USA","GID_1":"USA.23_1","GID_2":"USA.23.52_1","NAME_1":"Michigan","NAME_2":"Luce"}},
{"type":"Feature","geometry":{"type":"MultiPolygon","coordinates":[[[[-84.3433,45.9444],[-84.3496,45.9523],[-84.3845,45.9876],[-84.4351,45.96],[-84.417,45.9524],[-84.3805,45.9459],[-84.3656,45.9411],[-84.3433,45.9444]]],[[[-84.4383,45.982],[-84.4287,45.9745],[-84.4209,45.973],[-84.4383,45.982]]],[[[-84.3366,45.969],[-84.3427,45.9618],[-84.3421,45.9599],[-84.3186,45.9586],[-84.3327,45.9872],[-84.3466,45.9847],[-84.3366,45.969]]],[[[-84.2722,45.9744],[-84.2612,45.9714],[-84.2624,45.9765],[-84.2702,45.9775],[-84.2722,45.9744]]],[[[-84.3074,45.9795],[-84.3009,45.9794],[-84.3149,45.9906],[-84.3074,45.9795]]],[[[-84.389,45.784],[-84.5057,45.8109],[-84.5469,45.7877],[-84.4962,45.7353],[-84.4178,45.7186],[-84.3554,45.7707],[-84.389,45.784]]],[[[-84.4331,45.9188],[-84.4246,45.9186],[-84.4328,45.9297],[-84.4331,45.9188]]],[[[-84.5704,45.9446],[-84.5626,45.9436],[-84.5599,45.9458],[-84.5683,45.9482],[-84.5704,45.9446]]],[[[-84.6154,45.8349],[-84.609,45.8298],[-84.6072,45.8247],[-84.5922,45.8213],[-84.6154,45.8349]]],[[[-84.7434,45.8357],[-84.7519,45.8354],[-84.7495,45.8294],[-84.7434,45.8357]]],[[[-84.6137,45.8482],[-84.6026,45.8489],[-84.601,45.8585],[-84.6137,45.8482]]],[[[-84.6344,45.9738],[-84.6302,45.9587],[-84.623,45.9572],[-84.6071,45.9648],[-84.6344,45.9738]]],[[[-84.3646,46.1581],[-85.115,46.1572],[-85.1152,46.2447],[-85.8652,46.2447],[-85.8646,45.9682],[-85.8101,45.9798],[-85.6925,45.9595],[-85.6538,45.9675],[-85.6012,46.0326],[-85.5309,46.0876],[-85.4081,46.0999],[-85.3803,46.0777],[-85.3426,46.0943],[-85.2573,46.0629],[-85.1324,46.0457],[-85.0061,46.0091],[-84.917,45.9266],[-84.8393,45.8964],[-84.7432,45.8458],[-84.7026,45.848],[-84.7217,45.8652],[-84.7379,45.9459],[-84.6929,45.987],[-84.6925,46.0282],[-84.6551,46.0524],[-84.608,46.0275],[-84.5594,46.0309],[-84.5326,46.0054],[-84.4664,46.0076],[-84.3593,45.995],[-84.3186,45.9994],[-84.2968,45.9835],[-84.2143,45.9844],[-84.1792,45.9756],[-84.1227,45.981],[-84.113,45.979],[-84.1134,45.9859],[-84.2399,45.9886],[-84.2388,46.0722],[-84.3621,46.0715],[-84.3646,46.1581]]]]},"properties":{"GID_0":"USA","GID_1":"USA.23_1","GID_2":"USA.23.53_1","NAME_1":"Michigan","NAME_2":"Mackinac"}},
{"type":"Feature","geometry":{"type":"Polygon","coordinates":[[[-82.7276,42.6807],[-82.7384,42.8967],[-82.9839,42.8939],[-83.1025,42.8884],[-83.0867,42.5355],[-83.0843,42.4463],[-82.9691,42.4492],[-82.8687,42.4537],[-82.8771,42.5194],[-82.8623,42.5408],[-82.8252,42.5702],[-82.8002,42.6541],[-82.7276,42.6807]]]},"properties":{"GID_0":"USA","GID_1":"USA.23_1","GID_2":"USA.23.54_1","NAME_1":"Michigan","NAME_2":"Macomb"}},
{"type":"Feature","geometry":{"type":"Polygon","coordinates":[[[-86.2343,44.5186],[-86.2459,44.4872],[-86.2487,44.4188],[-86.2669,44.3464],[-86.3393,44.2507],[-86.3579,44.2111],[-86.3809,44.1897],[-86.3892,44.1797],[-86.0629,44.1667],[-85.9451,44.1636],[-85.8202,44.1634],[-85.8205,44.5117],[-86.0594,44.5141],[-86.2343,44.5186]]]},"properties":{"GID_0":"USA","GID_1":"USA.23_1","GID_2":"USA.23.55_1","NAME_1":"Michigan","NAME_2":"Manistee"}},
{"type":"Feature","geometry":{"type":"MultiPolygon","coordinates":[[[[-87.1178,46.1578],[-87.119,46.4959],[-87.2337,46.4875],[-87.2977,46.489],[-87.3546,46.5015],[-87.3802,46.5393],[-87.3894,46.5847],[-87.4331,46.5908],[-87.4668,46.6369],[-87.506,46.6471],[-87.5834,46.7305],[-87.5922,46.7822],[-87.6331,46.8117],[-87.7123,46.8257],[-87.7796,46.8797],[-87.8481,46.886],[-87.8775,46.8962],[-87.9051,46.9111],[-88.0385,46.9097],[-88.0459,46.9123],[-88.0464,46.7655],[-87.9921,46.7652],[-87.9921,46.6785],[-88.1185,46.6793],[-88.1178,46.2471],[-87.6189,46.2476],[-87.6203,45.9852],[-87.2465,45.9841],[-87.2445,46.1572],[-87.1178,46.1578]]],[[[-87.4201,46.6042],[-87.4134,46.6015],[-87.4155,46.6115],[-87.4201,46.6042]]],[[[-87.9925,46.9602],[-87.9953,46.9675],[-88.0032,46.9624],[-87.9925,46.9602]]],[[[-87.3799,46.565],[-87.3818,46.5595],[-87.3739,46.5619],[-87.3799,46.565]]]]},"properties":{"GID_0":"USA","GID_1":"USA.23_1","GID_2":"USA.23.56_1","NAME_1":"Michigan","NAME_2":"Marquette"}},
{"type":"Feature","geometry":{"type":"Polygon","coordinates":[[[-86.4291,43.8189],[-86.0386,43.8141],[-86.038,43.9024],[-86.0413,44.1662],[-86.3892,44.1797],[-86.3949,44.1715],[-86.4428,44.1082],[-86.5173,44.0604],[-86.4607,43.9711],[-86.4341,43.8595],[-86.4291,43.8189]]]},"properties":{"GID_0":"USA","GID_1":"USA.23_1","GID_2":"USA.23.57_1","NAME_1":"Michigan","NAME_2":"Mason"}},
{"type":"Feature","geometry":{"type":"Polygon","coordinates":[[[-85.0889,43.8124],[-85.5644,43.8143],[-85.563,43.6399],[-85.5641,43.466],[-85.4442,43.4674],[-85.0847,43.4663],[-85.0894,43.7267],[-85.0889,43.8124]]]},"properties":{"GID_0":"USA","GID_1":"USA.23_1","GID_2":"USA.23.58_1","NAME_1":"Michigan","NAME_2":"Mecosta"}},
{"type":"Feature","geometry":{"type":"Polygon","coordinates":[[[-87.3709,45.9847],[-87.6203,45.9852],[-87.6208,45.8973],[-87.6993,45.8976],[-87.6994,45.7219],[-87.8468,45.7218],[-87.7842,45.6753],[-87.828,45.6609],[-87.7827,45.6095],[-87.81,45.5444],[-87.7856,45.4929],[-87.8598,45.4398],[-87.8534,45.4073],[-87.8894,45.3621],[-87.7601,45.3493],[-87.7033,45.3866],[-87.6512,45.3461],[-87.7118,45.2647],[-87.7408,45.1755],[-87.6173,45.1012],[-87.586,45.1698],[-87.5424,45.1939],[-87.4409,45.2924],[-87.394,45.3691],[-87.3306,45.4307],[-87.336,45.4476],[-87.2695,45.5467],[-87.2676,45.549],[-87.3301,45.5495],[-87.3292,45.898],[-87.3704,45.8978],[-87.3709,45.9847]]]},"properties":{"GID_0":"USA","GID_1":"USA.23_1","GID_2":"USA.23.59_1","NAME_1":"Michigan","NAME_2":"Menominee"}},
{"type":"Feature","geometry":{"type":"Polygon","coordinates":[[[-84.169,43.8267],[-84.3669,43.8268],[-84.3673,43.8136],[-84.6076,43.8145],[-84.6084,43.4658],[-84.3718,43.4654],[-84.3713,43.4817],[-84.1719,43.4825],[-84.1682,43.7406],[-84.169,43.8267]]]},"properties":{"GID_0":"USA","GID_1":"USA.23_1","GID_2":"USA.23.60_1","NAME_1":"Michigan","NAME_2":"Midland"}},
{"type":"Feature","geometry":{"type":"Polygon","coordinates":[[[-84.8567,44.1605],[-84.8533,44.5106],[-85.3363,44.512],[-85.3333,44.166],[-84.8567,44.1605]]]},"properties":{"GID_0":"USA","GID_1":"USA.23_1","GID_2":"USA.23.61_1","NAME_1":"Michigan","NAME_2":"Missaukee"}},
{"type":"Feature","geometry":{"type":"Polygon","coordinates":[[[-83.7763,42.0823],[-83.769,41.8198],[-83.7663,41.7229],[-83.484,41.7328],[-83.4304,41.7633],[-83.4416,41.8027],[-83.3807,41.8689],[-83.3307,41.8986],[-83.2927,41.9453],[-83.2068,41.9995],[-83.1887,42.0309],[-83.2952,42.0944],[-83.4235,42.0876],[-83.7763,42.0823]]]},"properties":{"GID_0":"USA","GID_1":"USA.23_1","GID_2":"USA.23.62_1","NAME_1":"Michigan","NAME_2":"Monroe"}},
{"type":"Feature","geometry":{"type":"Polygon","coordinates":[[[-84.8469,43.4658],[-85.4442,43.4674],[-85.5641,43.466],[-85.5639,43.294],[-85.3147,43.2929],[-85.3127,43.1182],[-84.8382,43.1199],[-84.8372,43.2932],[-84.8472,43.2933],[-84.8469,43.4658]]]},"properties":{"GID_0":"USA","GID_1":"USA.23_1","GID_2":"USA.23.63_1","NAME_1":"Michigan","NAME_2":"Montcalm"}},
{"type":"Feature","geometry":{"type":"Polygon","coordinates":[[[-83.883,45.2018],[-84.0106,45.1987],[-84.3698,45.1985],[-84.3729,44.856],[-83.89,44.8553],[-83.8883,45.0311],[-83.8806,45.0309],[-83.883,45.2018]]]},"properties":{"GID_0":"USA","GID_1":"USA.23_1","GID_2":"USA.23.64_1","NAME_1":"Michigan","NAME_2":"Montmorency"}},
{"type":"Feature","geometry":{"type":"Polygon","coordinates":[[[-85.7917,43.2923],[-85.9093,43.291],[-86.0395,43.2934],[-86.0409,43.4667],[-86.4597,43.4721],[-86.4534,43.4484],[-86.3975,43.3209],[-86.3379,43.2267],[-86.2816,43.1407],[-86.2698,43.1175],[-85.907,43.119],[-85.9082,43.205],[-85.79,43.2035],[-85.7917,43.2923]]]},"properties":{"GID_0":"USA","GID_1":"USA.23_1","GID_2":"USA.23.65_1","NAME_1":"Michigan","NAME_2":"Muskegon"}},
{"type":"Feature","geometry":{"type":"Polygon","coordinates":[[[-85.5639,43.294],[-85.563,43.6399],[-85.5644,43.8143],[-86.0386,43.8141],[-86.041,43.5518],[-86.0395,43.2934],[-85.9093,43.291],[-85.5639,43.294]]]},"properties":{"GID_0":"USA","GID_1":"USA.23_1","GID_2":"USA.23.66_1","NAME_1":"Michigan","NAME_2":"Newaygo"}},
{"type":"Feature","geometry":{"type":"Polygon","coordinates":[[[-83.6863,42.7822],[-83.6733,42.5196],[-83.6669,42.4312],[-83.4403,42.4393],[-83.0843,42.4463],[-83.0867,42.5355],[-83.1025,42.8884],[-83.2227,42.887],[-83.4546,42.8798],[-83.4541,42.8766],[-83.6902,42.871],[-83.6863,42.7822]]]},"properties":{"GID_0":"USA","GID_1":"USA.23_1","GID_2":"USA.23.67_1","NAME_1":"Michigan","NAME_2":"Oakland"}},
{"type":"Feature","geometry":{"type":"Polygon","coordinates":[[[-86.4597,43.4721],[-86.0409,43.4667],[-86.0386,43.8141],[-86.4291,43.8189],[-86.4285,43.8153],[-86.4456,43.7643],[-86.5273,43.6801],[-86.5336,43.604],[-86.4679,43.4957],[-86.4597,43.4721]]]},"properties":{"GID_0":"USA","GID_1":"USA.23_1","GID_2":"USA.23.68_1","NAME_1":"Michigan","NAME_2":"Oceana"}},
{"type":"Feature","geometry":{"type":"Polygon","coordinates":[[[-83.8847,44.1622],[-83.8861,44.507],[-84.373,44.5075],[-84.3679,44.1613],[-83.8847,44.1622]]]},"properties":{"GID_0":"USA","GID_1":"USA.23_1","GID_2":"USA.23.69_1","NAME_1":"Michigan","NAME_2":"Ogemaw"}},
{"type":"Feature","geometry":{"type":"Polygon","coordinates":[[[-88.9921,46.3311],[-88.992,46.68],[-88.8643,46.6795],[-88.8641,46.7658],[-88.9317,46.7655],[-88.9355,47.0294],[-88.9405,47.0229],[-89.0209,47.0022],[-89.0427,46.9981],[-89.129,46.9937],[-89.2203,46.918],[-89.4078,46.8462],[-89.5112,46.8435],[-89.6163,46.8205],[-89.6686,46.8336],[-89.7433,46.8282],[-89.7769,46.8223],[-89.8441,46.8],[-89.8875,46.7677],[-89.863,46.7674],[-89.866,46.5934],[-89.7377,46.5919],[-89.7388,46.5071],[-89.365,46.5044],[-89.3661,46.3329],[-88.9921,46.3311]]]},"properties":{"GID_0":"USA","GID_1":"USA.23_1","GID_2":"USA.23.70_1","NAME_1":"Michigan","NAME_2":"Ontonagon"}},
{"type":"Feature","geometry":{"type":"Polygon","coordinates":[[[-85.0867,44.1631],[-85.3333,44.166],[-85.564,44.1655],[-85.562,43.9869],[-85.5644,43.8143],[-85.0889,43.8124],[-85.0867,44.1631]]]},"properties":{"GID_0":"USA","GID_1":"USA.23_1","GID_2":"USA.23.71_1","NAME_1":"Michigan","NAME_2":"Osceola"}},
{"type":"Feature","geometry":{"type":"Polygon","coordinates":[[[-83.89,44.8553],[-84.3729,44.856],[-84.373,44.5075],[-83.8861,44.507],[-83.89,44.8553]]]},"properties":{"GID_0":"USA","GID_1":"USA.23_1","GID_2":"USA.23.72_1","NAME_1":"Michigan","NAME_2":"Oscoda"}},
{"type":"Feature","geometry":{"type":"Polygon","coordinates":[[[-84.8513,44.8578],[-84.3729,44.856],[-84.3698,45.1985],[-84.7341,45.202],[-84.7364,45.1143],[-84.8605,45.1163],[-84.8606,45.0295],[-84.851,45.0294],[-84.8513,44.8578]]]},"properties":{"GID_0":"USA","GID_1":"USA.23_1","GID_2":"USA.23.73_1","NAME_1":"Michigan","NAME_2":"Otsego"}},
{"type":"Feature","geometry":{"type":"Polygon","coordinates":[[[-85.7839,42.7674],[-85.79,43.2035],[-85.9082,43.205],[-85.907,43.119],[-86.2698,43.1175],[-86.261,43.1015],[-86.2598,43.0929],[-86.227,42.9896],[-86.2153,42.9168],[-86.2115,42.7795],[-86.2091,42.769],[-86.018,42.7671],[-85.7839,42.7674]]]},"properties":{"GID_0":"USA","GID_1":"USA.23_1","GID_2":"USA.23.74_1","NAME_1":"Michigan","NAME_2":"Ottawa"}},
{"type":"Feature","geometry":{"type":"Polygon","coordinates":[[[-83.39,45.2087],[-83.3973,45.2175],[-83.4155,45.2586],[-83.4166,45.2628],[-83.484,45.3502],[-83.4958,45.3605],[-83.5717,45.348],[-83.585,45.3543],[-83.5922,45.3535],[-83.6067,45.3625],[-83.7143,45.4128],[-83.7704,45.4071],[-83.8458,45.4374],[-83.9057,45.4838],[-83.9398,45.4927],[-84.0459,45.4905],[-84.1185,45.5147],[-84.1378,45.5745],[-84.2184,45.6367],[-84.2508,45.6413],[-84.2493,45.4543],[-84.2544,45.2812],[-84.2486,45.2811],[-84.2507,45.1984],[-84.0106,45.1987],[-83.6393,45.2069],[-83.39,45.2087]]]},"properties":{"GID_0":"USA","GID_1":"USA.23_1","GID_2":"USA.23.75_1","NAME_1":"Michigan","NAME_2":"PresqueIsle"}},
{"type":"Feature","geometry":{"type":"Polygon","coordinates":[[[-84.6101,44.1595],[-84.3679,44.1613],[-84.373,44.5075],[-84.7303,44.5122],[-84.8533,44.5106],[-84.8567,44.1605],[-84.6101,44.1595]]]},"properties":{"GID_0":"USA","GID_1":"USA.23_1","GID_2":"USA.23.76_1","NAME_1":"Michigan","NAME_2":"Roscommon"}},
{"type":"Feature","geometry":{"type":"Polygon","coordinates":[[[-84.1702,43.5689],[-84.1719,43.4825],[-84.3713,43.4817],[-84.3717,43.3884],[-84.3684,43.1281],[-83.9294,43.1334],[-83.9318,43.2204],[-83.694,43.2223],[-83.7009,43.3941],[-83.7,43.4787],[-83.8186,43.478],[-83.8188,43.5217],[-84.0524,43.5235],[-84.0521,43.5668],[-84.1702,43.5689]]]},"properties":{"GID_0":"USA","GID_1":"USA.23_1","GID_2":"USA.23.77_1","NAME_1":"Michigan","NAME_2":"Saginaw"}},
{"type":"Feature","geometry":{"type":"MultiPolygon","coordinates":[[[[-82.6885,42.5299],[-82.6814,42.5338],[-82.6842,42.5393],[-82.6885,42.5299]]],[[[-82.5466,42.6053],[-82.5622,42.6157],[-82.5927,42.6158],[-82.6162,42.5751],[-82.5824,42.5663],[-82.529,42.607],[-82.5266,42.617],[-82.5371,42.6068],[-82.5466,42.6053]]],[[[-82.6626,42.581],[-82.6669,42.582],[-82.6678,42.5771],[-82.6447,42.5905],[-82.6626,42.581]]],[[[-82.6358,42.6266],[-82.6212,42.6189],[-82.6406,42.5958],[-82.6237,42.5971],[-82.597,42.6182],[-82.6401,42.6281],[-82.6431,42.6191],[-82.6358,42.6266]]],[[[-82.4949,43.1448],[-82.5009,43.1696],[-82.9945,43.1545],[-82.9839,42.8939],[-82.7384,42.8967],[-82.7276,42.6807],[-82.6877,42.6914],[-82.6235,42.6563],[-82.6323,42.6433],[-82.5375,42.6109],[-82.5165,42.6298],[-82.5117,42.6702],[-82.4888,42.72],[-82.4875,42.7422],[-82.4696,42.7599],[-82.4851,42.8168],[-82.4764,42.8911],[-82.4556,42.9365],[-82.4196,42.9723],[-82.4275,42.9975],[-82.424,43.0156],[-82.4853,43.1044],[-82.4949,43.1448]],[[-82.6495,42.6261],[-82.6537,42.6189],[-82.6657,42.6375],[-82.6495,42.6261]]]]},"properties":{"GID_0":"USA","GID_1":"USA.23_1","GID_2":"USA.23.78_1","NAME_1":"Michigan","NAME_2":"SaintClair"}},
{"type":"Feature","geometry":{"type":"Polygon","coordinates":[[[-85.7874,41.7615],[-85.2913,41.7606],[-85.2928,42.0717],[-85.7638,42.0698],[-85.7586,41.8032],[-85.7874,41.7615]]]},"properties":{"GID_0":"USA","GID_1":"USA.23_1","GID_2":"USA.23.79_1","NAME_1":"Michigan","NAME_2":"SaintJoseph"}},
{"type":"Feature","geometry":{"type":"Polygon","coordinates":[[[-83.1184,43.675],[-83.1059,43.3273],[-83.1217,43.3267],[-83.12,43.2844],[-83.0003,43.2862],[-82.9945,43.1545],[-82.5009,43.17],[-82.5101,43.1962],[-82.5169,43.2092],[-82.5318,43.3103],[-82.5395,43.4385],[-82.5854,43.541],[-82.6009,43.6029],[-82.6041,43.6782],[-82.6072,43.6906],[-83.1184,43.675]]]},"properties":{"GID_0":"USA","GID_1":"USA.23_1","GID_2":"USA.23.80_1","NAME_1":"Michigan","NAME_2":"Sanilac"}},
{"type":"Feature","geometry":{"type":"Polygon","coordinates":[[[-86.6163,46.1587],[-86.4916,46.1587],[-86.4923,45.8955],[-86.4616,45.8951],[-86.4629,45.7592],[-86.4551,45.7588],[-86.4133,45.7953],[-86.3768,45.7907],[-86.3572,45.7921],[-86.3196,45.9101],[-86.2692,45.9448],[-86.2312,45.9461],[-86.2168,45.9589],[-86.1991,45.9634],[-86.1507,45.9532],[-86.0969,45.9668],[-86.0557,45.9635],[-86.0048,45.9528],[-85.9564,45.9379],[-85.8646,45.9682],[-85.864,46.5041],[-86.3655,46.5055],[-86.3646,46.3322],[-86.6173,46.3327],[-86.6163,46.1587]]]},"properties":{"GID_0":"USA","GID_1":"USA.23_1","GID_2":"USA.23.81_1","NAME_1":"Michigan","NAME_2":"Schoolcraft"}},
{"type":"Feature","geometry":{"type":"Polygon","coordinates":[[[-84.3649,42.7746],[-83.9225,42.7812],[-83.9309,42.9574],[-83.9283,43.0451],[-83.9294,43.1334],[-84.3684,43.1281],[-84.3679,42.9439],[-84.3649,42.7746]]]},"properties":{"GID_0":"USA","GID_1":"USA.23_1","GID_2":"USA.23.82_1","NAME_1":"Michigan","NAME_2":"Shiawassee"}},
{"type":"Feature","geometry":{"type":"Polygon","coordinates":[[[-83.6989,43.5966],[-83.6999,43.4884],[-83.7009,43.3941],[-83.694,43.2223],[-83.4607,43.2235],[-83.4609,43.2335],[-83.3533,43.2351],[-83.3537,43.3225],[-83.1059,43.3273],[-83.1184,43.675],[-83.4664,43.6657],[-83.4668,43.7409],[-83.472,43.7392],[-83.5259,43.724],[-83.6473,43.6056],[-83.694,43.5929],[-83.6989,43.5966]]]},"properties":{"GID_0":"USA","GID_1":"USA.23_1","GID_2":"USA.23.83_1","NAME_1":"Michigan","NAME_2":"Tuscola"}},
{"type":"Feature","geometry":{"type":"Polygon","coordinates":[[[-86.2745,42.4201],[-86.2814,42.4065],[-86.3544,42.2612],[-86.3637,42.2453],[-86.2255,42.2451],[-86.2243,42.0716],[-85.9913,42.0686],[-85.7638,42.0698],[-85.7663,42.4196],[-85.8975,42.4185],[-86.2745,42.4201]]]},"properties":{"GID_0":"USA","GID_1":"USA.23_1","GID_2":"USA.23.84_1","NAME_1":"Michigan","NAME_2":"VanBuren"}},
{"type":"Feature","geometry":{"type":"Polygon","coordinates":[[[-84.1353,42.073],[-84.0164,42.0789],[-83.5399,42.0853],[-83.5417,42.1744],[-83.553,42.4351],[-83.9065,42.4249],[-84.0196,42.423],[-84.1333,42.4238],[-84.1353,42.073]]]},"properties":{"GID_0":"USA","GID_1":"USA.23_1","GID_2":"USA.23.85_1","NAME_1":"Michigan","NAME_2":"Washtenaw"}},
{"type":"Feature","geometry":{"type":"Polygon","coordinates":[[[-83.0183,42.335],[-82.9863,42.355],[-82.9308,42.3585],[-82.8938,42.3898],[-82.8687,42.4537],[-82.9691,42.4492],[-83.4403,42.4393],[-83.553,42.4351],[-83.5417,42.1744],[-83.5399,42.0853],[-83.4235,42.0876],[-83.2952,42.0944],[-83.1887,42.0309],[-83.1939,42.0646],[-83.1658,42.1739],[-83.0934,42.2993],[-83.0183,42.335]]]},"properties":{"GID_0":"USA","GID_1":"USA.23_1","GID_2":"USA.23.86_1","NAME_1":"Michigan","NAME_2":"Wayne"}},
{"type":"Feature","geometry":{"type":"Polygon","coordinates":[[[-85.8205,44.5117],[-85.8202,44.1634],[-85.3333,44.166],[-85.3363,44.512],[-85.8205,44.5117]]]},"properties":{"GID_0":"USA","GID_1":"USA.23_1","GID_2":"USA.23.87_1","NAME_1":"Michigan","NAME_2":"Wexford"}}
]}