{"type":"FeatureCollection", "features": [
{"type":"Feature","geometry":{"type":"Polygon","coordinates":[[[-93.0586,47.0263],[-93.7749,47.0304],[-93.7764,46.5937],[-93.8114,46.5835],[-93.8105,46.2412],[-93.4286,46.2443],[-93.428,46.1541],[-93.0512,46.1584],[-93.0532,46.3562],[-93.0536,46.5932],[-93.0623,46.6739],[-93.0586,47.0263]]]},"properties":{"GID_0":"USA","GID_1":"USA.24_1","GID_2":"USA.24.1_1","NAME_1":"Minnesota","NAME_2":"Aitkin"}},
{"type":"Feature","geometry":{"type":"Polygon","coordinates":[[[-93.0186,45.4131],[-93.5093,45.4163],[-93.5138,45.2454],[-93.4193,45.2116],[-93.3179,45.1466],[-93.296,45.1297],[-93.2814,45.0374],[-93.2272,45.0373],[-93.2262,45.1255],[-93.0207,45.1258],[-93.0186,45.4131]]]},"properties":{"GID_0":"USA","GID_1":"USA.24_1","GID_2":"USA.24.2_1","NAME_1":"Minnesota","NAME_2":"Anoka"}},
{"type":"Feature","geometry":{"type":"Polygon","coordinates":[[[-96.1745,46.7187],[-95.1627,46.7191],[-95.1646,46.9789],[-95.1696,47.1496],[-95.2963,47.1513],[-95.9108,47.1511],[-96.0683,47.1542],[-96.1955,47.1522],[-96.1943,46.9768],[-96.1737,46.9772],[-96.1745,46.7187]]]},"properties":{"GID_0":"USA","GID_1":"USA.24_1","GID_2":"USA.24.3_1","NAME_1":"Minnesota","NAME_2":"Becker"}},
{"type":"Feature","geometry":{"type":"Polygon","coordinates":[[[-95.5928,48.1729],[-95.5899,48.0218],[-95.2252,48.0217],[-95.2784,47.9302],[-95.251,47.8843],[-95.1957,47.8732],[-95.1858,47.6763],[-95.1817,47.4124],[-94.4162,47.4104],[-94.4174,47.5929],[-94.4182,47.846],[-94.427,48.37],[-95.212,48.3691],[-95.2132,48.5417],[-95.3426,48.5423],[-95.6027,48.5405],[-95.5928,48.1729]]]},"properties":{"GID_0":"USA","GID_1":"USA.24_1","GID_2":"USA.24.4_1","NAME_1":"Minnesota","NAME_2":"Beltrami"}},
{"type":"Feature","geometry":{"type":"Polygon","coordinates":[[[-93.7641,45.8202],[-94.0515,45.8262],[-94.3513,45.8228],[-94.3018,45.7838],[-94.273,45.7748],[-94.269,45.7707],[-94.2144,45.7248],[-94.1989,45.617],[-94.1475,45.5591],[-93.7598,45.5604],[-93.7641,45.8202]]]},"properties":{"GID_0":"USA","GID_1":"USA.24_1","GID_2":"USA.24.5_1","NAME_1":"Minnesota","NAME_2":"Benton"}},
{"type":"Feature","geometry":{"type":"Polygon","coordinates":[[[-96.1049,45.18],[-96.1176,45.241],[-96.1185,45.4133],[-96.2412,45.4136],[-96.2425,45.5864],[-96.8363,45.5858],[-96.7642,45.5189],[-96.7317,45.4593],[-96.6742,45.4115],[-96.6087,45.4094],[-96.5059,45.3698],[-96.4519,45.3022],[-96.4536,45.2693],[-96.2921,45.2471],[-96.2769,45.2245],[-96.1404,45.1944],[-96.1049,45.18]]]},"properties":{"GID_0":"USA","GID_1":"USA.24_1","GID_2":"USA.24.6_1","NAME_1":"Minnesota","NAME_2":"BigStone"}},
{"type":"Feature","geometry":{"type":"Polygon","coordinates":[[[-94.3693,44.1098],[-94.3705,43.8501],[-93.7679,43.85],[-93.769,43.9789],[-93.768,44.1971],[-93.7694,44.2423],[-94.0118,44.2411],[-94.0011,44.1732],[-94.0075,44.1668],[-94.0323,44.1644],[-94.2175,44.2055],[-94.3694,44.2643],[-94.3693,44.1098]]]},"properties":{"GID_0":"USA","GID_1":"USA.24_1","GID_2":"USA.24.7_1","NAME_1":"Minnesota","NAME_2":"BlueEarth"}},
{"type":"Feature","geometry":{"type":"Polygon","coordinates":[[[-94.3694,44.2643],[-94.4894,44.3533],[-94.6358,44.3945],[-94.7917,44.4574],[-94.799,44.4673],[-94.8513,44.4933],[-94.8623,44.4977],[-94.8637,44.2829],[-95.1051,44.283],[-95.1062,44.1968],[-95.1041,44.1089],[-94.3693,44.1098],[-94.3694,44.2643]]]},"properties":{"GID_0":"USA","GID_1":"USA.24_1","GID_2":"USA.24.8_1","NAME_1":"Minnesota","NAME_2":"Brown"}},
{"type":"Feature","geometry":{"type":"Polygon","coordinates":[[[-93.0527,46.419],[-92.2892,46.4176],[-92.2883,46.6679],[-92.2991,46.7652],[-93.0603,46.767],[-93.0623,46.6739],[-93.0536,46.5932],[-93.0527,46.419]]]},"properties":{"GID_0":"USA","GID_1":"USA.24_1","GID_2":"USA.24.9_1","NAME_1":"Minnesota","NAME_2":"Carlton"}},
{"type":"Feature","geometry":{"type":"Polygon","coordinates":[[[-94.0104,44.719],[-93.8902,44.7185],[-93.8887,44.6756],[-93.7686,44.675],[-93.7685,44.6417],[-93.6313,44.6984],[-93.6185,44.7651],[-93.5375,44.8039],[-93.5227,44.8044],[-93.5234,44.8929],[-93.7688,44.8917],[-93.7692,44.9789],[-94.0117,44.9796],[-94.0104,44.719]]]},"properties":{"GID_0":"USA","GID_1":"USA.24_1","GID_2":"USA.24.10_1","NAME_1":"Minnesota","NAME_2":"Carver"}},
{"type":"Feature","geometry":{"type":"Polygon","coordinates":[[[-93.7749,47.0304],[-93.7807,47.2835],[-93.7807,47.2918],[-93.7707,47.2982],[-93.8724,47.3242],[-93.917,47.296],[-94.0162,47.3476],[-94.0341,47.4151],[-94.1124,47.4792],[-94.3272,47.416],[-94.416,47.4453],[-94.4162,47.4104],[-94.6711,47.4103],[-94.6628,47.3221],[-94.6597,46.8041],[-94.7856,46.8058],[-94.7835,46.6301],[-94.7802,46.6301],[-94.7833,46.4156],[-94.7774,46.4138],[-94.7823,46.3973],[-94.7331,46.3698],[-94.661,46.3539],[-94.6358,46.3463],[-94.5535,46.3048],[-94.4335,46.3318],[-94.3475,46.2925],[-94.3427,46.277],[-94.3427,46.2797],[-94.3308,46.2789],[-94.33,46.6309],[-94.3428,46.806],[-93.776,46.8037],[-93.7749,47.0304]]]},"properties":{"GID_0":"USA","GID_1":"USA.24_1","GID_2":"USA.24.11_1","NAME_1":"Minnesota","NAME_2":"Cass"}},
{"type":"Feature","geometry":{"type":"Polygon","coordinates":[[[-95.2456,45.1537],[-96.0372,45.1525],[-95.9575,45.0777],[-95.7495,44.9443],[-95.7271,44.9319],[-95.6124,44.8507],[-95.4979,44.7885],[-95.4789,44.7532],[-95.4816,44.891],[-95.2471,44.8925],[-95.2456,45.1537]]]},"properties":{"GID_0":"USA","GID_1":"USA.24_1","GID_2":"USA.24.12_1","NAME_1":"Minnesota","NAME_2":"Chippewa"}},
{"type":"Feature","geometry":{"type":"Polygon","coordinates":[[[-93.0188,45.2984],[-92.7439,45.2963],[-92.6487,45.3999],[-92.644,45.4376],[-92.724,45.5132],[-92.732,45.5472],[-92.8808,45.5744],[-92.8649,45.7175],[-92.8286,45.7318],[-93.1408,45.7312],[-93.1392,45.5602],[-93.0221,45.5576],[-93.0186,45.4131],[-93.0188,45.2984]]]},"properties":{"GID_0":"USA","GID_1":"USA.24_1","GID_2":"USA.24.13_1","NAME_1":"Minnesota","NAME_2":"Chisago"}},
{"type":"Feature","geometry":{"type":"Polygon","coordinates":[[[-96.1955,47.1522],[-96.8364,47.1519],[-96.8175,47.1102],[-96.8206,46.9694],[-96.7756,46.899],[-96.8008,46.8155],[-96.7862,46.7532],[-96.7973,46.6312],[-96.1729,46.6307],[-96.1745,46.7187],[-96.1737,46.9772],[-96.1943,46.9768],[-96.1955,47.1522]]]},"properties":{"GID_0":"USA","GID_1":"USA.24_1","GID_2":"USA.24.14_1","NAME_1":"Minnesota","NAME_2":"Clay"}},
{"type":"Feature","geometry":{"type":"Polygon","coordinates":[[[-95.1696,47.1496],[-95.1694,47.3238],[-95.1817,47.4124],[-95.1858,47.6763],[-95.1957,47.8732],[-95.251,47.8843],[-95.2784,47.9302],[-95.2252,48.0217],[-95.5825,48.0219],[-95.5781,47.6733],[-95.5526,47.6728],[-95.5499,47.5017],[-95.5464,47.4999],[-95.5502,47.1509],[-95.2963,47.1513],[-95.1696,47.1496]]]},"properties":{"GID_0":"USA","GID_1":"USA.24_1","GID_2":"USA.24.15_1","NAME_1":"Minnesota","NAME_2":"Clearwater"}},
{"type":"Feature","geometry":{"type":"Polygon","coordinates":[[[-89.5596,48.001],[-89.6137,48.0165],[-89.7699,48.0229],[-89.8676,47.998],[-89.9743,48.0441],[-90.0335,48.0963],[-90.1358,48.1127],[-90.3466,48.0983],[-90.7422,48.1137],[-90.8139,48.1907],[-90.8399,48.2459],[-90.8861,48.2466],[-91.0311,48.1911],[-91.0246,47.8311],[-91.026,47.4597],[-91.0124,47.4646],[-90.757,47.6115],[-90.5095,47.71],[-90.3046,47.7584],[-90.1798,47.7785],[-90.0002,47.8247],[-89.915,47.8663],[-89.7478,47.9145],[-89.6417,47.9839],[-89.6265,47.9904],[-89.6047,47.9815],[-89.5129,48.0024],[-89.5446,48.0029],[-89.5596,48.001]]]},"properties":{"GID_0":"USA","GID_1":"USA.24_1","GID_2":"USA.24.16_1","NAME_1":"Minnesota","NAME_2":"Cook"}},
{"type":"Feature","geometry":{"type":"Polygon","coordinates":[[[-95.1062,44.1968],[-95.4633,44.197],[-95.4622,43.8507],[-94.8614,43.8496],[-94.8583,44.1093],[-95.1041,44.1089],[-95.1062,44.1968]]]},"properties":{"GID_0":"USA","GID_1":"USA.24_1","GID_2":"USA.24.17_1","NAME_1":"Minnesota","NAME_2":"Cottonwood"}},
{"type":"Feature","geometry":{"type":"Polygon","coordinates":[[[-93.776,46.8037],[-94.3428,46.806],[-94.33,46.6309],[-94.3308,46.2789],[-94.3427,46.2797],[-94.3427,46.277],[-94.3491,46.265],[-94.3944,46.2093],[-94.3726,46.1568],[-93.8107,46.1551],[-93.8114,46.5835],[-93.7764,46.5937],[-93.776,46.8037]]]},"properties":{"GID_0":"USA","GID_1":"USA.24_1","GID_2":"USA.24.18_1","NAME_1":"Minnesota","NAME_2":"CrowWing"}},
{"type":"Feature","geometry":{"type":"Polygon","coordinates":[[[-93.3285,44.791],[-93.3193,44.6332],[-93.2782,44.6326],[-93.2826,44.473],[-93.0406,44.4729],[-93.039,44.5171],[-92.9494,44.5104],[-92.9165,44.5449],[-92.7915,44.5452],[-92.7957,44.6305],[-92.7386,44.6329],[-92.7339,44.7157],[-92.7901,44.7381],[-92.8964,44.7761],[-93.0141,44.7738],[-93.0182,44.8382],[-93.0199,44.8747],[-93.0294,44.8966],[-93.1271,44.9225],[-93.1556,44.9002],[-93.1704,44.8975],[-93.1827,44.8866],[-93.1989,44.8583],[-93.2119,44.8415],[-93.3253,44.7933],[-93.3285,44.791]]]},"properties":{"GID_0":"USA","GID_1":"USA.24_1","GID_2":"USA.24.19_1","NAME_1":"Minnesota","NAME_2":"Dakota"}},
{"type":"Feature","geometry":{"type":"Polygon","coordinates":[[[-93.0406,44.1984],[-93.0463,44.1985],[-93.0461,43.8518],[-92.6775,43.8518],[-92.6804,44.1972],[-93.0406,44.1984]]]},"properties":{"GID_0":"USA","GID_1":"USA.24_1","GID_2":"USA.24.20_1","NAME_1":"Minnesota","NAME_2":"Dodge"}},
{"type":"Feature","geometry":{"type":"Polygon","coordinates":[[[-95.7595,45.76],[-95.1388,45.7602],[-95.1391,45.9327],[-95.1454,46.108],[-95.7693,46.1073],[-95.7595,45.76]]]},"properties":{"GID_0":"USA","GID_1":"USA.24_1","GID_2":"USA.24.21_1","NAME_1":"Minnesota","NAME_2":"Douglas"}},
{"type":"Feature","geometry":{"type":"Polygon","coordinates":[[[-94.2487,43.504],[-93.6485,43.5045],[-93.648,43.8506],[-94.248,43.85],[-94.2487,43.504]]]},"properties":{"GID_0":"USA","GID_1":"USA.24_1","GID_2":"USA.24.22_1","NAME_1":"Minnesota","NAME_2":"Faribault"}},
{"type":"Feature","geometry":{"type":"Polygon","coordinates":[[[-92.4507,43.5026],[-91.7306,43.5023],[-91.7304,43.8503],[-92.4498,43.8507],[-92.4507,43.5026]]]},"properties":{"GID_0":"USA","GID_1":"USA.24_1","GID_2":"USA.24.23_1","NAME_1":"Minnesota","NAME_2":"Fillmore"}},
{"type":"Feature","geometry":{"type":"Polygon","coordinates":[[[-93.6485,43.5045],[-93.0502,43.5034],[-93.0505,43.8518],[-93.4057,43.8498],[-93.648,43.8506],[-93.6485,43.5045]]]},"properties":{"GID_0":"USA","GID_1":"USA.24_1","GID_2":"USA.24.24_1","NAME_1":"Minnesota","NAME_2":"Freeborn"}},
{"type":"Feature","geometry":{"type":"Polygon","coordinates":[[[-93.0406,44.4729],[-93.0406,44.1984],[-92.5516,44.1972],[-92.5517,44.3695],[-92.4322,44.3695],[-92.4302,44.4561],[-92.2434,44.4558],[-92.3154,44.5407],[-92.3664,44.5582],[-92.5448,44.5686],[-92.5655,44.6],[-92.7339,44.7157],[-92.7386,44.6329],[-92.7957,44.6305],[-92.7915,44.5452],[-92.9165,44.5449],[-92.9494,44.5104],[-93.039,44.5171],[-93.0406,44.4729]]]},"properties":{"GID_0":"USA","GID_1":"USA.24_1","GID_2":"USA.24.25_1","NAME_1":"Minnesota","NAME_2":"Goodhue"}},
{"type":"Feature","geometry":{"type":"Polygon","coordinates":[[[-95.7693,46.1073],[-96.2667,46.109],[-96.2654,45.9355],[-96.2556,45.9357],[-96.2542,45.7609],[-95.7595,45.76],[-95.7693,46.1073]]]},"properties":{"GID_0":"USA","GID_1":"USA.24_1","GID_2":"USA.24.26_1","NAME_1":"Minnesota","NAME_2":"Grant"}},
{"type":"Feature","geometry":{"type":"Polygon","coordinates":[[[-93.5138,45.2454],[-93.5158,45.2458],[-93.6562,45.201],[-93.6793,45.1525],[-93.7155,45.1269],[-93.7702,45.0734],[-93.7688,44.8917],[-93.5234,44.8929],[-93.5227,44.8044],[-93.5073,44.8062],[-93.4057,44.8084],[-93.3382,44.7874],[-93.3253,44.7933],[-93.2119,44.8415],[-93.1989,44.8583],[-93.1827,44.8866],[-93.1704,44.8975],[-93.1955,44.904],[-93.2059,45.0373],[-93.2814,45.0374],[-93.296,45.1297],[-93.3179,45.1466],[-93.4193,45.2116],[-93.5138,45.2454]]]},"properties":{"GID_0":"USA","GID_1":"USA.24_1","GID_2":"USA.24.27_1","NAME_1":"Minnesota","NAME_2":"Hennepin"}},
{"type":"Feature","geometry":{"type":"Polygon","coordinates":[[[-91.7306,43.5023],[-91.22,43.5023],[-91.2318,43.5844],[-91.2672,43.6233],[-91.2666,43.7162],[-91.246,43.7752],[-91.2882,43.851],[-91.7304,43.8503],[-91.7306,43.5023]]]},"properties":{"GID_0":"USA","GID_1":"USA.24_1","GID_2":"USA.24.28_1","NAME_1":"Minnesota","NAME_2":"Houston"}},
{"type":"Feature","geometry":{"type":"Polygon","coordinates":[[[-95.1643,46.8072],[-94.6597,46.8041],[-94.6628,47.3221],[-94.6711,47.4103],[-95.1817,47.4124],[-95.1694,47.3238],[-95.1696,47.1496],[-95.1646,46.9789],[-95.1643,46.8072]]]},"properties":{"GID_0":"USA","GID_1":"USA.24_1","GID_2":"USA.24.29_1","NAME_1":"Minnesota","NAME_2":"Hubbard"}},
{"type":"Feature","geometry":{"type":"Polygon","coordinates":[[[-93.0186,45.4131],[-93.0221,45.5576],[-93.1392,45.5602],[-93.1408,45.7312],[-93.5133,45.7335],[-93.5093,45.4163],[-93.0186,45.4131]]]},"properties":{"GID_0":"USA","GID_1":"USA.24_1","GID_2":"USA.24.30_1","NAME_1":"Minnesota","NAME_2":"Isanti"}},
{"type":"Feature","geometry":{"type":"Polygon","coordinates":[[[-93.0586,47.0263],[-93.066,47.109],[-93.0679,47.7218],[-93.0854,47.7223],[-93.0829,47.8958],[-93.7772,47.9022],[-93.7757,47.8497],[-94.4182,47.846],[-94.4174,47.5929],[-94.416,47.4453],[-94.3272,47.416],[-94.1124,47.4792],[-94.0341,47.4151],[-94.0162,47.3476],[-93.917,47.296],[-93.8724,47.3242],[-93.7707,47.2982],[-93.7807,47.2918],[-93.7807,47.2835],[-93.7749,47.0304],[-93.0586,47.0263]]]},"properties":{"GID_0":"USA","GID_1":"USA.24_1","GID_2":"USA.24.31_1","NAME_1":"Minnesota","NAME_2":"Itasca"}},
{"type":"Feature","geometry":{"type":"Polygon","coordinates":[[[-95.4548,43.5037],[-94.8577,43.5038],[-94.8551,43.8493],[-95.4527,43.8504],[-95.4548,43.5037]]]},"properties":{"GID_0":"USA","GID_1":"USA.24_1","GID_2":"USA.24.32_1","NAME_1":"Minnesota","NAME_2":"Jackson"}},
{"type":"Feature","geometry":{"type":"Polygon","coordinates":[[[-93.428,46.1541],[-93.4321,45.9815],[-93.5212,45.9801],[-93.5133,45.7335],[-93.1408,45.7312],[-93.1408,45.9815],[-93.0524,45.9817],[-93.0512,46.1584],[-93.428,46.1541]]]},"properties":{"GID_0":"USA","GID_1":"USA.24_1","GID_2":"USA.24.33_1","NAME_1":"Minnesota","NAME_2":"Kanabec"}},
{"type":"Feature","geometry":{"type":"Polygon","coordinates":[[[-95.2471,44.8925],[-94.7582,44.8929],[-94.7576,45.2386],[-94.7612,45.3272],[-94.7635,45.414],[-95.2549,45.4122],[-95.2456,45.1537],[-95.2471,44.8925]]]},"properties":{"GID_0":"USA","GID_1":"USA.24_1","GID_2":"USA.24.34_1","NAME_1":"Minnesota","NAME_2":"Kandiyohi"}},
{"type":"Feature","geometry":{"type":"Polygon","coordinates":[[[-96.4061,48.717],[-96.4066,49.0001],[-97.2295,49],[-97.239,48.9669],[-97.1788,48.8741],[-97.1883,48.8128],[-97.0935,48.684],[-97.1664,48.5452],[-96.3901,48.5441],[-96.387,48.7174],[-96.4061,48.717]]]},"properties":{"GID_0":"USA","GID_1":"USA.24_1","GID_2":"USA.24.35_1","NAME_1":"Minnesota","NAME_2":"Kittson"}},
{"type":"Feature","geometry":{"type":"Polygon","coordinates":[[[-93.0932,48.6272],[-93.1798,48.6228],[-93.2564,48.6425],[-93.4636,48.592],[-93.4679,48.5466],[-93.6129,48.5247],[-93.7955,48.5306],[-93.817,48.6146],[-93.8505,48.6316],[-94.2233,48.6602],[-94.257,48.7035],[-94.4311,48.7004],[-94.4311,48.3704],[-94.427,48.37],[-94.4182,47.846],[-93.7757,47.8497],[-93.7772,47.9022],[-93.0829,47.8958],[-93.0804,47.981],[-93.0953,48.07],[-93.0932,48.6272]]]},"properties":{"GID_0":"USA","GID_1":"USA.24_1","GID_2":"USA.24.36_1","NAME_1":"Minnesota","NAME_2":"Koochiching"}},
{"type":"Feature","geometry":{"type":"Polygon","coordinates":[[[-96.4536,45.2693],[-96.4533,44.8056],[-95.8472,44.8057],[-95.8456,44.892],[-95.7374,44.892],[-95.7363,44.9368],[-95.7495,44.9443],[-95.9575,45.0777],[-96.0372,45.1525],[-96.0915,45.1702],[-96.1404,45.1944],[-96.2769,45.2245],[-96.2921,45.2471],[-96.4536,45.2693]]]},"properties":{"GID_0":"USA","GID_1":"USA.24_1","GID_2":"USA.24.37_1","NAME_1":"Minnesota","NAME_2":"LacquiParle"}},
{"type":"Feature","geometry":{"type":"Polygon","coordinates":[[[-91.7988,48.2049],[-91.8026,47.8037],[-91.7893,47.566],[-91.7951,47.373],[-91.7946,46.931],[-91.7791,46.9396],[-91.697,47.0023],[-91.4919,47.1194],[-91.2874,47.2559],[-91.1399,47.3849],[-91.1068,47.4119],[-91.0348,47.4567],[-91.026,47.4597],[-91.0246,47.8311],[-91.0311,48.1911],[-91.1438,48.1465],[-91.2544,48.0815],[-91.3991,48.0571],[-91.5375,48.083],[-91.6911,48.1273],[-91.6962,48.1838],[-91.7988,48.2049]]]},"properties":{"GID_0":"USA","GID_1":"USA.24_1","GID_2":"USA.24.38_1","NAME_1":"Minnesota","NAME_2":"Lake"}},
{"type":"Feature","geometry":{"type":"Polygon","coordinates":[[[-95.2846,49],[-95.3194,48.9289],[-95.2908,48.8988],[-95.2476,48.8813],[-95.2332,48.8801],[-95.1588,48.8907],[-95.0938,48.9178],[-95.0929,48.7158],[-95.3414,48.7146],[-95.3426,48.5423],[-95.2132,48.5417],[-95.212,48.3691],[-94.4311,48.3704],[-94.4311,48.7024],[-94.5351,48.7023],[-94.6206,48.7374],[-94.6823,48.8088],[-94.6785,48.8808],[-94.748,49.0975],[-94.7719,49.1224],[-94.8247,49.3069],[-94.9561,49.3694],[-95.0534,49.3529],[-95.1497,49.3833],[-95.1514,49],[-95.2846,49]]]},"properties":{"GID_0":"USA","GID_1":"USA.24_1","GID_2":"USA.24.39_1","NAME_1":"Minnesota","NAME_2":"LakeoftheWoods"}},
{"type":"Feature","geometry":{"type":"Polygon","coordinates":[[[-89.5596,48.001],[-89.5446,48.0029],[-89.5129,48.0024],[-89.6047,47.9815],[-89.6265,47.9904],[-89.6417,47.9839],[-89.7478,47.9145],[-89.915,47.8663],[-90.0002,47.8247],[-90.1798,47.7785],[-90.3046,47.7584],[-90.5095,47.71],[-90.757,47.6115],[-91.0124,47.4646],[-91.0348,47.4567],[-91.1068,47.4119],[-91.1399,47.3849],[-91.2874,47.2559],[-91.4919,47.1194],[-91.697,47.0023],[-91.7791,46.9396],[-91.804,46.9252],[-91.8101,46.923],[-92.0066,46.8367],[-92.1028,46.773],[-92.1,46.7514],[-92.021,46.7059],[-91.4743,46.9336],[-91.1665,47.072],[-90.6631,47.3025],[-89.958,47.2912],[-89.4877,48.0109],[-89.5596,48.001]],[[-92.0896,46.771],[-92.0823,46.7728],[-92.0833,46.759],[-92.0896,46.771]]]},"properties":{"GID_0":"USA","GID_1":"USA.24_1","GID_2":"USA.24.40_1","NAME_1":"Minnesota","NAME_2":"LakeSuperior"}},
{"type":"Feature","geometry":{"type":"Polygon","coordinates":[[[-93.768,44.1971],[-93.5251,44.1983],[-93.5259,44.5466],[-93.9091,44.5446],[-93.8891,44.5196],[-93.9297,44.4588],[-93.9625,44.3935],[-93.9499,44.3288],[-93.9702,44.3037],[-94.0118,44.2411],[-93.7694,44.2423],[-93.768,44.1971]]]},"properties":{"GID_0":"USA","GID_1":"USA.24_1","GID_2":"USA.24.41_1","NAME_1":"Minnesota","NAME_2":"LeSueur"}},
{"type":"Feature","geometry":{"type":"Polygon","coordinates":[[[-96.0914,44.631],[-96.4532,44.6317],[-96.4538,44.1983],[-96.0788,44.1993],[-96.0747,44.5455],[-96.0914,44.631]]]},"properties":{"GID_0":"USA","GID_1":"USA.24_1","GID_2":"USA.24.42_1","NAME_1":"Minnesota","NAME_2":"Lincoln"}},
{"type":"Feature","geometry":{"type":"Polygon","coordinates":[[[-96.0788,44.1993],[-95.5921,44.1964],[-95.5938,44.5434],[-95.6028,44.5433],[-95.6023,44.6309],[-96.0914,44.631],[-96.0747,44.5455],[-96.0788,44.1993]]]},"properties":{"GID_0":"USA","GID_1":"USA.24_1","GID_2":"USA.24.43_1","NAME_1":"Minnesota","NAME_2":"Lyon"}},
{"type":"Feature","geometry":{"type":"Polygon","coordinates":[[[-95.5502,47.1509],[-95.5464,47.4999],[-95.5499,47.5017],[-96.0679,47.5013],[-96.0683,47.1542],[-95.9108,47.1511],[-95.5502,47.1509]]]},"properties":{"GID_0":"USA","GID_1":"USA.24_1","GID_2":"USA.24.44_1","NAME_1":"Minnesota","NAME_2":"Mahnomen"}},
{"type":"Feature","geometry":{"type":"Polygon","coordinates":[[[-95.6027,48.5405],[-96.3901,48.5441],[-97.1664,48.5452],[-97.1268,48.4545],[-97.1606,48.3935],[-97.1206,48.2796],[-97.1366,48.1754],[-95.5928,48.1729],[-95.6027,48.5405]]]},"properties":{"GID_0":"USA","GID_1":"USA.24_1","GID_2":"USA.24.45_1","NAME_1":"Minnesota","NAME_2":"Marshall"}},
{"type":"Feature","geometry":{"type":"Polygon","coordinates":[[[-94.8577,43.5038],[-94.2487,43.504],[-94.248,43.85],[-94.8551,43.8493],[-94.8577,43.5038]]]},"properties":{"GID_0":"USA","GID_1":"USA.24_1","GID_2":"USA.24.46_1","NAME_1":"Minnesota","NAME_2":"Martin"}},
{"type":"Feature","geometry":{"type":"Polygon","coordinates":[[[-94.0117,44.9796],[-94.2548,44.9812],[-94.4999,44.9791],[-94.4993,44.8942],[-94.4948,44.8938],[-94.4947,44.63],[-94.2535,44.6307],[-94.2526,44.7188],[-94.0104,44.719],[-94.0117,44.9796]]]},"properties":{"GID_0":"USA","GID_1":"USA.24_1","GID_2":"USA.24.47_1","NAME_1":"Minnesota","NAME_2":"McLeod"}},
{"type":"Feature","geometry":{"type":"Polygon","coordinates":[[[-94.7582,44.8929],[-94.4993,44.8942],[-94.4999,44.9791],[-94.2548,44.9812],[-94.2544,45.2268],[-94.2615,45.2844],[-94.382,45.2836],[-94.3819,45.327],[-94.7612,45.3272],[-94.7576,45.2386],[-94.7582,44.8929]]]},"properties":{"GID_0":"USA","GID_1":"USA.24_1","GID_2":"USA.24.48_1","NAME_1":"Minnesota","NAME_2":"Meeker"}},
{"type":"Feature","geometry":{"type":"Polygon","coordinates":[[[-93.8105,46.2412],[-93.8099,45.9812],[-93.7667,45.9812],[-93.7598,45.5604],[-93.5106,45.5598],[-93.5133,45.7335],[-93.5212,45.9801],[-93.4321,45.9815],[-93.428,46.1541],[-93.4286,46.2443],[-93.8105,46.2412]]]},"properties":{"GID_0":"USA","GID_1":"USA.24_1","GID_2":"USA.24.49_1","NAME_1":"Minnesota","NAME_2":"MilleLacs"}},
{"type":"Feature","geometry":{"type":"Polygon","coordinates":[[[-93.7641,45.8202],[-93.7667,45.9812],[-93.8099,45.9812],[-93.8107,46.1551],[-94.3726,46.1568],[-94.3944,46.2093],[-94.3491,46.265],[-94.3475,46.2925],[-94.4335,46.3318],[-94.5535,46.3048],[-94.6358,46.3463],[-94.651,46.3462],[-94.6466,46.2835],[-94.6478,45.9327],[-94.6419,45.9328],[-94.6438,45.7758],[-94.2782,45.777],[-94.3018,45.7838],[-94.3513,45.8228],[-94.0515,45.8262],[-93.7641,45.8202]]]},"properties":{"GID_0":"USA","GID_1":"USA.24_1","GID_2":"USA.24.50_1","NAME_1":"Minnesota","NAME_2":"Morrison"}},
{"type":"Feature","geometry":{"type":"Polygon","coordinates":[[[-92.4507,43.5026],[-92.4507,43.8361],[-92.6891,43.8368],[-92.6889,43.8514],[-93.0505,43.8518],[-93.0502,43.5034],[-92.4507,43.5026]]]},"properties":{"GID_0":"USA","GID_1":"USA.24_1","GID_2":"USA.24.51_1","NAME_1":"Minnesota","NAME_2":"Mower"}},
{"type":"Feature","geometry":{"type":"Polygon","coordinates":[[[-95.4633,44.197],[-96.0628,44.1987],[-96.0657,43.8527],[-95.4622,43.8507],[-95.4633,44.197]]]},"properties":{"GID_0":"USA","GID_1":"USA.24_1","GID_2":"USA.24.52_1","NAME_1":"Minnesota","NAME_2":"Murray"}},
{"type":"Feature","geometry":{"type":"Polygon","coordinates":[[[-94.0118,44.2411],[-93.9702,44.3037],[-93.9499,44.3288],[-93.9625,44.3935],[-93.9297,44.4588],[-94.6202,44.4566],[-94.7917,44.4574],[-94.6358,44.3945],[-94.4894,44.3533],[-94.3694,44.2643],[-94.2175,44.2055],[-94.0323,44.1644],[-94.0075,44.1668],[-94.0011,44.1732],[-94.0118,44.2411]]]},"properties":{"GID_0":"USA","GID_1":"USA.24_1","GID_2":"USA.24.53_1","NAME_1":"Minnesota","NAME_2":"Nicollet"}},
{"type":"Feature","geometry":{"type":"Polygon","coordinates":[[[-96.0526,43.5028],[-95.4548,43.5037],[-95.4527,43.8504],[-96.053,43.8525],[-96.0526,43.5028]]]},"properties":{"GID_0":"USA","GID_1":"USA.24_1","GID_2":"USA.24.54_1","NAME_1":"Minnesota","NAME_2":"Nobles"}},
{"type":"Feature","geometry":{"type":"Polygon","coordinates":[[[-96.0683,47.1542],[-96.0679,47.5013],[-96.8523,47.5],[-96.8237,47.1839],[-96.8364,47.1519],[-96.1955,47.1522],[-96.0683,47.1542]]]},"properties":{"GID_0":"USA","GID_1":"USA.24_1","GID_2":"USA.24.55_1","NAME_1":"Minnesota","NAME_2":"Norman"}},
{"type":"Feature","geometry":{"type":"Polygon","coordinates":[[[-92.6889,43.8514],[-92.6891,43.8368],[-92.4507,43.8361],[-92.4498,43.8507],[-92.0806,43.8508],[-92.0803,44.1087],[-92.3178,44.1101],[-92.3189,44.1954],[-92.6804,44.1972],[-92.6775,43.8518],[-92.6889,43.8514]]]},"properties":{"GID_0":"USA","GID_1":"USA.24_1","GID_2":"USA.24.56_1","NAME_1":"Minnesota","NAME_2":"Olmsted"}},
{"type":"Feature","geometry":{"type":"Polygon","coordinates":[[[-96.1745,46.7187],[-96.1729,46.6307],[-96.2827,46.6308],[-96.2813,46.2851],[-96.2667,46.109],[-96.0862,46.1076],[-95.1454,46.108],[-95.1563,46.2828],[-95.1545,46.6303],[-95.1627,46.7191],[-96.1745,46.7187]]]},"properties":{"GID_0":"USA","GID_1":"USA.24_1","GID_2":"USA.24.57_1","NAME_1":"Minnesota","NAME_2":"OtterTail"}},
{"type":"Feature","geometry":{"type":"Polygon","coordinates":[[[-95.5928,48.1729],[-96.505,48.1743],[-96.5047,48.0207],[-96.4838,47.9645],[-95.7144,47.9659],[-95.7133,47.9346],[-95.5817,47.9334],[-95.5825,48.0219],[-95.5899,48.0218],[-95.5928,48.1729]]]},"properties":{"GID_0":"USA","GID_1":"USA.24_1","GID_2":"USA.24.58_1","NAME_1":"Minnesota","NAME_2":"Pennington"}},
{"type":"Feature","geometry":{"type":"Polygon","coordinates":[[[-93.0512,46.1584],[-93.0524,45.9817],[-93.1408,45.9815],[-93.1408,45.7312],[-92.8286,45.7318],[-92.7849,45.762],[-92.729,45.8736],[-92.6714,45.9152],[-92.4738,45.9732],[-92.422,46.0211],[-92.3581,46.0097],[-92.2899,46.0706],[-92.2892,46.4176],[-93.0527,46.419],[-93.0532,46.3562],[-93.0512,46.1584]]]},"properties":{"GID_0":"USA","GID_1":"USA.24_1","GID_2":"USA.24.59_1","NAME_1":"Minnesota","NAME_2":"Pine"}},
{"type":"Feature","geometry":{"type":"Polygon","coordinates":[[[-96.4538,44.1983],[-96.4532,43.8515],[-96.0657,43.8527],[-96.0628,44.1987],[-96.4538,44.1983]]]},"properties":{"GID_0":"USA","GID_1":"USA.24_1","GID_2":"USA.24.60_1","NAME_1":"Minnesota","NAME_2":"Pipestone"}},
{"type":"Feature","geometry":{"type":"Polygon","coordinates":[[[-95.5817,47.9334],[-95.7133,47.9346],[-95.7117,47.849],[-95.8404,47.8478],[-95.8406,47.7603],[-96.3528,47.7622],[-96.3531,47.8479],[-96.4846,47.8488],[-96.4838,47.9645],[-96.5047,48.0207],[-96.505,48.1743],[-97.1385,48.1754],[-97.1458,48.1426],[-97.0749,48.0504],[-97.0542,47.9454],[-96.8512,47.5881],[-96.8523,47.5],[-95.5499,47.5017],[-95.5526,47.6728],[-95.5781,47.6733],[-95.5817,47.9334]]]},"properties":{"GID_0":"USA","GID_1":"USA.24_1","GID_2":"USA.24.61_1","NAME_1":"Minnesota","NAME_2":"Polk"}},
{"type":"Feature","geometry":{"type":"Polygon","coordinates":[[[-95.7595,45.76],[-95.7574,45.5853],[-95.7483,45.585],[-95.7451,45.4122],[-95.1322,45.4128],[-95.1384,45.5864],[-95.1388,45.7602],[-95.7595,45.76]]]},"properties":{"GID_0":"USA","GID_1":"USA.24_1","GID_2":"USA.24.62_1","NAME_1":"Minnesota","NAME_2":"Pope"}},
{"type":"Feature","geometry":{"type":"Polygon","coordinates":[[[-93.2272,45.0373],[-93.2059,45.0373],[-93.1955,44.904],[-93.1704,44.8975],[-93.1556,44.9002],[-93.1271,44.9225],[-93.0294,44.8966],[-92.9875,44.8924],[-92.9838,45.1247],[-93.2262,45.1255],[-93.2272,45.0373]]]},"properties":{"GID_0":"USA","GID_1":"USA.24_1","GID_2":"USA.24.63_1","NAME_1":"Minnesota","NAME_2":"Ramsey"}},
{"type":"Feature","geometry":{"type":"Polygon","coordinates":[[[-96.4838,47.9645],[-96.4846,47.8488],[-96.3531,47.8479],[-96.3528,47.7622],[-95.8406,47.7603],[-95.8404,47.8478],[-95.7117,47.849],[-95.7144,47.9659],[-96.4838,47.9645]]]},"properties":{"GID_0":"USA","GID_1":"USA.24_1","GID_2":"USA.24.64_1","NAME_1":"Minnesota","NAME_2":"RedLake"}},
{"type":"Feature","geometry":{"type":"Polygon","coordinates":[[[-94.8623,44.4977],[-94.8707,44.4995],[-95.0099,44.5413],[-95.242,44.6666],[-95.3391,44.6973],[-95.3584,44.6993],[-95.3567,44.5437],[-95.5938,44.5434],[-95.5921,44.1964],[-95.1062,44.1968],[-95.1051,44.283],[-94.8637,44.2829],[-94.8623,44.4977]]]},"properties":{"GID_0":"USA","GID_1":"USA.24_1","GID_2":"USA.24.65_1","NAME_1":"Minnesota","NAME_2":"Redwood"}},
{"type":"Feature","geometry":{"type":"Polygon","coordinates":[[[-94.7917,44.4574],[-94.6202,44.4566],[-94.6278,44.7193],[-94.4954,44.7194],[-94.4948,44.8938],[-95.4816,44.891],[-95.4789,44.7532],[-95.4049,44.7315],[-95.3951,44.7248],[-95.3643,44.7019],[-95.3391,44.6973],[-95.242,44.6666],[-95.0099,44.5413],[-94.8707,44.4995],[-94.8513,44.4933],[-94.799,44.4673],[-94.7917,44.4574]]]},"properties":{"GID_0":"USA","GID_1":"USA.24_1","GID_2":"USA.24.66_1","NAME_1":"Minnesota","NAME_2":"Renville"}},
{"type":"Feature","geometry":{"type":"Polygon","coordinates":[[[-93.2798,44.546],[-93.5259,44.5466],[-93.5251,44.1983],[-93.0406,44.1984],[-93.0406,44.4729],[-93.2826,44.473],[-93.2798,44.546]]]},"properties":{"GID_0":"USA","GID_1":"USA.24_1","GID_2":"USA.24.67_1","NAME_1":"Minnesota","NAME_2":"Rice"}},
{"type":"Feature","geometry":{"type":"Polygon","coordinates":[[[-96.0526,43.5028],[-96.053,43.8525],[-96.4532,43.8515],[-96.4541,43.5026],[-96.0526,43.5028]]]},"properties":{"GID_0":"USA","GID_1":"USA.24_1","GID_2":"USA.24.68_1","NAME_1":"Minnesota","NAME_2":"Rock"}},
{"type":"Feature","geometry":{"type":"Polygon","coordinates":[[[-95.2846,49],[-96.4066,49.0005],[-96.4061,48.717],[-96.387,48.7174],[-96.3901,48.5441],[-95.6027,48.5405],[-95.3426,48.5423],[-95.3414,48.7146],[-95.0929,48.7158],[-95.0938,48.9178],[-95.1588,48.8907],[-95.2332,48.8801],[-95.2476,48.8813],[-95.2908,48.8988],[-95.3194,48.9289],[-95.2846,49]]]},"properties":{"GID_0":"USA","GID_1":"USA.24_1","GID_2":"USA.24.69_1","NAME_1":"Minnesota","NAME_2":"Roseau"}},
{"type":"Feature","geometry":{"type":"MultiPolygon","coordinates":[[[[-92.0823,46.7728],[-92.0896,46.771],[-92.0833,46.759],[-92.0823,46.7728]]],[[[-91.7988,48.2049],[-91.9833,48.261],[-91.9998,48.321],[-92.0548,48.3591],[-92.2625,48.3548],[-92.3015,48.312],[-92.2693,48.2511],[-92.3643,48.2338],[-92.4748,48.3733],[-92.4665,48.435],[-92.5068,48.4504],[-92.6527,48.4408],[-92.6354,48.5426],[-92.7268,48.5391],[-92.9472,48.6214],[-93.0932,48.6272],[-93.0953,48.07],[-93.0804,47.981],[-93.0854,47.7223],[-93.0679,47.7218],[-93.066,47.109],[-93.0586,47.0263],[-93.0603,46.767],[-92.2991,46.7652],[-92.2883,46.6679],[-92.2124,46.6507],[-92.1,46.7514],[-92.1028,46.773],[-92.0066,46.8367],[-91.8101,46.923],[-91.7946,46.931],[-91.7951,47.373],[-91.7893,47.566],[-91.8026,47.8037],[-91.7988,48.2049]]]]},"properties":{"GID_0":"USA","GID_1":"USA.24_1","GID_2":"USA.24.70_1","NAME_1":"Minnesota","NAME_2":"SaintLouis"}},
{"type":"Feature","geometry":{"type":"Polygon","coordinates":[[[-93.7685,44.6417],[-93.878,44.6077],[-93.9091,44.5446],[-93.5259,44.5466],[-93.2798,44.546],[-93.2782,44.6326],[-93.3193,44.6332],[-93.3285,44.791],[-93.3382,44.7874],[-93.4057,44.8084],[-93.5073,44.8062],[-93.5375,44.8039],[-93.6185,44.7651],[-93.6313,44.6984],[-93.7685,44.6417]]]},"properties":{"GID_0":"USA","GID_1":"USA.24_1","GID_2":"USA.24.71_1","NAME_1":"Minnesota","NAME_2":"Scott"}},
{"type":"Feature","geometry":{"type":"Polygon","coordinates":[[[-93.5093,45.4163],[-93.5106,45.5598],[-94.1475,45.5591],[-94.1393,45.518],[-94.1386,45.5107],[-94.0502,45.4334],[-94.0338,45.4129],[-93.7841,45.3072],[-93.7497,45.2977],[-93.5644,45.2938],[-93.5261,45.249],[-93.5138,45.2454],[-93.5093,45.4163]]]},"properties":{"GID_0":"USA","GID_1":"USA.24_1","GID_2":"USA.24.72_1","NAME_1":"Minnesota","NAME_2":"Sherburne"}},
{"type":"Feature","geometry":{"type":"Polygon","coordinates":[[[-94.0104,44.719],[-94.2526,44.7188],[-94.2535,44.6307],[-94.4947,44.63],[-94.4954,44.7194],[-94.6278,44.7193],[-94.6202,44.4566],[-93.9297,44.4588],[-93.8891,44.5196],[-93.9091,44.5446],[-93.878,44.6077],[-93.7685,44.6417],[-93.7686,44.675],[-93.8887,44.6756],[-93.8902,44.7185],[-94.0104,44.719]]]},"properties":{"GID_0":"USA","GID_1":"USA.24_1","GID_2":"USA.24.73_1","NAME_1":"Minnesota","NAME_2":"Sibley"}},
{"type":"Feature","geometry":{"type":"Polygon","coordinates":[[[-94.2782,45.777],[-95.1398,45.7744],[-95.1384,45.5864],[-95.1322,45.4128],[-94.7635,45.414],[-94.7612,45.3272],[-94.3819,45.327],[-94.382,45.2836],[-94.2615,45.2844],[-94.161,45.3011],[-94.093,45.3487],[-94.0463,45.4275],[-94.0502,45.4334],[-94.1386,45.5107],[-94.1393,45.518],[-94.1475,45.5591],[-94.1989,45.617],[-94.2144,45.7248],[-94.269,45.7707],[-94.273,45.7748],[-94.2782,45.777]]]},"properties":{"GID_0":"USA","GID_1":"USA.24_1","GID_2":"USA.24.74_1","NAME_1":"Minnesota","NAME_2":"Stearns"}},
{"type":"Feature","geometry":{"type":"Polygon","coordinates":[[[-93.0463,44.1985],[-93.4046,44.1978],[-93.4057,43.8498],[-93.0461,43.8518],[-93.0463,44.1985]]]},"properties":{"GID_0":"USA","GID_1":"USA.24_1","GID_2":"USA.24.75_1","NAME_1":"Minnesota","NAME_2":"Steele"}},
{"type":"Feature","geometry":{"type":"Polygon","coordinates":[[[-96.1185,45.4133],[-95.7451,45.4122],[-95.7483,45.585],[-95.7574,45.5853],[-95.7595,45.76],[-96.2542,45.7609],[-96.2535,45.5862],[-96.2425,45.5864],[-96.2412,45.4136],[-96.1185,45.4133]]]},"properties":{"GID_0":"USA","GID_1":"USA.24_1","GID_2":"USA.24.76_1","NAME_1":"Minnesota","NAME_2":"Stevens"}},
{"type":"Feature","geometry":{"type":"Polygon","coordinates":[[[-96.1049,45.18],[-96.0915,45.1702],[-96.0372,45.1525],[-95.2456,45.1537],[-95.2549,45.4122],[-96.1185,45.4133],[-96.1176,45.241],[-96.1049,45.18]]]},"properties":{"GID_0":"USA","GID_1":"USA.24_1","GID_2":"USA.24.77_1","NAME_1":"Minnesota","NAME_2":"Swift"}},
{"type":"Feature","geometry":{"type":"Polygon","coordinates":[[[-94.7331,46.3698],[-95.1559,46.3708],[-95.1563,46.2828],[-95.1454,46.108],[-95.1391,45.9327],[-95.1398,45.7744],[-94.6438,45.7758],[-94.6419,45.9328],[-94.6478,45.9327],[-94.6466,46.2835],[-94.651,46.3462],[-94.661,46.3539],[-94.7331,46.3698]]]},"properties":{"GID_0":"USA","GID_1":"USA.24_1","GID_2":"USA.24.78_1","NAME_1":"Minnesota","NAME_2":"Todd"}},
{"type":"Feature","geometry":{"type":"Polygon","coordinates":[[[-96.2535,45.5862],[-96.2556,45.9357],[-96.2654,45.9355],[-96.2658,46.0225],[-96.5767,46.0228],[-96.5577,45.9425],[-96.5806,45.8276],[-96.6674,45.735],[-96.8303,45.6567],[-96.8363,45.5858],[-96.2535,45.5862]]]},"properties":{"GID_0":"USA","GID_1":"USA.24_1","GID_2":"USA.24.79_1","NAME_1":"Minnesota","NAME_2":"Traverse"}},
{"type":"Feature","geometry":{"type":"Polygon","coordinates":[[[-92.5516,44.1972],[-92.3189,44.1954],[-92.3178,44.1101],[-92.0803,44.1087],[-92.0805,44.1948],[-91.8579,44.1942],[-91.8885,44.2241],[-91.9151,44.3147],[-91.9592,44.3602],[-92.0582,44.4022],[-92.2117,44.4364],[-92.2434,44.4558],[-92.4302,44.4561],[-92.4322,44.3695],[-92.5517,44.3695],[-92.5516,44.1972]]]},"properties":{"GID_0":"USA","GID_1":"USA.24_1","GID_2":"USA.24.80_1","NAME_1":"Minnesota","NAME_2":"Wabasha"}},
{"type":"Feature","geometry":{"type":"Polygon","coordinates":[[[-95.1627,46.7191],[-95.1545,46.6303],[-95.1559,46.3708],[-94.7331,46.3698],[-94.7823,46.3973],[-94.7774,46.4138],[-94.7833,46.4156],[-94.7802,46.6301],[-94.7835,46.6301],[-94.7856,46.8058],[-95.1643,46.8072],[-95.1627,46.7191]]]},"properties":{"GID_0":"USA","GID_1":"USA.24_1","GID_2":"USA.24.81_1","NAME_1":"Minnesota","NAME_2":"Wadena"}},
{"type":"Feature","geometry":{"type":"Polygon","coordinates":[[[-93.7679,43.85],[-93.4057,43.8498],[-93.4046,44.1978],[-93.768,44.1971],[-93.769,43.9789],[-93.7679,43.85]]]},"properties":{"GID_0":"USA","GID_1":"USA.24_1","GID_2":"USA.24.82_1","NAME_1":"Minnesota","NAME_2":"Waseca"}},
{"type":"Feature","geometry":{"type":"Polygon","coordinates":[[[-93.0207,45.1258],[-92.9838,45.1247],[-92.9875,44.8924],[-93.0294,44.8966],[-93.0199,44.8747],[-93.0182,44.8382],[-93.0141,44.7738],[-92.8964,44.7761],[-92.7901,44.7381],[-92.766,44.8308],[-92.7547,44.9571],[-92.7639,45.0196],[-92.8001,45.0723],[-92.7472,45.1073],[-92.7583,45.2904],[-92.7439,45.2963],[-93.0188,45.2984],[-93.0207,45.1258]]]},"properties":{"GID_0":"USA","GID_1":"USA.24_1","GID_2":"USA.24.83_1","NAME_1":"Minnesota","NAME_2":"Washington"}},
{"type":"Feature","geometry":{"type":"Polygon","coordinates":[[[-94.3693,44.1098],[-94.8583,44.1093],[-94.8614,43.8496],[-94.3705,43.8501],[-94.3693,44.1098]]]},"properties":{"GID_0":"USA","GID_1":"USA.24_1","GID_2":"USA.24.84_1","NAME_1":"Minnesota","NAME_2":"Watonwan"}},
{"type":"Feature","geometry":{"type":"Polygon","coordinates":[[[-96.2827,46.6308],[-96.7846,46.6305],[-96.7534,46.5865],[-96.7376,46.4801],[-96.6682,46.3794],[-96.6022,46.3298],[-96.5869,46.1782],[-96.5552,46.0731],[-96.5767,46.0228],[-96.2658,46.0225],[-96.2667,46.109],[-96.2813,46.2851],[-96.2827,46.6308]]]},"properties":{"GID_0":"USA","GID_1":"USA.24_1","GID_2":"USA.24.85_1","NAME_1":"Minnesota","NAME_2":"Wilkin"}},
{"type":"Feature","geometry":{"type":"Polygon","coordinates":[[[-91.7304,43.8503],[-91.2882,43.851],[-91.4345,43.9975],[-91.5708,44.0278],[-91.7095,44.1058],[-91.7255,44.131],[-91.8579,44.1942],[-92.0805,44.1948],[-92.0806,43.8508],[-91.7304,43.8503]]]},"properties":{"GID_0":"USA","GID_1":"USA.24_1","GID_2":"USA.24.86_1","NAME_1":"Minnesota","NAME_2":"Winona"}},
{"type":"Feature","geometry":{"type":"Polygon","coordinates":[[[-93.7692,44.9789],[-93.7702,45.0734],[-93.7155,45.1269],[-93.6793,45.1525],[-93.6562,45.201],[-93.5158,45.2458],[-93.5261,45.249],[-93.5644,45.2938],[-93.7497,45.2977],[-93.7841,45.3072],[-94.0338,45.4129],[-94.0463,45.4275],[-94.093,45.3487],[-94.161,45.3011],[-94.2615,45.2844],[-94.2544,45.2268],[-94.2548,44.9812],[-93.7692,44.9789]]]},"properties":{"GID_0":"USA","GID_1":"USA.24_1","GID_2":"USA.24.87_1","NAME_1":"Minnesota","NAME_2":"Wright"}},
{"type":"Feature","geometry":{"type":"Polygon","coordinates":[[[-95.7363,44.9368],[-95.7374,44.892],[-95.8456,44.892],[-95.8472,44.8057],[-96.4533,44.8056],[-96.4532,44.6317],[-95.6023,44.6309],[-95.6028,44.5433],[-95.3567,44.5437],[-95.3584,44.6993],[-95.3643,44.7019],[-95.3951,44.7248],[-95.4049,44.7315],[-95.4789,44.7532],[-95.4979,44.7885],[-95.6124,44.8507],[-95.7271,44.9319],[-95.7363,44.9368]]]},"properties":{"GID_0":"USA","GID_1":"USA.24_1","GID_2":"USA.24.88_1","NAME_1":"Minnesota","NAME_2":"YellowMedicine"}}
]}