{"type":"FeatureCollection", "features": [
{"type":"Feature","geometry":{"type":"Polygon","coordinates":[[[-86.9167,32.6643],[-86.9051,32.5382],[-86.8453,32.4044],[-86.8103,32.3585],[-86.8108,32.3471],[-86.819,32.3403],[-86.7907,32.3176],[-86.7729,32.3408],[-86.7812,32.3928],[-86.7193,32.3997],[-86.6828,32.3556],[-86.646,32.404],[-86.5966,32.3635],[-86.5846,32.3753],[-86.5461,32.3667],[-86.539,32.3421],[-86.4984,32.3453],[-86.4766,32.368],[-86.4636,32.3826],[-86.418,32.4104],[-86.4109,32.4122],[-86.4128,32.7074],[-86.7142,32.7059],[-86.713,32.6621],[-86.9167,32.6643]]]},"properties":{"GID_0":"USA","GID_1":"USA.1_1","GID_2":"USA.1.1_1","NAME_1":"Alabama","NAME_2":"Autauga"}},
{"type":"Feature","geometry":{"type":"Polygon","coordinates":[[[-88.0262,30.7515],[-87.9881,30.6869],[-87.9142,30.6508],[-87.9021,30.5477],[-87.9372,30.4829],[-87.9072,30.4099],[-87.8381,30.3689],[-87.7596,30.2949],[-87.7667,30.2639],[-87.6567,30.25],[-87.5833,30.2691],[-87.4636,30.3611],[-87.4497,30.3983],[-87.3956,30.4414],[-87.4364,30.4797],[-87.4479,30.526],[-87.3974,30.6106],[-87.4071,30.6731],[-87.5328,30.7447],[-87.5531,30.7842],[-87.6372,30.867],[-87.5921,30.9539],[-87.5995,30.9972],[-87.6156,30.9975],[-87.6158,31.245],[-87.6636,31.255],[-87.7108,31.3011],[-87.7654,31.2982],[-87.8203,31.2802],[-87.8485,31.2096],[-87.9483,31.1946],[-87.9724,31.1637],[-87.9749,31.1586],[-87.9684,31.1491],[-87.9539,31.1475],[-87.9759,31.0915],[-87.9427,31.0622],[-87.9667,30.9696],[-87.9267,30.9368],[-87.9876,30.8748],[-87.9451,30.8251],[-87.9902,30.8091],[-88.0262,30.7515]]]},"properties":{"GID_0":"USA","GID_1":"USA.1_1","GID_2":"USA.1.2_1","NAME_1":"Alabama","NAME_2":"Baldwin"}},
{"type":"Feature","geometry":{"type":"Polygon","coordinates":[[[-85.4161,31.6196],[-85.4149,31.7077],[-85.2174,31.7033],[-85.2087,31.7411],[-85.1575,31.7747],[-85.1303,31.7639],[-85.1435,31.8384],[-85.1175,31.9124],[-85.0862,31.9407],[-85.0597,32.019],[-85.0595,32.063],[-85.1863,32.0623],[-85.259,32.1484],[-85.41,32.1468],[-85.4274,32.1397],[-85.4286,32.0152],[-85.5123,32.0141],[-85.5871,31.9965],[-85.6558,31.8858],[-85.665,31.8758],[-85.6733,31.8568],[-85.6644,31.7833],[-85.6759,31.7601],[-85.7058,31.7347],[-85.719,31.6559],[-85.7484,31.6182],[-85.4161,31.6196]]]},"properties":{"GID_0":"USA","GID_1":"USA.1_1","GID_2":"USA.1.3_1","NAME_1":"Alabama","NAME_2":"Barbour"}},
{"type":"Feature","geometry":{"type":"Polygon","coordinates":[[[-87.4208,32.8745],[-87.3192,32.8757],[-87.3193,32.8315],[-87.2233,32.8354],[-86.958,32.8381],[-86.8761,32.8366],[-86.8766,33.0501],[-86.8985,33.05],[-86.9694,33.0989],[-86.9692,33.1581],[-87.0251,33.166],[-87.0268,33.247],[-87.0767,33.2472],[-87.1496,33.2364],[-87.1991,33.1892],[-87.1991,33.131],[-87.2813,33.1331],[-87.3111,33.0942],[-87.3184,33.0068],[-87.4218,33.0047],[-87.4203,32.9719],[-87.4208,32.8745]]]},"properties":{"GID_0":"USA","GID_1":"USA.1_1","GID_2":"USA.1.4_1","NAME_1":"Alabama","NAME_2":"Bibb"}},
{"type":"Feature","geometry":{"type":"Polygon","coordinates":[[[-86.9629,33.8586],[-86.9545,33.8454],[-86.9532,33.8154],[-86.8837,33.8434],[-86.7593,33.841],[-86.6475,33.7662],[-86.5779,33.7654],[-86.5773,33.8022],[-86.4281,33.8227],[-86.3462,33.8858],[-86.3268,33.9382],[-86.3257,33.9401],[-86.37,33.9398],[-86.3322,33.9867],[-86.3326,34.0476],[-86.303,34.0993],[-86.4061,34.2017],[-86.4438,34.2595],[-86.4866,34.2608],[-86.4972,34.2495],[-86.5144,34.2549],[-86.5583,34.1813],[-86.6863,34.0821],[-86.7427,34.0006],[-86.9261,33.9065],[-86.9629,33.8586]]]},"properties":{"GID_0":"USA","GID_1":"USA.1_1","GID_2":"USA.1.5_1","NAME_1":"Alabama","NAME_2":"Blount"}},
{"type":"Feature","geometry":{"type":"Polygon","coordinates":[[[-85.41,32.1468],[-85.4274,32.1469],[-85.4332,32.2345],[-85.858,32.2332],[-85.8706,32.2829],[-85.8921,32.3008],[-85.8988,32.2758],[-85.9861,32.2726],[-85.9993,32.2503],[-85.9967,32.0515],[-85.9924,32.0511],[-85.9924,32.0479],[-85.9838,32.0474],[-85.979,32.0401],[-85.9632,32.0546],[-85.9113,32.0548],[-85.8935,32.0478],[-85.8839,31.9675],[-85.7899,31.9675],[-85.7907,31.8808],[-85.6601,31.8804],[-85.6558,31.8858],[-85.5871,31.9965],[-85.5123,32.0141],[-85.4286,32.0152],[-85.4274,32.1397],[-85.41,32.1468]]]},"properties":{"GID_0":"USA","GID_1":"USA.1_1","GID_2":"USA.1.6_1","NAME_1":"Alabama","NAME_2":"Bullock"}},
{"type":"Feature","geometry":{"type":"Polygon","coordinates":[[[-86.7019,31.5252],[-86.4989,31.5254],[-86.4994,31.6554],[-86.4483,31.6559],[-86.4476,31.9647],[-86.9087,31.9616],[-86.9047,31.7136],[-86.907,31.6326],[-86.8686,31.552],[-86.8388,31.5263],[-86.7019,31.5252]]]},"properties":{"GID_0":"USA","GID_1":"USA.1_1","GID_2":"USA.1.7_1","NAME_1":"Alabama","NAME_2":"Butler"}},
{"type":"Feature","geometry":{"type":"Polygon","coordinates":[[[-85.7385,33.9688],[-85.741,33.9357],[-85.8815,33.9506],[-85.8996,33.9066],[-85.9687,33.9146],[-85.995,33.8652],[-86.0648,33.8423],[-86.0487,33.7631],[-86.1479,33.7012],[-86.148,33.6798],[-86.0492,33.674],[-86.021,33.6016],[-85.9941,33.5869],[-85.7946,33.5859],[-85.7959,33.5568],[-85.7442,33.556],[-85.7421,33.6006],[-85.6379,33.6485],[-85.6376,33.7735],[-85.5859,33.8022],[-85.6015,33.8901],[-85.5324,33.8891],[-85.5293,33.9564],[-85.7385,33.9688]]]},"properties":{"GID_0":"USA","GID_1":"USA.1_1","GID_2":"USA.1.8_1","NAME_1":"Alabama","NAME_2":"Calhoun"}},
{"type":"Feature","geometry":{"type":"Polygon","coordinates":[[[-85.1391,32.7463],[-85.1253,32.7789],[-85.1693,32.8117],[-85.1903,32.8806],[-85.2327,33.1084],[-85.4855,33.1095],[-85.5934,33.1077],[-85.5928,32.7289],[-85.4042,32.7308],[-85.2848,32.731],[-85.2851,32.7451],[-85.1391,32.7463]]]},"properties":{"GID_0":"USA","GID_1":"USA.1_1","GID_2":"USA.1.9_1","NAME_1":"Alabama","NAME_2":"Chambers"}},
{"type":"Feature","geometry":{"type":"Polygon","coordinates":[[[-85.5301,33.9418],[-85.4952,33.9424],[-85.495,33.9574],[-85.3985,33.9643],[-85.5132,34.5247],[-85.5768,34.4839],[-85.579,34.4403],[-85.6366,34.3667],[-85.7718,34.2608],[-85.8436,34.2444],[-85.8414,34.1113],[-85.797,34.1142],[-85.79,34.0873],[-85.7372,33.9902],[-85.7385,33.9688],[-85.5293,33.9564],[-85.5301,33.9418]]]},"properties":{"GID_0":"USA","GID_1":"USA.1_1","GID_2":"USA.1.10_1","NAME_1":"Alabama","NAME_2":"Cherokee"}},
{"type":"Feature","geometry":{"type":"Polygon","coordinates":[[[-86.4128,32.7074],[-86.4127,32.7493],[-86.3735,32.7502],[-86.3953,32.7602],[-86.4591,32.8135],[-86.4486,32.86],[-86.4585,32.8663],[-86.5136,32.9269],[-86.524,33.0015],[-86.5208,33.022],[-86.5667,33.022],[-86.6133,33.0698],[-86.8805,33.0705],[-86.8809,33.0501],[-86.8766,33.0501],[-86.8761,32.8366],[-86.958,32.8381],[-87.0191,32.8369],[-87.0163,32.6634],[-86.9167,32.6643],[-86.713,32.6621],[-86.7142,32.7059],[-86.4128,32.7074]]]},"properties":{"GID_0":"USA","GID_1":"USA.1_1","GID_2":"USA.1.11_1","NAME_1":"Alabama","NAME_2":"Chilton"}},
{"type":"Feature","geometry":{"type":"Polygon","coordinates":[[[-88.0745,31.9906],[-88.1166,32.0151],[-88.1169,32.0556],[-88.046,32.0813],[-88.0412,32.1397],[-88.0074,32.1853],[-88.0199,32.2717],[-88.018,32.2872],[-87.9273,32.3107],[-88.2256,32.3075],[-88.4206,32.3089],[-88.472,31.9],[-88.4629,31.698],[-88.0903,31.6994],[-88.0944,31.7121],[-88.105,31.7612],[-88.1584,31.7663],[-88.1811,31.8185],[-88.1448,31.8614],[-88.1202,31.9512],[-88.0745,31.9906]]]},"properties":{"GID_0":"USA","GID_1":"USA.1_1","GID_2":"USA.1.12_1","NAME_1":"Alabama","NAME_2":"Choctaw"}},
{"type":"Feature","geometry":{"type":"Polygon","coordinates":[[[-87.7654,31.2982],[-87.7831,31.3318],[-87.7651,31.3484],[-87.7653,31.3608],[-87.7595,31.3654],[-87.7513,31.3577],[-87.744,31.3332],[-87.7264,31.3384],[-87.7227,31.3425],[-87.7219,31.3599],[-87.7027,31.4039],[-87.667,31.4225],[-87.617,31.4084],[-87.5728,31.4358],[-87.5675,31.4833],[-87.6196,31.5198],[-87.5653,31.5545],[-87.5666,31.6973],[-87.516,31.6978],[-87.518,31.8146],[-87.5008,31.8138],[-87.501,31.8298],[-87.6201,31.8273],[-87.6212,31.8706],[-87.6666,31.8761],[-87.6678,31.9914],[-88.0745,31.9906],[-88.1202,31.9512],[-88.1448,31.8614],[-88.1811,31.8185],[-88.1584,31.7663],[-88.105,31.7612],[-88.0944,31.7121],[-88.0879,31.6871],[-88.0799,31.6069],[-88.0301,31.5601],[-87.9463,31.5302],[-87.9065,31.4969],[-87.9265,31.4131],[-87.8897,31.362],[-87.9083,31.3243],[-87.988,31.2589],[-87.9704,31.2601],[-87.9329,31.2295],[-87.9483,31.1946],[-87.8485,31.2096],[-87.8203,31.2802],[-87.7654,31.2982]]]},"properties":{"GID_0":"USA","GID_1":"USA.1_1","GID_2":"USA.1.13_1","NAME_1":"Alabama","NAME_2":"Clarke"}},
{"type":"Feature","geometry":{"type":"Polygon","coordinates":[[[-86.0093,33.0906],[-85.9743,33.0905],[-85.9747,33.1059],[-85.8011,33.1045],[-85.6531,33.1067],[-85.6532,33.2005],[-85.6434,33.4962],[-85.7656,33.4993],[-85.7824,33.4694],[-85.8515,33.4989],[-85.9049,33.4992],[-85.9238,33.3965],[-85.9762,33.3821],[-85.98,33.2943],[-86.1178,33.2967],[-86.1205,33.1948],[-86.1726,33.1959],[-86.1741,33.1049],[-86.0092,33.1047],[-86.0093,33.0906]]]},"properties":{"GID_0":"USA","GID_1":"USA.1_1","GID_2":"USA.1.14_1","NAME_1":"Alabama","NAME_2":"Clay"}},
{"type":"Feature","geometry":{"type":"Polygon","coordinates":[[[-85.7959,33.5568],[-85.7966,33.5422],[-85.8515,33.4989],[-85.7824,33.4694],[-85.7656,33.4993],[-85.6434,33.4962],[-85.3528,33.4927],[-85.3051,33.4827],[-85.3985,33.9643],[-85.495,33.9574],[-85.4952,33.9424],[-85.5301,33.9418],[-85.5324,33.8891],[-85.6015,33.8901],[-85.5859,33.8022],[-85.6376,33.7735],[-85.6379,33.6485],[-85.7421,33.6006],[-85.7442,33.556],[-85.7959,33.5568]]]},"properties":{"GID_0":"USA","GID_1":"USA.1_1","GID_2":"USA.1.15_1","NAME_1":"Alabama","NAME_2":"Cleburne"}},
{"type":"Feature","geometry":{"type":"Polygon","coordinates":[[[-86.193,31.1917],[-85.9485,31.1963],[-85.7913,31.1963],[-85.7892,31.618],[-85.9833,31.6196],[-86.1457,31.6179],[-86.1439,31.5381],[-86.1944,31.53],[-86.193,31.1917]]]},"properties":{"GID_0":"USA","GID_1":"USA.1_1","GID_2":"USA.1.16_1","NAME_1":"Alabama","NAME_2":"Coffee"}},
{"type":"Feature","geometry":{"type":"Polygon","coordinates":[[[-87.5296,34.5593],[-87.5246,34.5648],[-87.5236,34.5685],[-87.5174,34.5695],[-87.5197,34.5749],[-87.5098,34.5831],[-87.5145,34.5995],[-87.4525,34.689],[-87.4182,34.7692],[-87.4259,34.8],[-87.5231,34.8328],[-87.7081,34.772],[-87.7707,34.7346],[-87.8183,34.7359],[-87.9203,34.8046],[-87.9733,34.8825],[-88.041,34.9071],[-88.0789,34.8948],[-88.098,34.8964],[-88.1405,34.5819],[-87.9518,34.5753],[-87.5291,34.5675],[-87.5296,34.5593]]]},"properties":{"GID_0":"USA","GID_1":"USA.1_1","GID_2":"USA.1.17_1","NAME_1":"Alabama","NAME_2":"Colbert"}},
{"type":"Feature","geometry":{"type":"Polygon","coordinates":[[[-86.906,31.7532],[-87.0022,31.7168],[-87.0485,31.7175],[-87.0563,31.6773],[-87.1319,31.6418],[-87.1674,31.5193],[-87.3445,31.351],[-87.3613,31.318],[-87.427,31.2604],[-86.7633,31.2612],[-86.7717,31.2001],[-86.7,31.1929],[-86.6998,31.3413],[-86.6683,31.371],[-86.7011,31.4367],[-86.7019,31.5252],[-86.8388,31.5263],[-86.8686,31.552],[-86.907,31.6326],[-86.9047,31.7136],[-86.906,31.7532]]]},"properties":{"GID_0":"USA","GID_1":"USA.1_1","GID_2":"USA.1.18_1","NAME_1":"Alabama","NAME_2":"Conecuh"}},
{"type":"Feature","geometry":{"type":"Polygon","coordinates":[[[-86.3811,32.7547],[-86.3189,32.7537],[-86.007,32.7551],[-86.0071,32.8234],[-86.0092,33.1047],[-86.4929,33.1035],[-86.5109,33.0921],[-86.5109,33.073],[-86.5208,33.022],[-86.524,33.0015],[-86.5136,32.9269],[-86.4585,32.8663],[-86.4486,32.86],[-86.4591,32.8135],[-86.3953,32.7602],[-86.3811,32.7547]]]},"properties":{"GID_0":"USA","GID_1":"USA.1_1","GID_2":"USA.1.19_1","NAME_1":"Alabama","NAME_2":"Coosa"}},
{"type":"Feature","geometry":{"type":"Polygon","coordinates":[[[-86.7019,31.5252],[-86.7011,31.4367],[-86.6683,31.371],[-86.6998,31.3413],[-86.7,31.0002],[-86.6883,30.9956],[-86.1868,30.9945],[-86.1899,31.0031],[-86.1932,31.1251],[-86.1937,31.4401],[-86.2618,31.441],[-86.2771,31.4556],[-86.2797,31.5286],[-86.3631,31.4861],[-86.4001,31.5272],[-86.4989,31.5254],[-86.7019,31.5252]]]},"properties":{"GID_0":"USA","GID_1":"USA.1_1","GID_2":"USA.1.20_1","NAME_1":"Alabama","NAME_2":"Covington"}},
{"type":"Feature","geometry":{"type":"Polygon","coordinates":[[[-86.4989,31.5254],[-86.4001,31.5272],[-86.3631,31.4861],[-86.2797,31.5286],[-86.2771,31.4556],[-86.2618,31.441],[-86.1937,31.4401],[-86.1944,31.53],[-86.1439,31.5381],[-86.1457,31.6179],[-86.1801,31.6166],[-86.1487,31.6663],[-86.1481,31.7913],[-86.1988,31.7905],[-86.1762,31.9273],[-86.1831,31.9405],[-86.1858,31.956],[-86.1906,31.9629],[-86.1917,31.967],[-86.3018,31.965],[-86.3032,32.0516],[-86.4059,32.0508],[-86.4058,32.0444],[-86.4136,31.9651],[-86.4476,31.9647],[-86.4483,31.6559],[-86.4994,31.6554],[-86.4989,31.5254]]]},"properties":{"GID_0":"USA","GID_1":"USA.1_1","GID_2":"USA.1.21_1","NAME_1":"Alabama","NAME_2":"Crenshaw"}},
{"type":"Feature","geometry":{"type":"Polygon","coordinates":[[[-86.4527,34.2599],[-86.4772,34.3027],[-87.0952,34.3125],[-87.1102,34.3142],[-87.1116,33.9925],[-87.1509,33.9931],[-87.1459,33.99],[-87.0854,33.9053],[-87.0068,33.8889],[-87.007,33.8665],[-86.9922,33.8601],[-86.9629,33.8586],[-86.9261,33.9065],[-86.7427,34.0006],[-86.6863,34.0821],[-86.5583,34.1813],[-86.5144,34.2549],[-86.4972,34.2495],[-86.4866,34.2608],[-86.4527,34.2599]]]},"properties":{"GID_0":"USA","GID_1":"USA.1_1","GID_2":"USA.1.22_1","NAME_1":"Alabama","NAME_2":"Cullman"}},
{"type":"Feature","geometry":{"type":"Polygon","coordinates":[[[-85.7484,31.6182],[-85.7892,31.618],[-85.7913,31.1963],[-85.7143,31.1953],[-85.6552,31.2748],[-85.6091,31.2749],[-85.5056,31.2475],[-85.4853,31.2871],[-85.4168,31.286],[-85.4168,31.401],[-85.415,31.5005],[-85.4161,31.6196],[-85.7484,31.6182]]]},"properties":{"GID_0":"USA","GID_1":"USA.1_1","GID_2":"USA.1.23_1","NAME_1":"Alabama","NAME_2":"Dale"}},
{"type":"Feature","geometry":{"type":"Polygon","coordinates":[[[-86.9167,32.6643],[-87.0163,32.6634],[-87.0179,32.7295],[-87.0462,32.6437],[-87.0415,32.5982],[-87.1158,32.4885],[-87.4244,32.4841],[-87.4235,32.3087],[-87.4728,32.3078],[-87.4718,32.265],[-87.4387,32.2694],[-87.3687,32.2061],[-87.3242,32.1996],[-87.2334,32.0995],[-87.1878,32.0866],[-87.181,32.047],[-86.9064,32.0483],[-86.9084,32.2251],[-86.8337,32.2386],[-86.8642,32.2722],[-86.819,32.3403],[-86.8108,32.3471],[-86.8103,32.3585],[-86.8453,32.4044],[-86.9051,32.5382],[-86.9167,32.6643]]]},"properties":{"GID_0":"USA","GID_1":"USA.1_1","GID_2":"USA.1.24_1","NAME_1":"Alabama","NAME_2":"Dallas"}},
{"type":"Feature","geometry":{"type":"Polygon","coordinates":[[[-85.5132,34.5247],[-85.5836,34.8623],[-85.627,34.8304],[-85.6591,34.7566],[-85.6934,34.7442],[-85.7857,34.6244],[-85.9383,34.5253],[-86.0317,34.4753],[-86.0568,34.4763],[-86.11,34.4278],[-86.1056,34.2011],[-85.8434,34.1999],[-85.8436,34.2444],[-85.7718,34.2608],[-85.6366,34.3667],[-85.579,34.4403],[-85.5768,34.4839],[-85.5132,34.5247]]]},"properties":{"GID_0":"USA","GID_1":"USA.1_1","GID_2":"USA.1.25_1","NAME_1":"Alabama","NAME_2":"DeKalb"}},
{"type":"Feature","geometry":{"type":"Polygon","coordinates":[[[-86.4109,32.4122],[-86.3979,32.4168],[-86.3441,32.4345],[-86.2668,32.4958],[-86.2651,32.5027],[-86.1491,32.4263],[-86.1258,32.4349],[-86.1296,32.4226],[-86.1177,32.418],[-86.0862,32.422],[-86.0781,32.4137],[-86.0488,32.4082],[-86.0221,32.4204],[-85.9643,32.4511],[-85.885,32.4498],[-85.8858,32.4935],[-85.8953,32.6056],[-85.8868,32.6493],[-85.9116,32.6804],[-85.881,32.7545],[-85.9723,32.7549],[-86.3189,32.7537],[-86.3811,32.7547],[-86.3735,32.7502],[-86.4127,32.7493],[-86.4109,32.4122]]]},"properties":{"GID_0":"USA","GID_1":"USA.1_1","GID_2":"USA.1.26_1","NAME_1":"Alabama","NAME_2":"Elmore"}},
{"type":"Feature","geometry":{"type":"Polygon","coordinates":[[[-87.5995,30.9972],[-87.1628,31.0008],[-86.772,31],[-86.6883,30.9956],[-86.7,31.0002],[-86.7,31.1929],[-86.7717,31.2001],[-86.7633,31.2612],[-87.4891,31.2595],[-87.5465,31.2306],[-87.6158,31.245],[-87.6156,30.9975],[-87.5995,30.9972]]]},"properties":{"GID_0":"USA","GID_1":"USA.1_1","GID_2":"USA.1.27_1","NAME_1":"Alabama","NAME_2":"Escambia"}},
{"type":"Feature","geometry":{"type":"Polygon","coordinates":[[[-86.3257,33.9401],[-86.3184,33.9553],[-86.2845,33.9834],[-86.2756,33.9893],[-86.202,33.99],[-86.1662,33.9249],[-86.111,33.8975],[-86.0648,33.8423],[-85.995,33.8652],[-85.9687,33.9146],[-85.8996,33.9066],[-85.8815,33.9506],[-85.741,33.9357],[-85.7372,33.9902],[-85.79,34.0873],[-85.797,34.1142],[-85.8414,34.1113],[-85.8434,34.1999],[-86.1056,34.2011],[-86.1062,34.1861],[-86.1996,34.1773],[-86.303,34.0993],[-86.3326,34.0476],[-86.3322,33.9867],[-86.37,33.9398],[-86.3257,33.9401]]]},"properties":{"GID_0":"USA","GID_1":"USA.1_1","GID_2":"USA.1.28_1","NAME_1":"Alabama","NAME_2":"Etowah"}},
{"type":"Feature","geometry":{"type":"Polygon","coordinates":[[[-87.9461,33.5244],[-87.8403,33.5252],[-87.6663,33.5216],[-87.6666,33.5803],[-87.6312,33.6102],[-87.4238,33.6025],[-87.4232,33.6894],[-87.5281,33.6926],[-87.5315,33.8681],[-87.6361,33.8726],[-87.6356,33.9153],[-87.7364,33.9147],[-87.9512,33.92],[-87.9461,33.5244]]]},"properties":{"GID_0":"USA","GID_1":"USA.1_1","GID_2":"USA.1.29_1","NAME_1":"Alabama","NAME_2":"Fayette"}},
{"type":"Feature","geometry":{"type":"Polygon","coordinates":[[[-88.1405,34.5819],[-88.1731,34.3215],[-87.7866,34.3114],[-87.5295,34.3049],[-87.5308,34.4426],[-87.5291,34.5675],[-87.9518,34.5753],[-88.1405,34.5819]]]},"properties":{"GID_0":"USA","GID_1":"USA.1_1","GID_2":"USA.1.30_1","NAME_1":"Alabama","NAME_2":"Franklin"}},
{"type":"Feature","geometry":{"type":"Polygon","coordinates":[[[-86.193,31.1917],[-86.1932,31.1251],[-86.1899,31.0031],[-86.1868,30.9945],[-85.8058,30.9945],[-85.4879,30.9968],[-85.4859,31.1985],[-85.7143,31.1953],[-85.9485,31.1963],[-86.193,31.1917]]]},"properties":{"GID_0":"USA","GID_1":"USA.1_1","GID_2":"USA.1.31_1","NAME_1":"Alabama","NAME_2":"Geneva"}},
{"type":"Feature","geometry":{"type":"Polygon","coordinates":[[[-87.8121,32.5249],[-87.783,32.6091],[-87.7928,32.7128],[-87.8249,32.7708],[-87.8167,32.8342],[-87.8346,32.8649],[-87.7719,32.9007],[-87.7665,32.9058],[-87.7381,32.942],[-87.7317,32.9526],[-87.705,32.9943],[-87.715,33.0083],[-87.8323,33.0175],[-87.8391,33.0938],[-87.8373,33.1539],[-87.8504,33.147],[-87.8776,33.1385],[-87.9217,33.1206],[-87.9483,33.1071],[-87.9675,33.0809],[-88.0472,33.0371],[-88.1479,33.0356],[-88.1718,33.0048],[-88.1709,32.9861],[-88.1884,32.9112],[-88.15,32.8253],[-88.1366,32.8359],[-88.1266,32.8292],[-88.0791,32.773],[-88.1019,32.7399],[-88.0515,32.6982],[-88.0559,32.6449],[-88.0201,32.5998],[-87.9752,32.6122],[-87.9271,32.6347],[-87.895,32.6037],[-87.8971,32.5955],[-87.876,32.5757],[-87.8714,32.562],[-87.8519,32.534],[-87.8121,32.5249]]]},"properties":{"GID_0":"USA","GID_1":"USA.1_1","GID_2":"USA.1.32_1","NAME_1":"Alabama","NAME_2":"Greene"}},
{"type":"Feature","geometry":{"type":"Polygon","coordinates":[[[-87.4218,33.0047],[-87.5241,33.0042],[-87.7139,33.0069],[-87.705,32.9943],[-87.7317,32.9526],[-87.7381,32.942],[-87.7665,32.9058],[-87.7719,32.9007],[-87.8346,32.8649],[-87.8167,32.8342],[-87.8249,32.7708],[-87.7928,32.7128],[-87.783,32.6091],[-87.8121,32.5249],[-87.7283,32.5245],[-87.7287,32.4812],[-87.5244,32.4823],[-87.525,32.6559],[-87.4738,32.6563],[-87.4721,32.8308],[-87.4214,32.8316],[-87.4203,32.9719],[-87.4218,33.0047]]]},"properties":{"GID_0":"USA","GID_1":"USA.1_1","GID_2":"USA.1.33_1","NAME_1":"Alabama","NAME_2":"Hale"}},
{"type":"Feature","geometry":{"type":"Polygon","coordinates":[[[-85.4161,31.6196],[-85.415,31.5005],[-85.4175,31.3152],[-85.3692,31.3147],[-85.1792,31.3076],[-85.0909,31.3088],[-85.0974,31.3637],[-85.0704,31.4368],[-85.07,31.4871],[-85.0454,31.5443],[-85.0674,31.627],[-85.1257,31.6948],[-85.1303,31.7639],[-85.1575,31.7747],[-85.2087,31.7411],[-85.2174,31.7033],[-85.4149,31.7077],[-85.4161,31.6196]]]},"properties":{"GID_0":"USA","GID_1":"USA.1_1","GID_2":"USA.1.34_1","NAME_1":"Alabama","NAME_2":"Henry"}},
{"type":"Feature","geometry":{"type":"Polygon","coordinates":[[[-85.7143,31.1953],[-85.4859,31.1985],[-85.4879,30.9968],[-85.0035,31.0021],[-85.0404,31.1097],[-85.1093,31.1911],[-85.1171,31.2776],[-85.0909,31.3088],[-85.1792,31.3076],[-85.3692,31.3147],[-85.4175,31.3152],[-85.4168,31.286],[-85.4853,31.2871],[-85.5056,31.2475],[-85.6091,31.2749],[-85.6552,31.2748],[-85.7143,31.1953]]]},"properties":{"GID_0":"USA","GID_1":"USA.1_1","GID_2":"USA.1.35_1","NAME_1":"Alabama","NAME_2":"Houston"}},
{"type":"Feature","geometry":{"type":"Polygon","coordinates":[[[-85.5836,34.8623],[-85.6055,34.9855],[-86.3109,34.9921],[-86.2942,34.9448],[-86.3504,34.8735],[-86.3298,34.8295],[-86.3372,34.7577],[-86.3579,34.7355],[-86.3592,34.6329],[-86.3308,34.6028],[-86.3269,34.6001],[-86.1482,34.5992],[-86.1496,34.547],[-86.0624,34.4754],[-86.0485,34.4767],[-86.0317,34.4753],[-85.9383,34.5253],[-85.7857,34.6244],[-85.6934,34.7442],[-85.6591,34.7566],[-85.627,34.8304],[-85.5836,34.8623]]]},"properties":{"GID_0":"USA","GID_1":"USA.1_1","GID_2":"USA.1.36_1","NAME_1":"Alabama","NAME_2":"Jackson"}},
{"type":"Feature","geometry":{"type":"Polygon","coordinates":[[[-87.0268,33.247],[-86.9823,33.2463],[-86.926,33.2784],[-86.8823,33.3327],[-86.7786,33.3671],[-86.7524,33.4176],[-86.7183,33.4163],[-86.6739,33.4669],[-86.6045,33.467],[-86.5605,33.518],[-86.5171,33.5243],[-86.5171,33.5535],[-86.5518,33.5616],[-86.5512,33.6203],[-86.5248,33.6563],[-86.5248,33.7217],[-86.5431,33.7654],[-86.6475,33.7662],[-86.7593,33.841],[-86.8837,33.8434],[-86.9532,33.8154],[-86.9537,33.8013],[-87.0061,33.7875],[-87.0405,33.7291],[-87.0396,33.6855],[-87.0922,33.6279],[-87.1792,33.6142],[-87.1864,33.5564],[-87.1908,33.5514],[-87.2753,33.5195],[-87.2608,33.5068],[-87.3317,33.4895],[-87.3357,33.4567],[-87.2844,33.4407],[-87.1973,33.3585],[-87.1794,33.3213],[-87.0654,33.2764],[-87.0657,33.2473],[-87.0268,33.247]]]},"properties":{"GID_0":"USA","GID_1":"USA.1_1","GID_2":"USA.1.37_1","NAME_1":"Alabama","NAME_2":"Jefferson"}},
{"type":"Feature","geometry":{"type":"Polygon","coordinates":[[[-87.9512,33.92],[-87.9514,34.0223],[-87.9864,34.0527],[-88.205,34.0588],[-88.2283,33.8988],[-88.2736,33.5344],[-87.9461,33.5244],[-87.9512,33.92]]]},"properties":{"GID_0":"USA","GID_1":"USA.1_1","GID_2":"USA.1.38_1","NAME_1":"Alabama","NAME_2":"Lamar"}},
{"type":"Feature","geometry":{"type":"Polygon","coordinates":[[[-87.4259,34.8],[-87.334,34.793],[-87.2787,34.753],[-87.2603,34.759],[-87.2144,34.8161],[-87.2105,34.9999],[-87.6203,35.005],[-88.2019,35.0089],[-88.1525,34.9269],[-88.0789,34.8948],[-88.041,34.9071],[-87.9733,34.8825],[-87.9203,34.8046],[-87.8183,34.7359],[-87.7707,34.7346],[-87.7081,34.772],[-87.5231,34.8328],[-87.4259,34.8]]]},"properties":{"GID_0":"USA","GID_1":"USA.1_1","GID_2":"USA.1.39_1","NAME_1":"Alabama","NAME_2":"Lauderdale"}},
{"type":"Feature","geometry":{"type":"Polygon","coordinates":[[[-87.5296,34.5593],[-87.5308,34.4426],[-87.5295,34.3049],[-87.3743,34.3007],[-87.1096,34.2997],[-87.11,34.3606],[-87.1067,34.5001],[-87.1048,34.6863],[-87.125,34.7017],[-87.1802,34.7472],[-87.2497,34.7622],[-87.2787,34.753],[-87.334,34.793],[-87.4259,34.8],[-87.4182,34.7692],[-87.4525,34.689],[-87.5145,34.5995],[-87.5098,34.5831],[-87.5197,34.5749],[-87.5174,34.5695],[-87.5236,34.5685],[-87.5246,34.5648],[-87.5296,34.5593]]]},"properties":{"GID_0":"USA","GID_1":"USA.1_1","GID_2":"USA.1.40_1","NAME_1":"Alabama","NAME_2":"Lawrence"}},
{"type":"Feature","geometry":{"type":"Polygon","coordinates":[[[-85.5928,32.7289],[-85.6962,32.6978],[-85.6957,32.5821],[-85.4889,32.497],[-85.4378,32.4975],[-85.4341,32.41],[-85.3298,32.4112],[-85.3339,32.4682],[-85.0588,32.4733],[-85.0603,32.5106],[-85.0017,32.5108],[-85.075,32.5885],[-85.1141,32.7327],[-85.1391,32.7463],[-85.2851,32.7451],[-85.2848,32.731],[-85.4042,32.7308],[-85.5928,32.7289]]]},"properties":{"GID_0":"USA","GID_1":"USA.1_1","GID_2":"USA.1.41_1","NAME_1":"Alabama","NAME_2":"Lee"}},
{"type":"Feature","geometry":{"type":"Polygon","coordinates":[[[-87.2603,34.759],[-87.2497,34.7622],[-87.1802,34.7472],[-87.125,34.7017],[-87.0986,34.6823],[-86.9069,34.58],[-86.8102,34.5548],[-86.7896,34.5513],[-86.7876,34.6189],[-86.7834,34.9927],[-87.2105,34.9999],[-87.2144,34.8161],[-87.2603,34.759]]]},"properties":{"GID_0":"USA","GID_1":"USA.1_1","GID_2":"USA.1.42_1","NAME_1":"Alabama","NAME_2":"Limestone"}},
{"type":"Feature","geometry":{"type":"Polygon","coordinates":[[[-86.819,32.3403],[-86.8642,32.2722],[-86.8337,32.2386],[-86.9084,32.2251],[-86.9064,32.0483],[-86.8567,32.0489],[-86.8574,31.9623],[-86.4136,31.9651],[-86.4058,32.0444],[-86.4084,32.245],[-86.4908,32.3029],[-86.4984,32.3453],[-86.539,32.3421],[-86.5461,32.3667],[-86.5846,32.3753],[-86.5966,32.3635],[-86.646,32.404],[-86.6828,32.3556],[-86.7193,32.3997],[-86.7812,32.3928],[-86.7729,32.3408],[-86.7907,32.3176],[-86.819,32.3403]]]},"properties":{"GID_0":"USA","GID_1":"USA.1_1","GID_2":"USA.1.43_1","NAME_1":"Alabama","NAME_2":"Lowndes"}},
{"type":"Feature","geometry":{"type":"Polygon","coordinates":[[[-85.4332,32.2345],[-85.4341,32.41],[-85.4378,32.4975],[-85.4889,32.497],[-85.6957,32.5821],[-85.6956,32.5962],[-85.7125,32.5958],[-85.7126,32.5822],[-85.7986,32.5814],[-85.7972,32.4948],[-85.8858,32.4935],[-85.885,32.4498],[-85.9643,32.4511],[-86.0221,32.4204],[-85.9906,32.3382],[-85.9667,32.334],[-85.947,32.2952],[-85.9221,32.2809],[-85.9189,32.2745],[-85.8988,32.2758],[-85.8921,32.3008],[-85.8706,32.2829],[-85.858,32.2332],[-85.4332,32.2345]]]},"properties":{"GID_0":"USA","GID_1":"USA.1_1","GID_2":"USA.1.44_1","NAME_1":"Alabama","NAME_2":"Macon"}},
{"type":"Feature","geometry":{"type":"Polygon","coordinates":[[[-86.3109,34.9921],[-86.7834,34.9927],[-86.7876,34.6189],[-86.7896,34.5513],[-86.7751,34.5504],[-86.7144,34.5869],[-86.6691,34.5542],[-86.6462,34.5488],[-86.5781,34.5816],[-86.5485,34.5493],[-86.5502,34.5384],[-86.5,34.4826],[-86.4258,34.4794],[-86.3114,34.5392],[-86.3241,34.5983],[-86.3308,34.6028],[-86.3592,34.6329],[-86.3579,34.7355],[-86.3372,34.7577],[-86.3298,34.8295],[-86.3504,34.8735],[-86.2942,34.9448],[-86.3109,34.9921]]]},"properties":{"GID_0":"USA","GID_1":"USA.1_1","GID_2":"USA.1.45_1","NAME_1":"Alabama","NAME_2":"Madison"}},
{"type":"Feature","geometry":{"type":"Polygon","coordinates":[[[-88.0745,31.9906],[-87.6678,31.9914],[-87.6679,32.0024],[-87.6226,32.006],[-87.6238,32.1328],[-87.5221,32.1328],[-87.5237,32.2554],[-87.4718,32.265],[-87.4728,32.3078],[-87.5238,32.3074],[-87.5233,32.3953],[-87.5244,32.4823],[-87.7287,32.4812],[-87.7283,32.5245],[-87.8121,32.5249],[-87.8519,32.534],[-87.8454,32.5318],[-87.8398,32.5228],[-87.8484,32.5177],[-87.8691,32.5188],[-87.905,32.5238],[-87.9558,32.4722],[-88.0354,32.4315],[-88.0463,32.3794],[-87.9719,32.3471],[-87.9273,32.3107],[-88.018,32.2872],[-88.0199,32.2717],[-88.0074,32.1853],[-88.0412,32.1397],[-88.046,32.0813],[-88.1169,32.0556],[-88.1166,32.0151],[-88.0745,31.9906]]]},"properties":{"GID_0":"USA","GID_1":"USA.1_1","GID_2":"USA.1.46_1","NAME_1":"Alabama","NAME_2":"Marengo"}},
{"type":"Feature","geometry":{"type":"Polygon","coordinates":[[[-87.6356,33.9153],[-87.6366,34.0958],[-87.634,34.2199],[-87.6347,34.3071],[-87.7866,34.3114],[-88.1731,34.3215],[-88.205,34.0588],[-87.9864,34.0527],[-87.9514,34.0223],[-87.9512,33.92],[-87.7364,33.9147],[-87.6356,33.9153]]]},"properties":{"GID_0":"USA","GID_1":"USA.1_1","GID_2":"USA.1.47_1","NAME_1":"Alabama","NAME_2":"Marion"}},
{"type":"Feature","geometry":{"type":"Polygon","coordinates":[[[-86.303,34.0993],[-86.1996,34.1773],[-86.1062,34.1861],[-86.11,34.4278],[-86.0568,34.4763],[-86.0624,34.4754],[-86.1496,34.547],[-86.1482,34.5992],[-86.3269,34.6001],[-86.3241,34.5983],[-86.3114,34.5392],[-86.4258,34.4794],[-86.5,34.4826],[-86.5502,34.5384],[-86.5502,34.5448],[-86.5813,34.3731],[-86.5817,34.3049],[-86.4772,34.3027],[-86.4527,34.2599],[-86.4438,34.2595],[-86.4061,34.2017],[-86.303,34.0993]]]},"properties":{"GID_0":"USA","GID_1":"USA.1_1","GID_2":"USA.1.48_1","NAME_1":"Alabama","NAME_2":"Marshall"}},
{"type":"Feature","geometry":{"type":"Polygon","coordinates":[[[-87.9684,31.1491],[-87.9749,31.1586],[-87.9724,31.1637],[-88.0222,31.1443],[-88.3296,31.1438],[-88.33,31.1145],[-88.4308,31.1142],[-88.4101,30.7033],[-88.3994,30.395],[-88.3577,30.4057],[-88.2096,30.3607],[-88.1909,30.3181],[-88.1294,30.3383],[-88.1073,30.3782],[-88.101,30.5101],[-88.0872,30.5669],[-88.012,30.6847],[-88.0262,30.7515],[-87.9902,30.8091],[-87.9451,30.8251],[-87.9876,30.8748],[-87.9267,30.9368],[-87.9667,30.9696],[-87.9427,31.0622],[-87.9759,31.0915],[-87.9539,31.1475],[-87.9684,31.1491]]]},"properties":{"GID_0":"USA","GID_1":"USA.1_1","GID_2":"USA.1.49_1","NAME_1":"Alabama","NAME_2":"Mobile"}},
{"type":"Feature","geometry":{"type":"Polygon","coordinates":[[[-87.6158,31.245],[-87.5465,31.2306],[-87.4891,31.2595],[-87.427,31.2604],[-87.3613,31.318],[-87.3445,31.351],[-87.1674,31.5193],[-87.1319,31.6418],[-87.0563,31.6773],[-87.0485,31.7175],[-87.0022,31.7168],[-86.906,31.7532],[-86.907,31.8308],[-87.2282,31.8314],[-87.501,31.8298],[-87.5008,31.8138],[-87.518,31.8146],[-87.516,31.6978],[-87.5666,31.6973],[-87.5653,31.5545],[-87.6196,31.5198],[-87.5675,31.4833],[-87.5728,31.4358],[-87.617,31.4084],[-87.667,31.4225],[-87.7027,31.4039],[-87.7219,31.3599],[-87.7227,31.3425],[-87.7264,31.3384],[-87.744,31.3332],[-87.7513,31.3577],[-87.7595,31.3654],[-87.7653,31.3608],[-87.7651,31.3484],[-87.7831,31.3318],[-87.7654,31.2982],[-87.7108,31.3011],[-87.6636,31.255],[-87.6158,31.245]]]},"properties":{"GID_0":"USA","GID_1":"USA.1_1","GID_2":"USA.1.50_1","NAME_1":"Alabama","NAME_2":"Monroe"}},
{"type":"Feature","geometry":{"type":"Polygon","coordinates":[[[-86.4984,32.3453],[-86.4908,32.3029],[-86.4084,32.245],[-86.4059,32.0508],[-86.3032,32.0516],[-86.3018,31.965],[-85.9951,31.9681],[-85.9993,32.2503],[-85.9861,32.2726],[-85.9189,32.2745],[-85.9221,32.2809],[-85.947,32.2952],[-85.9667,32.334],[-85.9906,32.3382],[-86.0221,32.4204],[-86.0488,32.4082],[-86.0781,32.4137],[-86.0862,32.422],[-86.1177,32.418],[-86.1296,32.4226],[-86.1258,32.4349],[-86.1491,32.4263],[-86.2651,32.5027],[-86.2668,32.4958],[-86.3441,32.4345],[-86.3979,32.4168],[-86.418,32.4104],[-86.4636,32.3826],[-86.4766,32.368],[-86.4984,32.3453]]]},"properties":{"GID_0":"USA","GID_1":"USA.1_1","GID_2":"USA.1.51_1","NAME_1":"Alabama","NAME_2":"Montgomery"}},
{"type":"Feature","geometry":{"type":"Polygon","coordinates":[[[-86.5817,34.3049],[-86.5813,34.3731],[-86.5502,34.5448],[-86.5485,34.5493],[-86.5781,34.5816],[-86.6462,34.5488],[-86.6691,34.5542],[-86.7144,34.5869],[-86.7751,34.5504],[-86.7913,34.5513],[-86.8102,34.5548],[-86.9069,34.58],[-87.0986,34.6823],[-87.1048,34.6863],[-87.1102,34.3142],[-87.0952,34.3125],[-86.5817,34.3049]]]},"properties":{"GID_0":"USA","GID_1":"USA.1_1","GID_2":"USA.1.52_1","NAME_1":"Alabama","NAME_2":"Morgan"}},
{"type":"Feature","geometry":{"type":"Polygon","coordinates":[[[-87.4208,32.8745],[-87.4214,32.8316],[-87.4721,32.8308],[-87.4738,32.6563],[-87.525,32.6559],[-87.5233,32.3953],[-87.5238,32.3074],[-87.4235,32.3087],[-87.4244,32.4841],[-87.1158,32.4885],[-87.0415,32.5982],[-87.0462,32.6437],[-87.0179,32.7295],[-87.0191,32.8369],[-87.2233,32.8354],[-87.3193,32.8315],[-87.3192,32.8757],[-87.4208,32.8745]]]},"properties":{"GID_0":"USA","GID_1":"USA.1_1","GID_2":"USA.1.53_1","NAME_1":"Alabama","NAME_2":"Perry"}},
{"type":"Feature","geometry":{"type":"Polygon","coordinates":[[[-87.9461,33.5244],[-88.2736,33.5344],[-88.3382,32.9917],[-88.1711,32.9962],[-88.1718,33.0048],[-88.1479,33.0356],[-88.0472,33.0371],[-87.9675,33.0809],[-87.9483,33.1071],[-87.9217,33.1206],[-87.8776,33.1385],[-87.8504,33.147],[-87.8373,33.1539],[-87.8363,33.1899],[-87.8403,33.5252],[-87.9461,33.5244]]]},"properties":{"GID_0":"USA","GID_1":"USA.1_1","GID_2":"USA.1.54_1","NAME_1":"Alabama","NAME_2":"Pickens"}},
{"type":"Feature","geometry":{"type":"Polygon","coordinates":[[[-85.6601,31.8804],[-85.7907,31.8808],[-85.7899,31.9675],[-85.8839,31.9675],[-85.8935,32.0478],[-85.9113,32.0548],[-85.9632,32.0546],[-85.979,32.0401],[-85.9838,32.0474],[-85.9924,32.0479],[-85.9924,32.0511],[-85.9967,32.0515],[-85.9951,31.9681],[-86.1917,31.967],[-86.1906,31.9629],[-86.1858,31.956],[-86.1831,31.9405],[-86.1762,31.9273],[-86.1988,31.7905],[-86.1481,31.7913],[-86.1487,31.6663],[-86.1801,31.6166],[-85.9833,31.6196],[-85.7484,31.6182],[-85.719,31.6559],[-85.7058,31.7347],[-85.6759,31.7601],[-85.6644,31.7833],[-85.6733,31.8568],[-85.665,31.8758],[-85.6601,31.8804]]]},"properties":{"GID_0":"USA","GID_1":"USA.1_1","GID_2":"USA.1.55_1","NAME_1":"Alabama","NAME_2":"Pike"}},
{"type":"Feature","geometry":{"type":"Polygon","coordinates":[[[-85.2327,33.1084],[-85.3051,33.4827],[-85.3528,33.4927],[-85.6434,33.4962],[-85.6532,33.2005],[-85.6531,33.1067],[-85.4855,33.1095],[-85.2327,33.1084]]]},"properties":{"GID_0":"USA","GID_1":"USA.1_1","GID_2":"USA.1.56_1","NAME_1":"Alabama","NAME_2":"Randolph"}},
{"type":"Feature","geometry":{"type":"Polygon","coordinates":[[[-85.0595,32.063],[-85.063,32.1252],[-85.0135,32.1822],[-84.9295,32.2215],[-84.8935,32.2646],[-84.9997,32.3223],[-84.9824,32.4057],[-85.0017,32.5108],[-85.0603,32.5106],[-85.0588,32.4733],[-85.3339,32.4682],[-85.3298,32.4112],[-85.4341,32.41],[-85.4274,32.1469],[-85.259,32.1484],[-85.1863,32.0623],[-85.0595,32.063]]]},"properties":{"GID_0":"USA","GID_1":"USA.1_1","GID_2":"USA.1.57_1","NAME_1":"Alabama","NAME_2":"Russell"}},
{"type":"Feature","geometry":{"type":"Polygon","coordinates":[[[-86.5779,33.7654],[-86.5431,33.7654],[-86.5248,33.7217],[-86.5248,33.6563],[-86.5512,33.6203],[-86.5518,33.5616],[-86.5171,33.5535],[-86.5165,33.5462],[-86.4818,33.5025],[-86.3783,33.5029],[-86.3785,33.3951],[-86.3091,33.4555],[-86.2897,33.5046],[-86.2341,33.4995],[-86.1998,33.5385],[-86.2228,33.5895],[-86.1714,33.6226],[-86.1502,33.6739],[-86.1479,33.7012],[-86.0487,33.7631],[-86.0648,33.8423],[-86.111,33.8975],[-86.1662,33.9249],[-86.202,33.99],[-86.2756,33.9893],[-86.2845,33.9834],[-86.3184,33.9553],[-86.3268,33.9382],[-86.3462,33.8858],[-86.4281,33.8227],[-86.5773,33.8022],[-86.5779,33.7654]]]},"properties":{"GID_0":"USA","GID_1":"USA.1_1","GID_2":"USA.1.58_1","NAME_1":"Alabama","NAME_2":"SaintClair"}},
{"type":"Feature","geometry":{"type":"Polygon","coordinates":[[[-86.8809,33.0501],[-86.8805,33.0705],[-86.6133,33.0698],[-86.5667,33.022],[-86.5208,33.022],[-86.5109,33.073],[-86.5109,33.0921],[-86.4929,33.1035],[-86.4677,33.1208],[-86.4978,33.1963],[-86.438,33.2764],[-86.4012,33.2741],[-86.3622,33.3004],[-86.3461,33.3573],[-86.3785,33.3951],[-86.3783,33.5029],[-86.4818,33.5025],[-86.5165,33.5462],[-86.5171,33.5243],[-86.5605,33.518],[-86.6045,33.467],[-86.6739,33.4669],[-86.7183,33.4163],[-86.7524,33.4176],[-86.7786,33.3671],[-86.8823,33.3327],[-86.926,33.2784],[-86.9823,33.2463],[-87.0268,33.247],[-87.0251,33.166],[-86.9692,33.1581],[-86.9694,33.0989],[-86.8985,33.05],[-86.8809,33.0501]]]},"properties":{"GID_0":"USA","GID_1":"USA.1_1","GID_2":"USA.1.59_1","NAME_1":"Alabama","NAME_2":"Shelby"}},
{"type":"Feature","geometry":{"type":"Polygon","coordinates":[[[-87.9273,32.3107],[-87.9719,32.3471],[-88.0463,32.3794],[-88.0354,32.4315],[-87.9558,32.4722],[-87.905,32.5238],[-87.8691,32.5188],[-87.8484,32.5177],[-87.8398,32.5228],[-87.8454,32.5318],[-87.8519,32.534],[-87.8714,32.562],[-87.876,32.5757],[-87.8971,32.5955],[-87.895,32.6037],[-87.9271,32.6347],[-87.9752,32.6122],[-88.0201,32.5998],[-88.0559,32.6449],[-88.0515,32.6982],[-88.1019,32.7399],[-88.0791,32.773],[-88.1266,32.8292],[-88.1366,32.8359],[-88.15,32.8253],[-88.1884,32.9112],[-88.1709,32.9861],[-88.1711,32.9962],[-88.3382,32.9917],[-88.4206,32.3089],[-88.2256,32.3075],[-87.9273,32.3107]]]},"properties":{"GID_0":"USA","GID_1":"USA.1_1","GID_2":"USA.1.60_1","NAME_1":"Alabama","NAME_2":"Sumter"}},
{"type":"Feature","geometry":{"type":"Polygon","coordinates":[[[-86.148,33.6798],[-86.1502,33.6739],[-86.1714,33.6226],[-86.2228,33.5895],[-86.1998,33.5385],[-86.2341,33.4995],[-86.2897,33.5046],[-86.3091,33.4555],[-86.3785,33.3951],[-86.3461,33.3573],[-86.3622,33.3004],[-86.4012,33.2741],[-86.438,33.2764],[-86.4978,33.1963],[-86.4677,33.1208],[-86.4929,33.1035],[-86.1741,33.1049],[-86.1726,33.1959],[-86.1205,33.1948],[-86.1178,33.2967],[-85.98,33.2943],[-85.9762,33.3821],[-85.9238,33.3965],[-85.9049,33.4992],[-85.8515,33.4989],[-85.7966,33.5422],[-85.7946,33.5859],[-85.9941,33.5869],[-86.021,33.6016],[-86.0492,33.674],[-86.148,33.6798]]]},"properties":{"GID_0":"USA","GID_1":"USA.1_1","GID_2":"USA.1.61_1","NAME_1":"Alabama","NAME_2":"Talladega"}},
{"type":"Feature","geometry":{"type":"Polygon","coordinates":[[[-85.5934,33.1077],[-85.8011,33.1045],[-85.9747,33.1059],[-85.9743,33.0905],[-86.0093,33.0906],[-86.0071,32.8234],[-86.007,32.7551],[-85.9723,32.7549],[-85.881,32.7545],[-85.9116,32.6804],[-85.8868,32.6493],[-85.8953,32.6056],[-85.8858,32.4935],[-85.7972,32.4948],[-85.7986,32.5814],[-85.7126,32.5822],[-85.7125,32.5958],[-85.6956,32.5962],[-85.6962,32.6978],[-85.5928,32.7289],[-85.5934,33.1077]]]},"properties":{"GID_0":"USA","GID_1":"USA.1_1","GID_2":"USA.1.62_1","NAME_1":"Alabama","NAME_2":"Tallapoosa"}},
{"type":"Feature","geometry":{"type":"Polygon","coordinates":[[[-87.0657,33.2473],[-87.0654,33.2764],[-87.1794,33.3213],[-87.1973,33.3585],[-87.2844,33.4407],[-87.3357,33.4567],[-87.3317,33.4895],[-87.2608,33.5068],[-87.267,33.5132],[-87.3182,33.5142],[-87.3184,33.5879],[-87.4238,33.6025],[-87.6312,33.6102],[-87.6666,33.5803],[-87.6663,33.5216],[-87.8403,33.5252],[-87.8363,33.1899],[-87.8391,33.0938],[-87.8323,33.0175],[-87.715,33.0083],[-87.7139,33.0069],[-87.5241,33.0042],[-87.3184,33.0068],[-87.3111,33.0942],[-87.2813,33.1331],[-87.1991,33.131],[-87.1991,33.1892],[-87.1496,33.2364],[-87.0767,33.2472],[-87.0657,33.2473]]]},"properties":{"GID_0":"USA","GID_1":"USA.1_1","GID_2":"USA.1.63_1","NAME_1":"Alabama","NAME_2":"Tuscaloosa"}},
{"type":"Feature","geometry":{"type":"Polygon","coordinates":[[[-86.9629,33.8586],[-86.9922,33.8601],[-87.007,33.8665],[-87.0068,33.8889],[-87.0854,33.9053],[-87.1459,33.99],[-87.1615,34.0004],[-87.2357,33.9949],[-87.4994,33.9966],[-87.6358,34.0026],[-87.6361,33.8726],[-87.5315,33.8681],[-87.5281,33.6926],[-87.4232,33.6894],[-87.4238,33.6025],[-87.3184,33.5879],[-87.3182,33.5142],[-87.267,33.5132],[-87.2753,33.5195],[-87.1908,33.5514],[-87.1864,33.5564],[-87.1792,33.6142],[-87.0922,33.6279],[-87.0396,33.6855],[-87.0405,33.7291],[-87.0061,33.7875],[-86.9537,33.8013],[-86.9545,33.8454],[-86.9629,33.8586]]]},"properties":{"GID_0":"USA","GID_1":"USA.1_1","GID_2":"USA.1.64_1","NAME_1":"Alabama","NAME_2":"Walker"}},
{"type":"Feature","geometry":{"type":"Polygon","coordinates":[[[-87.9483,31.1946],[-87.9329,31.2295],[-87.9704,31.2601],[-87.988,31.2589],[-87.9083,31.3243],[-87.8897,31.362],[-87.9265,31.4131],[-87.9065,31.4969],[-87.9463,31.5302],[-88.0301,31.5601],[-88.0799,31.6069],[-88.0879,31.6871],[-88.0903,31.6994],[-88.4629,31.698],[-88.4507,31.444],[-88.4308,31.1142],[-88.33,31.1145],[-88.3296,31.1438],[-88.0222,31.1443],[-87.9724,31.1637],[-87.9483,31.1946]]]},"properties":{"GID_0":"USA","GID_1":"USA.1_1","GID_2":"USA.1.65_1","NAME_1":"Alabama","NAME_2":"Washington"}},
{"type":"Feature","geometry":{"type":"Polygon","coordinates":[[[-86.8574,31.9623],[-86.8567,32.0489],[-87.181,32.047],[-87.1878,32.0866],[-87.2334,32.0995],[-87.3242,32.1996],[-87.3687,32.2061],[-87.4387,32.2694],[-87.4718,32.265],[-87.5237,32.2554],[-87.5221,32.1328],[-87.6238,32.1328],[-87.6226,32.006],[-87.6679,32.0024],[-87.6666,31.8761],[-87.6212,31.8706],[-87.6201,31.8273],[-87.3441,31.8311],[-87.2282,31.8314],[-86.907,31.8308],[-86.9087,31.9616],[-86.8574,31.9623]]]},"properties":{"GID_0":"USA","GID_1":"USA.1_1","GID_2":"USA.1.66_1","NAME_1":"Alabama","NAME_2":"Wilcox"}},
{"type":"Feature","geometry":{"type":"Polygon","coordinates":[[[-87.1096,34.2997],[-87.3743,34.3007],[-87.6347,34.3071],[-87.634,34.2199],[-87.6358,34.0026],[-87.4994,33.9966],[-87.2357,33.9949],[-87.1615,34.0004],[-87.1509,33.9931],[-87.1116,33.9925],[-87.1096,34.2997]]]},"properties":{"GID_0":"USA","GID_1":"USA.1_1","GID_2":"USA.1.67_1","NAME_1":"Alabama","NAME_2":"Winston"}}
]}