{"type":"FeatureCollection", "features": [
{"type":"Feature","geometry":{"type":"Polygon","coordinates":[[[-98.7262,40.6894],[-98.7244,40.352],[-98.4964,40.3526],[-98.278,40.3512],[-98.278,40.6987],[-98.7261,40.7003],[-98.7262,40.6894]]]},"properties":{"GID_0":"USA","GID_1":"USA.28_1","GID_2":"USA.28.1_1","NAME_1":"Nebraska","NAME_2":"Adams"}},
{"type":"Feature","geometry":{"type":"Polygon","coordinates":[[[-97.8328,41.9184],[-97.8343,42.091],[-97.8346,42.4395],[-98.2996,42.4374],[-98.3,42.0889],[-98.2957,42.0888],[-98.295,41.9153],[-97.8328,41.9184]]]},"properties":{"GID_0":"USA","GID_1":"USA.28_1","GID_2":"USA.28.2_1","NAME_1":"Nebraska","NAME_2":"Antelope"}},
{"type":"Feature","geometry":{"type":"Polygon","coordinates":[[[-101.9853,41.3955],[-101.4055,41.3954],[-101.4045,41.7432],[-101.541,41.7416],[-101.9865,41.7423],[-101.9853,41.3955]]]},"properties":{"GID_0":"USA","GID_1":"USA.28_1","GID_2":"USA.28.3_1","NAME_1":"Nebraska","NAME_2":"Arthur"}},
{"type":"Feature","geometry":{"type":"Polygon","coordinates":[[[-103.3696,41.436],[-103.3681,41.6986],[-104.0522,41.6975],[-104.052,41.3949],[-103.7149,41.3929],[-103.484,41.3939],[-103.37,41.3929],[-103.3696,41.436]]]},"properties":{"GID_0":"USA","GID_1":"USA.28_1","GID_2":"USA.28.4_1","NAME_1":"Nebraska","NAME_2":"Banner"}},
{"type":"Feature","geometry":{"type":"Polygon","coordinates":[[[-100.1667,42.0881],[-100.2675,42.0871],[-100.2662,41.7411],[-100.1358,41.7394],[-99.9918,41.7413],[-99.6842,41.7409],[-99.6845,42.086],[-100.1667,42.0881]]]},"properties":{"GID_0":"USA","GID_1":"USA.28_1","GID_2":"USA.28.5_1","NAME_1":"Nebraska","NAME_2":"Blaine"}},
{"type":"Feature","geometry":{"type":"Polygon","coordinates":[[[-98.295,41.9153],[-98.2961,41.7423],[-98.2912,41.7418],[-98.2908,41.4803],[-98.0786,41.4814],[-98.0422,41.5117],[-97.8835,41.5269],[-97.8295,41.5269],[-97.8302,41.7439],[-97.8328,41.9184],[-98.295,41.9153]]]},"properties":{"GID_0":"USA","GID_1":"USA.28_1","GID_2":"USA.28.6_1","NAME_1":"Nebraska","NAME_2":"Boone"}},
{"type":"Feature","geometry":{"type":"Polygon","coordinates":[[[-103.4444,42.4387],[-103.4432,42.2646],[-103.4457,42.0905],[-103.3995,42.004],[-102.936,42.0022],[-102.6989,42.0051],[-102.7431,42.0923],[-102.7499,42.4394],[-103.2416,42.4376],[-103.4444,42.4387]]]},"properties":{"GID_0":"USA","GID_1":"USA.28_1","GID_2":"USA.28.7_1","NAME_1":"Nebraska","NAME_2":"BoxButte"}},
{"type":"Feature","geometry":{"type":"Polygon","coordinates":[[[-99.2551,42.8045],[-98.9539,42.8934],[-98.7123,42.803],[-98.5871,42.7813],[-98.4531,42.7684],[-98.3525,42.774],[-98.3053,42.7629],[-98.3054,42.7847],[-98.3104,42.7853],[-98.3105,42.883],[-98.4382,42.9301],[-98.5001,42.9977],[-99.2525,42.9973],[-99.2551,42.8045]]]},"properties":{"GID_0":"USA","GID_1":"USA.28_1","GID_2":"USA.28.8_1","NAME_1":"Nebraska","NAME_2":"Boyd"}},
{"type":"Feature","geometry":{"type":"Polygon","coordinates":[[[-99.6845,42.086],[-99.6628,42.0864],[-99.663,42.4326],[-99.6784,42.7299],[-99.7639,42.7387],[-99.8225,42.7456],[-100.076,42.7903],[-100.1347,42.807],[-100.1535,42.8316],[-100.191,42.8397],[-100.1985,42.8461],[-100.1984,42.782],[-100.1837,42.4338],[-100.1675,42.4348],[-100.1667,42.0881],[-99.6845,42.086]]]},"properties":{"GID_0":"USA","GID_1":"USA.28_1","GID_2":"USA.28.9_1","NAME_1":"Nebraska","NAME_2":"Brown"}},
{"type":"Feature","geometry":{"type":"Polygon","coordinates":[[[-98.7218,40.7003],[-98.7228,41.0474],[-98.9495,41.0462],[-99.4247,41.0466],[-99.4269,40.7],[-99.4168,40.6686],[-99.2382,40.6591],[-99.2194,40.6599],[-99.1534,40.6576],[-99.0183,40.658],[-98.9965,40.6565],[-98.9026,40.6539],[-98.7262,40.6894],[-98.7261,40.7003],[-98.7218,40.7003]]]},"properties":{"GID_0":"USA","GID_1":"USA.28_1","GID_2":"USA.28.10_1","NAME_1":"Nebraska","NAME_2":"Buffalo"}},
{"type":"Feature","geometry":{"type":"Polygon","coordinates":[[[-96.1193,41.6819],[-96.0661,41.7966],[-96.1598,41.908],[-96.1335,41.97],[-96.2728,42.0474],[-96.3107,42.0188],[-96.5544,42.0169],[-96.5548,41.7438],[-96.444,41.744],[-96.444,41.684],[-96.1193,41.6819]]]},"properties":{"GID_0":"USA","GID_1":"USA.28_1","GID_2":"USA.28.11_1","NAME_1":"Nebraska","NAME_2":"Burt"}},
{"type":"Feature","geometry":{"type":"Polygon","coordinates":[[[-96.9081,41.0476],[-96.9077,41.3091],[-96.9043,41.4552],[-97.0955,41.3885],[-97.2369,41.3772],[-97.293,41.3789],[-97.3676,41.3954],[-97.3683,41.0475],[-96.9081,41.0476]]]},"properties":{"GID_0":"USA","GID_1":"USA.28_1","GID_2":"USA.28.12_1","NAME_1":"Nebraska","NAME_2":"Butler"}},
{"type":"Feature","geometry":{"type":"Polygon","coordinates":[[[-95.833,40.7849],[-95.8106,40.9002],[-95.8795,41.0538],[-96.0607,41.0641],[-96.2042,40.9976],[-96.2261,40.9972],[-96.295,41.0252],[-96.3123,41.0368],[-96.319,41.045],[-96.3496,41.0147],[-96.4635,41.0151],[-96.4653,40.8704],[-96.4642,40.7832],[-95.833,40.7849]]]},"properties":{"GID_0":"USA","GID_1":"USA.28_1","GID_2":"USA.28.13_1","NAME_1":"Nebraska","NAME_2":"Cass"}},
{"type":"Feature","geometry":{"type":"Polygon","coordinates":[[[-97.4865,42.4401],[-97.369,42.4405],[-97.3685,42.3537],[-97.019,42.3529],[-97.017,42.7616],[-97.1347,42.7739],[-97.2193,42.8465],[-97.3559,42.8736],[-97.4841,42.8682],[-97.4854,42.8484],[-97.4865,42.4401]]]},"properties":{"GID_0":"USA","GID_1":"USA.28_1","GID_2":"USA.28.14_1","NAME_1":"Nebraska","NAME_2":"Cedar"}},
{"type":"Feature","geometry":{"type":"Polygon","coordinates":[[[-102.0501,40.6983],[-102.0493,40.3495],[-101.3421,40.3517],[-101.3432,40.6973],[-101.5888,40.699],[-102.0501,40.6983]]]},"properties":{"GID_0":"USA","GID_1":"USA.28_1","GID_2":"USA.28.15_1","NAME_1":"Nebraska","NAME_2":"Chase"}},
{"type":"Feature","geometry":{"type":"Polygon","coordinates":[[[-100.1667,42.0881],[-100.1675,42.4348],[-100.1837,42.4338],[-100.1984,42.782],[-100.1984,42.997],[-100.7509,42.9947],[-101.6775,42.9953],[-102.0829,42.9979],[-102.0665,42.7867],[-102.0669,42.4448],[-102.0402,42.4448],[-102.0393,42.0962],[-101.8902,42.0962],[-101.803,42.0934],[-101.4097,42.0942],[-100.6156,42.0872],[-100.1667,42.0881]]]},"properties":{"GID_0":"USA","GID_1":"USA.28_1","GID_2":"USA.28.16_1","NAME_1":"Nebraska","NAME_2":"Cherry"}},
{"type":"Feature","geometry":{"type":"Polygon","coordinates":[[[-103.3849,41.003],[-102.6205,41.0031],[-102.6103,41.2213],[-102.6081,41.3948],[-102.6394,41.395],[-102.6385,41.4377],[-103.3696,41.436],[-103.37,41.3929],[-103.378,41.3931],[-103.3779,41.0471],[-103.3849,41.003]]]},"properties":{"GID_0":"USA","GID_1":"USA.28_1","GID_2":"USA.28.17_1","NAME_1":"Nebraska","NAME_2":"Cheyenne"}},
{"type":"Feature","geometry":{"type":"Polygon","coordinates":[[[-98.278,40.3512],[-98.0493,40.352],[-97.8236,40.3505],[-97.826,40.6105],[-97.8245,40.6985],[-98.278,40.6987],[-98.278,40.3512]]]},"properties":{"GID_0":"USA","GID_1":"USA.28_1","GID_2":"USA.28.18_1","NAME_1":"Nebraska","NAME_2":"Clay"}},
{"type":"Feature","geometry":{"type":"Polygon","coordinates":[[[-96.9043,41.4552],[-96.9057,41.7455],[-97.2504,41.7456],[-97.2532,41.3785],[-97.2369,41.3772],[-97.0955,41.3885],[-96.9043,41.4552]]]},"properties":{"GID_0":"USA","GID_1":"USA.28_1","GID_2":"USA.28.19_1","NAME_1":"Nebraska","NAME_2":"Colfax"}},
{"type":"Feature","geometry":{"type":"Polygon","coordinates":[[[-96.5544,42.0169],[-96.5555,42.0933],[-97.0184,42.0916],[-97.0201,41.7459],[-96.5548,41.7438],[-96.5544,42.0169]]]},"properties":{"GID_0":"USA","GID_1":"USA.28_1","GID_2":"USA.28.20_1","NAME_1":"Nebraska","NAME_2":"Cuming"}},
{"type":"Feature","geometry":{"type":"Polygon","coordinates":[[[-100.2514,41.7406],[-100.2508,41.3947],[-100.2361,41.3925],[-100.2349,41.2191],[-100.2392,41.0481],[-99.5356,41.0461],[-99.2078,41.0477],[-99.2015,41.3943],[-99.2148,41.7398],[-99.9918,41.7413],[-100.1358,41.7394],[-100.2514,41.7406]]]},"properties":{"GID_0":"USA","GID_1":"USA.28_1","GID_2":"USA.28.21_1","NAME_1":"Nebraska","NAME_2":"Custer"}},
{"type":"Feature","geometry":{"type":"Polygon","coordinates":[[[-96.3574,42.277],[-96.4186,42.352],[-96.3834,42.4383],[-96.6195,42.5277],[-96.722,42.5267],[-96.7274,42.4382],[-96.7268,42.28],[-96.3574,42.277]]]},"properties":{"GID_0":"USA","GID_1":"USA.28_1","GID_2":"USA.28.22_1","NAME_1":"Nebraska","NAME_2":"Dakota"}},
{"type":"Feature","geometry":{"type":"Polygon","coordinates":[[[-102.7742,42.4402],[-102.7755,42.7858],[-102.7904,43],[-103.5063,43.0012],[-103.4792,42.7862],[-103.4779,42.4383],[-103.2416,42.4376],[-102.7742,42.4402]]]},"properties":{"GID_0":"USA","GID_1":"USA.28_1","GID_2":"USA.28.23_1","NAME_1":"Nebraska","NAME_2":"Dawes"}},
{"type":"Feature","geometry":{"type":"Polygon","coordinates":[[[-99.4247,41.0466],[-100.2215,41.0481],[-100.2243,40.9583],[-100.2217,40.7015],[-99.9949,40.7004],[-99.9174,40.6981],[-99.7021,40.7],[-99.6434,40.6849],[-99.4168,40.6686],[-99.4269,40.7],[-99.4247,41.0466]]]},"properties":{"GID_0":"USA","GID_1":"USA.28_1","GID_2":"USA.28.24_1","NAME_1":"Nebraska","NAME_2":"Dawson"}},
{"type":"Feature","geometry":{"type":"Polygon","coordinates":[[[-102.6205,41.0031],[-102.0504,41.0019],[-102.0505,41.0477],[-102.0542,41.0481],[-102.0556,41.2214],[-102.6103,41.2213],[-102.6205,41.0031]]]},"properties":{"GID_0":"USA","GID_1":"USA.28_1","GID_2":"USA.28.25_1","NAME_1":"Nebraska","NAME_2":"Deuel"}},
{"type":"Feature","geometry":{"type":"Polygon","coordinates":[[[-97.019,42.3529],[-97.0184,42.2656],[-96.9358,42.2669],[-96.7269,42.2659],[-96.7274,42.4382],[-96.722,42.5267],[-96.6195,42.5277],[-96.7658,42.6629],[-96.8594,42.7227],[-97.017,42.7616],[-97.019,42.3529]]]},"properties":{"GID_0":"USA","GID_1":"USA.28_1","GID_2":"USA.28.26_1","NAME_1":"Nebraska","NAME_2":"Dixon"}},
{"type":"Feature","geometry":{"type":"Polygon","coordinates":[[[-96.5548,41.7438],[-96.9057,41.7455],[-96.9043,41.4552],[-96.7613,41.4495],[-96.6878,41.4263],[-96.5578,41.4292],[-96.4882,41.3941],[-96.33,41.3942],[-96.434,41.4934],[-96.4429,41.5359],[-96.444,41.744],[-96.5548,41.7438]]]},"properties":{"GID_0":"USA","GID_1":"USA.28_1","GID_2":"USA.28.27_1","NAME_1":"Nebraska","NAME_2":"Dodge"}},
{"type":"Feature","geometry":{"type":"Polygon","coordinates":[[[-95.9366,41.3937],[-96.4733,41.3941],[-96.3623,41.2852],[-96.3491,41.2634],[-96.3502,41.2562],[-96.365,41.2356],[-96.3594,41.2159],[-96.3321,41.1958],[-96.3273,41.1903],[-95.921,41.1891],[-95.8871,41.319],[-95.9366,41.3937]]]},"properties":{"GID_0":"USA","GID_1":"USA.28_1","GID_2":"USA.28.28_1","NAME_1":"Nebraska","NAME_2":"Douglas"}},
{"type":"Feature","geometry":{"type":"Polygon","coordinates":[[[-102.0493,40.3495],[-102.0485,40.0039],[-101.3224,40.0042],[-101.3234,40.351],[-102.0493,40.3495]]]},"properties":{"GID_0":"USA","GID_1":"USA.28_1","GID_2":"USA.28.29_1","NAME_1":"Nebraska","NAME_2":"Dundy"}},
{"type":"Feature","geometry":{"type":"Polygon","coordinates":[[[-97.8236,40.3505],[-97.3686,40.3514],[-97.3685,40.699],[-97.8245,40.6985],[-97.826,40.6105],[-97.8236,40.3505]]]},"properties":{"GID_0":"USA","GID_1":"USA.28_1","GID_2":"USA.28.30_1","NAME_1":"Nebraska","NAME_2":"Fillmore"}},
{"type":"Feature","geometry":{"type":"Polygon","coordinates":[[[-99.1797,40.0024],[-98.7288,40.0032],[-98.7275,40.3516],[-98.8402,40.3526],[-99.1793,40.3503],[-99.1797,40.0024]]]},"properties":{"GID_0":"USA","GID_1":"USA.28_1","GID_2":"USA.28.31_1","NAME_1":"Nebraska","NAME_2":"Franklin"}},
{"type":"Feature","geometry":{"type":"Polygon","coordinates":[[[-100.2217,40.7015],[-100.7794,40.6998],[-100.7835,40.6857],[-100.7756,40.3488],[-100.328,40.3512],[-100.3111,40.3498],[-100.0933,40.3507],[-100.0946,40.4373],[-99.9817,40.4391],[-99.9816,40.6999],[-100.2217,40.7015]]]},"properties":{"GID_0":"USA","GID_1":"USA.28_1","GID_2":"USA.28.32_1","NAME_1":"Nebraska","NAME_2":"Frontier"}},
{"type":"Feature","geometry":{"type":"Polygon","coordinates":[[[-100.1919,40.0028],[-99.6276,40.0028],[-99.6306,40.3497],[-100.1965,40.3501],[-100.1919,40.0028]]]},"properties":{"GID_0":"USA","GID_1":"USA.28_1","GID_2":"USA.28.33_1","NAME_1":"Nebraska","NAME_2":"Furnas"}},
{"type":"Feature","geometry":{"type":"Polygon","coordinates":[[[-96.4636,40.0026],[-96.4638,40.5227],[-96.9122,40.5226],[-96.9136,40.3502],[-96.916,40.3503],[-96.9183,40.0028],[-96.4636,40.0026]]]},"properties":{"GID_0":"USA","GID_1":"USA.28_1","GID_2":"USA.28.34_1","NAME_1":"Nebraska","NAME_2":"Gage"}},
{"type":"Feature","geometry":{"type":"Polygon","coordinates":[[[-101.9865,41.7423],[-102.0684,41.7433],[-102.067,42.009],[-102.2387,42.0084],[-102.3566,42.0059],[-102.6748,42.0051],[-102.6792,41.8311],[-102.6364,41.7416],[-102.6394,41.395],[-102.6081,41.3948],[-102.6103,41.2213],[-102.0556,41.2214],[-102.0551,41.3939],[-101.9853,41.3955],[-101.9865,41.7423]]]},"properties":{"GID_0":"USA","GID_1":"USA.28_1","GID_2":"USA.28.35_1","NAME_1":"Nebraska","NAME_2":"Garden"}},
{"type":"Feature","geometry":{"type":"Polygon","coordinates":[[[-99.2148,41.7398],[-98.7595,41.7399],[-98.7607,42.0873],[-99.2201,42.0873],[-99.2209,41.7399],[-99.2148,41.7398]]]},"properties":{"GID_0":"USA","GID_1":"USA.28_1","GID_2":"USA.28.36_1","NAME_1":"Nebraska","NAME_2":"Garfield"}},
{"type":"Feature","geometry":{"type":"Polygon","coordinates":[[[-99.9816,40.6999],[-99.9817,40.4391],[-100.0946,40.4373],[-100.0933,40.3507],[-99.6421,40.3502],[-99.6434,40.6849],[-99.7021,40.7],[-99.9174,40.6981],[-99.9816,40.6999]]]},"properties":{"GID_0":"USA","GID_1":"USA.28_1","GID_2":"USA.28.37_1","NAME_1":"Nebraska","NAME_2":"Gosper"}},
{"type":"Feature","geometry":{"type":"Polygon","coordinates":[[[-101.4248,41.7434],[-101.4251,42.0936],[-101.803,42.0934],[-101.8902,42.0962],[-102.0065,42.0958],[-102.0077,42.0082],[-102.067,42.009],[-102.0684,41.7433],[-101.9865,41.7423],[-101.541,41.7416],[-101.4248,41.7434]]]},"properties":{"GID_0":"USA","GID_1":"USA.28_1","GID_2":"USA.28.38_1","NAME_1":"Nebraska","NAME_2":"Grant"}},
{"type":"Feature","geometry":{"type":"Polygon","coordinates":[[[-98.2961,41.7423],[-98.7527,41.7398],[-98.7496,41.3939],[-98.291,41.3949],[-98.2912,41.7418],[-98.2961,41.7423]]]},"properties":{"GID_0":"USA","GID_1":"USA.28_1","GID_2":"USA.28.39_1","NAME_1":"Nebraska","NAME_2":"Greeley"}},
{"type":"Feature","geometry":{"type":"Polygon","coordinates":[[[-98.2829,40.6992],[-98.2826,40.9596],[-98.286,41.0468],[-98.7228,41.0474],[-98.7218,40.7003],[-98.2829,40.6992]]]},"properties":{"GID_0":"USA","GID_1":"USA.28_1","GID_2":"USA.28.40_1","NAME_1":"Nebraska","NAME_2":"Hall"}},
{"type":"Feature","geometry":{"type":"Polygon","coordinates":[[[-98.278,40.6987],[-97.8245,40.6985],[-97.8283,41.1733],[-97.8367,41.1618],[-97.8916,41.1118],[-98.0189,41.066],[-98.1318,40.9964],[-98.2187,40.9308],[-98.2443,40.9044],[-98.2829,40.8725],[-98.2829,40.6992],[-98.278,40.6987]]]},"properties":{"GID_0":"USA","GID_1":"USA.28_1","GID_2":"USA.28.41_1","NAME_1":"Nebraska","NAME_2":"Hamilton"}},
{"type":"Feature","geometry":{"type":"Polygon","coordinates":[[[-99.6276,40.0028],[-99.1797,40.0024],[-99.1793,40.3503],[-99.6306,40.3497],[-99.6276,40.0028]]]},"properties":{"GID_0":"USA","GID_1":"USA.28_1","GID_2":"USA.28.42_1","NAME_1":"Nebraska","NAME_2":"Harlan"}},
{"type":"Feature","geometry":{"type":"Polygon","coordinates":[[[-101.3421,40.3517],[-100.7756,40.3488],[-100.7835,40.6857],[-100.7794,40.6998],[-101.3432,40.6973],[-101.3421,40.3517]]]},"properties":{"GID_0":"USA","GID_1":"USA.28_1","GID_2":"USA.28.43_1","NAME_1":"Nebraska","NAME_2":"Hayes"}},
{"type":"Feature","geometry":{"type":"Polygon","coordinates":[[[-100.7568,40.0033],[-100.7569,40.3489],[-101.3234,40.351],[-101.3224,40.0042],[-100.7568,40.0033]]]},"properties":{"GID_0":"USA","GID_1":"USA.28_1","GID_2":"USA.28.44_1","NAME_1":"Nebraska","NAME_2":"Hitchcock"}},
{"type":"Feature","geometry":{"type":"Polygon","coordinates":[[[-98.2996,42.4374],[-98.3052,42.4365],[-98.3053,42.7629],[-98.3525,42.774],[-98.4531,42.7684],[-98.5871,42.7813],[-98.7123,42.803],[-98.9539,42.8934],[-99.2551,42.8045],[-99.2441,42.7822],[-99.2331,42.0873],[-98.3,42.0889],[-98.2996,42.4374]]]},"properties":{"GID_0":"USA","GID_1":"USA.28_1","GID_2":"USA.28.45_1","NAME_1":"Nebraska","NAME_2":"Holt"}},
{"type":"Feature","geometry":{"type":"Polygon","coordinates":[[[-101.4045,41.7432],[-100.8439,41.7404],[-100.8417,41.9129],[-100.8458,42.0019],[-100.8444,42.0896],[-101.4251,42.0936],[-101.4248,41.7434],[-101.4045,41.7432]]]},"properties":{"GID_0":"USA","GID_1":"USA.28_1","GID_2":"USA.28.46_1","NAME_1":"Nebraska","NAME_2":"Hooker"}},
{"type":"Feature","geometry":{"type":"Polygon","coordinates":[[[-98.7228,41.0474],[-98.286,41.0468],[-98.2867,41.3949],[-98.7447,41.3938],[-98.7484,41.0476],[-98.7228,41.0474]]]},"properties":{"GID_0":"USA","GID_1":"USA.28_1","GID_2":"USA.28.47_1","NAME_1":"Nebraska","NAME_2":"Howard"}},
{"type":"Feature","geometry":{"type":"Polygon","coordinates":[[[-97.3711,40.0035],[-96.9183,40.0028],[-96.916,40.3503],[-97.3686,40.3514],[-97.3711,40.0035]]]},"properties":{"GID_0":"USA","GID_1":"USA.28_1","GID_2":"USA.28.48_1","NAME_1":"Nebraska","NAME_2":"Jefferson"}},
{"type":"Feature","geometry":{"type":"Polygon","coordinates":[[[-96.4634,40.2626],[-96.0655,40.2617],[-96.0692,40.5233],[-96.4638,40.5227],[-96.4634,40.2626]]]},"properties":{"GID_0":"USA","GID_1":"USA.28_1","GID_2":"USA.28.49_1","NAME_1":"Nebraska","NAME_2":"Johnson"}},
{"type":"Feature","geometry":{"type":"Polygon","coordinates":[[[-98.7262,40.6894],[-98.9026,40.6539],[-98.9965,40.6565],[-99.0183,40.658],[-99.1534,40.6576],[-99.1794,40.6587],[-99.1806,40.6124],[-99.1793,40.3503],[-98.8402,40.3526],[-98.7244,40.352],[-98.7262,40.6894]]]},"properties":{"GID_0":"USA","GID_1":"USA.28_1","GID_2":"USA.28.50_1","NAME_1":"Nebraska","NAME_2":"Kearney"}},
{"type":"Feature","geometry":{"type":"Polygon","coordinates":[[[-101.9853,41.3955],[-102.0551,41.3939],[-102.0542,41.0481],[-102.0505,41.0477],[-102.0504,41.0037],[-101.3618,41.0035],[-101.248,41.005],[-101.2487,41.0476],[-101.2688,41.0488],[-101.2702,41.3959],[-101.9853,41.3955]]]},"properties":{"GID_0":"USA","GID_1":"USA.28_1","GID_2":"USA.28.51_1","NAME_1":"Nebraska","NAME_2":"Keith"}},
{"type":"Feature","geometry":{"type":"Polygon","coordinates":[[[-99.2525,42.9973],[-100.1984,42.9979],[-100.1985,42.8461],[-100.191,42.8397],[-100.1535,42.8316],[-100.1347,42.807],[-100.076,42.7903],[-99.8225,42.7456],[-99.7639,42.7387],[-99.6784,42.7299],[-99.5318,42.7199],[-99.3746,42.7851],[-99.2551,42.8045],[-99.2525,42.9973]]]},"properties":{"GID_0":"USA","GID_1":"USA.28_1","GID_2":"USA.28.52_1","NAME_1":"Nebraska","NAME_2":"KeyaPaha"}},
{"type":"Feature","geometry":{"type":"Polygon","coordinates":[[[-103.3849,41.003],[-103.3779,41.0471],[-103.378,41.3931],[-103.7149,41.3929],[-104.052,41.3949],[-104.0528,41.0017],[-103.3849,41.003]]]},"properties":{"GID_0":"USA","GID_1":"USA.28_1","GID_2":"USA.28.53_1","NAME_1":"Nebraska","NAME_2":"Kimball"}},
{"type":"Feature","geometry":{"type":"Polygon","coordinates":[[[-97.8346,42.4395],[-97.4865,42.4401],[-97.4854,42.8484],[-97.4841,42.8682],[-97.6822,42.8335],[-97.8757,42.8573],[-97.918,42.7902],[-98.012,42.7622],[-98.127,42.8199],[-98.2418,42.8656],[-98.2785,42.873],[-98.3105,42.8823],[-98.3104,42.7853],[-98.3054,42.7847],[-98.3052,42.4365],[-97.8346,42.4395]]]},"properties":{"GID_0":"USA","GID_1":"USA.28_1","GID_2":"USA.28.54_1","NAME_1":"Nebraska","NAME_2":"Knox"}},
{"type":"Feature","geometry":{"type":"Polygon","coordinates":[[[-96.9112,41.0477],[-96.9106,40.6973],[-96.9137,40.6973],[-96.9122,40.5226],[-96.4638,40.5227],[-96.4653,40.8704],[-96.4626,41.0464],[-96.6815,41.046],[-96.9112,41.0477]]]},"properties":{"GID_0":"USA","GID_1":"USA.28_1","GID_2":"USA.28.55_1","NAME_1":"Nebraska","NAME_2":"Lancaster"}},
{"type":"Feature","geometry":{"type":"Polygon","coordinates":[[[-100.2508,41.3947],[-100.713,41.3939],[-101.2702,41.3959],[-101.2688,41.0488],[-101.2487,41.0476],[-101.2446,40.7827],[-101.2456,40.6974],[-100.2217,40.7015],[-100.2243,40.9583],[-100.2215,41.0481],[-100.2392,41.0481],[-100.2349,41.2191],[-100.2361,41.3925],[-100.2508,41.3947]]]},"properties":{"GID_0":"USA","GID_1":"USA.28_1","GID_2":"USA.28.56_1","NAME_1":"Nebraska","NAME_2":"Lincoln"}},
{"type":"Feature","geometry":{"type":"Polygon","coordinates":[[[-100.2662,41.7411],[-100.7098,41.7412],[-100.7139,41.4801],[-100.713,41.3939],[-100.2508,41.3947],[-100.2514,41.7406],[-100.2662,41.7411]]]},"properties":{"GID_0":"USA","GID_1":"USA.28_1","GID_2":"USA.28.57_1","NAME_1":"Nebraska","NAME_2":"Logan"}},
{"type":"Feature","geometry":{"type":"Polygon","coordinates":[[[-99.6842,41.7409],[-99.2209,41.7399],[-99.2201,42.0873],[-99.6845,42.086],[-99.6842,41.7409]]]},"properties":{"GID_0":"USA","GID_1":"USA.28_1","GID_2":"USA.28.58_1","NAME_1":"Nebraska","NAME_2":"Loup"}},
{"type":"Feature","geometry":{"type":"Polygon","coordinates":[[[-97.8328,41.9184],[-97.8302,41.7439],[-97.3673,41.7457],[-97.3691,42.0924],[-97.8343,42.091],[-97.8328,41.9184]]]},"properties":{"GID_0":"USA","GID_1":"USA.28_1","GID_2":"USA.28.59_1","NAME_1":"Nebraska","NAME_2":"Madison"}},
{"type":"Feature","geometry":{"type":"Polygon","coordinates":[[[-101.4055,41.3954],[-100.713,41.3939],[-100.7139,41.4801],[-100.7098,41.7412],[-100.8439,41.7404],[-101.4045,41.7432],[-101.4055,41.3954]]]},"properties":{"GID_0":"USA","GID_1":"USA.28_1","GID_2":"USA.28.60_1","NAME_1":"Nebraska","NAME_2":"McPherson"}},
{"type":"Feature","geometry":{"type":"Polygon","coordinates":[[[-98.2829,40.8725],[-98.2443,40.9044],[-98.2187,40.9308],[-98.1318,40.9964],[-98.0189,41.066],[-97.8916,41.1118],[-97.8367,41.1618],[-97.8282,41.1735],[-97.7926,41.1973],[-97.6551,41.3085],[-97.5981,41.3171],[-97.5984,41.3952],[-97.705,41.3949],[-97.7053,41.3095],[-98.0538,41.2944],[-98.1017,41.2629],[-98.2752,41.2645],[-98.2751,41.3947],[-98.2867,41.3949],[-98.286,41.0468],[-98.2826,40.9596],[-98.2829,40.8725]]]},"properties":{"GID_0":"USA","GID_1":"USA.28_1","GID_2":"USA.28.61_1","NAME_1":"Nebraska","NAME_2":"Merrick"}},
{"type":"Feature","geometry":{"type":"Polygon","coordinates":[[[-103.3696,41.436],[-102.6385,41.4377],[-102.6364,41.7416],[-102.6792,41.8311],[-102.6748,42.0051],[-102.936,42.0022],[-103.3605,42.0037],[-103.3684,41.744],[-103.3696,41.436]]]},"properties":{"GID_0":"USA","GID_1":"USA.28_1","GID_2":"USA.28.62_1","NAME_1":"Nebraska","NAME_2":"Morrill"}},
{"type":"Feature","geometry":{"type":"Polygon","coordinates":[[[-98.2908,41.4803],[-98.291,41.3949],[-98.2751,41.3947],[-98.2752,41.2645],[-98.1017,41.2629],[-98.0538,41.2944],[-97.7053,41.3095],[-97.705,41.5274],[-97.8835,41.5269],[-98.0422,41.5117],[-98.0786,41.4814],[-98.2908,41.4803]]]},"properties":{"GID_0":"USA","GID_1":"USA.28_1","GID_2":"USA.28.63_1","NAME_1":"Nebraska","NAME_2":"Nance"}},
{"type":"Feature","geometry":{"type":"Polygon","coordinates":[[[-95.7097,40.5238],[-96.0692,40.5233],[-96.0655,40.2617],[-95.5526,40.2617],[-95.6174,40.3137],[-95.7097,40.5238]]]},"properties":{"GID_0":"USA","GID_1":"USA.28_1","GID_2":"USA.28.64_1","NAME_1":"Nebraska","NAME_2":"Nemaha"}},
{"type":"Feature","geometry":{"type":"Polygon","coordinates":[[[-98.2755,40.0038],[-97.8215,40.0035],[-97.8206,40.351],[-98.0493,40.352],[-98.2744,40.3507],[-98.2755,40.0038]]]},"properties":{"GID_0":"USA","GID_1":"USA.28_1","GID_2":"USA.28.65_1","NAME_1":"Nebraska","NAME_2":"Nuckolls"}},
{"type":"Feature","geometry":{"type":"Polygon","coordinates":[[[-95.833,40.7849],[-96.4642,40.7832],[-96.4638,40.5227],[-95.7097,40.5238],[-95.7602,40.528],[-95.7755,40.6471],[-95.8883,40.736],[-95.833,40.7849]]]},"properties":{"GID_0":"USA","GID_1":"USA.28_1","GID_2":"USA.28.66_1","NAME_1":"Nebraska","NAME_2":"Otoe"}},
{"type":"Feature","geometry":{"type":"Polygon","coordinates":[[[-96.4636,40.0026],[-96.0101,40.0013],[-96.0083,40.0875],[-96.01,40.2618],[-96.4634,40.2626],[-96.4636,40.0026]]]},"properties":{"GID_0":"USA","GID_1":"USA.28_1","GID_2":"USA.28.67_1","NAME_1":"Nebraska","NAME_2":"Pawnee"}},
{"type":"Feature","geometry":{"type":"Polygon","coordinates":[[[-102.0501,40.6983],[-101.5888,40.699],[-101.2456,40.6974],[-101.2446,40.7827],[-101.248,41.005],[-101.3618,41.0035],[-102.0504,41.0037],[-102.0501,40.6983]]]},"properties":{"GID_0":"USA","GID_1":"USA.28_1","GID_2":"USA.28.68_1","NAME_1":"Nebraska","NAME_2":"Perkins"}},
{"type":"Feature","geometry":{"type":"Polygon","coordinates":[[[-99.4168,40.6686],[-99.6434,40.6849],[-99.6421,40.3502],[-99.1793,40.3503],[-99.1806,40.6124],[-99.1794,40.6587],[-99.2382,40.6591],[-99.4168,40.6686]]]},"properties":{"GID_0":"USA","GID_1":"USA.28_1","GID_2":"USA.28.69_1","NAME_1":"Nebraska","NAME_2":"Phelps"}},
{"type":"Feature","geometry":{"type":"Polygon","coordinates":[[[-97.8343,42.091],[-97.3691,42.0924],[-97.369,42.4405],[-97.8346,42.4395],[-97.8343,42.091]]]},"properties":{"GID_0":"USA","GID_1":"USA.28_1","GID_2":"USA.28.70_1","NAME_1":"Nebraska","NAME_2":"Pierce"}},
{"type":"Feature","geometry":{"type":"Polygon","coordinates":[[[-97.8295,41.5269],[-97.705,41.5274],[-97.705,41.3949],[-97.5984,41.3952],[-97.5975,41.3334],[-97.3676,41.3954],[-97.293,41.3789],[-97.2532,41.3785],[-97.2504,41.7456],[-97.8302,41.7439],[-97.8295,41.5269]]]},"properties":{"GID_0":"USA","GID_1":"USA.28_1","GID_2":"USA.28.71_1","NAME_1":"Nebraska","NAME_2":"Platte"}},
{"type":"Feature","geometry":{"type":"Polygon","coordinates":[[[-97.3676,41.3954],[-97.5975,41.3334],[-97.5981,41.3171],[-97.6551,41.3085],[-97.7926,41.1973],[-97.8283,41.1733],[-97.8276,41.0467],[-97.5298,41.0484],[-97.3683,41.0475],[-97.3676,41.3954]]]},"properties":{"GID_0":"USA","GID_1":"USA.28_1","GID_2":"USA.28.72_1","NAME_1":"Nebraska","NAME_2":"Polk"}},
{"type":"Feature","geometry":{"type":"Polygon","coordinates":[[[-100.1919,40.0028],[-100.1965,40.3501],[-100.3111,40.3498],[-100.328,40.3512],[-100.7569,40.3489],[-100.7568,40.0033],[-100.1919,40.0028]]]},"properties":{"GID_0":"USA","GID_1":"USA.28_1","GID_2":"USA.28.73_1","NAME_1":"Nebraska","NAME_2":"RedWillow"}},
{"type":"Feature","geometry":{"type":"Polygon","coordinates":[[[-96.0101,40.0013],[-95.3397,40.0006],[-95.4212,40.0591],[-95.3933,40.1216],[-95.4789,40.1857],[-95.4709,40.2348],[-95.5526,40.2617],[-96.01,40.2618],[-96.0083,40.0875],[-96.0101,40.0013]]]},"properties":{"GID_0":"USA","GID_1":"USA.28_1","GID_2":"USA.28.74_1","NAME_1":"Nebraska","NAME_2":"Richardson"}},
{"type":"Feature","geometry":{"type":"Polygon","coordinates":[[[-99.6628,42.0864],[-99.2331,42.0873],[-99.2441,42.7822],[-99.2551,42.8045],[-99.3746,42.7851],[-99.5318,42.7199],[-99.6784,42.7299],[-99.663,42.4326],[-99.6628,42.0864]]]},"properties":{"GID_0":"USA","GID_1":"USA.28_1","GID_2":"USA.28.75_1","NAME_1":"Nebraska","NAME_2":"Rock"}},
{"type":"Feature","geometry":{"type":"Polygon","coordinates":[[[-97.3686,40.3514],[-96.9136,40.3502],[-96.9122,40.5226],[-96.9137,40.6973],[-97.3685,40.699],[-97.3686,40.3514]]]},"properties":{"GID_0":"USA","GID_1":"USA.28_1","GID_2":"USA.28.76_1","NAME_1":"Nebraska","NAME_2":"Saline"}},
{"type":"Feature","geometry":{"type":"Polygon","coordinates":[[[-95.8795,41.0538],[-95.8594,41.1863],[-96.3273,41.1903],[-96.3168,41.1528],[-96.319,41.045],[-96.3123,41.0368],[-96.295,41.0252],[-96.2261,40.9972],[-96.2042,40.9976],[-96.0607,41.0641],[-95.8795,41.0538]]]},"properties":{"GID_0":"USA","GID_1":"USA.28_1","GID_2":"USA.28.77_1","NAME_1":"Nebraska","NAME_2":"Sarpy"}},
{"type":"Feature","geometry":{"type":"Polygon","coordinates":[[[-96.9081,41.0476],[-96.6815,41.046],[-96.4626,41.0464],[-96.4635,41.0151],[-96.3496,41.0147],[-96.319,41.045],[-96.3168,41.1528],[-96.3321,41.1958],[-96.3594,41.2159],[-96.365,41.2356],[-96.3502,41.2562],[-96.3491,41.2634],[-96.3623,41.2852],[-96.4733,41.3941],[-96.4882,41.3941],[-96.5578,41.4292],[-96.6878,41.4263],[-96.7613,41.4495],[-96.9043,41.4552],[-96.9077,41.3091],[-96.9081,41.0476]]]},"properties":{"GID_0":"USA","GID_1":"USA.28_1","GID_2":"USA.28.78_1","NAME_1":"Nebraska","NAME_2":"Saunders"}},
{"type":"Feature","geometry":{"type":"Polygon","coordinates":[[[-103.3681,41.6986],[-103.3684,41.744],[-103.3605,42.0037],[-104.0525,42.0024],[-104.0522,41.6975],[-103.3681,41.6986]]]},"properties":{"GID_0":"USA","GID_1":"USA.28_1","GID_2":"USA.28.79_1","NAME_1":"Nebraska","NAME_2":"ScottsBluff"}},
{"type":"Feature","geometry":{"type":"Polygon","coordinates":[[[-97.3683,41.0475],[-97.3685,40.699],[-96.9106,40.6973],[-96.9112,41.0477],[-97.3683,41.0475]]]},"properties":{"GID_0":"USA","GID_1":"USA.28_1","GID_2":"USA.28.80_1","NAME_1":"Nebraska","NAME_2":"Seward"}},
{"type":"Feature","geometry":{"type":"Polygon","coordinates":[[[-102.6989,42.0051],[-102.3566,42.0059],[-102.1239,42.0095],[-102.0077,42.0082],[-102.0065,42.0958],[-102.0393,42.0962],[-102.0402,42.4448],[-102.0669,42.4448],[-102.0665,42.7867],[-102.0829,42.9979],[-102.7904,43],[-102.7755,42.7858],[-102.7742,42.4402],[-102.7499,42.4394],[-102.7431,42.0923],[-102.6989,42.0051]]]},"properties":{"GID_0":"USA","GID_1":"USA.28_1","GID_2":"USA.28.81_1","NAME_1":"Nebraska","NAME_2":"Sheridan"}},
{"type":"Feature","geometry":{"type":"Polygon","coordinates":[[[-98.7484,41.0476],[-98.7447,41.3938],[-98.8574,41.3926],[-99.2015,41.3943],[-99.2078,41.0477],[-98.9495,41.0462],[-98.7484,41.0476]]]},"properties":{"GID_0":"USA","GID_1":"USA.28_1","GID_2":"USA.28.82_1","NAME_1":"Nebraska","NAME_2":"Sherman"}},
{"type":"Feature","geometry":{"type":"Polygon","coordinates":[[[-103.4444,42.4387],[-103.4779,42.4383],[-103.4792,42.7862],[-103.5063,43.0012],[-104.0527,43.0028],[-104.0525,42.0024],[-103.3995,42.004],[-103.4457,42.0905],[-103.4432,42.2646],[-103.4444,42.4387]]]},"properties":{"GID_0":"USA","GID_1":"USA.28_1","GID_2":"USA.28.83_1","NAME_1":"Nebraska","NAME_2":"Sioux"}},
{"type":"Feature","geometry":{"type":"Polygon","coordinates":[[[-97.0201,41.7459],[-97.0184,42.0916],[-97.3691,42.0924],[-97.3673,41.7457],[-97.0201,41.7459]]]},"properties":{"GID_0":"USA","GID_1":"USA.28_1","GID_2":"USA.28.84_1","NAME_1":"Nebraska","NAME_2":"Stanton"}},
{"type":"Feature","geometry":{"type":"Polygon","coordinates":[[[-97.3711,40.0035],[-97.3686,40.3514],[-97.8206,40.351],[-97.8215,40.0035],[-97.3711,40.0035]]]},"properties":{"GID_0":"USA","GID_1":"USA.28_1","GID_2":"USA.28.85_1","NAME_1":"Nebraska","NAME_2":"Thayer"}},
{"type":"Feature","geometry":{"type":"Polygon","coordinates":[[[-100.2675,42.0871],[-100.6156,42.0872],[-100.8444,42.0896],[-100.8458,42.0019],[-100.8417,41.9129],[-100.8439,41.7404],[-100.7264,41.7415],[-100.2662,41.7411],[-100.2675,42.0871]]]},"properties":{"GID_0":"USA","GID_1":"USA.28_1","GID_2":"USA.28.86_1","NAME_1":"Nebraska","NAME_2":"Thomas"}},
{"type":"Feature","geometry":{"type":"Polygon","coordinates":[[[-96.2728,42.0474],[-96.2686,42.1149],[-96.3403,42.1595],[-96.3574,42.277],[-96.7268,42.28],[-96.7269,42.2659],[-96.8249,42.2656],[-96.8234,42.0928],[-96.5555,42.0933],[-96.5544,42.0169],[-96.3107,42.0188],[-96.2728,42.0474]]]},"properties":{"GID_0":"USA","GID_1":"USA.28_1","GID_2":"USA.28.87_1","NAME_1":"Nebraska","NAME_2":"Thurston"}},
{"type":"Feature","geometry":{"type":"Polygon","coordinates":[[[-99.2015,41.3943],[-98.8574,41.3926],[-98.7496,41.3939],[-98.7527,41.7398],[-99.2148,41.7398],[-99.2015,41.3943]]]},"properties":{"GID_0":"USA","GID_1":"USA.28_1","GID_2":"USA.28.88_1","NAME_1":"Nebraska","NAME_2":"Valley"}},
{"type":"Feature","geometry":{"type":"Polygon","coordinates":[[[-96.1193,41.6819],[-96.444,41.684],[-96.4429,41.5359],[-96.434,41.4934],[-96.33,41.3942],[-95.9366,41.3937],[-95.9242,41.4609],[-96.0138,41.4801],[-96.1153,41.61],[-96.1193,41.6819]]]},"properties":{"GID_0":"USA","GID_1":"USA.28_1","GID_2":"USA.28.89_1","NAME_1":"Nebraska","NAME_2":"Washington"}},
{"type":"Feature","geometry":{"type":"Polygon","coordinates":[[[-97.3685,42.3537],[-97.3691,42.0924],[-96.8234,42.0928],[-96.8249,42.2656],[-96.9358,42.2669],[-97.0184,42.2656],[-97.019,42.3529],[-97.3685,42.3537]]]},"properties":{"GID_0":"USA","GID_1":"USA.28_1","GID_2":"USA.28.90_1","NAME_1":"Nebraska","NAME_2":"Wayne"}},
{"type":"Feature","geometry":{"type":"Polygon","coordinates":[[[-98.2755,40.0038],[-98.2744,40.3507],[-98.4964,40.3526],[-98.7275,40.3516],[-98.7288,40.0032],[-98.2755,40.0038]]]},"properties":{"GID_0":"USA","GID_1":"USA.28_1","GID_2":"USA.28.91_1","NAME_1":"Nebraska","NAME_2":"Webster"}},
{"type":"Feature","geometry":{"type":"Polygon","coordinates":[[[-98.3,42.0889],[-98.7607,42.0873],[-98.7595,41.7399],[-98.2961,41.7423],[-98.2957,42.0888],[-98.3,42.0889]]]},"properties":{"GID_0":"USA","GID_1":"USA.28_1","GID_2":"USA.28.92_1","NAME_1":"Nebraska","NAME_2":"Wheeler"}},
{"type":"Feature","geometry":{"type":"Polygon","coordinates":[[[-97.3685,40.699],[-97.3683,41.0475],[-97.5298,41.0484],[-97.8276,41.0467],[-97.8245,40.6985],[-97.3685,40.699]]]},"properties":{"GID_0":"USA","GID_1":"USA.28_1","GID_2":"USA.28.93_1","NAME_1":"Nebraska","NAME_2":"York"}}
]}