{"type":"FeatureCollection", "features": [
{"type":"Feature","geometry":{"type":"Polygon","coordinates":[[[-120.0031,39.1116],[-119.7525,39.0851],[-119.5461,39.0859],[-119.6496,39.1957],[-119.6808,39.207],[-119.7087,39.2446],[-119.8974,39.1649],[-120.004,39.1655],[-120.0031,39.1116]]]},"properties":{"GID_0":"USA","GID_1":"USA.29_1","GID_2":"USA.29.1_1","NAME_1":"Nevada","NAME_2":"CarsonCity"}},
{"type":"Feature","geometry":{"type":"Polygon","coordinates":[[[-117.7748,39.092],[-117.7224,39.2132],[-117.7585,39.3391],[-117.6213,39.4762],[-117.4783,39.5579],[-117.495,39.7492],[-117.4602,39.882],[-117.5394,40.003],[-118.9249,39.9982],[-119.2251,39.9994],[-119.2257,39.8992],[-119.2092,39.8092],[-119.1727,39.7861],[-119.1727,39.6818],[-119.1918,39.682],[-119.1913,39.6326],[-119.0914,39.7087],[-119.1189,39.3883],[-118.754,39.1132],[-118.7539,39.0747],[-117.8559,39.0746],[-117.7748,39.092]]]},"properties":{"GID_0":"USA","GID_1":"USA.29_1","GID_2":"USA.29.2_1","NAME_1":"Nevada","NAME_2":"Churchill"}},
{"type":"Feature","geometry":{"type":"Polygon","coordinates":[[[-114.0497,36.8428],[-114.7573,36.8533],[-115.737,36.8539],[-115.8942,36.8425],[-115.895,36.0015],[-115.1563,35.4234],[-114.6329,35.0021],[-114.5718,35.1623],[-114.5956,35.3246],[-114.6703,35.4697],[-114.6587,35.6162],[-114.7022,35.7006],[-114.7047,35.9047],[-114.7539,36.0811],[-114.6298,36.1421],[-114.3738,36.1438],[-114.2241,36.0145],[-114.1474,36.0305],[-114.0487,36.1951],[-114.0497,36.8428]]]},"properties":{"GID_0":"USA","GID_1":"USA.29_1","GID_2":"USA.29.3_1","NAME_1":"Nevada","NAME_2":"Clark"}},
{"type":"Feature","geometry":{"type":"Polygon","coordinates":[[[-120.0031,39.1116],[-120.0009,39.0005],[-119.3306,38.5364],[-119.3505,38.7354],[-119.4075,38.73],[-119.4176,38.9547],[-119.3155,38.9902],[-119.316,39.0841],[-119.7525,39.0851],[-120.0031,39.1116]]]},"properties":{"GID_0":"USA","GID_1":"USA.29_1","GID_2":"USA.29.4_1","NAME_1":"Nevada","NAME_2":"Douglas"}},
{"type":"Feature","geometry":{"type":"Polygon","coordinates":[[[-114.0484,40.1186],[-114.0406,40.7968],[-114.0404,41.9934],[-114.8546,42.0003],[-115.2264,41.9945],[-117.0175,42.0003],[-117.017,41.0003],[-116.1579,41.0014],[-116.1577,40.6585],[-116.001,40.1288],[-115.6046,40.1284],[-114.5312,40.1195],[-114.0484,40.1186]]]},"properties":{"GID_0":"USA","GID_1":"USA.29_1","GID_2":"USA.29.5_1","NAME_1":"Nevada","NAME_2":"Elko"}},
{"type":"Feature","geometry":{"type":"Polygon","coordinates":[[[-118.4271,37.8959],[-117.7398,37.3966],[-117.1639,36.9698],[-117.1665,37.6995],[-117.1657,38.0019],[-117.2408,38.0705],[-117.6896,38.4731],[-118.3501,37.8933],[-118.4271,37.8959]]]},"properties":{"GID_0":"USA","GID_1":"USA.29_1","GID_2":"USA.29.6_1","NAME_1":"Nevada","NAME_2":"Esmeralda"}},
{"type":"Feature","geometry":{"type":"Polygon","coordinates":[[[-116.5878,41.0003],[-116.5899,40.0728],[-116.591,39.3732],[-116.5958,39.177],[-116.6006,39.177],[-116.5996,39.1616],[-115.9082,39.1615],[-115.9063,39.4638],[-115.8271,39.5381],[-115.8315,39.7367],[-115.7951,39.8595],[-115.8374,40.1286],[-116.001,40.1288],[-116.1577,40.6585],[-116.1579,41.0014],[-116.5878,41.0003]]]},"properties":{"GID_0":"USA","GID_1":"USA.29_1","GID_2":"USA.29.7_1","NAME_1":"Nevada","NAME_2":"Eureka"}},
{"type":"Feature","geometry":{"type":"Polygon","coordinates":[[[-117.0175,42.0003],[-118.0426,41.9974],[-119.3244,41.9936],[-119.3287,41.5905],[-119.3042,41.2354],[-119.3288,40.9586],[-118.7879,40.9607],[-118.7872,40.8555],[-117.6431,40.8574],[-117.6428,40.6836],[-117.3016,40.6827],[-117.3,40.5815],[-117.3008,40.5244],[-117.2977,40.5334],[-117.2935,40.538],[-117.2459,40.6399],[-117.0164,40.6415],[-117.019,40.6978],[-117.0177,41.1519],[-117.0175,42.0003]]]},"properties":{"GID_0":"USA","GID_1":"USA.29_1","GID_2":"USA.29.8_1","NAME_1":"Nevada","NAME_2":"Humboldt"}},
{"type":"Feature","geometry":{"type":"Polygon","coordinates":[[[-117.7748,39.092],[-117.3318,39.1629],[-116.5996,39.1616],[-116.6006,39.177],[-116.5958,39.177],[-116.591,39.3732],[-116.5899,40.0728],[-116.5878,41.0003],[-117.017,41.0003],[-117.019,40.6978],[-117.0164,40.6415],[-117.2459,40.6399],[-117.2935,40.538],[-117.2977,40.5334],[-117.3136,40.4944],[-117.5394,40.003],[-117.4602,39.882],[-117.495,39.7492],[-117.4783,39.5579],[-117.6213,39.4762],[-117.7585,39.3391],[-117.7224,39.2132],[-117.7748,39.092]]]},"properties":{"GID_0":"USA","GID_1":"USA.29_1","GID_2":"USA.29.9_1","NAME_1":"Nevada","NAME_2":"Lander"}},
{"type":"Feature","geometry":{"type":"Polygon","coordinates":[[[-114.0497,36.8428],[-114.0541,37.6447],[-114.0491,38.6775],[-114.999,38.6777],[-115.0004,38.0507],[-115.8931,38.0507],[-115.8982,37.1926],[-115.8942,36.8425],[-115.737,36.8539],[-114.7573,36.8533],[-114.0497,36.8428]]]},"properties":{"GID_0":"USA","GID_1":"USA.29_1","GID_2":"USA.29.10_1","NAME_1":"Nevada","NAME_2":"Lincoln"}},
{"type":"Feature","geometry":{"type":"Polygon","coordinates":[[[-119.1538,38.4127],[-118.9077,38.4149],[-118.9025,38.851],[-119.0166,38.8515],[-119.0168,38.9494],[-118.9187,39.0752],[-118.7539,39.0747],[-118.754,39.1132],[-119.1189,39.3883],[-119.0914,39.7087],[-119.2054,39.6224],[-119.2753,39.6237],[-119.4789,39.3373],[-119.6481,39.2665],[-119.7124,39.2504],[-119.6808,39.207],[-119.6496,39.1957],[-119.5461,39.0859],[-119.316,39.0841],[-119.3155,38.9902],[-119.4176,38.9547],[-119.4075,38.73],[-119.3505,38.7354],[-119.3306,38.5364],[-119.1538,38.4127]]]},"properties":{"GID_0":"USA","GID_1":"USA.29_1","GID_2":"USA.29.11_1","NAME_1":"Nevada","NAME_2":"Lyon"}},
{"type":"Feature","geometry":{"type":"Polygon","coordinates":[[[-118.4271,37.8959],[-118.3501,37.8933],[-117.6896,38.4731],[-118.197,38.9154],[-118.1972,38.9993],[-117.8559,39.0746],[-118.9187,39.0752],[-119.0168,38.9494],[-119.0166,38.8515],[-118.9025,38.851],[-118.9077,38.4149],[-119.1538,38.4127],[-118.4271,37.8959]]]},"properties":{"GID_0":"USA","GID_1":"USA.29_1","GID_2":"USA.29.12_1","NAME_1":"Nevada","NAME_2":"Mineral"}},
{"type":"Feature","geometry":{"type":"Polygon","coordinates":[[[-115.895,36.0015],[-115.8942,36.8425],[-115.8982,37.1926],[-115.8931,38.0507],[-115.0004,38.0507],[-114.999,38.6777],[-115.9082,39.1615],[-117.3318,39.1629],[-117.7748,39.092],[-118.1972,38.9993],[-118.197,38.9154],[-117.6896,38.4731],[-117.2408,38.0705],[-117.1657,38.0019],[-117.1665,37.6995],[-117.164,36.9688],[-116.2954,36.3122],[-115.895,36.0015]]]},"properties":{"GID_0":"USA","GID_1":"USA.29_1","GID_2":"USA.29.13_1","NAME_1":"Nevada","NAME_2":"Nye"}},
{"type":"Feature","geometry":{"type":"Polygon","coordinates":[[[-117.5394,40.003],[-117.3008,40.5244],[-117.3,40.5815],[-117.3016,40.6827],[-117.6428,40.6836],[-117.6431,40.8574],[-118.7872,40.8555],[-118.7879,40.9607],[-119.3088,40.9589],[-119.3089,40.8673],[-119.3138,40.585],[-119.3375,40.5185],[-119.338,39.9991],[-118.9249,39.9982],[-117.5394,40.003]]]},"properties":{"GID_0":"USA","GID_1":"USA.29_1","GID_2":"USA.29.14_1","NAME_1":"Nevada","NAME_2":"Pershing"}},
{"type":"Feature","geometry":{"type":"Polygon","coordinates":[[[-119.2753,39.6237],[-119.551,39.551],[-119.5842,39.5446],[-119.6333,39.5111],[-119.6487,39.5054],[-119.6783,39.2805],[-119.7144,39.2585],[-119.7124,39.2504],[-119.6481,39.2665],[-119.4789,39.3373],[-119.2753,39.6237]]]},"properties":{"GID_0":"USA","GID_1":"USA.29_1","GID_2":"USA.29.15_1","NAME_1":"Nevada","NAME_2":"Storey"}},
{"type":"Feature","geometry":{"type":"Polygon","coordinates":[[[-119.3244,41.9936],[-120.0003,41.9953],[-119.9999,40.9331],[-119.9955,40.3085],[-120.004,39.1655],[-119.8974,39.1649],[-119.7087,39.2446],[-119.7137,39.2526],[-119.7144,39.2585],[-119.6783,39.2805],[-119.6487,39.5054],[-119.6333,39.5111],[-119.5842,39.5446],[-119.551,39.551],[-119.2753,39.6237],[-119.2054,39.6224],[-119.1913,39.6326],[-119.1918,39.682],[-119.1727,39.6818],[-119.1727,39.7861],[-119.2092,39.8092],[-119.2257,39.8992],[-119.2251,39.9994],[-119.338,39.9991],[-119.3375,40.5185],[-119.3138,40.585],[-119.3089,40.8673],[-119.3088,40.9589],[-119.3288,40.9586],[-119.3042,41.2354],[-119.3287,41.5905],[-119.3244,41.9936]]]},"properties":{"GID_0":"USA","GID_1":"USA.29_1","GID_2":"USA.29.16_1","NAME_1":"Nevada","NAME_2":"Washoe"}},
{"type":"Feature","geometry":{"type":"Polygon","coordinates":[[[-115.8374,40.1286],[-115.7951,39.8595],[-115.8315,39.7367],[-115.8271,39.5381],[-115.9063,39.4638],[-115.9082,39.1615],[-114.999,38.6777],[-114.0491,38.6775],[-114.0463,39.6464],[-114.0484,40.1186],[-114.5312,40.1195],[-115.6046,40.1284],[-115.8374,40.1286]]]},"properties":{"GID_0":"USA","GID_1":"USA.29_1","GID_2":"USA.29.17_1","NAME_1":"Nevada","NAME_2":"WhitePine"}}
]}