{"type":"FeatureCollection", "features": [
{"type":"Feature","geometry":{"type":"Polygon","coordinates":[[[-84.3418,36.0493],[-84.2716,35.9104],[-84.1952,35.9937],[-84.1493,35.988],[-84.0593,36.036],[-84.0938,36.0688],[-83.942,36.1865],[-84.011,36.272],[-84.0692,36.2313],[-84.2274,36.245],[-84.2289,36.1838],[-84.2959,36.2188],[-84.373,36.2167],[-84.4414,36.1636],[-84.4203,36.1085],[-84.3418,36.0493]]]},"properties":{"GID_0":"USA","GID_1":"USA.43_1","GID_2":"USA.43.1_1","NAME_1":"Tennessee","NAME_2":"Anderson"}},
{"type":"Feature","geometry":{"type":"Polygon","coordinates":[[[-86.5311,35.355],[-86.4855,35.3611],[-86.4509,35.3249],[-86.367,35.3452],[-86.2787,35.4108],[-86.2505,35.4136],[-86.239,35.5098],[-86.2445,35.6346],[-86.3425,35.6638],[-86.4709,35.647],[-86.5431,35.6976],[-86.6393,35.6862],[-86.6656,35.456],[-86.6335,35.3899],[-86.5971,35.3633],[-86.5831,35.3706],[-86.5611,35.3666],[-86.5311,35.355]]]},"properties":{"GID_0":"USA","GID_1":"USA.43_1","GID_2":"USA.43.2_1","NAME_1":"Tennessee","NAME_2":"Bedford"}},
{"type":"Feature","geometry":{"type":"Polygon","coordinates":[[[-88.1775,35.8458],[-88.0545,35.8507],[-87.9707,35.8159],[-87.9629,35.8414],[-87.9255,35.9328],[-88.0128,35.9468],[-87.9871,36.0497],[-87.9223,36.1225],[-87.9166,36.1657],[-87.9516,36.2209],[-87.9476,36.2636],[-87.9808,36.3543],[-87.9907,36.3609],[-87.9952,36.3586],[-88.0981,36.3609],[-88.0857,36.2631],[-88.2128,36.1206],[-88.2196,35.8469],[-88.1775,35.8458]]]},"properties":{"GID_0":"USA","GID_1":"USA.43_1","GID_2":"USA.43.3_1","NAME_1":"Tennessee","NAME_2":"Benton"}},
{"type":"Feature","geometry":{"type":"Polygon","coordinates":[[[-85.254,35.7682],[-85.2652,35.7215],[-85.4238,35.5676],[-85.4029,35.4922],[-85.2259,35.3545],[-85.1684,35.4558],[-85.1481,35.4466],[-85.1173,35.4763],[-85.1077,35.5716],[-85.0506,35.6165],[-84.9052,35.7736],[-85.028,35.7466],[-85.0413,35.7721],[-85.254,35.7682]]]},"properties":{"GID_0":"USA","GID_1":"USA.43_1","GID_2":"USA.43.4_1","NAME_1":"Tennessee","NAME_2":"Bledsoe"}},
{"type":"Feature","geometry":{"type":"Polygon","coordinates":[[[-83.6634,35.571],[-83.6632,35.6881],[-83.7186,35.7477],[-83.7557,35.8187],[-83.7832,35.8656],[-83.7846,35.8778],[-83.7945,35.8871],[-83.8241,35.8672],[-83.8877,35.8443],[-83.9839,35.8755],[-83.9962,35.8843],[-84.0068,35.8473],[-84.0805,35.8517],[-84.1662,35.8054],[-84.1719,35.7324],[-84.1333,35.6655],[-84.1553,35.625],[-84.1884,35.6105],[-84.1819,35.5991],[-84.0844,35.5413],[-84.011,35.5165],[-83.9593,35.4629],[-83.8787,35.5197],[-83.8187,35.5289],[-83.7689,35.5628],[-83.6634,35.571]]]},"properties":{"GID_0":"USA","GID_1":"USA.43_1","GID_2":"USA.43.5_1","NAME_1":"Tennessee","NAME_2":"Blount"}},
{"type":"Feature","geometry":{"type":"Polygon","coordinates":[[[-84.7755,34.9896],[-84.7476,35.0862],[-84.7012,35.1711],[-84.7159,35.2312],[-84.7063,35.2379],[-84.7106,35.2479],[-84.7042,35.2574],[-84.8381,35.3405],[-84.8773,35.3577],[-84.8851,35.3278],[-84.946,35.287],[-84.9427,35.282],[-85.007,35.1877],[-85.0263,35.1279],[-84.9949,35.0754],[-84.977,34.9884],[-84.7755,34.9896]]]},"properties":{"GID_0":"USA","GID_1":"USA.43_1","GID_2":"USA.43.6_1","NAME_1":"Tennessee","NAME_2":"Bradley"}},
{"type":"Feature","geometry":{"type":"Polygon","coordinates":[[[-84.261,36.5949],[-84.2595,36.5145],[-84.3306,36.5096],[-84.3534,36.4623],[-84.3322,36.3849],[-84.3298,36.2842],[-84.3766,36.2603],[-84.373,36.2167],[-84.2959,36.2188],[-84.2289,36.1838],[-84.2274,36.245],[-84.0692,36.2313],[-84.011,36.272],[-83.9821,36.2856],[-83.9505,36.4012],[-83.9107,36.4132],[-83.8995,36.4235],[-83.9211,36.4284],[-84.01,36.5924],[-84.261,36.5949]]]},"properties":{"GID_0":"USA","GID_1":"USA.43_1","GID_2":"USA.43.7_1","NAME_1":"Tennessee","NAME_2":"Campbell"}},
{"type":"Feature","geometry":{"type":"Polygon","coordinates":[[[-85.983,35.6566],[-85.9864,35.731],[-85.9138,35.8249],[-85.8803,35.8371],[-86.0142,35.9629],[-86.0631,35.9642],[-86.0898,35.9669],[-86.1512,35.9628],[-86.1551,35.9328],[-86.1883,35.8008],[-86.1808,35.769],[-86.2186,35.7045],[-86.0838,35.6457],[-85.983,35.6566]]]},"properties":{"GID_0":"USA","GID_1":"USA.43_1","GID_2":"USA.43.8_1","NAME_1":"Tennessee","NAME_2":"Cannon"}},
{"type":"Feature","geometry":{"type":"Polygon","coordinates":[[[-88.2128,36.1206],[-88.2118,36.146],[-88.53,36.1506],[-88.5317,36.1166],[-88.6553,36.1175],[-88.6912,36.0677],[-88.7098,35.7918],[-88.6025,35.7892],[-88.5735,35.8225],[-88.4226,35.8225],[-88.179,35.8168],[-88.1775,35.8458],[-88.2196,35.8469],[-88.2128,36.1206]]]},"properties":{"GID_0":"USA","GID_1":"USA.43_1","GID_2":"USA.43.9_1","NAME_1":"Tennessee","NAME_2":"Carroll"}},
{"type":"Feature","geometry":{"type":"Polygon","coordinates":[[[-81.934,36.2652],[-81.9695,36.2774],[-82.0358,36.3858],[-81.9504,36.4733],[-81.9841,36.508],[-82.1019,36.4579],[-82.1884,36.4003],[-82.2549,36.421],[-82.2888,36.3948],[-82.3001,36.3966],[-82.3003,36.3707],[-82.3426,36.264],[-82.3403,36.253],[-82.3194,36.2605],[-82.2562,36.2332],[-82.222,36.156],[-82.1498,36.1467],[-82.1319,36.1069],[-82.026,36.1277],[-81.934,36.2652]]]},"properties":{"GID_0":"USA","GID_1":"USA.43_1","GID_2":"USA.43.10_1","NAME_1":"Tennessee","NAME_2":"Carter"}},
{"type":"Feature","geometry":{"type":"Polygon","coordinates":[[[-86.9167,36.3848],[-86.988,36.3692],[-87.0095,36.3963],[-87.1205,36.455],[-87.1481,36.4183],[-87.2029,36.4122],[-87.2806,36.3531],[-87.2894,36.3183],[-87.1733,36.3109],[-87.1585,36.272],[-87.1895,36.2123],[-87.1549,36.1859],[-87.1804,36.0673],[-87.1841,36.05],[-87.1152,36.047],[-87.093,36.044],[-87.0424,36.0477],[-87.0379,36.0944],[-86.9979,36.1288],[-86.9855,36.2246],[-86.9212,36.3308],[-86.9096,36.3631],[-86.9167,36.3848]]]},"properties":{"GID_0":"USA","GID_1":"USA.43_1","GID_2":"USA.43.11_1","NAME_1":"Tennessee","NAME_2":"Cheatham"}},
{"type":"Feature","geometry":{"type":"Polygon","coordinates":[[[-88.7846,35.2475],[-88.7192,35.2477],[-88.6674,35.3405],[-88.6197,35.3675],[-88.5267,35.3863],[-88.3641,35.3852],[-88.3633,35.3947],[-88.3625,35.4061],[-88.3641,35.4932],[-88.4023,35.4847],[-88.5054,35.5121],[-88.5684,35.5875],[-88.5929,35.5906],[-88.6102,35.5852],[-88.6154,35.5864],[-88.6167,35.5605],[-88.6787,35.4892],[-88.8154,35.4275],[-88.8414,35.4278],[-88.8421,35.3846],[-88.7983,35.3312],[-88.7846,35.2475]]]},"properties":{"GID_0":"USA","GID_1":"USA.43_1","GID_2":"USA.43.12_1","NAME_1":"Tennessee","NAME_2":"Chester"}},
{"type":"Feature","geometry":{"type":"Polygon","coordinates":[[[-83.472,36.5975],[-83.6748,36.6012],[-83.6902,36.5838],[-84.01,36.5924],[-83.9211,36.4284],[-83.8995,36.4235],[-83.9048,36.4199],[-83.8997,36.4189],[-83.8939,36.4197],[-83.8056,36.4357],[-83.7114,36.3456],[-83.6802,36.3564],[-83.663,36.3406],[-83.5631,36.3726],[-83.4499,36.3739],[-83.3874,36.4129],[-83.3692,36.4407],[-83.3986,36.5348],[-83.472,36.5975]]]},"properties":{"GID_0":"USA","GID_1":"USA.43_1","GID_2":"USA.43.13_1","NAME_1":"Tennessee","NAME_2":"Claiborne"}},
{"type":"Feature","geometry":{"type":"Polygon","coordinates":[[[-85.2758,36.6278],[-85.5074,36.6151],[-85.7878,36.6227],[-85.8069,36.5528],[-85.8134,36.4998],[-85.704,36.5227],[-85.6977,36.5009],[-85.5771,36.4715],[-85.4958,36.4031],[-85.4823,36.4543],[-85.4385,36.5013],[-85.2853,36.5368],[-85.2758,36.6278]]]},"properties":{"GID_0":"USA","GID_1":"USA.43_1","GID_2":"USA.43.14_1","NAME_1":"Tennessee","NAME_2":"Clay"}},
{"type":"Feature","geometry":{"type":"Polygon","coordinates":[[[-83.2543,35.7152],[-83.1835,35.7299],[-83.1622,35.7626],[-83.0743,35.7894],[-82.9954,35.7737],[-82.9177,35.8413],[-82.8954,35.9424],[-83.0813,36.1046],[-83.129,36.1225],[-83.1549,36.1467],[-83.1662,36.1806],[-83.1748,36.1322],[-83.2464,36.1221],[-83.2347,36.0851],[-83.2768,36.0075],[-83.3017,35.8987],[-83.3062,35.9002],[-83.2618,35.8243],[-83.2855,35.7949],[-83.282,35.734],[-83.2543,35.7152]]]},"properties":{"GID_0":"USA","GID_1":"USA.43_1","GID_2":"USA.43.15_1","NAME_1":"Tennessee","NAME_2":"Cocke"}},
{"type":"Feature","geometry":{"type":"Polygon","coordinates":[[[-86.2579,35.4126],[-86.2615,35.3336],[-86.1567,35.3629],[-86.0321,35.343],[-85.9138,35.289],[-85.8697,35.3806],[-85.8888,35.4419],[-85.8768,35.524],[-85.9474,35.5727],[-85.983,35.6566],[-86.0838,35.6457],[-86.2186,35.7045],[-86.2445,35.6346],[-86.239,35.5098],[-86.2505,35.4136],[-86.2579,35.4126]]]},"properties":{"GID_0":"USA","GID_1":"USA.43_1","GID_2":"USA.43.16_1","NAME_1":"Tennessee","NAME_2":"Coffee"}},
{"type":"Feature","geometry":{"type":"Polygon","coordinates":[[[-89.1887,35.9973],[-89.2162,35.948],[-89.2823,35.8863],[-89.3395,35.8811],[-89.3444,35.8768],[-89.3418,35.8696],[-89.3577,35.8179],[-89.3186,35.779],[-89.2072,35.7481],[-89.0704,35.6881],[-89.0182,35.6727],[-88.8978,35.7841],[-88.9182,35.7964],[-88.9586,35.8299],[-89.0092,35.8318],[-89.1093,35.8642],[-89.1438,35.9699],[-89.1766,35.9786],[-89.1887,35.9973]]]},"properties":{"GID_0":"USA","GID_1":"USA.43_1","GID_2":"USA.43.17_1","NAME_1":"Tennessee","NAME_2":"Crockett"}},
{"type":"Feature","geometry":{"type":"Polygon","coordinates":[[[-84.9052,35.7736],[-84.7803,35.8237],[-84.7785,35.8268],[-84.7659,35.8344],[-84.7492,35.8488],[-84.6858,35.9025],[-84.6795,35.9075],[-84.7201,35.9946],[-84.8324,36.0842],[-84.9059,36.157],[-84.93,36.1463],[-85.0294,36.1717],[-85.0817,36.1331],[-85.1022,36.1391],[-85.1522,36.1005],[-85.2375,36.1065],[-85.2644,35.9792],[-85.2273,35.8823],[-85.254,35.7682],[-85.0413,35.7721],[-85.028,35.7466],[-84.9052,35.7736]]]},"properties":{"GID_0":"USA","GID_1":"USA.43_1","GID_2":"USA.43.18_1","NAME_1":"Tennessee","NAME_2":"Cumberland"}},
{"type":"Feature","geometry":{"type":"Polygon","coordinates":[[[-87.0549,36.0467],[-87.0319,35.9874],[-86.9292,36.0527],[-86.7862,36.036],[-86.6207,35.9699],[-86.6096,36.0103],[-86.5141,36.1006],[-86.5559,36.1367],[-86.5944,36.2449],[-86.7185,36.3395],[-86.7467,36.4205],[-86.7856,36.3613],[-86.8295,36.3514],[-86.9167,36.3848],[-86.9096,36.3631],[-86.9212,36.3308],[-86.9855,36.2246],[-86.9979,36.1288],[-87.0379,36.0944],[-87.0424,36.0477],[-87.0549,36.0467]]]},"properties":{"GID_0":"USA","GID_1":"USA.43_1","GID_2":"USA.43.19_1","NAME_1":"Tennessee","NAME_2":"Davidson"}},
{"type":"Feature","geometry":{"type":"Polygon","coordinates":[[[-88.1775,35.8458],[-88.189,35.6314],[-88.2431,35.5287],[-88.2444,35.4207],[-88.1983,35.3852],[-88.1447,35.3862],[-88.1187,35.3844],[-88.0609,35.4167],[-88.015,35.3871],[-88.0154,35.4239],[-88.0257,35.4732],[-87.9742,35.514],[-88.0352,35.6164],[-88.0177,35.6835],[-88.0319,35.7263],[-87.9859,35.7666],[-87.9707,35.8159],[-88.0545,35.8507],[-88.1775,35.8458]]]},"properties":{"GID_0":"USA","GID_1":"USA.43_1","GID_2":"USA.43.20_1","NAME_1":"Tennessee","NAME_2":"Decatur"}},
{"type":"Feature","geometry":{"type":"Polygon","coordinates":[[[-85.8803,35.8371],[-85.8644,35.8417],[-85.7855,35.8533],[-85.6823,35.8313],[-85.6366,35.8825],[-85.6618,35.9656],[-85.6349,36.0009],[-85.6445,36.0154],[-85.6887,36.0695],[-85.77,36.0951],[-85.8075,36.1319],[-85.8616,36.0957],[-85.8975,36.1152],[-86.0427,36.0921],[-86.0535,36.0917],[-86.0142,35.9629],[-85.8803,35.8371]]]},"properties":{"GID_0":"USA","GID_1":"USA.43_1","GID_2":"USA.43.21_1","NAME_1":"Tennessee","NAME_2":"DeKalb"}},
{"type":"Feature","geometry":{"type":"Polygon","coordinates":[[[-87.2894,36.3183],[-87.323,36.3134],[-87.5187,36.3352],[-87.5239,36.2793],[-87.5316,36.2402],[-87.5663,36.178],[-87.5446,36.093],[-87.5363,35.9938],[-87.2071,35.9608],[-87.1909,36.0109],[-87.1804,36.0673],[-87.1549,36.1859],[-87.1895,36.2123],[-87.1585,36.272],[-87.1733,36.3109],[-87.2894,36.3183]]]},"properties":{"GID_0":"USA","GID_1":"USA.43_1","GID_2":"USA.43.22_1","NAME_1":"Tennessee","NAME_2":"Dickson"}},
{"type":"Feature","geometry":{"type":"Polygon","coordinates":[[[-89.6444,35.9047],[-89.4914,35.948],[-89.4095,35.9472],[-89.3471,35.8863],[-89.3444,35.8768],[-89.3395,35.8811],[-89.2823,35.8863],[-89.2162,35.948],[-89.1887,35.9973],[-89.1991,36.0134],[-89.1623,36.0198],[-89.157,36.2047],[-89.4363,36.2119],[-89.4848,36.2119],[-89.4871,36.1882],[-89.6366,36.1845],[-89.5896,36.1475],[-89.6564,36.1024],[-89.7169,36.0015],[-89.7162,35.9625],[-89.6444,35.9047]]]},"properties":{"GID_0":"USA","GID_1":"USA.43_1","GID_2":"USA.43.23_1","NAME_1":"Tennessee","NAME_2":"Dyer"}},
{"type":"Feature","geometry":{"type":"Polygon","coordinates":[[[-89.1977,34.9959],[-89.1834,35.3973],[-89.4738,35.4031],[-89.6076,35.3901],[-89.633,35.3784],[-89.6441,34.996],[-89.1977,34.9959]]]},"properties":{"GID_0":"USA","GID_1":"USA.43_1","GID_2":"USA.43.24_1","NAME_1":"Tennessee","NAME_2":"Fayette"}},
{"type":"Feature","geometry":{"type":"Polygon","coordinates":[[[-84.9059,36.157],[-84.9126,36.2083],[-84.8773,36.2819],[-84.7943,36.2988],[-84.7743,36.3344],[-84.7051,36.3682],[-84.6908,36.3744],[-84.6595,36.3949],[-84.7138,36.4957],[-84.7322,36.525],[-84.7849,36.5255],[-84.8627,36.5698],[-84.9645,36.5802],[-85.0503,36.5524],[-85.0887,36.5001],[-85.103,36.4099],[-85.1178,36.4096],[-85.1225,36.3053],[-85.0827,36.1961],[-85.1192,36.1447],[-85.0817,36.1331],[-85.0294,36.1717],[-84.93,36.1463],[-84.9059,36.157]]]},"properties":{"GID_0":"USA","GID_1":"USA.43_1","GID_2":"USA.43.25_1","NAME_1":"Tennessee","NAME_2":"Fentress"}},
{"type":"Feature","geometry":{"type":"Polygon","coordinates":[[[-85.865,34.989],[-85.8648,35.2204],[-85.8728,35.2236],[-85.9138,35.289],[-86.0321,35.343],[-86.1567,35.3629],[-86.2615,35.3336],[-86.2435,35.3237],[-86.3,35.2332],[-86.3159,35.1283],[-86.3187,34.9921],[-85.865,34.989]]]},"properties":{"GID_0":"USA","GID_1":"USA.43_1","GID_2":"USA.43.26_1","NAME_1":"Tennessee","NAME_2":"Franklin"}},
{"type":"Feature","geometry":{"type":"Polygon","coordinates":[[[-88.6912,36.0677],[-88.7668,36.1113],[-88.8358,36.1274],[-88.9627,36.2264],[-88.9651,36.201],[-89.157,36.2047],[-89.1623,36.0198],[-89.1991,36.0134],[-89.1766,35.9786],[-89.1438,35.9699],[-89.1093,35.8642],[-89.0092,35.8318],[-88.9586,35.8299],[-88.9182,35.7964],[-88.7098,35.7918],[-88.6912,36.0677]]]},"properties":{"GID_0":"USA","GID_1":"USA.43_1","GID_2":"USA.43.27_1","NAME_1":"Tennessee","NAME_2":"Gibson"}},
{"type":"Feature","geometry":{"type":"Polygon","coordinates":[[[-87.2235,35.0002],[-86.8367,34.9925],[-86.8276,35.2929],[-86.9073,35.3159],[-86.9599,35.4199],[-87.1212,35.4543],[-87.2061,35.4335],[-87.215,35.3853],[-87.2228,35.1678],[-87.2136,35.1234],[-87.2167,35.1048],[-87.2235,35.0002]]]},"properties":{"GID_0":"USA","GID_1":"USA.43_1","GID_2":"USA.43.28_1","NAME_1":"Tennessee","NAME_2":"Giles"}},
{"type":"Feature","geometry":{"type":"Polygon","coordinates":[[[-83.668,36.3443],[-83.7033,36.2733],[-83.6936,36.2364],[-83.7329,36.1646],[-83.6676,36.0807],[-83.6288,36.1389],[-83.539,36.182],[-83.5069,36.17],[-83.494,36.1661],[-83.4669,36.1751],[-83.4215,36.234],[-83.3274,36.2968],[-83.2552,36.2893],[-83.2735,36.3188],[-83.2649,36.3512],[-83.2734,36.3705],[-83.2891,36.379],[-83.2757,36.3851],[-83.2756,36.3878],[-83.2805,36.3947],[-83.3036,36.388],[-83.3874,36.4129],[-83.4499,36.3739],[-83.5631,36.3726],[-83.663,36.3406],[-83.668,36.3443]]]},"properties":{"GID_0":"USA","GID_1":"USA.43_1","GID_2":"USA.43.29_1","NAME_1":"Tennessee","NAME_2":"Grainger"}},
{"type":"Feature","geometry":{"type":"Polygon","coordinates":[[[-82.6023,36.0401],[-82.5922,36.097],[-82.6479,36.1517],[-82.6292,36.419],[-82.7028,36.4106],[-82.7519,36.3852],[-82.7686,36.382],[-82.8807,36.3541],[-82.906,36.3371],[-83.0621,36.248],[-83.0851,36.2422],[-83.1662,36.1806],[-83.1549,36.1467],[-83.129,36.1225],[-83.0813,36.1046],[-82.8954,35.9424],[-82.821,35.9254],[-82.7772,35.9946],[-82.6336,36.0659],[-82.6023,36.0401]]]},"properties":{"GID_0":"USA","GID_1":"USA.43_1","GID_2":"USA.43.30_1","NAME_1":"Tennessee","NAME_2":"Greene"}},
{"type":"Feature","geometry":{"type":"Polygon","coordinates":[[[-85.9138,35.289],[-85.8728,35.2236],[-85.8221,35.2426],[-85.74,35.2152],[-85.6937,35.2396],[-85.7093,35.2891],[-85.5587,35.3195],[-85.5072,35.3592],[-85.4854,35.4063],[-85.536,35.4315],[-85.5368,35.4873],[-85.601,35.5316],[-85.6971,35.5292],[-85.8175,35.5135],[-85.8768,35.524],[-85.8888,35.4419],[-85.8697,35.3806],[-85.9138,35.289]]]},"properties":{"GID_0":"USA","GID_1":"USA.43_1","GID_2":"USA.43.31_1","NAME_1":"Tennessee","NAME_2":"Grundy"}},
{"type":"Feature","geometry":{"type":"Polygon","coordinates":[[[-83.1662,36.1806],[-83.0851,36.2422],[-83.0828,36.2421],[-83.1026,36.2617],[-83.1027,36.2744],[-83.1217,36.2848],[-83.1524,36.32],[-83.2552,36.2893],[-83.3274,36.2968],[-83.4215,36.234],[-83.4669,36.1751],[-83.4578,36.1558],[-83.2932,36.1381],[-83.2347,36.0851],[-83.2464,36.1221],[-83.1748,36.1322],[-83.1662,36.1806]]]},"properties":{"GID_0":"USA","GID_1":"USA.43_1","GID_2":"USA.43.32_1","NAME_1":"Tennessee","NAME_2":"Hamblen"}},
{"type":"Feature","geometry":{"type":"Polygon","coordinates":[[[-85.4742,34.9845],[-84.977,34.9884],[-84.9949,35.0754],[-85.0263,35.1279],[-85.007,35.1877],[-84.9427,35.282],[-84.9582,35.3003],[-85.0188,35.4111],[-85.1361,35.4579],[-85.1481,35.4466],[-85.1684,35.4558],[-85.2259,35.3545],[-85.3871,35.1476],[-85.3617,35.088],[-85.3817,35.0472],[-85.4742,34.9845]]]},"properties":{"GID_0":"USA","GID_1":"USA.43_1","GID_2":"USA.43.33_1","NAME_1":"Tennessee","NAME_2":"Hamilton"}},
{"type":"Feature","geometry":{"type":"Polygon","coordinates":[[[-83.3874,36.4129],[-83.3036,36.388],[-83.2228,36.4101],[-83.1936,36.4244],[-83.1257,36.5118],[-83.0107,36.5639],[-82.9508,36.5433],[-82.8301,36.5942],[-83.2538,36.5942],[-83.472,36.5975],[-83.3986,36.5348],[-83.3692,36.4407],[-83.3874,36.4129]]]},"properties":{"GID_0":"USA","GID_1":"USA.43_1","GID_2":"USA.43.34_1","NAME_1":"Tennessee","NAME_2":"Hancock"}},
{"type":"Feature","geometry":{"type":"Polygon","coordinates":[[[-88.7867,34.9972],[-88.7846,35.2475],[-88.7983,35.3312],[-88.8421,35.3846],[-88.8414,35.4278],[-89.1821,35.4332],[-89.1977,34.9959],[-88.7867,34.9972]]]},"properties":{"GID_0":"USA","GID_1":"USA.43_1","GID_2":"USA.43.35_1","NAME_1":"Tennessee","NAME_2":"Hardeman"}},
{"type":"Feature","geometry":{"type":"Polygon","coordinates":[[[-87.9871,35.0075],[-87.9843,35.2927],[-88.0247,35.3924],[-88.0609,35.4167],[-88.1187,35.3844],[-88.1447,35.3862],[-88.1983,35.3852],[-88.2444,35.4207],[-88.2449,35.4161],[-88.363,35.4192],[-88.3625,35.4061],[-88.3633,35.3947],[-88.3653,35.3148],[-88.3798,34.9982],[-88.2019,35.0089],[-87.9871,35.0075]]]},"properties":{"GID_0":"USA","GID_1":"USA.43_1","GID_2":"USA.43.36_1","NAME_1":"Tennessee","NAME_2":"Hardin"}},
{"type":"Feature","geometry":{"type":"Polygon","coordinates":[[[-83.2552,36.2893],[-83.1524,36.32],[-83.1217,36.2848],[-83.1027,36.2744],[-83.1026,36.2617],[-83.0828,36.2421],[-83.0621,36.248],[-82.906,36.3371],[-82.8807,36.3541],[-82.7686,36.382],[-82.7519,36.3852],[-82.7028,36.4106],[-82.6831,36.4291],[-82.7009,36.4527],[-82.6104,36.5192],[-82.6098,36.5944],[-82.8301,36.5942],[-82.9508,36.5433],[-83.0107,36.5639],[-83.1257,36.5118],[-83.1936,36.4244],[-83.2228,36.4101],[-83.2805,36.3947],[-83.2756,36.3878],[-83.2757,36.3851],[-83.2891,36.379],[-83.2734,36.3705],[-83.2649,36.3512],[-83.2735,36.3188],[-83.2552,36.2893]]]},"properties":{"GID_0":"USA","GID_1":"USA.43_1","GID_2":"USA.43.37_1","NAME_1":"Tennessee","NAME_2":"Hawkins"}},
{"type":"Feature","geometry":{"type":"Polygon","coordinates":[[[-89.3577,35.8179],[-89.4021,35.8203],[-89.4393,35.7638],[-89.4657,35.6831],[-89.4696,35.5954],[-89.5103,35.5828],[-89.4684,35.5436],[-89.4738,35.4031],[-89.1834,35.3973],[-89.1821,35.4332],[-89.0787,35.4318],[-89.0704,35.6881],[-89.2072,35.7481],[-89.3186,35.779],[-89.3577,35.8179]]]},"properties":{"GID_0":"USA","GID_1":"USA.43_1","GID_2":"USA.43.38_1","NAME_1":"Tennessee","NAME_2":"Haywood"}},
{"type":"Feature","geometry":{"type":"Polygon","coordinates":[[[-88.6065,35.7895],[-88.613,35.6487],[-88.6056,35.6311],[-88.6133,35.6269],[-88.6154,35.5864],[-88.6102,35.5852],[-88.5929,35.5906],[-88.5684,35.5875],[-88.5054,35.5121],[-88.4023,35.4847],[-88.3641,35.4932],[-88.363,35.4192],[-88.2449,35.4161],[-88.2431,35.5287],[-88.189,35.6314],[-88.179,35.8168],[-88.4226,35.8225],[-88.5735,35.8225],[-88.6025,35.7892],[-88.6065,35.7895]]]},"properties":{"GID_0":"USA","GID_1":"USA.43_1","GID_2":"USA.43.39_1","NAME_1":"Tennessee","NAME_2":"Henderson"}},
{"type":"Feature","geometry":{"type":"Polygon","coordinates":[[[-88.0546,36.498],[-88.5172,36.5028],[-88.5234,36.2946],[-88.53,36.1506],[-88.2118,36.146],[-88.2128,36.1206],[-88.0857,36.2631],[-88.0981,36.3609],[-87.9952,36.3586],[-87.9907,36.3609],[-87.9953,36.3631],[-88.0585,36.4391],[-88.0546,36.498]]]},"properties":{"GID_0":"USA","GID_1":"USA.43_1","GID_2":"USA.43.40_1","NAME_1":"Tennessee","NAME_2":"Henry"}},
{"type":"Feature","geometry":{"type":"Polygon","coordinates":[[[-87.5363,35.9938],[-87.5342,35.972],[-87.7078,35.9057],[-87.7327,35.7261],[-87.7449,35.6646],[-87.6598,35.6091],[-87.5736,35.6543],[-87.5494,35.6301],[-87.4614,35.6163],[-87.3388,35.6581],[-87.2351,35.7219],[-87.2023,35.9414],[-87.2071,35.9608],[-87.5363,35.9938]]]},"properties":{"GID_0":"USA","GID_1":"USA.43_1","GID_2":"USA.43.41_1","NAME_1":"Tennessee","NAME_2":"Hickman"}},
{"type":"Feature","geometry":{"type":"Polygon","coordinates":[[[-87.9499,36.2432],[-87.8424,36.2326],[-87.7375,36.2374],[-87.6626,36.2017],[-87.5663,36.178],[-87.5316,36.2402],[-87.5239,36.2793],[-87.5187,36.3352],[-87.5874,36.342],[-87.5925,36.3678],[-87.6994,36.3681],[-87.8219,36.3287],[-87.9808,36.3543],[-87.9476,36.2636],[-87.9499,36.2432]]]},"properties":{"GID_0":"USA","GID_1":"USA.43_1","GID_2":"USA.43.42_1","NAME_1":"Tennessee","NAME_2":"Houston"}},
{"type":"Feature","geometry":{"type":"Polygon","coordinates":[[[-87.9629,35.8414],[-87.9157,35.8385],[-87.8518,35.8037],[-87.8175,35.8383],[-87.7165,35.8389],[-87.7078,35.9057],[-87.5342,35.972],[-87.5363,35.9938],[-87.5446,36.093],[-87.5663,36.178],[-87.6626,36.2017],[-87.7375,36.2374],[-87.8424,36.2326],[-87.9499,36.2432],[-87.9516,36.2209],[-87.9166,36.1657],[-87.9223,36.1225],[-87.9871,36.0497],[-88.0128,35.9468],[-87.9255,35.9328],[-87.9629,35.8414]]]},"properties":{"GID_0":"USA","GID_1":"USA.43_1","GID_2":"USA.43.43_1","NAME_1":"Tennessee","NAME_2":"Humphreys"}},
{"type":"Feature","geometry":{"type":"Polygon","coordinates":[[[-85.8134,36.4998],[-85.8349,36.3565],[-85.8464,36.288],[-85.8197,36.2521],[-85.794,36.2503],[-85.7935,36.2457],[-85.7861,36.2398],[-85.7861,36.2457],[-85.6202,36.2122],[-85.5265,36.2409],[-85.4937,36.282],[-85.4977,36.3723],[-85.4958,36.4031],[-85.5771,36.4715],[-85.6977,36.5009],[-85.704,36.5227],[-85.8134,36.4998]]]},"properties":{"GID_0":"USA","GID_1":"USA.43_1","GID_2":"USA.43.44_1","NAME_1":"Tennessee","NAME_2":"Jackson"}},
{"type":"Feature","geometry":{"type":"Polygon","coordinates":[[[-83.2347,36.0851],[-83.2932,36.1381],[-83.4578,36.1558],[-83.4669,36.1751],[-83.494,36.1661],[-83.5069,36.17],[-83.539,36.182],[-83.6288,36.1389],[-83.6676,36.0807],[-83.6734,36.0386],[-83.6557,36.0433],[-83.469,35.9228],[-83.3914,35.9316],[-83.3302,35.9116],[-83.3017,35.8987],[-83.2768,36.0075],[-83.2347,36.0851]]]},"properties":{"GID_0":"USA","GID_1":"USA.43_1","GID_2":"USA.43.45_1","NAME_1":"Tennessee","NAME_2":"Jefferson"}},
{"type":"Feature","geometry":{"type":"Polygon","coordinates":[[[-81.934,36.2652],[-81.9107,36.2981],[-81.8077,36.3522],[-81.7225,36.3524],[-81.739,36.4072],[-81.6969,36.4686],[-81.7081,36.5348],[-81.6475,36.6125],[-81.8263,36.6148],[-81.8601,36.6064],[-81.8736,36.601],[-81.8827,36.5822],[-81.8983,36.5796],[-81.9841,36.508],[-81.9504,36.4733],[-82.0358,36.3858],[-81.9695,36.2774],[-81.934,36.2652]]]},"properties":{"GID_0":"USA","GID_1":"USA.43_1","GID_2":"USA.43.46_1","NAME_1":"Tennessee","NAME_2":"Johnson"}},
{"type":"Feature","geometry":{"type":"Polygon","coordinates":[[[-84.2716,35.9104],[-84.2628,35.8971],[-84.1662,35.8054],[-84.0805,35.8517],[-84.0068,35.8473],[-83.9962,35.8843],[-83.9839,35.8755],[-83.8877,35.8443],[-83.8241,35.8672],[-83.7807,35.895],[-83.6544,35.9725],[-83.6734,36.0386],[-83.6676,36.0807],[-83.7329,36.1646],[-83.9231,36.1694],[-83.942,36.1865],[-84.0938,36.0688],[-84.0593,36.036],[-84.1493,35.988],[-84.1952,35.9937],[-84.2716,35.9104]]]},"properties":{"GID_0":"USA","GID_1":"USA.43_1","GID_2":"USA.43.47_1","NAME_1":"Tennessee","NAME_2":"Knox"}},
{"type":"Feature","geometry":{"type":"Polygon","coordinates":[[[-89.3483,36.504],[-89.4196,36.498],[-89.5515,36.4414],[-89.5192,36.3883],[-89.5264,36.3459],[-89.6042,36.3446],[-89.6167,36.3186],[-89.5456,36.2791],[-89.6083,36.2409],[-89.6985,36.2309],[-89.6366,36.1845],[-89.4871,36.1882],[-89.4848,36.2119],[-89.4282,36.2598],[-89.4049,36.3522],[-89.3624,36.4101],[-89.3483,36.504]]]},"properties":{"GID_0":"USA","GID_1":"USA.43_1","GID_2":"USA.43.48_1","NAME_1":"Tennessee","NAME_2":"Lake"}},
{"type":"Feature","geometry":{"type":"Polygon","coordinates":[[[-89.9075,35.5382],[-89.8823,35.5862],[-89.7564,35.6493],[-89.61,35.6316],[-89.5103,35.5828],[-89.4696,35.5954],[-89.4657,35.6831],[-89.4393,35.7638],[-89.4021,35.8203],[-89.3577,35.8179],[-89.3418,35.8696],[-89.3471,35.8863],[-89.4095,35.9472],[-89.4914,35.948],[-89.6444,35.9047],[-89.7677,35.8896],[-89.7624,35.8569],[-89.7065,35.8172],[-89.7937,35.7948],[-89.8186,35.7568],[-89.9527,35.738],[-89.9565,35.695],[-89.8622,35.6322],[-89.9414,35.6023],[-89.9075,35.5382]]]},"properties":{"GID_0":"USA","GID_1":"USA.43_1","GID_2":"USA.43.49_1","NAME_1":"Tennessee","NAME_2":"Lauderdale"}},
{"type":"Feature","geometry":{"type":"Polygon","coordinates":[[[-87.2235,35.0002],[-87.2167,35.1048],[-87.2136,35.1234],[-87.2228,35.1678],[-87.215,35.3853],[-87.2061,35.4335],[-87.2955,35.4421],[-87.2944,35.4449],[-87.3272,35.4477],[-87.3256,35.4563],[-87.4493,35.458],[-87.4509,35.4208],[-87.5752,35.4001],[-87.5804,35.1862],[-87.589,35.0586],[-87.6104,35.0049],[-87.2235,35.0002]]]},"properties":{"GID_0":"USA","GID_1":"USA.43_1","GID_2":"USA.43.50_1","NAME_1":"Tennessee","NAME_2":"Lawrence"}},
{"type":"Feature","geometry":{"type":"Polygon","coordinates":[[[-87.6598,35.6091],[-87.7199,35.4857],[-87.6456,35.4727],[-87.5753,35.4065],[-87.5752,35.4001],[-87.4509,35.4208],[-87.4493,35.458],[-87.3256,35.4563],[-87.3272,35.4477],[-87.2944,35.4449],[-87.2929,35.4599],[-87.2877,35.5484],[-87.3522,35.5845],[-87.3388,35.6581],[-87.4614,35.6163],[-87.5494,35.6301],[-87.5736,35.6543],[-87.6598,35.6091]]]},"properties":{"GID_0":"USA","GID_1":"USA.43_1","GID_2":"USA.43.51_1","NAME_1":"Tennessee","NAME_2":"Lewis"}},
{"type":"Feature","geometry":{"type":"Polygon","coordinates":[[[-86.8367,34.9925],[-86.3187,34.9921],[-86.3159,35.1283],[-86.3705,35.135],[-86.3901,35.2366],[-86.4614,35.2931],[-86.5252,35.3155],[-86.5311,35.355],[-86.5611,35.3666],[-86.5831,35.3706],[-86.5971,35.3633],[-86.6002,35.3279],[-86.6963,35.296],[-86.7427,35.2526],[-86.8284,35.2639],[-86.8367,34.9925]]]},"properties":{"GID_0":"USA","GID_1":"USA.43_1","GID_2":"USA.43.52_1","NAME_1":"Tennessee","NAME_2":"Lincoln"}},
{"type":"Feature","geometry":{"type":"Polygon","coordinates":[[[-84.1662,35.8054],[-84.2628,35.8971],[-84.3299,35.8931],[-84.3426,35.8316],[-84.3888,35.7677],[-84.4474,35.7604],[-84.5303,35.6915],[-84.5313,35.6707],[-84.5751,35.6594],[-84.5843,35.6518],[-84.585,35.6445],[-84.5765,35.6444],[-84.527,35.6284],[-84.527,35.6266],[-84.5191,35.6265],[-84.504,35.6199],[-84.5004,35.6294],[-84.5111,35.6296],[-84.5088,35.6622],[-84.3,35.658],[-84.2522,35.6174],[-84.1928,35.6183],[-84.1884,35.6105],[-84.1553,35.625],[-84.1333,35.6655],[-84.1719,35.7324],[-84.1662,35.8054]]]},"properties":{"GID_0":"USA","GID_1":"USA.43_1","GID_2":"USA.43.53_1","NAME_1":"Tennessee","NAME_2":"Loudon"}},
{"type":"Feature","geometry":{"type":"Polygon","coordinates":[[[-86.207,36.6412],[-86.2306,36.4969],[-86.2335,36.4879],[-86.1923,36.483],[-86.1653,36.4422],[-85.9794,36.4282],[-85.8262,36.4095],[-85.8069,36.5528],[-85.7878,36.6227],[-86.207,36.6412]]]},"properties":{"GID_0":"USA","GID_1":"USA.43_1","GID_2":"USA.43.54_1","NAME_1":"Tennessee","NAME_2":"Macon"}},
{"type":"Feature","geometry":{"type":"Polygon","coordinates":[[[-88.7098,35.7918],[-88.9182,35.7964],[-88.8978,35.7841],[-89.0182,35.6727],[-89.0704,35.6881],[-89.0787,35.4318],[-88.8154,35.4275],[-88.6787,35.4892],[-88.6167,35.5605],[-88.6133,35.6269],[-88.6056,35.6311],[-88.613,35.6487],[-88.6065,35.7895],[-88.7098,35.7918]]]},"properties":{"GID_0":"USA","GID_1":"USA.43_1","GID_2":"USA.43.55_1","NAME_1":"Tennessee","NAME_2":"Madison"}},
{"type":"Feature","geometry":{"type":"Polygon","coordinates":[[[-85.865,34.989],[-85.4742,34.9845],[-85.3817,35.0472],[-85.3617,35.088],[-85.3871,35.1476],[-85.3911,35.2021],[-85.4358,35.2559],[-85.5587,35.3195],[-85.7093,35.2891],[-85.6937,35.2396],[-85.74,35.2152],[-85.8221,35.2426],[-85.8728,35.2236],[-85.8648,35.2204],[-85.865,34.989]]]},"properties":{"GID_0":"USA","GID_1":"USA.43_1","GID_2":"USA.43.56_1","NAME_1":"Tennessee","NAME_2":"Marion"}},
{"type":"Feature","geometry":{"type":"Polygon","coordinates":[[[-86.6393,35.6862],[-86.686,35.7104],[-86.7675,35.7063],[-86.7862,35.7066],[-86.8116,35.6965],[-86.8273,35.5825],[-86.8493,35.5256],[-86.9546,35.4517],[-86.9599,35.4199],[-86.9073,35.3159],[-86.8276,35.2929],[-86.8284,35.2639],[-86.7427,35.2526],[-86.6963,35.296],[-86.6002,35.3279],[-86.5971,35.3633],[-86.6335,35.3899],[-86.6656,35.456],[-86.6393,35.6862]]]},"properties":{"GID_0":"USA","GID_1":"USA.43_1","GID_2":"USA.43.57_1","NAME_1":"Tennessee","NAME_2":"Marshall"}},
{"type":"Feature","geometry":{"type":"Polygon","coordinates":[[[-86.9599,35.4199],[-86.9546,35.4517],[-86.8493,35.5256],[-86.8273,35.5825],[-86.8116,35.6965],[-86.7862,35.7066],[-86.7992,35.7079],[-86.9381,35.7623],[-87.215,35.851],[-87.2351,35.7219],[-87.3388,35.6581],[-87.3522,35.5845],[-87.2877,35.5484],[-87.2929,35.4599],[-87.2955,35.4421],[-87.2061,35.4335],[-87.1212,35.4543],[-86.9599,35.4199]]]},"properties":{"GID_0":"USA","GID_1":"USA.43_1","GID_2":"USA.43.58_1","NAME_1":"Tennessee","NAME_2":"Maury"}},
{"type":"Feature","geometry":{"type":"Polygon","coordinates":[[[-84.7063,35.2379],[-84.6926,35.2468],[-84.6674,35.2683],[-84.5159,35.2669],[-84.4953,35.2858],[-84.4104,35.331],[-84.409,35.3986],[-84.526,35.6225],[-84.527,35.6284],[-84.5765,35.6444],[-84.6201,35.645],[-84.6748,35.5884],[-84.7108,35.5361],[-84.8014,35.4554],[-84.8292,35.4058],[-84.8529,35.3701],[-84.86,35.3502],[-84.8381,35.3405],[-84.7042,35.2574],[-84.7106,35.2479],[-84.7063,35.2379]]]},"properties":{"GID_0":"USA","GID_1":"USA.43_1","GID_2":"USA.43.59_1","NAME_1":"Tennessee","NAME_2":"McMinn"}},
{"type":"Feature","geometry":{"type":"Polygon","coordinates":[[[-88.3798,34.9982],[-88.3653,35.3148],[-88.3641,35.3852],[-88.5267,35.3863],[-88.6197,35.3675],[-88.6674,35.3405],[-88.7192,35.2477],[-88.7846,35.2475],[-88.7867,34.9972],[-88.3798,34.9982]]]},"properties":{"GID_0":"USA","GID_1":"USA.43_1","GID_2":"USA.43.60_1","NAME_1":"Tennessee","NAME_2":"McNairy"}},
{"type":"Feature","geometry":{"type":"Polygon","coordinates":[[[-84.86,35.3502],[-84.8529,35.3701],[-84.8292,35.4058],[-84.8014,35.4554],[-84.7108,35.5361],[-84.6748,35.5884],[-84.6201,35.645],[-84.6241,35.7067],[-84.6986,35.718],[-84.7236,35.7532],[-84.7212,35.6919],[-84.7763,35.683],[-84.7787,35.6698],[-84.7805,35.5963],[-84.8045,35.5462],[-84.8592,35.5549],[-84.8675,35.4905],[-84.9253,35.4371],[-84.9822,35.4403],[-85.0188,35.4111],[-84.9582,35.3003],[-84.946,35.287],[-84.8851,35.3278],[-84.8773,35.3577],[-84.86,35.3502]]]},"properties":{"GID_0":"USA","GID_1":"USA.43_1","GID_2":"USA.43.61_1","NAME_1":"Tennessee","NAME_2":"Meigs"}},
{"type":"Feature","geometry":{"type":"Polygon","coordinates":[[[-84.2919,35.2067],[-84.2279,35.2678],[-84.1859,35.2428],[-84.0876,35.2544],[-84.0205,35.3024],[-84.0345,35.348],[-84.0205,35.4095],[-83.9593,35.4629],[-84.011,35.5165],[-84.0844,35.5413],[-84.1819,35.5991],[-84.1928,35.6183],[-84.2522,35.6174],[-84.3,35.658],[-84.5088,35.6622],[-84.5111,35.6296],[-84.5004,35.6294],[-84.504,35.6199],[-84.5191,35.6265],[-84.527,35.6266],[-84.526,35.6225],[-84.409,35.3986],[-84.4104,35.331],[-84.4953,35.2858],[-84.2919,35.2067]]]},"properties":{"GID_0":"USA","GID_1":"USA.43_1","GID_2":"USA.43.62_1","NAME_1":"Tennessee","NAME_2":"Monroe"}},
{"type":"Feature","geometry":{"type":"Polygon","coordinates":[[[-87.6424,36.6385],[-87.624,36.5311],[-87.5874,36.342],[-87.323,36.3134],[-87.2894,36.3183],[-87.2806,36.3531],[-87.2029,36.4122],[-87.1481,36.4183],[-87.1205,36.455],[-87.1182,36.5237],[-87.14,36.5597],[-87.1149,36.644],[-87.6424,36.6385]]]},"properties":{"GID_0":"USA","GID_1":"USA.43_1","GID_2":"USA.43.63_1","NAME_1":"Tennessee","NAME_2":"Montgomery"}},
{"type":"Feature","geometry":{"type":"Polygon","coordinates":[[[-86.5311,35.355],[-86.5252,35.3155],[-86.4614,35.2931],[-86.3901,35.2366],[-86.3705,35.135],[-86.3159,35.1283],[-86.3,35.2332],[-86.2435,35.3237],[-86.2615,35.3336],[-86.2579,35.4126],[-86.2787,35.4108],[-86.367,35.3452],[-86.4509,35.3249],[-86.4855,35.3611],[-86.5311,35.355]]]},"properties":{"GID_0":"USA","GID_1":"USA.43_1","GID_2":"USA.43.64_1","NAME_1":"Tennessee","NAME_2":"Moore"}},
{"type":"Feature","geometry":{"type":"Polygon","coordinates":[[[-84.4414,36.1636],[-84.4713,36.204],[-84.5688,36.2369],[-84.6132,36.2724],[-84.7011,36.3709],[-84.7051,36.3682],[-84.7743,36.3344],[-84.7943,36.2988],[-84.8773,36.2819],[-84.9126,36.2083],[-84.9059,36.157],[-84.8324,36.0842],[-84.7201,35.9946],[-84.6795,35.9075],[-84.6703,35.9155],[-84.6049,35.9515],[-84.4461,35.9863],[-84.3418,36.0493],[-84.4203,36.1085],[-84.4414,36.1636]]]},"properties":{"GID_0":"USA","GID_1":"USA.43_1","GID_2":"USA.43.65_1","NAME_1":"Tennessee","NAME_2":"Morgan"}},
{"type":"Feature","geometry":{"type":"Polygon","coordinates":[[[-89.3483,36.504],[-89.3624,36.4101],[-89.4049,36.3522],[-89.4282,36.2598],[-89.4848,36.2119],[-89.4363,36.2119],[-88.9651,36.201],[-88.9495,36.4128],[-88.8768,36.3973],[-88.8156,36.4124],[-88.8316,36.5043],[-89.2992,36.5078],[-89.3483,36.504]]]},"properties":{"GID_0":"USA","GID_1":"USA.43_1","GID_2":"USA.43.66_1","NAME_1":"Tennessee","NAME_2":"Obion"}},
{"type":"Feature","geometry":{"type":"Polygon","coordinates":[[[-85.4958,36.4031],[-85.4977,36.3723],[-85.4953,36.3025],[-85.461,36.3064],[-85.4182,36.2386],[-85.204,36.1525],[-85.1192,36.1447],[-85.0827,36.1961],[-85.1225,36.3053],[-85.1178,36.4096],[-85.1338,36.4101],[-85.1476,36.4588],[-85.2231,36.5151],[-85.2853,36.5368],[-85.4385,36.5013],[-85.4823,36.4543],[-85.4958,36.4031]]]},"properties":{"GID_0":"USA","GID_1":"USA.43_1","GID_2":"USA.43.67_1","NAME_1":"Tennessee","NAME_2":"Overton"}},
{"type":"Feature","geometry":{"type":"Polygon","coordinates":[[[-87.9707,35.8159],[-87.9859,35.7666],[-88.0319,35.7263],[-88.0177,35.6835],[-88.0352,35.6164],[-87.9742,35.514],[-88.0257,35.4732],[-88.0154,35.4239],[-87.9773,35.459],[-87.8583,35.4664],[-87.8052,35.4867],[-87.7199,35.4857],[-87.6598,35.6091],[-87.7449,35.6646],[-87.7327,35.7261],[-87.7165,35.8389],[-87.8175,35.8383],[-87.8518,35.8037],[-87.9157,35.8385],[-87.9629,35.8414],[-87.9707,35.8159]]]},"properties":{"GID_0":"USA","GID_1":"USA.43_1","GID_2":"USA.43.68_1","NAME_1":"Tennessee","NAME_2":"Perry"}},
{"type":"Feature","geometry":{"type":"Polygon","coordinates":[[[-85.2758,36.6278],[-85.2853,36.5368],[-85.2231,36.5151],[-85.1476,36.4588],[-85.1338,36.4101],[-85.103,36.4099],[-85.0887,36.5001],[-85.0503,36.5524],[-84.9645,36.5802],[-84.8627,36.5698],[-84.7849,36.5255],[-84.7322,36.525],[-84.7658,36.5752],[-84.7842,36.6063],[-84.9777,36.6181],[-85.2758,36.6278]]]},"properties":{"GID_0":"USA","GID_1":"USA.43_1","GID_2":"USA.43.69_1","NAME_1":"Tennessee","NAME_2":"Pickett"}},
{"type":"Feature","geometry":{"type":"Polygon","coordinates":[[[-84.7755,34.9896],[-84.321,34.989],[-84.2919,35.2067],[-84.4953,35.2858],[-84.5159,35.2669],[-84.6674,35.2683],[-84.6926,35.2468],[-84.7159,35.2312],[-84.7012,35.1711],[-84.7476,35.0862],[-84.7755,34.9896]]]},"properties":{"GID_0":"USA","GID_1":"USA.43_1","GID_2":"USA.43.70_1","NAME_1":"Tennessee","NAME_2":"Polk"}},
{"type":"Feature","geometry":{"type":"Polygon","coordinates":[[[-85.1022,36.1391],[-85.1192,36.1447],[-85.204,36.1525],[-85.4182,36.2386],[-85.461,36.3064],[-85.4953,36.3025],[-85.4937,36.282],[-85.5265,36.2409],[-85.6202,36.2122],[-85.7861,36.2457],[-85.7867,36.2339],[-85.8075,36.1319],[-85.77,36.0951],[-85.6887,36.0695],[-85.6445,36.0154],[-85.6108,36.0434],[-85.5093,36.0834],[-85.3094,36.0316],[-85.2644,35.9792],[-85.2375,36.1065],[-85.1522,36.1005],[-85.1022,36.1391]]]},"properties":{"GID_0":"USA","GID_1":"USA.43_1","GID_2":"USA.43.71_1","NAME_1":"Tennessee","NAME_2":"Putnam"}},
{"type":"Feature","geometry":{"type":"Polygon","coordinates":[[[-85.1361,35.4579],[-85.0188,35.4111],[-84.9822,35.4403],[-84.9253,35.4371],[-84.8675,35.4905],[-84.8592,35.5549],[-84.8045,35.5462],[-84.7805,35.5963],[-84.7787,35.6698],[-84.7763,35.683],[-84.7212,35.6919],[-84.7236,35.7532],[-84.7832,35.8187],[-84.7803,35.8237],[-84.9052,35.7736],[-85.0506,35.6165],[-85.1077,35.5716],[-85.1173,35.4763],[-85.1361,35.4579]]]},"properties":{"GID_0":"USA","GID_1":"USA.43_1","GID_2":"USA.43.72_1","NAME_1":"Tennessee","NAME_2":"Rhea"}},
{"type":"Feature","geometry":{"type":"Polygon","coordinates":[[[-84.3418,36.0493],[-84.4461,35.9863],[-84.6049,35.9515],[-84.6703,35.9155],[-84.6858,35.9025],[-84.7492,35.8488],[-84.7659,35.8344],[-84.7785,35.8268],[-84.7832,35.8187],[-84.7236,35.7532],[-84.6986,35.718],[-84.6241,35.7067],[-84.6201,35.645],[-84.585,35.6445],[-84.5843,35.6518],[-84.5751,35.6594],[-84.5313,35.6707],[-84.5303,35.6915],[-84.4474,35.7604],[-84.3888,35.7677],[-84.3426,35.8316],[-84.3299,35.8931],[-84.2628,35.8971],[-84.2716,35.9104],[-84.3418,36.0493]]]},"properties":{"GID_0":"USA","GID_1":"USA.43_1","GID_2":"USA.43.73_1","NAME_1":"Tennessee","NAME_2":"Roane"}},
{"type":"Feature","geometry":{"type":"Polygon","coordinates":[[[-86.5637,36.6351],[-86.5913,36.6544],[-87.1149,36.644],[-87.14,36.5597],[-87.1182,36.5237],[-87.1205,36.455],[-87.0095,36.3963],[-86.988,36.3692],[-86.9167,36.3848],[-86.8295,36.3514],[-86.7856,36.3613],[-86.7467,36.4205],[-86.7009,36.4103],[-86.6522,36.4691],[-86.6345,36.5354],[-86.5637,36.6351]]]},"properties":{"GID_0":"USA","GID_1":"USA.43_1","GID_2":"USA.43.74_1","NAME_1":"Tennessee","NAME_2":"Robertson"}},
{"type":"Feature","geometry":{"type":"Polygon","coordinates":[[[-86.2445,35.6346],[-86.2186,35.7045],[-86.1808,35.769],[-86.1883,35.8008],[-86.1551,35.9328],[-86.1523,35.9564],[-86.2876,35.9684],[-86.5141,36.1006],[-86.6096,36.0103],[-86.6207,35.9699],[-86.6136,35.8607],[-86.6233,35.8042],[-86.6966,35.7576],[-86.686,35.7104],[-86.6393,35.6862],[-86.5431,35.6976],[-86.4709,35.647],[-86.3425,35.6638],[-86.2445,35.6346]]]},"properties":{"GID_0":"USA","GID_1":"USA.43_1","GID_2":"USA.43.75_1","NAME_1":"Tennessee","NAME_2":"Rutherford"}},
{"type":"Feature","geometry":{"type":"Polygon","coordinates":[[[-84.261,36.5949],[-84.7842,36.6063],[-84.7658,36.5752],[-84.7138,36.4957],[-84.6595,36.3949],[-84.6908,36.3744],[-84.7011,36.3709],[-84.7,36.3695],[-84.6132,36.2724],[-84.5688,36.2369],[-84.4713,36.204],[-84.4414,36.1636],[-84.373,36.2167],[-84.3766,36.2603],[-84.3298,36.2842],[-84.3322,36.3849],[-84.3534,36.4623],[-84.3306,36.5096],[-84.2595,36.5145],[-84.261,36.5949]]]},"properties":{"GID_0":"USA","GID_1":"USA.43_1","GID_2":"USA.43.76_1","NAME_1":"Tennessee","NAME_2":"Scott"}},
{"type":"Feature","geometry":{"type":"Polygon","coordinates":[[[-85.4238,35.5676],[-85.5581,35.5328],[-85.601,35.5316],[-85.5368,35.4873],[-85.536,35.4315],[-85.4854,35.4063],[-85.5072,35.3592],[-85.5587,35.3195],[-85.4358,35.2559],[-85.3911,35.2021],[-85.3871,35.1476],[-85.2259,35.3545],[-85.4029,35.4922],[-85.4238,35.5676]]]},"properties":{"GID_0":"USA","GID_1":"USA.43_1","GID_2":"USA.43.77_1","NAME_1":"Tennessee","NAME_2":"Sequatchie"}},
{"type":"Feature","geometry":{"type":"Polygon","coordinates":[[[-83.2543,35.7152],[-83.282,35.734],[-83.2855,35.7949],[-83.2618,35.8243],[-83.3062,35.9002],[-83.3302,35.9116],[-83.3914,35.9316],[-83.469,35.9228],[-83.6557,36.0433],[-83.6734,36.0386],[-83.6544,35.9725],[-83.7807,35.895],[-83.7945,35.8871],[-83.7846,35.8778],[-83.7832,35.8656],[-83.7557,35.8187],[-83.7186,35.7477],[-83.6632,35.6881],[-83.6634,35.571],[-83.5047,35.5627],[-83.4489,35.6078],[-83.3444,35.6627],[-83.296,35.6594],[-83.2543,35.7152]]]},"properties":{"GID_0":"USA","GID_1":"USA.43_1","GID_2":"USA.43.78_1","NAME_1":"Tennessee","NAME_2":"Sevier"}},
{"type":"Feature","geometry":{"type":"Polygon","coordinates":[[[-90.0751,35.3847],[-90.1083,35.309],[-90.1564,35.3012],[-90.0741,35.2189],[-90.1146,35.18],[-90.0668,35.1505],[-90.0978,35.1196],[-90.1792,35.1168],[-90.2007,35.0303],[-90.2717,35.0394],[-90.3098,34.9966],[-89.6441,34.996],[-89.633,35.3784],[-89.6463,35.3725],[-89.711,35.4041],[-89.7787,35.3911],[-90.0314,35.3946],[-90.0751,35.3847]]]},"properties":{"GID_0":"USA","GID_1":"USA.43_1","GID_2":"USA.43.79_1","NAME_1":"Tennessee","NAME_2":"Shelby"}},
{"type":"Feature","geometry":{"type":"Polygon","coordinates":[[[-85.8075,36.1319],[-85.7867,36.2339],[-85.7861,36.2398],[-85.7935,36.2457],[-85.794,36.2503],[-85.8197,36.2521],[-85.8464,36.288],[-85.8349,36.3565],[-85.8262,36.4095],[-85.9794,36.4282],[-86.1422,36.3071],[-86.0581,36.0917],[-86.0427,36.0921],[-85.8975,36.1152],[-85.8616,36.0957],[-85.8075,36.1319]]]},"properties":{"GID_0":"USA","GID_1":"USA.43_1","GID_2":"USA.43.80_1","NAME_1":"Tennessee","NAME_2":"Smith"}},
{"type":"Feature","geometry":{"type":"Polygon","coordinates":[[[-88.0546,36.498],[-88.0585,36.4391],[-87.9953,36.3631],[-87.9808,36.3543],[-87.8219,36.3287],[-87.6994,36.3681],[-87.5925,36.3678],[-87.624,36.5311],[-87.6424,36.6385],[-87.8534,36.6353],[-87.8505,36.6651],[-88.0707,36.6792],[-88.0326,36.5367],[-88.0546,36.498]]]},"properties":{"GID_0":"USA","GID_1":"USA.43_1","GID_2":"USA.43.81_1","NAME_1":"Tennessee","NAME_2":"Stewart"}},
{"type":"Feature","geometry":{"type":"Polygon","coordinates":[[[-81.9841,36.508],[-81.8983,36.5796],[-81.8827,36.5822],[-81.8736,36.601],[-81.8601,36.6064],[-81.8263,36.6148],[-81.9233,36.6166],[-81.9352,36.595],[-82.6098,36.5944],[-82.6104,36.5192],[-82.7009,36.4527],[-82.6831,36.4291],[-82.6015,36.4232],[-82.4391,36.4448],[-82.369,36.4028],[-82.2888,36.3948],[-82.2549,36.421],[-82.1884,36.4003],[-82.1019,36.4579],[-81.9841,36.508]]]},"properties":{"GID_0":"USA","GID_1":"USA.43_1","GID_2":"USA.43.82_1","NAME_1":"Tennessee","NAME_2":"Sullivan"}},
{"type":"Feature","geometry":{"type":"Polygon","coordinates":[[[-86.207,36.6412],[-86.5095,36.6539],[-86.5637,36.6351],[-86.6345,36.5354],[-86.6522,36.4691],[-86.7009,36.4103],[-86.7467,36.4205],[-86.7185,36.3395],[-86.5944,36.2449],[-86.5599,36.2791],[-86.4335,36.3404],[-86.3844,36.341],[-86.2992,36.3127],[-86.289,36.3449],[-86.2833,36.3476],[-86.2856,36.354],[-86.2817,36.3617],[-86.2688,36.4529],[-86.2402,36.4516],[-86.2306,36.4969],[-86.207,36.6412]]]},"properties":{"GID_0":"USA","GID_1":"USA.43_1","GID_2":"USA.43.83_1","NAME_1":"Tennessee","NAME_2":"Sumner"}},
{"type":"Feature","geometry":{"type":"Polygon","coordinates":[[[-89.9075,35.5382],[-89.9549,35.524],[-89.988,35.5594],[-90.0362,35.5515],[-90.0491,35.5113],[-90.0191,35.469],[-90.0309,35.4279],[-90.0479,35.4103],[-90.0312,35.3945],[-89.7787,35.3911],[-89.711,35.4041],[-89.6463,35.3725],[-89.6076,35.3901],[-89.4738,35.4031],[-89.4684,35.5436],[-89.5103,35.5828],[-89.61,35.6316],[-89.7564,35.6493],[-89.8823,35.5862],[-89.9075,35.5382]]]},"properties":{"GID_0":"USA","GID_1":"USA.43_1","GID_2":"USA.43.84_1","NAME_1":"Tennessee","NAME_2":"Tipton"}},
{"type":"Feature","geometry":{"type":"Polygon","coordinates":[[[-86.2335,36.4879],[-86.2402,36.4516],[-86.2688,36.4529],[-86.2817,36.3617],[-86.2856,36.354],[-86.2833,36.3476],[-86.273,36.3476],[-86.2159,36.3505],[-86.1422,36.3071],[-85.9794,36.4282],[-86.1653,36.4422],[-86.1923,36.483],[-86.2335,36.4879]]]},"properties":{"GID_0":"USA","GID_1":"USA.43_1","GID_2":"USA.43.85_1","NAME_1":"Tennessee","NAME_2":"Trousdale"}},
{"type":"Feature","geometry":{"type":"Polygon","coordinates":[[[-82.6023,36.0401],[-82.6081,35.9718],[-82.5541,35.9575],[-82.4603,36.0071],[-82.407,36.0871],[-82.3555,36.1163],[-82.2464,36.1325],[-82.222,36.156],[-82.2562,36.2332],[-82.3194,36.2605],[-82.3467,36.2509],[-82.442,36.1549],[-82.5289,36.1483],[-82.5922,36.097],[-82.6023,36.0401]]]},"properties":{"GID_0":"USA","GID_1":"USA.43_1","GID_2":"USA.43.86_1","NAME_1":"Tennessee","NAME_2":"Unicoi"}},
{"type":"Feature","geometry":{"type":"Polygon","coordinates":[[[-83.942,36.1865],[-83.9231,36.1694],[-83.7329,36.1646],[-83.6936,36.2364],[-83.7033,36.2733],[-83.668,36.3443],[-83.6802,36.3564],[-83.7114,36.3456],[-83.8056,36.4357],[-83.8939,36.4197],[-83.9048,36.4199],[-83.9107,36.4132],[-83.9505,36.4012],[-83.9821,36.2856],[-84.011,36.272],[-83.942,36.1865]]]},"properties":{"GID_0":"USA","GID_1":"USA.43_1","GID_2":"USA.43.87_1","NAME_1":"Tennessee","NAME_2":"Union"}},
{"type":"Feature","geometry":{"type":"Polygon","coordinates":[[[-85.254,35.7682],[-85.2803,35.8055],[-85.362,35.7969],[-85.4752,35.8229],[-85.5701,35.8065],[-85.5848,35.807],[-85.5968,35.7943],[-85.6025,35.7952],[-85.5943,35.6178],[-85.5581,35.5328],[-85.4238,35.5676],[-85.2652,35.7215],[-85.254,35.7682]]]},"properties":{"GID_0":"USA","GID_1":"USA.43_1","GID_2":"USA.43.88_1","NAME_1":"Tennessee","NAME_2":"VanBuren"}},
{"type":"Feature","geometry":{"type":"Polygon","coordinates":[[[-85.983,35.6566],[-85.9474,35.5727],[-85.8768,35.524],[-85.8175,35.5135],[-85.6971,35.5292],[-85.5581,35.5328],[-85.5943,35.6178],[-85.6025,35.7952],[-85.6058,35.798],[-85.6823,35.8313],[-85.7855,35.8533],[-85.8644,35.8417],[-85.9138,35.8249],[-85.9864,35.731],[-85.983,35.6566]]]},"properties":{"GID_0":"USA","GID_1":"USA.43_1","GID_2":"USA.43.89_1","NAME_1":"Tennessee","NAME_2":"Warren"}},
{"type":"Feature","geometry":{"type":"Polygon","coordinates":[[[-82.3001,36.3966],[-82.369,36.4028],[-82.4391,36.4448],[-82.6015,36.4232],[-82.6831,36.4291],[-82.7028,36.4106],[-82.6292,36.419],[-82.6479,36.1517],[-82.5922,36.097],[-82.5289,36.1483],[-82.442,36.1549],[-82.3467,36.2509],[-82.3403,36.253],[-82.3426,36.264],[-82.3003,36.3707],[-82.3001,36.3966]]]},"properties":{"GID_0":"USA","GID_1":"USA.43_1","GID_2":"USA.43.90_1","NAME_1":"Tennessee","NAME_2":"Washington"}},
{"type":"Feature","geometry":{"type":"Polygon","coordinates":[[[-87.6104,35.0049],[-87.589,35.0586],[-87.5804,35.1862],[-87.5753,35.4065],[-87.6456,35.4727],[-87.7199,35.4857],[-87.8052,35.4867],[-87.8583,35.4664],[-87.9773,35.459],[-88.0154,35.4239],[-88.015,35.3871],[-88.0247,35.3924],[-87.9843,35.2927],[-87.9871,35.0075],[-87.6104,35.0049]]]},"properties":{"GID_0":"USA","GID_1":"USA.43_1","GID_2":"USA.43.91_1","NAME_1":"Tennessee","NAME_2":"Wayne"}},
{"type":"Feature","geometry":{"type":"Polygon","coordinates":[[[-88.5172,36.5028],[-88.8316,36.5043],[-88.8156,36.4124],[-88.8768,36.3973],[-88.9495,36.4128],[-88.9627,36.2264],[-88.8358,36.1274],[-88.7668,36.1113],[-88.6912,36.0677],[-88.6553,36.1175],[-88.5317,36.1166],[-88.5234,36.2946],[-88.5172,36.5028]]]},"properties":{"GID_0":"USA","GID_1":"USA.43_1","GID_2":"USA.43.92_1","NAME_1":"Tennessee","NAME_2":"Weakley"}},
{"type":"Feature","geometry":{"type":"Polygon","coordinates":[[[-85.2644,35.9792],[-85.3094,36.0316],[-85.5093,36.0834],[-85.6108,36.0434],[-85.6445,36.0154],[-85.6349,36.0009],[-85.6618,35.9656],[-85.6366,35.8825],[-85.6823,35.8313],[-85.6058,35.798],[-85.5968,35.7943],[-85.5848,35.807],[-85.5701,35.8065],[-85.4752,35.8229],[-85.362,35.7969],[-85.2803,35.8055],[-85.254,35.7682],[-85.2273,35.8823],[-85.2644,35.9792]]]},"properties":{"GID_0":"USA","GID_1":"USA.43_1","GID_2":"USA.43.93_1","NAME_1":"Tennessee","NAME_2":"White"}},
{"type":"Feature","geometry":{"type":"Polygon","coordinates":[[[-87.1841,36.05],[-87.1909,36.0109],[-87.2071,35.9608],[-87.2023,35.9414],[-87.215,35.851],[-86.9381,35.7623],[-86.7992,35.7079],[-86.7675,35.7063],[-86.686,35.7104],[-86.6966,35.7576],[-86.6233,35.8042],[-86.6136,35.8607],[-86.6207,35.9699],[-86.7862,36.036],[-86.9292,36.0527],[-87.0319,35.9874],[-87.0549,36.0467],[-87.093,36.044],[-87.1152,36.047],[-87.1841,36.05]]]},"properties":{"GID_0":"USA","GID_1":"USA.43_1","GID_2":"USA.43.94_1","NAME_1":"Tennessee","NAME_2":"Williamson"}},
{"type":"Feature","geometry":{"type":"Polygon","coordinates":[[[-86.0142,35.9629],[-86.0535,36.0917],[-86.0581,36.0917],[-86.1422,36.3071],[-86.2159,36.3505],[-86.273,36.3476],[-86.289,36.3449],[-86.2992,36.3127],[-86.3844,36.341],[-86.4335,36.3404],[-86.5599,36.2791],[-86.5944,36.2449],[-86.5559,36.1367],[-86.5141,36.1006],[-86.2876,35.9684],[-86.1523,35.9564],[-86.1512,35.9628],[-86.0898,35.9669],[-86.0631,35.9642],[-86.0142,35.9629]]]},"properties":{"GID_0":"USA","GID_1":"USA.43_1","GID_2":"USA.43.95_1","NAME_1":"Tennessee","NAME_2":"Wilson"}}
]}