{"type":"FeatureCollection", "features": [
{"type":"Feature","geometry":{"type":"MultiPolygon","coordinates":[[[[-70.5407,41.8081],[-70.5656,41.7865],[-70.6033,41.7749],[-70.6296,41.7596],[-70.6117,41.7439],[-70.5869,41.7497],[-70.5522,41.7764],[-70.5136,41.7736],[-70.5435,41.8285],[-70.5448,41.8186],[-70.5407,41.8081]]],[[[-70.1942,42.0806],[-70.2428,42.0692],[-70.2108,42.0331],[-70.1683,42.06],[-70.1478,42.0611],[-70.1127,42.0461],[-70.0858,42.0172],[-70.0767,41.9744],[-70.0593,41.9245],[-70.0239,41.9303],[-70.0186,41.8911],[-70.0097,41.8753],[-70.0039,41.8361],[-70.0067,41.8056],[-70.0528,41.7761],[-70.1225,41.7592],[-70.1883,41.7528],[-70.2292,41.7367],[-70.2603,41.7123],[-70.3208,41.7094],[-70.3096,41.7259],[-70.4139,41.7444],[-70.5064,41.7714],[-70.5478,41.7756],[-70.5908,41.7458],[-70.6183,41.74],[-70.6169,41.6572],[-70.6502,41.6456],[-70.6411,41.6339],[-70.6522,41.6046],[-70.6417,41.5836],[-70.6542,41.5503],[-70.6761,41.5286],[-70.6556,41.515],[-70.6346,41.5382],[-70.5807,41.5445],[-70.5408,41.5586],[-70.5267,41.5792],[-70.4943,41.5515],[-70.4679,41.5651],[-70.4322,41.6206],[-70.4056,41.6367],[-70.3992,41.6064],[-70.3722,41.6142],[-70.3561,41.6339],[-70.3168,41.625],[-70.2564,41.6455],[-70.248,41.6274],[-70.1975,41.6442],[-70.1931,41.6517],[-70.1386,41.6504],[-70.0952,41.6616],[-70.0298,41.6675],[-70.0122,41.6731],[-69.9851,41.6568],[-69.9633,41.6531],[-69.9454,41.6771],[-69.9454,41.7036],[-69.9705,41.7128],[-69.9892,41.7361],[-69.9497,41.7661],[-69.9289,41.7547],[-69.9353,41.8],[-69.9597,41.8144],[-69.9458,41.8469],[-69.9783,41.9364],[-70.0069,41.9839],[-70.035,42.0175],[-70.0664,42.0453],[-70.095,42.0592],[-70.1642,42.0794],[-70.1942,42.0806]]]]},"properties":{"GID_0":"USA","GID_1":"USA.22_1","GID_2":"USA.22.1_1","NAME_1":"Massachusetts","NAME_2":"Barnstable"}},
{"type":"Feature","geometry":{"type":"Polygon","coordinates":[[[-73.0517,42.0405],[-73.076,42.1058],[-73.0627,42.1178],[-73.0708,42.1481],[-73.0348,42.1436],[-73.0049,42.2498],[-73.0006,42.3121],[-73.0272,42.3077],[-73.0631,42.3291],[-73.0656,42.389],[-73.0114,42.3797],[-72.9682,42.5401],[-72.9788,42.5414],[-72.9504,42.6417],[-72.9547,42.6648],[-72.977,42.6609],[-72.9954,42.6739],[-72.9542,42.7048],[-73.0228,42.7027],[-73.023,42.7397],[-73.2675,42.7452],[-73.4822,42.1648],[-73.5084,42.0858],[-73.4981,42.0496],[-73.3658,42.0497],[-73.0517,42.0405]]]},"properties":{"GID_0":"USA","GID_1":"USA.22_1","GID_2":"USA.22.2_1","NAME_1":"Massachusetts","NAME_2":"Berkshire"}},
{"type":"Feature","geometry":{"type":"Polygon","coordinates":[[[-71.3806,41.985],[-71.3824,41.8915],[-71.3386,41.8983],[-71.3331,41.8574],[-71.3437,41.8242],[-71.3394,41.797],[-71.3259,41.7793],[-71.2614,41.7515],[-71.2277,41.7151],[-71.1939,41.7046],[-71.1989,41.6783],[-71.1768,41.6682],[-71.1332,41.6595],[-71.1409,41.6037],[-71.1324,41.5946],[-71.1206,41.4956],[-71.0942,41.5032],[-71.0873,41.5241],[-71.0451,41.5139],[-70.9881,41.5083],[-70.9361,41.5406],[-70.9308,41.6089],[-70.9111,41.5939],[-70.902,41.624],[-70.8617,41.6353],[-70.8441,41.6293],[-70.8452,41.6447],[-70.8866,41.7602],[-70.905,41.7576],[-70.922,41.7908],[-71.0267,41.779],[-71.0149,41.7994],[-71.0363,41.8163],[-70.9738,41.861],[-70.9961,41.9264],[-71.0508,41.9648],[-71.0802,42.0957],[-71.3643,41.985],[-71.3806,41.985]]]},"properties":{"GID_0":"USA","GID_1":"USA.22_1","GID_2":"USA.22.3_1","NAME_1":"Massachusetts","NAME_2":"Bristol"}},
{"type":"Feature","geometry":{"type":"MultiPolygon","coordinates":[[[[-70.5977,41.4808],[-70.6591,41.4605],[-70.671,41.443],[-70.7005,41.4341],[-70.7124,41.4088],[-70.7744,41.3497],[-70.8127,41.3569],[-70.8377,41.3455],[-70.7946,41.3102],[-70.7699,41.3024],[-70.7627,41.3199],[-70.7344,41.3372],[-70.6413,41.3494],[-70.4508,41.3487],[-70.4496,41.3808],[-70.4699,41.3919],[-70.4971,41.3841],[-70.5171,41.4036],[-70.553,41.4086],[-70.5594,41.4222],[-70.5544,41.4586],[-70.5696,41.4722],[-70.5946,41.448],[-70.5977,41.4808]]],[[[-70.7122,41.5156],[-70.7858,41.4781],[-70.8071,41.4582],[-70.7908,41.4458],[-70.759,41.4625],[-70.7611,41.4739],[-70.7206,41.4882],[-70.6986,41.5067],[-70.7122,41.5156]]]]},"properties":{"GID_0":"USA","GID_1":"USA.22_1","GID_2":"USA.22.4_1","NAME_1":"Massachusetts","NAME_2":"Dukes"}},
{"type":"Feature","geometry":{"type":"Polygon","coordinates":[[[-70.9733,42.4392],[-70.9192,42.4681],[-70.8947,42.46],[-70.8597,42.4889],[-70.835,42.49],[-70.8407,42.5186],[-70.8636,42.5211],[-70.8789,42.5389],[-70.8229,42.5513],[-70.8047,42.5617],[-70.7373,42.5755],[-70.7128,42.5717],[-70.6603,42.6067],[-70.5904,42.6411],[-70.6228,42.6694],[-70.63,42.693],[-70.664,42.6779],[-70.6833,42.6542],[-70.7158,42.6617],[-70.7272,42.6481],[-70.7556,42.6611],[-70.7436,42.6803],[-70.7861,42.6903],[-70.7705,42.7053],[-70.7942,42.75],[-70.8097,42.8128],[-70.8352,42.7983],[-70.8645,42.8147],[-70.8117,42.8219],[-70.8167,42.8716],[-70.8512,42.8613],[-70.886,42.8806],[-70.9166,42.8867],[-70.9718,42.8678],[-71.0256,42.8598],[-71.0482,42.8467],[-71.066,42.8063],[-71.1333,42.8215],[-71.1684,42.8084],[-71.1891,42.7907],[-71.1843,42.7375],[-71.2236,42.7463],[-71.2561,42.7377],[-71.2376,42.6695],[-71.2564,42.6563],[-71.1351,42.5993],[-71.0566,42.6035],[-71.0337,42.5853],[-71.0568,42.5745],[-71.0706,42.5554],[-71.0751,42.5309],[-71.0409,42.5258],[-71.0355,42.5062],[-71.0537,42.4758],[-71.0253,42.4448],[-71.0043,42.4298],[-70.9733,42.4392]]]},"properties":{"GID_0":"USA","GID_1":"USA.22_1","GID_2":"USA.22.5_1","NAME_1":"Massachusetts","NAME_2":"Essex"}},
{"type":"Feature","geometry":{"type":"Polygon","coordinates":[[[-72.9754,42.5559],[-72.8767,42.5411],[-72.8713,42.4839],[-72.7727,42.4667],[-72.7574,42.446],[-72.7003,42.4529],[-72.7039,42.4056],[-72.622,42.415],[-72.5973,42.4211],[-72.49,42.4333],[-72.484,42.4074],[-72.3755,42.42],[-72.3527,42.3366],[-72.356,42.3029],[-72.3289,42.3199],[-72.3143,42.3432],[-72.3131,42.4018],[-72.2831,42.4411],[-72.2917,42.4796],[-72.2448,42.5135],[-72.2686,42.533],[-72.2772,42.5774],[-72.2545,42.6116],[-72.2278,42.615],[-72.2295,42.6627],[-72.2721,42.6743],[-72.2832,42.7229],[-73.023,42.7397],[-73.0228,42.7027],[-72.9542,42.7048],[-72.9954,42.6739],[-72.977,42.6609],[-72.9547,42.6648],[-72.9504,42.6417],[-72.9754,42.5559]]]},"properties":{"GID_0":"USA","GID_1":"USA.22_1","GID_2":"USA.22.6_1","NAME_1":"Massachusetts","NAME_2":"Franklin"}},
{"type":"Feature","geometry":{"type":"Polygon","coordinates":[[[-73.0517,42.0405],[-72.9398,42.0379],[-72.8155,42.0377],[-72.8182,41.9979],[-72.7686,42.0043],[-72.7574,42.0362],[-72.7077,42.0371],[-72.5732,42.0301],[-72.5263,42.035],[-72.3082,42.0316],[-72.1358,42.0307],[-72.1345,42.162],[-72.1988,42.1535],[-72.2008,42.1612],[-72.2641,42.1836],[-72.2607,42.2054],[-72.2208,42.2452],[-72.2703,42.2367],[-72.3364,42.219],[-72.3629,42.2061],[-72.3608,42.1902],[-72.3954,42.1859],[-72.4035,42.2317],[-72.5958,42.2116],[-72.6234,42.2337],[-72.5998,42.2652],[-72.6131,42.286],[-72.634,42.274],[-72.6562,42.2275],[-72.6906,42.2131],[-72.687,42.1831],[-72.7814,42.1995],[-72.7933,42.2366],[-72.8133,42.2446],[-72.8578,42.2405],[-72.8722,42.2163],[-72.9123,42.239],[-72.8806,42.2652],[-72.885,42.3324],[-72.8957,42.3405],[-72.9535,42.344],[-73.0006,42.3121],[-73.0049,42.2498],[-73.0348,42.1436],[-73.0708,42.1481],[-73.0627,42.1178],[-73.076,42.1058],[-73.0517,42.0405]]]},"properties":{"GID_0":"USA","GID_1":"USA.22_1","GID_2":"USA.22.7_1","NAME_1":"Massachusetts","NAME_2":"Hampden"}},
{"type":"Feature","geometry":{"type":"Polygon","coordinates":[[[-73.0006,42.3121],[-72.9535,42.344],[-72.8957,42.3405],[-72.885,42.3324],[-72.8806,42.2652],[-72.9123,42.239],[-72.8722,42.2163],[-72.8578,42.2405],[-72.8133,42.2446],[-72.7933,42.2366],[-72.7814,42.1995],[-72.687,42.1831],[-72.6906,42.2131],[-72.6562,42.2275],[-72.634,42.274],[-72.6131,42.286],[-72.5998,42.2652],[-72.6234,42.2337],[-72.5958,42.2116],[-72.4035,42.2317],[-72.3954,42.1859],[-72.3608,42.1902],[-72.3629,42.2061],[-72.3364,42.219],[-72.2703,42.2367],[-72.2208,42.2452],[-72.2171,42.2488],[-72.218,42.2697],[-72.2033,42.2911],[-72.2116,42.3111],[-72.2747,42.3021],[-72.284,42.352],[-72.3143,42.3432],[-72.3289,42.3199],[-72.356,42.3029],[-72.3527,42.3366],[-72.3755,42.42],[-72.484,42.4074],[-72.49,42.4333],[-72.5973,42.4211],[-72.622,42.415],[-72.7039,42.4056],[-72.7003,42.4529],[-72.7574,42.446],[-72.7727,42.4667],[-72.8713,42.4839],[-72.8767,42.5411],[-72.9754,42.5559],[-72.9788,42.5414],[-72.9682,42.5401],[-73.0114,42.3797],[-73.0656,42.389],[-73.0631,42.3291],[-73.0272,42.3077],[-73.0006,42.3121]]]},"properties":{"GID_0":"USA","GID_1":"USA.22_1","GID_2":"USA.22.8_1","NAME_1":"Massachusetts","NAME_2":"Hampshire"}},
{"type":"Feature","geometry":{"type":"Polygon","coordinates":[[[-71.0537,42.4758],[-71.0355,42.5062],[-71.0409,42.5258],[-71.0751,42.5309],[-71.0706,42.5554],[-71.0568,42.5745],[-71.0337,42.5853],[-71.0566,42.6035],[-71.1351,42.5993],[-71.2564,42.6563],[-71.2376,42.6695],[-71.2561,42.7377],[-71.2968,42.6978],[-71.6293,42.7042],[-71.8994,42.7121],[-71.8574,42.6752],[-71.8448,42.6379],[-71.775,42.6363],[-71.775,42.644],[-71.6646,42.6115],[-71.6787,42.5301],[-71.6358,42.5238],[-71.6209,42.5524],[-71.5947,42.5434],[-71.5804,42.5502],[-71.5393,42.5429],[-71.5294,42.5193],[-71.5604,42.4748],[-71.5436,42.4666],[-71.5591,42.4121],[-71.6045,42.3975],[-71.5802,42.3871],[-71.6081,42.3707],[-71.6261,42.3493],[-71.6044,42.3371],[-71.5851,42.3112],[-71.5498,42.3271],[-71.4865,42.3303],[-71.4859,42.3103],[-71.5051,42.2731],[-71.5404,42.2626],[-71.5609,42.2676],[-71.5869,42.2594],[-71.603,42.2171],[-71.5831,42.1949],[-71.5076,42.1886],[-71.497,42.1663],[-71.4778,42.1654],[-71.4778,42.1568],[-71.4642,42.1581],[-71.4302,42.1795],[-71.3441,42.2012],[-71.3521,42.2107],[-71.3297,42.2325],[-71.3322,42.2484],[-71.3024,42.2479],[-71.3283,42.3134],[-71.27,42.3283],[-71.2303,42.3205],[-71.1914,42.2827],[-71.1789,42.2945],[-71.1646,42.3035],[-71.1794,42.314],[-71.157,42.3298],[-71.1595,42.3326],[-71.1676,42.3331],[-71.1663,42.3399],[-71.1749,42.3508],[-71.1307,42.3739],[-71.1169,42.3686],[-71.1161,42.3556],[-71.0972,42.355],[-71.0794,42.3614],[-71.073,42.3732],[-71.0738,42.3904],[-71.0679,42.395],[-71.0667,42.3946],[-71.053,42.3963],[-71.0412,42.4008],[-71.0198,42.438],[-71.0537,42.4758]]]},"properties":{"GID_0":"USA","GID_1":"USA.22_1","GID_2":"USA.22.9_1","NAME_1":"Massachusetts","NAME_2":"Middlesex"}},
{"type":"Feature","geometry":{"type":"Polygon","coordinates":[[[-70.0475,41.3897],[-70.0236,41.3681],[-70.0006,41.3353],[-70.02,41.3044],[-70.0633,41.2961],[-70.0797,41.2819],[-70.1039,41.2986],[-70.1269,41.2933],[-70.1972,41.2967],[-70.1972,41.2683],[-70.1681,41.255],[-70.1017,41.2406],[-70.0767,41.2453],[-70.0078,41.2383],[-69.9719,41.2469],[-69.9597,41.269],[-69.9722,41.2992],[-70.0206,41.3667],[-70.0475,41.3897]]]},"properties":{"GID_0":"USA","GID_1":"USA.22_1","GID_2":"USA.22.10_1","NAME_1":"Massachusetts","NAME_2":"Nantucket"}},
{"type":"Feature","geometry":{"type":"MultiPolygon","coordinates":[[[[-71.3643,41.985],[-71.1509,42.0682],[-70.9252,42.1573],[-70.9147,42.2245],[-70.9213,42.2509],[-70.9461,42.2506],[-70.9483,42.2744],[-70.9733,42.2633],[-71.0144,42.2783],[-71.008,42.3014],[-71.0525,42.2773],[-71.0898,42.2697],[-71.1091,42.2479],[-71.1426,42.2358],[-71.1914,42.2827],[-71.2303,42.3205],[-71.27,42.3283],[-71.3283,42.3134],[-71.3024,42.2479],[-71.3322,42.2484],[-71.3297,42.2325],[-71.3521,42.2107],[-71.3441,42.2012],[-71.4302,42.1795],[-71.4642,42.1581],[-71.4778,42.1568],[-71.4779,42.1318],[-71.5007,42.1177],[-71.4983,42.0169],[-71.3797,42.0191],[-71.3806,41.985],[-71.3643,41.985]]],[[[-71.1365,42.3452],[-71.1477,42.3369],[-71.1794,42.314],[-71.1522,42.2944],[-71.1167,42.3234],[-71.1061,42.3438],[-71.1365,42.3452]]],[[[-70.7707,42.251],[-70.8171,42.2643],[-70.8388,42.2636],[-70.8539,42.2392],[-70.827,42.2005],[-70.7846,42.2257],[-70.7707,42.251]]]]},"properties":{"GID_0":"USA","GID_1":"USA.22_1","GID_2":"USA.22.11_1","NAME_1":"Massachusetts","NAME_2":"Norfolk"}},
{"type":"Feature","geometry":{"type":"Polygon","coordinates":[[[-70.5407,41.8081],[-70.5448,41.8186],[-70.5435,41.8285],[-70.5256,41.8578],[-70.5319,41.8897],[-70.5544,41.9294],[-70.5844,41.9515],[-70.6086,41.9418],[-70.6468,41.9503],[-70.7108,42.0019],[-70.6964,42.0144],[-70.667,42.0123],[-70.6692,42.0383],[-70.6422,42.0447],[-70.6489,42.0719],[-70.6372,42.0836],[-70.6778,42.1233],[-70.7039,42.1586],[-70.7206,42.2072],[-70.7486,42.2217],[-70.7707,42.251],[-70.7846,42.2257],[-70.827,42.2005],[-70.8539,42.2392],[-70.8388,42.2636],[-70.8547,42.2678],[-70.8854,42.2459],[-70.8998,42.2618],[-70.9213,42.2509],[-70.9147,42.2245],[-70.9252,42.1573],[-71.0802,42.0957],[-71.0508,41.9648],[-70.9961,41.9264],[-70.9738,41.861],[-71.0363,41.8163],[-71.0149,41.7994],[-71.0267,41.779],[-70.922,41.7908],[-70.905,41.7576],[-70.8866,41.7602],[-70.8452,41.6447],[-70.8441,41.6293],[-70.8234,41.6323],[-70.7956,41.6506],[-70.7566,41.6532],[-70.7518,41.7052],[-70.7266,41.7055],[-70.7216,41.7359],[-70.6888,41.7239],[-70.6239,41.7469],[-70.6296,41.7596],[-70.6033,41.7749],[-70.5656,41.7865],[-70.5407,41.8081]]]},"properties":{"GID_0":"USA","GID_1":"USA.22_1","GID_2":"USA.22.12_1","NAME_1":"Massachusetts","NAME_2":"Plymouth"}},
{"type":"Feature","geometry":{"type":"MultiPolygon","coordinates":[[[[-71.0705,42.3678],[-71.0886,42.3519],[-71.1139,42.3522],[-71.1186,42.3558],[-71.1191,42.368],[-71.1307,42.3739],[-71.1749,42.3508],[-71.1663,42.3399],[-71.1676,42.3331],[-71.1595,42.3326],[-71.157,42.3298],[-71.1365,42.3452],[-71.1061,42.3438],[-71.1167,42.3234],[-71.1522,42.2944],[-71.1646,42.3035],[-71.1789,42.2945],[-71.1914,42.2827],[-71.1426,42.2358],[-71.1091,42.2479],[-71.0898,42.2697],[-71.0525,42.2773],[-71.0436,42.3231],[-71.0183,42.3389],[-71.0705,42.3678]]],[[[-71.053,42.3963],[-71.0406,42.3642],[-71.0085,42.347],[-70.9903,42.3531],[-70.96,42.3486],[-70.9897,42.4133],[-71.0043,42.4298],[-71.0253,42.4448],[-71.0198,42.438],[-71.0412,42.4008],[-71.053,42.3963]]]]},"properties":{"GID_0":"USA","GID_1":"USA.22_1","GID_2":"USA.22.13_1","NAME_1":"Massachusetts","NAME_2":"Suffolk"}},
{"type":"Feature","geometry":{"type":"Polygon","coordinates":[[[-72.1358,42.0307],[-72.003,42.0291],[-71.9436,42.0264],[-71.7991,42.0238],[-71.7979,42.0089],[-71.4983,42.0169],[-71.5007,42.1177],[-71.4779,42.1318],[-71.4778,42.1654],[-71.497,42.1663],[-71.5076,42.1886],[-71.5831,42.1949],[-71.603,42.2171],[-71.5869,42.2594],[-71.5609,42.2676],[-71.5404,42.2626],[-71.5051,42.2731],[-71.4859,42.3103],[-71.4865,42.3303],[-71.5498,42.3271],[-71.5851,42.3112],[-71.6044,42.3371],[-71.6261,42.3493],[-71.6081,42.3707],[-71.5802,42.3871],[-71.6045,42.3975],[-71.5591,42.4121],[-71.5436,42.4666],[-71.5604,42.4748],[-71.5294,42.5193],[-71.5393,42.5429],[-71.5804,42.5502],[-71.5947,42.5434],[-71.6209,42.5524],[-71.6358,42.5238],[-71.6787,42.5301],[-71.6646,42.6115],[-71.775,42.644],[-71.775,42.6363],[-71.8448,42.6379],[-71.8574,42.6752],[-71.8994,42.7121],[-72.2832,42.7229],[-72.2721,42.6743],[-72.2295,42.6627],[-72.2278,42.615],[-72.2545,42.6116],[-72.2772,42.5774],[-72.2686,42.533],[-72.2448,42.5135],[-72.2917,42.4796],[-72.2831,42.4411],[-72.3131,42.4018],[-72.3143,42.3432],[-72.284,42.352],[-72.2747,42.3021],[-72.2116,42.3111],[-72.2033,42.2911],[-72.218,42.2697],[-72.2171,42.2488],[-72.2607,42.2054],[-72.2641,42.1836],[-72.2008,42.1612],[-72.1988,42.1535],[-72.1345,42.162],[-72.1358,42.0307]]]},"properties":{"GID_0":"USA","GID_1":"USA.22_1","GID_2":"USA.22.14_1","NAME_1":"Massachusetts","NAME_2":"Worcester"}}
]}