{"type":"FeatureCollection", "features": [
{"type":"Feature","geometry":{"type":"Polygon","coordinates":[[[-82.5941,34.0146],[-82.5298,34.0719],[-82.484,34.0811],[-82.4459,34.0602],[-82.3267,34.0639],[-82.267,34.1082],[-82.2407,34.163],[-82.25,34.2239],[-82.3076,34.2778],[-82.3111,34.3209],[-82.3343,34.3429],[-82.2446,34.4111],[-82.3144,34.484],[-82.7404,34.2095],[-82.7173,34.1521],[-82.6764,34.1284],[-82.6435,34.0712],[-82.5941,34.0146]]]},"properties":{"GID_0":"USA","GID_1":"USA.41_1","GID_2":"USA.41.1_1","NAME_1":"SouthCarolina","NAME_2":"Abbeville"}},
{"type":"Feature","geometry":{"type":"Polygon","coordinates":[[[-81.7575,33.1982],[-81.373,33.4907],[-81.1873,33.6526],[-81.31,33.7101],[-81.4111,33.733],[-81.4601,33.7988],[-81.5044,33.809],[-81.5468,33.8593],[-81.5751,33.8751],[-81.652,33.8142],[-82.0125,33.532],[-81.9862,33.4875],[-81.9314,33.4671],[-81.914,33.4436],[-81.9443,33.4024],[-81.9338,33.3438],[-81.836,33.2735],[-81.8494,33.2461],[-81.8072,33.2151],[-81.7575,33.1982]]]},"properties":{"GID_0":"USA","GID_1":"USA.41_1","GID_2":"USA.41.2_1","NAME_1":"SouthCarolina","NAME_2":"Aiken"}},
{"type":"Feature","geometry":{"type":"Polygon","coordinates":[[[-81.6142,33.0953],[-81.5642,33.0469],[-81.5439,33.0482],[-81.4905,33.0084],[-81.5016,32.9369],[-81.4578,32.851],[-81.4213,32.8344],[-81.4287,32.7833],[-81.4055,32.7456],[-81.3391,32.7686],[-81.3272,32.7909],[-81.2613,32.8389],[-81.2773,32.8917],[-81.2369,32.9063],[-81.2349,32.9455],[-81.0781,33.029],[-81.1685,33.0945],[-81.1943,33.1231],[-81.2836,33.1083],[-81.3652,33.1081],[-81.5419,33.1579],[-81.6142,33.0953]]]},"properties":{"GID_0":"USA","GID_1":"USA.41_1","GID_2":"USA.41.3_1","NAME_1":"SouthCarolina","NAME_2":"Allendale"}},
{"type":"Feature","geometry":{"type":"Polygon","coordinates":[[[-82.7404,34.2095],[-82.3144,34.484],[-82.3292,34.5024],[-82.419,34.5609],[-82.4542,34.6281],[-82.4645,34.6703],[-82.4531,34.7749],[-82.4842,34.8213],[-82.7882,34.673],[-82.9901,34.4811],[-82.984,34.4836],[-82.964,34.4846],[-82.9224,34.4819],[-82.8819,34.4785],[-82.8612,34.4538],[-82.8329,34.3661],[-82.8001,34.3431],[-82.7519,34.2726],[-82.7404,34.2095]]]},"properties":{"GID_0":"USA","GID_1":"USA.41_1","GID_2":"USA.41.4_1","NAME_1":"SouthCarolina","NAME_2":"Anderson"}},
{"type":"Feature","geometry":{"type":"Polygon","coordinates":[[[-81.0781,33.029],[-80.9368,33.1018],[-80.8991,33.0581],[-80.8799,33.0918],[-80.8913,33.1273],[-80.7981,33.1772],[-80.8331,33.2023],[-80.8451,33.2378],[-80.9433,33.3062],[-81.03,33.3458],[-81.0812,33.3785],[-81.1114,33.3812],[-81.2066,33.4379],[-81.2198,33.4393],[-81.2148,33.3902],[-81.224,33.1581],[-81.1943,33.1231],[-81.1685,33.0945],[-81.0781,33.029]]]},"properties":{"GID_0":"USA","GID_1":"USA.41_1","GID_2":"USA.41.5_1","NAME_1":"SouthCarolina","NAME_2":"Bamberg"}},
{"type":"Feature","geometry":{"type":"Polygon","coordinates":[[[-81.6142,33.0953],[-81.5419,33.1579],[-81.3652,33.1081],[-81.2836,33.1083],[-81.1943,33.1231],[-81.224,33.1581],[-81.2148,33.3902],[-81.2198,33.4393],[-81.2463,33.4442],[-81.3047,33.48],[-81.373,33.4907],[-81.7575,33.1982],[-81.7545,33.1517],[-81.7076,33.1188],[-81.6466,33.0937],[-81.6142,33.0953]]]},"properties":{"GID_0":"USA","GID_1":"USA.41_1","GID_2":"USA.41.6_1","NAME_1":"SouthCarolina","NAME_2":"Barnwell"}},
{"type":"Feature","geometry":{"type":"MultiPolygon","coordinates":[[[[-80.8381,32.1469],[-80.8881,32.1303],[-80.8735,32.0824],[-80.8408,32.1194],[-80.8381,32.1469]]],[[[-80.9241,32.1308],[-80.9154,32.1349],[-80.9089,32.1307],[-80.8438,32.1894],[-80.8133,32.2042],[-80.7597,32.2767],[-80.7819,32.3161],[-80.8442,32.3834],[-80.875,32.3582],[-80.8908,32.3477],[-80.9239,32.3523],[-80.9345,32.3002],[-80.9833,32.3064],[-81.0139,32.2279],[-81.0069,32.2133],[-80.9484,32.1677],[-80.9241,32.1308]]],[[[-80.7258,32.2703],[-80.7804,32.2101],[-80.8121,32.1101],[-80.7391,32.1466],[-80.6675,32.2144],[-80.7258,32.2703]]],[[[-80.8299,32.4122],[-80.8206,32.4246],[-80.8341,32.4565],[-80.8505,32.4192],[-80.8299,32.4122]]],[[[-80.7453,32.5394],[-80.7794,32.5281],[-80.7833,32.4972],[-80.8103,32.4725],[-80.765,32.3725],[-80.7014,32.3128],[-80.6628,32.3344],[-80.6856,32.3672],[-80.6757,32.4074],[-80.6848,32.4275],[-80.6631,32.4329],[-80.6903,32.46],[-80.6903,32.5033],[-80.7094,32.525],[-80.7453,32.5394]]],[[[-80.4769,32.3433],[-80.505,32.3425],[-80.5528,32.3125],[-80.5468,32.284],[-80.4536,32.3225],[-80.4769,32.3433]]],[[[-80.434,32.4118],[-80.4872,32.3619],[-80.4507,32.3418],[-80.434,32.4118]]],[[[-80.6203,32.5022],[-80.6775,32.5019],[-80.686,32.458],[-80.6517,32.4406],[-80.6708,32.4133],[-80.6722,32.3669],[-80.6549,32.355],[-80.6319,32.2566],[-80.6037,32.2705],[-80.5422,32.3328],[-80.55,32.3589],[-80.4557,32.4058],[-80.4789,32.4453],[-80.5576,32.4568],[-80.6035,32.4443],[-80.6203,32.5022]]],[[[-80.8472,32.5303],[-80.8116,32.494],[-80.7883,32.4967],[-80.7836,32.5289],[-80.7642,32.5403],[-80.7486,32.5428],[-80.7361,32.5367],[-80.6731,32.5244],[-80.6519,32.5108],[-80.6303,32.5181],[-80.5849,32.5007],[-80.5226,32.5151],[-80.5863,32.5862],[-80.6211,32.5808],[-80.6759,32.6247],[-80.685,32.673],[-80.7454,32.6741],[-80.8102,32.6943],[-80.8265,32.7039],[-80.8374,32.6998],[-80.8697,32.6611],[-80.8317,32.5932],[-80.8472,32.5303]]]]},"properties":{"GID_0":"USA","GID_1":"USA.41_1","GID_2":"USA.41.7_1","NAME_1":"SouthCarolina","NAME_2":"Beaufort"}},
{"type":"Feature","geometry":{"type":"Polygon","coordinates":[[[-79.924,32.7891],[-79.9054,32.7889],[-79.8846,32.8383],[-79.8178,32.9196],[-79.7705,32.9428],[-79.7539,32.9918],[-79.6614,33.0895],[-79.6427,33.1248],[-79.5583,33.1579],[-79.5217,33.1483],[-79.4834,33.2033],[-79.447,33.2138],[-79.5352,33.2491],[-79.5726,33.2764],[-79.6672,33.2985],[-79.7096,33.3212],[-79.7415,33.322],[-79.7857,33.3758],[-79.8022,33.3718],[-79.8605,33.4084],[-79.8689,33.4348],[-79.9644,33.4985],[-80.0061,33.5084],[-80.0816,33.4991],[-80.0942,33.5037],[-80.0971,33.496],[-80.1262,33.5026],[-80.1386,33.4708],[-80.1326,33.4644],[-80.2033,33.4422],[-80.2225,33.4437],[-80.2225,33.3923],[-80.253,33.306],[-80.3149,33.2641],[-80.328,33.271],[-80.3449,33.2779],[-80.3621,33.2575],[-80.3422,33.206],[-80.2986,33.183],[-80.3213,33.1522],[-80.1577,33.0278],[-80.0968,32.9886],[-80.04,32.9822],[-80.0415,32.9558],[-80.0126,32.9001],[-79.9617,32.906],[-79.9634,32.865],[-79.9364,32.8415],[-79.924,32.7891]]]},"properties":{"GID_0":"USA","GID_1":"USA.41_1","GID_2":"USA.41.8_1","NAME_1":"SouthCarolina","NAME_2":"Berkeley"}},
{"type":"Feature","geometry":{"type":"Polygon","coordinates":[[[-80.5344,33.6441],[-80.5651,33.6652],[-80.6293,33.7391],[-80.6205,33.7431],[-80.6409,33.7477],[-80.6563,33.7614],[-80.786,33.7704],[-80.9114,33.8297],[-80.9882,33.8497],[-80.9998,33.8783],[-81.0125,33.8802],[-81.038,33.8706],[-81.0479,33.7888],[-80.9606,33.7788],[-80.9253,33.7556],[-81.0429,33.7069],[-80.9656,33.6251],[-80.9199,33.6055],[-80.8807,33.6195],[-80.808,33.604],[-80.6942,33.5219],[-80.6592,33.4708],[-80.625,33.4885],[-80.5884,33.5384],[-80.5525,33.5651],[-80.5041,33.5453],[-80.5057,33.5531],[-80.4963,33.558],[-80.5133,33.5731],[-80.5344,33.6441]]]},"properties":{"GID_0":"USA","GID_1":"USA.41_1","GID_2":"USA.41.9_1","NAME_1":"SouthCarolina","NAME_2":"Calhoun"}},
{"type":"Feature","geometry":{"type":"MultiPolygon","coordinates":[[[[-80.3336,32.6331],[-80.3853,32.615],[-80.3852,32.5738],[-80.4112,32.5475],[-80.3825,32.5372],[-80.3269,32.4816],[-80.1969,32.5678],[-80.2389,32.6019],[-80.2983,32.6022],[-80.3336,32.6331]]],[[[-80.0975,32.7161],[-80.1275,32.704],[-80.1392,32.7108],[-80.155,32.7061],[-80.1583,32.7019],[-80.1622,32.7073],[-80.1658,32.7033],[-80.1833,32.7075],[-80.2153,32.69],[-80.2513,32.6145],[-80.2155,32.5871],[-80.1787,32.5959],[-80.1673,32.6303],[-80.135,32.6669],[-80.0864,32.6889],[-80.0767,32.6978],[-80.0761,32.7006],[-80.0858,32.7131],[-80.0975,32.7161]]],[[[-80.0992,32.7845],[-80.1411,32.7462],[-80.158,32.7494],[-80.1708,32.7346],[-80.1628,32.7217],[-80.1706,32.7111],[-80.1647,32.7075],[-80.1616,32.7084],[-80.1586,32.7047],[-80.155,32.7075],[-80.1392,32.7131],[-80.1272,32.7053],[-80.1014,32.7186],[-80.0819,32.7125],[-80.0783,32.7044],[-80.0747,32.7011],[-80.075,32.6981],[-80.08,32.6917],[-80.0956,32.6828],[-80.1317,32.6664],[-80.1656,32.63],[-80.1611,32.6039],[-80.2047,32.5839],[-80.1776,32.5593],[-80.1113,32.5941],[-80.0163,32.6113],[-80.0231,32.6372],[-79.9903,32.6939],[-80.0116,32.7306],[-80.0119,32.7567],[-80.0992,32.7845]]],[[[-79.924,32.7891],[-79.9364,32.8415],[-79.9634,32.865],[-79.9617,32.906],[-80.0126,32.9001],[-80.0415,32.9558],[-80.04,32.9822],[-80.0968,32.9886],[-80.1577,33.0278],[-80.177,33.0093],[-80.079,32.9275],[-80.0986,32.8891],[-80.1261,32.8891],[-80.1874,32.8578],[-80.1588,32.8179],[-80.3026,32.8521],[-80.4014,32.8581],[-80.4116,32.8072],[-80.4335,32.7923],[-80.4519,32.7377],[-80.427,32.7194],[-80.4194,32.6296],[-80.4239,32.6219],[-80.3838,32.6169],[-80.3378,32.6397],[-80.2784,32.6292],[-80.254,32.678],[-80.18,32.7175],[-80.1711,32.7387],[-80.1583,32.7508],[-80.1037,32.7882],[-80.0091,32.7722],[-80.0047,32.7247],[-79.9853,32.6939],[-80.0125,32.6388],[-79.9906,32.6347],[-79.9064,32.6683],[-79.87,32.7314],[-79.8786,32.7503],[-79.9339,32.755],[-79.924,32.7891]]],[[[-79.9054,32.7889],[-79.8494,32.7703],[-79.7416,32.8708],[-79.6978,32.8508],[-79.6301,32.8898],[-79.5771,32.9089],[-79.6183,32.9442],[-79.579,33.0069],[-79.5153,33.0344],[-79.4778,33.0058],[-79.3756,33.0467],[-79.3458,33.0812],[-79.28,33.1231],[-79.2804,33.1281],[-79.2977,33.1388],[-79.336,33.1458],[-79.447,33.2138],[-79.4834,33.2033],[-79.5217,33.1483],[-79.5583,33.1579],[-79.6427,33.1248],[-79.6614,33.0895],[-79.7539,32.9918],[-79.7705,32.9428],[-79.8178,32.9196],[-79.8846,32.8383],[-79.9054,32.7889]]]]},"properties":{"GID_0":"USA","GID_1":"USA.41_1","GID_2":"USA.41.10_1","NAME_1":"SouthCarolina","NAME_2":"Charleston"}},
{"type":"Feature","geometry":{"type":"Polygon","coordinates":[[[-81.3665,35.1654],[-81.8746,35.1841],[-81.7932,35.0346],[-81.7495,34.93],[-81.7117,34.913],[-81.6837,34.9109],[-81.6122,34.8745],[-81.5848,34.8865],[-81.5148,34.88],[-81.4574,34.8398],[-81.4529,34.8471],[-81.479,34.8983],[-81.4762,34.9841],[-81.4877,35.0322],[-81.4097,35.0466],[-81.4012,35.1365],[-81.3665,35.1654]]]},"properties":{"GID_0":"USA","GID_1":"USA.41_1","GID_2":"USA.41.11_1","NAME_1":"SouthCarolina","NAME_2":"Cherokee"}},
{"type":"Feature","geometry":{"type":"Polygon","coordinates":[[[-80.8776,34.5436],[-80.8787,34.5463],[-80.897,34.6358],[-80.8606,34.6957],[-80.8778,34.7434],[-80.8761,34.7857],[-80.8951,34.8125],[-80.8979,34.8207],[-81.4785,34.8215],[-81.488,34.8165],[-81.456,34.7921],[-81.4542,34.6749],[-81.4165,34.6356],[-81.4274,34.5788],[-81.4229,34.5724],[-81.0606,34.5532],[-80.9831,34.5468],[-80.8776,34.5436]]]},"properties":{"GID_0":"USA","GID_1":"USA.41_1","GID_2":"USA.41.12_1","NAME_1":"SouthCarolina","NAME_2":"Chester"}},
{"type":"Feature","geometry":{"type":"Polygon","coordinates":[[[-79.9248,34.8084],[-80.5614,34.8157],[-80.4488,34.6682],[-80.4168,34.6162],[-80.3791,34.5865],[-80.3534,34.5205],[-80.3289,34.5081],[-80.3318,34.4409],[-80.2867,34.3711],[-80.0425,34.4916],[-79.9772,34.4992],[-79.9623,34.4868],[-79.8931,34.4916],[-79.8746,34.5001],[-79.8289,34.5346],[-79.8054,34.608],[-79.8175,34.659],[-79.8536,34.672],[-79.8945,34.7437],[-79.9277,34.7681],[-79.9248,34.8084]]]},"properties":{"GID_0":"USA","GID_1":"USA.41_1","GID_2":"USA.41.13_1","NAME_1":"SouthCarolina","NAME_2":"Chesterfield"}},
{"type":"Feature","geometry":{"type":"Polygon","coordinates":[[[-80.1042,33.4979],[-79.9909,33.7052],[-79.9746,33.7219],[-79.9961,33.768],[-79.9447,33.8103],[-79.9153,33.8187],[-79.8757,33.8852],[-79.9443,33.8849],[-79.9745,33.947],[-80.122,33.8696],[-80.1387,33.8674],[-80.256,33.8041],[-80.2711,33.7865],[-80.3972,33.7677],[-80.3921,33.7153],[-80.4787,33.7144],[-80.4983,33.674],[-80.5344,33.6441],[-80.5133,33.5731],[-80.4963,33.558],[-80.4507,33.5446],[-80.4603,33.5028],[-80.4379,33.4786],[-80.3925,33.4447],[-80.3558,33.4304],[-80.3001,33.441],[-80.2358,33.4392],[-80.2214,33.4441],[-80.2033,33.4422],[-80.1326,33.4644],[-80.1386,33.4708],[-80.1262,33.5026],[-80.1042,33.4979]]]},"properties":{"GID_0":"USA","GID_1":"USA.41_1","GID_2":"USA.41.14_1","NAME_1":"SouthCarolina","NAME_2":"Clarendon"}},
{"type":"Feature","geometry":{"type":"MultiPolygon","coordinates":[[[[-80.4075,32.5364],[-80.4127,32.4704],[-80.3602,32.5],[-80.4075,32.5364]]],[[[-80.7981,33.1772],[-80.8913,33.1273],[-80.8799,33.0918],[-80.8991,33.0581],[-80.9368,33.1018],[-81.0781,33.029],[-81.0584,33.0177],[-80.9862,32.9034],[-80.9098,32.8424],[-80.8265,32.7039],[-80.8102,32.6943],[-80.7454,32.6741],[-80.685,32.673],[-80.6759,32.6247],[-80.6211,32.5808],[-80.5863,32.5862],[-80.5226,32.5151],[-80.4651,32.5196],[-80.399,32.5627],[-80.3964,32.6029],[-80.3838,32.6169],[-80.4239,32.6219],[-80.4194,32.6296],[-80.427,32.7194],[-80.4519,32.7377],[-80.4335,32.7923],[-80.4116,32.8072],[-80.4014,32.8581],[-80.3987,32.9278],[-80.418,32.9752],[-80.401,33.0543],[-80.5328,33.07],[-80.5849,33.0574],[-80.6237,33.068],[-80.6739,33.1101],[-80.7219,33.1648],[-80.7981,33.1772]]]]},"properties":{"GID_0":"USA","GID_1":"USA.41_1","GID_2":"USA.41.15_1","NAME_1":"SouthCarolina","NAME_2":"Colleton"}},
{"type":"Feature","geometry":{"type":"Polygon","coordinates":[[[-80.2867,34.3711],[-80.2399,34.3195],[-80.1788,34.3604],[-80.1732,34.3181],[-80.1462,34.2897],[-80.1103,34.2227],[-80.1111,34.1981],[-80.1554,34.1589],[-80.073,34.086],[-79.8025,34.2549],[-79.756,34.2458],[-79.7297,34.2905],[-79.6841,34.2863],[-79.6615,34.3111],[-79.7122,34.4016],[-79.7485,34.4361],[-79.7502,34.4679],[-79.722,34.4853],[-79.7622,34.5194],[-79.8095,34.4863],[-79.8289,34.5346],[-79.8746,34.5001],[-79.8931,34.4916],[-79.9623,34.4868],[-79.9772,34.4992],[-80.0425,34.4916],[-80.2867,34.3711]]]},"properties":{"GID_0":"USA","GID_1":"USA.41_1","GID_2":"USA.41.16_1","NAME_1":"SouthCarolina","NAME_2":"Darlington"}},
{"type":"Feature","geometry":{"type":"Polygon","coordinates":[[[-79.0681,34.3023],[-79.4505,34.6211],[-79.631,34.3012],[-79.626,34.302],[-79.5623,34.259],[-79.557,34.2453],[-79.5241,34.2517],[-79.5089,34.2592],[-79.4811,34.2884],[-79.4119,34.3007],[-79.3653,34.2964],[-79.3102,34.2701],[-79.2149,34.256],[-79.1752,34.2886],[-79.1282,34.2533],[-79.0681,34.3023]]]},"properties":{"GID_0":"USA","GID_1":"USA.41_1","GID_2":"USA.41.17_1","NAME_1":"SouthCarolina","NAME_2":"Dillon"}},
{"type":"Feature","geometry":{"type":"Polygon","coordinates":[[[-80.3621,33.2575],[-80.4296,33.2579],[-80.4855,33.2809],[-80.5027,33.3342],[-80.7981,33.1772],[-80.7219,33.1648],[-80.6739,33.1101],[-80.6237,33.068],[-80.5849,33.0574],[-80.5328,33.07],[-80.401,33.0543],[-80.418,32.9752],[-80.3987,32.9278],[-80.4014,32.8581],[-80.3026,32.8521],[-80.1588,32.8179],[-80.1874,32.8578],[-80.1261,32.8891],[-80.0986,32.8891],[-80.079,32.9275],[-80.177,33.0093],[-80.1577,33.0278],[-80.3213,33.1522],[-80.2986,33.183],[-80.3422,33.206],[-80.3621,33.2575]]]},"properties":{"GID_0":"USA","GID_1":"USA.41_1","GID_2":"USA.41.18_1","NAME_1":"SouthCarolina","NAME_2":"Dorchester"}},
{"type":"Feature","geometry":{"type":"Polygon","coordinates":[[[-82.1143,33.5992],[-82.0511,33.5662],[-82.0125,33.532],[-81.652,33.8142],[-81.8338,33.8648],[-81.8701,33.8919],[-81.8948,33.9753],[-81.9988,33.9645],[-82.1556,33.9289],[-82.1543,33.8816],[-82.1138,33.8302],[-82.172,33.7687],[-82.1835,33.7267],[-82.0955,33.6335],[-82.1143,33.5992]]]},"properties":{"GID_0":"USA","GID_1":"USA.41_1","GID_2":"USA.41.19_1","NAME_1":"SouthCarolina","NAME_2":"Edgefield"}},
{"type":"Feature","geometry":{"type":"Polygon","coordinates":[[[-81.4229,34.5724],[-81.42,34.567],[-81.4235,34.4943],[-81.4217,34.4538],[-81.3664,34.3236],[-81.3396,34.2924],[-81.3171,34.2393],[-81.3005,34.2384],[-81.2782,34.2298],[-81.2537,34.204],[-81.1809,34.22],[-81.0959,34.2137],[-81.0698,34.2283],[-80.9626,34.2519],[-80.8264,34.2686],[-80.7699,34.3771],[-80.7937,34.4135],[-80.8333,34.415],[-80.8678,34.445],[-80.8883,34.4682],[-80.8754,34.5336],[-80.8776,34.5436],[-80.9831,34.5468],[-81.0606,34.5532],[-81.4229,34.5724]]]},"properties":{"GID_0":"USA","GID_1":"USA.41_1","GID_2":"USA.41.20_1","NAME_1":"SouthCarolina","NAME_2":"Fairfield"}},
{"type":"Feature","geometry":{"type":"Polygon","coordinates":[[[-79.8757,33.8852],[-79.8353,33.8825],[-79.7995,33.8362],[-79.7437,33.8352],[-79.7247,33.814],[-79.6347,33.8084],[-79.4971,33.7758],[-79.4495,33.7847],[-79.3842,33.813],[-79.3248,33.7989],[-79.3175,33.8288],[-79.3659,33.8445],[-79.4152,33.8939],[-79.4835,33.9407],[-79.5157,33.993],[-79.513,34.0447],[-79.533,34.075],[-79.5146,34.1066],[-79.5725,34.1855],[-79.544,34.2251],[-79.5559,34.2421],[-79.5623,34.259],[-79.626,34.302],[-79.6399,34.3017],[-79.6615,34.3111],[-79.6841,34.2863],[-79.7297,34.2905],[-79.756,34.2458],[-79.8025,34.2549],[-80.073,34.086],[-80.0304,34.0752],[-80.0008,34.0477],[-79.8941,33.9894],[-79.9745,33.947],[-79.9443,33.8849],[-79.8757,33.8852]]]},"properties":{"GID_0":"USA","GID_1":"USA.41_1","GID_2":"USA.41.21_1","NAME_1":"SouthCarolina","NAME_2":"Florence"}},
{"type":"Feature","geometry":{"type":"Polygon","coordinates":[[[-79.6672,33.2985],[-79.5726,33.2764],[-79.5352,33.2491],[-79.447,33.2138],[-79.336,33.1458],[-79.2977,33.1388],[-79.2804,33.1281],[-79.28,33.1231],[-79.2467,33.125],[-79.1819,33.1892],[-79.2106,33.2439],[-79.2581,33.2589],[-79.2931,33.2978],[-79.1958,33.2958],[-79.1789,33.2647],[-79.1455,33.3841],[-79.1139,33.4089],[-79,33.5456],[-78.9119,33.6111],[-78.9372,33.6397],[-78.919,33.6586],[-79.0034,33.5718],[-79.1004,33.5717],[-79.1217,33.6048],[-79.1239,33.6494],[-79.155,33.664],[-79.18,33.7039],[-79.1948,33.7069],[-79.2423,33.7058],[-79.2678,33.7035],[-79.3175,33.7802],[-79.4099,33.6892],[-79.4427,33.5955],[-79.4337,33.5762],[-79.4971,33.517],[-79.5455,33.4913],[-79.5916,33.4422],[-79.634,33.3722],[-79.6769,33.3377],[-79.6811,33.3182],[-79.6769,33.3045],[-79.6672,33.2985]]]},"properties":{"GID_0":"USA","GID_1":"USA.41_1","GID_2":"USA.41.22_1","NAME_1":"SouthCarolina","NAME_2":"Georgetown"}},
{"type":"Feature","geometry":{"type":"Polygon","coordinates":[[[-82.2163,35.1959],[-82.3591,35.1907],[-82.3905,35.2161],[-82.455,35.1796],[-82.6332,35.1258],[-82.6923,35.1186],[-82.7637,35.0672],[-82.7567,35.0546],[-82.6422,35.0621],[-82.6065,35.0726],[-82.5514,35.0175],[-82.5159,34.9212],[-82.4947,34.8983],[-82.4842,34.8213],[-82.4531,34.7749],[-82.4645,34.6703],[-82.4542,34.6281],[-82.419,34.5609],[-82.3292,34.5024],[-82.3144,34.484],[-82.236,34.5357],[-82.2374,34.587],[-82.1432,34.7842],[-82.1932,34.835],[-82.2265,34.8511],[-82.2163,35.1959]]]},"properties":{"GID_0":"USA","GID_1":"USA.41_1","GID_2":"USA.41.23_1","NAME_1":"SouthCarolina","NAME_2":"Greenville"}},
{"type":"Feature","geometry":{"type":"Polygon","coordinates":[[[-82.3267,34.0639],[-82.3063,33.9714],[-82.245,34.0189],[-82.2135,33.9856],[-82.076,33.9797],[-82.045,33.9832],[-82.0474,33.9531],[-82.0159,33.9598],[-81.9914,33.9936],[-81.9504,34.0394],[-81.9139,34.092],[-81.87,34.1292],[-81.87,34.1351],[-81.9357,34.1945],[-81.988,34.2427],[-82.0894,34.3027],[-82.1682,34.3301],[-82.1765,34.36],[-82.2446,34.4111],[-82.3343,34.3429],[-82.3111,34.3209],[-82.3076,34.2778],[-82.25,34.2239],[-82.2407,34.163],[-82.267,34.1082],[-82.3267,34.0639]]]},"properties":{"GID_0":"USA","GID_1":"USA.41_1","GID_2":"USA.41.24_1","NAME_1":"SouthCarolina","NAME_2":"Greenwood"}},
{"type":"Feature","geometry":{"type":"Polygon","coordinates":[[[-81.2789,32.5579],[-81.0897,32.6948],[-81.0151,32.7532],[-80.9464,32.6885],[-80.9617,32.6461],[-80.9029,32.6215],[-80.8374,32.6998],[-80.8265,32.7039],[-80.9098,32.8424],[-80.9862,32.9034],[-81.0584,33.0177],[-81.0781,33.029],[-81.2349,32.9455],[-81.2369,32.9063],[-81.2773,32.8917],[-81.2613,32.8389],[-81.3272,32.7909],[-81.3391,32.7686],[-81.4055,32.7456],[-81.426,32.7036],[-81.3942,32.6526],[-81.4175,32.6317],[-81.3828,32.5926],[-81.3393,32.5673],[-81.2789,32.5579]]]},"properties":{"GID_0":"USA","GID_1":"USA.41_1","GID_2":"USA.41.25_1","NAME_1":"SouthCarolina","NAME_2":"Hampton"}},
{"type":"Feature","geometry":{"type":"Polygon","coordinates":[[[-78.919,33.6586],[-78.8416,33.7225],[-78.7404,33.7878],[-78.6547,33.8239],[-78.5894,33.8425],[-78.5782,33.8825],[-79.0681,34.3023],[-79.1282,34.2533],[-79.1341,34.2179],[-79.1889,34.177],[-79.2055,34.1336],[-79.2487,34.0892],[-79.2466,34.0574],[-79.3009,34.0323],[-79.33,33.9963],[-79.3352,33.9609],[-79.296,33.9031],[-79.259,33.8766],[-79.2591,33.8202],[-79.2366,33.7644],[-79.2181,33.7546],[-79.2125,33.7318],[-79.2026,33.7302],[-79.1989,33.7234],[-79.2007,33.717],[-79.1946,33.7155],[-79.1905,33.7059],[-79.18,33.7039],[-79.155,33.664],[-79.1239,33.6494],[-79.1217,33.6048],[-79.1004,33.5717],[-79.0034,33.5718],[-78.919,33.6586]]]},"properties":{"GID_0":"USA","GID_1":"USA.41_1","GID_2":"USA.41.26_1","NAME_1":"SouthCarolina","NAME_2":"Horry"}},
{"type":"Feature","geometry":{"type":"Polygon","coordinates":[[[-81.2789,32.5579],[-81.27,32.5334],[-81.1959,32.4697],[-81.2033,32.4265],[-81.1689,32.3631],[-81.135,32.3281],[-81.1202,32.2875],[-81.1554,32.2403],[-81.1104,32.1734],[-81.1301,32.166],[-81.1183,32.1175],[-81.068,32.0902],[-81.0008,32.0981],[-80.9716,32.0741],[-80.915,32.0842],[-80.9089,32.1307],[-80.9154,32.1349],[-80.9241,32.1308],[-80.9484,32.1677],[-81.0069,32.2133],[-81.0139,32.2279],[-80.9833,32.3064],[-80.9345,32.3002],[-80.9239,32.3523],[-80.8908,32.3477],[-80.875,32.3582],[-80.8442,32.3834],[-80.8299,32.4122],[-80.8505,32.4192],[-80.8341,32.4565],[-80.8206,32.4246],[-80.8275,32.4864],[-80.8472,32.5303],[-80.8317,32.5932],[-80.8697,32.6611],[-80.9029,32.6215],[-80.9617,32.6461],[-80.9464,32.6885],[-81.0151,32.7532],[-81.0897,32.6948],[-81.2789,32.5579]]]},"properties":{"GID_0":"USA","GID_1":"USA.41_1","GID_2":"USA.41.27_1","NAME_1":"SouthCarolina","NAME_2":"Jasper"}},
{"type":"Feature","geometry":{"type":"Polygon","coordinates":[[[-80.4168,34.6162],[-80.5511,34.5605],[-80.5296,34.5218],[-80.5795,34.4847],[-80.595,34.5021],[-80.6587,34.4786],[-80.6886,34.5155],[-80.7132,34.4879],[-80.7456,34.4889],[-80.7437,34.5402],[-80.8794,34.4582],[-80.8678,34.445],[-80.8333,34.415],[-80.7937,34.4135],[-80.7699,34.3771],[-80.8699,34.1824],[-80.846,34.171],[-80.7176,34.0676],[-80.7048,34.0812],[-80.6593,34.086],[-80.6359,34.0978],[-80.6159,34.0995],[-80.6187,34.1091],[-80.5804,34.0999],[-80.4801,34.169],[-80.4595,34.1785],[-80.4347,34.2288],[-80.4343,34.2842],[-80.3813,34.3053],[-80.3638,34.3402],[-80.2867,34.3711],[-80.3318,34.4409],[-80.3289,34.5081],[-80.3534,34.5205],[-80.3791,34.5865],[-80.4168,34.6162]]]},"properties":{"GID_0":"USA","GID_1":"USA.41_1","GID_2":"USA.41.28_1","NAME_1":"SouthCarolina","NAME_2":"Kershaw"}},
{"type":"Feature","geometry":{"type":"Polygon","coordinates":[[[-80.9016,35.0716],[-80.9055,35.0127],[-80.873,34.96],[-80.8681,34.9124],[-80.899,34.8247],[-80.8951,34.8125],[-80.8761,34.7857],[-80.8778,34.7434],[-80.8606,34.6957],[-80.897,34.6358],[-80.8787,34.5463],[-80.8754,34.5336],[-80.8883,34.4682],[-80.8794,34.4582],[-80.7437,34.5402],[-80.7456,34.4889],[-80.7132,34.4879],[-80.6886,34.5155],[-80.6587,34.4786],[-80.595,34.5021],[-80.5795,34.4847],[-80.5296,34.5218],[-80.5511,34.5605],[-80.4168,34.6162],[-80.4488,34.6682],[-80.5614,34.8157],[-80.796,34.8175],[-80.7828,34.9349],[-80.9016,35.0716]]]},"properties":{"GID_0":"USA","GID_1":"USA.41_1","GID_2":"USA.41.29_1","NAME_1":"SouthCarolina","NAME_2":"Lancaster"}},
{"type":"Feature","geometry":{"type":"Polygon","coordinates":[[[-82.2446,34.4111],[-82.1765,34.36],[-82.1682,34.3301],[-82.0894,34.3027],[-81.988,34.2427],[-81.9452,34.2031],[-81.9376,34.2127],[-81.926,34.2205],[-81.9107,34.2447],[-81.8931,34.303],[-81.8101,34.3473],[-81.7478,34.409],[-81.7287,34.4487],[-81.7031,34.4552],[-81.6447,34.53],[-81.6778,34.558],[-81.7174,34.5551],[-81.812,34.5821],[-81.8429,34.5996],[-81.8595,34.5913],[-81.888,34.5925],[-81.9479,34.6483],[-82,34.6638],[-82.0598,34.7019],[-82.0856,34.7471],[-82.1136,34.7509],[-82.1432,34.7842],[-82.2374,34.587],[-82.236,34.5357],[-82.3144,34.484],[-82.2446,34.4111]]]},"properties":{"GID_0":"USA","GID_1":"USA.41_1","GID_2":"USA.41.30_1","NAME_1":"SouthCarolina","NAME_2":"Laurens"}},
{"type":"Feature","geometry":{"type":"Polygon","coordinates":[[[-80.2867,34.3711],[-80.3638,34.3402],[-80.3813,34.3053],[-80.4343,34.2842],[-80.4347,34.2288],[-80.4595,34.1785],[-80.4801,34.169],[-80.4816,34.1127],[-80.4058,34.0814],[-80.3221,34.0805],[-80.2948,34.0394],[-80.2693,34.0351],[-80.2448,33.9923],[-80.1887,34.0051],[-80.1809,33.9523],[-80.0706,34.0083],[-80.0274,34.0084],[-80.0008,34.0477],[-80.0304,34.0752],[-80.073,34.086],[-80.1554,34.1589],[-80.1111,34.1981],[-80.1103,34.2227],[-80.1462,34.2897],[-80.1732,34.3181],[-80.1788,34.3604],[-80.2399,34.3195],[-80.2867,34.3711]]]},"properties":{"GID_0":"USA","GID_1":"USA.41_1","GID_2":"USA.41.31_1","NAME_1":"SouthCarolina","NAME_2":"Lee"}},
{"type":"Feature","geometry":{"type":"Polygon","coordinates":[[[-81.1873,33.6526],[-81.0429,33.7069],[-80.9253,33.7556],[-80.9606,33.7788],[-81.0479,33.7888],[-81.038,33.8706],[-81.0125,33.8802],[-81.0186,33.882],[-81.0087,33.9043],[-81.0513,33.9965],[-81.0979,34.0179],[-81.1284,34.0587],[-81.1823,34.0914],[-81.2777,34.1007],[-81.3123,34.1411],[-81.2996,34.1639],[-81.3392,34.1974],[-81.4041,34.1776],[-81.4371,34.1302],[-81.4031,34.0895],[-81.464,34.0833],[-81.5134,34.0004],[-81.5751,33.8751],[-81.5468,33.8593],[-81.5044,33.809],[-81.4601,33.7988],[-81.4111,33.733],[-81.31,33.7101],[-81.1873,33.6526]]]},"properties":{"GID_0":"USA","GID_1":"USA.41_1","GID_2":"USA.41.32_1","NAME_1":"SouthCarolina","NAME_2":"Lexington"}},
{"type":"Feature","geometry":{"type":"Polygon","coordinates":[[[-79.557,34.2453],[-79.544,34.2251],[-79.5725,34.1855],[-79.5146,34.1066],[-79.533,34.075],[-79.513,34.0447],[-79.5157,33.993],[-79.4835,33.9407],[-79.4152,33.8939],[-79.3659,33.8445],[-79.3175,33.8288],[-79.3248,33.7989],[-79.3175,33.7802],[-79.2678,33.7035],[-79.2423,33.7058],[-79.1948,33.7069],[-79.1905,33.7059],[-79.1946,33.7155],[-79.2007,33.717],[-79.1989,33.7234],[-79.2026,33.7302],[-79.2125,33.7318],[-79.2181,33.7546],[-79.2366,33.7644],[-79.2591,33.8202],[-79.259,33.8766],[-79.296,33.9031],[-79.3352,33.9609],[-79.33,33.9963],[-79.3009,34.0323],[-79.2466,34.0574],[-79.2487,34.0892],[-79.2055,34.1336],[-79.1889,34.177],[-79.1341,34.2179],[-79.1282,34.2533],[-79.1752,34.2886],[-79.2149,34.256],[-79.3102,34.2701],[-79.3653,34.2964],[-79.4119,34.3007],[-79.4811,34.2884],[-79.5089,34.2592],[-79.5241,34.2517],[-79.557,34.2453]]]},"properties":{"GID_0":"USA","GID_1":"USA.41_1","GID_2":"USA.41.33_1","NAME_1":"SouthCarolina","NAME_2":"Marion"}},
{"type":"Feature","geometry":{"type":"Polygon","coordinates":[[[-79.9248,34.8084],[-79.9277,34.7681],[-79.8945,34.7437],[-79.8536,34.672],[-79.8175,34.659],[-79.8054,34.608],[-79.8289,34.5346],[-79.8095,34.4863],[-79.7622,34.5194],[-79.722,34.4853],[-79.7502,34.4679],[-79.7485,34.4361],[-79.7122,34.4016],[-79.6615,34.3111],[-79.6399,34.3017],[-79.631,34.3012],[-79.4505,34.6211],[-79.6753,34.8046],[-79.9248,34.8084]]]},"properties":{"GID_0":"USA","GID_1":"USA.41_1","GID_2":"USA.41.34_1","NAME_1":"SouthCarolina","NAME_2":"Marlboro"}},
{"type":"Feature","geometry":{"type":"Polygon","coordinates":[[[-82.1143,33.5992],[-82.0955,33.6335],[-82.1835,33.7267],[-82.172,33.7687],[-82.1138,33.8302],[-82.1543,33.8816],[-82.1556,33.9289],[-82.0474,33.9531],[-82.045,33.9832],[-82.076,33.9797],[-82.2135,33.9856],[-82.245,34.0189],[-82.3063,33.9714],[-82.3267,34.0639],[-82.4459,34.0602],[-82.484,34.0811],[-82.5298,34.0719],[-82.5941,34.0146],[-82.567,33.9603],[-82.5143,33.9395],[-82.4908,33.9118],[-82.4252,33.8677],[-82.3907,33.8586],[-82.3052,33.804],[-82.2552,33.7569],[-82.2349,33.703],[-82.202,33.6702],[-82.1807,33.6181],[-82.1143,33.5992]]]},"properties":{"GID_0":"USA","GID_1":"USA.41_1","GID_2":"USA.41.35_1","NAME_1":"SouthCarolina","NAME_2":"McCormick"}},
{"type":"Feature","geometry":{"type":"Polygon","coordinates":[[[-81.4235,34.4943],[-81.4704,34.4923],[-81.5386,34.4456],[-81.555,34.4778],[-81.6447,34.53],[-81.7031,34.4552],[-81.7287,34.4487],[-81.7478,34.409],[-81.8101,34.3473],[-81.8931,34.303],[-81.9107,34.2447],[-81.926,34.2205],[-81.9376,34.2127],[-81.9452,34.2031],[-81.9357,34.1945],[-81.87,34.1351],[-81.869,34.1428],[-81.8539,34.1784],[-81.7766,34.1671],[-81.7284,34.187],[-81.6309,34.143],[-81.623,34.1271],[-81.505,34.0745],[-81.464,34.0833],[-81.4031,34.0895],[-81.4371,34.1302],[-81.4041,34.1776],[-81.3392,34.1974],[-81.3171,34.2393],[-81.3396,34.2924],[-81.3664,34.3236],[-81.4217,34.4538],[-81.4235,34.4943]]]},"properties":{"GID_0":"USA","GID_1":"USA.41_1","GID_2":"USA.41.36_1","NAME_1":"SouthCarolina","NAME_2":"Newberry"}},
{"type":"Feature","geometry":{"type":"Polygon","coordinates":[[[-82.8972,35.0572],[-83.1052,35.002],[-83.1406,34.9279],[-83.2501,34.8678],[-83.3211,34.7913],[-83.3191,34.7586],[-83.3534,34.728],[-83.3403,34.6812],[-83.3033,34.67],[-83.2366,34.6167],[-83.1938,34.6067],[-83.1244,34.5608],[-83.0819,34.5155],[-82.9959,34.4754],[-82.845,34.6185],[-82.8413,34.6229],[-82.839,34.6616],[-82.8647,34.7021],[-82.8606,34.7323],[-82.9005,34.7426],[-82.878,34.7891],[-82.8957,34.8398],[-82.9155,34.9726],[-82.9427,34.9867],[-82.8972,35.0572]]]},"properties":{"GID_0":"USA","GID_1":"USA.41_1","GID_2":"USA.41.37_1","NAME_1":"SouthCarolina","NAME_2":"Oconee"}},
{"type":"Feature","geometry":{"type":"Polygon","coordinates":[[[-81.373,33.4907],[-81.3047,33.48],[-81.2463,33.4442],[-81.2066,33.4379],[-81.1114,33.3812],[-81.0812,33.3785],[-81.03,33.3458],[-80.9433,33.3062],[-80.8451,33.2378],[-80.8331,33.2023],[-80.7981,33.1772],[-80.5027,33.3342],[-80.4855,33.2809],[-80.4296,33.2579],[-80.3621,33.2575],[-80.3449,33.2779],[-80.328,33.271],[-80.3149,33.2641],[-80.253,33.306],[-80.2225,33.3923],[-80.2225,33.4437],[-80.2358,33.4392],[-80.3001,33.441],[-80.3558,33.4304],[-80.3925,33.4447],[-80.4379,33.4786],[-80.4603,33.5028],[-80.4507,33.5446],[-80.4963,33.558],[-80.5057,33.5531],[-80.5041,33.5453],[-80.5525,33.5651],[-80.5884,33.5384],[-80.625,33.4885],[-80.6592,33.4708],[-80.6942,33.5219],[-80.808,33.604],[-80.8807,33.6195],[-80.9199,33.6055],[-80.9656,33.6251],[-81.0429,33.7069],[-81.1873,33.6526],[-81.373,33.4907]]]},"properties":{"GID_0":"USA","GID_1":"USA.41_1","GID_2":"USA.41.38_1","NAME_1":"SouthCarolina","NAME_2":"Orangeburg"}},
{"type":"Feature","geometry":{"type":"Polygon","coordinates":[[[-82.8972,35.0572],[-82.9427,34.9867],[-82.9155,34.9726],[-82.8957,34.8398],[-82.878,34.7891],[-82.9005,34.7426],[-82.8606,34.7323],[-82.8647,34.7021],[-82.839,34.6616],[-82.8413,34.6229],[-82.7882,34.673],[-82.4842,34.8213],[-82.4947,34.8983],[-82.5159,34.9212],[-82.5514,35.0175],[-82.6065,35.0726],[-82.6422,35.0621],[-82.7567,35.0546],[-82.7637,35.0672],[-82.7808,35.0865],[-82.8972,35.0572]]]},"properties":{"GID_0":"USA","GID_1":"USA.41_1","GID_2":"USA.41.39_1","NAME_1":"SouthCarolina","NAME_2":"Pickens"}},
{"type":"Feature","geometry":{"type":"Polygon","coordinates":[[[-80.6205,33.7431],[-80.6166,33.7495],[-80.6025,33.809],[-80.631,33.8478],[-80.6307,33.9209],[-80.6155,33.9627],[-80.6363,34.0078],[-80.6007,34.039],[-80.6154,34.0968],[-80.6159,34.0995],[-80.6359,34.0978],[-80.6593,34.086],[-80.7048,34.0812],[-80.7176,34.0676],[-80.846,34.171],[-80.8699,34.1824],[-80.8264,34.2686],[-80.9626,34.2519],[-81.0698,34.2283],[-81.0959,34.2137],[-81.1809,34.22],[-81.2537,34.204],[-81.2782,34.2298],[-81.3005,34.2384],[-81.3171,34.2393],[-81.3392,34.1974],[-81.2996,34.1639],[-81.3123,34.1411],[-81.2777,34.1007],[-81.1823,34.0914],[-81.1284,34.0587],[-81.0979,34.0179],[-81.0513,33.9965],[-81.0087,33.9043],[-81.0186,33.882],[-80.9998,33.8783],[-80.9882,33.8497],[-80.9114,33.8297],[-80.786,33.7704],[-80.6563,33.7614],[-80.6409,33.7477],[-80.6205,33.7431]]]},"properties":{"GID_0":"USA","GID_1":"USA.41_1","GID_2":"USA.41.40_1","NAME_1":"SouthCarolina","NAME_2":"Richland"}},
{"type":"Feature","geometry":{"type":"Polygon","coordinates":[[[-81.5751,33.8751],[-81.5134,34.0004],[-81.464,34.0833],[-81.505,34.0745],[-81.623,34.1271],[-81.6309,34.143],[-81.7284,34.187],[-81.7766,34.1671],[-81.8539,34.1784],[-81.869,34.1428],[-81.87,34.1292],[-81.9139,34.092],[-81.9504,34.0394],[-81.9914,33.9936],[-82.0159,33.9598],[-81.9988,33.9645],[-81.8948,33.9753],[-81.8701,33.8919],[-81.8338,33.8648],[-81.652,33.8142],[-81.5751,33.8751]]]},"properties":{"GID_0":"USA","GID_1":"USA.41_1","GID_2":"USA.41.41_1","NAME_1":"SouthCarolina","NAME_2":"Saluda"}},
{"type":"Feature","geometry":{"type":"Polygon","coordinates":[[[-82.2163,35.1959],[-82.2265,34.8511],[-82.1932,34.835],[-82.1432,34.7842],[-82.1136,34.7509],[-82.0856,34.7471],[-82.0598,34.7019],[-82,34.6638],[-81.9479,34.6483],[-81.888,34.5925],[-81.8595,34.5913],[-81.854,34.5946],[-81.8248,34.6802],[-81.7833,34.8372],[-81.7117,34.913],[-81.7495,34.93],[-81.7932,35.0346],[-81.8746,35.1841],[-82.2163,35.1959]]]},"properties":{"GID_0":"USA","GID_1":"USA.41_1","GID_2":"USA.41.42_1","NAME_1":"SouthCarolina","NAME_2":"Spartanburg"}},
{"type":"Feature","geometry":{"type":"Polygon","coordinates":[[[-80.5344,33.6441],[-80.4983,33.674],[-80.4787,33.7144],[-80.3921,33.7153],[-80.3972,33.7677],[-80.2711,33.7865],[-80.256,33.8041],[-80.1387,33.8674],[-80.122,33.8696],[-79.9745,33.947],[-79.8941,33.9894],[-80.0008,34.0477],[-80.0274,34.0084],[-80.0706,34.0083],[-80.1809,33.9523],[-80.1887,34.0051],[-80.2448,33.9923],[-80.2693,34.0351],[-80.2948,34.0394],[-80.3221,34.0805],[-80.4058,34.0814],[-80.4816,34.1127],[-80.4801,34.169],[-80.5804,34.0999],[-80.6187,34.1091],[-80.6154,34.0968],[-80.6007,34.039],[-80.6363,34.0078],[-80.6155,33.9627],[-80.6307,33.9209],[-80.631,33.8478],[-80.6025,33.809],[-80.6166,33.7495],[-80.621,33.7418],[-80.6293,33.7391],[-80.5651,33.6652],[-80.5344,33.6441]]]},"properties":{"GID_0":"USA","GID_1":"USA.41_1","GID_2":"USA.41.43_1","NAME_1":"SouthCarolina","NAME_2":"Sumter"}},
{"type":"Feature","geometry":{"type":"Polygon","coordinates":[[[-81.7117,34.913],[-81.7833,34.8372],[-81.8248,34.6802],[-81.854,34.5946],[-81.8429,34.5996],[-81.812,34.5821],[-81.7174,34.5551],[-81.6778,34.558],[-81.6447,34.53],[-81.555,34.4778],[-81.5386,34.4456],[-81.4704,34.4923],[-81.4235,34.4943],[-81.42,34.567],[-81.4274,34.5788],[-81.4165,34.6356],[-81.4542,34.6749],[-81.456,34.7921],[-81.488,34.8165],[-81.4702,34.8279],[-81.4618,34.8311],[-81.4574,34.8398],[-81.5148,34.88],[-81.5848,34.8865],[-81.6122,34.8745],[-81.6837,34.9109],[-81.7117,34.913]]]},"properties":{"GID_0":"USA","GID_1":"USA.41_1","GID_2":"USA.41.44_1","NAME_1":"SouthCarolina","NAME_2":"Union"}},
{"type":"Feature","geometry":{"type":"Polygon","coordinates":[[[-79.6769,33.3045],[-79.6811,33.3182],[-79.6769,33.3377],[-79.634,33.3722],[-79.5916,33.4422],[-79.5455,33.4913],[-79.4971,33.517],[-79.4337,33.5762],[-79.4427,33.5955],[-79.4099,33.6892],[-79.3175,33.7802],[-79.3248,33.7989],[-79.3842,33.813],[-79.4495,33.7847],[-79.4971,33.7758],[-79.6347,33.8084],[-79.7247,33.814],[-79.7437,33.8352],[-79.7995,33.8362],[-79.8353,33.8825],[-79.8757,33.8852],[-79.9153,33.8187],[-79.9447,33.8103],[-79.9961,33.768],[-79.9746,33.7219],[-79.9909,33.7052],[-80.1042,33.4979],[-80.0971,33.496],[-80.0942,33.5037],[-80.0816,33.4991],[-80.0061,33.5084],[-79.9644,33.4985],[-79.8689,33.4348],[-79.8605,33.4084],[-79.8022,33.3718],[-79.7857,33.3758],[-79.7415,33.322],[-79.7096,33.3212],[-79.6769,33.3045]]]},"properties":{"GID_0":"USA","GID_1":"USA.41_1","GID_2":"USA.41.45_1","NAME_1":"SouthCarolina","NAME_2":"Williamsburg"}},
{"type":"Feature","geometry":{"type":"Polygon","coordinates":[[[-81.3665,35.1654],[-81.4012,35.1365],[-81.4097,35.0466],[-81.4877,35.0322],[-81.4762,34.9841],[-81.479,34.8983],[-81.4529,34.8471],[-81.4618,34.8311],[-81.4702,34.8279],[-81.4785,34.8215],[-80.8979,34.8207],[-80.899,34.8247],[-80.8681,34.9124],[-80.873,34.96],[-80.9055,35.0127],[-80.9016,35.0716],[-80.9312,35.1049],[-81.0419,35.0432],[-81.0586,35.067],[-81.0369,35.1036],[-81.0448,35.1494],[-81.3665,35.1654]]]},"properties":{"GID_0":"USA","GID_1":"USA.41_1","GID_2":"USA.41.46_1","NAME_1":"SouthCarolina","NAME_2":"York"}}
]}