{"type":"FeatureCollection", "features": [
{"type":"Feature","geometry":{"type":"Polygon","coordinates":[[[-113.9336,45.6942],[-113.9025,45.6192],[-113.8186,45.6101],[-113.8202,45.5218],[-113.6874,45.2579],[-113.5728,45.126],[-113.4548,45.0599],[-113.4553,44.8692],[-113.3286,44.7888],[-113.2475,44.8229],[-113.1041,44.7306],[-112.9786,44.4322],[-112.8508,44.3581],[-112.7827,44.483],[-112.4599,44.477],[-112.2862,44.5691],[-112.1144,44.5254],[-111.8693,44.5662],[-111.7628,44.5281],[-111.7012,44.5587],[-111.5092,44.5645],[-111.4829,44.7077],[-111.7816,44.7085],[-111.7817,44.781],[-112.0673,44.7826],[-112.1687,44.826],[-112.1912,45.002],[-112.3325,45.0019],[-112.3329,45.0873],[-112.4569,45.0865],[-112.4639,45.3907],[-112.507,45.4431],[-112.6052,45.4274],[-112.6882,45.4814],[-112.6838,45.626],[-112.7636,45.75],[-113.0135,45.8188],[-113.0832,45.8651],[-113.215,45.874],[-113.2728,45.817],[-113.4343,45.804],[-113.5194,45.9376],[-113.518,45.9353],[-113.5305,45.8801],[-113.5791,45.8717],[-113.6967,45.841],[-113.7974,45.7622],[-113.9128,45.7465],[-113.9336,45.6942]]]},"properties":{"GID_0":"USA","GID_1":"USA.27_1","GID_2":"USA.27.1_1","NAME_1":"Montana","NAME_2":"Beaverhead"}},
{"type":"Feature","geometry":{"type":"Polygon","coordinates":[[[-106.2739,45.1806],[-106.7634,45.1814],[-106.724,45.3517],[-106.727,45.6789],[-106.9105,45.6857],[-106.9365,45.8333],[-106.9371,45.8709],[-107.176,45.9594],[-107.4243,45.9579],[-107.4269,46.0422],[-107.6708,46.0429],[-107.6725,45.9871],[-107.7976,45.9873],[-107.8816,45.9002],[-108.0452,45.9],[-108.0684,45.7842],[-108.0637,45.5201],[-108.3121,45.4613],[-108.4413,45.4652],[-108.6427,45.464],[-108.6992,45.3468],[-108.6975,45.2166],[-108.0894,45.2208],[-108.1713,45.1578],[-108.2451,45.0011],[-107.0009,44.9972],[-106.2648,44.9975],[-106.2739,45.1806]]]},"properties":{"GID_0":"USA","GID_1":"USA.27_1","GID_2":"USA.27.2_1","NAME_1":"Montana","NAME_2":"BigHorn"}},
{"type":"Feature","geometry":{"type":"Polygon","coordinates":[[[-108.2384,49.0009],[-109.4914,49.0002],[-109.5072,48.912],[-109.5064,48.5654],[-109.4621,48.453],[-109.5199,48.3925],[-109.5354,48.2196],[-109.5366,47.8708],[-109.5392,47.7405],[-109.4211,47.7226],[-109.2644,47.795],[-108.9491,47.7789],[-108.9433,47.7701],[-108.891,47.7368],[-108.8863,47.9237],[-108.6282,47.9191],[-108.6043,47.9948],[-108.4374,47.98],[-108.4324,48.221],[-108.4101,48.4477],[-108.3475,48.4296],[-108.3224,48.5677],[-108.3234,48.741],[-108.2592,48.7418],[-108.2384,49.0009]]]},"properties":{"GID_0":"USA","GID_1":"USA.27_1","GID_2":"USA.27.3_1","NAME_1":"Montana","NAME_2":"Blaine"}},
{"type":"Feature","geometry":{"type":"Polygon","coordinates":[[[-111.7876,46.5725],[-111.7857,46.3089],[-111.7874,46.2233],[-111.7827,46.0511],[-111.6588,46.0499],[-111.6603,45.8376],[-111.6565,45.8399],[-111.4698,45.9516],[-111.346,46.1882],[-111.1582,46.1925],[-111.0557,46.1925],[-111.0624,46.2034],[-111.0611,46.2103],[-111.0699,46.2327],[-111.083,46.2354],[-111.0766,46.2478],[-111.1261,46.2746],[-111.0575,46.4082],[-111.1337,46.4496],[-111.2511,46.4463],[-111.3298,46.631],[-111.408,46.6411],[-111.4985,46.7625],[-111.6385,46.7393],[-111.6343,46.5733],[-111.7876,46.5725]]]},"properties":{"GID_0":"USA","GID_1":"USA.27_1","GID_2":"USA.27.4_1","NAME_1":"Montana","NAME_2":"Broadwater"}},
{"type":"Feature","geometry":{"type":"Polygon","coordinates":[[[-108.6427,45.464],[-108.6954,45.4638],[-108.8431,45.611],[-108.9758,45.6163],[-109.0723,45.5816],[-109.1904,45.464],[-109.3548,45.4627],[-109.4789,45.418],[-109.6875,45.2444],[-109.6904,45.1668],[-109.7977,45.1665],[-109.7969,45.003],[-109.0014,45.0008],[-108.2451,45.0011],[-108.1713,45.1578],[-108.0894,45.2208],[-108.6975,45.2166],[-108.6992,45.3468],[-108.6427,45.464]]]},"properties":{"GID_0":"USA","GID_1":"USA.27_1","GID_2":"USA.27.5_1","NAME_1":"Montana","NAME_2":"Carbon"}},
{"type":"Feature","geometry":{"type":"Polygon","coordinates":[[[-105.0392,44.9998],[-104.0397,44.9986],[-104.0439,45.8799],[-104.1349,45.8806],[-104.135,45.9686],[-104.3914,45.969],[-104.3915,46.0538],[-104.5182,46.0544],[-104.5166,46.1369],[-104.9427,46.1366],[-104.9346,45.7874],[-104.9798,45.7861],[-104.989,45.3519],[-105.0378,45.3511],[-105.0392,44.9998]]]},"properties":{"GID_0":"USA","GID_1":"USA.27_1","GID_2":"USA.27.6_1","NAME_1":"Montana","NAME_2":"Carter"}},
{"type":"Feature","geometry":{"type":"Polygon","coordinates":[[[-110.6379,47.4167],[-110.7652,47.4483],[-110.7648,47.5246],[-110.9339,47.5458],[-111.0464,47.6093],[-110.9772,47.6984],[-111.5397,47.6967],[-111.6647,47.6975],[-111.6672,47.6101],[-111.9235,47.6095],[-111.9218,47.5005],[-112.0448,47.5167],[-112.0439,47.1926],[-111.942,47.1404],[-111.7892,47.1282],[-111.7883,46.9133],[-111.5393,46.9149],[-111.5373,47.0022],[-111.1578,47.0114],[-110.9222,46.9839],[-110.7519,46.8443],[-110.6619,46.8188],[-110.6526,46.8224],[-110.6466,47.0974],[-110.7691,47.0981],[-110.7648,47.3582],[-110.6392,47.3593],[-110.6379,47.4167]]]},"properties":{"GID_0":"USA","GID_1":"USA.27_1","GID_2":"USA.27.7_1","NAME_1":"Montana","NAME_2":"Cascade"}},
{"type":"Feature","geometry":{"type":"Polygon","coordinates":[[[-109.536,48.1339],[-109.7262,48.1309],[-109.7258,48.2189],[-109.845,48.2186],[-109.8455,48.3058],[-110.6229,48.3073],[-110.6234,48.2206],[-110.8266,48.2207],[-110.8269,48.1349],[-111.4087,48.1333],[-111.4093,47.6976],[-110.9772,47.6984],[-111.0464,47.6093],[-110.9339,47.5458],[-110.7648,47.5246],[-110.7652,47.4483],[-110.6379,47.4167],[-110.1582,47.4178],[-109.8423,47.5504],[-109.8347,47.7087],[-109.5392,47.7405],[-109.5366,47.8708],[-109.536,48.1339]]]},"properties":{"GID_0":"USA","GID_1":"USA.27_1","GID_2":"USA.27.8_1","NAME_1":"Montana","NAME_2":"Chouteau"}},
{"type":"Feature","geometry":{"type":"Polygon","coordinates":[[[-104.8816,46.1364],[-104.8817,46.3126],[-104.9061,46.4839],[-104.7306,46.4807],[-104.7297,46.612],[-104.8576,46.6114],[-104.858,46.5673],[-104.9814,46.5402],[-105.238,46.5402],[-105.4493,46.5698],[-105.4909,46.6576],[-105.5764,46.6566],[-105.6217,46.8314],[-105.8288,46.8606],[-106.0872,46.86],[-106.0872,46.8311],[-106.1217,46.8308],[-106.117,46.4836],[-106.154,46.4829],[-106.1518,46.1362],[-106.1912,46.136],[-106.1933,45.7911],[-106.111,45.7899],[-104.9798,45.7861],[-104.9346,45.7874],[-104.9427,46.1366],[-104.8816,46.1364]]]},"properties":{"GID_0":"USA","GID_1":"USA.27_1","GID_2":"USA.27.9_1","NAME_1":"Montana","NAME_2":"Custer"}},
{"type":"Feature","geometry":{"type":"Polygon","coordinates":[[[-105.0554,49.0002],[-106.108,49.001],[-106.1121,48.9104],[-106.1503,48.8232],[-106.0222,48.8234],[-106.0205,48.5639],[-105.2819,48.5651],[-104.9709,48.5634],[-105.0393,48.6507],[-105.039,48.9113],[-105.0554,49.0002]]]},"properties":{"GID_0":"USA","GID_1":"USA.27_1","GID_2":"USA.27.10_1","NAME_1":"Montana","NAME_2":"Daniels"}},
{"type":"Feature","geometry":{"type":"Polygon","coordinates":[[[-105.4013,47.1824],[-105.3211,47.1826],[-105.3241,46.9767],[-105.1936,46.9773],[-105.1942,46.9194],[-105.0679,46.9186],[-105.0283,46.86],[-104.4966,46.8594],[-104.4309,46.8864],[-104.3044,47.0431],[-104.3435,47.2446],[-104.4094,47.3553],[-104.5099,47.3551],[-104.5108,47.5279],[-104.592,47.5286],[-104.5921,47.6157],[-104.976,47.6163],[-104.9747,47.7029],[-105.2318,47.7037],[-105.2322,47.7899],[-105.3615,47.7911],[-105.3634,47.5285],[-105.4064,47.5283],[-105.405,47.3574],[-105.4013,47.268],[-105.4013,47.1824]]]},"properties":{"GID_0":"USA","GID_1":"USA.27_1","GID_2":"USA.27.11_1","NAME_1":"Montana","NAME_2":"Dawson"}},
{"type":"Feature","geometry":{"type":"Polygon","coordinates":[[[-113.0832,45.8651],[-112.9683,45.9029],[-112.9361,45.9896],[-112.7788,46.1384],[-112.5752,46.1774],[-112.559,46.2697],[-113.0324,46.2645],[-113.0321,46.2223],[-113.2852,46.2233],[-113.2948,46.0298],[-113.5222,45.9417],[-113.5194,45.9376],[-113.4343,45.804],[-113.2728,45.817],[-113.215,45.874],[-113.0832,45.8651]]]},"properties":{"GID_0":"USA","GID_1":"USA.27_1","GID_2":"USA.27.12_1","NAME_1":"Montana","NAME_2":"DeerLodge"}},
{"type":"Feature","geometry":{"type":"Polygon","coordinates":[[[-104.0439,45.8799],[-104.0448,46.6403],[-104.3523,46.6392],[-104.4185,46.6836],[-104.6033,46.6847],[-104.6039,46.6563],[-104.7299,46.6552],[-104.7306,46.4807],[-104.9061,46.4839],[-104.8817,46.3126],[-104.8816,46.1364],[-104.5166,46.1369],[-104.5182,46.0544],[-104.3915,46.0538],[-104.3914,45.969],[-104.135,45.9686],[-104.1349,45.8806],[-104.0439,45.8799]]]},"properties":{"GID_0":"USA","GID_1":"USA.27_1","GID_2":"USA.27.13_1","NAME_1":"Montana","NAME_2":"Fallon"}},
{"type":"Feature","geometry":{"type":"Polygon","coordinates":[[[-109.5392,47.7405],[-109.8347,47.7087],[-109.8423,47.5504],[-110.1582,47.4178],[-110.2104,47.4174],[-110.123,47.3597],[-110.1209,47.2738],[-109.9984,47.2298],[-109.8683,47.2283],[-109.75,47.1864],[-109.754,46.8953],[-109.8293,46.8012],[-109.754,46.7797],[-109.7457,46.6934],[-109.3857,46.6937],[-109.3847,46.7524],[-108.817,46.7507],[-108.6276,46.7487],[-108.6297,46.8373],[-108.6071,46.8375],[-108.6056,47.0992],[-108.7354,47.0995],[-108.7141,47.2697],[-108.5902,47.3062],[-108.3193,47.3159],[-108.3124,47.5807],[-108.5104,47.6012],[-108.7809,47.6513],[-108.891,47.7368],[-108.9433,47.7701],[-108.9491,47.7789],[-109.2644,47.795],[-109.4211,47.7226],[-109.5392,47.7405]]]},"properties":{"GID_0":"USA","GID_1":"USA.27_1","GID_2":"USA.27.14_1","NAME_1":"Montana","NAME_2":"Fergus"}},
{"type":"Feature","geometry":{"type":"Polygon","coordinates":[[[-114.0639,48.9897],[-114.0693,49.0001],[-114.7267,49.0001],[-114.6759,48.7994],[-114.6219,48.7473],[-114.6941,48.68],[-114.8866,48.6579],[-114.8481,48.5736],[-114.8493,48.2281],[-115.0208,48.2277],[-115.0109,48.0176],[-114.9915,47.8744],[-114.6044,47.8748],[-114.6057,47.7891],[-114.4792,47.7909],[-114.4917,47.962],[-114.0426,47.9603],[-114.0307,48.0523],[-113.8866,48.0509],[-113.8415,47.9768],[-113.6671,47.8896],[-113.6818,47.8036],[-113.5952,47.6822],[-113.6089,47.6598],[-113.6269,47.6013],[-113.1489,47.5998],[-113.1674,47.7233],[-113.061,47.8077],[-113.0944,47.902],[-113.0856,47.9164],[-112.9977,47.9452],[-112.9784,47.9538],[-112.9111,48.0301],[-112.9403,48.0347],[-112.9986,48.1286],[-113.2331,48.1685],[-113.2255,48.2291],[-113.3559,48.31],[-113.3675,48.3268],[-113.3886,48.3434],[-113.3595,48.4239],[-113.4784,48.451],[-113.4734,48.5499],[-113.6685,48.5812],[-113.752,48.6162],[-113.7102,48.7351],[-113.7622,48.8171],[-113.8441,48.8535],[-113.9585,48.8161],[-114.0438,48.8866],[-114.0639,48.9897]]]},"properties":{"GID_0":"USA","GID_1":"USA.27_1","GID_2":"USA.27.15_1","NAME_1":"Montana","NAME_2":"Flathead"}},
{"type":"Feature","geometry":{"type":"Polygon","coordinates":[[[-111.3775,44.7537],[-111.2963,44.7017],[-111.2285,44.5803],[-111.0487,44.4772],[-111.0551,44.6669],[-111.0418,45],[-111.0351,45.3495],[-110.9145,45.3486],[-110.9175,45.5245],[-110.7943,45.5902],[-110.7825,46.1933],[-111.1582,46.1925],[-111.346,46.1882],[-111.4698,45.9516],[-111.6565,45.8399],[-111.6618,45.8353],[-111.8039,45.7974],[-111.6607,45.7434],[-111.5358,45.6415],[-111.3521,45.6414],[-111.373,45.351],[-111.3775,44.7537]]]},"properties":{"GID_0":"USA","GID_1":"USA.27_1","GID_2":"USA.27.16_1","NAME_1":"Montana","NAME_2":"Gallatin"}},
{"type":"Feature","geometry":{"type":"Polygon","coordinates":[[[-106.0872,46.86],[-106.0876,47.1808],[-106.1683,47.1815],[-106.1681,47.3568],[-106.3007,47.3553],[-106.2632,47.53],[-106.2607,47.8685],[-106.3598,47.8692],[-106.4178,47.9577],[-106.4223,47.9537],[-106.4315,47.98],[-106.4511,47.9808],[-106.4621,47.9648],[-106.4992,47.9597],[-106.507,47.9518],[-106.5643,47.8152],[-106.8675,47.7354],[-106.8968,47.6747],[-106.927,47.6697],[-107.2499,47.6614],[-107.4142,47.6917],[-107.4334,47.6342],[-107.6368,47.6485],[-107.7335,47.5701],[-107.8653,47.5125],[-107.9063,47.4514],[-107.9624,47.3503],[-107.9539,47.1222],[-107.9135,47.0668],[-107.9391,46.8877],[-107.9404,46.8735],[-107.8934,46.8515],[-107.4677,46.8593],[-106.7168,46.859],[-106.717,46.8448],[-106.0876,46.8453],[-106.0872,46.86]]]},"properties":{"GID_0":"USA","GID_1":"USA.27_1","GID_2":"USA.27.17_1","NAME_1":"Montana","NAME_2":"Garfield"}},
{"type":"Feature","geometry":{"type":"Polygon","coordinates":[[[-112.1964,48.9131],[-112.1911,49.0006],[-114.069,49.0001],[-114.0639,48.9897],[-114.0438,48.8866],[-113.9585,48.8161],[-113.8441,48.8535],[-113.7622,48.8171],[-113.7102,48.7351],[-113.752,48.6162],[-113.6685,48.5812],[-113.4734,48.5499],[-113.4784,48.451],[-113.3595,48.4239],[-113.3886,48.3434],[-113.3675,48.3268],[-113.3559,48.31],[-112.5781,48.3085],[-112.5756,48.4839],[-112.313,48.4829],[-112.2156,48.48],[-112.2032,48.476],[-112.1849,48.4753],[-112.1964,48.9131]]]},"properties":{"GID_0":"USA","GID_1":"USA.27_1","GID_2":"USA.27.18_1","NAME_1":"Montana","NAME_2":"Glacier"}},
{"type":"Feature","geometry":{"type":"Polygon","coordinates":[[[-109.3857,46.6937],[-109.4009,46.2185],[-109.6519,46.2198],[-109.6497,46.1319],[-109.6056,46.046],[-109.4215,46.0447],[-109.4201,46.1312],[-109.4036,46.1324],[-108.7782,46.1328],[-108.7778,46.2762],[-108.8636,46.3666],[-108.906,46.5775],[-108.9912,46.5775],[-109.0101,46.6209],[-109.0091,46.7516],[-109.3847,46.7524],[-109.3857,46.6937]]]},"properties":{"GID_0":"USA","GID_1":"USA.27_1","GID_2":"USA.27.19_1","NAME_1":"Montana","NAME_2":"GoldenValley"}},
{"type":"Feature","geometry":{"type":"Polygon","coordinates":[[[-113.0324,46.2645],[-113.038,46.7376],[-113.1829,46.733],[-113.1746,46.7547],[-113.2383,46.8048],[-113.2577,46.8246],[-113.2892,46.8332],[-113.4153,46.8333],[-113.4776,46.7457],[-113.6717,46.7161],[-113.6716,46.6583],[-113.7934,46.66],[-113.8272,46.6601],[-113.8033,46.6203],[-113.8769,46.5061],[-113.7831,46.3612],[-113.7965,46.1528],[-113.6544,45.9698],[-113.5222,45.9417],[-113.2948,46.0298],[-113.2852,46.2233],[-113.0321,46.2223],[-113.0324,46.2645]]]},"properties":{"GID_0":"USA","GID_1":"USA.27_1","GID_2":"USA.27.20_1","NAME_1":"Montana","NAME_2":"Granite"}},
{"type":"Feature","geometry":{"type":"Polygon","coordinates":[[[-109.4914,49.0002],[-110.7394,49],[-110.748,48.9134],[-110.7528,48.2213],[-110.6234,48.2206],[-110.6229,48.3073],[-109.8455,48.3058],[-109.845,48.2186],[-109.7258,48.2189],[-109.7262,48.1309],[-109.536,48.1339],[-109.5354,48.2196],[-109.5199,48.3925],[-109.4621,48.453],[-109.5064,48.5654],[-109.5072,48.912],[-109.4914,49.0002]]]},"properties":{"GID_0":"USA","GID_1":"USA.27_1","GID_2":"USA.27.21_1","NAME_1":"Montana","NAME_2":"Hill"}},
{"type":"Feature","geometry":{"type":"Polygon","coordinates":[[[-111.7876,46.5725],[-111.915,46.5707],[-112.0274,46.5718],[-112.1771,46.4591],[-112.3145,46.4198],[-112.4046,46.3888],[-112.559,46.2697],[-112.5752,46.1774],[-112.514,46.1723],[-112.5134,46.1526],[-112.4436,46.0351],[-112.4397,46.0118],[-112.423,45.8417],[-112.173,45.7485],[-112.0885,45.8479],[-112.0612,45.8514],[-111.9306,45.8561],[-111.8443,45.8222],[-111.8088,45.8106],[-111.8039,45.7974],[-111.6618,45.8353],[-111.6603,45.8376],[-111.6588,46.0499],[-111.7827,46.0511],[-111.7874,46.2233],[-111.7857,46.3089],[-111.7876,46.5725]]]},"properties":{"GID_0":"USA","GID_1":"USA.27_1","GID_2":"USA.27.22_1","NAME_1":"Montana","NAME_2":"Jefferson"}},
{"type":"Feature","geometry":{"type":"Polygon","coordinates":[[[-110.6526,46.8224],[-110.648,46.8238],[-110.6141,46.7679],[-110.467,46.6781],[-110.2731,46.709],[-109.9702,46.7522],[-109.8238,46.6938],[-109.7457,46.6934],[-109.754,46.7797],[-109.8293,46.8012],[-109.754,46.8953],[-109.75,47.1864],[-109.8683,47.2283],[-109.9984,47.2298],[-110.1209,47.2738],[-110.123,47.3597],[-110.2104,47.4174],[-110.6379,47.4167],[-110.6392,47.3593],[-110.7648,47.3582],[-110.7691,47.0981],[-110.6466,47.0974],[-110.6526,46.8224]]]},"properties":{"GID_0":"USA","GID_1":"USA.27_1","GID_2":"USA.27.23_1","NAME_1":"Montana","NAME_2":"JudithBasin"}},
{"type":"Feature","geometry":{"type":"Polygon","coordinates":[[[-114.6057,47.7891],[-114.6057,47.7462],[-114.585,47.5994],[-114.3487,47.5998],[-114.3017,47.497],[-114.3526,47.3939],[-114.2083,47.3514],[-114.1897,47.1409],[-113.9356,47.1405],[-113.8231,47.1824],[-113.8187,47.2675],[-113.8931,47.3112],[-113.8694,47.3826],[-113.9344,47.6005],[-113.6269,47.6013],[-113.6089,47.6598],[-113.5952,47.6822],[-113.6818,47.8036],[-113.6671,47.8896],[-113.8415,47.9768],[-113.8866,48.0509],[-114.0307,48.0523],[-114.0426,47.9603],[-114.4917,47.962],[-114.4792,47.7909],[-114.6057,47.7891]]]},"properties":{"GID_0":"USA","GID_1":"USA.27_1","GID_2":"USA.27.24_1","NAME_1":"Montana","NAME_2":"Lake"}},
{"type":"Feature","geometry":{"type":"Polygon","coordinates":[[[-111.4985,46.7625],[-111.6442,46.8393],[-111.6594,46.9135],[-111.7883,46.9133],[-111.7892,47.1282],[-111.942,47.1404],[-112.0439,47.1926],[-112.0448,47.5167],[-112.2751,47.5043],[-112.4058,47.5531],[-112.4254,47.603],[-112.5511,47.6514],[-112.7736,47.5973],[-112.9161,47.6952],[-112.9142,47.8246],[-112.955,47.9068],[-112.9755,47.9129],[-112.9762,47.9327],[-112.982,47.9422],[-112.989,47.9495],[-112.9977,47.9452],[-113.0856,47.9164],[-113.0944,47.902],[-113.061,47.8077],[-113.1674,47.7233],[-113.1489,47.5998],[-113.0592,47.4883],[-113.0578,47.1789],[-112.7936,47.1758],[-112.7889,46.8305],[-112.5356,46.8354],[-112.5334,46.6973],[-112.413,46.7],[-112.2926,46.6058],[-112.3145,46.4198],[-112.1771,46.4591],[-112.0274,46.5718],[-111.915,46.5707],[-111.6343,46.5733],[-111.6385,46.7393],[-111.4985,46.7625]]]},"properties":{"GID_0":"USA","GID_1":"USA.27_1","GID_2":"USA.27.25_1","NAME_1":"Montana","NAME_2":"LewisandClark"}},
{"type":"Feature","geometry":{"type":"Polygon","coordinates":[[[-111.2688,49],[-111.2744,48.2194],[-111.4085,48.2181],[-111.4087,48.1333],[-110.8269,48.1349],[-110.8266,48.2207],[-110.7528,48.2213],[-110.748,48.9134],[-110.7394,49],[-111.2688,49]]]},"properties":{"GID_0":"USA","GID_1":"USA.27_1","GID_2":"USA.27.26_1","NAME_1":"Montana","NAME_2":"Liberty"}},
{"type":"Feature","geometry":{"type":"Polygon","coordinates":[[[-114.7267,49.0001],[-116.0507,49.0004],[-116.0484,48.2155],[-116.019,48.158],[-115.7969,48.2243],[-115.7558,48.2638],[-115.7393,48.2612],[-115.6743,48.205],[-115.6381,48.0734],[-115.551,48.0069],[-115.541,47.9906],[-115.5608,47.9419],[-115.2856,47.8922],[-115.1918,47.9198],[-115.134,47.9842],[-115.0109,48.0176],[-115.0208,48.2277],[-114.8493,48.2281],[-114.8481,48.5736],[-114.8866,48.6579],[-114.6941,48.68],[-114.6219,48.7473],[-114.6759,48.7994],[-114.7267,49.0001]]]},"properties":{"GID_0":"USA","GID_1":"USA.27_1","GID_2":"USA.27.27_1","NAME_1":"Montana","NAME_2":"Lincoln"}},
{"type":"Feature","geometry":{"type":"Polygon","coordinates":[[[-111.3775,44.7537],[-111.373,45.351],[-111.3521,45.6414],[-111.5358,45.6415],[-111.6607,45.7434],[-111.8039,45.7974],[-111.8088,45.8106],[-111.8443,45.8222],[-111.9306,45.8561],[-112.0612,45.8514],[-112.0885,45.8479],[-112.173,45.7485],[-112.4618,45.7424],[-112.6838,45.626],[-112.6882,45.4814],[-112.6052,45.4274],[-112.507,45.4431],[-112.4639,45.3907],[-112.4569,45.0865],[-112.3329,45.0873],[-112.3325,45.0019],[-112.1912,45.002],[-112.1687,44.826],[-112.0673,44.7826],[-111.7817,44.781],[-111.7816,44.7085],[-111.4829,44.7077],[-111.3775,44.7537]]]},"properties":{"GID_0":"USA","GID_1":"USA.27_1","GID_2":"USA.27.28_1","NAME_1":"Montana","NAME_2":"Madison"}},
{"type":"Feature","geometry":{"type":"Polygon","coordinates":[[[-105.2322,47.7899],[-105.2326,47.8674],[-105.1956,47.8669],[-105.1942,48.0655],[-105.2398,48.0936],[-105.606,48.0794],[-105.8431,48.0105],[-106.0101,48.0152],[-106.0138,48.0059],[-106.0432,48.0086],[-106.231,48.0268],[-106.3749,48.0656],[-106.4136,47.9721],[-106.4178,47.9577],[-106.3598,47.8692],[-106.2607,47.8685],[-106.2632,47.53],[-106.3007,47.3553],[-106.1681,47.3568],[-106.1683,47.1815],[-105.9574,47.1821],[-105.9575,47.0938],[-105.8308,47.0937],[-105.8319,47.182],[-105.4013,47.1824],[-105.4013,47.268],[-105.405,47.3574],[-105.4064,47.5283],[-105.3634,47.5285],[-105.3615,47.7911],[-105.2322,47.7899]]]},"properties":{"GID_0":"USA","GID_1":"USA.27_1","GID_2":"USA.27.29_1","NAME_1":"Montana","NAME_2":"McCone"}},
{"type":"Feature","geometry":{"type":"Polygon","coordinates":[[[-111.0557,46.1925],[-110.7825,46.1933],[-110.2821,46.1847],[-110.2811,46.488],[-110.2731,46.709],[-110.467,46.6781],[-110.6141,46.7679],[-110.648,46.8238],[-110.6619,46.8188],[-110.7519,46.8443],[-110.9222,46.9839],[-111.1578,47.0114],[-111.5373,47.0022],[-111.5393,46.9149],[-111.6594,46.9135],[-111.6442,46.8393],[-111.4985,46.7625],[-111.408,46.6411],[-111.3298,46.631],[-111.2511,46.4463],[-111.1337,46.4496],[-111.0575,46.4082],[-111.1261,46.2746],[-111.0766,46.2478],[-111.083,46.2354],[-111.0699,46.2327],[-111.0611,46.2103],[-111.0624,46.2034],[-111.0557,46.1925]]]},"properties":{"GID_0":"USA","GID_1":"USA.27_1","GID_2":"USA.27.30_1","NAME_1":"Montana","NAME_2":"Meagher"}},
{"type":"Feature","geometry":{"type":"Polygon","coordinates":[[[-114.6742,46.7394],[-114.5514,46.748],[-114.5655,46.9644],[-114.4825,47.021],[-114.5894,47.1236],[-114.7774,47.2255],[-114.7989,47.2681],[-114.8423,47.2685],[-114.9688,47.31],[-114.9692,47.374],[-115.2806,47.486],[-115.6355,47.4774],[-115.752,47.4367],[-115.6043,47.3787],[-115.5029,47.2873],[-115.3201,47.2581],[-115.2963,47.1886],[-115.1406,47.1019],[-115.0187,46.9755],[-114.9233,46.9152],[-114.9225,46.8283],[-114.6742,46.7394]]]},"properties":{"GID_0":"USA","GID_1":"USA.27_1","GID_2":"USA.27.31_1","NAME_1":"Montana","NAME_2":"Mineral"}},
{"type":"Feature","geometry":{"type":"Polygon","coordinates":[[[-114.6742,46.7394],[-114.6414,46.6659],[-114.4679,46.633],[-114.3343,46.6599],[-114.1516,46.6619],[-113.7934,46.66],[-113.6716,46.6583],[-113.6717,46.7161],[-113.4776,46.7457],[-113.4153,46.8333],[-113.3045,46.8338],[-113.3047,47.1819],[-113.4668,47.1827],[-113.4718,47.6011],[-113.9344,47.6005],[-113.8694,47.3826],[-113.8931,47.3112],[-113.8187,47.2675],[-113.8231,47.1824],[-113.9356,47.1405],[-114.1897,47.1409],[-114.2665,47.1199],[-114.3458,47.1761],[-114.5552,47.251],[-114.7815,47.2681],[-114.7989,47.2681],[-114.7774,47.2255],[-114.5894,47.1236],[-114.4825,47.021],[-114.5655,46.9644],[-114.5514,46.748],[-114.6742,46.7394]]]},"properties":{"GID_0":"USA","GID_1":"USA.27_1","GID_2":"USA.27.32_1","NAME_1":"Montana","NAME_2":"Missoula"}},
{"type":"Feature","geometry":{"type":"Polygon","coordinates":[[[-109.0091,46.7516],[-109.0101,46.6209],[-108.9912,46.5775],[-108.906,46.5775],[-108.8636,46.3666],[-108.7778,46.2762],[-108.7782,46.1328],[-108.4035,46.1326],[-108.4035,46.2352],[-108.3197,46.2632],[-108.0271,46.2624],[-108.0099,46.3358],[-107.9299,46.3935],[-107.7829,46.3948],[-107.7781,46.4951],[-107.7986,46.495],[-107.7955,46.6835],[-107.8279,46.7502],[-107.8276,46.7566],[-108.2618,46.7524],[-108.5163,46.7481],[-109.0091,46.7516]]]},"properties":{"GID_0":"USA","GID_1":"USA.27_1","GID_2":"USA.27.33_1","NAME_1":"Montana","NAME_2":"Musselshell"}},
{"type":"Feature","geometry":{"type":"Polygon","coordinates":[[[-109.7977,45.1665],[-109.7977,45.1729],[-110.2271,45.1763],[-110.2167,45.3494],[-110.2207,45.7842],[-110.2912,45.7852],[-110.2816,46.1348],[-110.2821,46.1847],[-110.7825,46.1933],[-110.7943,45.5902],[-110.9175,45.5245],[-110.9145,45.3486],[-111.0351,45.3495],[-111.0418,45],[-110.7072,44.9929],[-110.2006,44.9942],[-109.7969,45.003],[-109.7977,45.1665]]]},"properties":{"GID_0":"USA","GID_1":"USA.27_1","GID_2":"USA.27.34_1","NAME_1":"Montana","NAME_2":"Park"}},
{"type":"Feature","geometry":{"type":"Polygon","coordinates":[[[-108.6276,46.7487],[-108.5163,46.7481],[-108.2618,46.7524],[-107.8276,46.7566],[-107.8283,46.7596],[-107.8897,46.8476],[-107.8934,46.8515],[-107.9404,46.8735],[-107.9391,46.8877],[-107.9135,47.0668],[-107.9539,47.1222],[-107.9624,47.3503],[-107.9063,47.4514],[-107.9226,47.5613],[-107.9836,47.5886],[-108.3124,47.5807],[-108.3193,47.3159],[-108.5902,47.3062],[-108.7141,47.2697],[-108.7354,47.0995],[-108.6056,47.0992],[-108.6071,46.8375],[-108.6297,46.8373],[-108.6276,46.7487]]]},"properties":{"GID_0":"USA","GID_1":"USA.27_1","GID_2":"USA.27.35_1","NAME_1":"Montana","NAME_2":"Petroleum"}},
{"type":"Feature","geometry":{"type":"Polygon","coordinates":[[[-107.1758,49.0001],[-108.2384,49.0009],[-108.2592,48.7418],[-108.3234,48.741],[-108.3224,48.5677],[-108.3475,48.4296],[-108.4101,48.4477],[-108.4324,48.221],[-108.4374,47.98],[-108.6043,47.9948],[-108.6282,47.9191],[-108.8863,47.9237],[-108.891,47.7368],[-108.7809,47.6513],[-108.5104,47.6012],[-108.3124,47.5807],[-107.9836,47.5886],[-107.9226,47.5613],[-107.9063,47.4514],[-107.8653,47.5125],[-107.7335,47.5701],[-107.6368,47.6485],[-107.4334,47.6342],[-107.4142,47.6917],[-107.4023,48.2204],[-107.3683,48.3064],[-107.2597,48.3062],[-107.304,48.4813],[-107.2049,48.569],[-107.205,48.9139],[-107.1758,49.0001]]]},"properties":{"GID_0":"USA","GID_1":"USA.27_1","GID_2":"USA.27.36_1","NAME_1":"Montana","NAME_2":"Phillips"}},
{"type":"Feature","geometry":{"type":"Polygon","coordinates":[[[-111.4087,48.1333],[-111.4085,48.2181],[-111.6687,48.218],[-111.6677,48.349],[-111.7981,48.3903],[-111.9898,48.393],[-112.1787,48.474],[-112.2032,48.476],[-112.2156,48.48],[-112.313,48.4829],[-112.5756,48.4839],[-112.5781,48.3085],[-113.3559,48.31],[-113.2255,48.2291],[-113.2331,48.1685],[-112.9986,48.1286],[-112.1786,48.1308],[-111.9851,48.0445],[-111.9851,47.9841],[-111.41,47.9867],[-111.4087,48.1333]]]},"properties":{"GID_0":"USA","GID_1":"USA.27_1","GID_2":"USA.27.37_1","NAME_1":"Montana","NAME_2":"Pondera"}},
{"type":"Feature","geometry":{"type":"Polygon","coordinates":[[[-106.2648,44.9975],[-105.0392,44.9998],[-105.0378,45.3511],[-104.989,45.3519],[-104.9798,45.7861],[-106.111,45.7899],[-106.2357,45.7916],[-106.2332,45.3522],[-106.2767,45.3522],[-106.2739,45.1806],[-106.2648,44.9975]]]},"properties":{"GID_0":"USA","GID_1":"USA.27_1","GID_2":"USA.27.38_1","NAME_1":"Montana","NAME_2":"PowderRiver"}},
{"type":"Feature","geometry":{"type":"Polygon","coordinates":[[[-112.559,46.2697],[-112.4046,46.3888],[-112.3145,46.4198],[-112.2926,46.6058],[-112.413,46.7],[-112.5334,46.6973],[-112.5356,46.8354],[-112.7889,46.8305],[-112.7936,47.1758],[-113.0578,47.1789],[-113.0592,47.4883],[-113.1489,47.5998],[-113.4718,47.6011],[-113.4668,47.1827],[-113.3047,47.1819],[-113.3045,46.8338],[-113.2892,46.8332],[-113.2577,46.8246],[-113.2383,46.8048],[-113.1746,46.7547],[-113.1829,46.733],[-113.038,46.7376],[-113.0324,46.2645],[-112.559,46.2697]]]},"properties":{"GID_0":"USA","GID_1":"USA.27_1","GID_2":"USA.27.39_1","NAME_1":"Montana","NAME_2":"Powell"}},
{"type":"Feature","geometry":{"type":"Polygon","coordinates":[[[-104.7297,46.612],[-104.7299,46.6552],[-104.6039,46.6563],[-104.6031,46.8277],[-104.5997,46.8284],[-104.6003,46.8597],[-105.0283,46.86],[-105.0679,46.9186],[-105.1942,46.9194],[-105.1936,46.9773],[-105.3241,46.9767],[-105.3211,47.1826],[-105.8319,47.182],[-105.8308,47.0937],[-105.9575,47.0938],[-105.9574,47.1821],[-106.0876,47.1808],[-106.0872,46.86],[-105.8288,46.8606],[-105.6217,46.8314],[-105.5764,46.6566],[-105.4909,46.6576],[-105.4493,46.5698],[-105.238,46.5402],[-104.9814,46.5402],[-104.858,46.5673],[-104.8576,46.6114],[-104.7297,46.612]]]},"properties":{"GID_0":"USA","GID_1":"USA.27_1","GID_2":"USA.27.40_1","NAME_1":"Montana","NAME_2":"Prairie"}},
{"type":"Feature","geometry":{"type":"Polygon","coordinates":[[[-114.3343,46.6599],[-114.3446,46.5173],[-114.4203,46.3914],[-114.4603,46.0945],[-114.5062,46.0359],[-114.4128,45.9773],[-114.386,45.8863],[-114.4943,45.8521],[-114.5655,45.7773],[-114.5011,45.7186],[-114.5574,45.5708],[-114.4677,45.5647],[-114.3406,45.4595],[-114.2294,45.5474],[-114.1356,45.5586],[-113.9336,45.6942],[-113.9128,45.7465],[-113.7974,45.7622],[-113.6967,45.841],[-113.5791,45.8717],[-113.5305,45.8801],[-113.518,45.9353],[-113.5222,45.9417],[-113.6544,45.9698],[-113.7965,46.1528],[-113.7831,46.3612],[-113.8769,46.5061],[-113.8033,46.6203],[-113.8272,46.6601],[-114.1516,46.6619],[-114.3343,46.6599]]]},"properties":{"GID_0":"USA","GID_1":"USA.27_1","GID_2":"USA.27.41_1","NAME_1":"Montana","NAME_2":"Ravalli"}},
{"type":"Feature","geometry":{"type":"Polygon","coordinates":[[[-104.4094,47.3553],[-104.1281,47.3546],[-104.0431,47.3999],[-104.0448,48.0005],[-104.1416,48.0553],[-104.2388,48.0302],[-104.5481,48.1264],[-104.6782,48.1042],[-104.9227,48.1368],[-105.0493,48.075],[-105.0696,48.076],[-105.1586,48.0748],[-105.1767,48.0885],[-105.1663,48.096],[-105.1733,48.1033],[-105.1942,48.0655],[-105.1956,47.8669],[-105.2326,47.8674],[-105.2318,47.7037],[-104.9747,47.7029],[-104.976,47.6163],[-104.5921,47.6157],[-104.592,47.5286],[-104.5108,47.5279],[-104.5099,47.3551],[-104.4094,47.3553]]]},"properties":{"GID_0":"USA","GID_1":"USA.27_1","GID_2":"USA.27.42_1","NAME_1":"Montana","NAME_2":"Richland"}},
{"type":"Feature","geometry":{"type":"Polygon","coordinates":[[[-105.805,48.5642],[-105.8031,48.2173],[-105.8404,48.2171],[-105.8431,48.0105],[-105.606,48.0794],[-105.2398,48.0936],[-105.1942,48.0655],[-105.1733,48.1033],[-105.1663,48.096],[-105.1767,48.0885],[-105.1586,48.0748],[-105.0696,48.076],[-105.0493,48.075],[-104.9227,48.1368],[-104.6782,48.1042],[-104.5481,48.1264],[-104.2388,48.0302],[-104.1416,48.0553],[-104.0448,48.0005],[-104.0466,48.3892],[-104.6238,48.3897],[-104.6234,48.4762],[-104.7556,48.4766],[-104.7561,48.5621],[-105.2819,48.5651],[-105.805,48.5642]]]},"properties":{"GID_0":"USA","GID_1":"USA.27_1","GID_2":"USA.27.43_1","NAME_1":"Montana","NAME_2":"Roosevelt"}},
{"type":"Feature","geometry":{"type":"Polygon","coordinates":[[[-106.2739,45.1806],[-106.2767,45.3522],[-106.2332,45.3522],[-106.2357,45.7916],[-106.1933,45.7911],[-106.1912,46.136],[-106.1518,46.1362],[-106.154,46.4829],[-106.117,46.4836],[-106.1217,46.8308],[-106.0872,46.8311],[-106.0876,46.8453],[-106.717,46.8448],[-106.7168,46.859],[-107.4677,46.8593],[-107.8934,46.8515],[-107.8897,46.8476],[-107.8283,46.7596],[-107.8279,46.7502],[-107.7955,46.6835],[-107.7986,46.495],[-107.7531,46.4946],[-107.7536,46.4804],[-107.2791,46.4801],[-107.1525,46.4665],[-107.1521,46.3959],[-107.0288,46.3951],[-107.0076,46.1351],[-106.9354,46.1356],[-106.9365,45.8333],[-106.9105,45.6857],[-106.727,45.6789],[-106.724,45.3517],[-106.7634,45.1814],[-106.2739,45.1806]]]},"properties":{"GID_0":"USA","GID_1":"USA.27_1","GID_2":"USA.27.44_1","NAME_1":"Montana","NAME_2":"Rosebud"}},
{"type":"Feature","geometry":{"type":"Polygon","coordinates":[[[-116.0484,48.2155],[-116.0471,47.973],[-115.9003,47.8425],[-115.8314,47.7523],[-115.7254,47.7],[-115.6897,47.4875],[-115.6355,47.4774],[-115.2806,47.486],[-114.9692,47.374],[-114.9688,47.31],[-114.8423,47.2685],[-114.7815,47.2681],[-114.5552,47.251],[-114.3458,47.1761],[-114.2665,47.1199],[-114.1897,47.1409],[-114.2083,47.3514],[-114.3526,47.3939],[-114.3017,47.497],[-114.3487,47.5998],[-114.585,47.5994],[-114.6057,47.7462],[-114.6044,47.8748],[-114.9915,47.8744],[-115.0109,48.0176],[-115.134,47.9842],[-115.1918,47.9198],[-115.2856,47.8922],[-115.5608,47.9419],[-115.541,47.9906],[-115.551,48.0069],[-115.6381,48.0734],[-115.6743,48.205],[-115.7393,48.2612],[-115.7558,48.2638],[-115.7969,48.2243],[-116.019,48.158],[-116.0484,48.2155]]]},"properties":{"GID_0":"USA","GID_1":"USA.27_1","GID_2":"USA.27.45_1","NAME_1":"Montana","NAME_2":"Sanders"}},
{"type":"Feature","geometry":{"type":"Polygon","coordinates":[[[-105.0554,49.0002],[-105.039,48.9113],[-105.0393,48.6507],[-104.9709,48.5634],[-104.7561,48.5621],[-104.7556,48.4766],[-104.6234,48.4762],[-104.6238,48.3897],[-104.0466,48.3892],[-104.0496,49.0005],[-105.0554,49.0002]]]},"properties":{"GID_0":"USA","GID_1":"USA.27_1","GID_2":"USA.27.46_1","NAME_1":"Montana","NAME_2":"Sheridan"}},
{"type":"Feature","geometry":{"type":"Polygon","coordinates":[[[-112.6838,45.626],[-112.4618,45.7424],[-112.173,45.7485],[-112.423,45.8417],[-112.4397,46.0118],[-112.4436,46.0351],[-112.5134,46.1526],[-112.514,46.1723],[-112.5752,46.1774],[-112.7788,46.1384],[-112.9361,45.9896],[-112.9683,45.9029],[-113.0832,45.8651],[-113.0135,45.8188],[-112.7636,45.75],[-112.6838,45.626]]]},"properties":{"GID_0":"USA","GID_1":"USA.27_1","GID_2":"USA.27.47_1","NAME_1":"Montana","NAME_2":"SilverBow"}},
{"type":"Feature","geometry":{"type":"Polygon","coordinates":[[[-108.8431,45.611],[-108.9052,45.6831],[-108.9005,45.9613],[-108.9208,45.961],[-108.924,46.0476],[-108.9239,46.1328],[-109.4036,46.1324],[-109.4201,46.1312],[-109.4222,45.96],[-109.5073,45.9602],[-109.5628,45.7826],[-109.5574,45.6088],[-109.8057,45.5216],[-109.9318,45.5222],[-109.9314,45.3471],[-110.0565,45.3476],[-110.059,45.1758],[-109.7977,45.1729],[-109.7977,45.1665],[-109.6904,45.1668],[-109.6875,45.2444],[-109.4789,45.418],[-109.3548,45.4627],[-109.1904,45.464],[-109.0723,45.5816],[-108.9758,45.6163],[-108.8431,45.611]]]},"properties":{"GID_0":"USA","GID_1":"USA.27_1","GID_2":"USA.27.48_1","NAME_1":"Montana","NAME_2":"Stillwater"}},
{"type":"Feature","geometry":{"type":"Polygon","coordinates":[[[-109.6519,46.2198],[-110.1525,46.2207],[-110.2813,46.2228],[-110.2816,46.1348],[-110.2912,45.7852],[-110.2207,45.7842],[-110.2167,45.3494],[-110.2271,45.1763],[-110.059,45.1758],[-110.0565,45.3476],[-109.9314,45.3471],[-109.9318,45.5222],[-109.8057,45.5216],[-109.5574,45.6088],[-109.5628,45.7826],[-109.5073,45.9602],[-109.4222,45.96],[-109.4215,46.0447],[-109.6056,46.046],[-109.6497,46.1319],[-109.6519,46.2198]]]},"properties":{"GID_0":"USA","GID_1":"USA.27_1","GID_2":"USA.27.49_1","NAME_1":"Montana","NAME_2":"SweetGrass"}},
{"type":"Feature","geometry":{"type":"Polygon","coordinates":[[[-111.4093,47.6976],[-111.41,47.9867],[-111.9851,47.9841],[-111.9851,48.0445],[-112.1786,48.1308],[-112.9986,48.1286],[-112.9403,48.0347],[-112.9111,48.0301],[-112.9784,47.9538],[-112.989,47.9495],[-112.982,47.9422],[-112.9762,47.9327],[-112.9755,47.9129],[-112.955,47.9068],[-112.9142,47.8246],[-112.9161,47.6952],[-112.7736,47.5973],[-112.5511,47.6514],[-112.4254,47.603],[-112.4058,47.5531],[-112.2751,47.5043],[-112.0448,47.5167],[-111.9218,47.5005],[-111.9235,47.6095],[-111.6672,47.6101],[-111.6647,47.6975],[-111.4093,47.6976]]]},"properties":{"GID_0":"USA","GID_1":"USA.27_1","GID_2":"USA.27.50_1","NAME_1":"Montana","NAME_2":"Teton"}},
{"type":"Feature","geometry":{"type":"Polygon","coordinates":[[[-111.2688,49],[-111.3413,49.0001],[-112.1912,49.0001],[-112.1964,48.9131],[-112.1849,48.4753],[-112.1787,48.474],[-111.9898,48.393],[-111.7981,48.3903],[-111.6677,48.349],[-111.6687,48.218],[-111.2744,48.2194],[-111.2688,49]]]},"properties":{"GID_0":"USA","GID_1":"USA.27_1","GID_2":"USA.27.51_1","NAME_1":"Montana","NAME_2":"Toole"}},
{"type":"Feature","geometry":{"type":"Polygon","coordinates":[[[-106.9371,45.8709],[-106.9354,46.1356],[-107.0076,46.1351],[-107.0288,46.3951],[-107.1521,46.3959],[-107.1525,46.4665],[-107.2791,46.4801],[-107.7371,46.4805],[-107.7384,46.4672],[-107.7205,46.4678],[-107.7185,46.4375],[-107.698,46.4068],[-107.6142,46.3487],[-107.6135,46.3051],[-107.468,46.1769],[-107.5121,46.0427],[-107.4269,46.0422],[-107.4243,45.9579],[-107.176,45.9594],[-106.9371,45.8709]]]},"properties":{"GID_0":"USA","GID_1":"USA.27_1","GID_2":"USA.27.52_1","NAME_1":"Montana","NAME_2":"Treasure"}},
{"type":"Feature","geometry":{"type":"Polygon","coordinates":[[[-107.1758,49.0001],[-107.205,48.9139],[-107.2049,48.569],[-107.304,48.4813],[-107.2597,48.3062],[-107.3683,48.3064],[-107.4023,48.2204],[-107.4142,47.6917],[-107.2499,47.6614],[-106.927,47.6697],[-106.8968,47.6747],[-106.8675,47.7354],[-106.5643,47.8152],[-106.507,47.9518],[-106.4992,47.9597],[-106.4621,47.9648],[-106.4511,47.9808],[-106.4315,47.98],[-106.4223,47.9537],[-106.4136,47.9721],[-106.3749,48.0656],[-106.231,48.0268],[-106.0432,48.0086],[-106.0138,48.0059],[-106.0101,48.0152],[-105.8431,48.0105],[-105.8404,48.2171],[-105.8031,48.2173],[-105.805,48.5642],[-106.0205,48.5639],[-106.0222,48.8234],[-106.1503,48.8232],[-106.1121,48.9104],[-106.108,49.0001],[-107.1758,49.0001]]]},"properties":{"GID_0":"USA","GID_1":"USA.27_1","GID_2":"USA.27.53_1","NAME_1":"Montana","NAME_2":"Valley"}},
{"type":"Feature","geometry":{"type":"Polygon","coordinates":[[[-109.7457,46.6934],[-109.8238,46.6938],[-109.9702,46.7522],[-110.2731,46.709],[-110.2811,46.488],[-110.2813,46.2228],[-110.1525,46.2207],[-109.4009,46.2185],[-109.3857,46.6937],[-109.7457,46.6934]]]},"properties":{"GID_0":"USA","GID_1":"USA.27_1","GID_2":"USA.27.54_1","NAME_1":"Montana","NAME_2":"Wheatland"}},
{"type":"Feature","geometry":{"type":"Polygon","coordinates":[[[-104.6003,46.8597],[-104.5997,46.8284],[-104.6031,46.8277],[-104.6033,46.6847],[-104.4185,46.6836],[-104.3523,46.6392],[-104.0448,46.6403],[-104.0431,47.3999],[-104.1281,47.3546],[-104.4094,47.3553],[-104.3435,47.2446],[-104.3044,47.0431],[-104.4309,46.8864],[-104.4966,46.8594],[-104.6003,46.8597]]]},"properties":{"GID_0":"USA","GID_1":"USA.27_1","GID_2":"USA.27.55_1","NAME_1":"Montana","NAME_2":"Wibaux"}},
{"type":"Feature","geometry":{"type":"Polygon","coordinates":[[[-107.5121,46.0427],[-107.468,46.1769],[-107.6135,46.3051],[-107.6142,46.3487],[-107.698,46.4068],[-107.7185,46.4375],[-107.7205,46.4678],[-107.7384,46.4672],[-107.7371,46.4805],[-107.7536,46.4804],[-107.7531,46.4946],[-107.7781,46.4951],[-107.7829,46.3948],[-107.9299,46.3935],[-108.0099,46.3358],[-108.0271,46.2624],[-108.3197,46.2632],[-108.4035,46.2352],[-108.4035,46.1326],[-108.9239,46.1328],[-108.924,46.0476],[-108.9208,45.961],[-108.9005,45.9613],[-108.9052,45.6831],[-108.8431,45.611],[-108.6954,45.4638],[-108.4413,45.4652],[-108.3121,45.4613],[-108.0637,45.5201],[-108.0684,45.7842],[-108.0452,45.9],[-107.8816,45.9002],[-107.7976,45.9873],[-107.6725,45.9871],[-107.6708,46.0429],[-107.5121,46.0427]]]},"properties":{"GID_0":"USA","GID_1":"USA.27_1","GID_2":"USA.27.56_1","NAME_1":"Montana","NAME_2":"Yellowstone"}}
]}