{"type":"FeatureCollection", "features": [
{"type":"Feature","geometry":{"type":"Polygon","coordinates":[[[-70.4807,44.0319],[-70.4819,44.0292],[-70.4491,44.0095],[-70.4447,44.0127],[-70.4022,43.9904],[-70.3955,44.0032],[-70.364,43.9862],[-70.3154,44.0378],[-70.2033,43.9545],[-70.2032,43.9482],[-70.1161,43.9066],[-70.0924,43.9318],[-70.0809,43.926],[-70.034,43.976],[-70.052,43.9909],[-70.0266,44.0335],[-70.0268,44.0462],[-70.0057,44.1243],[-70.0274,44.1305],[-70.0189,44.1579],[-69.9993,44.1667],[-69.9938,44.1809],[-70.0602,44.1918],[-70.0758,44.2062],[-70.0747,44.2988],[-70.0993,44.3195],[-70.1008,44.3346],[-70.1321,44.3717],[-70.122,44.3809],[-70.101,44.3838],[-70.1295,44.4871],[-70.2011,44.4782],[-70.2747,44.4406],[-70.2684,44.4165],[-70.2786,44.4151],[-70.2649,44.3632],[-70.2906,44.3019],[-70.3251,44.2085],[-70.3341,44.2107],[-70.4851,44.0606],[-70.4807,44.0319]]]},"properties":{"GID_0":"USA","GID_1":"USA.20_1","GID_2":"USA.20.1_1","NAME_1":"Maine","NAME_2":"Androscoggin"}},
{"type":"Feature","geometry":{"type":"Polygon","coordinates":[[[-67.8048,45.6785],[-67.8022,45.6947],[-67.8085,45.7233],[-67.7825,45.7309],[-67.8047,45.7846],[-67.802,45.8014],[-67.7617,45.8257],[-67.7687,45.8382],[-67.7912,45.8562],[-67.8027,45.8737],[-67.787,45.8941],[-67.7715,45.8972],[-67.7535,45.9172],[-67.7579,45.9264],[-67.7786,45.9362],[-67.781,45.9457],[-67.7818,46.2261],[-67.7839,46.6017],[-67.7836,47.0632],[-67.8893,47.1106],[-67.8909,47.1256],[-67.9099,47.1472],[-67.9272,47.1549],[-67.958,47.2003],[-67.9905,47.2103],[-68.0152,47.2336],[-68.0497,47.2524],[-68.0763,47.2618],[-68.083,47.2711],[-68.1171,47.2858],[-68.1518,47.3078],[-68.1543,47.3225],[-68.2438,47.3526],[-68.2837,47.3599],[-68.3291,47.3598],[-68.3631,47.354],[-68.3813,47.338],[-68.3805,47.2874],[-68.4313,47.2826],[-68.4546,47.285],[-68.4752,47.297],[-68.5193,47.2962],[-68.5495,47.2825],[-68.5804,47.2869],[-68.5976,47.268],[-68.5977,47.2565],[-68.6124,47.246],[-68.6619,47.2369],[-68.6893,47.2428],[-68.7352,47.2346],[-68.7513,47.2251],[-68.8158,47.2119],[-68.8505,47.1952],[-68.8815,47.1863],[-68.8975,47.1766],[-68.9209,47.1958],[-68.9667,47.213],[-69.0405,47.2439],[-69.0498,47.2586],[-69.0433,47.2855],[-69.0547,47.3146],[-69.054,47.3627],[-69.0443,47.4028],[-69.035,47.4087],[-69.0617,47.4349],[-69.0744,47.4276],[-69.0992,47.4294],[-69.1224,47.4431],[-69.161,47.4472],[-69.1786,47.4569],[-69.203,47.4516],[-69.2218,47.4576],[-69.2623,47.4259],[-69.2738,47.4115],[-69.392,47.2984],[-69.6978,46.9954],[-69.8124,46.8787],[-69.9609,46.7342],[-69.9971,46.6958],[-70.0221,46.5736],[-69.2049,46.5731],[-69.0788,46.5718],[-68.8225,46.5727],[-68.8216,46.3958],[-68.6951,46.3951],[-68.6945,46.3818],[-68.5068,46.3831],[-68.4363,46.3819],[-68.4379,46.043],[-68.4327,46.0352],[-68.4315,45.9519],[-68.4271,45.9313],[-68.4279,45.7597],[-68.4318,45.7597],[-68.4327,45.5796],[-68.4126,45.5726],[-68.2568,45.597],[-68.2547,45.6062],[-67.9146,45.6619],[-67.8995,45.6723],[-67.8741,45.6695],[-67.8048,45.6785]]]},"properties":{"GID_0":"USA","GID_1":"USA.20_1","GID_2":"USA.20.2_1","NAME_1":"Maine","NAME_2":"Aroostook"}},
{"type":"Feature","geometry":{"type":"MultiPolygon","coordinates":[[[[-70.1342,43.7029],[-70.1689,43.6897],[-70.1594,43.6781],[-70.1342,43.7029]]],[[[-70.1019,43.7425],[-70.1083,43.7517],[-70.1283,43.7453],[-70.1393,43.7256],[-70.1201,43.7128],[-70.1019,43.7425]]],[[[-69.8958,43.8542],[-69.9081,43.8583],[-69.9256,43.8464],[-69.9278,43.8389],[-69.9428,43.8322],[-69.9525,43.8156],[-69.9425,43.8014],[-69.9744,43.7758],[-70.0008,43.7323],[-69.9928,43.7314],[-69.9786,43.7564],[-69.9542,43.7728],[-69.9364,43.7747],[-69.9144,43.8236],[-69.9019,43.8092],[-69.9181,43.7964],[-69.8947,43.7883],[-69.879,43.8164],[-69.8875,43.8261],[-69.8857,43.8502],[-69.8958,43.8542]]],[[[-70.4491,44.0095],[-70.4819,44.0292],[-70.4807,44.0319],[-70.5089,44.0416],[-70.5443,44.0061],[-70.5645,44.025],[-70.5809,44.018],[-70.6143,44.0622],[-70.6053,44.0856],[-70.607,44.1006],[-70.5897,44.1227],[-70.5991,44.1449],[-70.6246,44.171],[-70.6963,44.1346],[-70.7003,44.1391],[-70.8222,44.0773],[-70.859,44.0946],[-70.8668,44.0799],[-70.8486,44.0491],[-70.7897,44.0395],[-70.7156,43.9621],[-70.7482,43.9457],[-70.7299,43.9287],[-70.7579,43.9055],[-70.755,43.8887],[-70.7653,43.8717],[-70.7819,43.8738],[-70.8017,43.8562],[-70.7835,43.8141],[-70.7664,43.792],[-70.7334,43.7897],[-70.7152,43.7986],[-70.6701,43.7942],[-70.6558,43.7798],[-70.6445,43.7562],[-70.646,43.7403],[-70.6593,43.7141],[-70.6513,43.6992],[-70.6293,43.7045],[-70.6061,43.6875],[-70.5956,43.6972],[-70.5783,43.6874],[-70.5505,43.7159],[-70.4577,43.6423],[-70.4924,43.6069],[-70.4444,43.581],[-70.3535,43.5351],[-70.3087,43.544],[-70.2728,43.5625],[-70.2444,43.5522],[-70.23,43.5633],[-70.2156,43.5568],[-70.1972,43.565],[-70.2145,43.5909],[-70.2155,43.6061],[-70.2079,43.6237],[-70.2181,43.628],[-70.2265,43.6503],[-70.2506,43.6883],[-70.1956,43.7392],[-70.1956,43.7675],[-70.1531,43.7747],[-70.1367,43.7981],[-70.0814,43.82],[-70.0667,43.8203],[-70.0458,43.8325],[-70.02,43.8589],[-69.9914,43.8613],[-69.9786,43.8533],[-69.9537,43.849],[-69.9766,43.8272],[-70.0352,43.7566],[-70.0088,43.7447],[-70.0077,43.763],[-69.9904,43.7752],[-69.9792,43.7997],[-69.9568,43.8127],[-69.9476,43.8281],[-69.9511,43.8364],[-69.9306,43.8408],[-69.9158,43.8606],[-69.8978,43.8731],[-69.8711,43.9078],[-69.8576,43.9445],[-69.8672,43.9497],[-69.9186,43.9114],[-69.9331,43.9103],[-69.9578,43.9225],[-69.9785,43.9149],[-70.0267,43.9588],[-70.034,43.976],[-70.0809,43.926],[-70.0924,43.9318],[-70.1161,43.9066],[-70.2032,43.9482],[-70.2033,43.9545],[-70.3154,44.0378],[-70.364,43.9862],[-70.3955,44.0032],[-70.4022,43.9904],[-70.4447,44.0127],[-70.4491,44.0095]]]]},"properties":{"GID_0":"USA","GID_1":"USA.20_1","GID_2":"USA.20.3_1","NAME_1":"Maine","NAME_2":"Cumberland"}},
{"type":"Feature","geometry":{"type":"Polygon","coordinates":[[[-70.5523,45.6665],[-70.5818,45.646],[-70.6181,45.6127],[-70.6459,45.6041],[-70.679,45.5697],[-70.6805,45.557],[-70.7184,45.5127],[-70.711,45.5027],[-70.7158,45.4876],[-70.6967,45.4759],[-70.6785,45.4533],[-70.6523,45.444],[-70.636,45.4118],[-70.626,45.4018],[-70.6367,45.384],[-70.6572,45.3772],[-70.6823,45.3943],[-70.7192,45.3943],[-70.7411,45.4095],[-70.7591,45.429],[-70.7961,45.4294],[-70.8233,45.403],[-70.8066,45.3211],[-70.8158,45.3019],[-70.8346,45.2957],[-70.8348,45.279],[-70.816,45.1805],[-70.78,45.0184],[-70.8238,45.0142],[-70.8046,44.925],[-70.7962,44.926],[-70.774,44.84],[-70.7692,44.7324],[-70.6152,44.7955],[-70.5111,44.627],[-70.5505,44.6105],[-70.2809,44.5696],[-70.3079,44.5379],[-70.29,44.5403],[-70.281,44.5053],[-70.2509,44.5038],[-70.2392,44.4592],[-70.2011,44.4782],[-70.1295,44.4871],[-70.0437,44.485],[-70.03,44.5084],[-70.0719,44.529],[-70.0701,44.5364],[-70.0443,44.5676],[-70.0395,44.5891],[-69.9534,44.5746],[-69.9282,44.604],[-69.9474,44.6477],[-69.9604,44.6608],[-69.9601,44.6809],[-69.996,44.6774],[-70.0145,44.7567],[-70.0023,44.7581],[-70.004,44.7882],[-70.0162,44.7868],[-70.0335,44.8642],[-70.1318,44.8516],[-70.1514,44.9422],[-70.1096,44.9471],[-70.1275,45.0182],[-70.1597,45.1284],[-70.2945,45.1099],[-70.3084,45.1618],[-70.3652,45.1567],[-70.3638,45.1516],[-70.4193,45.1451],[-70.485,45.3957],[-70.5159,45.5],[-70.5058,45.5134],[-70.5345,45.6027],[-70.5523,45.6665]]]},"properties":{"GID_0":"USA","GID_1":"USA.20_1","GID_2":"USA.20.4_1","NAME_1":"Maine","NAME_2":"Franklin"}},
{"type":"Feature","geometry":{"type":"MultiPolygon","coordinates":[[[[-68.4967,44.1089],[-68.5033,44.1289],[-68.5189,44.1152],[-68.4967,44.1089]]],[[[-68.6594,44.2692],[-68.6775,44.2669],[-68.6925,44.2542],[-68.7131,44.2119],[-68.7142,44.1708],[-68.6967,44.1553],[-68.6758,44.1492],[-68.6464,44.1558],[-68.6211,44.1789],[-68.6481,44.1825],[-68.6589,44.2111],[-68.6656,44.2147],[-68.6467,44.2161],[-68.6414,44.2183],[-68.6289,44.2189],[-68.6106,44.245],[-68.6253,44.2589],[-68.6594,44.2692]]],[[[-68.7194,44.3014],[-68.7444,44.3008],[-68.7111,44.2736],[-68.6856,44.2825],[-68.7094,44.3],[-68.7194,44.3014]]],[[[-68.3453,44.1269],[-68.3747,44.1177],[-68.3513,44.1048],[-68.3379,44.1194],[-68.3453,44.1269]]],[[[-68.4122,44.1839],[-68.4408,44.1644],[-68.4556,44.1831],[-68.4803,44.1594],[-68.4592,44.155],[-68.4508,44.1417],[-68.4139,44.1303],[-68.3914,44.1428],[-68.3888,44.1583],[-68.4122,44.1839]]],[[[-68.3108,44.4436],[-68.3323,44.4273],[-68.36,44.4264],[-68.3683,44.4169],[-68.3556,44.4003],[-68.3608,44.3872],[-68.3983,44.3758],[-68.3933,44.3672],[-68.4172,44.3456],[-68.4056,44.3378],[-68.4092,44.3224],[-68.4317,44.3097],[-68.4156,44.2858],[-68.4072,44.2581],[-68.3556,44.2436],[-68.3397,44.2222],[-68.3167,44.2244],[-68.2905,44.2495],[-68.2992,44.2672],[-68.3253,44.2711],[-68.3119,44.3211],[-68.3267,44.3636],[-68.3058,44.3589],[-68.3025,44.3431],[-68.3067,44.3169],[-68.2944,44.2867],[-68.2247,44.2903],[-68.1942,44.3074],[-68.1742,44.3367],[-68.1856,44.3706],[-68.2014,44.3914],[-68.215,44.3908],[-68.2506,44.4147],[-68.2494,44.4344],[-68.2697,44.4397],[-68.2928,44.4311],[-68.3108,44.4436]]],[[[-68.5839,44.215],[-68.5969,44.2069],[-68.58,44.185],[-68.5642,44.1956],[-68.5839,44.215]]],[[[-68.6031,44.2158],[-68.6114,44.2136],[-68.6225,44.2164],[-68.6506,44.2153],[-68.6539,44.2083],[-68.6214,44.1992],[-68.6031,44.2158]]],[[[-68.4978,44.3675],[-68.5003,44.3783],[-68.52,44.3781],[-68.5214,44.3564],[-68.5331,44.3306],[-68.5261,44.3236],[-68.5017,44.3236],[-68.4878,44.3317],[-68.4903,44.3544],[-68.4978,44.3675]]],[[[-68.4206,44.3642],[-68.4336,44.3714],[-68.4572,44.3447],[-68.4286,44.3284],[-68.4306,44.3447],[-68.4206,44.3642]]],[[[-68.8073,44.5259],[-68.8067,44.5021],[-68.7783,44.4922],[-68.7844,44.4742],[-68.7828,44.4556],[-68.7975,44.4511],[-68.8006,44.4358],[-68.8161,44.4281],[-68.8225,44.4075],[-68.8208,44.3828],[-68.81,44.3808],[-68.7708,44.4108],[-68.7653,44.4278],[-68.7361,44.4342],[-68.7233,44.4278],[-68.7294,44.4153],[-68.7594,44.4247],[-68.7783,44.3831],[-68.7594,44.3694],[-68.7756,44.3611],[-68.7878,44.3703],[-68.8131,44.3528],[-68.8261,44.3336],[-68.8278,44.3119],[-68.7933,44.3081],[-68.7594,44.3317],[-68.7328,44.3264],[-68.6658,44.2931],[-68.6269,44.2861],[-68.6056,44.2758],[-68.5763,44.2541],[-68.523,44.2364],[-68.5397,44.2622],[-68.5203,44.2664],[-68.535,44.2903],[-68.5486,44.2911],[-68.5667,44.3169],[-68.5628,44.3336],[-68.545,44.3556],[-68.5686,44.3969],[-68.5597,44.4058],[-68.5289,44.3983],[-68.5156,44.415],[-68.4975,44.4167],[-68.4872,44.445],[-68.4731,44.4033],[-68.4567,44.4133],[-68.4711,44.44],[-68.4578,44.4528],[-68.4683,44.4678],[-68.4675,44.4936],[-68.4497,44.4844],[-68.4228,44.4964],[-68.4219,44.4717],[-68.4294,44.4653],[-68.4258,44.4375],[-68.4319,44.4308],[-68.4295,44.4089],[-68.4175,44.3969],[-68.3922,44.4178],[-68.3922,44.4361],[-68.3669,44.4318],[-68.3456,44.4536],[-68.3303,44.4497],[-68.3225,44.4628],[-68.2978,44.4497],[-68.2722,44.4592],[-68.2622,44.49],[-68.23,44.4631],[-68.2267,44.4936],[-68.2125,44.5159],[-68.2794,44.5447],[-68.2547,44.5675],[-68.2517,44.5403],[-68.2117,44.5197],[-68.2008,44.5206],[-68.1983,44.4944],[-68.1803,44.475],[-68.1606,44.5031],[-68.1381,44.4878],[-68.1339,44.4761],[-68.1144,44.4808],[-68.12,44.4575],[-68.1144,44.4075],[-68.1014,44.3936],[-68.1042,44.3833],[-68.0928,44.3711],[-68.0781,44.37],[-68.0764,44.3472],[-68.0591,44.3329],[-68.0456,44.3384],[-68.0456,44.361],[-68.028,44.3686],[-68.0191,44.3984],[-68,44.4069],[-67.9917,44.3919],[-67.9781,44.3897],[-67.9614,44.4069],[-67.9822,44.4419],[-68.0131,44.4461],[-68.0253,44.4628],[-68.0128,44.4689],[-67.9919,44.4636],[-67.9786,44.4831],[-67.9794,44.4969],[-67.9927,44.5031],[-68.0171,44.5891],[-67.9933,44.5925],[-68.0158,44.6766],[-68.0345,44.674],[-68.1061,44.9397],[-67.9828,44.9557],[-67.9919,44.9913],[-68.0202,45.1271],[-68.0559,45.2553],[-68.1805,45.2369],[-68.303,45.2216],[-68.27,45.1004],[-68.3968,45.0837],[-68.375,44.9982],[-68.5022,44.9814],[-68.4902,44.9448],[-68.446,44.7639],[-68.6171,44.7408],[-68.6475,44.7039],[-68.6911,44.7218],[-68.7265,44.6959],[-68.744,44.6608],[-68.7716,44.6641],[-68.7985,44.6888],[-68.8158,44.6838],[-68.8229,44.671],[-68.8519,44.6409],[-68.8597,44.6044],[-68.8372,44.6003],[-68.8033,44.567],[-68.8073,44.5259]]]]},"properties":{"GID_0":"USA","GID_1":"USA.20_1","GID_2":"USA.20.5_1","NAME_1":"Maine","NAME_2":"Hancock"}},
{"type":"Feature","geometry":{"type":"Polygon","coordinates":[[[-70.0057,44.1243],[-69.8978,44.1082],[-69.8818,44.1493],[-69.8559,44.1682],[-69.764,44.1533],[-69.7588,44.1451],[-69.7588,44.1396],[-69.6567,44.1224],[-69.666,44.2276],[-69.6505,44.2801],[-69.5476,44.261],[-69.5216,44.2807],[-69.5074,44.3427],[-69.4456,44.4638],[-69.3956,44.4571],[-69.3724,44.5447],[-69.4173,44.5509],[-69.3935,44.64],[-69.4603,44.647],[-69.4559,44.6626],[-69.4431,44.6722],[-69.4759,44.6771],[-69.4779,44.6921],[-69.4721,44.6931],[-69.4704,44.7182],[-69.4839,44.7204],[-69.6334,44.7006],[-69.628,44.671],[-69.5788,44.6247],[-69.5934,44.6032],[-69.5913,44.584],[-69.606,44.5771],[-69.7357,44.597],[-69.7762,44.6082],[-69.7932,44.5775],[-69.8189,44.5815],[-69.823,44.6047],[-69.8533,44.6214],[-69.9308,44.6108],[-69.9282,44.604],[-69.9534,44.5746],[-70.0395,44.5891],[-70.0443,44.5676],[-70.0701,44.5364],[-70.0719,44.529],[-70.03,44.5084],[-70.0437,44.485],[-70.1295,44.4871],[-70.101,44.3838],[-70.122,44.3809],[-70.1321,44.3717],[-70.1008,44.3346],[-70.0993,44.3195],[-70.0747,44.2988],[-70.0758,44.2062],[-70.0602,44.1918],[-69.9938,44.1809],[-69.9993,44.1667],[-70.0189,44.1579],[-70.0274,44.1305],[-70.0057,44.1243]]]},"properties":{"GID_0":"USA","GID_1":"USA.20_1","GID_2":"USA.20.6_1","NAME_1":"Maine","NAME_2":"Kennebec"}},
{"type":"Feature","geometry":{"type":"MultiPolygon","coordinates":[[[[-68.6167,44.0878],[-68.6517,44.065],[-68.6611,44.0172],[-68.655,44.0072],[-68.6272,44.0214],[-68.6125,44.0206],[-68.6042,44.0386],[-68.6011,44.0867],[-68.6167,44.0878]]],[[[-68.8694,44.1217],[-68.8983,44.1239],[-68.9094,44.1125],[-68.9033,44.0867],[-68.8853,44.0856],[-68.8631,44.07],[-68.87,44.0506],[-68.8294,44.0322],[-68.805,44.0367],[-68.8061,44.0456],[-68.7839,44.0572],[-68.7806,44.085],[-68.8011,44.0778],[-68.8297,44.0814],[-68.8303,44.0903],[-68.8497,44.0986],[-68.8694,44.1217]]],[[[-68.8381,44.1153],[-68.8431,44.0989],[-68.8289,44.0903],[-68.8075,44.1047],[-68.8194,44.1233],[-68.8381,44.1153]]],[[[-68.8228,44.185],[-68.8433,44.1853],[-68.8886,44.1594],[-68.9175,44.1481],[-68.9244,44.1272],[-68.8928,44.1314],[-68.86,44.1281],[-68.8189,44.1622],[-68.8228,44.185]]],[[[-69.2909,44.0713],[-69.3618,43.9956],[-69.3679,43.9656],[-69.3028,43.978],[-69.3131,43.9656],[-69.2857,43.9583],[-69.2876,43.9748],[-69.2585,43.9844],[-69.2475,44.0053],[-69.2186,44.0162],[-69.1944,44.0509],[-69.1876,44.0386],[-69.2075,44.0253],[-69.2156,44.0046],[-69.2306,43.9976],[-69.2375,43.9811],[-69.2516,43.9838],[-69.2733,43.9361],[-69.26,43.9308],[-69.2135,43.9361],[-69.1908,43.9589],[-69.1907,43.9791],[-69.1649,44.0027],[-69.1352,44.0026],[-69.1296,44.0166],[-69.1136,44.0328],[-69.073,44.0466],[-69.0792,44.0553],[-69.0585,44.0695],[-69.0571,44.0953],[-69.0967,44.0839],[-69.1069,44.0907],[-69.0952,44.1198],[-69.0813,44.1149],[-69.0772,44.135],[-69.0808,44.1572],[-69.0706,44.182],[-69.0514,44.196],[-69.0606,44.2069],[-69.0279,44.2487],[-69.0429,44.2594],[-69.1214,44.2557],[-69.2698,44.3648],[-69.3462,44.3081],[-69.3943,44.3422],[-69.4045,44.3326],[-69.4165,44.3216],[-69.437,44.3247],[-69.4516,44.3138],[-69.4406,44.2846],[-69.45,44.2622],[-69.4332,44.2267],[-69.4038,44.2191],[-69.4063,44.2104],[-69.375,44.2055],[-69.3381,44.2097],[-69.3039,44.1332],[-69.2909,44.0713]]]]},"properties":{"GID_0":"USA","GID_1":"USA.20_1","GID_2":"USA.20.7_1","NAME_1":"Maine","NAME_2":"Knox"}},
{"type":"Feature","geometry":{"type":"MultiPolygon","coordinates":[[[[-69.3822,43.9989],[-69.3996,43.9842],[-69.3844,43.9742],[-69.3822,43.9989]]],[[[-69.6661,43.8479],[-69.6875,43.8261],[-69.679,43.8068],[-69.6525,43.7877],[-69.6519,43.8389],[-69.6661,43.8479]]],[[[-69.6668,43.9148],[-69.6819,43.9061],[-69.6875,43.8886],[-69.6674,43.8852],[-69.6668,43.9148]]],[[[-69.6692,43.9614],[-69.6836,43.9581],[-69.7103,43.9132],[-69.7291,43.9058],[-69.7314,43.8903],[-69.7203,43.8528],[-69.7098,43.8545],[-69.6994,43.8722],[-69.692,43.9057],[-69.6938,43.9184],[-69.6759,43.9282],[-69.6692,43.9614]]],[[[-69.5476,44.261],[-69.6505,44.2801],[-69.666,44.2276],[-69.6567,44.1224],[-69.7588,44.1396],[-69.7611,44.1268],[-69.7742,44.0994],[-69.7856,44.0884],[-69.7666,44.0475],[-69.7977,44.0346],[-69.8007,44.0241],[-69.7007,44.0069],[-69.72,43.9717],[-69.7227,43.9553],[-69.7182,43.9317],[-69.6937,43.9485],[-69.6754,43.9721],[-69.6632,44.0032],[-69.6485,43.9939],[-69.6643,43.9651],[-69.6725,43.9408],[-69.6713,43.9272],[-69.6528,43.9278],[-69.6631,43.9033],[-69.6606,43.8836],[-69.6714,43.8769],[-69.6714,43.8567],[-69.6514,43.8422],[-69.6267,43.85],[-69.618,43.8461],[-69.5726,43.8526],[-69.5918,43.8739],[-69.5787,43.8759],[-69.5539,43.8653],[-69.5589,43.8922],[-69.549,43.905],[-69.5339,43.9083],[-69.5406,43.8826],[-69.5247,43.8772],[-69.5136,43.8448],[-69.5022,43.8389],[-69.4786,43.8869],[-69.4593,43.903],[-69.4558,43.9226],[-69.4412,43.9654],[-69.4196,43.9798],[-69.3935,44.0037],[-69.3919,44.0179],[-69.3706,44.0347],[-69.375,44.0629],[-69.3607,44.0598],[-69.3409,44.0431],[-69.3709,44.0203],[-69.3539,44.0167],[-69.3547,44.0042],[-69.2909,44.0713],[-69.3039,44.1332],[-69.3381,44.2097],[-69.375,44.2055],[-69.4063,44.2104],[-69.4038,44.2191],[-69.4332,44.2267],[-69.45,44.2622],[-69.4406,44.2846],[-69.4516,44.3138],[-69.437,44.3247],[-69.4165,44.3216],[-69.4095,44.328],[-69.5074,44.3427],[-69.5216,44.2807],[-69.5476,44.261]]]]},"properties":{"GID_0":"USA","GID_1":"USA.20_1","GID_2":"USA.20.8_1","NAME_1":"Maine","NAME_2":"Lincoln"}},
{"type":"Feature","geometry":{"type":"Polygon","coordinates":[[[-70.8348,45.279],[-70.8452,45.2663],[-70.8445,45.2447],[-70.8687,45.231],[-70.8929,45.2439],[-70.8953,45.2545],[-70.9179,45.2868],[-70.9126,45.3003],[-70.9234,45.3181],[-70.9566,45.3426],[-70.9791,45.335],[-71.0096,45.3462],[-71.0055,45.3309],[-71.0246,45.3174],[-71.0598,45.3151],[-71.0818,45.3064],[-71.0741,45.2211],[-71.031,44.6575],[-71.0258,44.5243],[-71.0079,44.2451],[-71.0027,44.1103],[-70.9944,43.9723],[-70.9862,43.793],[-70.9716,43.785],[-70.9426,43.7927],[-70.928,43.7902],[-70.9131,43.8009],[-70.8798,43.8109],[-70.853,43.8049],[-70.7835,43.8141],[-70.8017,43.8562],[-70.7819,43.8738],[-70.7653,43.8717],[-70.755,43.8887],[-70.7579,43.9055],[-70.7299,43.9287],[-70.7482,43.9457],[-70.7156,43.9621],[-70.7897,44.0395],[-70.8486,44.0491],[-70.8668,44.0799],[-70.859,44.0946],[-70.8222,44.0773],[-70.7003,44.1391],[-70.6963,44.1346],[-70.6246,44.171],[-70.5991,44.1449],[-70.5897,44.1227],[-70.607,44.1006],[-70.6053,44.0856],[-70.6143,44.0622],[-70.5809,44.018],[-70.5645,44.025],[-70.5443,44.0061],[-70.5089,44.0416],[-70.4807,44.0319],[-70.4851,44.0606],[-70.3341,44.2107],[-70.3251,44.2085],[-70.2906,44.3019],[-70.2649,44.3632],[-70.2786,44.4151],[-70.2684,44.4165],[-70.2747,44.4406],[-70.2392,44.4592],[-70.2509,44.5038],[-70.281,44.5053],[-70.29,44.5403],[-70.3079,44.5379],[-70.2809,44.5696],[-70.5505,44.6105],[-70.5111,44.627],[-70.6152,44.7955],[-70.7692,44.7324],[-70.774,44.84],[-70.7962,44.926],[-70.8046,44.925],[-70.8238,45.0142],[-70.78,45.0184],[-70.816,45.1805],[-70.8348,45.279]]]},"properties":{"GID_0":"USA","GID_1":"USA.20_1","GID_2":"USA.20.9_1","NAME_1":"Maine","NAME_2":"Oxford"}},
{"type":"Feature","geometry":{"type":"Polygon","coordinates":[[[-68.8196,46.3958],[-68.8255,45.6844],[-68.9597,45.6621],[-68.9507,45.6356],[-68.952,45.5812],[-68.9644,45.5126],[-68.8577,45.5267],[-68.7761,45.2401],[-68.881,45.2247],[-68.8566,45.143],[-68.9775,45.127],[-69.0531,45.1147],[-69.2049,45.0936],[-69.356,45.0736],[-69.2819,44.8122],[-69.2864,44.8081],[-69.2674,44.7219],[-69.2051,44.7298],[-69.1837,44.6441],[-68.9038,44.6907],[-68.8389,44.6934],[-68.8158,44.6838],[-68.7985,44.6888],[-68.7716,44.6641],[-68.744,44.6608],[-68.7265,44.6959],[-68.6911,44.7218],[-68.6475,44.7039],[-68.6171,44.7408],[-68.446,44.7639],[-68.4902,44.9448],[-68.5022,44.9814],[-68.375,44.9982],[-68.3968,45.0837],[-68.27,45.1004],[-68.303,45.2216],[-68.1805,45.2369],[-68.0559,45.2553],[-67.9995,45.2595],[-67.9392,45.2673],[-67.9663,45.352],[-67.9547,45.3537],[-67.9938,45.4664],[-68.0479,45.6401],[-68.2547,45.6062],[-68.2568,45.597],[-68.4126,45.5726],[-68.4327,45.5796],[-68.4318,45.7597],[-68.4279,45.7597],[-68.4271,45.9313],[-68.4315,45.9519],[-68.4327,46.0352],[-68.4379,46.043],[-68.4363,46.3819],[-68.5068,46.3831],[-68.6945,46.3818],[-68.6951,46.3951],[-68.8196,46.3958]]]},"properties":{"GID_0":"USA","GID_1":"USA.20_1","GID_2":"USA.20.10_1","NAME_1":"Maine","NAME_2":"Penobscot"}},
{"type":"Feature","geometry":{"type":"Polygon","coordinates":[[[-69.7215,46.5736],[-69.7195,46.3935],[-69.7327,46.3934],[-69.7282,46.0459],[-69.7307,45.9758],[-69.6849,45.982],[-69.6458,45.8637],[-69.6935,45.8611],[-69.7094,45.8853],[-69.729,45.8797],[-69.7249,45.8665],[-69.7058,45.8538],[-69.718,45.8295],[-69.7087,45.8112],[-69.7278,45.775],[-69.7245,45.7645],[-69.7374,45.7539],[-69.7741,45.7642],[-69.7813,45.7738],[-69.8019,45.7494],[-69.8214,45.7397],[-69.7912,45.7266],[-69.7836,45.691],[-69.7699,45.6842],[-69.7385,45.6798],[-69.7434,45.6523],[-69.7214,45.6575],[-69.7027,45.6192],[-69.7189,45.6136],[-69.7121,45.5866],[-69.7289,45.5692],[-69.7806,45.5424],[-69.7469,45.4361],[-69.7241,45.3727],[-69.7006,45.2924],[-69.7077,45.2914],[-69.6989,45.2572],[-69.6829,45.213],[-69.6855,45.2098],[-69.6553,45.0999],[-69.6456,45.1008],[-69.6208,45.011],[-69.5177,45.0247],[-69.4952,45.0366],[-69.4999,45.054],[-69.2049,45.0936],[-69.0531,45.1147],[-68.9775,45.127],[-68.8566,45.143],[-68.881,45.2247],[-68.7761,45.2401],[-68.8468,45.4902],[-68.8577,45.5267],[-68.9644,45.5126],[-68.952,45.5812],[-68.9507,45.6356],[-68.9597,45.6621],[-68.8255,45.6844],[-68.8196,46.3958],[-68.8216,46.3958],[-68.8225,46.5727],[-69.0788,46.5718],[-69.7215,46.5736]]]},"properties":{"GID_0":"USA","GID_1":"USA.20_1","GID_2":"USA.20.11_1","NAME_1":"Maine","NAME_2":"Piscataquis"}},
{"type":"Feature","geometry":{"type":"MultiPolygon","coordinates":[[[[-70.0057,44.1243],[-70.0268,44.0462],[-70.0266,44.0335],[-70.052,43.9909],[-70.034,43.976],[-70.0267,43.9588],[-69.9785,43.9149],[-69.9558,43.925],[-69.9214,43.9208],[-69.9052,43.9273],[-69.8844,43.9528],[-69.8878,43.9736],[-69.8764,43.9914],[-69.8594,43.9886],[-69.8503,44.0092],[-69.8232,43.9964],[-69.8209,43.9606],[-69.806,43.9437],[-69.8039,43.9094],[-69.7852,43.9049],[-69.7628,43.8911],[-69.737,43.9021],[-69.7227,43.9553],[-69.72,43.9717],[-69.7007,44.0069],[-69.8007,44.0241],[-69.7977,44.0346],[-69.7666,44.0475],[-69.7856,44.0884],[-69.7742,44.0994],[-69.7611,44.1268],[-69.7588,44.1451],[-69.764,44.1533],[-69.8559,44.1682],[-69.8818,44.1493],[-69.8978,44.1082],[-70.0057,44.1243]]],[[[-69.74934,43.80656],[-69.7491888888889,43.8069],[-69.7478,43.8256],[-69.7347,43.8513],[-69.7367,43.8681],[-69.7639,43.8717],[-69.7717,43.8464],[-69.7653,43.8397],[-69.7831,43.7961],[-69.7706,43.7725],[-69.7764,43.7556],[-69.7619,43.7542],[-69.7436,43.7648],[-69.7167,43.793],[-69.7209,43.8073],[-69.7074,43.828],[-69.7156,43.8467],[-69.7306,43.8481],[-69.7397,43.8203],[-69.74934,43.80656]]],[[[-69.8576,43.9445],[-69.8647,43.9175],[-69.8907,43.8656],[-69.8686,43.8608],[-69.8722,43.8347],[-69.8525,43.8336],[-69.8549,43.8164],[-69.876,43.7911],[-69.8609,43.7603],[-69.8697,43.7428],[-69.8564,43.7317],[-69.8517,43.7031],[-69.8397,43.705],[-69.8314,43.7225],[-69.7961,43.7344],[-69.8031,43.7442],[-69.7909,43.7904],[-69.8071,43.8113],[-69.8112,43.8358],[-69.7976,43.8439],[-69.7959,43.8649],[-69.8011,43.8792],[-69.8155,43.8828],[-69.8092,43.9256],[-69.8125,43.9442],[-69.8361,43.9508],[-69.8406,43.9703],[-69.85,43.973],[-69.8672,43.9497],[-69.8576,43.9445]]],[[[-69.7949,43.9062],[-69.8072,43.8992],[-69.8072,43.8825],[-69.7931,43.8789],[-69.795,43.8544],[-69.7881,43.8408],[-69.8014,43.825],[-69.7889,43.8122],[-69.7669,43.84],[-69.7728,43.8461],[-69.7617,43.8861],[-69.7949,43.9062]]]]},"properties":{"GID_0":"USA","GID_1":"USA.20_1","GID_2":"USA.20.12_1","NAME_1":"Maine","NAME_2":"Sagadahoc"}},
{"type":"Feature","geometry":{"type":"Polygon","coordinates":[[[-70.0221,46.5736],[-70.0572,46.4147],[-70.0953,46.4081],[-70.1103,46.3861],[-70.1473,46.3589],[-70.1728,46.3574],[-70.1953,46.3434],[-70.2233,46.2926],[-70.2313,46.2909],[-70.2513,46.2623],[-70.271,46.2107],[-70.292,46.1909],[-70.2786,46.1755],[-70.242,46.1502],[-70.2424,46.1316],[-70.2536,46.114],[-70.2503,46.1016],[-70.283,46.0999],[-70.3085,46.0635],[-70.2925,46.0602],[-70.3142,46.0208],[-70.3088,45.9854],[-70.3144,45.9665],[-70.2602,45.9644],[-70.2594,45.9528],[-70.2405,45.9483],[-70.2445,45.9336],[-70.2612,45.9207],[-70.2564,45.9075],[-70.2663,45.8849],[-70.3126,45.8597],[-70.3455,45.8508],[-70.3713,45.8331],[-70.3963,45.8105],[-70.4004,45.8002],[-70.4188,45.7933],[-70.4097,45.7668],[-70.3895,45.7364],[-70.4055,45.7198],[-70.4339,45.7067],[-70.4643,45.709],[-70.5117,45.6769],[-70.5296,45.6687],[-70.5523,45.6665],[-70.5345,45.6027],[-70.5058,45.5134],[-70.5159,45.5],[-70.485,45.3957],[-70.4193,45.1451],[-70.3638,45.1516],[-70.3652,45.1567],[-70.3084,45.1618],[-70.2945,45.1099],[-70.1597,45.1284],[-70.1275,45.0182],[-70.1096,44.9471],[-70.1514,44.9422],[-70.1318,44.8516],[-70.0335,44.8642],[-70.0162,44.7868],[-70.004,44.7882],[-70.0023,44.7581],[-70.0145,44.7567],[-69.996,44.6774],[-69.9601,44.6809],[-69.9604,44.6608],[-69.9474,44.6477],[-69.9308,44.6108],[-69.8533,44.6214],[-69.823,44.6047],[-69.8189,44.5815],[-69.7932,44.5775],[-69.7762,44.6082],[-69.7357,44.597],[-69.606,44.5771],[-69.5913,44.584],[-69.5934,44.6032],[-69.5788,44.6247],[-69.628,44.671],[-69.6334,44.7006],[-69.4839,44.7204],[-69.4704,44.7182],[-69.4721,44.6931],[-69.417,44.701],[-69.4152,44.7188],[-69.3947,44.7335],[-69.3986,44.7467],[-69.3851,44.754],[-69.3434,44.75],[-69.3278,44.7145],[-69.2674,44.7219],[-69.2864,44.8081],[-69.2819,44.8122],[-69.356,45.0736],[-69.4999,45.054],[-69.4952,45.0366],[-69.5177,45.0247],[-69.6208,45.011],[-69.6456,45.1008],[-69.6553,45.0999],[-69.6855,45.2098],[-69.6829,45.213],[-69.6989,45.2572],[-69.7077,45.2914],[-69.7006,45.2924],[-69.7241,45.3727],[-69.7469,45.4361],[-69.7806,45.5424],[-69.7289,45.5692],[-69.7121,45.5866],[-69.7189,45.6136],[-69.7027,45.6192],[-69.7214,45.6575],[-69.7434,45.6523],[-69.7385,45.6798],[-69.7699,45.6842],[-69.7836,45.691],[-69.7912,45.7266],[-69.8214,45.7397],[-69.8019,45.7494],[-69.7813,45.7738],[-69.7741,45.7642],[-69.7374,45.7539],[-69.7245,45.7645],[-69.7278,45.775],[-69.7087,45.8112],[-69.718,45.8295],[-69.7058,45.8538],[-69.7249,45.8665],[-69.729,45.8797],[-69.7094,45.8853],[-69.6935,45.8611],[-69.6458,45.8637],[-69.6849,45.982],[-69.7307,45.9758],[-69.7282,46.0459],[-69.7327,46.3934],[-69.7195,46.3935],[-69.7215,46.5736],[-70.0221,46.5736]]]},"properties":{"GID_0":"USA","GID_1":"USA.20_1","GID_2":"USA.20.13_1","NAME_1":"Maine","NAME_2":"Somerset"}},
{"type":"Feature","geometry":{"type":"MultiPolygon","coordinates":[[[[-68.8675,44.3786],[-68.9006,44.3803],[-68.9114,44.3647],[-68.9056,44.3197],[-68.9289,44.3022],[-68.9192,44.2786],[-68.9239,44.2589],[-68.9058,44.2614],[-68.9061,44.2728],[-68.8869,44.3025],[-68.9017,44.3183],[-68.8883,44.338],[-68.8711,44.3444],[-68.8675,44.3786]]],[[[-68.8747,44.4536],[-68.8931,44.4442],[-68.8861,44.4303],[-68.8694,44.4358],[-68.8747,44.4536]]],[[[-68.8519,44.6409],[-68.8229,44.671],[-68.8158,44.6838],[-68.8389,44.6934],[-68.9038,44.6907],[-69.1837,44.6441],[-69.2051,44.7298],[-69.3278,44.7145],[-69.3434,44.75],[-69.3851,44.754],[-69.3986,44.7467],[-69.3947,44.7335],[-69.4152,44.7188],[-69.417,44.701],[-69.4779,44.6921],[-69.4759,44.6771],[-69.4431,44.6722],[-69.4559,44.6626],[-69.4603,44.647],[-69.3935,44.64],[-69.4173,44.5509],[-69.3724,44.5447],[-69.3956,44.4571],[-69.4456,44.4638],[-69.5074,44.3427],[-69.4095,44.328],[-69.4045,44.3326],[-69.3943,44.3422],[-69.3462,44.3081],[-69.2698,44.3648],[-69.1214,44.2557],[-69.0429,44.2594],[-69.0279,44.2487],[-69.0046,44.2746],[-69.0031,44.2953],[-68.9828,44.2992],[-68.9581,44.315],[-68.9475,44.3536],[-68.9594,44.3747],[-68.9878,44.3933],[-68.9819,44.4003],[-68.9939,44.4214],[-68.9861,44.4258],[-68.9456,44.4275],[-68.9308,44.4394],[-68.9214,44.4572],[-68.9083,44.4514],[-68.8828,44.4631],[-68.8567,44.4683],[-68.8603,44.4461],[-68.8342,44.4561],[-68.8217,44.4678],[-68.8375,44.4833],[-68.83,44.4922],[-68.8078,44.4978],[-68.8073,44.5259],[-68.8033,44.567],[-68.8372,44.6003],[-68.8597,44.6044],[-68.8519,44.6409]]]]},"properties":{"GID_0":"USA","GID_1":"USA.20_1","GID_2":"USA.20.14_1","NAME_1":"Maine","NAME_2":"Waldo"}},
{"type":"Feature","geometry":{"type":"MultiPolygon","coordinates":[[[[-67.5813,44.5129],[-67.5941,44.5155],[-67.6068,44.4983],[-67.6041,44.4835],[-67.5921,44.4694],[-67.5878,44.4469],[-67.5668,44.455],[-67.5613,44.4713],[-67.5919,44.4936],[-67.5813,44.5129]]],[[[-67.2923,44.6203],[-67.3125,44.6112],[-67.3084,44.5965],[-67.2803,44.6024],[-67.2923,44.6203]]],[[[-67.9927,44.5031],[-67.9739,44.5034],[-67.9657,44.4917],[-67.9668,44.4668],[-67.9564,44.4297],[-67.9431,44.4111],[-67.9306,44.4117],[-67.9308,44.4319],[-67.9244,44.4639],[-67.9069,44.4611],[-67.9147,44.42],[-67.8939,44.4131],[-67.8828,44.4636],[-67.889,44.4838],[-67.8542,44.4789],[-67.8522,44.4952],[-67.8572,44.5278],[-67.8422,44.5442],[-67.85,44.5595],[-67.8375,44.5631],[-67.8286,44.5893],[-67.8167,44.5857],[-67.8125,44.5639],[-67.7903,44.5633],[-67.8056,44.5425],[-67.8031,44.524],[-67.7807,44.5222],[-67.7881,44.5478],[-67.768,44.5492],[-67.7695,44.5602],[-67.7591,44.5819],[-67.7452,44.574],[-67.7436,44.5591],[-67.7554,44.5476],[-67.7394,44.5192],[-67.7428,44.4967],[-67.7056,44.4997],[-67.6979,44.5129],[-67.7002,44.5314],[-67.6648,44.5494],[-67.6686,44.5656],[-67.6434,44.5659],[-67.6278,44.5506],[-67.6425,44.5389],[-67.6355,44.5285],[-67.5715,44.5295],[-67.5604,44.54],[-67.5748,44.5601],[-67.5572,44.5973],[-67.5628,44.6122],[-67.5435,44.6279],[-67.5192,44.6347],[-67.4931,44.6286],[-67.4843,44.611],[-67.459,44.5959],[-67.4329,44.6132],[-67.4482,44.6309],[-67.4386,44.6419],[-67.4187,44.6161],[-67.4196,44.6035],[-67.396,44.6021],[-67.3951,44.6133],[-67.3683,44.6235],[-67.3753,44.6389],[-67.3666,44.6522],[-67.3774,44.6653],[-67.3995,44.6789],[-67.3932,44.698],[-67.3717,44.6894],[-67.3594,44.6992],[-67.3422,44.6983],[-67.3061,44.7087],[-67.3055,44.6808],[-67.3128,44.6597],[-67.2997,44.6545],[-67.2975,44.6405],[-67.2757,44.6232],[-67.2702,44.6429],[-67.2709,44.6645],[-67.2487,44.6685],[-67.2442,44.6451],[-67.2344,44.6367],[-67.189,44.6442],[-67.1878,44.6629],[-67.1548,44.6676],[-67.1466,44.6851],[-67.1285,44.6939],[-67.1165,44.7113],[-67.1037,44.7177],[-67.1018,44.7361],[-67.0735,44.7409],[-67.0708,44.7531],[-67.0518,44.7629],[-67.0203,44.7692],[-67.0085,44.7873],[-66.9967,44.7886],[-66.979,44.8056],[-66.9886,44.8369],[-67.0144,44.8498],[-67.0109,44.8577],[-67.0183,44.8861],[-67.0425,44.9028],[-67.0528,44.8831],[-67.0394,44.8697],[-67.0528,44.8569],[-67.0772,44.8767],[-67.1236,44.8664],[-67.141,44.8691],[-67.1316,44.8364],[-67.1414,44.8072],[-67.1544,44.8311],[-67.1496,44.8623],[-67.1833,44.8892],[-67.1805,44.9084],[-67.1556,44.9061],[-67.1458,44.8903],[-67.1272,44.8839],[-67.1217,44.9097],[-67.1111,44.9217],[-67.0884,44.918],[-67.05,44.9373],[-67.0508,44.9544],[-67.0158,44.9233],[-67.025,44.9136],[-66.9864,44.8959],[-66.9903,44.9175],[-67.0165,44.9272],[-67.0319,44.9389],[-67.0392,44.9581],[-67.058,44.9708],[-67.05,44.98],[-67.0723,45.0093],[-67.0834,45.0312],[-67.096,45.0383],[-67.1086,45.0592],[-67.1047,45.0739],[-67.1147,45.0975],[-67.1465,45.1228],[-67.1633,45.1583],[-67.2077,45.1678],[-67.2206,45.1627],[-67.2428,45.1692],[-67.2511,45.1808],[-67.2808,45.1917],[-67.2882,45.1885],[-67.3026,45.1605],[-67.3022,45.1451],[-67.3196,45.1381],[-67.354,45.1373],[-67.3816,45.1521],[-67.4182,45.1895],[-67.4297,45.1947],[-67.4338,45.2145],[-67.4539,45.2407],[-67.4663,45.2477],[-67.476,45.2687],[-67.4776,45.2873],[-67.4607,45.3003],[-67.4571,45.3261],[-67.4321,45.3431],[-67.4215,45.3763],[-67.4333,45.3957],[-67.461,45.4189],[-67.474,45.4237],[-67.4827,45.4601],[-67.4932,45.4709],[-67.4876,45.4897],[-67.4483,45.5111],[-67.4275,45.5007],[-67.436,45.5384],[-67.4241,45.546],[-67.4295,45.5666],[-67.4257,45.5785],[-67.4566,45.6053],[-67.5009,45.6045],[-67.5302,45.5983],[-67.5785,45.6003],[-67.6102,45.6079],[-67.641,45.6265],[-67.6443,45.6168],[-67.6736,45.6278],[-67.6914,45.6473],[-67.7027,45.6697],[-67.7593,45.6712],[-67.7683,45.6781],[-67.8048,45.6785],[-67.8741,45.6695],[-67.8995,45.6723],[-67.9146,45.6619],[-68.0479,45.6401],[-67.9938,45.4664],[-67.9547,45.3537],[-67.9663,45.352],[-67.9392,45.2673],[-67.9995,45.2595],[-68.0559,45.2553],[-68.0202,45.1271],[-67.9919,44.9913],[-67.9828,44.9557],[-68.1061,44.9397],[-68.0345,44.674],[-68.0158,44.6766],[-67.9933,44.5925],[-68.0171,44.5891],[-67.9927,44.5031]]]]},"properties":{"GID_0":"USA","GID_1":"USA.20_1","GID_2":"USA.20.15_1","NAME_1":"Maine","NAME_2":"Washington"}},
{"type":"Feature","geometry":{"type":"Polygon","coordinates":[[[-70.3535,43.5351],[-70.4444,43.581],[-70.4924,43.6069],[-70.4577,43.6423],[-70.5505,43.7159],[-70.5783,43.6874],[-70.5956,43.6972],[-70.6061,43.6875],[-70.6293,43.7045],[-70.6513,43.6992],[-70.6593,43.7141],[-70.646,43.7403],[-70.6445,43.7562],[-70.6558,43.7798],[-70.6701,43.7942],[-70.7152,43.7986],[-70.7334,43.7897],[-70.7664,43.792],[-70.7835,43.8141],[-70.853,43.8049],[-70.8798,43.8109],[-70.9131,43.8009],[-70.928,43.7902],[-70.9426,43.7927],[-70.9716,43.785],[-70.9862,43.793],[-70.9743,43.5724],[-70.9588,43.5598],[-70.954,43.5432],[-70.9602,43.5006],[-70.974,43.4782],[-70.9625,43.47],[-70.9635,43.44],[-70.9807,43.4211],[-70.9879,43.3873],[-70.9744,43.3521],[-70.9555,43.3359],[-70.9335,43.3358],[-70.9148,43.3205],[-70.9075,43.2924],[-70.8861,43.2832],[-70.8608,43.2572],[-70.8231,43.2382],[-70.8123,43.2247],[-70.8256,43.1886],[-70.8214,43.1733],[-70.8322,43.1458],[-70.8214,43.1276],[-70.7367,43.0744],[-70.6956,43.0825],[-70.6878,43.0644],[-70.6644,43.0764],[-70.6626,43.0886],[-70.6364,43.1158],[-70.621,43.1606],[-70.5886,43.1944],[-70.5892,43.2067],[-70.5753,43.2219],[-70.5883,43.235],[-70.5889,43.2631],[-70.5707,43.2901],[-70.5633,43.3098],[-70.5404,43.3347],[-70.5153,43.3454],[-70.4747,43.3483],[-70.4668,43.3402],[-70.4403,43.3544],[-70.4238,43.3781],[-70.4203,43.3967],[-70.3997,43.4019],[-70.3555,43.4479],[-70.3809,43.4631],[-70.3856,43.4953],[-70.3783,43.5086],[-70.3535,43.5351]]]},"properties":{"GID_0":"USA","GID_1":"USA.20_1","GID_2":"USA.20.16_1","NAME_1":"Maine","NAME_2":"York"}}
]}