{"type":"FeatureCollection", "features": [
{"type":"Feature","geometry":{"type":"Polygon","coordinates":[[[-91.5974,31.1832],[-91.56,31.2367],[-91.486,31.2304],[-91.4658,31.2959],[-91.36,31.3452],[-91.234,31.3718],[-91.1585,31.3466],[-91.1556,31.6277],[-91.2336,31.6292],[-91.2928,31.6691],[-91.3221,31.7482],[-91.3736,31.7471],[-91.3984,31.7067],[-91.3987,31.6323],[-91.4445,31.5464],[-91.513,31.5314],[-91.5125,31.447],[-91.4712,31.4045],[-91.5167,31.3712],[-91.5138,31.3181],[-91.5536,31.2653],[-91.627,31.2698],[-91.6494,31.2424],[-91.5974,31.1832]]]},"properties":{"GID_0":"USA","GID_1":"USA.25_1","GID_2":"USA.25.1_1","NAME_1":"Mississippi","NAME_2":"Adams"}},
{"type":"Feature","geometry":{"type":"Polygon","coordinates":[[[-88.3664,34.7589],[-88.3658,34.9982],[-88.8232,34.9969],[-88.8248,34.8606],[-88.7536,34.859],[-88.753,34.7591],[-88.3664,34.7589]]]},"properties":{"GID_0":"USA","GID_1":"USA.25_1","GID_2":"USA.25.2_1","NAME_1":"Mississippi","NAME_2":"Alcorn"}},
{"type":"Feature","geometry":{"type":"Polygon","coordinates":[[[-91.0608,30.9995],[-90.5502,31],[-90.5499,31.3494],[-90.9866,31.3482],[-91.0822,31.3282],[-91.0948,31.3207],[-91.0894,31.3174],[-91.06,31.282],[-91.0608,30.9995]]]},"properties":{"GID_0":"USA","GID_1":"USA.25_1","GID_2":"USA.25.3_1","NAME_1":"Mississippi","NAME_2":"Amite"}},
{"type":"Feature","geometry":{"type":"Polygon","coordinates":[[[-89.4511,33.2871],[-89.7014,33.2876],[-89.7384,33.2349],[-89.7544,33.1985],[-89.794,33.1627],[-89.8354,33.0385],[-89.8847,32.9866],[-89.8984,32.9302],[-89.9679,32.8765],[-89.7325,32.8817],[-89.7318,32.9263],[-89.3186,32.9282],[-89.3204,33.2873],[-89.4511,33.2871]]]},"properties":{"GID_0":"USA","GID_1":"USA.25_1","GID_2":"USA.25.4_1","NAME_1":"Mississippi","NAME_2":"Attala"}},
{"type":"Feature","geometry":{"type":"Polygon","coordinates":[[[-89.2465,34.5857],[-89.2458,34.6002],[-89.0883,34.6005],[-89.088,34.8185],[-89.0359,34.8194],[-89.0169,34.8611],[-89.0174,34.9962],[-89.3542,34.996],[-89.3537,34.848],[-89.2999,34.8476],[-89.2978,34.5874],[-89.2465,34.5857]]]},"properties":{"GID_0":"USA","GID_1":"USA.25_1","GID_2":"USA.25.5_1","NAME_1":"Mississippi","NAME_2":"Benton"}},
{"type":"Feature","geometry":{"type":"Polygon","coordinates":[[[-91.2082,33.5284],[-90.765,33.5293],[-90.7642,33.6157],[-90.6605,33.6154],[-90.657,33.986],[-90.6631,33.9864],[-90.6604,34.1214],[-90.9553,34.1189],[-90.8701,34.091],[-90.8878,34.0268],[-90.9867,34.0191],[-91.0857,33.9785],[-91.0073,33.9283],[-91.0705,33.867],[-91.0551,33.7777],[-91.143,33.773],[-91.1458,33.7301],[-91.0654,33.7162],[-91.0834,33.6568],[-91.1615,33.7049],[-91.2188,33.6605],[-91.1363,33.6228],[-91.1359,33.5923],[-91.2244,33.5678],[-91.2082,33.5284]]]},"properties":{"GID_0":"USA","GID_1":"USA.25_1","GID_2":"USA.25.6_1","NAME_1":"Mississippi","NAME_2":"Bolivar"}},
{"type":"Feature","geometry":{"type":"Polygon","coordinates":[[[-89.1372,34.0774],[-89.2448,34.0763],[-89.245,34.1654],[-89.5087,34.1655],[-89.5065,33.7227],[-89.1908,33.7223],[-89.1899,33.81],[-89.1379,33.8101],[-89.1372,34.0774]]]},"properties":{"GID_0":"USA","GID_1":"USA.25_1","GID_2":"USA.25.7_1","NAME_1":"Mississippi","NAME_2":"Calhoun"}},
{"type":"Feature","geometry":{"type":"Polygon","coordinates":[[[-89.6416,33.2874],[-89.6454,33.4039],[-89.784,33.417],[-89.7871,33.6772],[-90.1286,33.6773],[-90.1253,33.6736],[-90.1226,33.6664],[-90.1071,33.6637],[-90.103,33.4599],[-90.1755,33.417],[-90.1759,33.3347],[-89.7478,33.2154],[-89.7384,33.2349],[-89.7014,33.2876],[-89.6416,33.2874]]]},"properties":{"GID_0":"USA","GID_1":"USA.25_1","GID_2":"USA.25.8_1","NAME_1":"Mississippi","NAME_2":"Carroll"}},
{"type":"Feature","geometry":{"type":"Polygon","coordinates":[[[-89.1906,33.7382],[-89.0371,33.7384],[-88.9336,33.7534],[-88.9323,33.8116],[-88.7217,33.8103],[-88.7212,34.0772],[-89.1372,34.0774],[-89.1379,33.8101],[-89.1899,33.81],[-89.1906,33.7382]]]},"properties":{"GID_0":"USA","GID_1":"USA.25_1","GID_2":"USA.25.9_1","NAME_1":"Mississippi","NAME_2":"Chickasaw"}},
{"type":"Feature","geometry":{"type":"Polygon","coordinates":[[[-89.3197,33.1112],[-89.214,33.1114],[-89.2142,33.1984],[-89.1111,33.1999],[-89.109,33.2863],[-89.0887,33.2871],[-89.0903,33.5323],[-89.2666,33.5186],[-89.38,33.4624],[-89.4528,33.4332],[-89.4511,33.2871],[-89.3204,33.2873],[-89.3197,33.1112]]]},"properties":{"GID_0":"USA","GID_1":"USA.25_1","GID_2":"USA.25.10_1","NAME_1":"Mississippi","NAME_2":"Choctaw"}},
{"type":"Feature","geometry":{"type":"Polygon","coordinates":[[[-91.2523,31.8701],[-91.0182,31.8604],[-90.8442,31.824],[-90.8459,31.7847],[-90.7376,31.7864],[-90.7193,31.8412],[-90.7151,31.9772],[-90.7271,32.2269],[-90.7325,32.225],[-90.7384,32.2182],[-90.7372,32.2068],[-90.7922,32.1795],[-90.773,32.1564],[-90.8879,32.1209],[-90.934,32.0832],[-91.0304,32.117],[-91.0805,32.0839],[-91.0966,31.9919],[-91.1707,31.977],[-91.1819,31.9208],[-91.2523,31.8701]]]},"properties":{"GID_0":"USA","GID_1":"USA.25_1","GID_2":"USA.25.11_1","NAME_1":"Mississippi","NAME_2":"Claiborne"}},
{"type":"Feature","geometry":{"type":"Polygon","coordinates":[[[-88.4305,32.227],[-88.9118,32.2258],[-88.9097,31.8246],[-88.7791,31.8328],[-88.6348,31.8526],[-88.4717,31.8915],[-88.4305,32.227]]]},"properties":{"GID_0":"USA","GID_1":"USA.25_1","GID_2":"USA.25.12_1","NAME_1":"Mississippi","NAME_2":"Clarke"}},
{"type":"Feature","geometry":{"type":"Polygon","coordinates":[[[-89.0371,33.7384],[-89.0384,33.636],[-89.0188,33.564],[-88.7351,33.5653],[-88.6755,33.5665],[-88.6749,33.5064],[-88.6094,33.507],[-88.5457,33.5281],[-88.5004,33.5648],[-88.5164,33.6492],[-88.4998,33.6812],[-88.7222,33.6807],[-88.7217,33.8103],[-88.9323,33.8116],[-88.9336,33.7534],[-89.0371,33.7384]]]},"properties":{"GID_0":"USA","GID_1":"USA.25_1","GID_2":"USA.25.13_1","NAME_1":"Mississippi","NAME_2":"Clay"}},
{"type":"Feature","geometry":{"type":"Polygon","coordinates":[[[-90.9553,34.1189],[-90.6604,34.1214],[-90.6631,33.9864],[-90.4526,33.9847],[-90.4515,34.2656],[-90.4004,34.2658],[-90.4006,34.4271],[-90.5679,34.5263],[-90.5882,34.5051],[-90.5758,34.4156],[-90.6792,34.3682],[-90.7483,34.3727],[-90.7686,34.2772],[-90.831,34.2726],[-90.8407,34.2221],[-90.8075,34.1694],[-90.8423,34.14],[-90.9103,34.1653],[-90.9553,34.1189]]]},"properties":{"GID_0":"USA","GID_1":"USA.25_1","GID_2":"USA.25.14_1","NAME_1":"Mississippi","NAME_2":"Coahoma"}},
{"type":"Feature","geometry":{"type":"Polygon","coordinates":[[[-90.7376,31.7864],[-90.7374,31.6974],[-90.451,31.6958],[-90.2643,31.7041],[-90.2235,31.727],[-90.1234,31.7504],[-90.1466,31.7992],[-90.1409,31.8895],[-90.2215,31.9902],[-90.2347,32.0517],[-90.7184,32.051],[-90.7151,31.9772],[-90.7193,31.8412],[-90.7376,31.7864]]]},"properties":{"GID_0":"USA","GID_1":"USA.25_1","GID_2":"USA.25.15_1","NAME_1":"Mississippi","NAME_2":"Copiah"}},
{"type":"Feature","geometry":{"type":"Polygon","coordinates":[[[-89.3977,31.4345],[-89.4036,31.795],[-89.755,31.7735],[-89.7539,31.6093],[-89.5978,31.5372],[-89.5865,31.434],[-89.3977,31.4345]]]},"properties":{"GID_0":"USA","GID_1":"USA.25_1","GID_2":"USA.25.16_1","NAME_1":"Mississippi","NAME_2":"Covington"}},
{"type":"Feature","geometry":{"type":"Polygon","coordinates":[[[-90.3065,34.8625],[-90.2035,34.8623],[-90.2025,34.7265],[-90.1685,34.7611],[-90.0454,34.7112],[-89.9537,34.7394],[-89.9094,34.7748],[-89.7231,34.7745],[-89.7245,34.9961],[-90.3098,34.9966],[-90.2486,34.9494],[-90.2445,34.909],[-90.3065,34.8625]]]},"properties":{"GID_0":"USA","GID_1":"USA.25_1","GID_2":"USA.25.17_1","NAME_1":"Mississippi","NAME_2":"Desoto"}},
{"type":"Feature","geometry":{"type":"Polygon","coordinates":[[[-89.4513,31.4343],[-89.4503,31.3453],[-89.3485,31.3461],[-89.3492,31.0021],[-89.3411,31.0018],[-89.3408,30.9108],[-89.1383,30.9104],[-89.1448,31.0013],[-89.1467,31.4342],[-89.4513,31.4343]]]},"properties":{"GID_0":"USA","GID_1":"USA.25_1","GID_2":"USA.25.18_1","NAME_1":"Mississippi","NAME_2":"Forrest"}},
{"type":"Feature","geometry":{"type":"Polygon","coordinates":[[[-91.1585,31.3466],[-91.097,31.3236],[-91.0948,31.3207],[-91.0822,31.3282],[-90.9866,31.3482],[-90.6345,31.3494],[-90.6355,31.6105],[-90.7387,31.6112],[-91.1553,31.6072],[-91.1585,31.3466]]]},"properties":{"GID_0":"USA","GID_1":"USA.25_1","GID_2":"USA.25.19_1","NAME_1":"Mississippi","NAME_2":"Franklin"}},
{"type":"Feature","geometry":{"type":"Polygon","coordinates":[[[-88.4245,30.9976],[-88.8375,31.0004],[-88.8371,30.9099],[-88.8862,30.909],[-88.8845,30.7356],[-88.8349,30.7321],[-88.4116,30.7355],[-88.4245,30.9976]]]},"properties":{"GID_0":"USA","GID_1":"USA.25_1","GID_2":"USA.25.20_1","NAME_1":"Mississippi","NAME_2":"George"}},
{"type":"Feature","geometry":{"type":"Polygon","coordinates":[[[-88.4245,30.9976],[-88.4502,31.4354],[-88.5426,31.4339],[-88.8403,31.4333],[-88.8401,31.0004],[-88.4245,30.9976]]]},"properties":{"GID_0":"USA","GID_1":"USA.25_1","GID_2":"USA.25.21_1","NAME_1":"Mississippi","NAME_2":"Greene"}},
{"type":"Feature","geometry":{"type":"Polygon","coordinates":[[[-89.5073,33.8677],[-89.7694,33.8685],[-89.7688,33.8972],[-89.9265,33.8965],[-89.9266,33.8246],[-89.9763,33.8092],[-90.1377,33.8105],[-90.1375,33.6773],[-89.7871,33.6772],[-89.5085,33.679],[-89.5065,33.7227],[-89.5073,33.8677]]]},"properties":{"GID_0":"USA","GID_1":"USA.25_1","GID_2":"USA.25.22_1","NAME_1":"Mississippi","NAME_2":"Grenada"}},
{"type":"Feature","geometry":{"type":"Polygon","coordinates":[[[-89.6897,30.459],[-89.6842,30.41],[-89.6348,30.3465],[-89.631,30.2579],[-89.5748,30.1831],[-89.4919,30.1828],[-89.4481,30.2042],[-89.4206,30.2533],[-89.3286,30.3047],[-89.3533,30.3697],[-89.3128,30.3767],[-89.3308,30.3768],[-89.3403,30.6476],[-89.5458,30.65],[-89.5439,30.5169],[-89.6474,30.5026],[-89.6897,30.459]]]},"properties":{"GID_0":"USA","GID_1":"USA.25_1","GID_2":"USA.25.23_1","NAME_1":"Mississippi","NAME_2":"Hancock"}},
{"type":"Feature","geometry":{"type":"Polygon","coordinates":[[[-89.3308,30.3768],[-89.3128,30.3767],[-89.2688,30.3418],[-89.2691,30.3064],[-89.0833,30.3686],[-88.915,30.3947],[-88.8832,30.4261],[-88.8844,30.6773],[-89.2401,30.6771],[-89.2402,30.6477],[-89.3403,30.6476],[-89.3308,30.3768]]]},"properties":{"GID_0":"USA","GID_1":"USA.25_1","GID_2":"USA.25.24_1","NAME_1":"Mississippi","NAME_2":"Harrison"}},
{"type":"Feature","geometry":{"type":"Polygon","coordinates":[[[-90.7184,32.051],[-90.2347,32.0517],[-90.2491,32.172],[-90.1907,32.1967],[-90.207,32.2354],[-90.1812,32.2865],[-90.0745,32.3928],[-90.0723,32.3983],[-90.2466,32.4012],[-90.2452,32.4882],[-90.4523,32.489],[-90.4511,32.5751],[-90.4733,32.544],[-90.5492,32.5118],[-90.5611,32.5063],[-90.6351,32.3733],[-90.6962,32.3547],[-90.7016,32.2872],[-90.7283,32.2415],[-90.7184,32.051]]]},"properties":{"GID_0":"USA","GID_1":"USA.25_1","GID_2":"USA.25.25_1","NAME_1":"Mississippi","NAME_2":"Hinds"}},
{"type":"Feature","geometry":{"type":"Polygon","coordinates":[[[-89.7478,33.2154],[-90.3222,33.3749],[-90.2847,33.3509],[-90.3317,33.3034],[-90.3305,33.1355],[-90.4333,33.0974],[-90.4293,33.0646],[-90.3893,33.0493],[-90.3831,33.0257],[-90.3738,33.0134],[-90.3639,33.0107],[-90.3584,33.0121],[-90.3398,33.0108],[-89.9679,32.8765],[-89.8984,32.9302],[-89.8847,32.9866],[-89.8354,33.0385],[-89.794,33.1627],[-89.7544,33.1985],[-89.7478,33.2154]]]},"properties":{"GID_0":"USA","GID_1":"USA.25_1","GID_2":"USA.25.26_1","NAME_1":"Mississippi","NAME_2":"Holmes"}},
{"type":"Feature","geometry":{"type":"Polygon","coordinates":[[[-90.3317,33.3034],[-90.3721,33.2491],[-90.454,33.268],[-90.4532,33.3298],[-90.5549,33.3298],[-90.5556,33.2712],[-90.7168,33.27],[-90.7224,33.2666],[-90.7311,33.2647],[-90.733,33.2324],[-90.7193,33.2275],[-90.7098,33.2171],[-90.6879,33.2095],[-90.7017,33.0965],[-90.6595,33.0968],[-90.6542,32.9211],[-90.4504,32.9202],[-90.4498,33.009],[-90.3699,33.0093],[-90.3639,33.0107],[-90.3738,33.0134],[-90.3831,33.0257],[-90.3893,33.0493],[-90.4293,33.0646],[-90.4333,33.0974],[-90.3305,33.1355],[-90.3317,33.3034]]]},"properties":{"GID_0":"USA","GID_1":"USA.25_1","GID_2":"USA.25.27_1","NAME_1":"Mississippi","NAME_2":"Humphreys"}},
{"type":"Feature","geometry":{"type":"Polygon","coordinates":[[[-91.1623,33.0103],[-91.2126,32.9303],[-91.1323,32.9169],[-91.1391,32.9705],[-91.0916,32.9778],[-91.064,32.9052],[-91.1455,32.8427],[-91.155,32.7459],[-91.0598,32.7282],[-91.0622,32.704],[-91.1527,32.6432],[-91.1333,32.5935],[-91.04,32.5778],[-90.9637,32.576],[-90.9512,32.4444],[-90.8605,32.4451],[-90.8608,32.5764],[-90.7285,32.5663],[-90.7203,32.6188],[-90.7218,32.662],[-90.962,32.663],[-90.9619,32.837],[-90.9124,32.9425],[-90.9126,33.0076],[-90.9651,33.0076],[-90.9657,33.0104],[-91.1623,33.0103]]]},"properties":{"GID_0":"USA","GID_1":"USA.25_1","GID_2":"USA.25.28_1","NAME_1":"Mississippi","NAME_2":"Issaquena"}},
{"type":"Feature","geometry":{"type":"Polygon","coordinates":[[[-88.1561,34.4659],[-88.5431,34.4682],[-88.5446,34.0915],[-88.2012,34.0894],[-88.1561,34.4659]]]},"properties":{"GID_0":"USA","GID_1":"USA.25_1","GID_2":"USA.25.29_1","NAME_1":"Mississippi","NAME_2":"Itawamba"}},
{"type":"Feature","geometry":{"type":"Polygon","coordinates":[[[-88.8832,30.4261],[-88.8484,30.43],[-88.7479,30.3485],[-88.7043,30.3432],[-88.6125,30.3732],[-88.4794,30.3186],[-88.3994,30.395],[-88.4116,30.7355],[-88.8349,30.7321],[-88.8845,30.7356],[-88.8832,30.4261]]]},"properties":{"GID_0":"USA","GID_1":"USA.25_1","GID_2":"USA.25.30_1","NAME_1":"Mississippi","NAME_2":"Jackson"}},
{"type":"Feature","geometry":{"type":"Polygon","coordinates":[[[-88.9118,32.2258],[-89.3235,32.2227],[-89.3227,31.8734],[-89.3178,31.8734],[-89.3174,31.7999],[-88.9097,31.8246],[-88.9118,32.2258]]]},"properties":{"GID_0":"USA","GID_1":"USA.25_1","GID_2":"USA.25.31_1","NAME_1":"Mississippi","NAME_2":"Jasper"}},
{"type":"Feature","geometry":{"type":"Polygon","coordinates":[[[-91.3221,31.7482],[-91.2928,31.6691],[-91.2336,31.6292],[-91.1556,31.6277],[-91.1553,31.6072],[-90.7387,31.6112],[-90.7376,31.7864],[-90.8459,31.7847],[-90.8442,31.824],[-91.0182,31.8604],[-91.2523,31.8701],[-91.3393,31.8415],[-91.371,31.7704],[-91.3221,31.7482]]]},"properties":{"GID_0":"USA","GID_1":"USA.25_1","GID_2":"USA.25.32_1","NAME_1":"Mississippi","NAME_2":"Jefferson"}},
{"type":"Feature","geometry":{"type":"Polygon","coordinates":[[[-89.755,31.7735],[-89.9748,31.7619],[-89.9754,31.5219],[-89.956,31.521],[-89.9567,31.3896],[-89.8232,31.3894],[-89.8231,31.4323],[-89.5865,31.434],[-89.5978,31.5372],[-89.7539,31.6093],[-89.755,31.7735]]]},"properties":{"GID_0":"USA","GID_1":"USA.25_1","GID_2":"USA.25.33_1","NAME_1":"Mississippi","NAME_2":"JeffersonDavis"}},
{"type":"Feature","geometry":{"type":"Polygon","coordinates":[[[-89.3977,31.4345],[-88.9439,31.4339],[-88.9453,31.8222],[-89.4036,31.795],[-89.3977,31.4345]]]},"properties":{"GID_0":"USA","GID_1":"USA.25_1","GID_2":"USA.25.34_1","NAME_1":"Mississippi","NAME_2":"Jones"}},
{"type":"Feature","geometry":{"type":"Polygon","coordinates":[[[-88.3461,32.9278],[-88.9169,32.9228],[-88.9135,32.5753],[-88.3883,32.5778],[-88.3461,32.9278]]]},"properties":{"GID_0":"USA","GID_1":"USA.25_1","GID_2":"USA.25.35_1","NAME_1":"Mississippi","NAME_2":"Kemper"}},
{"type":"Feature","geometry":{"type":"Polygon","coordinates":[[[-89.245,34.1654],[-89.2462,34.4962],[-89.3279,34.5299],[-89.4295,34.5227],[-89.4767,34.5574],[-89.7205,34.5569],[-89.7196,34.1957],[-89.5091,34.1936],[-89.5087,34.1655],[-89.245,34.1654]]]},"properties":{"GID_0":"USA","GID_1":"USA.25_1","GID_2":"USA.25.36_1","NAME_1":"Mississippi","NAME_2":"Lafayette"}},
{"type":"Feature","geometry":{"type":"Polygon","coordinates":[[[-89.5865,31.434],[-89.6536,31.4333],[-89.6533,31.0023],[-89.5518,31.002],[-89.476,30.9829],[-89.4248,31.0101],[-89.3492,31.0105],[-89.3485,31.3461],[-89.4503,31.3453],[-89.4513,31.4343],[-89.5865,31.434]]]},"properties":{"GID_0":"USA","GID_1":"USA.25_1","GID_2":"USA.25.37_1","NAME_1":"Mississippi","NAME_2":"Lamar"}},
{"type":"Feature","geometry":{"type":"Polygon","coordinates":[[[-88.4305,32.227],[-88.3883,32.5778],[-88.9135,32.5753],[-88.9118,32.2258],[-88.4305,32.227]]]},"properties":{"GID_0":"USA","GID_1":"USA.25_1","GID_2":"USA.25.38_1","NAME_1":"Mississippi","NAME_2":"Lauderdale"}},
{"type":"Feature","geometry":{"type":"Polygon","coordinates":[[[-90.2477,31.7137],[-90.2471,31.3487],[-90.1121,31.3475],[-90.0435,31.3343],[-90.043,31.3937],[-89.9625,31.3891],[-89.9567,31.3896],[-89.956,31.521],[-89.9754,31.5219],[-89.9748,31.7619],[-90.1234,31.7504],[-90.2235,31.727],[-90.2477,31.7137]]]},"properties":{"GID_0":"USA","GID_1":"USA.25_1","GID_2":"USA.25.39_1","NAME_1":"Mississippi","NAME_2":"Lawrence"}},
{"type":"Feature","geometry":{"type":"Polygon","coordinates":[[[-89.7325,32.8817],[-89.7308,32.577],[-89.3199,32.5762],[-89.3186,32.9282],[-89.7318,32.9263],[-89.7325,32.8817]]]},"properties":{"GID_0":"USA","GID_1":"USA.25_1","GID_2":"USA.25.40_1","NAME_1":"Mississippi","NAME_2":"Leake"}},
{"type":"Feature","geometry":{"type":"Polygon","coordinates":[[[-88.7212,34.0772],[-88.721,34.0917],[-88.5446,34.0915],[-88.5434,34.5118],[-88.7364,34.5104],[-88.7366,34.4972],[-88.7879,34.4978],[-88.7911,34.3979],[-88.8256,34.3987],[-88.8282,34.0779],[-88.7212,34.0772]]]},"properties":{"GID_0":"USA","GID_1":"USA.25_1","GID_2":"USA.25.41_1","NAME_1":"Mississippi","NAME_2":"Lee"}},
{"type":"Feature","geometry":{"type":"Polygon","coordinates":[[[-90.1286,33.6773],[-90.1375,33.6773],[-90.1375,33.7218],[-90.2237,33.7217],[-90.2826,33.6952],[-90.312,33.7388],[-90.1769,33.7773],[-90.1841,33.8095],[-90.4527,33.812],[-90.454,33.268],[-90.3721,33.2491],[-90.3317,33.3034],[-90.2847,33.3509],[-90.3222,33.3749],[-90.1759,33.3347],[-90.1755,33.417],[-90.103,33.4599],[-90.1071,33.6637],[-90.1226,33.6664],[-90.1253,33.6736],[-90.1286,33.6773]]]},"properties":{"GID_0":"USA","GID_1":"USA.25_1","GID_2":"USA.25.42_1","NAME_1":"Mississippi","NAME_2":"Leflore"}},
{"type":"Feature","geometry":{"type":"Polygon","coordinates":[[[-90.5499,31.3494],[-90.2471,31.3487],[-90.2477,31.7137],[-90.2643,31.7041],[-90.451,31.6958],[-90.7374,31.6974],[-90.7387,31.6112],[-90.6355,31.6105],[-90.6345,31.3494],[-90.5499,31.3494]]]},"properties":{"GID_0":"USA","GID_1":"USA.25_1","GID_2":"USA.25.43_1","NAME_1":"Mississippi","NAME_2":"Lincoln"}},
{"type":"Feature","geometry":{"type":"Polygon","coordinates":[[[-88.248,33.7446],[-88.3301,33.743],[-88.3793,33.6873],[-88.5164,33.6492],[-88.5004,33.5648],[-88.5457,33.5281],[-88.6094,33.507],[-88.6749,33.5064],[-88.6714,33.2903],[-88.3022,33.2909],[-88.248,33.7446]]]},"properties":{"GID_0":"USA","GID_1":"USA.25_1","GID_2":"USA.25.44_1","NAME_1":"Mississippi","NAME_2":"Lowndes"}},
{"type":"Feature","geometry":{"type":"Polygon","coordinates":[[[-89.9679,32.8765],[-90.0491,32.7358],[-90.2022,32.6651],[-90.2822,32.6572],[-90.3354,32.6083],[-90.4511,32.5751],[-90.4523,32.489],[-90.2452,32.4882],[-90.2466,32.4012],[-90.0723,32.3983],[-90.0701,32.4028],[-90.0235,32.4762],[-89.9615,32.4944],[-89.8613,32.5795],[-89.7873,32.5904],[-89.7851,32.5849],[-89.7387,32.6308],[-89.7306,32.6344],[-89.7325,32.8817],[-89.9679,32.8765]]]},"properties":{"GID_0":"USA","GID_1":"USA.25_1","GID_2":"USA.25.45_1","NAME_1":"Mississippi","NAME_2":"Madison"}},
{"type":"Feature","geometry":{"type":"Polygon","coordinates":[[[-89.7337,31.0021],[-89.6533,31.0023],[-89.6536,31.4333],[-89.8231,31.4323],[-89.8232,31.3894],[-89.9625,31.3891],[-90.043,31.3937],[-90.0434,31.2302],[-90.0097,31.1316],[-89.936,31.1316],[-89.9157,31.0745],[-89.8361,31.0735],[-89.8347,31.0019],[-89.7337,31.0021]]]},"properties":{"GID_0":"USA","GID_1":"USA.25_1","GID_2":"USA.25.46_1","NAME_1":"Mississippi","NAME_2":"Marion"}},
{"type":"Feature","geometry":{"type":"Polygon","coordinates":[[[-89.3542,34.996],[-89.7245,34.9961],[-89.7223,34.6877],[-89.6703,34.6876],[-89.6681,34.5572],[-89.4767,34.5574],[-89.4295,34.5227],[-89.3279,34.5299],[-89.2462,34.4962],[-89.2465,34.5857],[-89.2978,34.5874],[-89.2999,34.8476],[-89.3537,34.848],[-89.3542,34.996]]]},"properties":{"GID_0":"USA","GID_1":"USA.25_1","GID_2":"USA.25.47_1","NAME_1":"Mississippi","NAME_2":"Marshall"}},
{"type":"Feature","geometry":{"type":"Polygon","coordinates":[[[-88.248,33.7446],[-88.2012,34.0894],[-88.721,34.0917],[-88.7222,33.6807],[-88.4998,33.6812],[-88.5164,33.6492],[-88.3793,33.6873],[-88.3301,33.743],[-88.248,33.7446]]]},"properties":{"GID_0":"USA","GID_1":"USA.25_1","GID_2":"USA.25.48_1","NAME_1":"Mississippi","NAME_2":"Monroe"}},
{"type":"Feature","geometry":{"type":"Polygon","coordinates":[[[-89.4511,33.2871],[-89.4528,33.4332],[-89.38,33.4624],[-89.5043,33.4616],[-89.5085,33.679],[-89.7871,33.6772],[-89.784,33.417],[-89.6454,33.4039],[-89.6416,33.2874],[-89.4511,33.2871]]]},"properties":{"GID_0":"USA","GID_1":"USA.25_1","GID_2":"USA.25.49_1","NAME_1":"Mississippi","NAME_2":"Montgomery"}},
{"type":"Feature","geometry":{"type":"Polygon","coordinates":[[[-88.9169,32.9228],[-88.9339,32.9225],[-89.0213,32.9288],[-89.3186,32.9282],[-89.3199,32.5762],[-88.9135,32.5753],[-88.9169,32.9228]]]},"properties":{"GID_0":"USA","GID_1":"USA.25_1","GID_2":"USA.25.50_1","NAME_1":"Mississippi","NAME_2":"Neshoba"}},
{"type":"Feature","geometry":{"type":"Polygon","coordinates":[[[-88.9118,32.2258],[-88.9135,32.5753],[-89.3254,32.5758],[-89.3235,32.2227],[-88.9118,32.2258]]]},"properties":{"GID_0":"USA","GID_1":"USA.25_1","GID_2":"USA.25.51_1","NAME_1":"Mississippi","NAME_2":"Newton"}},
{"type":"Feature","geometry":{"type":"Polygon","coordinates":[[[-88.3022,33.2909],[-88.8142,33.2891],[-88.8131,32.9241],[-88.3461,32.9278],[-88.3022,33.2909]]]},"properties":{"GID_0":"USA","GID_1":"USA.25_1","GID_2":"USA.25.52_1","NAME_1":"Mississippi","NAME_2":"Noxubee"}},
{"type":"Feature","geometry":{"type":"Polygon","coordinates":[[[-89.0887,33.2871],[-88.6714,33.2903],[-88.6755,33.5665],[-88.7351,33.5653],[-89.0894,33.5632],[-89.0887,33.2871]]]},"properties":{"GID_0":"USA","GID_1":"USA.25_1","GID_2":"USA.25.53_1","NAME_1":"Mississippi","NAME_2":"Oktibbeha"}},
{"type":"Feature","geometry":{"type":"Polygon","coordinates":[[[-89.7205,34.5569],[-90.2021,34.5562],[-90.1999,34.344],[-90.1959,34.3045],[-90.1352,34.2687],[-90.1367,34.1632],[-89.954,34.1615],[-89.9634,34.1674],[-89.7203,34.1671],[-89.7205,34.5569]]]},"properties":{"GID_0":"USA","GID_1":"USA.25_1","GID_2":"USA.25.54_1","NAME_1":"Mississippi","NAME_2":"Panola"}},
{"type":"Feature","geometry":{"type":"Polygon","coordinates":[[[-89.6897,30.459],[-89.6474,30.5026],[-89.5439,30.5169],[-89.5458,30.65],[-89.3403,30.6476],[-89.3411,31.0018],[-89.3492,31.0021],[-89.3492,31.0105],[-89.4248,31.0101],[-89.476,30.9829],[-89.5518,31.002],[-89.7337,31.0021],[-89.7503,30.9135],[-89.7726,30.8961],[-89.7848,30.8181],[-89.8303,30.7824],[-89.8422,30.6695],[-89.8293,30.6208],[-89.772,30.5189],[-89.6897,30.459]]]},"properties":{"GID_0":"USA","GID_1":"USA.25_1","GID_2":"USA.25.55_1","NAME_1":"Mississippi","NAME_2":"PearlRiver"}},
{"type":"Feature","geometry":{"type":"Polygon","coordinates":[[[-89.1383,30.9104],[-88.8371,30.9099],[-88.8375,31.0004],[-88.8401,31.0004],[-88.8403,31.4333],[-89.1467,31.4342],[-89.1448,31.0013],[-89.1383,30.9104]]]},"properties":{"GID_0":"USA","GID_1":"USA.25_1","GID_2":"USA.25.56_1","NAME_1":"Mississippi","NAME_2":"Perry"}},
{"type":"Feature","geometry":{"type":"Polygon","coordinates":[[[-90.5502,31],[-90.2637,31.0016],[-90.2637,31.3486],[-90.5499,31.3494],[-90.5502,31]]]},"properties":{"GID_0":"USA","GID_1":"USA.25_1","GID_2":"USA.25.57_1","NAME_1":"Mississippi","NAME_2":"Pike"}},
{"type":"Feature","geometry":{"type":"Polygon","coordinates":[[[-89.1372,34.0774],[-88.8282,34.0779],[-88.8261,34.3678],[-88.9294,34.3829],[-89.2457,34.3835],[-89.2448,34.0763],[-89.1372,34.0774]]]},"properties":{"GID_0":"USA","GID_1":"USA.25_1","GID_2":"USA.25.58_1","NAME_1":"Mississippi","NAME_2":"Pontotoc"}},
{"type":"Feature","geometry":{"type":"Polygon","coordinates":[[[-88.7189,34.7587],[-88.7187,34.5988],[-88.7349,34.599],[-88.7364,34.5104],[-88.5434,34.5118],[-88.5431,34.4682],[-88.3301,34.4672],[-88.3332,34.7416],[-88.3496,34.7582],[-88.7189,34.7587]]]},"properties":{"GID_0":"USA","GID_1":"USA.25_1","GID_2":"USA.25.59_1","NAME_1":"Mississippi","NAME_2":"Prentiss"}},
{"type":"Feature","geometry":{"type":"Polygon","coordinates":[[[-90.4515,34.0765],[-90.1365,34.0764],[-90.1352,34.2687],[-90.1959,34.3045],[-90.1999,34.344],[-90.202,34.5139],[-90.3074,34.5128],[-90.3042,34.4274],[-90.4006,34.4271],[-90.4004,34.2658],[-90.4515,34.2656],[-90.4515,34.0765]]]},"properties":{"GID_0":"USA","GID_1":"USA.25_1","GID_2":"USA.25.60_1","NAME_1":"Mississippi","NAME_2":"Quitman"}},
{"type":"Feature","geometry":{"type":"Polygon","coordinates":[[[-90.2347,32.0517],[-89.9363,32.0469],[-89.7293,32.048],[-89.7326,32.3579],[-89.7873,32.5904],[-89.8613,32.5795],[-89.9615,32.4944],[-90.0235,32.4762],[-90.0701,32.4028],[-90.0745,32.3928],[-90.1812,32.2865],[-90.207,32.2354],[-90.1907,32.1967],[-90.2491,32.172],[-90.2347,32.0517]]]},"properties":{"GID_0":"USA","GID_1":"USA.25_1","GID_2":"USA.25.61_1","NAME_1":"Mississippi","NAME_2":"Rankin"}},
{"type":"Feature","geometry":{"type":"Polygon","coordinates":[[[-89.7306,32.6344],[-89.7387,32.6308],[-89.7851,32.5849],[-89.7326,32.3579],[-89.7319,32.2212],[-89.3235,32.2227],[-89.3254,32.5758],[-89.7308,32.577],[-89.7306,32.6344]]]},"properties":{"GID_0":"USA","GID_1":"USA.25_1","GID_2":"USA.25.62_1","NAME_1":"Mississippi","NAME_2":"Scott"}},
{"type":"Feature","geometry":{"type":"Polygon","coordinates":[[[-90.7017,33.0965],[-90.9136,33.0968],[-90.9124,32.9425],[-90.9619,32.837],[-90.962,32.663],[-90.7218,32.662],[-90.6649,32.6929],[-90.741,32.7311],[-90.71,32.8051],[-90.7583,32.8367],[-90.6542,32.9211],[-90.6595,33.0968],[-90.7017,33.0965]]]},"properties":{"GID_0":"USA","GID_1":"USA.25_1","GID_2":"USA.25.63_1","NAME_1":"Mississippi","NAME_2":"Sharkey"}},
{"type":"Feature","geometry":{"type":"Polygon","coordinates":[[[-90.1234,31.7504],[-89.9748,31.7619],[-89.755,31.7735],[-89.6537,31.7805],[-89.6533,32.0044],[-89.6666,32.0487],[-89.9363,32.0469],[-90.2347,32.0517],[-90.2215,31.9902],[-90.1409,31.8895],[-90.1466,31.7992],[-90.1234,31.7504]]]},"properties":{"GID_0":"USA","GID_1":"USA.25_1","GID_2":"USA.25.64_1","NAME_1":"Mississippi","NAME_2":"Simpson"}},
{"type":"Feature","geometry":{"type":"Polygon","coordinates":[[[-89.4036,31.795],[-89.3174,31.7999],[-89.3178,31.8734],[-89.3227,31.8734],[-89.3235,32.2227],[-89.7319,32.2212],[-89.7293,32.048],[-89.6666,32.0487],[-89.6533,32.0044],[-89.6537,31.7805],[-89.4036,31.795]]]},"properties":{"GID_0":"USA","GID_1":"USA.25_1","GID_2":"USA.25.65_1","NAME_1":"Mississippi","NAME_2":"Smith"}},
{"type":"Feature","geometry":{"type":"Polygon","coordinates":[[[-89.3408,30.9108],[-89.3403,30.6476],[-89.2402,30.6477],[-89.2401,30.6771],[-88.8844,30.6773],[-88.8862,30.909],[-89.3408,30.9108]]]},"properties":{"GID_0":"USA","GID_1":"USA.25_1","GID_2":"USA.25.66_1","NAME_1":"Mississippi","NAME_2":"Stone"}},
{"type":"Feature","geometry":{"type":"Polygon","coordinates":[[[-90.765,33.5293],[-90.7617,33.5293],[-90.7658,33.2695],[-90.5556,33.2712],[-90.5549,33.3298],[-90.4532,33.3298],[-90.4526,33.9847],[-90.657,33.986],[-90.6605,33.6154],[-90.7642,33.6157],[-90.765,33.5293]]]},"properties":{"GID_0":"USA","GID_1":"USA.25_1","GID_2":"USA.25.67_1","NAME_1":"Mississippi","NAME_2":"Sunflower"}},
{"type":"Feature","geometry":{"type":"Polygon","coordinates":[[[-90.4526,33.9847],[-90.4527,33.812],[-90.1841,33.8095],[-90.1769,33.7773],[-90.312,33.7388],[-90.2826,33.6952],[-90.2237,33.7217],[-90.1375,33.7218],[-90.1377,33.8105],[-89.9763,33.8092],[-89.9266,33.8246],[-89.9235,34.1437],[-89.9301,34.1669],[-89.9634,34.1674],[-89.954,34.1615],[-90.1367,34.1632],[-90.1365,34.0764],[-90.4515,34.0765],[-90.4526,33.9847]]]},"properties":{"GID_0":"USA","GID_1":"USA.25_1","GID_2":"USA.25.68_1","NAME_1":"Mississippi","NAME_2":"Tallahatchie"}},
{"type":"Feature","geometry":{"type":"Polygon","coordinates":[[[-90.2025,34.7265],[-90.2441,34.6029],[-90.2021,34.5562],[-89.6681,34.5572],[-89.6703,34.6876],[-89.7223,34.6877],[-89.7231,34.7745],[-89.9094,34.7748],[-89.9537,34.7394],[-90.0454,34.7112],[-90.1685,34.7611],[-90.2025,34.7265]]]},"properties":{"GID_0":"USA","GID_1":"USA.25_1","GID_2":"USA.25.69_1","NAME_1":"Mississippi","NAME_2":"Tate"}},
{"type":"Feature","geometry":{"type":"Polygon","coordinates":[[[-88.8232,34.9969],[-89.0174,34.9962],[-89.0169,34.8611],[-89.0359,34.8194],[-89.088,34.8185],[-89.0883,34.6005],[-88.7187,34.5988],[-88.7189,34.7587],[-88.753,34.7591],[-88.7536,34.859],[-88.8248,34.8606],[-88.8232,34.9969]]]},"properties":{"GID_0":"USA","GID_1":"USA.25_1","GID_2":"USA.25.70_1","NAME_1":"Mississippi","NAME_2":"Tippah"}},
{"type":"Feature","geometry":{"type":"Polygon","coordinates":[[[-88.1561,34.4659],[-88.098,34.8964],[-88.1525,34.9269],[-88.1996,34.9978],[-88.3658,34.9982],[-88.3664,34.7589],[-88.3496,34.7582],[-88.3332,34.7416],[-88.3301,34.4672],[-88.1561,34.4659]]]},"properties":{"GID_0":"USA","GID_1":"USA.25_1","GID_2":"USA.25.71_1","NAME_1":"Mississippi","NAME_2":"Tishomingo"}},
{"type":"Feature","geometry":{"type":"Polygon","coordinates":[[[-90.3065,34.8625],[-90.4206,34.8331],[-90.4857,34.8654],[-90.4465,34.7549],[-90.4879,34.7278],[-90.5173,34.8023],[-90.566,34.7162],[-90.4646,34.694],[-90.516,34.635],[-90.5801,34.6081],[-90.5401,34.5507],[-90.5679,34.5263],[-90.4006,34.4271],[-90.3042,34.4274],[-90.3074,34.5128],[-90.202,34.5139],[-90.2021,34.5562],[-90.2441,34.6029],[-90.2025,34.7265],[-90.2035,34.8623],[-90.3065,34.8625]]]},"properties":{"GID_0":"USA","GID_1":"USA.25_1","GID_2":"USA.25.72_1","NAME_1":"Mississippi","NAME_2":"Tunica"}},
{"type":"Feature","geometry":{"type":"Polygon","coordinates":[[[-89.2465,34.5857],[-89.2457,34.3835],[-88.9294,34.3829],[-88.8261,34.3678],[-88.8256,34.3987],[-88.7911,34.3979],[-88.7879,34.4978],[-88.7366,34.4972],[-88.7349,34.599],[-89.2458,34.6002],[-89.2465,34.5857]]]},"properties":{"GID_0":"USA","GID_1":"USA.25_1","GID_2":"USA.25.73_1","NAME_1":"Mississippi","NAME_2":"Union"}},
{"type":"Feature","geometry":{"type":"Polygon","coordinates":[[[-89.8347,31.0019],[-89.8361,31.0735],[-89.9157,31.0745],[-89.936,31.1316],[-90.0097,31.1316],[-90.0434,31.2302],[-90.0435,31.3343],[-90.1121,31.3475],[-90.2637,31.3486],[-90.2637,31.0016],[-89.8347,31.0019]]]},"properties":{"GID_0":"USA","GID_1":"USA.25_1","GID_2":"USA.25.74_1","NAME_1":"Mississippi","NAME_2":"Walthall"}},
{"type":"Feature","geometry":{"type":"Polygon","coordinates":[[[-91.04,32.5778],[-91.0584,32.535],[-91.1091,32.5324],[-91.1114,32.479],[-91.0337,32.4364],[-90.9663,32.4261],[-91.0084,32.3703],[-90.9066,32.3446],[-90.9051,32.317],[-90.9818,32.2868],[-90.9823,32.2125],[-91.0376,32.2391],[-91.1601,32.201],[-91.1663,32.1384],[-91.0304,32.117],[-90.934,32.0832],[-90.8879,32.1209],[-90.773,32.1564],[-90.7922,32.1795],[-90.7372,32.2068],[-90.7384,32.2182],[-90.7325,32.225],[-90.7271,32.2269],[-90.7283,32.2415],[-90.7016,32.2872],[-90.6962,32.3547],[-90.6351,32.3733],[-90.5611,32.5063],[-90.5546,32.5099],[-90.5886,32.5448],[-90.6544,32.5477],[-90.6547,32.5887],[-90.7203,32.6188],[-90.7285,32.5663],[-90.8608,32.5764],[-90.8605,32.4451],[-90.9512,32.4444],[-90.9637,32.576],[-91.04,32.5778]]]},"properties":{"GID_0":"USA","GID_1":"USA.25_1","GID_2":"USA.25.75_1","NAME_1":"Mississippi","NAME_2":"Warren"}},
{"type":"Feature","geometry":{"type":"Polygon","coordinates":[[[-91.1623,33.0103],[-90.9657,33.0104],[-90.9651,33.0076],[-90.9126,33.0076],[-90.9136,33.0968],[-90.7017,33.0965],[-90.6879,33.2095],[-90.7098,33.2171],[-90.7193,33.2275],[-90.733,33.2324],[-90.7311,33.2647],[-90.7224,33.2666],[-90.7168,33.27],[-90.7658,33.2695],[-90.7617,33.5293],[-91.2082,33.5284],[-91.1261,33.4744],[-91.1317,33.4292],[-91.1984,33.4171],[-91.1444,33.335],[-91.0925,33.2171],[-91.0923,33.137],[-91.1924,33.139],[-91.1991,33.1056],[-91.1334,33.0699],[-91.1623,33.0103]]]},"properties":{"GID_0":"USA","GID_1":"USA.25_1","GID_2":"USA.25.76_1","NAME_1":"Mississippi","NAME_2":"Washington"}},
{"type":"Feature","geometry":{"type":"Polygon","coordinates":[[[-88.4717,31.8915],[-88.6348,31.8526],[-88.7791,31.8328],[-88.9453,31.8222],[-88.9439,31.4339],[-88.5426,31.4339],[-88.4502,31.4354],[-88.4717,31.8915]]]},"properties":{"GID_0":"USA","GID_1":"USA.25_1","GID_2":"USA.25.77_1","NAME_1":"Mississippi","NAME_2":"Wayne"}},
{"type":"Feature","geometry":{"type":"Polygon","coordinates":[[[-89.5065,33.7227],[-89.5085,33.679],[-89.5043,33.4616],[-89.38,33.4624],[-89.2666,33.5186],[-89.0903,33.5323],[-89.0894,33.5632],[-89.0188,33.564],[-89.0384,33.636],[-89.0371,33.7384],[-89.1906,33.7382],[-89.1908,33.7223],[-89.5065,33.7227]]]},"properties":{"GID_0":"USA","GID_1":"USA.25_1","GID_2":"USA.25.78_1","NAME_1":"Mississippi","NAME_2":"Webster"}},
{"type":"Feature","geometry":{"type":"Polygon","coordinates":[[[-91.5974,31.1832],[-91.6256,31.122],[-91.5674,31.0415],[-91.6397,30.9998],[-91.0608,30.9995],[-91.06,31.282],[-91.0894,31.3174],[-91.097,31.3236],[-91.1585,31.3466],[-91.234,31.3718],[-91.36,31.3452],[-91.4658,31.2959],[-91.486,31.2304],[-91.56,31.2367],[-91.5974,31.1832]]]},"properties":{"GID_0":"USA","GID_1":"USA.25_1","GID_2":"USA.25.79_1","NAME_1":"Mississippi","NAME_2":"Wilkinson"}},
{"type":"Feature","geometry":{"type":"Polygon","coordinates":[[[-89.3186,32.9282],[-89.0213,32.9288],[-88.9339,32.9225],[-88.8131,32.9241],[-88.8142,33.2891],[-89.109,33.2863],[-89.1111,33.1999],[-89.2142,33.1984],[-89.214,33.1114],[-89.3197,33.1112],[-89.3186,32.9282]]]},"properties":{"GID_0":"USA","GID_1":"USA.25_1","GID_2":"USA.25.80_1","NAME_1":"Mississippi","NAME_2":"Winston"}},
{"type":"Feature","geometry":{"type":"Polygon","coordinates":[[[-89.5087,34.1655],[-89.5091,34.1936],[-89.7196,34.1957],[-89.7203,34.1671],[-89.9301,34.1669],[-89.9235,34.1437],[-89.9265,33.8965],[-89.7688,33.8972],[-89.7694,33.8685],[-89.5073,33.8677],[-89.5087,34.1655]]]},"properties":{"GID_0":"USA","GID_1":"USA.25_1","GID_2":"USA.25.81_1","NAME_1":"Mississippi","NAME_2":"Yalobusha"}},
{"type":"Feature","geometry":{"type":"Polygon","coordinates":[[[-90.4511,32.5751],[-90.3354,32.6083],[-90.2822,32.6572],[-90.2022,32.6651],[-90.0491,32.7358],[-89.9679,32.8765],[-90.3398,33.0108],[-90.3584,33.0121],[-90.3699,33.0093],[-90.4498,33.009],[-90.4504,32.9202],[-90.6542,32.9211],[-90.7583,32.8367],[-90.71,32.8051],[-90.741,32.7311],[-90.6649,32.6929],[-90.7218,32.662],[-90.7203,32.6188],[-90.6547,32.5887],[-90.6544,32.5477],[-90.5886,32.5448],[-90.5546,32.5099],[-90.5492,32.5118],[-90.4733,32.544],[-90.4511,32.5751]]]},"properties":{"GID_0":"USA","GID_1":"USA.25_1","GID_2":"USA.25.82_1","NAME_1":"Mississippi","NAME_2":"Yazoo"}}
]}