{"type":"FeatureCollection", "features": [
{"type":"Feature","geometry":{"type":"Polygon","coordinates":[[[-94.56,36.1623],[-94.7959,36.1618],[-94.8069,35.9008],[-94.8083,35.6396],[-94.474,35.6387],[-94.56,36.1623]]]},"properties":{"GID_0":"USA","GID_1":"USA.37_1","GID_2":"USA.37.1_1","NAME_1":"Oklahoma","NAME_2":"Adair"}},
{"type":"Feature","geometry":{"type":"Polygon","coordinates":[[[-98.5457,37.0002],[-98.5327,36.5937],[-98.5324,36.4621],[-98.1067,36.4615],[-98.108,36.5935],[-98.1102,36.9427],[-98.1164,37.0003],[-98.5457,37.0002]]]},"properties":{"GID_0":"USA","GID_1":"USA.37_1","GID_2":"USA.37.2_1","NAME_1":"Oklahoma","NAME_2":"Alfalfa"}},
{"type":"Feature","geometry":{"type":"Polygon","coordinates":[[[-95.9926,34.1586],[-95.7797,34.1566],[-95.7794,34.5071],[-95.6718,34.5068],[-95.6718,34.5936],[-95.8801,34.5943],[-95.8816,34.6821],[-96.0936,34.6807],[-96.0912,34.5084],[-96.1481,34.5075],[-96.1487,34.4162],[-96.4095,34.4155],[-96.4091,34.1591],[-95.9926,34.1586]]]},"properties":{"GID_0":"USA","GID_1":"USA.37_1","GID_2":"USA.37.3_1","NAME_1":"Oklahoma","NAME_2":"Atoka"}},
{"type":"Feature","geometry":{"type":"Polygon","coordinates":[[[-100.0024,36.9985],[-100.9441,36.9988],[-100.9534,36.8476],[-100.9524,36.4998],[-100.0038,36.4998],[-100.0044,36.76],[-100.0024,36.9985]]]},"properties":{"GID_0":"USA","GID_1":"USA.37_1","GID_2":"USA.37.4_1","NAME_1":"Oklahoma","NAME_2":"Beaver"}},
{"type":"Feature","geometry":{"type":"Polygon","coordinates":[[[-99.3631,35.508],[-99.5755,35.5085],[-99.576,35.42],[-100.0009,35.4223],[-100.0008,35.0295],[-99.8897,35.0277],[-99.7852,35.028],[-99.7833,35.1161],[-99.4067,35.1161],[-99.3595,35.1163],[-99.3627,35.2034],[-99.3631,35.508]]]},"properties":{"GID_0":"USA","GID_1":"USA.37_1","GID_2":"USA.37.5_1","NAME_1":"Oklahoma","NAME_2":"Beckham"}},
{"type":"Feature","geometry":{"type":"Polygon","coordinates":[[[-98.3181,35.5502],[-98.3108,35.7248],[-98.2066,35.7251],[-98.2099,35.8989],[-98.2122,36.1656],[-98.634,36.1636],[-98.6305,35.812],[-98.6307,35.552],[-98.3181,35.5502]]]},"properties":{"GID_0":"USA","GID_1":"USA.37_1","GID_2":"USA.37.6_1","NAME_1":"Oklahoma","NAME_2":"Blaine"}},
{"type":"Feature","geometry":{"type":"Polygon","coordinates":[[[-96.4091,34.1591],[-96.456,34.1169],[-96.587,34.117],[-96.5496,34.0708],[-96.601,34.0236],[-96.587,33.9747],[-96.596,33.9521],[-96.591,33.8984],[-96.617,33.843],[-96.5322,33.8214],[-96.502,33.7741],[-96.4241,33.7772],[-96.3196,33.6957],[-96.292,33.7679],[-96.1857,33.7549],[-96.1698,33.8171],[-96.049,33.8367],[-95.9154,33.8808],[-95.8308,33.8354],[-95.7602,33.8729],[-95.843,33.8749],[-95.9377,33.9443],[-95.9363,34.1216],[-95.9499,34.1425],[-95.9669,34.1484],[-95.9926,34.1586],[-96.4091,34.1591]]]},"properties":{"GID_0":"USA","GID_1":"USA.37_1","GID_2":"USA.37.7_1","NAME_1":"Oklahoma","NAME_2":"Bryan"}},
{"type":"Feature","geometry":{"type":"Polygon","coordinates":[[[-98.6199,35.552],[-98.6216,35.2038],[-98.616,35.2038],[-98.6206,34.8565],[-98.5091,34.8557],[-98.0906,34.8581],[-98.0985,35.3767],[-98.305,35.3744],[-98.3181,35.5502],[-98.6199,35.552]]]},"properties":{"GID_0":"USA","GID_1":"USA.37_1","GID_2":"USA.37.8_1","NAME_1":"Oklahoma","NAME_2":"Caddo"}},
{"type":"Feature","geometry":{"type":"Polygon","coordinates":[[[-98.3181,35.5502],[-98.305,35.3744],[-98.0184,35.3765],[-97.9736,35.3543],[-97.8636,35.3588],[-97.829,35.3348],[-97.6729,35.335],[-97.6719,35.5506],[-97.6757,35.7253],[-98.3108,35.7248],[-98.3181,35.5502]]]},"properties":{"GID_0":"USA","GID_1":"USA.37_1","GID_2":"USA.37.9_1","NAME_1":"Oklahoma","NAME_2":"Canadian"}},
{"type":"Feature","geometry":{"type":"Polygon","coordinates":[[[-97.5599,34.5076],[-97.5643,34.4463],[-97.5613,34.0727],[-97.1425,34.075],[-96.9689,34.0725],[-96.9668,34.1766],[-96.9357,34.1765],[-96.9359,34.3337],[-97.03,34.3349],[-97.0394,34.3787],[-97.3529,34.3786],[-97.3512,34.5098],[-97.5599,34.5076]]]},"properties":{"GID_0":"USA","GID_1":"USA.37_1","GID_2":"USA.37.10_1","NAME_1":"Oklahoma","NAME_2":"Carter"}},
{"type":"Feature","geometry":{"type":"Polygon","coordinates":[[[-94.7959,36.1618],[-95.1186,36.1633],[-95.1191,36.0757],[-95.2079,36.0747],[-95.2829,35.9079],[-95.2288,35.8525],[-95.2663,35.8133],[-95.128,35.8121],[-95.1289,35.6392],[-94.8083,35.6396],[-94.8069,35.9008],[-94.7959,36.1618]]]},"properties":{"GID_0":"USA","GID_1":"USA.37_1","GID_2":"USA.37.11_1","NAME_1":"Oklahoma","NAME_2":"Cherokee"}},
{"type":"Feature","geometry":{"type":"Polygon","coordinates":[[[-95.9926,34.1586],[-95.9669,34.1484],[-95.9499,34.1425],[-95.9363,34.1216],[-95.9377,33.9443],[-95.843,33.8749],[-95.7602,33.8729],[-95.5872,33.9355],[-95.5406,33.8795],[-95.4136,33.8667],[-95.2805,33.8771],[-95.2191,33.9598],[-95.1559,33.9369],[-95.1563,34.157],[-95.7797,34.1566],[-95.9926,34.1586]]]},"properties":{"GID_0":"USA","GID_1":"USA.37_1","GID_2":"USA.37.12_1","NAME_1":"Oklahoma","NAME_2":"Choctaw"}},
{"type":"Feature","geometry":{"type":"Polygon","coordinates":[[[-102.0281,36.9925],[-103.0009,36.999],[-103.0007,36.5013],[-102.1618,36.5004],[-102.0325,36.5041],[-102.0281,36.9925]]]},"properties":{"GID_0":"USA","GID_1":"USA.37_1","GID_2":"USA.37.13_1","NAME_1":"Oklahoma","NAME_2":"Cimarron"}},
{"type":"Feature","geometry":{"type":"Polygon","coordinates":[[[-97.6729,35.335],[-97.5539,35.2732],[-97.4046,35.1138],[-97.4072,35.0952],[-97.3984,35.0869],[-97.3653,35.0842],[-97.3548,35.0758],[-97.3489,35.0644],[-97.3543,35.0459],[-97.3538,35.0204],[-97.3437,34.9667],[-97.331,34.9588],[-97.1432,34.9305],[-97.1442,35.3742],[-97.4076,35.3771],[-97.6733,35.3763],[-97.6729,35.335]]]},"properties":{"GID_0":"USA","GID_1":"USA.37_1","GID_2":"USA.37.14_1","NAME_1":"Oklahoma","NAME_2":"Cleveland"}},
{"type":"Feature","geometry":{"type":"Polygon","coordinates":[[[-96.0936,34.6807],[-96.0925,34.7688],[-96.4083,34.7685],[-96.4079,34.6795],[-96.5147,34.6795],[-96.5157,34.5069],[-96.5191,34.5065],[-96.5163,34.4196],[-96.4579,34.4152],[-96.1487,34.4162],[-96.1481,34.5075],[-96.0912,34.5084],[-96.0936,34.6807]]]},"properties":{"GID_0":"USA","GID_1":"USA.37_1","GID_2":"USA.37.15_1","NAME_1":"Oklahoma","NAME_2":"Coal"}},
{"type":"Feature","geometry":{"type":"Polygon","coordinates":[[[-98.6206,34.8565],[-98.8256,34.857],[-98.8252,34.5095],[-98.6607,34.511],[-98.6612,34.4083],[-98.6083,34.4091],[-98.6082,34.4204],[-98.504,34.4219],[-98.5033,34.4523],[-98.296,34.4512],[-98.2442,34.5081],[-98.1421,34.5079],[-98.1413,34.6828],[-98.0893,34.6837],[-98.0883,34.8581],[-98.5091,34.8557],[-98.6206,34.8565]]]},"properties":{"GID_0":"USA","GID_1":"USA.37_1","GID_2":"USA.37.16_1","NAME_1":"Oklahoma","NAME_2":"Comanche"}},
{"type":"Feature","geometry":{"type":"Polygon","coordinates":[[[-98.6612,34.4083],[-98.6609,34.3347],[-98.6086,34.335],[-98.6111,34.1575],[-98.486,34.0615],[-98.4149,34.0849],[-98.3673,34.1558],[-98.1693,34.1139],[-98.1428,34.1363],[-98.1388,34.5079],[-98.2442,34.5081],[-98.296,34.4512],[-98.5033,34.4523],[-98.504,34.4219],[-98.6082,34.4204],[-98.6083,34.4091],[-98.6612,34.4083]]]},"properties":{"GID_0":"USA","GID_1":"USA.37_1","GID_2":"USA.37.17_1","NAME_1":"Oklahoma","NAME_2":"Cotton"}},
{"type":"Feature","geometry":{"type":"Polygon","coordinates":[[[-95.0336,36.9986],[-95.4067,37.0005],[-95.4319,36.9445],[-95.4305,36.5987],[-95.3284,36.5988],[-95.3292,36.5117],[-95.0072,36.5114],[-95.0008,36.6001],[-95.0004,36.9518],[-95.0336,36.9986]]]},"properties":{"GID_0":"USA","GID_1":"USA.37_1","GID_2":"USA.37.18_1","NAME_1":"Oklahoma","NAME_2":"Craig"}},
{"type":"Feature","geometry":{"type":"Polygon","coordinates":[[[-96.6233,35.6377],[-96.1936,35.6365],[-96.1928,35.8589],[-96.0319,35.8565],[-96.0281,36.0764],[-96.2991,36.0778],[-96.3006,36.1632],[-96.6244,36.1628],[-96.6228,35.9427],[-96.6233,35.6377]]]},"properties":{"GID_0":"USA","GID_1":"USA.37_1","GID_2":"USA.37.19_1","NAME_1":"Oklahoma","NAME_2":"Creek"}},
{"type":"Feature","geometry":{"type":"Polygon","coordinates":[[[-99.3629,35.4649],[-98.6209,35.4639],[-98.6199,35.552],[-98.6307,35.552],[-98.6305,35.812],[-99.3736,35.8111],[-99.3627,35.5489],[-99.3629,35.4649]]]},"properties":{"GID_0":"USA","GID_1":"USA.37_1","GID_2":"USA.37.20_1","NAME_1":"Oklahoma","NAME_2":"Custer"}},
{"type":"Feature","geometry":{"type":"Polygon","coordinates":[[[-94.56,36.1623],[-94.6182,36.4984],[-94.6187,36.6694],[-95.001,36.6723],[-95.0008,36.6001],[-95.0072,36.5114],[-95.0114,36.1629],[-94.56,36.1623]]]},"properties":{"GID_0":"USA","GID_1":"USA.37_1","GID_2":"USA.37.21_1","NAME_1":"Oklahoma","NAME_2":"Delaware"}},
{"type":"Feature","geometry":{"type":"Polygon","coordinates":[[[-98.634,36.1636],[-98.7251,36.1634],[-98.9565,36.1587],[-99.382,36.1645],[-99.3806,36.0719],[-99.3808,35.8991],[-99.3736,35.8111],[-98.6305,35.812],[-98.634,36.1636]]]},"properties":{"GID_0":"USA","GID_1":"USA.37_1","GID_2":"USA.37.22_1","NAME_1":"Oklahoma","NAME_2":"Dewey"}},
{"type":"Feature","geometry":{"type":"Polygon","coordinates":[[[-100.0038,36.4998],[-100.0015,35.8782],[-99.9272,35.9074],[-99.8522,36.0051],[-99.8019,35.9737],[-99.788,35.8962],[-99.7149,35.854],[-99.6149,35.84],[-99.5623,35.8621],[-99.5085,35.9649],[-99.4303,36.016],[-99.3809,36.017],[-99.382,36.1645],[-99.5976,36.1639],[-99.6034,36.2457],[-99.605,36.5917],[-100.0045,36.5917],[-100.0038,36.4998]]]},"properties":{"GID_0":"USA","GID_1":"USA.37_1","GID_2":"USA.37.23_1","NAME_1":"Oklahoma","NAME_2":"Ellis"}},
{"type":"Feature","geometry":{"type":"Polygon","coordinates":[[[-98.1067,36.4615],[-98.1057,36.1658],[-97.4634,36.1652],[-97.4626,36.5933],[-98.108,36.5935],[-98.1067,36.4615]]]},"properties":{"GID_0":"USA","GID_1":"USA.37_1","GID_2":"USA.37.24_1","NAME_1":"Oklahoma","NAME_2":"Garfield"}},
{"type":"Feature","geometry":{"type":"Polygon","coordinates":[[[-97.3512,34.5098],[-97.1449,34.5076],[-97.1753,34.5667],[-97.144,34.6385],[-96.9345,34.6391],[-96.9333,34.7667],[-96.9343,34.8553],[-97.1455,34.8566],[-97.6705,34.8555],[-97.669,34.6824],[-97.5645,34.6821],[-97.5627,34.5076],[-97.3512,34.5098]]]},"properties":{"GID_0":"USA","GID_1":"USA.37_1","GID_2":"USA.37.25_1","NAME_1":"Oklahoma","NAME_2":"Garvin"}},
{"type":"Feature","geometry":{"type":"Polygon","coordinates":[[[-98.0906,34.8581],[-98.0883,34.8581],[-98.0893,34.6837],[-97.669,34.6824],[-97.6716,35.1162],[-97.6729,35.335],[-97.829,35.3348],[-97.8636,35.3588],[-97.9736,35.3543],[-98.0184,35.3765],[-98.0985,35.3767],[-98.0906,34.8581]]]},"properties":{"GID_0":"USA","GID_1":"USA.37_1","GID_2":"USA.37.26_1","NAME_1":"Oklahoma","NAME_2":"Grady"}},
{"type":"Feature","geometry":{"type":"Polygon","coordinates":[[[-98.1164,37.0003],[-98.1102,36.9427],[-98.1115,36.5935],[-97.4626,36.5933],[-97.4624,37.0002],[-98.1164,37.0003]]]},"properties":{"GID_0":"USA","GID_1":"USA.37_1","GID_2":"USA.37.27_1","NAME_1":"Oklahoma","NAME_2":"Grant"}},
{"type":"Feature","geometry":{"type":"Polygon","coordinates":[[[-99.8897,35.0277],[-99.8898,34.9423],[-99.73,34.9439],[-99.7194,34.7695],[-99.6667,34.7558],[-99.6664,34.7249],[-99.4226,34.726],[-99.4438,34.7296],[-99.4046,34.8133],[-99.2445,34.8187],[-99.3017,34.8526],[-99.3324,34.952],[-99.3317,35.0428],[-99.4067,35.1161],[-99.7833,35.1161],[-99.7852,35.028],[-99.8897,35.0277]]]},"properties":{"GID_0":"USA","GID_1":"USA.37_1","GID_2":"USA.37.28_1","NAME_1":"Oklahoma","NAME_2":"Greer"}},
{"type":"Feature","geometry":{"type":"Polygon","coordinates":[[[-100.0008,35.0295],[-100.0014,34.5583],[-99.9487,34.5803],[-99.8458,34.5089],[-99.664,34.5092],[-99.6667,34.7558],[-99.7194,34.7695],[-99.73,34.9439],[-99.8898,34.9423],[-99.8897,35.0277],[-100.0008,35.0295]]]},"properties":{"GID_0":"USA","GID_1":"USA.37_1","GID_2":"USA.37.29_1","NAME_1":"Oklahoma","NAME_2":"Harmon"}},
{"type":"Feature","geometry":{"type":"Polygon","coordinates":[[[-100.0024,36.9985],[-100.0045,36.5917],[-99.6193,36.5916],[-99.2961,36.5937],[-99.2958,36.8096],[-99.3138,36.8572],[-99.3144,36.8608],[-99.3697,36.8815],[-99.4516,37],[-100.0024,36.9985]]]},"properties":{"GID_0":"USA","GID_1":"USA.37_1","GID_2":"USA.37.30_1","NAME_1":"Oklahoma","NAME_2":"Harper"}},
{"type":"Feature","geometry":{"type":"Polygon","coordinates":[[[-94.9295,35.0573],[-94.9297,35.2005],[-94.8148,35.2019],[-94.8159,35.3251],[-94.83,35.3656],[-94.8478,35.3701],[-94.8662,35.3552],[-94.9107,35.3463],[-94.8923,35.3808],[-94.8984,35.3954],[-94.9995,35.4099],[-95.0506,35.4579],[-95.1158,35.3779],[-95.1588,35.372],[-95.2224,35.2733],[-95.3206,35.3017],[-95.35,35.2903],[-95.3996,35.3272],[-95.4291,35.3031],[-95.4506,35.2958],[-95.4552,35.1601],[-95.3488,35.16],[-95.3491,35.0583],[-94.9295,35.0573]]]},"properties":{"GID_0":"USA","GID_1":"USA.37_1","GID_2":"USA.37.31_1","NAME_1":"Oklahoma","NAME_2":"Haskell"}},
{"type":"Feature","geometry":{"type":"Polygon","coordinates":[[[-96.0925,34.7688],[-96.0904,35.0477],[-95.9828,35.1515],[-95.9809,35.2896],[-96.4413,35.2902],[-96.4393,35.1158],[-96.4932,35.116],[-96.4961,34.9076],[-96.408,34.9266],[-96.4083,34.7685],[-96.0925,34.7688]]]},"properties":{"GID_0":"USA","GID_1":"USA.37_1","GID_2":"USA.37.32_1","NAME_1":"Oklahoma","NAME_2":"Hughes"}},
{"type":"Feature","geometry":{"type":"Polygon","coordinates":[[[-99.6664,34.7249],[-99.664,34.5092],[-99.8458,34.5089],[-99.7054,34.384],[-99.6118,34.3714],[-99.5793,34.4149],[-99.3973,34.3813],[-99.3704,34.4578],[-99.2115,34.3347],[-99.2365,34.4059],[-99.2217,34.4877],[-99.2089,34.4977],[-99.1639,34.59],[-99.0826,34.6149],[-99.0981,34.6318],[-99.1033,34.638],[-99.1569,34.7081],[-99.1482,34.8543],[-99.1606,34.8498],[-99.2445,34.8187],[-99.4046,34.8133],[-99.4438,34.7296],[-99.4226,34.726],[-99.6664,34.7249]]]},"properties":{"GID_0":"USA","GID_1":"USA.37_1","GID_2":"USA.37.33_1","NAME_1":"Oklahoma","NAME_2":"Jackson"}},
{"type":"Feature","geometry":{"type":"Polygon","coordinates":[[[-97.5633,34.2909],[-98.1406,34.2925],[-98.1423,34.1385],[-98.0818,34.0028],[-97.9753,33.9992],[-97.9647,33.8834],[-97.8379,33.8587],[-97.6752,33.9901],[-97.5897,33.9538],[-97.5606,33.8996],[-97.559,34.0727],[-97.5613,34.0727],[-97.5633,34.2909]]]},"properties":{"GID_0":"USA","GID_1":"USA.37_1","GID_2":"USA.37.34_1","NAME_1":"Oklahoma","NAME_2":"Jefferson"}},
{"type":"Feature","geometry":{"type":"Polygon","coordinates":[[[-96.4095,34.4155],[-96.4579,34.4152],[-96.5163,34.4196],[-96.5191,34.5065],[-96.7237,34.5088],[-96.8833,34.5087],[-96.8808,34.3336],[-96.9359,34.3337],[-96.9357,34.1765],[-96.6735,34.1751],[-96.6227,34.1673],[-96.6135,34.1598],[-96.587,34.117],[-96.456,34.1169],[-96.4091,34.1591],[-96.4095,34.4155]]]},"properties":{"GID_0":"USA","GID_1":"USA.37_1","GID_2":"USA.37.35_1","NAME_1":"Oklahoma","NAME_2":"Johnston"}},
{"type":"Feature","geometry":{"type":"Polygon","coordinates":[[[-96.7532,36.9998],[-97.4624,37.0002],[-97.4626,36.5933],[-97.0568,36.5929],[-97.0606,36.6918],[-96.9477,36.6836],[-96.8907,36.7525],[-96.7554,36.7831],[-96.7532,36.9998]]]},"properties":{"GID_0":"USA","GID_1":"USA.37_1","GID_2":"USA.37.36_1","NAME_1":"Oklahoma","NAME_2":"Kay"}},
{"type":"Feature","geometry":{"type":"Polygon","coordinates":[[[-98.2066,35.7251],[-97.6757,35.7253],[-97.6759,36.1663],[-98.2122,36.1656],[-98.2099,35.8989],[-98.2066,35.7251]]]},"properties":{"GID_0":"USA","GID_1":"USA.37_1","GID_2":"USA.37.37_1","NAME_1":"Oklahoma","NAME_2":"Kingfisher"}},
{"type":"Feature","geometry":{"type":"Polygon","coordinates":[[[-99.4067,35.1161],[-99.3317,35.0428],[-99.3324,34.952],[-99.3017,34.8526],[-99.2445,34.8187],[-99.1606,34.8498],[-99.1482,34.8543],[-99.1569,34.7081],[-99.1033,34.638],[-99.0006,34.6383],[-99.0009,34.5943],[-98.8245,34.5954],[-98.8256,34.857],[-98.6206,34.8565],[-98.6177,35.0994],[-98.8244,35.1176],[-99.4067,35.1161]]]},"properties":{"GID_0":"USA","GID_1":"USA.37_1","GID_2":"USA.37.38_1","NAME_1":"Oklahoma","NAME_2":"Kiowa"}},
{"type":"Feature","geometry":{"type":"Polygon","coordinates":[[[-95.3491,35.0583],[-95.3491,35.0294],[-95.5072,35.0293],[-95.5064,34.8551],[-95.5131,34.8552],[-95.5142,34.6812],[-95.0623,34.6801],[-95.0603,34.8523],[-95.0008,34.8534],[-95.0007,34.9416],[-94.9288,34.9418],[-94.9295,35.0573],[-95.3491,35.0583]]]},"properties":{"GID_0":"USA","GID_1":"USA.37_1","GID_2":"USA.37.39_1","NAME_1":"Oklahoma","NAME_2":"Latimer"}},
{"type":"Feature","geometry":{"type":"Polygon","coordinates":[[[-94.4638,34.5065],[-94.4538,34.7287],[-94.4332,35.3809],[-94.4872,35.302],[-94.5958,35.3276],[-94.6337,35.293],[-94.734,35.3543],[-94.8159,35.3251],[-94.8148,35.2019],[-94.9297,35.2005],[-94.9288,34.9418],[-95.0007,34.9416],[-95.0008,34.8534],[-95.0603,34.8523],[-95.0623,34.6801],[-94.9398,34.6804],[-94.9378,34.5071],[-94.4638,34.5065]]]},"properties":{"GID_0":"USA","GID_1":"USA.37_1","GID_2":"USA.37.40_1","NAME_1":"Oklahoma","NAME_2":"LeFlore"}},
{"type":"Feature","geometry":{"type":"Polygon","coordinates":[[[-96.6228,35.9427],[-97.1428,35.9442],[-97.1433,35.8988],[-97.1452,35.6361],[-97.1437,35.4645],[-96.6254,35.4602],[-96.6233,35.6377],[-96.6228,35.9427]]]},"properties":{"GID_0":"USA","GID_1":"USA.37_1","GID_2":"USA.37.41_1","NAME_1":"Oklahoma","NAME_2":"Lincoln"}},
{"type":"Feature","geometry":{"type":"Polygon","coordinates":[[[-97.6759,36.1663],[-97.6757,35.7253],[-97.1436,35.7246],[-97.1433,35.8988],[-97.1428,35.9442],[-97.3556,35.9841],[-97.3568,36.1656],[-97.6759,36.1663]]]},"properties":{"GID_0":"USA","GID_1":"USA.37_1","GID_2":"USA.37.42_1","NAME_1":"Oklahoma","NAME_2":"Logan"}},
{"type":"Feature","geometry":{"type":"Polygon","coordinates":[[[-97.559,34.0727],[-97.5606,33.8996],[-97.4538,33.8986],[-97.4501,33.8262],[-97.3834,33.8179],[-97.3142,33.8686],[-97.166,33.8516],[-97.1939,33.768],[-97.0915,33.734],[-97.0938,33.7982],[-96.989,33.8783],[-96.9936,33.933],[-96.937,33.9575],[-96.9712,34.0725],[-97.1425,34.075],[-97.559,34.0727]]]},"properties":{"GID_0":"USA","GID_1":"USA.37_1","GID_2":"USA.37.43_1","NAME_1":"Oklahoma","NAME_2":"Love"}},
{"type":"Feature","geometry":{"type":"Polygon","coordinates":[[[-98.5324,36.4621],[-98.5322,36.3982],[-98.5974,36.3903],[-98.6973,36.4164],[-98.7065,36.4228],[-98.8167,36.4575],[-98.8321,36.4997],[-98.8538,36.5051],[-98.9604,36.507],[-98.9606,36.247],[-98.9565,36.1587],[-98.7251,36.1634],[-98.1057,36.1658],[-98.1067,36.4615],[-98.5324,36.4621]]]},"properties":{"GID_0":"USA","GID_1":"USA.37_1","GID_2":"USA.37.44_1","NAME_1":"Oklahoma","NAME_2":"Major"}},
{"type":"Feature","geometry":{"type":"Polygon","coordinates":[[[-96.587,34.117],[-96.6135,34.1598],[-96.6227,34.1673],[-96.6735,34.1751],[-96.9668,34.1766],[-96.9689,34.0725],[-96.9712,34.0725],[-96.937,33.9575],[-96.8796,33.8699],[-96.7852,33.8627],[-96.7175,33.8323],[-96.6709,33.9151],[-96.591,33.8984],[-96.596,33.9521],[-96.587,33.9747],[-96.601,34.0236],[-96.5496,34.0708],[-96.587,34.117]]]},"properties":{"GID_0":"USA","GID_1":"USA.37_1","GID_2":"USA.37.45_1","NAME_1":"Oklahoma","NAME_2":"Marshall"}},
{"type":"Feature","geometry":{"type":"Polygon","coordinates":[[[-95.0114,36.1629],[-95.0072,36.5114],[-95.4352,36.5117],[-95.4409,36.0766],[-95.2079,36.0747],[-95.1191,36.0757],[-95.1186,36.1633],[-95.0114,36.1629]]]},"properties":{"GID_0":"USA","GID_1":"USA.37_1","GID_2":"USA.37.46_1","NAME_1":"Oklahoma","NAME_2":"Mayes"}},
{"type":"Feature","geometry":{"type":"Polygon","coordinates":[[[-97.6729,35.335],[-97.6716,35.1162],[-97.6705,34.8555],[-97.1455,34.8566],[-96.9326,34.8553],[-96.933,34.9665],[-97.0068,34.9106],[-97.1432,34.9305],[-97.331,34.9588],[-97.3437,34.9667],[-97.3538,35.0204],[-97.3543,35.0459],[-97.3489,35.0644],[-97.3548,35.0758],[-97.3653,35.0842],[-97.3984,35.0869],[-97.4072,35.0952],[-97.4046,35.1138],[-97.5539,35.2732],[-97.6729,35.335]]]},"properties":{"GID_0":"USA","GID_1":"USA.37_1","GID_2":"USA.37.47_1","NAME_1":"Oklahoma","NAME_2":"McClain"}},
{"type":"Feature","geometry":{"type":"Polygon","coordinates":[[[-95.1559,33.9369],[-94.9516,33.8113],[-94.8667,33.7441],[-94.801,33.7381],[-94.6869,33.6853],[-94.6467,33.7016],[-94.5264,33.6152],[-94.4863,33.6411],[-94.4638,34.5065],[-95.0505,34.5064],[-95.0477,34.2444],[-95.1512,34.244],[-95.1512,34.1571],[-95.1563,34.157],[-95.1559,33.9369]]]},"properties":{"GID_0":"USA","GID_1":"USA.37_1","GID_2":"USA.37.48_1","NAME_1":"Oklahoma","NAME_2":"McCurtain"}},
{"type":"Feature","geometry":{"type":"Polygon","coordinates":[[[-95.3442,35.2932],[-95.3445,35.552],[-95.8217,35.5522],[-95.8193,35.4617],[-95.8718,35.4627],[-95.8737,35.3746],[-95.9803,35.3751],[-95.9828,35.1515],[-95.9288,35.1433],[-95.8705,35.1857],[-95.7642,35.1774],[-95.6094,35.2498],[-95.4619,35.2929],[-95.4291,35.3031],[-95.3996,35.3272],[-95.35,35.2903],[-95.3442,35.2932]]]},"properties":{"GID_0":"USA","GID_1":"USA.37_1","GID_2":"USA.37.49_1","NAME_1":"Oklahoma","NAME_2":"McIntosh"}},
{"type":"Feature","geometry":{"type":"Polygon","coordinates":[[[-96.9359,34.3337],[-96.8808,34.3336],[-96.8833,34.5087],[-96.832,34.5082],[-96.8313,34.5927],[-96.9346,34.5927],[-96.9345,34.6391],[-97.144,34.6385],[-97.1753,34.5667],[-97.1449,34.5076],[-97.3512,34.5098],[-97.3529,34.3786],[-97.0394,34.3787],[-97.03,34.3349],[-96.9359,34.3337]]]},"properties":{"GID_0":"USA","GID_1":"USA.37_1","GID_2":"USA.37.50_1","NAME_1":"Oklahoma","NAME_2":"Murray"}},
{"type":"Feature","geometry":{"type":"Polygon","coordinates":[[[-95.2663,35.8133],[-95.4723,35.8052],[-95.5984,35.7671],[-95.6545,35.8577],[-95.7653,35.8562],[-95.7674,35.7264],[-95.7135,35.7263],[-95.7126,35.5519],[-95.3445,35.552],[-95.3442,35.2932],[-95.3206,35.3017],[-95.2224,35.2733],[-95.1588,35.372],[-95.1158,35.3779],[-95.0506,35.4579],[-95.0857,35.4617],[-95.1291,35.5514],[-95.128,35.8121],[-95.2663,35.8133]]]},"properties":{"GID_0":"USA","GID_1":"USA.37_1","GID_2":"USA.37.51_1","NAME_1":"Oklahoma","NAME_2":"Muskogee"}},
{"type":"Feature","geometry":{"type":"Polygon","coordinates":[[[-97.4634,36.1652],[-97.3568,36.1656],[-97.3569,36.1583],[-97.1426,36.1588],[-97.1417,36.245],[-96.9277,36.246],[-96.9276,36.3313],[-97.0338,36.3326],[-97.0116,36.506],[-97.0083,36.5204],[-96.977,36.5344],[-96.8968,36.5553],[-96.9162,36.6001],[-97.0153,36.5827],[-97.0512,36.5883],[-97.0568,36.5929],[-97.4626,36.5933],[-97.4634,36.1652]]]},"properties":{"GID_0":"USA","GID_1":"USA.37_1","GID_2":"USA.37.52_1","NAME_1":"Oklahoma","NAME_2":"Noble"}},
{"type":"Feature","geometry":{"type":"Polygon","coordinates":[[[-95.4067,37.0005],[-95.7884,37.0004],[-95.8099,36.9438],[-95.8102,36.5985],[-95.4305,36.5987],[-95.4319,36.9445],[-95.4067,37.0005]]]},"properties":{"GID_0":"USA","GID_1":"USA.37_1","GID_2":"USA.37.53_1","NAME_1":"Oklahoma","NAME_2":"Nowata"}},
{"type":"Feature","geometry":{"type":"Polygon","coordinates":[[[-96.6233,35.6377],[-96.6255,35.4007],[-96.4855,35.4378],[-96.4421,35.4687],[-96.4413,35.2902],[-95.9809,35.2896],[-95.9803,35.3751],[-96.0892,35.3756],[-96.0898,35.5532],[-96.1944,35.553],[-96.1936,35.6365],[-96.6233,35.6377]]]},"properties":{"GID_0":"USA","GID_1":"USA.37_1","GID_2":"USA.37.54_1","NAME_1":"Oklahoma","NAME_2":"Okfuskee"}},
{"type":"Feature","geometry":{"type":"Polygon","coordinates":[[[-97.6733,35.3763],[-97.4076,35.3771],[-97.1442,35.3742],[-97.1452,35.6361],[-97.1436,35.7246],[-97.6757,35.7253],[-97.6719,35.5506],[-97.6733,35.3763]]]},"properties":{"GID_0":"USA","GID_1":"USA.37_1","GID_2":"USA.37.55_1","NAME_1":"Oklahoma","NAME_2":"Oklahoma"}},
{"type":"Feature","geometry":{"type":"Polygon","coordinates":[[[-96.1936,35.6365],[-96.1944,35.553],[-96.0898,35.5532],[-96.0892,35.3756],[-95.8737,35.3746],[-95.8718,35.4627],[-95.8193,35.4617],[-95.8217,35.5522],[-95.7126,35.5519],[-95.7135,35.7263],[-95.7674,35.7264],[-95.7653,35.8562],[-96.0319,35.8565],[-96.1928,35.8589],[-96.1936,35.6365]]]},"properties":{"GID_0":"USA","GID_1":"USA.37_1","GID_2":"USA.37.56_1","NAME_1":"Oklahoma","NAME_2":"Okmulgee"}},
{"type":"Feature","geometry":{"type":"Polygon","coordinates":[[[-96.0004,37.0002],[-96.7532,36.9998],[-96.7554,36.7831],[-96.8907,36.7525],[-96.9477,36.6836],[-97.0606,36.6918],[-97.0568,36.5929],[-97.0512,36.5883],[-97.0153,36.5827],[-96.9162,36.6001],[-96.8968,36.5553],[-96.977,36.5344],[-97.0083,36.5204],[-97.0116,36.506],[-96.9822,36.4692],[-96.8986,36.4719],[-96.8469,36.4991],[-96.8006,36.5545],[-96.7443,36.5571],[-96.7236,36.4482],[-96.635,36.4257],[-96.5271,36.2987],[-96.4383,36.2887],[-96.3444,36.2318],[-96.2652,36.2282],[-96.2756,36.1631],[-95.9997,36.1601],[-96.0004,37.0002]]]},"properties":{"GID_0":"USA","GID_1":"USA.37_1","GID_2":"USA.37.57_1","NAME_1":"Oklahoma","NAME_2":"Osage"}},
{"type":"Feature","geometry":{"type":"Polygon","coordinates":[[[-95.0336,36.9986],[-95.0004,36.9518],[-95.001,36.6723],[-94.6187,36.6694],[-94.619,37],[-95.0336,36.9986]]]},"properties":{"GID_0":"USA","GID_1":"USA.37_1","GID_2":"USA.37.58_1","NAME_1":"Oklahoma","NAME_2":"Ottawa"}},
{"type":"Feature","geometry":{"type":"Polygon","coordinates":[[[-96.3006,36.1632],[-96.2756,36.1631],[-96.2652,36.2282],[-96.3444,36.2318],[-96.4383,36.2887],[-96.5271,36.2987],[-96.635,36.4257],[-96.7236,36.4482],[-96.7443,36.5571],[-96.8006,36.5545],[-96.8469,36.4991],[-96.8986,36.4719],[-96.9822,36.4692],[-97.0116,36.506],[-97.0338,36.3326],[-96.9276,36.3313],[-96.9277,36.246],[-96.8216,36.245],[-96.8212,36.1593],[-96.6245,36.1605],[-96.6244,36.1628],[-96.3006,36.1632]]]},"properties":{"GID_0":"USA","GID_1":"USA.37_1","GID_2":"USA.37.59_1","NAME_1":"Oklahoma","NAME_2":"Pawnee"}},
{"type":"Feature","geometry":{"type":"Polygon","coordinates":[[[-96.6245,36.1605],[-96.8212,36.1593],[-96.8216,36.245],[-97.1417,36.245],[-97.1426,36.1588],[-97.3569,36.1583],[-97.3556,35.9841],[-97.1428,35.9442],[-96.6228,35.9427],[-96.6245,36.1605]]]},"properties":{"GID_0":"USA","GID_1":"USA.37_1","GID_2":"USA.37.60_1","NAME_1":"Oklahoma","NAME_2":"Payne"}},
{"type":"Feature","geometry":{"type":"Polygon","coordinates":[[[-95.6718,34.5936],[-95.5148,34.5931],[-95.5131,34.8552],[-95.5064,34.8551],[-95.5072,35.0293],[-95.3491,35.0294],[-95.3488,35.16],[-95.4552,35.1601],[-95.4506,35.2958],[-95.4619,35.2929],[-95.6094,35.2498],[-95.7642,35.1774],[-95.8705,35.1857],[-95.9288,35.1433],[-95.9828,35.1515],[-96.0904,35.0477],[-96.0925,34.7688],[-96.0936,34.6807],[-95.8816,34.6821],[-95.8801,34.5943],[-95.6718,34.5936]]]},"properties":{"GID_0":"USA","GID_1":"USA.37_1","GID_2":"USA.37.61_1","NAME_1":"Oklahoma","NAME_2":"Pittsburg"}},
{"type":"Feature","geometry":{"type":"Polygon","coordinates":[[[-96.4083,34.7685],[-96.408,34.9266],[-96.4961,34.9076],[-96.5608,34.919],[-96.6891,34.8866],[-96.7032,34.8646],[-96.7681,34.9054],[-96.7823,34.8988],[-96.8035,34.9419],[-96.8902,34.9295],[-96.933,34.9665],[-96.9326,34.8553],[-96.9343,34.8553],[-96.9333,34.7667],[-96.9346,34.5927],[-96.8313,34.5927],[-96.832,34.5082],[-96.7237,34.5088],[-96.5157,34.5069],[-96.5147,34.6795],[-96.4079,34.6795],[-96.4083,34.7685]]]},"properties":{"GID_0":"USA","GID_1":"USA.37_1","GID_2":"USA.37.62_1","NAME_1":"Oklahoma","NAME_2":"Pontotoc"}},
{"type":"Feature","geometry":{"type":"Polygon","coordinates":[[[-97.1432,34.9305],[-97.0068,34.9106],[-96.933,34.9665],[-96.8902,34.9295],[-96.8035,34.9419],[-96.7823,34.8988],[-96.7783,34.9015],[-96.7788,35.4092],[-96.7253,35.425],[-96.6255,35.4007],[-96.6254,35.4602],[-97.1437,35.4645],[-97.1442,35.3742],[-97.1432,34.9305]]]},"properties":{"GID_0":"USA","GID_1":"USA.37_1","GID_2":"USA.37.63_1","NAME_1":"Oklahoma","NAME_2":"Pottawatomie"}},
{"type":"Feature","geometry":{"type":"Polygon","coordinates":[[[-95.7797,34.1566],[-95.1512,34.1571],[-95.1512,34.244],[-95.0477,34.2444],[-95.0505,34.5064],[-94.9378,34.5071],[-94.9398,34.6804],[-95.5142,34.6812],[-95.5148,34.5931],[-95.6718,34.5936],[-95.6718,34.5068],[-95.7794,34.5071],[-95.7797,34.1566]]]},"properties":{"GID_0":"USA","GID_1":"USA.37_1","GID_2":"USA.37.64_1","NAME_1":"Oklahoma","NAME_2":"Pushmataha"}},
{"type":"Feature","geometry":{"type":"Polygon","coordinates":[[[-99.3631,35.508],[-99.3627,35.5489],[-99.3736,35.8111],[-99.3808,35.8991],[-99.3809,36.017],[-99.4303,36.016],[-99.5085,35.9649],[-99.5623,35.8621],[-99.6149,35.84],[-99.7149,35.854],[-99.788,35.8962],[-99.8019,35.9737],[-99.8522,36.0051],[-99.9272,35.9074],[-100.0015,35.8782],[-100.0009,35.4223],[-99.576,35.42],[-99.5755,35.5085],[-99.3631,35.508]]]},"properties":{"GID_0":"USA","GID_1":"USA.37_1","GID_2":"USA.37.65_1","NAME_1":"Oklahoma","NAME_2":"RogerMills"}},
{"type":"Feature","geometry":{"type":"Polygon","coordinates":[[[-95.4305,36.5987],[-95.8148,36.5986],[-95.8133,36.5106],[-95.8141,36.4248],[-95.7958,36.4248],[-95.8148,36.3949],[-95.8171,36.1635],[-95.6216,36.1622],[-95.5819,36.0812],[-95.5792,36.0789],[-95.4409,36.0766],[-95.4352,36.5117],[-95.3292,36.5117],[-95.3284,36.5988],[-95.4305,36.5987]]]},"properties":{"GID_0":"USA","GID_1":"USA.37_1","GID_2":"USA.37.66_1","NAME_1":"Oklahoma","NAME_2":"Rogers"}},
{"type":"Feature","geometry":{"type":"Polygon","coordinates":[[[-96.4413,35.2902],[-96.4421,35.4687],[-96.4855,35.4378],[-96.6255,35.4007],[-96.7253,35.425],[-96.7788,35.4092],[-96.7783,34.9015],[-96.7681,34.9054],[-96.7032,34.8646],[-96.6891,34.8866],[-96.5608,34.919],[-96.4961,34.9076],[-96.4932,35.116],[-96.4393,35.1158],[-96.4413,35.2902]]]},"properties":{"GID_0":"USA","GID_1":"USA.37_1","GID_2":"USA.37.67_1","NAME_1":"Oklahoma","NAME_2":"Seminole"}},
{"type":"Feature","geometry":{"type":"Polygon","coordinates":[[[-94.474,35.6387],[-95.1289,35.6392],[-95.1291,35.5514],[-95.0857,35.4617],[-95.0506,35.4579],[-94.9995,35.4099],[-94.8984,35.3954],[-94.8923,35.3808],[-94.9107,35.3463],[-94.8662,35.3552],[-94.8478,35.3701],[-94.83,35.3656],[-94.8159,35.3251],[-94.734,35.3543],[-94.6337,35.293],[-94.5958,35.3276],[-94.4872,35.302],[-94.4332,35.3809],[-94.474,35.6387]]]},"properties":{"GID_0":"USA","GID_1":"USA.37_1","GID_2":"USA.37.68_1","NAME_1":"Oklahoma","NAME_2":"Sequoyah"}},
{"type":"Feature","geometry":{"type":"Polygon","coordinates":[[[-97.5599,34.5076],[-97.5627,34.5076],[-97.5645,34.6821],[-98.1413,34.6828],[-98.1421,34.5079],[-98.1388,34.5079],[-98.1406,34.2925],[-97.5633,34.2909],[-97.5643,34.4463],[-97.5599,34.5076]]]},"properties":{"GID_0":"USA","GID_1":"USA.37_1","GID_2":"USA.37.69_1","NAME_1":"Oklahoma","NAME_2":"Stephens"}},
{"type":"Feature","geometry":{"type":"Polygon","coordinates":[[[-102.0281,36.9925],[-102.0325,36.5041],[-100.9524,36.4998],[-100.9534,36.8476],[-100.9441,36.9988],[-102.0281,36.9925]]]},"properties":{"GID_0":"USA","GID_1":"USA.37_1","GID_2":"USA.37.70_1","NAME_1":"Oklahoma","NAME_2":"Texas"}},
{"type":"Feature","geometry":{"type":"Polygon","coordinates":[[[-98.8245,34.5954],[-99.0009,34.5943],[-99.0006,34.6383],[-99.1033,34.638],[-99.0981,34.6318],[-99.0826,34.6149],[-99.1639,34.59],[-99.2089,34.4977],[-99.2217,34.4877],[-99.2365,34.4059],[-99.2115,34.3347],[-99.1897,34.2156],[-99.0424,34.1991],[-98.9523,34.2135],[-98.8729,34.1565],[-98.739,34.1268],[-98.6111,34.1575],[-98.6086,34.335],[-98.6609,34.3347],[-98.6607,34.511],[-98.8252,34.5095],[-98.8245,34.5954]]]},"properties":{"GID_0":"USA","GID_1":"USA.37_1","GID_2":"USA.37.71_1","NAME_1":"Oklahoma","NAME_2":"Tillman"}},
{"type":"Feature","geometry":{"type":"Polygon","coordinates":[[[-96.0319,35.8565],[-95.8185,35.856],[-95.8195,35.9035],[-95.7644,35.9038],[-95.7658,36.1635],[-95.8171,36.1635],[-95.8148,36.3949],[-95.7958,36.4248],[-96,36.4255],[-95.9997,36.1601],[-96.3006,36.1632],[-96.2991,36.0778],[-96.0281,36.0764],[-96.0319,35.8565]]]},"properties":{"GID_0":"USA","GID_1":"USA.37_1","GID_2":"USA.37.72_1","NAME_1":"Oklahoma","NAME_2":"Tulsa"}},
{"type":"Feature","geometry":{"type":"Polygon","coordinates":[[[-95.2079,36.0747],[-95.577,36.0779],[-95.5819,36.0812],[-95.6216,36.1622],[-95.7658,36.1635],[-95.7644,35.9038],[-95.8195,35.9035],[-95.8185,35.856],[-95.6545,35.8577],[-95.5984,35.7671],[-95.4723,35.8052],[-95.2663,35.8133],[-95.2288,35.8525],[-95.2829,35.9079],[-95.2079,36.0747]]]},"properties":{"GID_0":"USA","GID_1":"USA.37_1","GID_2":"USA.37.73_1","NAME_1":"Oklahoma","NAME_2":"Wagoner"}},
{"type":"Feature","geometry":{"type":"Polygon","coordinates":[[[-96.0004,37.0002],[-96,36.4255],[-95.8141,36.4248],[-95.8133,36.5106],[-95.8148,36.5986],[-95.8102,36.5985],[-95.8099,36.9438],[-95.7884,37.0004],[-96.0004,37.0002]]]},"properties":{"GID_0":"USA","GID_1":"USA.37_1","GID_2":"USA.37.74_1","NAME_1":"Oklahoma","NAME_2":"Washington"}},
{"type":"Feature","geometry":{"type":"Polygon","coordinates":[[[-99.3595,35.1163],[-98.8244,35.1176],[-98.6177,35.0994],[-98.616,35.2038],[-98.6216,35.2038],[-98.6209,35.4639],[-99.3629,35.4649],[-99.3627,35.2034],[-99.3595,35.1163]]]},"properties":{"GID_0":"USA","GID_1":"USA.37_1","GID_2":"USA.37.75_1","NAME_1":"Oklahoma","NAME_2":"Washita"}},
{"type":"Feature","geometry":{"type":"Polygon","coordinates":[[[-98.5457,37.0002],[-99.4516,37],[-99.3697,36.8815],[-99.3144,36.8608],[-99.3138,36.8572],[-99.2958,36.8096],[-99.1572,36.7854],[-99.0486,36.6984],[-98.9593,36.5992],[-98.9604,36.507],[-98.8538,36.5051],[-98.8321,36.4997],[-98.8167,36.4575],[-98.7065,36.4228],[-98.6973,36.4164],[-98.5974,36.3903],[-98.5322,36.3982],[-98.5327,36.5937],[-98.5457,37.0002]]]},"properties":{"GID_0":"USA","GID_1":"USA.37_1","GID_2":"USA.37.76_1","NAME_1":"Oklahoma","NAME_2":"Woods"}},
{"type":"Feature","geometry":{"type":"Polygon","coordinates":[[[-98.9565,36.1587],[-98.9606,36.247],[-98.9611,36.4779],[-98.9593,36.5992],[-99.0486,36.6984],[-99.1572,36.7854],[-99.2958,36.8096],[-99.2961,36.5937],[-99.605,36.5917],[-99.6034,36.2457],[-99.5976,36.1639],[-99.382,36.1645],[-98.9565,36.1587]]]},"properties":{"GID_0":"USA","GID_1":"USA.37_1","GID_2":"USA.37.77_1","NAME_1":"Oklahoma","NAME_2":"Woodward"}}
]}