{"type":"FeatureCollection", "features": [
{"type":"Feature","geometry":{"type":"Polygon","coordinates":[[[-73.2942,41.4476],[-73.3043,41.4716],[-73.3128,41.4675],[-73.3756,41.4893],[-73.3875,41.5151],[-73.4437,41.4925],[-73.4459,41.5251],[-73.4978,41.6387],[-73.4845,41.6479],[-73.5198,41.6676],[-73.5333,41.4977],[-73.5523,41.2933],[-73.4838,41.2136],[-73.7297,41.1009],[-73.657,41.0119],[-73.6253,41.0033],[-73.6007,41.0183],[-73.57,41.0106],[-73.5416,41.033],[-73.4757,41.0431],[-73.4077,41.0716],[-73.4009,41.0914],[-73.3579,41.1062],[-73.3087,41.115],[-73.285,41.1278],[-73.262,41.118],[-73.2365,41.1413],[-73.1736,41.1686],[-73.1377,41.1484],[-73.1175,41.1513],[-73.1106,41.1712],[-73.1216,41.1881],[-73.1095,41.2022],[-73.1103,41.2299],[-73.0909,41.2468],[-73.0887,41.2722],[-73.0663,41.3],[-73.1161,41.3324],[-73.1581,41.3776],[-73.1741,41.3843],[-73.218,41.4295],[-73.2659,41.4369],[-73.2734,41.4519],[-73.2942,41.4476]]]},"properties":{"GID_0":"USA","GID_1":"USA.7_1","GID_2":"USA.7.1_1","NAME_1":"Connecticut","NAME_2":"Fairfield"}},
{"type":"Feature","geometry":{"type":"Polygon","coordinates":[[[-72.983,41.6398],[-72.9388,41.6445],[-72.9337,41.6082],[-72.9463,41.5569],[-72.7524,41.5792],[-72.7525,41.5928],[-72.7316,41.5961],[-72.7157,41.6056],[-72.7139,41.6278],[-72.6304,41.6334],[-72.5051,41.6471],[-72.4664,41.5844],[-72.4173,41.5908],[-72.4105,41.6017],[-72.4098,41.6312],[-72.4295,41.6625],[-72.4479,41.6721],[-72.4755,41.8128],[-72.5069,41.8101],[-72.4971,41.8605],[-72.5186,41.8573],[-72.5137,41.9454],[-72.4921,41.9477],[-72.5094,42.0349],[-72.5732,42.0301],[-72.7077,42.0371],[-72.7574,42.0362],[-72.7686,42.0043],[-72.8182,41.9979],[-72.8155,42.0377],[-73.0087,42.0395],[-73.0297,41.967],[-72.8872,41.9734],[-72.9151,41.897],[-72.9404,41.8956],[-72.9537,41.8551],[-72.9364,41.8407],[-72.9491,41.8066],[-73.0167,41.7986],[-72.983,41.6398]]]},"properties":{"GID_0":"USA","GID_1":"USA.7_1","GID_2":"USA.7.2_1","NAME_1":"Connecticut","NAME_2":"Hartford"}},
{"type":"Feature","geometry":{"type":"Polygon","coordinates":[[[-73.3103,41.4689],[-73.3271,41.4851],[-73.3194,41.5056],[-73.2422,41.5133],[-73.2041,41.5085],[-73.1557,41.5142],[-73.1647,41.5578],[-73.0924,41.5704],[-73.0589,41.6068],[-73.0216,41.6274],[-72.983,41.6398],[-73.0167,41.7986],[-72.9491,41.8066],[-72.9364,41.8407],[-72.9537,41.8551],[-72.9404,41.8956],[-72.9151,41.897],[-72.8872,41.9734],[-73.0297,41.967],[-73.0087,42.0395],[-73.3658,42.0497],[-73.4901,42.0497],[-73.4923,41.9865],[-73.5038,41.8662],[-73.5198,41.6676],[-73.4845,41.6479],[-73.4978,41.6387],[-73.4459,41.5251],[-73.4437,41.4925],[-73.3875,41.5151],[-73.3756,41.4893],[-73.3128,41.4675],[-73.3103,41.4689]]]},"properties":{"GID_0":"USA","GID_1":"USA.7_1","GID_2":"USA.7.3_1","NAME_1":"Connecticut","NAME_2":"Litchfield"}},
{"type":"Feature","geometry":{"type":"Polygon","coordinates":[[[-72.7316,41.5961],[-72.7525,41.5928],[-72.7524,41.5792],[-72.7391,41.4385],[-72.7464,41.4235],[-72.6545,41.4387],[-72.6447,41.4151],[-72.6122,41.3865],[-72.6121,41.328],[-72.5448,41.2736],[-72.5192,41.2578],[-72.4506,41.2794],[-72.3997,41.2786],[-72.3881,41.2608],[-72.3464,41.3097],[-72.3422,41.2969],[-72.3342,41.2836],[-72.3265,41.2902],[-72.3442,41.3048],[-72.3454,41.3116],[-72.3405,41.3297],[-72.3435,41.3388],[-72.3655,41.3488],[-72.3857,41.3861],[-72.4248,41.3938],[-72.4279,41.4233],[-72.3054,41.4363],[-72.3235,41.5344],[-72.4302,41.5245],[-72.4664,41.5844],[-72.5051,41.6471],[-72.6304,41.6334],[-72.7139,41.6278],[-72.7157,41.6056],[-72.7316,41.5961]]]},"properties":{"GID_0":"USA","GID_1":"USA.7_1","GID_2":"USA.7.4_1","NAME_1":"Connecticut","NAME_2":"Middlesex"}},
{"type":"Feature","geometry":{"type":"Polygon","coordinates":[[[-73.2734,41.4519],[-73.2659,41.4369],[-73.218,41.4295],[-73.1741,41.3843],[-73.1581,41.3776],[-73.1161,41.3324],[-73.0663,41.3],[-73.0887,41.2722],[-73.0909,41.2468],[-73.1103,41.2299],[-73.1095,41.2022],[-73.1216,41.1881],[-73.1106,41.1712],[-73.0468,41.2122],[-73.014,41.2048],[-73.0028,41.2225],[-72.9756,41.2333],[-72.9611,41.2519],[-72.9075,41.2906],[-72.8936,41.2419],[-72.8617,41.2456],[-72.8296,41.2588],[-72.8106,41.2503],[-72.7861,41.265],[-72.75,41.2589],[-72.7058,41.2597],[-72.6772,41.2675],[-72.5448,41.2736],[-72.6121,41.328],[-72.6122,41.3865],[-72.6447,41.4151],[-72.6545,41.4387],[-72.7464,41.4235],[-72.7391,41.4385],[-72.7524,41.5792],[-72.9463,41.5569],[-72.9337,41.6082],[-72.9388,41.6445],[-72.983,41.6398],[-73.0216,41.6274],[-73.0589,41.6068],[-73.0924,41.5704],[-73.1647,41.5578],[-73.1557,41.5142],[-73.2041,41.5085],[-73.2422,41.5133],[-73.3194,41.5056],[-73.3271,41.4851],[-73.3103,41.4689],[-73.3043,41.4716],[-73.2942,41.4476],[-73.2734,41.4519]]]},"properties":{"GID_0":"USA","GID_1":"USA.7_1","GID_2":"USA.7.5_1","NAME_1":"Connecticut","NAME_2":"NewHaven"}},
{"type":"Feature","geometry":{"type":"Polygon","coordinates":[[[-72.4173,41.5908],[-72.4664,41.5844],[-72.4302,41.5245],[-72.3235,41.5344],[-72.3054,41.4363],[-72.4279,41.4233],[-72.4248,41.3938],[-72.3857,41.3861],[-72.3655,41.3488],[-72.3435,41.3388],[-72.3405,41.3297],[-72.3454,41.3116],[-72.3442,41.3048],[-72.3265,41.2902],[-72.3127,41.2774],[-72.2311,41.2967],[-72.1783,41.3231],[-72.1636,41.3083],[-72.1117,41.2992],[-72.0883,41.3231],[-72.0447,41.3225],[-72.0111,41.3106],[-71.9612,41.348],[-71.9504,41.338],[-71.8956,41.3341],[-71.8598,41.3224],[-71.8317,41.3445],[-71.8406,41.4094],[-71.7977,41.4187],[-71.7898,41.5689],[-71.7883,41.6401],[-71.8581,41.6446],[-71.9522,41.6346],[-72.0995,41.6592],[-72.1756,41.6689],[-72.24,41.7145],[-72.2783,41.6723],[-72.3336,41.6438],[-72.3239,41.6188],[-72.343,41.5993],[-72.4105,41.6017],[-72.4173,41.5908]]]},"properties":{"GID_0":"USA","GID_1":"USA.7_1","GID_2":"USA.7.6_1","NAME_1":"Connecticut","NAME_2":"NewLondon"}},
{"type":"Feature","geometry":{"type":"Polygon","coordinates":[[[-72.4105,41.6017],[-72.343,41.5993],[-72.3239,41.6188],[-72.3336,41.6438],[-72.2783,41.6723],[-72.24,41.7145],[-72.2449,41.7181],[-72.1975,41.7285],[-72.1882,41.7548],[-72.1562,41.7538],[-72.1644,41.8351],[-72.2174,41.8357],[-72.2169,41.9587],[-72.0996,41.9593],[-72.1023,42.0295],[-72.5094,42.0349],[-72.4921,41.9477],[-72.5137,41.9454],[-72.5186,41.8573],[-72.4971,41.8605],[-72.5069,41.8101],[-72.4755,41.8128],[-72.4479,41.6721],[-72.4295,41.6625],[-72.4098,41.6312],[-72.4105,41.6017]]]},"properties":{"GID_0":"USA","GID_1":"USA.7_1","GID_2":"USA.7.7_1","NAME_1":"Connecticut","NAME_2":"Tolland"}},
{"type":"Feature","geometry":{"type":"Polygon","coordinates":[[[-71.7883,41.6401],[-71.7991,42.0238],[-72.1023,42.0295],[-72.0996,41.9593],[-72.2169,41.9587],[-72.2174,41.8357],[-72.1644,41.8351],[-72.1562,41.7538],[-72.1882,41.7548],[-72.1975,41.7285],[-72.2449,41.7181],[-72.1756,41.6689],[-72.0995,41.6592],[-71.9522,41.6346],[-71.8581,41.6446],[-71.7883,41.6401]]]},"properties":{"GID_0":"USA","GID_1":"USA.7_1","GID_2":"USA.7.8_1","NAME_1":"Connecticut","NAME_2":"Windham"}}
]}