{"type":"FeatureCollection", "features": [
{"type":"Feature","geometry":{"type":"Polygon","coordinates":[[[-155.8719,20.0883],[-155.8234,20.0276],[-155.8257,19.99],[-155.8556,19.9661],[-155.8914,19.9197],[-155.9367,19.8497],[-155.96,19.8531],[-156.0503,19.7744],[-156.0491,19.7003],[-156.03,19.6775],[-156.0328,19.6563],[-156.0028,19.6372],[-155.9753,19.6046],[-155.96,19.5136],[-155.9508,19.4869],[-155.9203,19.4769],[-155.9222,19.4364],[-155.9061,19.4131],[-155.8847,19.3322],[-155.9017,19.2481],[-155.9103,19.15],[-155.9189,19.115],[-155.9072,19.0797],[-155.8819,19.0364],[-155.8508,19.0189],[-155.7953,19.0042],[-155.7593,18.9771],[-155.7233,18.9664],[-155.6864,18.9372],[-155.6773,18.9099],[-155.6378,18.9347],[-155.6183,18.9692],[-155.5516,19.052],[-155.5531,19.0756],[-155.504,19.1357],[-155.4523,19.1474],[-155.4154,19.1838],[-155.3471,19.2135],[-155.3349,19.2336],[-155.2936,19.2634],[-155.262,19.271],[-155.2078,19.2562],[-155.1305,19.2728],[-155.0714,19.3111],[-155.0496,19.3137],[-154.9725,19.3489],[-154.9094,19.4061],[-154.8895,19.4144],[-154.8206,19.4769],[-154.8058,19.5161],[-154.8256,19.535],[-154.9031,19.5689],[-154.9444,19.6022],[-154.9442,19.6206],[-154.9753,19.6331],[-154.9781,19.6883],[-155.0022,19.7364],[-155.0311,19.74],[-155.0714,19.725],[-155.0903,19.7347],[-155.0858,19.7828],[-155.0911,19.8119],[-155.0811,19.8475],[-155.1572,19.9325],[-155.2119,19.9753],[-155.2746,20.0165],[-155.3281,20.0361],[-155.4383,20.0925],[-155.5133,20.1119],[-155.5561,20.1289],[-155.5878,20.1188],[-155.6378,20.1456],[-155.6514,20.1647],[-155.7243,20.2004],[-155.7435,20.2288],[-155.8375,20.2673],[-155.8881,20.2517],[-155.9042,20.1973],[-155.8919,20.1253],[-155.8719,20.0883]]]},"properties":{"GID_0":"USA","GID_1":"USA.12_1","GID_2":"USA.12.1_1","NAME_1":"Hawaii","NAME_2":"Hawaii"}},
{"type":"Feature","geometry":{"type":"Polygon","coordinates":[[[-157.9808,21.7108],[-158.0092,21.7011],[-158.0633,21.655],[-158.0767,21.6256],[-158.1298,21.582],[-158.2408,21.5814],[-158.283,21.5756],[-158.2303,21.5349],[-158.2317,21.4825],[-158.1798,21.4264],[-158.1803,21.4065],[-158.1417,21.3764],[-158.1139,21.3031],[-158.1031,21.295],[-158.0315,21.3038],[-157.9706,21.3225],[-157.9914,21.3777],[-157.9458,21.3807],[-157.9683,21.3489],[-157.9499,21.3035],[-157.9005,21.3259],[-157.8685,21.2953],[-157.7967,21.2569],[-157.773,21.2712],[-157.7178,21.2828],[-157.7119,21.2628],[-157.6503,21.3003],[-157.7035,21.3464],[-157.7059,21.38],[-157.7425,21.4113],[-157.7578,21.4353],[-157.7814,21.4114],[-157.8387,21.459],[-157.851,21.5085],[-157.8338,21.5265],[-157.9209,21.6268],[-157.9451,21.6881],[-157.9808,21.7108]]]},"properties":{"GID_0":"USA","GID_1":"USA.12_1","GID_2":"USA.12.2_1","NAME_1":"Hawaii","NAME_2":"Honolulu"}},
{"type":"Feature","geometry":{"type":"Polygon","coordinates":[[[-156.9202,21.1551],[-156.9433,21.1727],[-156.9706,21.2158],[-156.9874,21.1834],[-157.0149,21.1737],[-156.9828,21.1695],[-156.9212,21.1227],[-156.9202,21.1551]]]},"properties":{"GID_0":"USA","GID_1":"USA.12_1","GID_2":"USA.12.3_1","NAME_1":"Hawaii","NAME_2":"Kalawao"}},
{"type":"Feature","geometry":{"type":"MultiPolygon","coordinates":[[[[-160.0856,22.0028],[-160.1113,21.9941],[-160.1285,21.9513],[-160.1964,21.9158],[-160.2294,21.8856],[-160.2456,21.8475],[-160.2472,21.8153],[-160.2328,21.7911],[-160.2025,21.7883],[-160.1611,21.8614],[-160.0672,21.8935],[-160.0686,21.9678],[-160.0544,21.995],[-160.0856,22.0028]]],[[[-159.4018,22.235],[-159.426,22.2173],[-159.4768,22.2305],[-159.5169,22.2138],[-159.5475,22.2242],[-159.5865,22.2205],[-159.6598,22.1719],[-159.7223,22.1531],[-159.746,22.0968],[-159.7858,22.0619],[-159.7856,22.0147],[-159.7564,21.9786],[-159.6664,21.9524],[-159.6363,21.9153],[-159.5982,21.894],[-159.5125,21.8881],[-159.4441,21.868],[-159.4096,21.89],[-159.3795,21.9217],[-159.3556,21.9312],[-159.3305,21.9595],[-159.3389,22.0175],[-159.2929,22.1221],[-159.3146,22.1859],[-159.3501,22.2151],[-159.3825,22.2164],[-159.4018,22.235]]]]},"properties":{"GID_0":"USA","GID_1":"USA.12_1","GID_2":"USA.12.4_1","NAME_1":"Hawaii","NAME_2":"Kauai"}},
{"type":"Feature","geometry":{"type":"MultiPolygon","coordinates":[[[[-156.6001,21.031],[-156.6658,21],[-156.6925,20.9472],[-156.6966,20.9156],[-156.6871,20.882],[-156.6283,20.8136],[-156.5654,20.7918],[-156.5366,20.7743],[-156.4988,20.7969],[-156.4631,20.7812],[-156.4478,20.7213],[-156.4414,20.605],[-156.4125,20.5828],[-156.3736,20.5739],[-156.3486,20.5831],[-156.2972,20.5822],[-156.2211,20.6194],[-156.1927,20.6283],[-156.1403,20.6178],[-156.1108,20.6396],[-156.0472,20.6508],[-156.0261,20.6803],[-155.9872,20.7083],[-155.985,20.7739],[-156.0019,20.7947],[-156.0558,20.8072],[-156.0844,20.8289],[-156.1081,20.825],[-156.1331,20.8581],[-156.1555,20.8592],[-156.2389,20.9353],[-156.2738,20.9344],[-156.3294,20.9456],[-156.3836,20.9161],[-156.423,20.9106],[-156.4739,20.8908],[-156.4964,20.9311],[-156.525,20.9642],[-156.5265,20.9805],[-156.5574,21.0116],[-156.6001,21.031]]],[[[-156.5686,20.6036],[-156.6117,20.5886],[-156.6314,20.5725],[-156.6778,20.5556],[-156.6986,20.5336],[-156.6786,20.5028],[-156.6403,20.5044],[-156.6204,20.5157],[-156.5857,20.5085],[-156.5518,20.5339],[-156.5391,20.5767],[-156.5686,20.6036]]],[[[-156.9794,20.9265],[-157.0347,20.9228],[-157.0579,20.909],[-157.0525,20.8728],[-156.9981,20.8408],[-156.9863,20.8117],[-156.9931,20.7867],[-156.9636,20.7308],[-156.887,20.7375],[-156.8287,20.7682],[-156.8054,20.808],[-156.8284,20.8558],[-156.9005,20.9151],[-156.9794,20.9265]]],[[[-157.0149,21.1737],[-157.0652,21.1952],[-157.1795,21.2041],[-157.2097,21.2195],[-157.2394,21.2175],[-157.2508,21.1775],[-157.2919,21.1428],[-157.3114,21.1014],[-157.2525,21.0877],[-157.1488,21.0912],[-157.0937,21.1026],[-156.8909,21.0488],[-156.8358,21.0547],[-156.7486,21.1028],[-156.7109,21.1479],[-156.7393,21.173],[-156.8011,21.1752],[-156.8331,21.1635],[-156.9139,21.1672],[-156.9202,21.1551],[-156.9212,21.1227],[-156.9828,21.1695],[-157.0149,21.1737]]]]},"properties":{"GID_0":"USA","GID_1":"USA.12_1","GID_2":"USA.12.5_1","NAME_1":"Hawaii","NAME_2":"Maui"}}
]}