{"type":"FeatureCollection", "features": [
{"type":"Feature","geometry":{"type":"Polygon","coordinates":[[[-79.5314,36.2502],[-79.5362,36.023],[-79.5421,35.9001],[-79.5424,35.8433],[-79.2388,35.8436],[-79.2521,35.8768],[-79.2756,35.9101],[-79.2637,36.0307],[-79.2593,36.2443],[-79.5314,36.2502]]]},"properties":{"GID_0":"USA","GID_1":"USA.34_1","GID_2":"USA.34.1_1","NAME_1":"NorthCarolina","NAME_2":"Alamance"}},
{"type":"Feature","geometry":{"type":"Polygon","coordinates":[[[-81.332,35.7982],[-81.2233,35.8111],[-81.2036,35.8236],[-81.1424,35.8269],[-81.1242,35.789],[-81.1116,35.7791],[-81.0791,35.8026],[-81.0412,35.856],[-81.009,35.9515],[-81.005,35.9929],[-81.0291,36.0512],[-81.0607,36.0323],[-81.1062,36.0287],[-81.1462,36.0406],[-81.1687,36.0268],[-81.1894,36.0388],[-81.2717,36.0261],[-81.3298,35.9969],[-81.3438,35.9206],[-81.3328,35.8758],[-81.3441,35.8448],[-81.332,35.7982]]]},"properties":{"GID_0":"USA","GID_1":"USA.34_1","GID_2":"USA.34.2_1","NAME_1":"NorthCarolina","NAME_2":"Alexander"}},
{"type":"Feature","geometry":{"type":"Polygon","coordinates":[[[-81.2392,36.3703],[-81.2239,36.3791],[-81.1911,36.4017],[-81.1671,36.4341],[-81.14,36.4199],[-81.0911,36.4425],[-81.0461,36.4171],[-81.021,36.376],[-80.9818,36.3913],[-80.9518,36.417],[-80.9734,36.4495],[-80.9328,36.5006],[-80.9072,36.5611],[-81.3497,36.5729],[-81.3527,36.551],[-81.3214,36.4974],[-81.2731,36.4476],[-81.2672,36.4045],[-81.2481,36.3889],[-81.2467,36.3748],[-81.2392,36.3703]]]},"properties":{"GID_0":"USA","GID_1":"USA.34_1","GID_2":"USA.34.3_1","NAME_1":"NorthCarolina","NAME_2":"Alleghany"}},
{"type":"Feature","geometry":{"type":"Polygon","coordinates":[[[-80.0768,35.1471],[-80.1089,35.1684],[-80.1179,35.192],[-80.1724,35.1624],[-80.1673,35.1466],[-80.1836,35.1465],[-80.2034,35.1651],[-80.2382,35.1587],[-80.2592,35.2118],[-80.2789,35.1995],[-80.32,34.8137],[-79.9248,34.8084],[-79.8984,34.8601],[-79.8664,34.8783],[-79.8495,34.9109],[-79.8736,34.9491],[-79.8629,34.9754],[-79.901,35.0041],[-79.8791,35.0331],[-79.8824,35.0513],[-79.911,35.0713],[-79.9121,35.0981],[-79.9329,35.119],[-79.9762,35.1067],[-79.9981,35.0854],[-80.0374,35.0922],[-80.0751,35.1153],[-80.0768,35.1471]]]},"properties":{"GID_0":"USA","GID_1":"USA.34_1","GID_2":"USA.34.4_1","NAME_1":"NorthCarolina","NAME_2":"Anson"}},
{"type":"Feature","geometry":{"type":"Polygon","coordinates":[[[-81.3497,36.5729],[-81.5878,36.588],[-81.6758,36.589],[-81.7081,36.5348],[-81.6969,36.4686],[-81.7382,36.4092],[-81.7301,36.3903],[-81.6411,36.3514],[-81.5721,36.2757],[-81.5476,36.276],[-81.4951,36.249],[-81.4801,36.2401],[-81.4741,36.2547],[-81.4321,36.267],[-81.4121,36.2945],[-81.3669,36.2887],[-81.3612,36.3509],[-81.3217,36.3794],[-81.2647,36.3574],[-81.2392,36.3703],[-81.2467,36.3748],[-81.2481,36.3889],[-81.2672,36.4045],[-81.2731,36.4476],[-81.3214,36.4974],[-81.3527,36.551],[-81.3497,36.5729]]]},"properties":{"GID_0":"USA","GID_1":"USA.34_1","GID_2":"USA.34.5_1","NAME_1":"NorthCarolina","NAME_2":"Ashe"}},
{"type":"Feature","geometry":{"type":"Polygon","coordinates":[[[-81.8073,35.9643],[-81.738,36.0656],[-81.7746,36.0987],[-81.8113,36.1117],[-81.8303,36.1668],[-81.8583,36.1936],[-81.8851,36.1904],[-81.9066,36.2087],[-81.8992,36.2778],[-81.9204,36.2846],[-82.0052,36.1635],[-82.026,36.1277],[-82.0823,36.1041],[-82.0721,36.0666],[-82.0403,36.0073],[-82.0568,35.9848],[-82.0324,35.9448],[-81.9815,35.9103],[-81.9642,35.9432],[-81.9318,35.9678],[-81.9059,35.9982],[-81.8724,35.9783],[-81.8301,35.9703],[-81.8142,35.9701],[-81.8073,35.9643]]]},"properties":{"GID_0":"USA","GID_1":"USA.34_1","GID_2":"USA.34.6_1","NAME_1":"NorthCarolina","NAME_2":"Avery"}},
{"type":"Feature","geometry":{"type":"MultiPolygon","coordinates":[[[[-76.6123,35.2755],[-76.6339,35.2903],[-76.6233,35.3414],[-76.6563,35.3397],[-76.7186,35.375],[-76.7987,35.3903],[-76.844,35.4241],[-76.8767,35.425],[-76.9289,35.4485],[-76.9674,35.4331],[-76.9839,35.4708],[-77.0352,35.4933],[-77.0232,35.5063],[-77.0722,35.5443],[-77.104,35.5511],[-77.1271,35.5539],[-77.1765,35.5179],[-77.1736,35.4565],[-77.1889,35.426],[-77.1903,35.4192],[-76.9317,35.2779],[-76.8955,35.2538],[-76.8519,35.2177],[-76.63,35.2443],[-76.6123,35.2755]]],[[[-76.6239,35.69],[-76.6385,35.7054],[-76.8295,35.7057],[-76.9772,35.6528],[-77.1637,35.7396],[-77.1741,35.733],[-77.1951,35.704],[-77.17,35.6757],[-77.1732,35.6354],[-77.1089,35.5707],[-77.0865,35.5634],[-77.0103,35.5142],[-76.9791,35.4839],[-76.9058,35.4595],[-76.832,35.4481],[-76.7705,35.4282],[-76.7108,35.4289],[-76.655,35.4068],[-76.576,35.3881],[-76.6078,35.4586],[-76.6284,35.5199],[-76.6069,35.5406],[-76.537,35.5286],[-76.4851,35.5384],[-76.4797,35.5589],[-76.4917,35.5719],[-76.4975,35.5694],[-76.5056,35.5756],[-76.5192,35.5772],[-76.5274,35.5819],[-76.5884,35.6205],[-76.606,35.6464],[-76.601,35.6689],[-76.6239,35.69]]]]},"properties":{"GID_0":"USA","GID_1":"USA.34_1","GID_2":"USA.34.7_1","NAME_1":"NorthCarolina","NAME_2":"Beaufort"}},
{"type":"Feature","geometry":{"type":"Polygon","coordinates":[[[-77.3285,36.0684],[-77.3209,36.0578],[-77.2078,36.0066],[-77.1902,35.9735],[-77.2013,35.9497],[-77.1227,35.9256],[-77.0554,35.9453],[-77.0265,35.9278],[-77.0249,35.8955],[-77.0444,35.8629],[-77.0332,35.8576],[-77.0036,35.8591],[-76.9417,35.9016],[-76.9036,35.8765],[-76.8929,35.8181],[-76.8976,35.8146],[-76.8823,35.812],[-76.8401,35.8449],[-76.8345,35.8847],[-76.7963,35.875],[-76.7825,35.8656],[-76.7746,35.8631],[-76.7459,35.8714],[-76.7242,35.9126],[-76.7033,35.9234],[-76.6977,35.9339],[-76.6985,35.9425],[-76.7247,35.9554],[-76.6818,35.9912],[-76.7305,36.0751],[-76.7264,36.0967],[-76.7554,36.151],[-76.7535,36.1896],[-76.7362,36.2352],[-76.7231,36.2429],[-76.896,36.2431],[-76.9704,36.2377],[-77.1227,36.2401],[-77.2115,36.2445],[-77.2297,36.2168],[-77.2926,36.2123],[-77.2993,36.1848],[-77.2901,36.171],[-77.2531,36.1365],[-77.2448,36.0991],[-77.3169,36.0885],[-77.3285,36.0684]]]},"properties":{"GID_0":"USA","GID_1":"USA.34_1","GID_2":"USA.34.8_1","NAME_1":"NorthCarolina","NAME_2":"Bertie"}},
{"type":"Feature","geometry":{"type":"Polygon","coordinates":[[[-78.2606,34.3975],[-78.1778,34.4617],[-78.234,34.4889],[-78.2674,34.5176],[-78.2624,34.5425],[-78.2572,34.5497],[-78.2579,34.5652],[-78.3144,34.6146],[-78.3322,34.6685],[-78.373,34.6927],[-78.3954,34.7466],[-78.4224,34.7646],[-78.4446,34.8017],[-78.504,34.8584],[-78.5062,34.8611],[-78.5142,34.8521],[-78.8262,34.8525],[-78.9038,34.8369],[-78.8726,34.7876],[-78.8433,34.7241],[-78.8108,34.6934],[-78.8055,34.6747],[-78.8586,34.5594],[-78.8499,34.5084],[-78.8664,34.485],[-78.8288,34.461],[-78.6698,34.4702],[-78.4409,34.3769],[-78.3563,34.3739],[-78.3348,34.3663],[-78.2606,34.3975]]]},"properties":{"GID_0":"USA","GID_1":"USA.34_1","GID_2":"USA.34.9_1","NAME_1":"NorthCarolina","NAME_2":"Bladen"}},
{"type":"Feature","geometry":{"type":"MultiPolygon","coordinates":[[[[-77.9514,33.9236],[-77.9539,33.9014],[-77.9886,33.8939],[-78.0088,33.8673],[-77.9614,33.8433],[-77.95,33.9014],[-77.9514,33.9236]]],[[[-78.3881,33.9006],[-78.4039,33.9028],[-78.4706,33.8883],[-78.5394,33.8756],[-78.5444,33.8481],[-78.5044,33.8675],[-78.3881,33.9006]]],[[[-77.9589,34.2436],[-77.9945,34.2846],[-78.016,34.2923],[-78.0102,34.3217],[-78.0259,34.3188],[-78.0278,34.3293],[-78.0372,34.3317],[-78.0456,34.3296],[-78.0795,34.3351],[-78.126,34.3659],[-78.1579,34.3596],[-78.2597,34.2166],[-78.3771,34.2056],[-78.376,34.1797],[-78.4324,34.1355],[-78.5168,34.1625],[-78.545,34.1428],[-78.5479,34.1333],[-78.5633,34.054],[-78.5931,34.0261],[-78.6423,34.0054],[-78.6317,33.9771],[-78.6496,33.9434],[-78.5619,33.8656],[-78.5392,33.8769],[-78.4861,33.8886],[-78.4333,33.8969],[-78.4031,33.9044],[-78.3889,33.9053],[-78.3758,33.9139],[-78.3611,33.91],[-78.32,33.9167],[-78.2697,33.9167],[-78.2197,33.9261],[-78.2067,33.9139],[-78.1578,33.9142],[-78.0925,33.9067],[-78.02,33.8873],[-78.0185,33.9156],[-77.9936,33.9297],[-77.9686,33.9722],[-77.9439,34.0294],[-77.9403,34.0781],[-77.9467,34.1119],[-77.9694,34.1661],[-77.9575,34.1885],[-77.9502,34.2343],[-77.9589,34.2436]]]]},"properties":{"GID_0":"USA","GID_1":"USA.34_1","GID_2":"USA.34.10_1","NAME_1":"NorthCarolina","NAME_2":"Brunswick"}},
{"type":"Feature","geometry":{"type":"Polygon","coordinates":[[[-82.7445,35.423],[-82.7132,35.4482],[-82.6684,35.4592],[-82.6391,35.4435],[-82.5697,35.4321],[-82.5652,35.4449],[-82.4737,35.4458],[-82.422,35.4732],[-82.367,35.4652],[-82.3727,35.4846],[-82.3319,35.5004],[-82.2545,35.4629],[-82.224,35.5011],[-82.2275,35.5251],[-82.1706,35.5316],[-82.2206,35.5575],[-82.2519,35.5637],[-82.2918,35.5938],[-82.2653,35.6165],[-82.2837,35.6439],[-82.2934,35.685],[-82.2765,35.7066],[-82.2868,35.7287],[-82.3357,35.7532],[-82.3412,35.8039],[-82.3839,35.8257],[-82.4407,35.8096],[-82.5103,35.8041],[-82.6651,35.7376],[-82.7811,35.6995],[-82.8016,35.6868],[-82.8446,35.7012],[-82.8863,35.6784],[-82.8483,35.618],[-82.8118,35.6262],[-82.7982,35.5956],[-82.7672,35.5668],[-82.8003,35.468],[-82.7801,35.4403],[-82.7445,35.423]]]},"properties":{"GID_0":"USA","GID_1":"USA.34_1","GID_2":"USA.34.11_1","NAME_1":"NorthCarolina","NAME_2":"Buncombe"}},
{"type":"Feature","geometry":{"type":"Polygon","coordinates":[[[-81.9447,35.9585],[-81.9383,35.9523],[-81.9329,35.9442],[-81.9169,35.9154],[-81.9099,35.8856],[-81.9215,35.8527],[-81.957,35.8204],[-81.9907,35.8076],[-81.8695,35.7215],[-81.8248,35.581],[-81.774,35.5877],[-81.7501,35.6076],[-81.7158,35.6031],[-81.6963,35.5766],[-81.6762,35.5655],[-81.6461,35.561],[-81.6005,35.5684],[-81.5709,35.5597],[-81.5383,35.5688],[-81.5338,35.567],[-81.5287,35.5712],[-81.5062,35.6059],[-81.429,35.6791],[-81.4024,35.7112],[-81.3783,35.7568],[-81.4021,35.7593],[-81.4537,35.7872],[-81.5585,35.7804],[-81.602,35.8257],[-81.6433,35.8501],[-81.711,35.8782],[-81.7769,35.9326],[-81.8009,35.959],[-81.8142,35.9701],[-81.8301,35.9703],[-81.8724,35.9783],[-81.9059,35.9982],[-81.9318,35.9678],[-81.9447,35.9585]]]},"properties":{"GID_0":"USA","GID_1":"USA.34_1","GID_2":"USA.34.12_1","NAME_1":"NorthCarolina","NAME_2":"Burke"}},
{"type":"Feature","geometry":{"type":"Polygon","coordinates":[[[-80.7823,35.5113],[-80.7889,35.4949],[-80.7549,35.423],[-80.7693,35.402],[-80.6983,35.3507],[-80.6677,35.2705],[-80.5954,35.2369],[-80.5293,35.1995],[-80.51,35.1855],[-80.4815,35.2156],[-80.3867,35.3739],[-80.2879,35.5067],[-80.5738,35.5057],[-80.7823,35.5113]]]},"properties":{"GID_0":"USA","GID_1":"USA.34_1","GID_2":"USA.34.13_1","NAME_1":"NorthCarolina","NAME_2":"Cabarrus"}},
{"type":"Feature","geometry":{"type":"Polygon","coordinates":[[[-81.3298,35.9969],[-81.3507,36.0239],[-81.3881,36.0462],[-81.4097,36.0731],[-81.4433,36.0764],[-81.4584,36.0916],[-81.5178,36.099],[-81.5489,36.1172],[-81.6571,36.1185],[-81.6766,36.1228],[-81.8113,36.1117],[-81.7746,36.0987],[-81.738,36.0656],[-81.8073,35.9643],[-81.8009,35.959],[-81.7769,35.9326],[-81.711,35.8782],[-81.6433,35.8501],[-81.602,35.8257],[-81.5585,35.7804],[-81.4537,35.7872],[-81.4021,35.7593],[-81.3783,35.7568],[-81.375,35.7641],[-81.332,35.7982],[-81.3441,35.8448],[-81.3328,35.8758],[-81.3438,35.9206],[-81.3298,35.9969]]]},"properties":{"GID_0":"USA","GID_1":"USA.34_1","GID_2":"USA.34.14_1","NAME_1":"NorthCarolina","NAME_2":"Caldwell"}},
{"type":"Feature","geometry":{"type":"Polygon","coordinates":[[[-76.2316,36.3703],[-76.1927,36.3291],[-76.1951,36.2967],[-76.1363,36.2884],[-76.1073,36.2726],[-76.0806,36.238],[-76.0531,36.2334],[-76.0181,36.187],[-75.925,36.1638],[-75.9542,36.2038],[-75.9466,36.2247],[-75.9663,36.2559],[-75.9788,36.3072],[-76.0025,36.3058],[-76.0033,36.3225],[-76.0161,36.3253],[-76.0219,36.3327],[-76.0181,36.3383],[-76.0338,36.3421],[-76.0292,36.3472],[-76.0358,36.3542],[-76.0536,36.3603],[-76.0743,36.3469],[-76.1149,36.3578],[-76.158,36.3986],[-76.1583,36.4254],[-76.3124,36.55],[-76.5412,36.5497],[-76.4327,36.467],[-76.3938,36.4545],[-76.385,36.447],[-76.3658,36.4305],[-76.3214,36.4246],[-76.2989,36.394],[-76.2868,36.3845],[-76.2316,36.3703]]]},"properties":{"GID_0":"USA","GID_1":"USA.34_1","GID_2":"USA.34.15_1","NAME_1":"NorthCarolina","NAME_2":"Camden"}},
{"type":"Feature","geometry":{"type":"MultiPolygon","coordinates":[[[[-76.5747,34.7131],[-76.5847,34.7008],[-76.5258,34.685],[-76.5211,34.7089],[-76.5747,34.7131]]],[[[-76.3214,34.8483],[-76.3642,34.8156],[-76.4914,34.6867],[-76.4875,34.6742],[-76.3939,34.7814],[-76.3214,34.8483]]],[[[-77.1523,34.7711],[-77.1585,34.769],[-77.1564,34.7662],[-77.1214,34.7586],[-77.1137,34.7314],[-77.0898,34.7151],[-77.0935,34.6728],[-77.0297,34.6823],[-76.9675,34.7067],[-76.8933,34.725],[-76.8403,34.7289],[-76.7119,34.7195],[-76.7064,34.75],[-76.6875,34.7714],[-76.6589,34.7475],[-76.6875,34.7231],[-76.6358,34.7031],[-76.6172,34.7075],[-76.6225,34.7656],[-76.5747,34.7758],[-76.5797,34.7228],[-76.5283,34.7281],[-76.4778,34.7642],[-76.4492,34.8128],[-76.3981,34.8658],[-76.3833,34.8569],[-76.3153,34.9022],[-76.3439,34.9142],[-76.2797,34.9419],[-76.2766,34.9598],[-76.3064,34.9919],[-76.2975,35.01],[-76.3551,35.0211],[-76.3181,34.9692],[-76.3769,34.9742],[-76.3883,34.9392],[-76.4386,34.9467],[-76.4222,34.9783],[-76.4413,35.013],[-76.4329,35.049],[-76.4679,35.0524],[-76.518,35.0037],[-76.575,34.9919],[-76.5796,34.9745],[-76.6308,34.9886],[-76.6764,34.9688],[-76.648,34.9353],[-76.6592,34.9117],[-76.6333,34.8989],[-76.6235,34.8938],[-76.7566,34.8476],[-76.8845,34.8451],[-77.0501,34.8349],[-77.097,34.7988],[-77.1652,34.7855],[-77.1549,34.7775],[-77.1523,34.7711]]],[[[-76.0494,35.0706],[-76.0694,35.0433],[-76.0975,35.0411],[-76.125,35.0111],[-76.1972,34.9564],[-76.1928,34.9508],[-76.0828,35.0334],[-76.0394,35.0539],[-76.0494,35.0706]]]]},"properties":{"GID_0":"USA","GID_1":"USA.34_1","GID_2":"USA.34.16_1","NAME_1":"NorthCarolina","NAME_2":"Carteret"}},
{"type":"Feature","geometry":{"type":"Polygon","coordinates":[[[-79.2593,36.2443],[-79.1538,36.2422],[-79.1435,36.5427],[-79.5158,36.5392],[-79.5309,36.3228],[-79.5314,36.2502],[-79.2593,36.2443]]]},"properties":{"GID_0":"USA","GID_1":"USA.34_1","GID_2":"USA.34.17_1","NAME_1":"NorthCarolina","NAME_2":"Caswell"}},
{"type":"Feature","geometry":{"type":"Polygon","coordinates":[[[-81.332,35.7982],[-81.375,35.7641],[-81.4024,35.7112],[-81.429,35.6791],[-81.5062,35.6059],[-81.5287,35.5712],[-81.1055,35.5555],[-80.9579,35.5463],[-80.9581,35.5667],[-80.9266,35.6246],[-80.9546,35.6457],[-80.9697,35.6733],[-81.0075,35.7115],[-81.0511,35.7084],[-81.1024,35.771],[-81.1242,35.789],[-81.1424,35.8269],[-81.2036,35.8236],[-81.2233,35.8111],[-81.332,35.7982]]]},"properties":{"GID_0":"USA","GID_1":"USA.34_1","GID_2":"USA.34.18_1","NAME_1":"NorthCarolina","NAME_2":"Catawba"}},
{"type":"Feature","geometry":{"type":"Polygon","coordinates":[[[-79.5424,35.8433],[-79.546,35.7095],[-79.5557,35.5158],[-79.3506,35.5166],[-79.3188,35.5269],[-79.3039,35.5509],[-79.2869,35.5526],[-79.2758,35.5298],[-79.2274,35.5695],[-79.2157,35.5567],[-79.2082,35.5725],[-79.125,35.6277],[-79.0804,35.6133],[-79.0515,35.5736],[-79.0197,35.5443],[-78.9714,35.5212],[-78.9196,35.5857],[-78.9956,35.6104],[-78.9796,35.6656],[-78.9421,35.756],[-78.9076,35.8678],[-79.0831,35.8611],[-79.2521,35.8768],[-79.2388,35.8436],[-79.5424,35.8433]]]},"properties":{"GID_0":"USA","GID_1":"USA.34_1","GID_2":"USA.34.19_1","NAME_1":"NorthCarolina","NAME_2":"Chatham"}},
{"type":"Feature","geometry":{"type":"Polygon","coordinates":[[[-84.029,35.2924],[-84.0876,35.2544],[-84.1859,35.2428],[-84.2279,35.2678],[-84.2893,35.2257],[-84.321,34.989],[-84.0075,34.9879],[-83.9614,35.0204],[-83.9651,35.0489],[-83.9446,35.0546],[-83.8642,35.1204],[-83.855,35.1384],[-83.8173,35.1387],[-83.7469,35.161],[-83.7387,35.1553],[-83.7122,35.1871],[-83.7222,35.2081],[-83.6916,35.24],[-83.7041,35.2541],[-83.7531,35.2417],[-83.7904,35.2559],[-83.8445,35.2546],[-83.8896,35.2336],[-83.9676,35.2169],[-84.0008,35.2367],[-84.001,35.2517],[-84.029,35.2924]]]},"properties":{"GID_0":"USA","GID_1":"USA.34_1","GID_2":"USA.34.20_1","NAME_1":"NorthCarolina","NAME_2":"Cherokee"}},
{"type":"Feature","geometry":{"type":"Polygon","coordinates":[[[-76.6844,36.3041],[-76.6755,36.2654],[-76.7152,36.2138],[-76.7224,36.1539],[-76.7056,36.1117],[-76.689,36.1104],[-76.6919,36.0661],[-76.675,36.0439],[-76.6016,36.0339],[-76.5736,36.0092],[-76.5145,36.0064],[-76.4631,36.0231],[-76.4246,36.0609],[-76.4798,36.0914],[-76.4997,36.0855],[-76.5392,36.0944],[-76.5748,36.1126],[-76.5909,36.2366],[-76.5734,36.2574],[-76.557,36.354],[-76.5699,36.3335],[-76.5984,36.3226],[-76.6399,36.3287],[-76.6504,36.3113],[-76.6844,36.3041]]]},"properties":{"GID_0":"USA","GID_1":"USA.34_1","GID_2":"USA.34.21_1","NAME_1":"NorthCarolina","NAME_2":"Chowan"}},
{"type":"Feature","geometry":{"type":"Polygon","coordinates":[[[-83.4844,34.9946],[-83.5101,35.0047],[-83.5854,35.0888],[-83.6165,35.1046],[-83.6239,35.1303],[-83.6572,35.1575],[-83.7265,35.1462],[-83.7469,35.161],[-83.8173,35.1387],[-83.855,35.1384],[-83.8642,35.1204],[-83.9446,35.0546],[-83.9651,35.0489],[-83.9614,35.0204],[-84.0075,34.9879],[-83.6216,34.9871],[-83.4844,34.9946]]]},"properties":{"GID_0":"USA","GID_1":"USA.34_1","GID_2":"USA.34.22_1","NAME_1":"NorthCarolina","NAME_2":"Clay"}},
{"type":"Feature","geometry":{"type":"Polygon","coordinates":[[[-81.6963,35.5766],[-81.6942,35.4858],[-81.7027,35.3577],[-81.7664,35.2119],[-81.7679,35.1801],[-81.3277,35.1637],[-81.3163,35.1906],[-81.3209,35.2609],[-81.355,35.2796],[-81.3675,35.314],[-81.3565,35.3309],[-81.3986,35.3531],[-81.4535,35.4201],[-81.4822,35.4737],[-81.513,35.5174],[-81.5102,35.5505],[-81.5258,35.563],[-81.5383,35.5688],[-81.5709,35.5597],[-81.6005,35.5684],[-81.6461,35.561],[-81.6762,35.5655],[-81.6963,35.5766]]]},"properties":{"GID_0":"USA","GID_1":"USA.34_1","GID_2":"USA.34.23_1","NAME_1":"NorthCarolina","NAME_2":"Cleveland"}},
{"type":"Feature","geometry":{"type":"Polygon","coordinates":[[[-78.8664,34.485],[-78.9103,34.4572],[-78.9465,34.4548],[-78.9736,34.4273],[-78.9735,34.3978],[-79.015,34.3764],[-79.0062,34.3617],[-79.036,34.3397],[-79.0402,34.3161],[-79.0695,34.3035],[-78.6496,33.9434],[-78.6317,33.9771],[-78.6423,34.0054],[-78.5931,34.0261],[-78.5633,34.054],[-78.5479,34.1333],[-78.545,34.1428],[-78.5168,34.1625],[-78.4324,34.1355],[-78.376,34.1797],[-78.3771,34.2056],[-78.2597,34.2166],[-78.1613,34.3551],[-78.2103,34.3545],[-78.2606,34.3975],[-78.3348,34.3663],[-78.3563,34.3739],[-78.4409,34.3769],[-78.6698,34.4702],[-78.8288,34.461],[-78.8664,34.485]]]},"properties":{"GID_0":"USA","GID_1":"USA.34_1","GID_2":"USA.34.24_1","NAME_1":"NorthCarolina","NAME_2":"Columbus"}},
{"type":"Feature","geometry":{"type":"MultiPolygon","coordinates":[[[[-76.8845,34.8451],[-76.7566,34.8476],[-76.6235,34.8938],[-76.6333,34.8989],[-76.6651,34.9118],[-76.6609,34.9402],[-76.7074,34.9544],[-76.7279,34.9272],[-76.7608,34.9154],[-76.8122,34.9392],[-76.8449,34.9359],[-76.9346,34.9719],[-76.9752,35.0016],[-76.9887,35.0433],[-77.0419,35.0994],[-77.0589,35.075],[-77.0775,35.0686],[-77.1108,35.072],[-77.1114,34.8314],[-76.8845,34.8451]]],[[[-76.8955,35.2538],[-76.9317,35.2779],[-77.1903,35.4192],[-77.1922,35.4116],[-77.2169,35.4012],[-77.2359,35.3899],[-77.2369,35.3622],[-77.2621,35.3519],[-77.2933,35.3794],[-77.3549,35.3281],[-77.3845,35.3356],[-77.4092,35.3398],[-77.4321,35.3285],[-77.4488,35.3021],[-77.4278,35.273],[-77.4254,35.2593],[-77.4644,35.2388],[-77.4657,35.2348],[-77.4737,35.2308],[-77.4737,35.2286],[-77.4643,35.2261],[-77.3875,35.1831],[-77.1879,35.0836],[-77.1891,35.0668],[-77.1485,35.0563],[-77.1256,35.0799],[-77.082,35.0715],[-77.059,35.0795],[-77.0313,35.1347],[-76.9976,35.0765],[-76.9547,35.0567],[-76.9388,35.1001],[-76.9491,35.1235],[-76.9752,35.1333],[-76.9618,35.2006],[-76.9427,35.2278],[-76.9069,35.2369],[-76.8955,35.2538]]]]},"properties":{"GID_0":"USA","GID_1":"USA.34_1","GID_2":"USA.34.25_1","NAME_1":"NorthCarolina","NAME_2":"Craven"}},
{"type":"Feature","geometry":{"type":"Polygon","coordinates":[[[-78.5062,34.8611],[-78.5162,34.8667],[-78.576,34.9338],[-78.627,34.9675],[-78.6506,34.9982],[-78.6529,35.0259],[-78.6749,35.0861],[-78.6441,35.1116],[-78.6329,35.1737],[-78.6406,35.216],[-78.6164,35.2457],[-78.7619,35.2641],[-78.8002,35.2654],[-78.85,35.2523],[-78.8863,35.229],[-78.9705,35.2112],[-78.9952,35.2141],[-79.0962,35.1922],[-79.1139,35.1193],[-79.0974,35.0883],[-79.0984,35.0484],[-79.0674,35.0127],[-79.0475,34.9907],[-79.0373,34.9548],[-78.9531,34.9127],[-78.9233,34.8852],[-78.9038,34.8369],[-78.8262,34.8525],[-78.5142,34.8521],[-78.5062,34.8611]]]},"properties":{"GID_0":"USA","GID_1":"USA.34_1","GID_2":"USA.34.26_1","NAME_1":"NorthCarolina","NAME_2":"Cumberland"}},
{"type":"Feature","geometry":{"type":"MultiPolygon","coordinates":[[[[-76.0536,36.3603],[-76.035,36.3547],[-76.0257,36.3449],[-76.0158,36.3439],[-76.0187,36.3328],[-76.0003,36.3249],[-75.9985,36.3151],[-75.9762,36.3137],[-75.9466,36.2856],[-75.9593,36.2601],[-75.9194,36.245],[-75.9076,36.2077],[-75.8763,36.1843],[-75.8618,36.1542],[-75.8632,36.1215],[-75.8472,36.1014],[-75.7958,36.0714],[-75.8283,36.1656],[-75.8722,36.2534],[-75.8971,36.3233],[-75.9297,36.3644],[-75.9293,36.3909],[-75.9684,36.3867],[-76.0195,36.4587],[-76.0374,36.4985],[-76.1545,36.5401],[-76.1527,36.5504],[-76.3124,36.55],[-76.1583,36.4254],[-76.158,36.3986],[-76.1149,36.3578],[-76.0743,36.3469],[-76.0536,36.3603]]],[[[-75.7727,36.2302],[-75.8064,36.3128],[-75.8511,36.4689],[-75.8686,36.5508],[-75.8925,36.5503],[-75.9014,36.5133],[-75.8793,36.5124],[-75.8843,36.4732],[-75.8454,36.4116],[-75.8302,36.3715],[-75.8229,36.3194],[-75.8019,36.2753],[-75.7964,36.2314],[-75.7788,36.229],[-75.7758,36.2298],[-75.7727,36.2302]]],[[[-75.9838,36.5504],[-75.9705,36.5249],[-75.9886,36.4975],[-75.9336,36.4916],[-75.9092,36.5036],[-75.9112,36.5461],[-75.9838,36.5504]]],[[[-76.0354,36.5488],[-76.1509,36.5504],[-76.104,36.5327],[-76.0932,36.5185],[-76.0417,36.5183],[-76.0354,36.5488]]]]},"properties":{"GID_0":"USA","GID_1":"USA.34_1","GID_2":"USA.34.27_1","NAME_1":"NorthCarolina","NAME_2":"Currituck"}},
{"type":"Feature","geometry":{"type":"MultiPolygon","coordinates":[[[[-75.5194,35.2769],[-75.5967,35.2583],[-75.5856,35.2356],[-75.5294,35.2239],[-75.5194,35.2769]]],[[[-75.9013,35.6691],[-75.8929,35.6443],[-75.8525,35.5839],[-75.8278,35.5927],[-75.7976,35.5742],[-75.7839,35.5953],[-75.7505,35.6073],[-75.7339,35.6286],[-75.7786,35.6834],[-75.7531,35.7048],[-75.7169,35.6938],[-75.7256,35.7392],[-75.7387,35.7507],[-75.7309,35.825],[-75.75,35.8458],[-75.7535,35.8759],[-75.8097,35.9589],[-75.8497,35.9621],[-75.8489,35.9272],[-75.8924,35.936],[-75.9475,35.9191],[-75.9857,35.8886],[-75.9757,35.8391],[-75.9928,35.8123],[-75.9832,35.7863],[-76.008,35.672],[-75.9013,35.6691]]],[[[-75.7047,35.9392],[-75.6975,35.9017],[-75.6617,35.8686],[-75.6581,35.83],[-75.6153,35.8211],[-75.6367,35.8583],[-75.6281,35.8836],[-75.6717,35.9275],[-75.7047,35.9392]]],[[[-75.8633,35.9728],[-75.92,35.9717],[-75.9469,35.9592],[-75.9192,35.9356],[-75.8633,35.9728]]],[[[-75.7758,36.2298],[-75.7448,36.1392],[-75.7515,36.1233],[-75.7373,36.042],[-75.692,36.0508],[-75.6864,36.0119],[-75.6658,35.9797],[-75.6408,35.9611],[-75.6011,35.9072],[-75.5947,35.8533],[-75.5708,35.8642],[-75.6742,36.0451],[-75.7275,36.1289],[-75.7727,36.2302],[-75.7758,36.2298]]]]},"properties":{"GID_0":"USA","GID_1":"USA.34_1","GID_2":"USA.34.28_1","NAME_1":"NorthCarolina","NAME_2":"Dare"}},
{"type":"Feature","geometry":{"type":"Polygon","coordinates":[[[-80.4588,35.7503],[-80.4185,35.7237],[-80.3884,35.7152],[-80.3346,35.7212],[-80.3373,35.6831],[-80.2912,35.637],[-80.2674,35.6307],[-80.2084,35.5786],[-80.1823,35.5065],[-80.067,35.5061],[-80.0576,35.733],[-80.043,36.0103],[-80.138,36.0252],[-80.2136,36.0269],[-80.2136,35.9969],[-80.346,35.9966],[-80.3982,35.9733],[-80.3724,35.9312],[-80.3955,35.8939],[-80.4027,35.8426],[-80.4277,35.853],[-80.4758,35.8278],[-80.4772,35.7902],[-80.4538,35.768],[-80.4588,35.7503]]]},"properties":{"GID_0":"USA","GID_1":"USA.34_1","GID_2":"USA.34.29_1","NAME_1":"NorthCarolina","NAME_2":"Davidson"}},
{"type":"Feature","geometry":{"type":"Polygon","coordinates":[[[-80.3982,35.9733],[-80.4262,35.9895],[-80.4235,36.0186],[-80.4469,36.0321],[-80.4636,36.0597],[-80.4732,36.062],[-80.4959,36.0437],[-80.5005,36.0478],[-80.6923,36.0513],[-80.7086,35.8525],[-80.67,35.8473],[-80.5784,35.8215],[-80.51,35.7778],[-80.476,35.7752],[-80.4588,35.7503],[-80.4538,35.768],[-80.4772,35.7902],[-80.4758,35.8278],[-80.4277,35.853],[-80.4027,35.8426],[-80.3955,35.8939],[-80.3724,35.9312],[-80.3982,35.9733]]]},"properties":{"GID_0":"USA","GID_1":"USA.34_1","GID_2":"USA.34.30_1","NAME_1":"NorthCarolina","NAME_2":"Davie"}},
{"type":"Feature","geometry":{"type":"Polygon","coordinates":[[[-78.1129,34.7224],[-78.0618,34.7288],[-77.9621,34.7153],[-77.6806,34.7205],[-77.6852,34.7328],[-77.6509,34.9243],[-77.6786,34.9726],[-77.7303,35.0076],[-77.7484,35.0221],[-77.7521,35.108],[-77.769,35.146],[-77.8338,35.1781],[-77.8855,35.1618],[-77.8971,35.1488],[-77.9302,35.1739],[-77.9546,35.1652],[-77.9867,35.1844],[-78.0445,35.1927],[-78.077,35.175],[-78.1639,35.1896],[-78.1629,35.1374],[-78.1712,35.0934],[-78.1597,35.0801],[-78.1466,34.9023],[-78.1974,34.7428],[-78.1339,34.7091],[-78.1129,34.7224]]]},"properties":{"GID_0":"USA","GID_1":"USA.34_1","GID_2":"USA.34.31_1","NAME_1":"NorthCarolina","NAME_2":"Duplin"}},
{"type":"Feature","geometry":{"type":"Polygon","coordinates":[[[-78.9076,35.8678],[-78.8298,35.8689],[-78.8056,35.9281],[-78.7609,35.9176],[-78.714,35.9729],[-78.6985,36.0131],[-78.7564,36.0532],[-78.7498,36.0718],[-78.7852,36.0703],[-78.8059,36.0878],[-78.8019,36.2361],[-78.9507,36.2393],[-79.0161,35.8633],[-78.9076,35.8678]]]},"properties":{"GID_0":"USA","GID_1":"USA.34_1","GID_2":"USA.34.32_1","NAME_1":"NorthCarolina","NAME_2":"Durham"}},
{"type":"Feature","geometry":{"type":"Polygon","coordinates":[[[-77.4053,36.0024],[-77.4753,36.0353],[-77.5253,36.0372],[-77.5446,36.0585],[-77.5368,36.0869],[-77.6266,36.1114],[-77.68,36.1524],[-77.7017,36.151],[-77.7079,36.1171],[-77.7737,36.0094],[-77.7815,35.9769],[-77.8278,35.8684],[-77.7484,35.827],[-77.7511,35.8121],[-77.7194,35.7338],[-77.668,35.6729],[-77.5022,35.7731],[-77.4723,35.801],[-77.4262,35.805],[-77.3901,35.8328],[-77.3508,35.8193],[-77.3427,35.9058],[-77.4053,36.0024]]]},"properties":{"GID_0":"USA","GID_1":"USA.34_1","GID_2":"USA.34.33_1","NAME_1":"NorthCarolina","NAME_2":"Edgecombe"}},
{"type":"Feature","geometry":{"type":"Polygon","coordinates":[[[-80.043,36.0103],[-80.0368,36.2543],[-80.2605,36.2608],[-80.4574,36.2621],[-80.459,36.243],[-80.4567,36.2389],[-80.4366,36.2231],[-80.4424,36.1378],[-80.4622,36.1205],[-80.4975,36.1149],[-80.519,36.0962],[-80.5096,36.0536],[-80.4959,36.0437],[-80.4732,36.062],[-80.4636,36.0597],[-80.4469,36.0321],[-80.4235,36.0186],[-80.4262,35.9895],[-80.3982,35.9733],[-80.346,35.9966],[-80.2136,35.9969],[-80.2136,36.0269],[-80.138,36.0252],[-80.043,36.0103]]]},"properties":{"GID_0":"USA","GID_1":"USA.34_1","GID_2":"USA.34.34_1","NAME_1":"NorthCarolina","NAME_2":"Forsyth"}},
{"type":"Feature","geometry":{"type":"Polygon","coordinates":[[[-78.5465,36.0218],[-78.4307,35.9795],[-78.3969,35.9387],[-78.3567,35.9318],[-78.351,35.909],[-78.3137,35.8976],[-78.2782,35.8631],[-78.2599,35.8183],[-78.2553,35.8219],[-78.1487,36.0032],[-78.0127,36.202],[-78.0233,36.2099],[-78.1116,36.2158],[-78.1325,36.2465],[-78.1727,36.2567],[-78.2099,36.2554],[-78.3055,36.2673],[-78.3404,36.2355],[-78.3809,36.2352],[-78.4114,36.1703],[-78.4286,36.1651],[-78.499,36.1787],[-78.5448,36.0808],[-78.5465,36.0218]]]},"properties":{"GID_0":"USA","GID_1":"USA.34_1","GID_2":"USA.34.35_1","NAME_1":"NorthCarolina","NAME_2":"Franklin"}},
{"type":"Feature","geometry":{"type":"Polygon","coordinates":[[[-81.3277,35.1637],[-81.0238,35.1486],[-81.0076,35.1569],[-81.0054,35.2055],[-81.0133,35.293],[-80.9805,35.3287],[-80.9818,35.3446],[-80.9442,35.3521],[-80.9597,35.3756],[-80.9549,35.4006],[-81.0069,35.4038],[-81.4535,35.4201],[-81.3986,35.3531],[-81.3565,35.3309],[-81.3675,35.314],[-81.355,35.2796],[-81.3209,35.2609],[-81.3163,35.1906],[-81.3277,35.1637]]]},"properties":{"GID_0":"USA","GID_1":"USA.34_1","GID_2":"USA.34.36_1","NAME_1":"NorthCarolina","NAME_2":"Gaston"}},
{"type":"Feature","geometry":{"type":"Polygon","coordinates":[[[-76.5412,36.5497],[-76.9162,36.5511],[-76.9174,36.544],[-76.9028,36.5205],[-76.9483,36.4722],[-76.9456,36.4127],[-76.9156,36.391],[-76.8264,36.3633],[-76.7607,36.3488],[-76.7236,36.3088],[-76.6844,36.3041],[-76.6504,36.3113],[-76.6399,36.3287],[-76.5984,36.3226],[-76.5699,36.3335],[-76.557,36.354],[-76.5115,36.3618],[-76.453,36.3769],[-76.4795,36.4335],[-76.4916,36.4688],[-76.4914,36.5105],[-76.5412,36.5497]]]},"properties":{"GID_0":"USA","GID_1":"USA.34_1","GID_2":"USA.34.37_1","NAME_1":"NorthCarolina","NAME_2":"Gates"}},
{"type":"Feature","geometry":{"type":"Polygon","coordinates":[[[-83.6988,35.2479],[-83.6861,35.2665],[-83.6811,35.2794],[-83.6876,35.32],[-83.6199,35.3444],[-83.5996,35.3682],[-83.583,35.4109],[-83.6336,35.4416],[-83.6493,35.4271],[-83.7343,35.4444],[-83.7675,35.4429],[-83.7986,35.4537],[-83.86,35.4517],[-83.9078,35.4674],[-83.9294,35.4485],[-83.9442,35.4503],[-83.9593,35.4629],[-84.0205,35.4095],[-84.008,35.3898],[-84.0339,35.3503],[-84.029,35.2924],[-84.001,35.2517],[-84.0008,35.2367],[-83.9676,35.2169],[-83.8896,35.2336],[-83.8445,35.2546],[-83.7904,35.2559],[-83.7531,35.2417],[-83.7041,35.2541],[-83.6988,35.2479]]]},"properties":{"GID_0":"USA","GID_1":"USA.34_1","GID_2":"USA.34.38_1","NAME_1":"NorthCarolina","NAME_2":"Graham"}},
{"type":"Feature","geometry":{"type":"Polygon","coordinates":[[[-78.7498,36.0718],[-78.6895,36.0752],[-78.5922,36.0378],[-78.5465,36.0218],[-78.5448,36.0808],[-78.499,36.1787],[-78.5102,36.1856],[-78.5152,36.4542],[-78.4968,36.517],[-78.4562,36.5422],[-78.7993,36.5441],[-78.8019,36.2361],[-78.8059,36.0878],[-78.7852,36.0703],[-78.7498,36.0718]]]},"properties":{"GID_0":"USA","GID_1":"USA.34_1","GID_2":"USA.34.39_1","NAME_1":"NorthCarolina","NAME_2":"Granville"}},
{"type":"Feature","geometry":{"type":"Polygon","coordinates":[[[-77.7009,35.6523],[-77.7535,35.616],[-77.8238,35.5729],[-77.8236,35.5193],[-77.8271,35.4354],[-77.7999,35.3795],[-77.8052,35.3723],[-77.7759,35.3709],[-77.7,35.3821],[-77.6796,35.3472],[-77.6377,35.3546],[-77.6138,35.3782],[-77.5903,35.3736],[-77.5318,35.4014],[-77.508,35.4223],[-77.4751,35.427],[-77.504,35.4935],[-77.5037,35.5175],[-77.5576,35.5318],[-77.5922,35.5639],[-77.6102,35.5674],[-77.7009,35.6523]]]},"properties":{"GID_0":"USA","GID_1":"USA.34_1","GID_2":"USA.34.40_1","NAME_1":"NorthCarolina","NAME_2":"Greene"}},
{"type":"Feature","geometry":{"type":"Polygon","coordinates":[[[-79.532,36.2416],[-79.8315,36.2505],[-80.0368,36.2543],[-80.043,36.0103],[-80.0469,35.9209],[-79.5421,35.9001],[-79.5362,36.023],[-79.532,36.2416]]]},"properties":{"GID_0":"USA","GID_1":"USA.34_1","GID_2":"USA.34.41_1","NAME_1":"NorthCarolina","NAME_2":"Guilford"}},
{"type":"Feature","geometry":{"type":"Polygon","coordinates":[[[-77.2901,36.171],[-77.3309,36.1937],[-77.3866,36.2144],[-77.3765,36.2428],[-77.4111,36.2671],[-77.4131,36.2903],[-77.4416,36.325],[-77.4992,36.3107],[-77.5479,36.3063],[-77.5721,36.3186],[-77.5807,36.3514],[-77.5492,36.3739],[-77.5546,36.4171],[-77.5875,36.4255],[-77.6313,36.4509],[-77.647,36.4825],[-77.7133,36.4856],[-77.761,36.4792],[-77.8118,36.5024],[-77.8798,36.5082],[-77.9001,36.5176],[-77.9088,36.496],[-77.9175,36.3872],[-77.9469,36.2943],[-78.0127,36.202],[-77.9751,36.1791],[-77.9213,36.1868],[-77.8871,36.1431],[-77.8648,36.1477],[-77.78,36.143],[-77.75,36.1565],[-77.7191,36.1395],[-77.7017,36.151],[-77.68,36.1524],[-77.6266,36.1114],[-77.5368,36.0869],[-77.5446,36.0585],[-77.5253,36.0372],[-77.4753,36.0353],[-77.4053,36.0024],[-77.3411,36.065],[-77.3285,36.0684],[-77.3169,36.0885],[-77.2448,36.0991],[-77.2531,36.1365],[-77.2901,36.171]]]},"properties":{"GID_0":"USA","GID_1":"USA.34_1","GID_2":"USA.34.42_1","NAME_1":"NorthCarolina","NAME_2":"Halifax"}},
{"type":"Feature","geometry":{"type":"Polygon","coordinates":[[[-78.9714,35.5212],[-79.1343,35.3546],[-79.2226,35.2681],[-79.1649,35.2382],[-79.1511,35.2117],[-79.0962,35.1922],[-78.9952,35.2141],[-78.9705,35.2112],[-78.8863,35.229],[-78.85,35.2523],[-78.8002,35.2654],[-78.7619,35.2641],[-78.6164,35.2457],[-78.586,35.2762],[-78.5845,35.293],[-78.5384,35.3188],[-78.5412,35.3474],[-78.5636,35.3599],[-78.6084,35.4345],[-78.6501,35.4726],[-78.6599,35.4963],[-78.685,35.513],[-78.9196,35.5857],[-78.9714,35.5212]]]},"properties":{"GID_0":"USA","GID_1":"USA.34_1","GID_2":"USA.34.43_1","NAME_1":"NorthCarolina","NAME_2":"Harnett"}},
{"type":"Feature","geometry":{"type":"Polygon","coordinates":[[[-82.8863,35.6784],[-82.9228,35.7451],[-82.9569,35.7479],[-82.949,35.7776],[-82.967,35.791],[-82.9982,35.7741],[-83.0743,35.7894],[-83.1208,35.7683],[-83.1556,35.765],[-83.1835,35.7299],[-83.2363,35.7284],[-83.2578,35.6978],[-83.2246,35.6946],[-83.1846,35.673],[-83.2017,35.6498],[-83.182,35.6377],[-83.1827,35.5886],[-83.157,35.5539],[-83.1787,35.5197],[-83.1391,35.4917],[-83.1365,35.4682],[-83.1098,35.4652],[-83.0529,35.4258],[-83.042,35.3943],[-82.9983,35.3741],[-82.9635,35.3196],[-82.9201,35.2911],[-82.9026,35.3057],[-82.8305,35.3219],[-82.7816,35.3871],[-82.7468,35.4079],[-82.7445,35.423],[-82.7801,35.4403],[-82.8003,35.468],[-82.7672,35.5668],[-82.7982,35.5956],[-82.8118,35.6262],[-82.8483,35.618],[-82.8863,35.6784]]]},"properties":{"GID_0":"USA","GID_1":"USA.34_1","GID_2":"USA.34.44_1","NAME_1":"NorthCarolina","NAME_2":"Haywood"}},
{"type":"Feature","geometry":{"type":"Polygon","coordinates":[[[-82.7445,35.423],[-82.6405,35.3227],[-82.6099,35.2853],[-82.5951,35.1802],[-82.5753,35.1444],[-82.455,35.1796],[-82.3905,35.2161],[-82.3541,35.1926],[-82.3462,35.2836],[-82.3183,35.3113],[-82.2615,35.3946],[-82.2806,35.4483],[-82.266,35.4681],[-82.3319,35.5004],[-82.3727,35.4846],[-82.367,35.4652],[-82.422,35.4732],[-82.4737,35.4458],[-82.5652,35.4449],[-82.5697,35.4321],[-82.6391,35.4435],[-82.6684,35.4592],[-82.7132,35.4482],[-82.7445,35.423]]]},"properties":{"GID_0":"USA","GID_1":"USA.34_1","GID_2":"USA.34.45_1","NAME_1":"NorthCarolina","NAME_2":"Henderson"}},
{"type":"Feature","geometry":{"type":"Polygon","coordinates":[[[-76.7231,36.2429],[-76.6984,36.2722],[-76.7007,36.2939],[-76.7236,36.3088],[-76.7607,36.3488],[-76.8264,36.3633],[-76.9156,36.391],[-76.9456,36.4127],[-76.9483,36.4722],[-76.9028,36.5205],[-76.9174,36.544],[-77.158,36.5451],[-77.1534,36.5312],[-77.082,36.51],[-77.0669,36.4865],[-77.0705,36.4802],[-77.1166,36.4736],[-77.2115,36.2445],[-77.1227,36.2401],[-76.9704,36.2377],[-76.896,36.2431],[-76.7231,36.2429]]]},"properties":{"GID_0":"USA","GID_1":"USA.34_1","GID_2":"USA.34.46_1","NAME_1":"NorthCarolina","NAME_2":"Hertford"}},
{"type":"Feature","geometry":{"type":"Polygon","coordinates":[[[-79.0992,35.1777],[-79.1014,35.1764],[-79.102,35.1732],[-79.106,35.171],[-79.1297,35.1657],[-79.1912,35.1934],[-79.2171,35.1927],[-79.2479,35.211],[-79.3429,35.1589],[-79.463,35.0392],[-79.4032,34.9953],[-79.3593,34.9461],[-79.3542,34.8852],[-79.3438,34.8597],[-79.3501,34.8398],[-79.1849,34.8356],[-79.0373,34.9548],[-79.0475,34.9907],[-79.0674,35.0127],[-79.0984,35.0484],[-79.0974,35.0883],[-79.1139,35.1193],[-79.0992,35.1777]]]},"properties":{"GID_0":"USA","GID_1":"USA.34_1","GID_2":"USA.34.47_1","NAME_1":"NorthCarolina","NAME_2":"Hoke"}},
{"type":"Feature","geometry":{"type":"Polygon","coordinates":[[[-76.4991,35.5711],[-76.4911,35.5742],[-76.479,35.5713],[-76.4572,35.5525],[-76.4725,35.5094],[-76.5088,35.5026],[-76.5365,35.5102],[-76.5625,35.492],[-76.5322,35.4325],[-76.5401,35.4096],[-76.5044,35.3916],[-76.478,35.4073],[-76.4562,35.3976],[-76.3891,35.4273],[-76.3917,35.3997],[-76.3628,35.377],[-76.3339,35.3971],[-76.3206,35.3699],[-76.2915,35.3643],[-76.2683,35.3404],[-76.2505,35.368],[-76.2203,35.3447],[-76.1813,35.3472],[-76.1495,35.3383],[-76.0782,35.3728],[-76.0839,35.391],[-76.0607,35.4134],[-76.0275,35.427],[-75.9994,35.4553],[-75.9964,35.4747],[-75.9625,35.4956],[-75.9572,35.528],[-75.9133,35.5444],[-75.8834,35.5832],[-75.8961,35.5956],[-75.8828,35.6236],[-75.8929,35.6443],[-75.9013,35.6691],[-76.0132,35.6693],[-76.046,35.649],[-76.0694,35.6631],[-76.1164,35.6733],[-76.1418,35.7021],[-76.1683,35.6989],[-76.1755,35.6914],[-76.1764,35.6851],[-76.172,35.6818],[-76.1965,35.6226],[-76.2142,35.5982],[-76.2974,35.609],[-76.2691,35.6908],[-76.5614,35.7055],[-76.6385,35.7054],[-76.6239,35.69],[-76.601,35.6689],[-76.606,35.6464],[-76.5884,35.6205],[-76.5274,35.5819],[-76.5013,35.5769],[-76.4991,35.5711]]]},"properties":{"GID_0":"USA","GID_1":"USA.34_1","GID_2":"USA.34.48_1","NAME_1":"NorthCarolina","NAME_2":"Hyde"}},
{"type":"Feature","geometry":{"type":"Polygon","coordinates":[[[-81.1116,35.7791],[-81.1024,35.771],[-81.0511,35.7084],[-81.0075,35.7115],[-80.9697,35.6733],[-80.9546,35.6457],[-80.9266,35.6246],[-80.9581,35.5667],[-80.9579,35.5463],[-80.9569,35.5177],[-80.7371,35.5098],[-80.7444,35.5669],[-80.7715,35.6756],[-80.7086,35.8525],[-80.6923,36.0513],[-80.8824,36.056],[-80.995,36.0555],[-81.0291,36.0512],[-81.005,35.9929],[-81.009,35.9515],[-81.0412,35.856],[-81.0791,35.8026],[-81.1116,35.7791]]]},"properties":{"GID_0":"USA","GID_1":"USA.34_1","GID_2":"USA.34.49_1","NAME_1":"NorthCarolina","NAME_2":"Iredell"}},
{"type":"Feature","geometry":{"type":"Polygon","coordinates":[[[-83.1787,35.5197],[-83.2315,35.5251],[-83.3087,35.4794],[-83.3506,35.4673],[-83.3625,35.4179],[-83.3373,35.3841],[-83.338,35.3336],[-83.323,35.315],[-83.3149,35.2698],[-83.2898,35.236],[-83.272,35.2292],[-83.2274,35.24],[-83.2178,35.2253],[-83.2246,35.1606],[-83.1868,35.1307],[-83.1459,35.08],[-83.1718,35.0671],[-83.1341,35.0381],[-83.1052,35.002],[-83.0073,35.028],[-83.0522,35.0548],[-83.0446,35.0763],[-82.9784,35.138],[-82.9955,35.1566],[-82.9859,35.1873],[-82.9318,35.2295],[-82.9201,35.2911],[-82.9635,35.3196],[-82.9983,35.3741],[-83.042,35.3943],[-83.0529,35.4258],[-83.1098,35.4652],[-83.1365,35.4682],[-83.1391,35.4917],[-83.1787,35.5197]]]},"properties":{"GID_0":"USA","GID_1":"USA.34_1","GID_2":"USA.34.50_1","NAME_1":"NorthCarolina","NAME_2":"Jackson"}},
{"type":"Feature","geometry":{"type":"Polygon","coordinates":[[[-78.5384,35.3188],[-78.491,35.2637],[-78.4101,35.2563],[-78.3047,35.2861],[-78.2928,35.3109],[-78.2408,35.3206],[-78.2104,35.3397],[-78.1645,35.3503],[-78.1544,35.4192],[-78.0644,35.5857],[-78.1284,35.6035],[-78.1641,35.6953],[-78.1922,35.7302],[-78.2013,35.7276],[-78.2359,35.7517],[-78.2599,35.8183],[-78.3731,35.7523],[-78.4709,35.7078],[-78.5716,35.6255],[-78.708,35.5191],[-78.685,35.513],[-78.6599,35.4963],[-78.6501,35.4726],[-78.6084,35.4345],[-78.5636,35.3599],[-78.5412,35.3474],[-78.5384,35.3188]]]},"properties":{"GID_0":"USA","GID_1":"USA.34_1","GID_2":"USA.34.51_1","NAME_1":"NorthCarolina","NAME_2":"Johnston"}},
{"type":"Feature","geometry":{"type":"Polygon","coordinates":[[[-77.0501,34.8349],[-77.1114,34.8314],[-77.1108,35.072],[-77.1485,35.0563],[-77.1891,35.0668],[-77.1879,35.0836],[-77.3875,35.1831],[-77.4643,35.2261],[-77.5257,35.2428],[-77.5073,35.1671],[-77.6014,35.0714],[-77.7303,35.0076],[-77.6786,34.9726],[-77.6433,34.9873],[-77.4986,34.967],[-77.3679,34.917],[-77.3329,34.938],[-77.2677,34.9256],[-77.2615,34.9127],[-77.2144,34.8811],[-77.1963,34.8071],[-77.1712,34.7888],[-77.1652,34.7855],[-77.097,34.7988],[-77.0501,34.8349]]]},"properties":{"GID_0":"USA","GID_1":"USA.34_1","GID_2":"USA.34.52_1","NAME_1":"NorthCarolina","NAME_2":"Jones"}},
{"type":"Feature","geometry":{"type":"Polygon","coordinates":[[[-79.3506,35.5166],[-79.3423,35.4944],[-79.3599,35.4745],[-79.3321,35.4271],[-79.2934,35.4029],[-79.2567,35.3464],[-79.1833,35.3073],[-79.1343,35.3546],[-78.9714,35.5212],[-79.0197,35.5443],[-79.0515,35.5736],[-79.0804,35.6133],[-79.125,35.6277],[-79.2082,35.5725],[-79.2157,35.5567],[-79.2274,35.5695],[-79.2758,35.5298],[-79.2869,35.5526],[-79.3039,35.5509],[-79.3188,35.5269],[-79.3506,35.5166]]]},"properties":{"GID_0":"USA","GID_1":"USA.34_1","GID_2":"USA.34.53_1","NAME_1":"NorthCarolina","NAME_2":"Lee"}},
{"type":"Feature","geometry":{"type":"Polygon","coordinates":[[[-77.3911,35.3403],[-77.4274,35.3502],[-77.4751,35.427],[-77.508,35.4223],[-77.5318,35.4014],[-77.5903,35.3736],[-77.6138,35.3782],[-77.6377,35.3546],[-77.6796,35.3472],[-77.7,35.3821],[-77.7759,35.3709],[-77.8052,35.3723],[-77.8088,35.3665],[-77.8241,35.3441],[-77.8338,35.1781],[-77.769,35.146],[-77.7521,35.108],[-77.7484,35.0221],[-77.7303,35.0076],[-77.6014,35.0714],[-77.5073,35.1671],[-77.5257,35.2428],[-77.4737,35.2286],[-77.4737,35.2308],[-77.4657,35.2348],[-77.4644,35.2388],[-77.4254,35.2593],[-77.4278,35.273],[-77.4488,35.3021],[-77.4321,35.3285],[-77.4092,35.3398],[-77.3911,35.3403]]]},"properties":{"GID_0":"USA","GID_1":"USA.34_1","GID_2":"USA.34.54_1","NAME_1":"NorthCarolina","NAME_2":"Lenoir"}},
{"type":"Feature","geometry":{"type":"Polygon","coordinates":[[[-81.5338,35.567],[-81.5258,35.563],[-81.5102,35.5505],[-81.513,35.5174],[-81.4822,35.4737],[-81.4535,35.4201],[-81.0069,35.4038],[-80.9549,35.4006],[-80.9587,35.436],[-80.9421,35.457],[-80.9569,35.5177],[-80.9579,35.5463],[-81.1055,35.5555],[-81.5287,35.5712],[-81.5338,35.567]]]},"properties":{"GID_0":"USA","GID_1":"USA.34_1","GID_2":"USA.34.55_1","NAME_1":"NorthCarolina","NAME_2":"Lincoln"}},
{"type":"Feature","geometry":{"type":"Polygon","coordinates":[[[-83.1052,35.002],[-83.1341,35.0381],[-83.1718,35.0671],[-83.1459,35.08],[-83.1868,35.1307],[-83.2246,35.1606],[-83.2178,35.2253],[-83.2274,35.24],[-83.272,35.2292],[-83.2898,35.236],[-83.3149,35.2698],[-83.323,35.315],[-83.338,35.3336],[-83.4284,35.3247],[-83.4583,35.3016],[-83.4961,35.3004],[-83.6644,35.2835],[-83.6811,35.2794],[-83.6861,35.2665],[-83.6988,35.2479],[-83.6916,35.24],[-83.7222,35.2081],[-83.7122,35.1871],[-83.7387,35.1553],[-83.7265,35.1462],[-83.6572,35.1575],[-83.6239,35.1303],[-83.6165,35.1046],[-83.5854,35.0888],[-83.5101,35.0047],[-83.4844,34.9946],[-83.1052,35.002]]]},"properties":{"GID_0":"USA","GID_1":"USA.34_1","GID_2":"USA.34.56_1","NAME_1":"NorthCarolina","NAME_2":"Macon"}},
{"type":"Feature","geometry":{"type":"Polygon","coordinates":[[[-82.403,35.8204],[-82.4452,35.8962],[-82.4876,35.9085],[-82.4923,35.9138],[-82.4811,35.9517],[-82.5037,35.9787],[-82.5541,35.9575],[-82.6081,35.9718],[-82.614,36.0018],[-82.5899,36.0319],[-82.6336,36.0659],[-82.6858,36.0447],[-82.7161,36.0228],[-82.7798,35.99],[-82.7759,35.9705],[-82.821,35.9254],[-82.8648,35.9517],[-82.9174,35.9286],[-82.9012,35.8976],[-82.9177,35.8413],[-82.967,35.791],[-82.949,35.7776],[-82.9569,35.7479],[-82.9228,35.7451],[-82.8863,35.6784],[-82.8446,35.7012],[-82.8016,35.6868],[-82.7811,35.6995],[-82.6651,35.7376],[-82.5103,35.8041],[-82.4407,35.8096],[-82.403,35.8204]]]},"properties":{"GID_0":"USA","GID_1":"USA.34_1","GID_2":"USA.34.57_1","NAME_1":"NorthCarolina","NAME_2":"Madison"}},
{"type":"Feature","geometry":{"type":"Polygon","coordinates":[[[-76.8392,35.7023],[-76.8083,35.7637],[-76.8037,35.8067],[-76.787,35.8398],[-76.7702,35.8612],[-76.7626,35.8651],[-76.7746,35.8631],[-76.7825,35.8656],[-76.7963,35.875],[-76.8345,35.8847],[-76.8401,35.8449],[-76.8823,35.812],[-76.8976,35.8146],[-76.8929,35.8181],[-76.9036,35.8765],[-76.9417,35.9016],[-77.0036,35.8591],[-77.0332,35.8576],[-77.0444,35.8629],[-77.0249,35.8955],[-77.0265,35.9278],[-77.0554,35.9453],[-77.1227,35.9256],[-77.2013,35.9497],[-77.1902,35.9735],[-77.2078,36.0066],[-77.3209,36.0578],[-77.3285,36.0684],[-77.3411,36.065],[-77.4053,36.0024],[-77.3427,35.9058],[-77.3508,35.8193],[-77.2544,35.7862],[-77.2446,35.7601],[-77.2146,35.7594],[-77.1741,35.733],[-77.1637,35.7396],[-76.9772,35.6528],[-76.8392,35.7023]]]},"properties":{"GID_0":"USA","GID_1":"USA.34_1","GID_2":"USA.34.58_1","NAME_1":"NorthCarolina","NAME_2":"Martin"}},
{"type":"Feature","geometry":{"type":"Polygon","coordinates":[[[-81.9815,35.9103],[-81.9792,35.8885],[-82.0245,35.8841],[-82.0331,35.8645],[-82.0992,35.852],[-82.1331,35.8251],[-82.165,35.7913],[-82.1579,35.7792],[-82.2163,35.7219],[-82.2622,35.7015],[-82.2765,35.7066],[-82.2934,35.685],[-82.2837,35.6439],[-82.2653,35.6165],[-82.2918,35.5938],[-82.2519,35.5637],[-82.2206,35.5575],[-82.1563,35.5255],[-82.0973,35.5361],[-82.034,35.5372],[-81.9993,35.5519],[-81.9783,35.5268],[-81.8481,35.5389],[-81.8248,35.581],[-81.8695,35.7215],[-81.9907,35.8076],[-81.957,35.8204],[-81.9215,35.8527],[-81.9099,35.8856],[-81.9169,35.9154],[-81.9329,35.9442],[-81.9383,35.9523],[-81.9447,35.9585],[-81.9642,35.9432],[-81.9815,35.9103]]]},"properties":{"GID_0":"USA","GID_1":"USA.34_1","GID_2":"USA.34.59_1","NAME_1":"NorthCarolina","NAME_2":"McDowell"}},
{"type":"Feature","geometry":{"type":"Polygon","coordinates":[[[-80.7823,35.5113],[-80.9569,35.5177],[-80.9421,35.457],[-80.9587,35.436],[-80.9549,35.4006],[-80.9597,35.3756],[-80.9442,35.3521],[-80.9818,35.3446],[-80.9805,35.3287],[-81.0133,35.293],[-81.0054,35.2055],[-81.0076,35.1569],[-81.0238,35.1486],[-81.0448,35.1494],[-81.0369,35.1036],[-81.0523,35.0956],[-81.0568,35.0611],[-81.0419,35.0432],[-80.9312,35.1049],[-80.8405,35.0016],[-80.8009,35.0286],[-80.7645,35.0375],[-80.5485,35.2108],[-80.5954,35.2369],[-80.6677,35.2705],[-80.6983,35.3507],[-80.7693,35.402],[-80.7549,35.423],[-80.7889,35.4949],[-80.7823,35.5113]]]},"properties":{"GID_0":"USA","GID_1":"USA.34_1","GID_2":"USA.34.60_1","NAME_1":"NorthCarolina","NAME_2":"Mecklenburg"}},
{"type":"Feature","geometry":{"type":"Polygon","coordinates":[[[-82.0823,36.1041],[-82.1319,36.1069],[-82.1498,36.1467],[-82.2212,36.1567],[-82.2449,36.1334],[-82.2942,36.1331],[-82.3555,36.1163],[-82.407,36.0871],[-82.4168,36.0723],[-82.3785,36.0704],[-82.3539,36.085],[-82.3386,36.0313],[-82.2943,36.0331],[-82.252,35.9912],[-82.2564,36.0043],[-82.2164,36.0173],[-82.1958,36.0122],[-82.1924,35.9542],[-82.1695,35.9301],[-82.1492,35.9337],[-82.1461,35.8257],[-82.1331,35.8251],[-82.0992,35.852],[-82.0331,35.8645],[-82.0245,35.8841],[-81.9792,35.8885],[-81.9815,35.9103],[-82.0324,35.9448],[-82.0568,35.9848],[-82.0403,36.0073],[-82.0721,36.0666],[-82.0823,36.1041]]]},"properties":{"GID_0":"USA","GID_1":"USA.34_1","GID_2":"USA.34.61_1","NAME_1":"NorthCarolina","NAME_2":"Mitchell"}},
{"type":"Feature","geometry":{"type":"Polygon","coordinates":[[[-80.1823,35.5065],[-80.1715,35.4829],[-80.1127,35.4594],[-80.0878,35.3981],[-80.0635,35.3627],[-80.0792,35.3101],[-80.0967,35.2878],[-80.0955,35.2388],[-80.0729,35.2211],[-80.056,35.1748],[-80.0768,35.1471],[-80.0172,35.1399],[-79.9835,35.1589],[-79.898,35.1603],[-79.8513,35.1829],[-79.8344,35.1756],[-79.7562,35.1718],[-79.6988,35.179],[-79.6415,35.1575],[-79.6269,35.1624],[-79.6184,35.1629],[-79.6212,35.1683],[-79.6622,35.1911],[-79.676,35.2429],[-79.7086,35.2589],[-79.7079,35.2943],[-79.7632,35.4751],[-79.7636,35.5118],[-79.9709,35.5071],[-80.1823,35.5065]]]},"properties":{"GID_0":"USA","GID_1":"USA.34_1","GID_2":"USA.34.62_1","NAME_1":"NorthCarolina","NAME_2":"Montgomery"}},
{"type":"Feature","geometry":{"type":"Polygon","coordinates":[[[-79.5557,35.5158],[-79.7636,35.5118],[-79.7632,35.4751],[-79.7079,35.2943],[-79.7086,35.2589],[-79.676,35.2429],[-79.6622,35.1911],[-79.6212,35.1683],[-79.619,35.1651],[-79.6179,35.1574],[-79.5805,35.1178],[-79.5863,35.0815],[-79.5762,35.0665],[-79.4875,35.0607],[-79.463,35.0392],[-79.3429,35.1589],[-79.2479,35.211],[-79.2171,35.1927],[-79.1912,35.1934],[-79.1297,35.1657],[-79.106,35.171],[-79.102,35.1732],[-79.1014,35.1764],[-79.0992,35.1777],[-79.0962,35.1922],[-79.1511,35.2117],[-79.1649,35.2382],[-79.2226,35.2681],[-79.1833,35.3073],[-79.2567,35.3464],[-79.2934,35.4029],[-79.3321,35.4271],[-79.3599,35.4745],[-79.3423,35.4944],[-79.3506,35.5166],[-79.5557,35.5158]]]},"properties":{"GID_0":"USA","GID_1":"USA.34_1","GID_2":"USA.34.63_1","NAME_1":"NorthCarolina","NAME_2":"Moore"}},
{"type":"Feature","geometry":{"type":"Polygon","coordinates":[[[-77.7017,36.151],[-77.7191,36.1395],[-77.75,36.1565],[-77.78,36.143],[-77.8648,36.1477],[-77.8871,36.1431],[-77.9213,36.1868],[-77.9751,36.1791],[-78.0127,36.202],[-78.1487,36.0032],[-78.2553,35.8219],[-78.2599,35.8183],[-78.2359,35.7517],[-78.2013,35.7276],[-78.1887,35.7347],[-78.1482,35.7454],[-78.0015,35.8066],[-77.9,35.8429],[-77.8729,35.8601],[-77.8446,35.8374],[-77.8278,35.8684],[-77.7815,35.9769],[-77.7737,36.0094],[-77.7079,36.1171],[-77.7017,36.151]]]},"properties":{"GID_0":"USA","GID_1":"USA.34_1","GID_2":"USA.34.64_1","NAME_1":"NorthCarolina","NAME_2":"Nash"}},
{"type":"Feature","geometry":{"type":"MultiPolygon","coordinates":[[[[-77.8764,34.0739],[-77.8892,34.0569],[-77.9188,34.0512],[-77.9139,33.9719],[-77.8764,34.0739]]],[[[-77.9502,34.2343],[-77.9575,34.1885],[-77.9397,34.1386],[-77.9253,34.1272],[-77.9242,34.0658],[-77.8942,34.0581],[-77.8778,34.1136],[-77.8592,34.1527],[-77.8133,34.2194],[-77.7128,34.3299],[-77.7569,34.3085],[-77.8122,34.3582],[-77.8236,34.3884],[-77.8799,34.3658],[-77.9159,34.376],[-77.9389,34.3691],[-77.9867,34.3722],[-77.9931,34.3378],[-78.0372,34.3317],[-78.0278,34.3293],[-78.0259,34.3188],[-78.0102,34.3217],[-78.016,34.2923],[-77.9945,34.2846],[-77.9589,34.2436],[-77.9502,34.2343]]]]},"properties":{"GID_0":"USA","GID_1":"USA.34_1","GID_2":"USA.34.65_1","NAME_1":"NorthCarolina","NAME_2":"NewHanover"}},
{"type":"Feature","geometry":{"type":"Polygon","coordinates":[[[-77.2115,36.2445],[-77.1166,36.4736],[-77.0705,36.4802],[-77.0669,36.4865],[-77.082,36.51],[-77.1534,36.5312],[-77.158,36.5451],[-77.9016,36.5458],[-77.9001,36.5176],[-77.8798,36.5082],[-77.8118,36.5024],[-77.761,36.4792],[-77.7133,36.4856],[-77.647,36.4825],[-77.6313,36.4509],[-77.5875,36.4255],[-77.5546,36.4171],[-77.5492,36.3739],[-77.5807,36.3514],[-77.5721,36.3186],[-77.5479,36.3063],[-77.4992,36.3107],[-77.4416,36.325],[-77.4131,36.2903],[-77.4111,36.2671],[-77.3765,36.2428],[-77.3866,36.2144],[-77.3309,36.1937],[-77.2901,36.171],[-77.2993,36.1848],[-77.2926,36.2123],[-77.2297,36.2168],[-77.2115,36.2445]]]},"properties":{"GID_0":"USA","GID_1":"USA.34_1","GID_2":"USA.34.66_1","NAME_1":"NorthCarolina","NAME_2":"Northampton"}},
{"type":"Feature","geometry":{"type":"MultiPolygon","coordinates":[[[[-77.1281,34.6744],[-77.1583,34.6486],[-77.1233,34.6392],[-77.1281,34.6744]]],[[[-77.1585,34.769],[-77.1523,34.7711],[-77.1549,34.7775],[-77.1712,34.7888],[-77.1963,34.8071],[-77.2144,34.8811],[-77.2615,34.9127],[-77.2677,34.9256],[-77.3329,34.938],[-77.3679,34.917],[-77.4986,34.967],[-77.6433,34.9873],[-77.6786,34.9726],[-77.6509,34.9243],[-77.6852,34.7328],[-77.5741,34.478],[-77.5531,34.4716],[-77.5304,34.4585],[-77.4578,34.4922],[-77.3741,34.5175],[-77.3607,34.5426],[-77.3968,34.5779],[-77.4136,34.5706],[-77.4467,34.6089],[-77.4287,34.6203],[-77.3977,34.611],[-77.3721,34.6448],[-77.4001,34.6793],[-77.4261,34.6881],[-77.4149,34.717],[-77.3778,34.7036],[-77.3376,34.6397],[-77.3773,34.5997],[-77.4003,34.5969],[-77.3172,34.5461],[-77.2797,34.5667],[-77.205,34.6328],[-77.1631,34.6536],[-77.1132,34.7014],[-77.1469,34.7628],[-77.1564,34.7662],[-77.1585,34.769]]]]},"properties":{"GID_0":"USA","GID_1":"USA.34_1","GID_2":"USA.34.67_1","NAME_1":"NorthCarolina","NAME_2":"Onslow"}},
{"type":"Feature","geometry":{"type":"Polygon","coordinates":[[[-79.2521,35.8768],[-79.0831,35.8611],[-79.0161,35.8633],[-78.9507,36.2393],[-79.2593,36.2443],[-79.2637,36.0307],[-79.2756,35.9101],[-79.2521,35.8768]]]},"properties":{"GID_0":"USA","GID_1":"USA.34_1","GID_2":"USA.34.68_1","NAME_1":"NorthCarolina","NAME_2":"Orange"}},
{"type":"Feature","geometry":{"type":"MultiPolygon","coordinates":[[[[-76.6123,35.2755],[-76.63,35.2443],[-76.8519,35.2177],[-76.8955,35.2538],[-76.9069,35.2369],[-76.9427,35.2278],[-76.9618,35.2006],[-76.9752,35.1333],[-76.9491,35.1235],[-76.9388,35.1001],[-76.9329,35.0336],[-76.9022,35.0261],[-76.8769,35.0044],[-76.8039,34.9639],[-76.7558,34.9917],[-76.7131,35.0047],[-76.6333,35.0613],[-76.5701,35.0985],[-76.5439,35.1423],[-76.5794,35.1747],[-76.6048,35.1613],[-76.6525,35.1637],[-76.6555,35.1849],[-76.6124,35.1802],[-76.59,35.2417],[-76.5287,35.2318],[-76.4861,35.255],[-76.4969,35.3108],[-76.5433,35.3175],[-76.5758,35.3308],[-76.61,35.3279],[-76.6123,35.2755]]],[[[-76.5831,35.2369],[-76.5818,35.2032],[-76.5269,35.1848],[-76.5211,35.2058],[-76.5831,35.2369]]]]},"properties":{"GID_0":"USA","GID_1":"USA.34_1","GID_2":"USA.34.69_1","NAME_1":"NorthCarolina","NAME_2":"Pamlico"}},
{"type":"Feature","geometry":{"type":"Polygon","coordinates":[[[-76.4914,36.5105],[-76.4916,36.4688],[-76.4795,36.4335],[-76.4479,36.3645],[-76.3758,36.2593],[-76.3179,36.2403],[-76.2898,36.2194],[-76.2516,36.1868],[-76.2074,36.1384],[-76.1668,36.1237],[-76.1154,36.1443],[-76.099,36.1345],[-76.0615,36.146],[-76.0794,36.1971],[-76.1209,36.2213],[-76.1375,36.2528],[-76.1726,36.264],[-76.2183,36.2983],[-76.2128,36.3261],[-76.2316,36.3703],[-76.2868,36.3845],[-76.2989,36.394],[-76.3214,36.4246],[-76.3658,36.4305],[-76.385,36.447],[-76.3938,36.4545],[-76.4327,36.467],[-76.4914,36.5105]]]},"properties":{"GID_0":"USA","GID_1":"USA.34_1","GID_2":"USA.34.70_1","NAME_1":"NorthCarolina","NAME_2":"Pasquotank"}},
{"type":"Feature","geometry":{"type":"Polygon","coordinates":[[[-78.2624,34.5425],[-78.2674,34.5176],[-78.234,34.4889],[-78.1778,34.4617],[-78.2606,34.3975],[-78.2103,34.3545],[-78.1613,34.3551],[-78.1579,34.3596],[-78.126,34.3659],[-78.0795,34.3351],[-78.0456,34.3296],[-77.9931,34.3378],[-77.9867,34.3722],[-77.9389,34.3691],[-77.9159,34.376],[-77.8799,34.3658],[-77.8236,34.3884],[-77.8122,34.3582],[-77.7569,34.3085],[-77.7128,34.3299],[-77.7017,34.344],[-77.6231,34.3919],[-77.5911,34.4189],[-77.5531,34.4294],[-77.5339,34.4567],[-77.5531,34.4716],[-77.5741,34.478],[-77.6806,34.7205],[-77.9621,34.7153],[-78.0618,34.7288],[-78.1129,34.7224],[-78.1144,34.7069],[-78.1559,34.6785],[-78.2624,34.5425]]]},"properties":{"GID_0":"USA","GID_1":"USA.34_1","GID_2":"USA.34.71_1","NAME_1":"NorthCarolina","NAME_2":"Pender"}},
{"type":"Feature","geometry":{"type":"Polygon","coordinates":[[[-76.4997,36.0855],[-76.4783,36.0952],[-76.4289,36.0775],[-76.3461,36.0889],[-76.3472,36.1211],[-76.3714,36.1181],[-76.4352,36.1628],[-76.4274,36.1811],[-76.3933,36.1694],[-76.3729,36.1384],[-76.34,36.1405],[-76.284,36.1145],[-76.215,36.0964],[-76.2465,36.1586],[-76.2768,36.1809],[-76.2898,36.2194],[-76.3179,36.2403],[-76.3758,36.2593],[-76.4479,36.3645],[-76.453,36.3769],[-76.5115,36.3618],[-76.557,36.354],[-76.5734,36.2574],[-76.5909,36.2366],[-76.5748,36.1126],[-76.5392,36.0944],[-76.4997,36.0855]]]},"properties":{"GID_0":"USA","GID_1":"USA.34_1","GID_2":"USA.34.72_1","NAME_1":"NorthCarolina","NAME_2":"Perquimans"}},
{"type":"Feature","geometry":{"type":"Polygon","coordinates":[[[-79.1538,36.2422],[-78.8019,36.2361],[-78.7993,36.5441],[-78.9763,36.5447],[-79.1435,36.5427],[-79.1538,36.2422]]]},"properties":{"GID_0":"USA","GID_1":"USA.34_1","GID_2":"USA.34.73_1","NAME_1":"NorthCarolina","NAME_2":"Person"}},
{"type":"Feature","geometry":{"type":"Polygon","coordinates":[[[-77.104,35.5511],[-77.0865,35.5634],[-77.1089,35.5707],[-77.1732,35.6354],[-77.17,35.6757],[-77.1951,35.704],[-77.1741,35.733],[-77.2146,35.7594],[-77.2446,35.7601],[-77.2544,35.7862],[-77.3901,35.8328],[-77.4262,35.805],[-77.4723,35.801],[-77.5022,35.7731],[-77.7009,35.6523],[-77.6102,35.5674],[-77.5922,35.5639],[-77.5576,35.5318],[-77.5037,35.5175],[-77.504,35.4935],[-77.4751,35.427],[-77.4274,35.3502],[-77.3911,35.3403],[-77.3845,35.3356],[-77.3549,35.3281],[-77.2933,35.3794],[-77.2621,35.3519],[-77.2369,35.3622],[-77.2359,35.3899],[-77.2169,35.4012],[-77.1922,35.4116],[-77.1889,35.426],[-77.1736,35.4565],[-77.1765,35.5179],[-77.1271,35.5539],[-77.104,35.5511]]]},"properties":{"GID_0":"USA","GID_1":"USA.34_1","GID_2":"USA.34.74_1","NAME_1":"NorthCarolina","NAME_2":"Pitt"}},
{"type":"Feature","geometry":{"type":"Polygon","coordinates":[[[-82.3541,35.1926],[-82.3219,35.1869],[-82.2861,35.198],[-81.9713,35.1876],[-81.9667,35.251],[-82.129,35.3975],[-82.1637,35.4087],[-82.2181,35.3964],[-82.2615,35.3946],[-82.3183,35.3113],[-82.3462,35.2836],[-82.3541,35.1926]]]},"properties":{"GID_0":"USA","GID_1":"USA.34_1","GID_2":"USA.34.75_1","NAME_1":"NorthCarolina","NAME_2":"Polk"}},
{"type":"Feature","geometry":{"type":"Polygon","coordinates":[[[-79.5421,35.9001],[-80.0469,35.9209],[-80.0576,35.733],[-80.067,35.5061],[-79.5557,35.5158],[-79.546,35.7095],[-79.5421,35.9001]]]},"properties":{"GID_0":"USA","GID_1":"USA.34_1","GID_2":"USA.34.76_1","NAME_1":"NorthCarolina","NAME_2":"Randolph"}},
{"type":"Feature","geometry":{"type":"Polygon","coordinates":[[[-79.9248,34.8084],[-79.6874,34.8048],[-79.6236,34.816],[-79.625,34.855],[-79.5665,34.9071],[-79.5915,34.9507],[-79.5756,34.9888],[-79.5119,35.0258],[-79.463,35.0392],[-79.4875,35.0607],[-79.5762,35.0665],[-79.5863,35.0815],[-79.5805,35.1178],[-79.6179,35.1574],[-79.6184,35.1629],[-79.6269,35.1624],[-79.6415,35.1575],[-79.6988,35.179],[-79.7562,35.1718],[-79.8344,35.1756],[-79.8513,35.1829],[-79.898,35.1603],[-79.9835,35.1589],[-80.0172,35.1399],[-80.0768,35.1471],[-80.0751,35.1153],[-80.0374,35.0922],[-79.9981,35.0854],[-79.9762,35.1067],[-79.9329,35.119],[-79.9121,35.0981],[-79.911,35.0713],[-79.8824,35.0513],[-79.8791,35.0331],[-79.901,35.0041],[-79.8629,34.9754],[-79.8736,34.9491],[-79.8495,34.9109],[-79.8664,34.8783],[-79.8984,34.8601],[-79.9248,34.8084]]]},"properties":{"GID_0":"USA","GID_1":"USA.34_1","GID_2":"USA.34.77_1","NAME_1":"NorthCarolina","NAME_2":"Richmond"}},
{"type":"Feature","geometry":{"type":"Polygon","coordinates":[[[-78.9038,34.8369],[-78.9233,34.8852],[-78.9531,34.9127],[-79.0373,34.9548],[-79.1849,34.8356],[-79.3501,34.8398],[-79.3603,34.8226],[-79.335,34.7706],[-79.4614,34.63],[-79.3399,34.5304],[-79.0695,34.3035],[-79.0402,34.3161],[-79.036,34.3397],[-79.0062,34.3617],[-79.015,34.3764],[-78.9735,34.3978],[-78.9736,34.4273],[-78.9465,34.4548],[-78.9103,34.4572],[-78.8664,34.485],[-78.8499,34.5084],[-78.8586,34.5594],[-78.8055,34.6747],[-78.8108,34.6934],[-78.8433,34.7241],[-78.8726,34.7876],[-78.9038,34.8369]]]},"properties":{"GID_0":"USA","GID_1":"USA.34_1","GID_2":"USA.34.78_1","NAME_1":"NorthCarolina","NAME_2":"Robeson"}},
{"type":"Feature","geometry":{"type":"Polygon","coordinates":[[[-79.5314,36.2502],[-79.5309,36.3228],[-79.5158,36.5392],[-80.0295,36.5429],[-80.0368,36.2543],[-79.8315,36.2505],[-79.532,36.2416],[-79.5314,36.2502]]]},"properties":{"GID_0":"USA","GID_1":"USA.34_1","GID_2":"USA.34.79_1","NAME_1":"NorthCarolina","NAME_2":"Rockingham"}},
{"type":"Feature","geometry":{"type":"Polygon","coordinates":[[[-80.2879,35.5067],[-80.1823,35.5065],[-80.2084,35.5786],[-80.2674,35.6307],[-80.2912,35.637],[-80.3373,35.6831],[-80.3346,35.7212],[-80.3884,35.7152],[-80.4185,35.7237],[-80.4588,35.7503],[-80.476,35.7752],[-80.51,35.7778],[-80.5784,35.8215],[-80.67,35.8473],[-80.7086,35.8525],[-80.7715,35.6756],[-80.7444,35.5669],[-80.7371,35.5098],[-80.5738,35.5057],[-80.2879,35.5067]]]},"properties":{"GID_0":"USA","GID_1":"USA.34_1","GID_2":"USA.34.80_1","NAME_1":"NorthCarolina","NAME_2":"Rowan"}},
{"type":"Feature","geometry":{"type":"Polygon","coordinates":[[[-82.266,35.4681],[-82.2806,35.4483],[-82.2615,35.3946],[-82.2181,35.3964],[-82.1637,35.4087],[-82.129,35.3975],[-81.9667,35.251],[-81.9713,35.1876],[-81.7679,35.1801],[-81.7664,35.2119],[-81.7027,35.3577],[-81.6942,35.4858],[-81.6963,35.5766],[-81.7158,35.6031],[-81.7501,35.6076],[-81.774,35.5877],[-81.8248,35.581],[-81.8481,35.5389],[-81.9783,35.5268],[-81.9993,35.5519],[-82.034,35.5372],[-82.0973,35.5361],[-82.1563,35.5255],[-82.1706,35.5316],[-82.2275,35.5251],[-82.224,35.5011],[-82.2545,35.4629],[-82.266,35.4681]]]},"properties":{"GID_0":"USA","GID_1":"USA.34_1","GID_2":"USA.34.81_1","NAME_1":"NorthCarolina","NAME_2":"Rutherford"}},
{"type":"Feature","geometry":{"type":"Polygon","coordinates":[[[-78.2572,34.5497],[-78.1559,34.6785],[-78.1144,34.7069],[-78.1129,34.7224],[-78.1339,34.7091],[-78.1974,34.7428],[-78.1466,34.9023],[-78.1597,35.0801],[-78.1712,35.0934],[-78.1629,35.1374],[-78.1639,35.1896],[-78.1625,35.2009],[-78.2318,35.2224],[-78.2481,35.2204],[-78.3047,35.2861],[-78.4101,35.2563],[-78.491,35.2637],[-78.5384,35.3188],[-78.5845,35.293],[-78.586,35.2762],[-78.6164,35.2457],[-78.6406,35.216],[-78.6329,35.1737],[-78.6441,35.1116],[-78.6749,35.0861],[-78.6529,35.0259],[-78.6506,34.9982],[-78.627,34.9675],[-78.576,34.9338],[-78.5162,34.8667],[-78.5078,34.863],[-78.504,34.8584],[-78.4446,34.8017],[-78.4224,34.7646],[-78.3954,34.7466],[-78.373,34.6927],[-78.3322,34.6685],[-78.3144,34.6146],[-78.2579,34.5652],[-78.2572,34.5497]]]},"properties":{"GID_0":"USA","GID_1":"USA.34_1","GID_2":"USA.34.82_1","NAME_1":"NorthCarolina","NAME_2":"Sampson"}},
{"type":"Feature","geometry":{"type":"Polygon","coordinates":[[[-79.463,35.0392],[-79.5119,35.0258],[-79.5756,34.9888],[-79.5915,34.9507],[-79.5665,34.9071],[-79.625,34.855],[-79.6236,34.816],[-79.6874,34.8048],[-79.6753,34.8046],[-79.4614,34.63],[-79.335,34.7706],[-79.3603,34.8226],[-79.3438,34.8597],[-79.3542,34.8852],[-79.3593,34.9461],[-79.4032,34.9953],[-79.463,35.0392]]]},"properties":{"GID_0":"USA","GID_1":"USA.34_1","GID_2":"USA.34.83_1","NAME_1":"NorthCarolina","NAME_2":"Scotland"}},
{"type":"Feature","geometry":{"type":"Polygon","coordinates":[[[-80.0768,35.1471],[-80.056,35.1748],[-80.0729,35.2211],[-80.0955,35.2388],[-80.0967,35.2878],[-80.0792,35.3101],[-80.0635,35.3627],[-80.0878,35.3981],[-80.1127,35.4594],[-80.1715,35.4829],[-80.1823,35.5065],[-80.2879,35.5067],[-80.3867,35.3739],[-80.4815,35.2156],[-80.51,35.1855],[-80.5066,35.1819],[-80.4615,35.1621],[-80.4244,35.1731],[-80.3952,35.1646],[-80.3159,35.1803],[-80.2878,35.1931],[-80.2592,35.2118],[-80.2382,35.1587],[-80.2034,35.1651],[-80.1836,35.1465],[-80.1673,35.1466],[-80.1724,35.1624],[-80.1179,35.192],[-80.1089,35.1684],[-80.0768,35.1471]]]},"properties":{"GID_0":"USA","GID_1":"USA.34_1","GID_2":"USA.34.84_1","NAME_1":"NorthCarolina","NAME_2":"Stanly"}},
{"type":"Feature","geometry":{"type":"Polygon","coordinates":[[[-80.0368,36.2543],[-80.0295,36.5429],[-80.2775,36.5433],[-80.4391,36.5501],[-80.4574,36.2621],[-80.2605,36.2608],[-80.0368,36.2543]]]},"properties":{"GID_0":"USA","GID_1":"USA.34_1","GID_2":"USA.34.85_1","NAME_1":"NorthCarolina","NAME_2":"Stokes"}},
{"type":"Feature","geometry":{"type":"Polygon","coordinates":[[[-80.9648,36.4055],[-80.9295,36.3686],[-80.9071,36.3624],[-80.8747,36.3327],[-80.8776,36.2334],[-80.8429,36.2441],[-80.8139,36.2515],[-80.7967,36.2453],[-80.7685,36.2732],[-80.7513,36.2633],[-80.6497,36.2657],[-80.6138,36.2763],[-80.5932,36.2701],[-80.5608,36.2829],[-80.5344,36.2585],[-80.4762,36.2606],[-80.4665,36.2584],[-80.459,36.243],[-80.4479,36.3963],[-80.4391,36.5501],[-80.6523,36.5584],[-80.9072,36.5611],[-80.9328,36.5006],[-80.9734,36.4495],[-80.9518,36.417],[-80.9648,36.4055]]]},"properties":{"GID_0":"USA","GID_1":"USA.34_1","GID_2":"USA.34.86_1","NAME_1":"NorthCarolina","NAME_2":"Surry"}},
{"type":"Feature","geometry":{"type":"Polygon","coordinates":[[[-83.6811,35.2794],[-83.6644,35.2835],[-83.4961,35.3004],[-83.4583,35.3016],[-83.4284,35.3247],[-83.338,35.3336],[-83.3373,35.3841],[-83.3625,35.4179],[-83.3506,35.4673],[-83.3087,35.4794],[-83.2315,35.5251],[-83.1787,35.5197],[-83.157,35.5539],[-83.1827,35.5886],[-83.182,35.6377],[-83.2017,35.6498],[-83.1846,35.673],[-83.2246,35.6946],[-83.2578,35.6978],[-83.296,35.6594],[-83.3444,35.6627],[-83.3963,35.6235],[-83.4489,35.6078],[-83.4864,35.5701],[-83.5047,35.5627],[-83.5812,35.565],[-83.5976,35.5781],[-83.6409,35.5678],[-83.6753,35.5712],[-83.7626,35.5647],[-83.8187,35.5289],[-83.8787,35.5197],[-83.8998,35.4873],[-83.9593,35.4629],[-83.9442,35.4503],[-83.9294,35.4485],[-83.9078,35.4674],[-83.86,35.4517],[-83.7986,35.4537],[-83.7675,35.4429],[-83.7343,35.4444],[-83.6493,35.4271],[-83.6336,35.4416],[-83.583,35.4109],[-83.5996,35.3682],[-83.6199,35.3444],[-83.6876,35.32],[-83.6811,35.2794]]]},"properties":{"GID_0":"USA","GID_1":"USA.34_1","GID_2":"USA.34.87_1","NAME_1":"NorthCarolina","NAME_2":"Swain"}},
{"type":"Feature","geometry":{"type":"Polygon","coordinates":[[[-82.9201,35.2911],[-82.9318,35.2295],[-82.9859,35.1873],[-82.9955,35.1566],[-82.9784,35.138],[-83.0446,35.0763],[-83.0522,35.0548],[-83.0073,35.028],[-82.7808,35.0865],[-82.7547,35.0687],[-82.7265,35.0923],[-82.6942,35.1004],[-82.6923,35.1186],[-82.6332,35.1258],[-82.5753,35.1444],[-82.5951,35.1802],[-82.6099,35.2853],[-82.6405,35.3227],[-82.7445,35.423],[-82.7468,35.4079],[-82.7816,35.3871],[-82.8305,35.3219],[-82.9026,35.3057],[-82.9201,35.2911]]]},"properties":{"GID_0":"USA","GID_1":"USA.34_1","GID_2":"USA.34.88_1","NAME_1":"NorthCarolina","NAME_2":"Transylvania"}},
{"type":"Feature","geometry":{"type":"Polygon","coordinates":[[[-76.1683,35.6989],[-76.1406,35.7033],[-76.1119,35.6836],[-76.0464,35.6717],[-76.037,35.6889],[-76.0611,35.7176],[-76.048,35.7461],[-76.0575,35.7606],[-76.1211,35.775],[-76.1036,35.7992],[-76.0817,35.769],[-76.0539,35.7708],[-76.0511,35.8069],[-76.0642,35.8536],[-76.0133,35.9236],[-76.0742,35.9297],[-76.0619,35.9578],[-76.0304,35.9416],[-76.0118,35.9543],[-76.0543,35.9874],[-76.1489,35.9956],[-76.2703,35.9726],[-76.3132,35.9493],[-76.3642,35.9358],[-76.3816,35.9108],[-76.352,35.8645],[-76.4063,35.7854],[-76.4059,35.6977],[-76.2691,35.6908],[-76.2974,35.609],[-76.2142,35.5982],[-76.1965,35.6226],[-76.172,35.6818],[-76.1764,35.6851],[-76.1755,35.6914],[-76.1683,35.6989]]]},"properties":{"GID_0":"USA","GID_1":"USA.34_1","GID_2":"USA.34.89_1","NAME_1":"NorthCarolina","NAME_2":"Tyrrell"}},
{"type":"Feature","geometry":{"type":"Polygon","coordinates":[[[-80.2789,35.1995],[-80.2878,35.1931],[-80.3159,35.1803],[-80.3952,35.1646],[-80.4244,35.1731],[-80.4615,35.1621],[-80.5066,35.1819],[-80.5293,35.1995],[-80.5485,35.2108],[-80.7645,35.0375],[-80.8009,35.0286],[-80.8405,35.0016],[-80.7828,34.9349],[-80.796,34.8175],[-80.32,34.8137],[-80.2789,35.1995]]]},"properties":{"GID_0":"USA","GID_1":"USA.34_1","GID_2":"USA.34.90_1","NAME_1":"NorthCarolina","NAME_2":"Union"}},
{"type":"Feature","geometry":{"type":"Polygon","coordinates":[[[-78.3055,36.2673],[-78.2835,36.3028],[-78.3239,36.5446],[-78.4562,36.5422],[-78.4968,36.517],[-78.5152,36.4542],[-78.5102,36.1856],[-78.499,36.1787],[-78.4286,36.1651],[-78.4114,36.1703],[-78.3809,36.2352],[-78.3404,36.2355],[-78.3055,36.2673]]]},"properties":{"GID_0":"USA","GID_1":"USA.34_1","GID_2":"USA.34.91_1","NAME_1":"NorthCarolina","NAME_2":"Vance"}},
{"type":"Feature","geometry":{"type":"Polygon","coordinates":[[[-78.9196,35.5857],[-78.708,35.5191],[-78.5716,35.6255],[-78.4709,35.7078],[-78.3731,35.7523],[-78.2599,35.8183],[-78.2782,35.8631],[-78.3137,35.8976],[-78.351,35.909],[-78.3567,35.9318],[-78.3969,35.9387],[-78.4307,35.9795],[-78.5922,36.0378],[-78.6895,36.0752],[-78.7498,36.0718],[-78.7564,36.0532],[-78.6985,36.0131],[-78.714,35.9729],[-78.7609,35.9176],[-78.8056,35.9281],[-78.8298,35.8689],[-78.9076,35.8678],[-78.9421,35.756],[-78.9796,35.6656],[-78.9956,35.6104],[-78.9196,35.5857]]]},"properties":{"GID_0":"USA","GID_1":"USA.34_1","GID_2":"USA.34.92_1","NAME_1":"NorthCarolina","NAME_2":"Wake"}},
{"type":"Feature","geometry":{"type":"Polygon","coordinates":[[[-78.0127,36.202],[-77.9469,36.2943],[-77.9175,36.3872],[-77.9088,36.496],[-77.9001,36.5176],[-77.9016,36.5458],[-78.125,36.5463],[-78.3239,36.5446],[-78.2835,36.3028],[-78.3055,36.2673],[-78.2099,36.2554],[-78.1727,36.2567],[-78.1325,36.2465],[-78.1116,36.2158],[-78.0233,36.2099],[-78.0127,36.202]]]},"properties":{"GID_0":"USA","GID_1":"USA.34_1","GID_2":"USA.34.93_1","NAME_1":"NorthCarolina","NAME_2":"Warren"}},
{"type":"Feature","geometry":{"type":"Polygon","coordinates":[[[-76.6385,35.7054],[-76.5614,35.7055],[-76.4059,35.6977],[-76.4063,35.7854],[-76.352,35.8645],[-76.3816,35.9108],[-76.3746,35.9553],[-76.4058,35.9822],[-76.49,35.96],[-76.525,35.9447],[-76.6639,35.9328],[-76.6985,35.9425],[-76.6977,35.9339],[-76.7033,35.9234],[-76.7242,35.9126],[-76.7459,35.8714],[-76.7626,35.8651],[-76.7702,35.8612],[-76.787,35.8398],[-76.8037,35.8067],[-76.8083,35.7637],[-76.8392,35.7023],[-76.8295,35.7057],[-76.6385,35.7054]]]},"properties":{"GID_0":"USA","GID_1":"USA.34_1","GID_2":"USA.34.94_1","NAME_1":"NorthCarolina","NAME_2":"Washington"}},
{"type":"Feature","geometry":{"type":"Polygon","coordinates":[[[-81.7301,36.3903],[-81.7225,36.3524],[-81.7463,36.3359],[-81.8077,36.3522],[-81.8397,36.3433],[-81.9204,36.2846],[-81.8992,36.2778],[-81.9066,36.2087],[-81.8851,36.1904],[-81.8583,36.1936],[-81.8303,36.1668],[-81.8113,36.1117],[-81.6766,36.1228],[-81.6571,36.1185],[-81.5489,36.1172],[-81.5009,36.1396],[-81.4559,36.1973],[-81.4737,36.2357],[-81.4951,36.249],[-81.5476,36.276],[-81.5721,36.2757],[-81.6411,36.3514],[-81.7301,36.3903]]]},"properties":{"GID_0":"USA","GID_1":"USA.34_1","GID_2":"USA.34.95_1","NAME_1":"NorthCarolina","NAME_2":"Watauga"}},
{"type":"Feature","geometry":{"type":"Polygon","coordinates":[[[-77.8338,35.1781],[-77.8241,35.3441],[-77.8088,35.3665],[-77.7999,35.3795],[-77.8271,35.4354],[-77.8236,35.5193],[-77.8234,35.5856],[-77.9993,35.5859],[-78.0578,35.5978],[-78.1544,35.4192],[-78.1645,35.3503],[-78.2104,35.3397],[-78.2408,35.3206],[-78.2928,35.3109],[-78.3047,35.2861],[-78.2481,35.2204],[-78.2318,35.2224],[-78.1625,35.2009],[-78.1639,35.1896],[-78.077,35.175],[-78.0445,35.1927],[-77.9867,35.1844],[-77.9546,35.1652],[-77.9302,35.1739],[-77.8971,35.1488],[-77.8855,35.1618],[-77.8338,35.1781]]]},"properties":{"GID_0":"USA","GID_1":"USA.34_1","GID_2":"USA.34.96_1","NAME_1":"NorthCarolina","NAME_2":"Wayne"}},
{"type":"Feature","geometry":{"type":"Polygon","coordinates":[[[-81.0291,36.0512],[-80.995,36.0555],[-80.8824,36.056],[-80.8747,36.3327],[-80.9071,36.3624],[-80.9295,36.3686],[-80.9648,36.4055],[-80.9818,36.3913],[-81.021,36.376],[-81.0461,36.4171],[-81.0911,36.4425],[-81.14,36.4199],[-81.1671,36.4341],[-81.1911,36.4017],[-81.2239,36.3791],[-81.2647,36.3574],[-81.3217,36.3794],[-81.3612,36.3509],[-81.3669,36.2887],[-81.4121,36.2945],[-81.4321,36.267],[-81.4741,36.2547],[-81.4801,36.2401],[-81.4737,36.2357],[-81.4559,36.1973],[-81.5009,36.1396],[-81.5489,36.1172],[-81.5178,36.099],[-81.4584,36.0916],[-81.4433,36.0764],[-81.4097,36.0731],[-81.3881,36.0462],[-81.3507,36.0239],[-81.3298,35.9969],[-81.2717,36.0261],[-81.1894,36.0388],[-81.1687,36.0268],[-81.1462,36.0406],[-81.1062,36.0287],[-81.0607,36.0323],[-81.0291,36.0512]]]},"properties":{"GID_0":"USA","GID_1":"USA.34_1","GID_2":"USA.34.97_1","NAME_1":"NorthCarolina","NAME_2":"Wilkes"}},
{"type":"Feature","geometry":{"type":"Polygon","coordinates":[[[-77.8278,35.8684],[-77.8446,35.8374],[-77.8729,35.8601],[-77.9,35.8429],[-78.0015,35.8066],[-78.1482,35.7454],[-78.1887,35.7347],[-78.1922,35.7302],[-78.1641,35.6953],[-78.1284,35.6035],[-78.0644,35.5857],[-78.0578,35.5978],[-77.9993,35.5859],[-77.8234,35.5856],[-77.8238,35.5729],[-77.7535,35.616],[-77.7009,35.6523],[-77.668,35.6729],[-77.7194,35.7338],[-77.7511,35.8121],[-77.7484,35.827],[-77.8278,35.8684]]]},"properties":{"GID_0":"USA","GID_1":"USA.34_1","GID_2":"USA.34.98_1","NAME_1":"NorthCarolina","NAME_2":"Wilson"}},
{"type":"Feature","geometry":{"type":"Polygon","coordinates":[[[-80.5005,36.0478],[-80.5096,36.0536],[-80.519,36.0962],[-80.4975,36.1149],[-80.4622,36.1205],[-80.4424,36.1378],[-80.4366,36.2231],[-80.4567,36.2389],[-80.4665,36.2584],[-80.4762,36.2606],[-80.5344,36.2585],[-80.5608,36.2829],[-80.5932,36.2701],[-80.6138,36.2763],[-80.6497,36.2657],[-80.7513,36.2633],[-80.7685,36.2732],[-80.7967,36.2453],[-80.8139,36.2515],[-80.8429,36.2441],[-80.8776,36.2334],[-80.8824,36.056],[-80.5005,36.0478]]]},"properties":{"GID_0":"USA","GID_1":"USA.34_1","GID_2":"USA.34.99_1","NAME_1":"NorthCarolina","NAME_2":"Yadkin"}},
{"type":"Feature","geometry":{"type":"Polygon","coordinates":[[[-82.2765,35.7066],[-82.2622,35.7015],[-82.2163,35.7219],[-82.1579,35.7792],[-82.165,35.7913],[-82.1331,35.8251],[-82.1461,35.8257],[-82.1492,35.9337],[-82.1695,35.9301],[-82.1924,35.9542],[-82.1958,36.0122],[-82.2164,36.0173],[-82.2564,36.0043],[-82.252,35.9912],[-82.2943,36.0331],[-82.3386,36.0313],[-82.3539,36.085],[-82.3785,36.0704],[-82.4168,36.0723],[-82.4603,36.0071],[-82.5037,35.9787],[-82.4811,35.9517],[-82.4923,35.9138],[-82.4876,35.9085],[-82.4452,35.8962],[-82.403,35.8204],[-82.3839,35.8257],[-82.3412,35.8039],[-82.3357,35.7532],[-82.2868,35.7287],[-82.2765,35.7066]]]},"properties":{"GID_0":"USA","GID_1":"USA.34_1","GID_2":"USA.34.100_1","NAME_1":"NorthCarolina","NAME_2":"Yancey"}}
]}