{"type":"FeatureCollection", "features": [
{"type":"Feature","geometry":{"type":"Polygon","coordinates":[[[-109.4951,33.6523],[-109.4721,33.7016],[-109.354,33.733],[-109.3525,33.7776],[-109.0467,33.7756],[-109.0449,36.9986],[-110.0011,36.9992],[-109.9999,35.6627],[-109.8266,35.6624],[-109.8341,35.5191],[-109.8408,34.8231],[-109.8604,34.5604],[-109.8438,34.4738],[-109.844,34.1256],[-109.8596,34.1259],[-109.8584,33.778],[-109.8912,33.7777],[-109.8914,33.5675],[-109.7658,33.4757],[-109.7436,33.5037],[-109.4951,33.6523]]]},"properties":{"GID_0":"USA","GID_1":"USA.3_1","GID_2":"USA.3.1_1","NAME_1":"Arizona","NAME_2":"Apache"}},
{"type":"Feature","geometry":{"type":"Polygon","coordinates":[[[-110.4561,31.3328],[-109.5106,31.3343],[-109.05,31.3328],[-109.0478,32.4251],[-109.2068,32.425],[-109.7353,32.4258],[-110.2981,32.4252],[-110.448,32.4274],[-110.447,32.2551],[-110.4467,31.9054],[-110.448,31.6157],[-110.4561,31.3328]]]},"properties":{"GID_0":"USA","GID_1":"USA.3_1","GID_2":"USA.3.2_1","NAME_1":"Arizona","NAME_2":"Cochise"}},
{"type":"Feature","geometry":{"type":"Polygon","coordinates":[[[-110.7518,37.0045],[-112.0013,37.0024],[-112.5424,37.0032],[-112.5312,36.9602],[-112.619,36.7902],[-112.6359,36.6772],[-112.6168,36.5952],[-112.6657,36.5482],[-112.6277,36.3906],[-112.7936,36.2889],[-112.8609,36.2853],[-112.942,36.2402],[-113.0229,36.2355],[-113.1252,36.1688],[-113.1926,36.1459],[-113.2299,36.0915],[-113.308,36.0989],[-113.3519,36.0344],[-113.3172,35.9718],[-113.3159,35.9627],[-113.3096,35.8611],[-113.334,35.7933],[-113.3338,35.5278],[-113.1719,35.5054],[-112.9641,35.3811],[-112.9536,35.3558],[-112.7355,35.3047],[-112.7023,35.3117],[-112.5395,35.2363],[-112.4388,35.2608],[-112.4399,35.1487],[-112.3325,35.149],[-112.3311,34.9724],[-111.8049,34.9754],[-111.7746,34.9799],[-111.7757,34.8037],[-111.5484,34.8013],[-111.5487,34.4656],[-111.4249,34.3942],[-111.4178,34.381],[-111.3739,34.4384],[-111.3261,34.4227],[-111.2517,34.4527],[-111.1505,34.3871],[-111.0431,34.3794],[-110.9454,34.3172],[-110.8354,34.2694],[-110.7645,34.2918],[-110.7569,34.2781],[-110.766,34.2664],[-110.765,34.2568],[-110.7505,34.2621],[-110.7518,37.0045]]]},"properties":{"GID_0":"USA","GID_1":"USA.3_1","GID_2":"USA.3.3_1","NAME_1":"Arizona","NAME_2":"Coconino"}},
{"type":"Feature","geometry":{"type":"Polygon","coordinates":[[[-111.5487,34.4656],[-111.574,34.4221],[-111.6594,34.3856],[-111.6686,34.3074],[-111.7203,34.1635],[-111.7198,34.1581],[-111.4778,34.1513],[-111.4645,34.0726],[-111.496,34],[-111.4406,33.9975],[-111.4517,33.9203],[-111.3717,33.819],[-111.3897,33.7768],[-111.2575,33.6209],[-111.1538,33.6775],[-111.0836,33.5478],[-111.0262,33.4518],[-110.9431,33.2527],[-110.7807,32.9862],[-110.7245,33.0702],[-110.6329,33.142],[-110.5847,33.1381],[-110.4491,33.1944],[-110.4533,33.329],[-110.4521,33.3609],[-110.4138,33.4081],[-110.1699,33.4659],[-110.0004,33.4658],[-110.0006,33.9998],[-110.7508,33.9999],[-110.7505,34.2621],[-110.765,34.2568],[-110.766,34.2664],[-110.7569,34.2781],[-110.7645,34.2918],[-110.8354,34.2694],[-110.9454,34.3172],[-111.0431,34.3794],[-111.1505,34.3871],[-111.2517,34.4527],[-111.3261,34.4227],[-111.3739,34.4384],[-111.4178,34.381],[-111.4249,34.3942],[-111.5487,34.4656]]]},"properties":{"GID_0":"USA","GID_1":"USA.3_1","GID_2":"USA.3.4_1","NAME_1":"Arizona","NAME_2":"Gila"}},
{"type":"Feature","geometry":{"type":"Polygon","coordinates":[[[-109.8914,33.5675],[-110.0003,33.5768],[-110.0004,33.4658],[-110.1699,33.4659],[-110.4138,33.4081],[-110.4521,33.3609],[-110.4533,33.329],[-110.4491,33.1944],[-110.448,32.4274],[-110.2981,32.4252],[-109.7353,32.4258],[-109.2068,32.425],[-109.1131,32.4251],[-109.2253,32.5316],[-109.2058,32.6359],[-109.2421,32.737],[-109.3323,32.8431],[-109.49,33.0721],[-109.4951,33.6523],[-109.7436,33.5037],[-109.7658,33.4757],[-109.8914,33.5675]]]},"properties":{"GID_0":"USA","GID_1":"USA.3_1","GID_2":"USA.3.5_1","NAME_1":"Arizona","NAME_2":"Graham"}},
{"type":"Feature","geometry":{"type":"Polygon","coordinates":[[[-109.4951,33.6523],[-109.49,33.0721],[-109.3323,32.8431],[-109.2421,32.737],[-109.2058,32.6359],[-109.2253,32.5316],[-109.1131,32.4251],[-109.0478,32.4251],[-109.0467,33.7756],[-109.3525,33.7776],[-109.354,33.733],[-109.4721,33.7016],[-109.4951,33.6523]]]},"properties":{"GID_0":"USA","GID_1":"USA.3_1","GID_2":"USA.3.6_1","NAME_1":"Arizona","NAME_2":"Greenlee"}},
{"type":"Feature","geometry":{"type":"Polygon","coordinates":[[[-113.3342,34.3175],[-113.3594,34.2945],[-113.5409,34.305],[-113.6171,34.2271],[-113.6785,34.2099],[-113.7063,34.2122],[-113.7308,34.2405],[-114.0282,34.262],[-114.0382,34.2614],[-114.1373,34.3051],[-114.1556,34.2638],[-114.2521,34.1784],[-114.4298,34.0928],[-114.4389,34.0226],[-114.5329,33.9316],[-114.5002,33.8796],[-114.5253,33.816],[-114.491,33.711],[-114.5295,33.6742],[-114.5247,33.5579],[-114.5917,33.5004],[-114.6342,33.4235],[-114.6848,33.42],[-114.7288,33.3023],[-114.6765,33.2737],[-114.6757,33.1634],[-114.6997,33.1197],[-114.6607,33.0333],[-114.5165,33.0298],[-114.2675,33.0312],[-114.2663,33.4663],[-113.9548,33.4671],[-113.9554,33.3801],[-113.3326,33.3795],[-113.3342,34.3175]]]},"properties":{"GID_0":"USA","GID_1":"USA.3_1","GID_2":"USA.3.7_1","NAME_1":"Arizona","NAME_2":"LaPaz"}},
{"type":"Feature","geometry":{"type":"Polygon","coordinates":[[[-111.496,34],[-111.7243,34.0004],[-112.1648,34.0474],[-112.1973,33.9732],[-112.2767,33.8822],[-112.7437,33.9997],[-112.9287,34.0024],[-113.3338,34.0012],[-113.3326,33.3795],[-113.3287,33.3796],[-113.3336,32.8579],[-113.3337,32.5054],[-112.964,32.5045],[-112.2029,32.5071],[-112.2015,33.0317],[-112.2,33.2915],[-112.0764,33.2052],[-111.58,33.2054],[-111.5792,33.4661],[-111.0344,33.4651],[-111.0836,33.5478],[-111.1538,33.6775],[-111.2575,33.6209],[-111.3897,33.7768],[-111.3717,33.819],[-111.4517,33.9203],[-111.4406,33.9975],[-111.496,34]]]},"properties":{"GID_0":"USA","GID_1":"USA.3_1","GID_2":"USA.3.8_1","NAME_1":"Arizona","NAME_2":"Maricopa"}},
{"type":"Feature","geometry":{"type":"Polygon","coordinates":[[[-112.5424,37.0032],[-114.051,37],[-114.0487,36.1951],[-114.1474,36.0305],[-114.2241,36.0145],[-114.3156,36.0668],[-114.3738,36.1438],[-114.44,36.1273],[-114.5108,36.1528],[-114.6298,36.1421],[-114.7539,36.0811],[-114.7244,36.0326],[-114.7453,35.9846],[-114.7047,35.9047],[-114.7022,35.7006],[-114.6587,35.6162],[-114.6703,35.4697],[-114.5956,35.3246],[-114.5718,35.1623],[-114.6295,35.1215],[-114.6347,34.8802],[-114.5585,34.7796],[-114.4708,34.7152],[-114.431,34.5925],[-114.3789,34.5304],[-114.3849,34.4639],[-114.3354,34.4544],[-114.1373,34.3051],[-114.0382,34.2614],[-114.0282,34.262],[-113.7308,34.2405],[-113.7063,34.2122],[-113.6785,34.2099],[-113.6171,34.2271],[-113.5409,34.305],[-113.3594,34.2945],[-113.3342,34.3175],[-113.333,34.3807],[-113.334,35.7933],[-113.3096,35.8611],[-113.3159,35.9627],[-113.3172,35.9718],[-113.3519,36.0344],[-113.308,36.0989],[-113.2299,36.0915],[-113.1926,36.1459],[-113.1252,36.1688],[-113.0229,36.2355],[-112.942,36.2402],[-112.8609,36.2853],[-112.7936,36.2889],[-112.6277,36.3906],[-112.6657,36.5482],[-112.6168,36.5952],[-112.6359,36.6772],[-112.619,36.7902],[-112.5312,36.9602],[-112.5424,37.0032]]]},"properties":{"GID_0":"USA","GID_1":"USA.3_1","GID_2":"USA.3.9_1","NAME_1":"Arizona","NAME_2":"Mohave"}},
{"type":"Feature","geometry":{"type":"Polygon","coordinates":[[[-110.0011,36.9992],[-110.4719,36.9996],[-110.7518,37.0045],[-110.7512,34.0103],[-110.7508,33.9999],[-110.0006,33.9998],[-110.0003,33.5768],[-109.8914,33.5675],[-109.8912,33.7777],[-109.8584,33.778],[-109.8596,34.1259],[-109.844,34.1256],[-109.8438,34.4738],[-109.8604,34.5604],[-109.8408,34.8231],[-109.8341,35.5191],[-109.8266,35.6624],[-109.9999,35.6627],[-110.0011,36.9992]]]},"properties":{"GID_0":"USA","GID_1":"USA.3_1","GID_2":"USA.3.10_1","NAME_1":"Arizona","NAME_2":"Navajo"}},
{"type":"Feature","geometry":{"type":"Polygon","coordinates":[[[-113.3335,32.04],[-113.2108,32.0001],[-112.0007,31.6272],[-111.3641,31.4244],[-111.3654,31.5211],[-111.1608,31.522],[-111.1614,31.7242],[-110.8523,31.731],[-110.4485,31.7307],[-110.4467,31.9054],[-110.447,32.2551],[-110.4484,32.5144],[-111.1547,32.5114],[-111.1548,32.5028],[-111.5674,32.5069],[-112.0996,32.5077],[-112.964,32.5045],[-113.3337,32.5054],[-113.3335,32.04]]]},"properties":{"GID_0":"USA","GID_1":"USA.3_1","GID_2":"USA.3.11_1","NAME_1":"Arizona","NAME_2":"Pima"}},
{"type":"Feature","geometry":{"type":"Polygon","coordinates":[[[-111.0344,33.4651],[-111.5792,33.4661],[-111.58,33.2054],[-112.0764,33.2052],[-112.2,33.2915],[-112.2015,33.0317],[-112.2029,32.5071],[-111.5674,32.5069],[-111.1548,32.5028],[-111.1547,32.5114],[-110.4484,32.5144],[-110.4491,33.1944],[-110.5847,33.1381],[-110.6329,33.142],[-110.7245,33.0702],[-110.7807,32.9862],[-110.9431,33.2527],[-111.0262,33.4518],[-111.0344,33.4651]]]},"properties":{"GID_0":"USA","GID_1":"USA.3_1","GID_2":"USA.3.12_1","NAME_1":"Arizona","NAME_2":"Pinal"}},
{"type":"Feature","geometry":{"type":"Polygon","coordinates":[[[-111.3641,31.4244],[-111.075,31.3324],[-110.4561,31.3328],[-110.448,31.6157],[-110.4485,31.7307],[-110.8523,31.731],[-111.1614,31.7242],[-111.1608,31.522],[-111.3654,31.5211],[-111.3641,31.4244]]]},"properties":{"GID_0":"USA","GID_1":"USA.3_1","GID_2":"USA.3.13_1","NAME_1":"Arizona","NAME_2":"SantaCruz"}},
{"type":"Feature","geometry":{"type":"Polygon","coordinates":[[[-113.3338,35.5278],[-113.3338,34.0012],[-112.9287,34.0024],[-112.7437,33.9997],[-112.2767,33.8822],[-112.1973,33.9732],[-112.1648,34.0474],[-111.7243,34.0004],[-111.496,34],[-111.4645,34.0726],[-111.4778,34.1513],[-111.7198,34.1581],[-111.7203,34.1635],[-111.6686,34.3074],[-111.6594,34.3856],[-111.574,34.4221],[-111.5487,34.4656],[-111.5484,34.8013],[-111.7757,34.8037],[-111.7746,34.9799],[-111.8049,34.9754],[-112.3311,34.9724],[-112.3325,35.149],[-112.4399,35.1487],[-112.4388,35.2608],[-112.5395,35.2363],[-112.7023,35.3117],[-112.7355,35.3047],[-112.9536,35.3558],[-112.9641,35.3811],[-113.1719,35.5054],[-113.3338,35.5278]]]},"properties":{"GID_0":"USA","GID_1":"USA.3_1","GID_2":"USA.3.14_1","NAME_1":"Arizona","NAME_2":"Yavapai"}},
{"type":"Feature","geometry":{"type":"Polygon","coordinates":[[[-114.5165,33.0298],[-114.4603,32.9011],[-114.466,32.8462],[-114.5289,32.7933],[-114.5265,32.758],[-114.6139,32.7291],[-114.7024,32.7433],[-114.7655,32.6435],[-114.807,32.6227],[-114.8136,32.4939],[-114.0513,32.2624],[-113.3335,32.04],[-113.3336,32.8579],[-113.3287,33.3796],[-113.9554,33.3801],[-113.9548,33.4671],[-114.2663,33.4663],[-114.2675,33.0312],[-114.5165,33.0298]]]},"properties":{"GID_0":"USA","GID_1":"USA.3_1","GID_2":"USA.3.15_1","NAME_1":"Arizona","NAME_2":"Yuma"}}
]}