{"type":"FeatureCollection", "features": [
{"type":"Feature","geometry":{"type":"Polygon","coordinates":[[[-98.7094,43.4993],[-98.3219,43.4998],[-98.3266,43.851],[-98.331,43.8502],[-98.332,43.9385],[-98.8072,43.9355],[-98.7973,43.8488],[-98.7959,43.5004],[-98.7094,43.4993]]]},"properties":{"GID_0":"USA","GID_1":"USA.42_1","GID_2":"USA.42.1_1","NAME_1":"SouthDakota","NAME_2":"Aurora"}},
{"type":"Feature","geometry":{"type":"Polygon","coordinates":[[[-97.9766,44.6321],[-98.7069,44.6348],[-98.6994,44.4354],[-98.7012,44.1979],[-97.8506,44.1964],[-97.853,44.5453],[-97.8554,44.6312],[-97.9766,44.6321]]]},"properties":{"GID_0":"USA","GID_1":"USA.42_1","GID_2":"USA.42.2_1","NAME_1":"SouthDakota","NAME_2":"Beadle"}},
{"type":"Feature","geometry":{"type":"Polygon","coordinates":[[[-101.2277,42.9953],[-101.2281,43.3884],[-102.1158,43.3887],[-102.1122,43.1284],[-102.0829,42.9979],[-101.2277,42.9953]]]},"properties":{"GID_0":"USA","GID_1":"USA.42_1","GID_2":"USA.42.3_1","NAME_1":"SouthDakota","NAME_2":"Bennett"}},
{"type":"Feature","geometry":{"type":"Polygon","coordinates":[[[-97.6341,42.86],[-97.6369,43.1694],[-98.078,43.1679],[-98.0826,43.1625],[-98.0893,43.1508],[-98.1053,43.1233],[-98.1209,42.908],[-98.1084,42.8895],[-98.1573,42.8481],[-98.1445,42.8374],[-98.012,42.7622],[-97.9128,42.7944],[-97.8757,42.8573],[-97.7916,42.8403],[-97.6341,42.86]]]},"properties":{"GID_0":"USA","GID_1":"USA.42_1","GID_2":"USA.42.4_1","NAME_1":"SouthDakota","NAME_2":"BonHomme"}},
{"type":"Feature","geometry":{"type":"Polygon","coordinates":[[[-96.4534,44.5444],[-97.1285,44.545],[-97.1286,44.1965],[-96.4538,44.1983],[-96.4534,44.5444]]]},"properties":{"GID_0":"USA","GID_1":"USA.42_1","GID_2":"USA.42.5_1","NAME_1":"SouthDakota","NAME_2":"Brookings"}},
{"type":"Feature","geometry":{"type":"Polygon","coordinates":[[[-98.7273,45.9373],[-98.73,45.5911],[-98.7249,45.2459],[-97.9803,45.2409],[-97.9802,45.5883],[-97.9775,45.9351],[-98.7273,45.9373]]]},"properties":{"GID_0":"USA","GID_1":"USA.42_1","GID_2":"USA.42.6_1","NAME_1":"SouthDakota","NAME_2":"Brown"}},
{"type":"Feature","geometry":{"type":"Polygon","coordinates":[[[-98.8072,43.9355],[-99.356,43.9338],[-99.3058,43.8539],[-99.4136,43.7611],[-99.4077,43.7029],[-99.3447,43.6376],[-99.2919,43.4995],[-98.7959,43.5004],[-98.7973,43.8488],[-98.8072,43.9355]]]},"properties":{"GID_0":"USA","GID_1":"USA.42_1","GID_2":"USA.42.7_1","NAME_1":"SouthDakota","NAME_2":"Brule"}},
{"type":"Feature","geometry":{"type":"Polygon","coordinates":[[[-98.926,43.936],[-98.9257,44.1976],[-99.0417,44.1971],[-99.0627,44.1982],[-99.5735,44.1932],[-99.5452,44.1693],[-99.5396,44.1574],[-99.5436,44.1401],[-99.5445,44.0813],[-99.5105,44.0574],[-99.4256,44.0423],[-99.3527,43.9827],[-99.356,43.9338],[-98.926,43.936]]]},"properties":{"GID_0":"USA","GID_1":"USA.42_1","GID_2":"USA.42.8_1","NAME_1":"SouthDakota","NAME_2":"Buffalo"}},
{"type":"Feature","geometry":{"type":"Polygon","coordinates":[[[-104.0406,45.2143],[-104.0397,44.9986],[-104.0571,44.9987],[-104.0564,44.5717],[-103.8156,44.6048],[-102.966,44.6036],[-102.9576,44.7781],[-102.9587,45.2128],[-104.0406,45.2143]]]},"properties":{"GID_0":"USA","GID_1":"USA.42_1","GID_2":"USA.42.9_1","NAME_1":"SouthDakota","NAME_2":"Butte"}},
{"type":"Feature","geometry":{"type":"Polygon","coordinates":[[[-100.5122,45.9439],[-100.4265,45.8789],[-100.3567,45.8548],[-100.3666,45.802],[-100.2983,45.7068],[-100.3395,45.6547],[-100.4288,45.6452],[-100.4302,45.5949],[-99.72,45.5958],[-99.7212,45.9421],[-100.5122,45.9439]]]},"properties":{"GID_0":"USA","GID_1":"USA.42_1","GID_2":"USA.42.10_1","NAME_1":"SouthDakota","NAME_2":"Campbell"}},
{"type":"Feature","geometry":{"type":"Polygon","coordinates":[[[-98.5001,42.9977],[-98.4534,42.9371],[-98.3566,42.8961],[-98.1445,42.8374],[-98.1573,42.8481],[-98.1084,42.8895],[-98.1209,42.908],[-98.1053,43.1233],[-98.0893,43.1508],[-98.0866,43.1562],[-98.0668,43.1822],[-98.6769,43.3709],[-98.7058,43.3713],[-98.7094,43.4993],[-98.7959,43.5004],[-99.2919,43.4995],[-99.2503,43.4366],[-99.1647,43.4341],[-99.0682,43.3203],[-98.9832,43.2551],[-98.8814,43.2397],[-98.864,43.165],[-98.7572,43.1368],[-98.68,43.0689],[-98.5529,43.0567],[-98.5001,42.9977]]]},"properties":{"GID_0":"USA","GID_1":"USA.42_1","GID_2":"USA.42.11_1","NAME_1":"SouthDakota","NAME_2":"CharlesMix"}},
{"type":"Feature","geometry":{"type":"Polygon","coordinates":[[[-97.853,44.5453],[-97.4921,44.5436],[-97.4907,44.8923],[-97.4951,45.1537],[-97.9809,45.1545],[-97.983,44.8929],[-97.9766,44.6321],[-97.8554,44.6312],[-97.853,44.5453]]]},"properties":{"GID_0":"USA","GID_1":"USA.42_1","GID_2":"USA.42.12_1","NAME_1":"SouthDakota","NAME_2":"Clark"}},
{"type":"Feature","geometry":{"type":"Polygon","coordinates":[[[-97.1585,42.7999],[-97.1347,42.7739],[-96.9953,42.7625],[-96.9451,42.72],[-96.8594,42.7227],[-96.8066,42.6955],[-96.8039,43.083],[-97.1591,43.0839],[-97.1585,42.7999]]]},"properties":{"GID_0":"USA","GID_1":"USA.42_1","GID_2":"USA.42.13_1","NAME_1":"SouthDakota","NAME_2":"Clay"}},
{"type":"Feature","geometry":{"type":"Polygon","coordinates":[[[-97.4914,44.8047],[-96.8857,44.8043],[-96.885,45.1533],[-97.4951,45.1537],[-97.4907,44.8923],[-97.4914,44.8047]]]},"properties":{"GID_0":"USA","GID_1":"USA.42_1","GID_2":"USA.42.14_1","NAME_1":"SouthDakota","NAME_2":"Codington"}},
{"type":"Feature","geometry":{"type":"Polygon","coordinates":[[[-101.9988,45.9443],[-101.9993,45.4709],[-100.3414,45.4727],[-100.3413,45.475],[-100.3805,45.5104],[-100.4713,45.5194],[-100.4302,45.5949],[-100.4288,45.6452],[-100.3395,45.6547],[-100.2983,45.7068],[-100.3666,45.802],[-100.3567,45.8548],[-100.4265,45.8789],[-100.5122,45.9439],[-101.9988,45.9443]]]},"properties":{"GID_0":"USA","GID_1":"USA.42_1","GID_2":"USA.42.15_1","NAME_1":"SouthDakota","NAME_2":"Corson"}},
{"type":"Feature","geometry":{"type":"Polygon","coordinates":[[[-102.8114,43.6852],[-102.6972,43.795],[-102.6877,43.8544],[-103.4239,43.8571],[-104.0548,43.853],[-104.0539,43.4772],[-103.0013,43.4763],[-103.0016,43.607],[-102.9356,43.6178],[-102.9072,43.6725],[-102.8114,43.6852]]]},"properties":{"GID_0":"USA","GID_1":"USA.42_1","GID_2":"USA.42.16_1","NAME_1":"SouthDakota","NAME_2":"Custer"}},
{"type":"Feature","geometry":{"type":"Polygon","coordinates":[[[-98.3219,43.4998],[-98.1136,43.4994],[-97.9621,43.4984],[-97.9652,43.6715],[-97.9662,43.851],[-98.3266,43.851],[-98.3219,43.4998]]]},"properties":{"GID_0":"USA","GID_1":"USA.42_1","GID_2":"USA.42.17_1","NAME_1":"SouthDakota","NAME_2":"Davison"}},
{"type":"Feature","geometry":{"type":"Polygon","coordinates":[[[-97.9803,45.2409],[-97.9809,45.1545],[-97.226,45.1538],[-97.2269,45.5603],[-97.3629,45.5603],[-97.3727,45.5889],[-97.9802,45.5883],[-97.9803,45.2409]]]},"properties":{"GID_0":"USA","GID_1":"USA.42_1","GID_2":"USA.42.18_1","NAME_1":"SouthDakota","NAME_2":"Day"}},
{"type":"Feature","geometry":{"type":"Polygon","coordinates":[[[-96.4532,44.9788],[-96.8854,44.9779],[-96.8874,44.5446],[-96.4534,44.5444],[-96.4532,44.9788]]]},"properties":{"GID_0":"USA","GID_1":"USA.42_1","GID_2":"USA.42.19_1","NAME_1":"SouthDakota","NAME_2":"Deuel"}},
{"type":"Feature","geometry":{"type":"Polygon","coordinates":[[[-101.4703,45.4721],[-101.4699,45.3861],[-101.4859,45.3855],[-101.486,45.0383],[-101.5008,44.9936],[-101.137,44.9939],[-101.1367,44.7512],[-101.0382,44.7261],[-100.9119,44.7726],[-100.8901,44.7708],[-100.7351,44.7753],[-100.7376,44.7639],[-100.7164,44.7671],[-100.7281,44.8004],[-100.7211,44.8209],[-100.678,44.8279],[-100.6026,44.7673],[-100.5332,44.7645],[-100.398,44.8608],[-100.4025,44.8987],[-100.4262,44.9841],[-100.3209,45.0616],[-100.2621,45.2469],[-100.3164,45.3123],[-100.2766,45.3675],[-100.2779,45.384],[-100.3095,45.4211],[-100.3393,45.4677],[-100.3414,45.4727],[-101.4703,45.4721]]]},"properties":{"GID_0":"USA","GID_1":"USA.42_1","GID_2":"USA.42.20_1","NAME_1":"SouthDakota","NAME_2":"Dewey"}},
{"type":"Feature","geometry":{"type":"Polygon","coordinates":[[[-98.7094,43.4993],[-98.7058,43.3713],[-98.6769,43.3709],[-98.109,43.1957],[-98.1136,43.4994],[-98.3219,43.4998],[-98.7094,43.4993]]]},"properties":{"GID_0":"USA","GID_1":"USA.42_1","GID_2":"USA.42.21_1","NAME_1":"SouthDakota","NAME_2":"Douglas"}},
{"type":"Feature","geometry":{"type":"Polygon","coordinates":[[[-98.73,45.5911],[-99.7096,45.5953],[-99.7111,45.2462],[-98.7249,45.2459],[-98.73,45.5911]]]},"properties":{"GID_0":"USA","GID_1":"USA.42_1","GID_2":"USA.42.22_1","NAME_1":"SouthDakota","NAME_2":"Edmunds"}},
{"type":"Feature","geometry":{"type":"Polygon","coordinates":[[[-102.999,42.9997],[-103.0013,43.4763],[-104.0539,43.4772],[-104.0534,43.0028],[-102.999,42.9997]]]},"properties":{"GID_0":"USA","GID_1":"USA.42_1","GID_2":"USA.42.23_1","NAME_1":"SouthDakota","NAME_2":"FallRiver"}},
{"type":"Feature","geometry":{"type":"Polygon","coordinates":[[[-98.7249,45.2459],[-99.5751,45.2458],[-99.5719,45.1019],[-99.5743,45.0722],[-99.5728,44.8983],[-98.7186,44.8965],[-98.7184,45.2449],[-98.7249,45.2459]]]},"properties":{"GID_0":"USA","GID_1":"USA.42_1","GID_2":"USA.42.24_1","NAME_1":"SouthDakota","NAME_2":"Faulk"}},
{"type":"Feature","geometry":{"type":"Polygon","coordinates":[[[-96.47,45.3289],[-96.995,45.3276],[-97.0088,45.2992],[-97.226,45.2996],[-97.226,45.1538],[-96.885,45.1533],[-96.8854,44.9779],[-96.4532,44.9788],[-96.4519,45.3022],[-96.47,45.3289]]]},"properties":{"GID_0":"USA","GID_1":"USA.42_1","GID_2":"USA.42.25_1","NAME_1":"SouthDakota","NAME_2":"Grant"}},
{"type":"Feature","geometry":{"type":"Polygon","coordinates":[[[-98.5001,42.9977],[-98.5529,43.0567],[-98.68,43.0689],[-98.7572,43.1368],[-98.864,43.165],[-98.8814,43.2397],[-98.9832,43.2551],[-99.0682,43.3203],[-99.1647,43.4341],[-99.2503,43.4366],[-99.2919,43.4995],[-99.533,43.4997],[-99.5325,42.9984],[-98.5001,42.9977]]]},"properties":{"GID_0":"USA","GID_1":"USA.42_1","GID_2":"USA.42.26_1","NAME_1":"SouthDakota","NAME_2":"Gregory"}},
{"type":"Feature","geometry":{"type":"Polygon","coordinates":[[[-101.0459,44.1698],[-101.1689,44.1683],[-101.1591,44.3433],[-101.1561,44.6895],[-101.1367,44.7512],[-101.2415,44.6954],[-101.2531,44.6967],[-101.3295,44.689],[-101.4552,44.6357],[-101.5273,44.5686],[-101.6642,44.5852],[-101.8348,44.5248],[-101.9055,44.5341],[-102.0023,44.5066],[-102.0113,43.9941],[-101.185,43.9937],[-101.0471,43.9957],[-101.0459,44.1698]]]},"properties":{"GID_0":"USA","GID_1":"USA.42_1","GID_2":"USA.42.27_1","NAME_1":"SouthDakota","NAME_2":"Haakon"}},
{"type":"Feature","geometry":{"type":"Polygon","coordinates":[[[-96.8874,44.5446],[-96.8857,44.8043],[-97.4914,44.8047],[-97.4921,44.5436],[-96.8874,44.5446]]]},"properties":{"GID_0":"USA","GID_1":"USA.42_1","GID_2":"USA.42.28_1","NAME_1":"SouthDakota","NAME_2":"Hamlin"}},
{"type":"Feature","geometry":{"type":"Polygon","coordinates":[[[-98.7069,44.6348],[-98.707,44.8959],[-99.3132,44.8976],[-99.302,44.5498],[-99.2987,44.1964],[-99.0627,44.1982],[-99.0417,44.1971],[-98.7012,44.1979],[-98.6994,44.4354],[-98.7069,44.6348]]]},"properties":{"GID_0":"USA","GID_1":"USA.42_1","GID_2":"USA.42.29_1","NAME_1":"SouthDakota","NAME_2":"Hand"}},
{"type":"Feature","geometry":{"type":"Polygon","coordinates":[[[-97.9621,43.4984],[-97.6048,43.4987],[-97.6083,43.85],[-97.9662,43.851],[-97.9652,43.6715],[-97.9621,43.4984]]]},"properties":{"GID_0":"USA","GID_1":"USA.42_1","GID_2":"USA.42.30_1","NAME_1":"SouthDakota","NAME_2":"Hanson"}},
{"type":"Feature","geometry":{"type":"Polygon","coordinates":[[[-104.0406,45.2143],[-102.9587,45.2128],[-102.955,45.7318],[-102.9425,45.944],[-104.0443,45.9438],[-104.0406,45.2143]]]},"properties":{"GID_0":"USA","GID_1":"USA.42_1","GID_2":"USA.42.31_1","NAME_1":"SouthDakota","NAME_2":"Harding"}},
{"type":"Feature","geometry":{"type":"Polygon","coordinates":[[[-99.675,44.5499],[-100.5209,44.5461],[-100.5158,44.542],[-100.5452,44.5118],[-100.5792,44.4931],[-100.5484,44.4448],[-100.43,44.4612],[-100.4025,44.4521],[-100.3821,44.4211],[-100.3656,44.3545],[-100.3432,44.3435],[-100.0879,44.3097],[-99.8919,44.2346],[-99.9349,44.202],[-99.928,44.1819],[-99.8839,44.1302],[-99.7756,44.1352],[-99.6613,44.1021],[-99.627,44.0997],[-99.63,44.1621],[-99.6733,44.2166],[-99.6625,44.2174],[-99.6635,44.5498],[-99.675,44.5499]]]},"properties":{"GID_0":"USA","GID_1":"USA.42_1","GID_2":"USA.42.32_1","NAME_1":"SouthDakota","NAME_2":"Hughes"}},
{"type":"Feature","geometry":{"type":"Polygon","coordinates":[[[-97.6369,43.1694],[-97.3963,43.1694],[-97.4015,43.5],[-97.7254,43.4995],[-97.8429,43.4978],[-98.1136,43.4994],[-98.109,43.1957],[-98.0668,43.1822],[-98.078,43.1679],[-97.6369,43.1694]]]},"properties":{"GID_0":"USA","GID_1":"USA.42_1","GID_2":"USA.42.33_1","NAME_1":"SouthDakota","NAME_2":"Hutchinson"}},
{"type":"Feature","geometry":{"type":"Polygon","coordinates":[[[-99.2987,44.1964],[-99.302,44.5498],[-99.3132,44.8976],[-99.3287,44.8986],[-99.6746,44.8985],[-99.675,44.5499],[-99.6635,44.5498],[-99.6625,44.2174],[-99.6433,44.2187],[-99.5735,44.1932],[-99.2987,44.1964]]]},"properties":{"GID_0":"USA","GID_1":"USA.42_1","GID_2":"USA.42.34_1","NAME_1":"SouthDakota","NAME_2":"Hyde"}},
{"type":"Feature","geometry":{"type":"Polygon","coordinates":[[[-101.2281,43.3884],[-101.2336,43.7835],[-101.1384,43.8386],[-101.068,43.8444],[-101.0661,43.9947],[-102.0228,43.994],[-102.0221,43.7094],[-102.1434,43.7002],[-102.1418,43.4753],[-102.116,43.4752],[-102.1158,43.3887],[-101.2281,43.3884]]]},"properties":{"GID_0":"USA","GID_1":"USA.42_1","GID_2":"USA.42.35_1","NAME_1":"SouthDakota","NAME_2":"Jackson"}},
{"type":"Feature","geometry":{"type":"Polygon","coordinates":[[[-98.332,43.9385],[-98.332,44.1974],[-98.8211,44.1986],[-98.9257,44.1976],[-98.926,43.936],[-98.8072,43.9355],[-98.332,43.9385]]]},"properties":{"GID_0":"USA","GID_1":"USA.42_1","GID_2":"USA.42.36_1","NAME_1":"SouthDakota","NAME_2":"Jerauld"}},
{"type":"Feature","geometry":{"type":"Polygon","coordinates":[[[-101.0661,43.9947],[-101.068,43.8444],[-100.9348,43.8317],[-100.7764,43.7242],[-100.6814,43.7116],[-100.584,43.7654],[-100.4713,43.7208],[-100.3384,43.7167],[-100.366,43.846],[-100.3682,43.9886],[-100.3698,44.1667],[-101.0459,44.1698],[-101.0471,43.9957],[-101.0661,43.9947]]]},"properties":{"GID_0":"USA","GID_1":"USA.42_1","GID_2":"USA.42.37_1","NAME_1":"SouthDakota","NAME_2":"Jones"}},
{"type":"Feature","geometry":{"type":"Polygon","coordinates":[[[-97.8506,44.1964],[-97.1286,44.1965],[-97.1285,44.545],[-97.4921,44.5436],[-97.853,44.5453],[-97.8506,44.1964]]]},"properties":{"GID_0":"USA","GID_1":"USA.42_1","GID_2":"USA.42.38_1","NAME_1":"SouthDakota","NAME_2":"Kingsbury"}},
{"type":"Feature","geometry":{"type":"Polygon","coordinates":[[[-97.1286,44.1965],[-97.3697,44.196],[-97.3678,43.85],[-96.8899,43.8501],[-96.8874,44.1965],[-97.1286,44.1965]]]},"properties":{"GID_0":"USA","GID_1":"USA.42_1","GID_2":"USA.42.39_1","NAME_1":"SouthDakota","NAME_2":"Lake"}},
{"type":"Feature","geometry":{"type":"Polygon","coordinates":[[[-104.0564,44.5717],[-104.055,44.1416],[-103.452,44.139],[-103.4546,44.2579],[-103.574,44.2584],[-103.5666,44.6044],[-103.8156,44.6048],[-104.0564,44.5717]]]},"properties":{"GID_0":"USA","GID_1":"USA.42_1","GID_2":"USA.42.40_1","NAME_1":"SouthDakota","NAME_2":"Lawrence"}},
{"type":"Feature","geometry":{"type":"Polygon","coordinates":[[[-96.451,43.0844],[-96.4685,43.21],[-96.5585,43.2257],[-96.5199,43.3916],[-96.5965,43.4422],[-96.5833,43.4687],[-96.5848,43.4929],[-96.5966,43.498],[-96.5974,43.5021],[-96.9235,43.5002],[-96.9225,43.0841],[-96.8039,43.083],[-96.451,43.0844]]]},"properties":{"GID_0":"USA","GID_1":"USA.42_1","GID_2":"USA.42.41_1","NAME_1":"SouthDakota","NAME_2":"Lincoln"}},
{"type":"Feature","geometry":{"type":"Polygon","coordinates":[[[-99.356,43.9338],[-99.3527,43.9827],[-99.4256,44.0423],[-99.5105,44.0574],[-99.5445,44.0813],[-99.5436,44.1401],[-99.5396,44.1574],[-99.5452,44.1693],[-99.6433,44.2187],[-99.6733,44.2166],[-99.63,44.1621],[-99.627,44.0997],[-99.6613,44.1021],[-99.7756,44.1352],[-99.8839,44.1302],[-99.928,44.1819],[-99.935,44.1938],[-100.3697,44.1931],[-100.3682,43.9886],[-100.366,43.846],[-100.3384,43.7167],[-100.2333,43.7101],[-100.1182,43.6875],[-99.9404,43.6942],[-99.8817,43.6757],[-99.6922,43.7548],[-99.6802,43.7525],[-99.6623,43.7605],[-99.6484,43.7614],[-99.6227,43.7398],[-99.6207,43.4994],[-99.2919,43.4995],[-99.3447,43.6376],[-99.4077,43.7029],[-99.4136,43.7611],[-99.3058,43.8539],[-99.356,43.9338]]]},"properties":{"GID_0":"USA","GID_1":"USA.42_1","GID_2":"USA.42.42_1","NAME_1":"SouthDakota","NAME_2":"Lyman"}},
{"type":"Feature","geometry":{"type":"Polygon","coordinates":[[[-97.9775,45.9351],[-97.9802,45.5883],[-97.3727,45.5889],[-97.3629,45.5603],[-97.2269,45.5603],[-97.2313,45.936],[-97.9775,45.9351]]]},"properties":{"GID_0":"USA","GID_1":"USA.42_1","GID_2":"USA.42.43_1","NAME_1":"SouthDakota","NAME_2":"Marshall"}},
{"type":"Feature","geometry":{"type":"Polygon","coordinates":[[[-97.6048,43.4987],[-97.1293,43.5002],[-97.1286,43.8496],[-97.6083,43.85],[-97.6048,43.4987]]]},"properties":{"GID_0":"USA","GID_1":"USA.42_1","GID_2":"USA.42.44_1","NAME_1":"SouthDakota","NAME_2":"McCook"}},
{"type":"Feature","geometry":{"type":"Polygon","coordinates":[[[-98.7273,45.9373],[-99.7212,45.9421],[-99.72,45.5958],[-98.73,45.5911],[-98.7273,45.9373]]]},"properties":{"GID_0":"USA","GID_1":"USA.42_1","GID_2":"USA.42.45_1","NAME_1":"SouthDakota","NAME_2":"McPherson"}},
{"type":"Feature","geometry":{"type":"Polygon","coordinates":[[[-103.5666,44.6044],[-103.574,44.2584],[-103.4546,44.2579],[-103.452,44.139],[-102.3917,44.1396],[-102.3425,44.3464],[-102.3005,44.377],[-102.3046,44.4331],[-102.1956,44.4258],[-102.0868,44.4523],[-102.0023,44.5066],[-102,45.0392],[-102.9581,45.0388],[-102.9576,44.7781],[-102.966,44.6036],[-103.5666,44.6044]]]},"properties":{"GID_0":"USA","GID_1":"USA.42_1","GID_2":"USA.42.46_1","NAME_1":"SouthDakota","NAME_2":"Meade"}},
{"type":"Feature","geometry":{"type":"Polygon","coordinates":[[[-101.2281,43.3884],[-100.2156,43.3883],[-100.2323,43.4761],[-100.2333,43.7101],[-100.3384,43.7167],[-100.4713,43.7208],[-100.584,43.7654],[-100.6814,43.7116],[-100.7764,43.7242],[-100.9348,43.8317],[-101.068,43.8444],[-101.1384,43.8386],[-101.2336,43.7835],[-101.2281,43.3884]]]},"properties":{"GID_0":"USA","GID_1":"USA.42_1","GID_2":"USA.42.47_1","NAME_1":"SouthDakota","NAME_2":"Mellette"}},
{"type":"Feature","geometry":{"type":"Polygon","coordinates":[[[-97.6083,43.85],[-97.3678,43.85],[-97.3697,44.196],[-97.8506,44.1964],[-97.8494,43.8505],[-97.6083,43.85]]]},"properties":{"GID_0":"USA","GID_1":"USA.42_1","GID_2":"USA.42.48_1","NAME_1":"SouthDakota","NAME_2":"Miner"}},
{"type":"Feature","geometry":{"type":"Polygon","coordinates":[[[-97.1293,43.5002],[-96.4541,43.5026],[-96.454,43.8502],[-96.5307,43.848],[-96.8899,43.8501],[-97.1286,43.8496],[-97.1293,43.5002]]]},"properties":{"GID_0":"USA","GID_1":"USA.42_1","GID_2":"USA.42.49_1","NAME_1":"SouthDakota","NAME_2":"Minnehaha"}},
{"type":"Feature","geometry":{"type":"Polygon","coordinates":[[[-96.4538,44.1983],[-96.8874,44.1965],[-96.8899,43.8501],[-96.5307,43.848],[-96.4532,43.8502],[-96.4538,44.1983]]]},"properties":{"GID_0":"USA","GID_1":"USA.42_1","GID_2":"USA.42.50_1","NAME_1":"SouthDakota","NAME_2":"Moody"}},
{"type":"Feature","geometry":{"type":"Polygon","coordinates":[[[-102.8114,43.6852],[-102.1805,43.6874],[-102.1434,43.7002],[-102.0221,43.7094],[-102.0228,43.994],[-102.0113,43.9941],[-102.0023,44.5066],[-102.0868,44.4523],[-102.1956,44.4258],[-102.3046,44.4331],[-102.3005,44.377],[-102.3425,44.3464],[-102.3917,44.1396],[-103.452,44.139],[-104.055,44.1416],[-104.0548,43.853],[-103.4239,43.8571],[-102.6877,43.8544],[-102.6972,43.795],[-102.8114,43.6852]]]},"properties":{"GID_0":"USA","GID_1":"USA.42_1","GID_2":"USA.42.51_1","NAME_1":"SouthDakota","NAME_2":"Pennington"}},
{"type":"Feature","geometry":{"type":"Polygon","coordinates":[[[-102.9425,45.944],[-102.955,45.7318],[-102.9587,45.2128],[-102.9581,45.0388],[-102,45.0392],[-101.9988,45.9443],[-102.9425,45.944]]]},"properties":{"GID_0":"USA","GID_1":"USA.42_1","GID_2":"USA.42.52_1","NAME_1":"SouthDakota","NAME_2":"Perkins"}},
{"type":"Feature","geometry":{"type":"Polygon","coordinates":[[[-100.4025,44.8987],[-99.5728,44.8983],[-99.5743,45.0722],[-99.5719,45.1019],[-99.5751,45.2458],[-100.2621,45.2469],[-100.3209,45.0616],[-100.4262,44.9841],[-100.4025,44.8987]]]},"properties":{"GID_0":"USA","GID_1":"USA.42_1","GID_2":"USA.42.53_1","NAME_1":"SouthDakota","NAME_2":"Potter"}},
{"type":"Feature","geometry":{"type":"Polygon","coordinates":[[[-96.47,45.3289],[-96.5059,45.3698],[-96.6087,45.4094],[-96.6742,45.4115],[-96.8544,45.6102],[-96.8303,45.6567],[-96.6674,45.735],[-96.5812,45.8267],[-96.5613,45.9356],[-97.2313,45.936],[-97.2269,45.5603],[-97.226,45.2996],[-97.0088,45.2992],[-96.995,45.3276],[-96.47,45.3289]]]},"properties":{"GID_0":"USA","GID_1":"USA.42_1","GID_2":"USA.42.54_1","NAME_1":"SouthDakota","NAME_2":"Roberts"}},
{"type":"Feature","geometry":{"type":"Polygon","coordinates":[[[-98.3266,43.851],[-97.8494,43.8505],[-97.8506,44.1964],[-98.332,44.1974],[-98.331,43.8502],[-98.3266,43.851]]]},"properties":{"GID_0":"USA","GID_1":"USA.42_1","GID_2":"USA.42.55_1","NAME_1":"SouthDakota","NAME_2":"Sanborn"}},
{"type":"Feature","geometry":{"type":"Polygon","coordinates":[[[-102.999,42.9997],[-102.5084,43.0024],[-102.0829,42.9979],[-102.1122,43.1284],[-102.116,43.4752],[-102.1418,43.4753],[-102.1434,43.7002],[-102.1805,43.6874],[-102.8114,43.6852],[-102.9072,43.6725],[-102.9356,43.6178],[-103.0016,43.607],[-102.999,42.9997]]]},"properties":{"GID_0":"USA","GID_1":"USA.42_1","GID_2":"USA.42.56_1","NAME_1":"SouthDakota","NAME_2":"Shannon"}},
{"type":"Feature","geometry":{"type":"Polygon","coordinates":[[[-97.9766,44.6321],[-97.983,44.8929],[-97.9803,45.2409],[-98.7184,45.2449],[-98.7186,44.8965],[-98.707,44.8959],[-98.7069,44.6348],[-97.9766,44.6321]]]},"properties":{"GID_0":"USA","GID_1":"USA.42_1","GID_2":"USA.42.57_1","NAME_1":"SouthDakota","NAME_2":"Spink"}},
{"type":"Feature","geometry":{"type":"Polygon","coordinates":[[[-101.1367,44.7512],[-101.1561,44.6895],[-101.1591,44.3433],[-101.1689,44.1683],[-101.0459,44.1698],[-100.3698,44.1667],[-100.3697,44.1931],[-99.935,44.1938],[-99.9349,44.202],[-99.8919,44.2346],[-100.0879,44.3097],[-100.3432,44.3435],[-100.3656,44.3545],[-100.3821,44.4211],[-100.4025,44.4521],[-100.43,44.4612],[-100.5484,44.4448],[-100.5792,44.4931],[-100.5452,44.5118],[-100.5158,44.542],[-100.5325,44.5529],[-100.6004,44.5565],[-100.6492,44.6039],[-100.6109,44.6856],[-100.6386,44.7417],[-100.7164,44.7671],[-100.7376,44.7639],[-100.7351,44.7753],[-100.8901,44.7708],[-100.9119,44.7726],[-101.0382,44.7261],[-101.1367,44.7512]]]},"properties":{"GID_0":"USA","GID_1":"USA.42_1","GID_2":"USA.42.58_1","NAME_1":"SouthDakota","NAME_2":"Stanley"}},
{"type":"Feature","geometry":{"type":"Polygon","coordinates":[[[-100.7164,44.7671],[-100.6386,44.7417],[-100.6109,44.6856],[-100.6492,44.6039],[-100.6004,44.5565],[-100.5325,44.5529],[-100.5209,44.5461],[-99.675,44.5499],[-99.6746,44.8985],[-100.4025,44.8987],[-100.398,44.8608],[-100.5332,44.7645],[-100.6026,44.7673],[-100.678,44.8279],[-100.7211,44.8209],[-100.7281,44.8004],[-100.7164,44.7671]]]},"properties":{"GID_0":"USA","GID_1":"USA.42_1","GID_2":"USA.42.59_1","NAME_1":"SouthDakota","NAME_2":"Sully"}},
{"type":"Feature","geometry":{"type":"Polygon","coordinates":[[[-101.2277,42.9953],[-100.7509,42.9947],[-100.1984,42.997],[-100.1979,43.1285],[-100.2136,43.128],[-100.2156,43.3883],[-101.2281,43.3884],[-101.2277,42.9953]]]},"properties":{"GID_0":"USA","GID_1":"USA.42_1","GID_2":"USA.42.60_1","NAME_1":"SouthDakota","NAME_2":"Todd"}},
{"type":"Feature","geometry":{"type":"Polygon","coordinates":[[[-99.5325,42.9984],[-99.533,43.4997],[-99.6207,43.4994],[-99.6227,43.7398],[-99.6484,43.7614],[-99.6623,43.7605],[-99.6802,43.7525],[-99.6922,43.7548],[-99.8817,43.6757],[-99.9404,43.6942],[-100.1182,43.6875],[-100.2333,43.7101],[-100.2323,43.4761],[-100.2156,43.3883],[-100.2136,43.128],[-100.1979,43.1285],[-100.1984,42.9979],[-99.5325,42.9984]]]},"properties":{"GID_0":"USA","GID_1":"USA.42_1","GID_2":"USA.42.61_1","NAME_1":"SouthDakota","NAME_2":"Tripp"}},
{"type":"Feature","geometry":{"type":"Polygon","coordinates":[[[-96.9225,43.0841],[-96.9235,43.5002],[-97.4015,43.5],[-97.3963,43.1694],[-97.1581,43.1704],[-97.1591,43.0839],[-96.9225,43.0841]]]},"properties":{"GID_0":"USA","GID_1":"USA.42_1","GID_2":"USA.42.62_1","NAME_1":"SouthDakota","NAME_2":"Turner"}},
{"type":"Feature","geometry":{"type":"Polygon","coordinates":[[[-96.8039,43.083],[-96.8052,42.674],[-96.6838,42.6496],[-96.7007,42.5966],[-96.628,42.5502],[-96.473,42.4945],[-96.4792,42.557],[-96.5391,42.6593],[-96.6357,42.7364],[-96.6326,42.7681],[-96.5531,42.8473],[-96.4985,42.9596],[-96.5095,43.0394],[-96.451,43.0844],[-96.8039,43.083]]]},"properties":{"GID_0":"USA","GID_1":"USA.42_1","GID_2":"USA.42.63_1","NAME_1":"SouthDakota","NAME_2":"Union"}},
{"type":"Feature","geometry":{"type":"Polygon","coordinates":[[[-100.4302,45.5949],[-100.4713,45.5194],[-100.3805,45.5104],[-100.3413,45.475],[-100.3393,45.4677],[-100.3095,45.4211],[-100.2779,45.384],[-100.2766,45.3675],[-100.3164,45.3123],[-100.2621,45.2469],[-99.7111,45.2462],[-99.7096,45.5953],[-100.4302,45.5949]]]},"properties":{"GID_0":"USA","GID_1":"USA.42_1","GID_2":"USA.42.64_1","NAME_1":"SouthDakota","NAME_2":"Walworth"}},
{"type":"Feature","geometry":{"type":"Polygon","coordinates":[[[-97.1585,42.7999],[-97.1581,43.1704],[-97.6369,43.1694],[-97.6341,42.86],[-97.4475,42.8456],[-97.3469,42.8726],[-97.2193,42.8465],[-97.1585,42.7999]]]},"properties":{"GID_0":"USA","GID_1":"USA.42_1","GID_2":"USA.42.65_1","NAME_1":"SouthDakota","NAME_2":"Yankton"}},
{"type":"Feature","geometry":{"type":"Polygon","coordinates":[[[-101.9993,45.4709],[-102.0023,44.5066],[-101.9055,44.5341],[-101.8348,44.5248],[-101.6642,44.5852],[-101.5273,44.5686],[-101.4552,44.6357],[-101.3295,44.689],[-101.2531,44.6967],[-101.2415,44.6954],[-101.1367,44.7512],[-101.137,44.9939],[-101.5008,44.9936],[-101.486,45.0383],[-101.4859,45.3855],[-101.4699,45.3861],[-101.4703,45.4721],[-101.9993,45.4709]]]},"properties":{"GID_0":"USA","GID_1":"USA.42_1","GID_2":"USA.42.66_1","NAME_1":"SouthDakota","NAME_2":"Ziebach"}}
]}