{"type":"FeatureCollection", "features": [
{"type":"Feature","geometry":{"type":"Polygon","coordinates":[[[-107.1972,35.2197],[-107.0181,34.8727],[-106.409,34.8687],[-106.2373,34.9568],[-106.242,35.2147],[-106.9416,35.217],[-107.1972,35.2197]]]},"properties":{"GID_0":"USA","GID_1":"USA.32_1","GID_2":"USA.32.1_1","NAME_1":"NewMexico","NAME_2":"Bernalillo"}},
{"type":"Feature","geometry":{"type":"Polygon","coordinates":[[[-109.0459,34.58],[-109.0468,33.2098],[-108.6944,33.2095],[-108.0003,33.2042],[-107.9962,33.3927],[-107.9968,33.48],[-107.7116,33.4774],[-107.7119,33.8158],[-107.7159,33.8243],[-107.7143,34.2567],[-107.7233,34.5842],[-109.0459,34.58]]]},"properties":{"GID_0":"USA","GID_1":"USA.32_1","GID_2":"USA.32.2_1","NAME_1":"NewMexico","NAME_2":"Catron"}},
{"type":"Feature","geometry":{"type":"Polygon","coordinates":[[[-103.506,33.5713],[-103.5043,33.6591],[-103.7144,33.6612],[-103.8385,33.8219],[-103.8396,34.0843],[-104.1547,34.0842],[-104.154,33.9969],[-104.7894,34.0003],[-104.8934,34.0914],[-104.9046,33.1354],[-105.314,33.1323],[-105.3512,32.9628],[-105.3536,32.5218],[-105.1441,32.5241],[-104.8392,32.5196],[-104.8354,32.9659],[-103.9741,32.9648],[-103.7651,32.9668],[-103.7611,33.3973],[-103.7127,33.5702],[-103.506,33.5713]]]},"properties":{"GID_0":"USA","GID_1":"USA.32_1","GID_2":"USA.32.3_1","NAME_1":"NewMexico","NAME_2":"Chaves"}},
{"type":"Feature","geometry":{"type":"Polygon","coordinates":[[[-109.0459,34.58],[-107.7037,34.5845],[-107.2013,34.5821],[-107.1982,34.9609],[-107.0641,34.9618],[-107.1972,35.2197],[-107.2345,35.3024],[-107.5231,35.3036],[-108.4661,35.3081],[-108.4678,34.9597],[-109.0458,34.9611],[-109.0459,34.58]]]},"properties":{"GID_0":"USA","GID_1":"USA.32_1","GID_2":"USA.32.4_1","NAME_1":"NewMexico","NAME_2":"Cibola"}},
{"type":"Feature","geometry":{"type":"Polygon","coordinates":[[[-105.2198,36.9961],[-105.2318,36.7232],[-105.3677,36.6804],[-105.3266,36.399],[-105.3599,36.2694],[-105.3683,36.2627],[-104.8651,36.2617],[-104.4368,36.2193],[-104.009,36.218],[-104.0067,36.4374],[-104.0068,36.9966],[-105.2198,36.9961]]]},"properties":{"GID_0":"USA","GID_1":"USA.32_1","GID_2":"USA.32.5_1","NAME_1":"NewMexico","NAME_2":"Colfax"}},
{"type":"Feature","geometry":{"type":"Polygon","coordinates":[[[-103.0424,34.3022],[-103.0426,34.9535],[-103.2832,34.9547],[-103.4904,34.7798],[-103.7017,34.6947],[-103.7049,34.6066],[-103.7368,34.6059],[-103.735,34.3032],[-103.0424,34.3022]]]},"properties":{"GID_0":"USA","GID_1":"USA.32_1","GID_2":"USA.32.6_1","NAME_1":"NewMexico","NAME_2":"Curry"}},
{"type":"Feature","geometry":{"type":"Polygon","coordinates":[[[-103.945,34.0848],[-103.9457,34.6056],[-104.1266,34.6059],[-104.1268,34.7817],[-104.3389,34.7818],[-104.4438,34.6061],[-104.8894,34.6053],[-104.8934,34.0914],[-104.7894,34.0003],[-104.154,33.9969],[-104.1547,34.0842],[-103.945,34.0848]]]},"properties":{"GID_0":"USA","GID_1":"USA.32_1","GID_2":"USA.32.7_1","NAME_1":"NewMexico","NAME_2":"Debaca"}},
{"type":"Feature","geometry":{"type":"Polygon","coordinates":[[[-107.2903,31.7842],[-106.5291,31.7838],[-106.636,31.8694],[-106.6193,32.0012],[-106.3733,32.0017],[-106.3745,32.9598],[-106.3368,32.9604],[-106.3372,33.0537],[-106.7641,32.875],[-106.8842,32.8245],[-107.2961,32.7809],[-107.2977,32.6074],[-107.2903,31.7842]]]},"properties":{"GID_0":"USA","GID_1":"USA.32_1","GID_2":"USA.32.8_1","NAME_1":"NewMexico","NAME_2":"DonaAna"}},
{"type":"Feature","geometry":{"type":"Polygon","coordinates":[[[-104.849,32.5188],[-104.8466,32.0031],[-103.7164,32.0015],[-103.7166,32.524],[-103.8096,32.5249],[-103.8111,32.9663],[-103.9741,32.9648],[-104.8354,32.9659],[-104.8392,32.5196],[-104.849,32.5188]]]},"properties":{"GID_0":"USA","GID_1":"USA.32_1","GID_2":"USA.32.9_1","NAME_1":"NewMexico","NAME_2":"Eddy"}},
{"type":"Feature","geometry":{"type":"Polygon","coordinates":[[[-109.0474,32.7812],[-108.8494,32.7777],[-108.8475,32.6032],[-108.6428,32.6032],[-108.5306,32.5169],[-108.5224,31.8632],[-108.2138,31.8615],[-108.2129,32.0809],[-108.2255,32.5178],[-107.9205,32.5197],[-107.9193,32.6041],[-107.6646,32.6067],[-107.7266,32.6573],[-107.7634,32.9163],[-107.8489,32.9951],[-107.8642,33.2038],[-108.6944,33.2095],[-109.0468,33.2098],[-109.0474,32.7812]]]},"properties":{"GID_0":"USA","GID_1":"USA.32_1","GID_2":"USA.32.10_1","NAME_1":"NewMexico","NAME_2":"Grant"}},
{"type":"Feature","geometry":{"type":"Polygon","coordinates":[[[-104.1268,34.7817],[-104.1282,34.9553],[-104.1226,34.9561],[-104.1244,35.2151],[-105.2904,35.2166],[-105.2885,35.0434],[-105.3104,34.6099],[-105.3105,34.3495],[-104.8914,34.3495],[-104.8894,34.6053],[-104.4438,34.6061],[-104.3389,34.7818],[-104.1268,34.7817]]]},"properties":{"GID_0":"USA","GID_1":"USA.32_1","GID_2":"USA.32.11_1","NAME_1":"NewMexico","NAME_2":"Guadalupe"}},
{"type":"Feature","geometry":{"type":"Polygon","coordinates":[[[-104.4368,36.2193],[-104.3432,35.9108],[-104.3684,35.7802],[-103.9759,35.801],[-103.7232,35.4217],[-103.636,35.4217],[-103.6357,35.3894],[-103.3774,35.4032],[-103.3746,35.6525],[-103.3749,35.9984],[-103.3655,36.0863],[-103.7935,36.086],[-104.0088,36.1743],[-104.009,36.218],[-104.4368,36.2193]]]},"properties":{"GID_0":"USA","GID_1":"USA.32_1","GID_2":"USA.32.12_1","NAME_1":"NewMexico","NAME_2":"Harding"}},
{"type":"Feature","geometry":{"type":"Polygon","coordinates":[[[-108.2084,31.3406],[-108.2137,31.8173],[-108.2138,31.8615],[-108.5224,31.8632],[-108.5306,32.5169],[-108.6428,32.6032],[-108.8475,32.6032],[-108.8494,32.7777],[-109.0474,32.7812],[-109.05,31.3328],[-108.2084,31.3406]]]},"properties":{"GID_0":"USA","GID_1":"USA.32_1","GID_2":"USA.32.13_1","NAME_1":"NewMexico","NAME_2":"Hidalgo"}},
{"type":"Feature","geometry":{"type":"Polygon","coordinates":[[[-103.8111,32.9663],[-103.8096,32.5249],[-103.7166,32.524],[-103.7164,32.0015],[-103.0642,31.9996],[-103.0632,33.0017],[-103.0525,33.5738],[-103.7127,33.5702],[-103.7611,33.3973],[-103.7651,32.9668],[-103.8111,32.9663]]]},"properties":{"GID_0":"USA","GID_1":"USA.32_1","GID_2":"USA.32.14_1","NAME_1":"NewMexico","NAME_2":"Lea"}},
{"type":"Feature","geometry":{"type":"Polygon","coordinates":[[[-104.8934,34.0914],[-104.8914,34.3495],[-105.3105,34.3495],[-105.3096,34.2618],[-105.9227,34.2607],[-105.9186,33.9993],[-105.9199,33.8275],[-106.047,33.828],[-106.0485,33.6534],[-106.369,33.6628],[-106.3683,33.3908],[-105.7218,33.3924],[-105.7221,33.3069],[-105.3125,33.3065],[-105.314,33.1323],[-104.9046,33.1354],[-104.8934,34.0914]]]},"properties":{"GID_0":"USA","GID_1":"USA.32_1","GID_2":"USA.32.15_1","NAME_1":"NewMexico","NAME_2":"Lincoln"}},
{"type":"Feature","geometry":{"type":"Polygon","coordinates":[[[-106.2466,35.7533],[-106.2457,35.8427],[-106.2452,35.8563],[-106.2431,35.9303],[-106.2438,35.9657],[-106.3949,35.8292],[-106.2466,35.7533]]]},"properties":{"GID_0":"USA","GID_1":"USA.32_1","GID_2":"USA.32.16_1","NAME_1":"NewMexico","NAME_2":"LosAlamos"}},
{"type":"Feature","geometry":{"type":"Polygon","coordinates":[[[-108.2084,31.3406],[-108.2084,31.7838],[-107.2903,31.7842],[-107.2977,32.6074],[-107.3989,32.6057],[-107.9193,32.6041],[-107.9205,32.5197],[-108.2255,32.5178],[-108.2129,32.0809],[-108.2137,31.8173],[-108.2084,31.3406]]]},"properties":{"GID_0":"USA","GID_1":"USA.32_1","GID_2":"USA.32.17_1","NAME_1":"NewMexico","NAME_2":"Luna"}},
{"type":"Feature","geometry":{"type":"Polygon","coordinates":[[[-109.0458,34.9611],[-108.4678,34.9597],[-108.4661,35.3081],[-107.5231,35.3036],[-107.3016,35.3021],[-107.3057,35.7419],[-107.3056,36.0005],[-107.6247,36.0034],[-109.0452,36.006],[-109.0458,34.9611]]]},"properties":{"GID_0":"USA","GID_1":"USA.32_1","GID_2":"USA.32.18_1","NAME_1":"NewMexico","NAME_2":"McKinley"}},
{"type":"Feature","geometry":{"type":"Polygon","coordinates":[[[-105.3683,36.2627],[-105.3772,36.2557],[-105.4475,36.0576],[-105.461,36.0443],[-105.504,36.0239],[-105.5325,36.0099],[-105.7165,35.9785],[-105.7203,35.8713],[-105.3472,35.8707],[-105.0022,35.7739],[-104.3684,35.7802],[-104.3432,35.9108],[-104.4368,36.2193],[-104.8651,36.2617],[-105.3683,36.2627]]]},"properties":{"GID_0":"USA","GID_1":"USA.32_1","GID_2":"USA.32.19_1","NAME_1":"NewMexico","NAME_2":"Mora"}},
{"type":"Feature","geometry":{"type":"Polygon","coordinates":[[[-105.314,33.1323],[-105.3125,33.3065],[-105.7221,33.3069],[-105.7218,33.3924],[-106.3403,33.3913],[-106.3368,32.9604],[-106.3745,32.9598],[-106.3733,32.0017],[-104.8466,32.0031],[-104.849,32.5188],[-105.1441,32.5241],[-105.3536,32.5218],[-105.3512,32.9628],[-105.314,33.1323]]]},"properties":{"GID_0":"USA","GID_1":"USA.32_1","GID_2":"USA.32.20_1","NAME_1":"NewMexico","NAME_2":"Otero"}},
{"type":"Feature","geometry":{"type":"Polygon","coordinates":[[[-103.0426,34.9535],[-103.0409,35.7408],[-103.3744,35.7398],[-103.3746,35.6525],[-103.3774,35.4032],[-103.6357,35.3894],[-103.6352,35.2406],[-103.8561,35.2424],[-104.123,35.1427],[-104.1226,34.9561],[-104.1282,34.9553],[-104.1266,34.6059],[-103.7049,34.6066],[-103.7017,34.6947],[-103.4904,34.7798],[-103.2832,34.9547],[-103.0426,34.9535]]]},"properties":{"GID_0":"USA","GID_1":"USA.32_1","GID_2":"USA.32.21_1","NAME_1":"NewMexico","NAME_2":"Quay"}},
{"type":"Feature","geometry":{"type":"Polygon","coordinates":[[[-107.4147,36.9994],[-107.6109,36.801],[-107.6203,36.438],[-107.6208,36.2208],[-106.877,36.2154],[-106.8814,36.0003],[-106.2445,36.0011],[-106.2431,35.9303],[-106.0614,36.004],[-105.7164,36.0025],[-105.7165,35.9785],[-105.5325,36.0099],[-105.5274,36.0122],[-105.7375,36.1004],[-105.9626,36.3518],[-105.9378,36.4634],[-106.0068,36.9967],[-107.4147,36.9994]]]},"properties":{"GID_0":"USA","GID_1":"USA.32_1","GID_2":"USA.32.22_1","NAME_1":"NewMexico","NAME_2":"RioArriba"}},
{"type":"Feature","geometry":{"type":"Polygon","coordinates":[[[-103.506,33.5713],[-103.0525,33.5738],[-103.0424,34.3022],[-103.735,34.3032],[-103.7368,34.6059],[-103.9457,34.6056],[-103.945,34.0848],[-103.8396,34.0843],[-103.8385,33.8219],[-103.7144,33.6612],[-103.5043,33.6591],[-103.506,33.5713]]]},"properties":{"GID_0":"USA","GID_1":"USA.32_1","GID_2":"USA.32.23_1","NAME_1":"NewMexico","NAME_2":"Roosevelt"}},
{"type":"Feature","geometry":{"type":"Polygon","coordinates":[[[-109.0452,36.006],[-107.6247,36.0034],[-107.6203,36.438],[-107.6109,36.801],[-107.4147,36.9994],[-109.0449,36.9986],[-109.0452,36.006]]]},"properties":{"GID_0":"USA","GID_1":"USA.32_1","GID_2":"USA.32.24_1","NAME_1":"NewMexico","NAME_2":"SanJuan"}},
{"type":"Feature","geometry":{"type":"Polygon","coordinates":[[[-104.123,35.1427],[-103.8561,35.2424],[-103.6352,35.2406],[-103.636,35.4217],[-103.7232,35.4217],[-103.9759,35.801],[-104.3684,35.7802],[-105.0022,35.7739],[-105.3472,35.8707],[-105.7203,35.8713],[-105.7139,35.0425],[-105.2885,35.0434],[-105.2904,35.2166],[-104.1244,35.2151],[-104.123,35.1427]]]},"properties":{"GID_0":"USA","GID_1":"USA.32_1","GID_2":"USA.32.25_1","NAME_1":"NewMexico","NAME_2":"SanMiguel"}},
{"type":"Feature","geometry":{"type":"Polygon","coordinates":[[[-106.9416,35.217],[-106.242,35.2147],[-106.2416,35.2519],[-106.2466,35.7533],[-106.3949,35.8292],[-106.2438,35.9657],[-106.2445,36.0011],[-106.8814,36.0003],[-106.877,36.2154],[-107.6208,36.2208],[-107.6247,36.0034],[-107.3056,36.0005],[-107.3057,35.7419],[-107.3016,35.3021],[-107.2345,35.3024],[-107.1972,35.2197],[-106.9416,35.217]]]},"properties":{"GID_0":"USA","GID_1":"USA.32_1","GID_2":"USA.32.26_1","NAME_1":"NewMexico","NAME_2":"Sandoval"}},
{"type":"Feature","geometry":{"type":"Polygon","coordinates":[[[-106.2386,35.0408],[-105.7139,35.0425],[-105.7203,35.8713],[-105.7164,36.0025],[-106.0614,36.004],[-106.2431,35.9303],[-106.2457,35.8427],[-106.2466,35.7533],[-106.2416,35.2519],[-106.2386,35.0408]]]},"properties":{"GID_0":"USA","GID_1":"USA.32_1","GID_2":"USA.32.27_1","NAME_1":"NewMexico","NAME_2":"SantaFe"}},
{"type":"Feature","geometry":{"type":"Polygon","coordinates":[[[-108.0003,33.2042],[-107.8642,33.2038],[-107.8489,32.9951],[-107.7634,32.9163],[-107.7266,32.6573],[-107.6646,32.6067],[-107.3989,32.6057],[-107.2977,32.6074],[-107.2961,32.7809],[-106.8842,32.8245],[-106.7641,32.875],[-106.3372,33.0537],[-106.3403,33.3913],[-106.3683,33.3908],[-106.3693,33.4813],[-107.3946,33.4789],[-107.6236,33.4773],[-107.9968,33.48],[-107.9962,33.3927],[-108.0003,33.2042]]]},"properties":{"GID_0":"USA","GID_1":"USA.32_1","GID_2":"USA.32.28_1","NAME_1":"NewMexico","NAME_2":"Sierra"}},
{"type":"Feature","geometry":{"type":"Polygon","coordinates":[[[-107.7116,33.4774],[-107.3946,33.4789],[-106.3693,33.4813],[-106.369,33.6628],[-106.0485,33.6534],[-106.047,33.828],[-105.9199,33.8275],[-105.9186,33.9993],[-105.9227,34.2607],[-106.0784,34.2598],[-106.4119,34.2622],[-106.4123,34.4445],[-106.8825,34.5799],[-107.7233,34.5842],[-107.7143,34.2567],[-107.7159,33.8243],[-107.7119,33.8158],[-107.7116,33.4774]]]},"properties":{"GID_0":"USA","GID_1":"USA.32_1","GID_2":"USA.32.29_1","NAME_1":"NewMexico","NAME_2":"Socorro"}},
{"type":"Feature","geometry":{"type":"Polygon","coordinates":[[[-106.0068,36.9967],[-105.9378,36.4634],[-105.9626,36.3518],[-105.7375,36.1004],[-105.5274,36.0122],[-105.504,36.0239],[-105.461,36.0443],[-105.4475,36.0576],[-105.3772,36.2557],[-105.3599,36.2694],[-105.3266,36.399],[-105.3677,36.6804],[-105.2318,36.7232],[-105.2198,36.9961],[-106.0068,36.9967]]]},"properties":{"GID_0":"USA","GID_1":"USA.32_1","GID_2":"USA.32.30_1","NAME_1":"NewMexico","NAME_2":"Taos"}},
{"type":"Feature","geometry":{"type":"Polygon","coordinates":[[[-106.409,34.8687],[-106.4122,34.5244],[-106.4119,34.2622],[-106.0784,34.2598],[-105.3096,34.2618],[-105.3104,34.6099],[-105.2885,35.0434],[-106.2386,35.0408],[-106.2373,34.9568],[-106.409,34.8687]]]},"properties":{"GID_0":"USA","GID_1":"USA.32_1","GID_2":"USA.32.31_1","NAME_1":"NewMexico","NAME_2":"Torrance"}},
{"type":"Feature","geometry":{"type":"Polygon","coordinates":[[[-103.0409,35.7408],[-103.0408,36.5005],[-103.0009,36.999],[-104.0068,36.9966],[-104.0067,36.4374],[-104.0088,36.1743],[-103.7935,36.086],[-103.3655,36.0863],[-103.3749,35.9984],[-103.3744,35.7398],[-103.0409,35.7408]]]},"properties":{"GID_0":"USA","GID_1":"USA.32_1","GID_2":"USA.32.32_1","NAME_1":"NewMexico","NAME_2":"Union"}},
{"type":"Feature","geometry":{"type":"Polygon","coordinates":[[[-107.0641,34.9618],[-107.1982,34.9609],[-107.2013,34.5821],[-106.8825,34.5799],[-106.4123,34.4445],[-106.4122,34.5244],[-106.409,34.8687],[-107.0181,34.8727],[-107.0641,34.9618]]]},"properties":{"GID_0":"USA","GID_1":"USA.32_1","GID_2":"USA.32.33_1","NAME_1":"NewMexico","NAME_2":"Valencia"}}
]}