{"type":"FeatureCollection", "features": [
{"type":"Feature","geometry":{"type":"Polygon","coordinates":[[[-121.5506,37.5399],[-121.5576,37.5416],[-121.5577,37.8173],[-121.9612,37.7182],[-122.0442,37.7977],[-122.1359,37.8034],[-122.1861,37.8219],[-122.2219,37.8768],[-122.2969,37.8996],[-122.2958,37.8294],[-122.3325,37.7825],[-122.2464,37.7517],[-122.1572,37.6558],[-122.1478,37.5942],[-122.1047,37.4983],[-122.0497,37.4658],[-121.9614,37.4629],[-121.9234,37.4542],[-121.8653,37.4848],[-121.4707,37.4819],[-121.5044,37.5262],[-121.5506,37.5399]]]},"properties":{"GID_0":"USA","GID_1":"USA.5_1","GID_2":"USA.5.1_1","NAME_1":"California","NAME_2":"Alameda"}},
{"type":"Feature","geometry":{"type":"Polygon","coordinates":[[[-120.0727,38.5117],[-120.0727,38.4478],[-120.0169,38.4363],[-119.8793,38.3597],[-119.751,38.4168],[-119.6967,38.4089],[-119.6986,38.3652],[-119.6365,38.3286],[-119.6342,38.3544],[-119.5621,38.4165],[-119.5427,38.4986],[-119.6223,38.6159],[-119.6159,38.6649],[-119.5771,38.7084],[-119.9025,38.9332],[-119.8792,38.866],[-119.9685,38.7746],[-120.0741,38.7016],[-120.0727,38.5117]]]},"properties":{"GID_0":"USA","GID_1":"USA.5_1","GID_2":"USA.5.2_1","NAME_1":"California","NAME_2":"Alpine"}},
{"type":"Feature","geometry":{"type":"Polygon","coordinates":[[[-120.0741,38.7016],[-120.106,38.7069],[-120.1402,38.6397],[-120.2132,38.6302],[-120.2737,38.5619],[-120.5678,38.5066],[-120.6048,38.5036],[-120.6768,38.5165],[-120.722,38.5465],[-120.8193,38.5618],[-120.9273,38.5148],[-121.0242,38.5068],[-121.0228,38.2983],[-120.9926,38.2244],[-120.9,38.2218],[-120.805,38.2886],[-120.6305,38.3397],[-120.6073,38.3957],[-120.5196,38.4223],[-120.4203,38.472],[-120.3796,38.4605],[-120.2629,38.4799],[-120.2072,38.502],[-120.1496,38.4946],[-120.0727,38.5117],[-120.0741,38.7016]]]},"properties":{"GID_0":"USA","GID_1":"USA.5_1","GID_2":"USA.5.3_1","NAME_1":"California","NAME_2":"Amador"}},
{"type":"Feature","geometry":{"type":"Polygon","coordinates":[[[-121.9086,39.3052],[-121.6298,39.3066],[-121.6253,39.2949],[-121.4747,39.3332],[-121.407,39.3397],[-121.3709,39.3679],[-121.3331,39.4274],[-121.3038,39.5199],[-121.1483,39.5279],[-121.1484,39.5565],[-121.0759,39.5978],[-121.1381,39.6287],[-121.1376,39.6582],[-121.2109,39.7261],[-121.3156,39.7976],[-121.3596,39.8564],[-121.4285,39.9007],[-121.4097,39.9586],[-121.4202,40.0151],[-121.3785,40.0516],[-121.377,40.1078],[-121.4051,40.15],[-121.4443,40.1508],[-121.5006,40.1005],[-121.5854,40.1],[-121.5955,40.0536],[-121.6361,40.0257],[-121.6456,39.9829],[-121.7021,39.9842],[-121.7759,39.8895],[-121.8956,39.8831],[-122.0408,39.8844],[-122.0646,39.8127],[-122.0517,39.8039],[-122.0469,39.8022],[-122.0419,39.7968],[-122.0247,39.7677],[-121.9408,39.6954],[-121.9924,39.63],[-121.9842,39.5313],[-121.878,39.5125],[-121.8724,39.4519],[-121.8894,39.3894],[-121.8864,39.3691],[-121.9086,39.3052]]]},"properties":{"GID_0":"USA","GID_1":"USA.5_1","GID_2":"USA.5.4_1","NAME_1":"California","NAME_2":"Butte"}},
{"type":"Feature","geometry":{"type":"Polygon","coordinates":[[[-120.0727,38.5117],[-120.1496,38.4946],[-120.2072,38.502],[-120.2629,38.4799],[-120.3796,38.4605],[-120.4203,38.472],[-120.5196,38.4223],[-120.6073,38.3957],[-120.6305,38.3397],[-120.805,38.2886],[-120.9,38.2218],[-120.9926,38.2244],[-120.9383,38.0886],[-120.7258,37.8987],[-120.6542,37.8323],[-120.6348,37.8606],[-120.5418,37.9213],[-120.509,37.956],[-120.5346,37.9898],[-120.4654,38.0103],[-120.4087,38.1023],[-120.2902,38.2345],[-120.2666,38.2705],[-120.1533,38.3858],[-120.0929,38.4002],[-120.0169,38.4363],[-120.0727,38.4478],[-120.0727,38.5117]]]},"properties":{"GID_0":"USA","GID_1":"USA.5_1","GID_2":"USA.5.5_1","NAME_1":"California","NAME_2":"Calaveras"}},
{"type":"Feature","geometry":{"type":"Polygon","coordinates":[[[-121.8881,39.3849],[-122.0048,39.3845],[-122.0034,39.4131],[-122.1386,39.4148],[-122.1382,39.3862],[-122.7389,39.3834],[-122.7746,39.3158],[-122.7541,39.2828],[-122.6602,39.2158],[-122.5693,39.2022],[-122.5346,39.2104],[-122.4931,39.1837],[-122.4748,39.1442],[-122.4999,39.1205],[-122.4907,39.0545],[-122.4077,39.0102],[-122.4094,38.963],[-122.3386,38.9248],[-121.8351,38.9248],[-121.8158,39.0055],[-121.8475,39.0701],[-121.8717,39.0679],[-121.9337,39.1655],[-121.9426,39.1839],[-121.9454,39.2482],[-121.9086,39.3052],[-121.8864,39.3691],[-121.8881,39.3849]]]},"properties":{"GID_0":"USA","GID_1":"USA.5_1","GID_2":"USA.5.6_1","NAME_1":"California","NAME_2":"Colusa"}},
{"type":"Feature","geometry":{"type":"Polygon","coordinates":[[[-122.3177,37.8975],[-122.2969,37.8996],[-122.2219,37.8768],[-122.1861,37.8219],[-122.1359,37.8034],[-122.0442,37.7977],[-121.9612,37.7182],[-121.5577,37.8173],[-121.5356,37.838],[-121.5365,37.8494],[-121.5791,37.8736],[-121.5542,37.9221],[-121.584,37.985],[-121.5598,38.019],[-121.5809,38.063],[-121.5655,38.0964],[-121.6056,38.1075],[-121.6621,38.0979],[-121.6764,38.0611],[-121.7292,38.0222],[-121.8124,38.0178],[-121.95,38.05],[-122.0703,38.0533],[-122.1481,38.0217],[-122.1903,38.0531],[-122.2411,38.0586],[-122.3,38.0103],[-122.3819,37.9764],[-122.4111,37.9322],[-122.3177,37.8975]]]},"properties":{"GID_0":"USA","GID_1":"USA.5_1","GID_2":"USA.5.7_1","NAME_1":"California","NAME_2":"ContraCosta"}},
{"type":"Feature","geometry":{"type":"Polygon","coordinates":[[[-123.6591,41.3821],[-123.6121,41.4585],[-123.6498,41.5364],[-123.6846,41.5421],[-123.6845,41.5929],[-123.7159,41.6033],[-123.6594,41.7187],[-123.6784,41.7381],[-123.703,41.8291],[-123.5624,41.904],[-123.5198,41.9994],[-123.6563,41.9959],[-124.118,41.9972],[-124.2047,41.9819],[-124.2106,41.8769],[-124.2397,41.7983],[-124.2008,41.745],[-124.17,41.7436],[-124.0653,41.465],[-123.7714,41.4656],[-123.7706,41.3811],[-123.6591,41.3821]]]},"properties":{"GID_0":"USA","GID_1":"USA.5_1","GID_2":"USA.5.8_1","NAME_1":"California","NAME_2":"DelNorte"}},
{"type":"Feature","geometry":{"type":"Polygon","coordinates":[[[-119.9025,38.9332],[-120.0009,39.0005],[-120.0023,39.0677],[-120.1422,39.068],[-120.1633,39.0384],[-120.2396,39.0235],[-120.4357,39.0285],[-120.4692,38.9652],[-120.5708,38.9127],[-120.6762,38.9603],[-120.7236,38.9965],[-120.7314,39.0028],[-120.8283,38.9896],[-120.8315,38.9732],[-120.8514,38.9626],[-120.8572,38.9534],[-120.9379,38.9621],[-120.9563,38.9378],[-121.0537,38.899],[-121.0591,38.8459],[-121.0878,38.8338],[-121.1447,38.712],[-121.117,38.7155],[-121.0242,38.5068],[-120.9273,38.5148],[-120.8193,38.5618],[-120.722,38.5465],[-120.6768,38.5165],[-120.6048,38.5036],[-120.5678,38.5066],[-120.2737,38.5619],[-120.2132,38.6302],[-120.1402,38.6397],[-120.106,38.7069],[-120.0741,38.7016],[-119.9685,38.7746],[-119.8792,38.866],[-119.9025,38.9332]]]},"properties":{"GID_0":"USA","GID_1":"USA.5_1","GID_2":"USA.5.9_1","NAME_1":"California","NAME_2":"ElDorado"}},
{"type":"Feature","geometry":{"type":"Polygon","coordinates":[[[-120.9183,36.7414],[-120.597,36.4881],[-120.5969,36.3275],[-120.6447,36.3176],[-120.6814,36.2859],[-120.6799,36.266],[-120.6271,36.2039],[-120.6677,36.1382],[-120.6421,36.1026],[-120.5901,36.0908],[-120.5851,36.0646],[-120.4974,36.0172],[-120.4314,35.9674],[-120.3631,35.9625],[-120.3182,35.9052],[-119.9592,36.1815],[-119.9583,36.3988],[-119.757,36.3985],[-119.748,36.4167],[-119.6702,36.4159],[-119.5776,36.4886],[-119.4706,36.5756],[-119.3056,36.5746],[-119.3048,36.6603],[-118.9853,36.6589],[-118.9847,36.7428],[-118.5552,36.7388],[-118.3644,36.7471],[-118.3924,36.8331],[-118.3635,36.8863],[-118.4449,37.0698],[-118.4874,37.0792],[-118.594,37.1385],[-118.658,37.1449],[-118.6833,37.2117],[-118.6705,37.266],[-118.7202,37.3276],[-118.7786,37.3356],[-118.7885,37.3905],[-118.7693,37.4557],[-118.8014,37.4917],[-118.8526,37.477],[-118.8692,37.5075],[-118.9453,37.5636],[-118.9785,37.5565],[-119.0236,37.5857],[-119.3151,37.349],[-119.3349,37.3123],[-119.3299,37.2112],[-119.3907,37.1501],[-119.4906,37.1401],[-119.5512,37.1456],[-119.5385,37.1025],[-119.6157,37.0331],[-119.6538,37.0421],[-119.7377,36.9771],[-119.7319,36.95],[-119.8265,36.8486],[-119.8875,36.858],[-120.0287,36.8166],[-120.0862,36.8236],[-120.1722,36.8014],[-120.1847,36.7787],[-120.2834,36.7717],[-120.3715,36.7874],[-120.3869,36.825],[-120.4494,36.8612],[-120.4507,36.912],[-120.5417,37.0459],[-120.9183,36.7414]]]},"properties":{"GID_0":"USA","GID_1":"USA.5_1","GID_2":"USA.5.10_1","NAME_1":"California","NAME_2":"Fresno"}},
{"type":"Feature","geometry":{"type":"Polygon","coordinates":[[[-122.0456,39.8008],[-122.59,39.7995],[-122.717,39.8008],[-122.9373,39.7991],[-122.9362,39.7501],[-122.8907,39.7114],[-122.8882,39.5827],[-122.7353,39.5817],[-122.7389,39.3834],[-122.1382,39.3862],[-122.1386,39.4148],[-122.0034,39.4131],[-122.0048,39.3845],[-121.8881,39.3849],[-121.8894,39.3894],[-121.8724,39.4519],[-121.878,39.5125],[-121.9842,39.5313],[-121.9924,39.63],[-121.9408,39.6954],[-122.0247,39.7677],[-122.0419,39.7968],[-122.0456,39.8008]]]},"properties":{"GID_0":"USA","GID_1":"USA.5_1","GID_2":"USA.5.11_1","NAME_1":"California","NAME_2":"Glenn"}},
{"type":"Feature","geometry":{"type":"Polygon","coordinates":[[[-123.7714,41.4656],[-124.0658,41.4642],[-124.0736,41.3644],[-124.1078,41.2233],[-124.1408,41.1464],[-124.1564,41.0661],[-124.1125,41.0287],[-124.1489,40.8653],[-124.0881,40.8529],[-124.0889,40.8236],[-124.1836,40.8008],[-124.2119,40.7067],[-124.2679,40.6985],[-124.2997,40.6668],[-124.3666,40.541],[-124.409,40.4438],[-124.3752,40.3947],[-124.3487,40.3185],[-124.3637,40.2618],[-124.2904,40.2035],[-124.2161,40.1619],[-124.1873,40.1303],[-124.1105,40.1043],[-124.0808,40.0309],[-124.0237,40.0019],[-123.5438,40.0038],[-123.5466,40.502],[-123.5413,40.7392],[-123.5594,40.8421],[-123.5985,40.8781],[-123.6195,40.9346],[-123.479,40.9159],[-123.4447,40.9451],[-123.408,41.0303],[-123.4508,41.0644],[-123.409,41.1801],[-123.4559,41.2981],[-123.4644,41.3183],[-123.4743,41.3639],[-123.5445,41.3816],[-123.7706,41.3811],[-123.7714,41.4656]]]},"properties":{"GID_0":"USA","GID_1":"USA.5_1","GID_2":"USA.5.12_1","NAME_1":"California","NAME_2":"Humboldt"}},
{"type":"Feature","geometry":{"type":"Polygon","coordinates":[[[-116.106,32.6183],[-114.7206,32.718],[-114.681,32.7365],[-114.6139,32.7291],[-114.5265,32.758],[-114.5289,32.7933],[-114.466,32.8462],[-114.4603,32.9011],[-114.4985,33.0072],[-114.5211,33.0314],[-114.6607,33.0333],[-114.6997,33.1197],[-114.6757,33.1634],[-114.6765,33.2737],[-114.7288,33.3023],[-114.6976,33.3446],[-114.7072,33.3866],[-114.6848,33.42],[-114.6243,33.4368],[-114.8288,33.4326],[-115.4659,33.4326],[-115.8667,33.43],[-116.0826,33.4271],[-116.0821,33.2363],[-116.0797,33.0755],[-116.1028,33.0749],[-116.102,32.8135],[-116.106,32.6183]]]},"properties":{"GID_0":"USA","GID_1":"USA.5_1","GID_2":"USA.5.13_1","NAME_1":"California","NAME_2":"Imperial"}},
{"type":"Feature","geometry":{"type":"Polygon","coordinates":[[[-118.3644,36.7471],[-118.3362,36.7151],[-118.3478,36.6735],[-118.2819,36.5957],[-118.2894,36.5586],[-118.2413,36.5187],[-118.2131,36.4308],[-118.1599,36.4298],[-118.1623,36.3913],[-118.1065,36.3476],[-118.1266,36.2793],[-118.1099,36.2247],[-118.0618,36.1751],[-118.069,36.0963],[-118.0332,36.0051],[-118.0053,35.9784],[-117.9842,35.8929],[-118.0094,35.8555],[-118.009,35.7861],[-117.9249,35.7986],[-117.8738,35.7988],[-117.4162,35.7944],[-116.6071,35.7965],[-116.3389,35.7929],[-115.7362,35.7953],[-115.7359,35.8116],[-115.6513,35.8111],[-116.2311,36.2626],[-116.6583,36.5888],[-117.2394,37.0265],[-117.8339,37.4655],[-118.375,37.4622],[-118.7756,37.4639],[-118.7693,37.4557],[-118.7885,37.3905],[-118.7786,37.3356],[-118.7202,37.3276],[-118.6705,37.266],[-118.6833,37.2117],[-118.658,37.1449],[-118.594,37.1385],[-118.4874,37.0792],[-118.4449,37.0698],[-118.3635,36.8863],[-118.3924,36.8331],[-118.3644,36.7471]]]},"properties":{"GID_0":"USA","GID_1":"USA.5_1","GID_2":"USA.5.14_1","NAME_1":"California","NAME_2":"Inyo"}},
{"type":"Feature","geometry":{"type":"Polygon","coordinates":[[[-118.009,35.7861],[-118.4706,35.7919],[-118.5233,35.7892],[-119.2169,35.7906],[-119.6472,35.7895],[-119.7618,35.7906],[-119.852,35.7891],[-120.1945,35.788],[-120.1951,35.6151],[-120.0876,35.6139],[-120.0875,35.5276],[-120.0007,35.4695],[-119.9999,35.4396],[-119.8831,35.4377],[-119.8815,35.3501],[-119.8122,35.3508],[-119.8113,35.2641],[-119.6688,35.2617],[-119.6675,35.175],[-119.5549,35.1791],[-119.5628,35.0883],[-119.4745,35.077],[-119.4746,34.9004],[-119.3849,34.899],[-119.3844,34.8794],[-119.2779,34.8793],[-119.2461,34.857],[-119.2462,34.8147],[-118.9771,34.8126],[-118.9772,34.7902],[-118.8825,34.791],[-118.8946,34.8181],[-118.5995,34.8175],[-117.7757,34.8229],[-117.6704,34.8221],[-117.6351,34.8233],[-117.636,35.0872],[-117.6362,35.7958],[-117.9249,35.7986],[-118.009,35.7861]]]},"properties":{"GID_0":"USA","GID_1":"USA.5_1","GID_2":"USA.5.15_1","NAME_1":"California","NAME_2":"Kern"}},
{"type":"Feature","geometry":{"type":"Polygon","coordinates":[[[-120.3182,35.9052],[-120.2773,35.9054],[-120.2447,35.8771],[-120.2597,35.8448],[-120.2166,35.7883],[-119.852,35.7891],[-119.7618,35.7906],[-119.5395,35.79],[-119.5368,36.138],[-119.5289,36.2691],[-119.4775,36.2682],[-119.4758,36.401],[-119.529,36.4015],[-119.5284,36.4886],[-119.5776,36.4886],[-119.6702,36.4159],[-119.748,36.4167],[-119.757,36.3985],[-119.9583,36.3988],[-119.9592,36.1815],[-120.3182,35.9052]]]},"properties":{"GID_0":"USA","GID_1":"USA.5_1","GID_2":"USA.5.16_1","NAME_1":"California","NAME_2":"Kings"}},
{"type":"Feature","geometry":{"type":"Polygon","coordinates":[[[-122.7389,39.3834],[-122.7353,39.5817],[-122.8882,39.5827],[-122.8888,39.5309],[-122.9371,39.5174],[-123.0231,39.5191],[-123.0623,39.5034],[-123.0755,39.4083],[-123.0201,39.3223],[-123.0197,39.2779],[-122.9951,39.2368],[-123.0468,39.175],[-123.0806,39.175],[-123.0934,39.073],[-123.0559,39.0219],[-122.9872,38.9976],[-122.9476,38.9007],[-122.8181,38.8503],[-122.8087,38.8378],[-122.7462,38.8018],[-122.6933,38.7139],[-122.6445,38.7038],[-122.6258,38.6675],[-122.4634,38.7051],[-122.3794,38.8037],[-122.4045,38.8566],[-122.3925,38.8668],[-122.4037,38.9246],[-122.3386,38.9248],[-122.4094,38.963],[-122.4077,39.0102],[-122.4907,39.0545],[-122.4999,39.1205],[-122.4748,39.1442],[-122.4931,39.1837],[-122.5346,39.2104],[-122.5693,39.2022],[-122.6602,39.2158],[-122.7541,39.2828],[-122.7746,39.3158],[-122.7389,39.3834]]]},"properties":{"GID_0":"USA","GID_1":"USA.5_1","GID_2":"USA.5.17_1","NAME_1":"California","NAME_2":"Lake"}},
{"type":"Feature","geometry":{"type":"Polygon","coordinates":[[[-121.3272,40.4451],[-121.0626,40.445],[-121.0627,40.2559],[-121.0041,40.2198],[-120.9481,40.2196],[-120.9288,40.1917],[-120.8736,40.1982],[-120.8726,40.2404],[-120.7655,40.3141],[-120.6544,40.3065],[-120.5781,40.285],[-120.4924,40.234],[-120.4842,40.2055],[-120.3821,40.1292],[-120.3434,40.1144],[-120.2676,40.1145],[-120.2126,40.0844],[-120.2035,40.0133],[-120.1116,39.9399],[-120.1092,39.7948],[-120.1485,39.7089],[-120.0182,39.71],[-120.0021,39.7238],[-119.9968,40.0577],[-119.9956,40.4351],[-119.9999,40.9331],[-119.9995,41.1845],[-120.3794,41.1865],[-120.8965,41.1864],[-121.3323,41.1841],[-121.3336,40.9041],[-121.3226,40.9043],[-121.3243,40.4982],[-121.3272,40.4451]]]},"properties":{"GID_0":"USA","GID_1":"USA.5_1","GID_2":"USA.5.18_1","NAME_1":"California","NAME_2":"Lassen"}},
{"type":"Feature","geometry":{"type":"MultiPolygon","coordinates":[[[[-118.5901,33.0305],[-118.5767,32.9741],[-118.4891,32.8436],[-118.4235,32.8041],[-118.3706,32.84],[-118.485,32.9233],[-118.5633,33.0236],[-118.5901,33.0305]]],[[[-118.6037,33.4789],[-118.5742,33.44],[-118.4886,33.4189],[-118.4892,33.3572],[-118.4656,33.3256],[-118.3784,33.3208],[-118.3261,33.2986],[-118.3106,33.3367],[-118.3664,33.4058],[-118.5519,33.4731],[-118.6037,33.4789]]],[[[-118.8946,34.8181],[-118.7907,34.6012],[-118.6335,34.2817],[-118.6695,34.2401],[-118.6703,34.1683],[-118.7885,34.1687],[-118.9414,34.0741],[-118.9459,34.0457],[-118.8525,34.0336],[-118.8075,34.0005],[-118.7403,34.0331],[-118.5695,34.0417],[-118.5247,34.0297],[-118.4433,33.9464],[-118.3913,33.8379],[-118.4259,33.7764],[-118.3835,33.7419],[-118.297,33.7089],[-118.2356,33.7547],[-118.1811,33.7649],[-118.1137,33.7425],[-118.0583,33.8464],[-117.9984,33.882],[-117.9773,33.9459],[-117.7943,33.9533],[-117.8033,33.9762],[-117.7707,34.0221],[-117.733,34.0211],[-117.6474,34.2875],[-117.6693,34.5591],[-117.6704,34.8221],[-117.7757,34.8229],[-118.5995,34.8175],[-118.8946,34.8181]]]]},"properties":{"GID_0":"USA","GID_1":"USA.5_1","GID_2":"USA.5.19_1","NAME_1":"California","NAME_2":"LosAngeles"}},
{"type":"Feature","geometry":{"type":"Polygon","coordinates":[[[-119.0236,37.5857],[-119.0764,37.6929],[-119.1361,37.7357],[-119.1943,37.7372],[-119.2281,37.716],[-119.2682,37.7396],[-119.288,37.7451],[-119.3048,37.7701],[-119.3077,37.7791],[-119.5834,37.5603],[-119.5834,37.4946],[-119.6511,37.4166],[-119.7635,37.4168],[-120.0538,37.1824],[-120.1062,37.1681],[-120.2304,37.1638],[-120.3362,37.1277],[-120.3801,37.1252],[-120.4801,37.0954],[-120.5417,37.0459],[-120.4507,36.912],[-120.4494,36.8612],[-120.3869,36.825],[-120.3715,36.7874],[-120.2834,36.7717],[-120.1847,36.7787],[-120.1722,36.8014],[-120.0862,36.8236],[-120.0287,36.8166],[-119.8875,36.858],[-119.8265,36.8486],[-119.7319,36.95],[-119.7377,36.9771],[-119.6538,37.0421],[-119.6157,37.0331],[-119.5385,37.1025],[-119.5512,37.1456],[-119.4906,37.1401],[-119.3907,37.1501],[-119.3299,37.2112],[-119.3349,37.3123],[-119.3151,37.349],[-119.0236,37.5857]]]},"properties":{"GID_0":"USA","GID_1":"USA.5_1","GID_2":"USA.5.20_1","NAME_1":"California","NAME_2":"Madera"}},
{"type":"Feature","geometry":{"type":"Polygon","coordinates":[[[-122.9951,38.3003],[-122.9705,38.233],[-122.9259,38.2103],[-122.9546,38.1767],[-122.9613,38.1114],[-123.01,38.0036],[-122.9386,38.0331],[-122.8792,38.0253],[-122.7986,37.9781],[-122.7256,37.9019],[-122.684,37.9044],[-122.4999,37.8198],[-122.4781,37.8592],[-122.4378,37.8828],[-122.5,37.9261],[-122.4847,38.1003],[-122.5086,38.1175],[-122.5205,38.1429],[-122.5691,38.1839],[-122.6265,38.1782],[-122.7399,38.207],[-122.8911,38.3104],[-122.9619,38.3171],[-122.9951,38.3003]]]},"properties":{"GID_0":"USA","GID_1":"USA.5_1","GID_2":"USA.5.21_1","NAME_1":"California","NAME_2":"Marin"}},
{"type":"Feature","geometry":{"type":"Polygon","coordinates":[[[-119.3077,37.7791],[-119.3146,37.7937],[-119.4025,37.8332],[-119.4264,37.864],[-119.5057,37.8695],[-119.5383,37.9021],[-119.5885,37.8903],[-119.5984,37.8617],[-119.6562,37.8315],[-119.6672,37.8006],[-119.745,37.7836],[-119.8072,37.7549],[-119.8422,37.7711],[-119.9429,37.7644],[-120.0253,37.8122],[-120.079,37.8287],[-120.1258,37.7836],[-120.1743,37.7983],[-120.202,37.7646],[-120.2628,37.7375],[-120.3436,37.7265],[-120.3098,37.6742],[-120.3068,37.6669],[-120.3091,37.6565],[-120.3241,37.6505],[-120.3675,37.681],[-120.3873,37.6347],[-120.2778,37.4527],[-120.2828,37.43],[-120.1807,37.2919],[-120.1775,37.2611],[-120.0858,37.2181],[-120.0538,37.1824],[-119.7635,37.4168],[-119.6511,37.4166],[-119.5834,37.4946],[-119.5834,37.5603],[-119.3077,37.7791]]]},"properties":{"GID_0":"USA","GID_1":"USA.5_1","GID_2":"USA.5.22_1","NAME_1":"California","NAME_2":"Mariposa"}},
{"type":"Feature","geometry":{"type":"Polygon","coordinates":[[[-122.8907,39.7114],[-122.9362,39.7501],[-122.9373,39.7991],[-122.9421,39.7989],[-122.9485,39.9077],[-122.909,39.9341],[-122.9259,39.9486],[-122.9244,39.9677],[-122.9336,39.9829],[-122.9339,39.9784],[-123.5429,39.978],[-123.5438,40.0038],[-124.0237,40.0019],[-123.9304,39.9094],[-123.8991,39.8553],[-123.852,39.8323],[-123.8327,39.7247],[-123.7864,39.6607],[-123.7889,39.6036],[-123.7678,39.5638],[-123.8026,39.4862],[-123.8271,39.3487],[-123.8008,39.3189],[-123.7713,39.1949],[-123.7353,39.1583],[-123.6897,39.0339],[-123.73,38.9542],[-123.7119,38.9156],[-123.6261,38.8308],[-123.5308,38.764],[-123.4995,38.7794],[-123.3718,38.7775],[-123.3698,38.8057],[-123.1383,38.8091],[-123.1392,38.8395],[-123.0796,38.8525],[-122.8181,38.8503],[-122.9476,38.9007],[-122.9872,38.9976],[-123.0559,39.0219],[-123.0934,39.073],[-123.0806,39.175],[-123.0468,39.175],[-122.9951,39.2368],[-123.0197,39.2779],[-123.0201,39.3223],[-123.0755,39.4083],[-123.0623,39.5034],[-123.0231,39.5191],[-122.9371,39.5174],[-122.8888,39.5309],[-122.8907,39.7114]]]},"properties":{"GID_0":"USA","GID_1":"USA.5_1","GID_2":"USA.5.23_1","NAME_1":"California","NAME_2":"Mendocino"}},
{"type":"Feature","geometry":{"type":"Polygon","coordinates":[[[-120.5417,37.0459],[-120.4801,37.0954],[-120.3801,37.1252],[-120.3362,37.1277],[-120.2304,37.1638],[-120.1062,37.1681],[-120.0538,37.1824],[-120.0858,37.2181],[-120.1775,37.2611],[-120.1807,37.2919],[-120.2828,37.43],[-120.2778,37.4527],[-120.3873,37.6347],[-120.9858,37.399],[-120.9662,37.3434],[-121.2266,37.1369],[-121.2478,37.0314],[-121.2424,36.9748],[-121.2116,36.9607],[-121.2232,36.9152],[-121.1839,36.9099],[-121.138,36.8361],[-120.9183,36.7414],[-120.5417,37.0459]]]},"properties":{"GID_0":"USA","GID_1":"USA.5_1","GID_2":"USA.5.24_1","NAME_1":"California","NAME_2":"Merced"}},
{"type":"Feature","geometry":{"type":"Polygon","coordinates":[[[-119.9995,41.1845],[-119.9984,41.6905],[-120.0003,41.9953],[-121.0015,41.9933],[-121.1074,41.9975],[-121.4469,41.9981],[-121.4579,41.9504],[-121.4493,41.7757],[-121.4459,41.1847],[-120.3794,41.1865],[-119.9995,41.1845]]]},"properties":{"GID_0":"USA","GID_1":"USA.5_1","GID_2":"USA.5.25_1","NAME_1":"California","NAME_2":"Modoc"}},
{"type":"Feature","geometry":{"type":"Polygon","coordinates":[[[-119.6365,38.3286],[-119.6452,38.2796],[-119.6211,38.2506],[-119.6269,38.1935],[-119.5753,38.1577],[-119.4698,38.1287],[-119.4635,38.0976],[-119.3979,38.1063],[-119.3451,38.0827],[-119.3049,38.0238],[-119.3096,37.945],[-119.2292,37.9068],[-119.2028,37.7957],[-119.2682,37.7396],[-119.2281,37.716],[-119.1943,37.7372],[-119.1361,37.7357],[-119.0764,37.6929],[-119.0236,37.5857],[-118.9785,37.5565],[-118.9453,37.5636],[-118.8692,37.5075],[-118.8526,37.477],[-118.8014,37.4917],[-118.7756,37.4639],[-118.375,37.4622],[-117.8357,37.4655],[-118.2878,37.7957],[-118.8591,38.2047],[-119.1538,38.4127],[-119.5771,38.7084],[-119.6159,38.6649],[-119.6223,38.6159],[-119.5427,38.4986],[-119.5621,38.4165],[-119.6342,38.3544],[-119.6365,38.3286]]]},"properties":{"GID_0":"USA","GID_1":"USA.5_1","GID_2":"USA.5.26_1","NAME_1":"California","NAME_2":"Mono"}},
{"type":"Feature","geometry":{"type":"Polygon","coordinates":[[[-120.6799,36.266],[-120.7467,36.1982],[-120.8642,36.2926],[-120.9199,36.3115],[-121.0257,36.2612],[-121.0412,36.3231],[-121.2292,36.4752],[-121.2384,36.5041],[-121.3279,36.5568],[-121.32,36.61],[-121.3624,36.6565],[-121.4653,36.6857],[-121.4491,36.7245],[-121.5081,36.7621],[-121.6401,36.8786],[-121.646,36.9021],[-121.7458,36.9089],[-121.8074,36.856],[-121.7881,36.805],[-121.8192,36.6682],[-121.8771,36.6022],[-121.9306,36.6383],[-121.9772,36.5797],[-121.9275,36.4611],[-121.8928,36.3411],[-121.8989,36.3083],[-121.8267,36.2417],[-121.7081,36.1878],[-121.6331,36.1189],[-121.5734,36.0229],[-121.5028,36],[-121.4617,35.885],[-121.3533,35.7996],[-121.1104,35.7937],[-120.7264,35.7901],[-120.2166,35.7883],[-120.2597,35.8448],[-120.2447,35.8771],[-120.2773,35.9054],[-120.3182,35.9052],[-120.3631,35.9625],[-120.4314,35.9674],[-120.4974,36.0172],[-120.5851,36.0646],[-120.5901,36.0908],[-120.6421,36.1026],[-120.6677,36.1382],[-120.6271,36.2039],[-120.6799,36.266]]]},"properties":{"GID_0":"USA","GID_1":"USA.5_1","GID_2":"USA.5.27_1","NAME_1":"California","NAME_2":"Monterey"}},
{"type":"Feature","geometry":{"type":"Polygon","coordinates":[[[-122.6258,38.6675],[-122.6465,38.5999],[-122.6183,38.5612],[-122.5473,38.5239],[-122.4996,38.4231],[-122.4449,38.3773],[-122.3957,38.3063],[-122.3524,38.2035],[-122.3693,38.1564],[-122.1966,38.1562],[-122.2148,38.1894],[-122.1925,38.2203],[-122.2083,38.316],[-122.0611,38.3178],[-122.0652,38.3341],[-122.1267,38.4284],[-122.1054,38.5091],[-122.1322,38.6006],[-122.1592,38.644],[-122.2156,38.689],[-122.2226,38.7188],[-122.2862,38.8394],[-122.3547,38.8373],[-122.3806,38.8494],[-122.396,38.8636],[-122.4045,38.8566],[-122.3794,38.8037],[-122.4634,38.7051],[-122.6258,38.6675]]]},"properties":{"GID_0":"USA","GID_1":"USA.5_1","GID_2":"USA.5.28_1","NAME_1":"California","NAME_2":"Napa"}},
{"type":"Feature","geometry":{"type":"Polygon","coordinates":[[[-121.2788,39.0365],[-121.268,39.0308],[-121.1876,39.0124],[-121.133,39.0353],[-121.0696,39.0053],[-121.0402,39.0148],[-120.9829,39.1093],[-120.9041,39.1759],[-120.8019,39.2351],[-120.7309,39.2866],[-120.6457,39.315],[-120.0047,39.3161],[-120.0032,39.448],[-120.506,39.4473],[-120.5528,39.5085],[-120.6645,39.5216],[-120.728,39.4697],[-120.7925,39.4419],[-120.9962,39.4124],[-121.0197,39.3949],[-121.0226,39.3908],[-121.034,39.3956],[-121.081,39.3946],[-121.1979,39.3291],[-121.2183,39.2831],[-121.2655,39.2706],[-121.2794,39.2287],[-121.2788,39.0365]]]},"properties":{"GID_0":"USA","GID_1":"USA.5_1","GID_2":"USA.5.29_1","NAME_1":"California","NAME_2":"Nevada"}},
{"type":"Feature","geometry":{"type":"Polygon","coordinates":[[[-118.1137,33.7425],[-118.0947,33.7369],[-118.0056,33.6575],[-117.9281,33.6075],[-117.8828,33.6017],[-117.7822,33.5406],[-117.7142,33.4594],[-117.6767,33.4608],[-117.6139,33.4144],[-117.5796,33.4533],[-117.511,33.4698],[-117.5104,33.5344],[-117.414,33.6592],[-117.473,33.703],[-117.5358,33.7113],[-117.5363,33.7568],[-117.5813,33.7676],[-117.6744,33.8737],[-117.7306,33.9073],[-117.7852,33.9455],[-117.9773,33.9459],[-117.9984,33.882],[-118.0583,33.8464],[-118.1137,33.7425]]]},"properties":{"GID_0":"USA","GID_1":"USA.5_1","GID_2":"USA.5.30_1","NAME_1":"California","NAME_2":"Orange"}},
{"type":"Feature","geometry":{"type":"Polygon","coordinates":[[[-120.0023,39.0677],[-120.0047,39.3161],[-120.6457,39.315],[-120.7309,39.2866],[-120.8019,39.2351],[-120.9041,39.1759],[-120.9829,39.1093],[-121.0402,39.0148],[-121.0696,39.0053],[-121.133,39.0353],[-121.1876,39.0124],[-121.268,39.0308],[-121.295,39.0435],[-121.3034,39.0493],[-121.3392,39.0365],[-121.4141,39.0014],[-121.4139,38.9266],[-121.4684,38.9258],[-121.4701,38.7512],[-121.4849,38.751],[-121.485,38.7346],[-121.1447,38.712],[-121.0878,38.8338],[-121.0591,38.8459],[-121.0537,38.899],[-120.9563,38.9378],[-120.9379,38.9621],[-120.8572,38.9534],[-120.8514,38.9626],[-120.8315,38.9732],[-120.8283,38.9896],[-120.7314,39.0028],[-120.7236,38.9965],[-120.6762,38.9603],[-120.5708,38.9127],[-120.4692,38.9652],[-120.4357,39.0285],[-120.2396,39.0235],[-120.1633,39.0384],[-120.1422,39.068],[-120.0023,39.0677]]]},"properties":{"GID_0":"USA","GID_1":"USA.5_1","GID_2":"USA.5.31_1","NAME_1":"California","NAME_2":"Placer"}},
{"type":"Feature","geometry":{"type":"Polygon","coordinates":[[[-121.0759,39.5978],[-121.0311,39.6269],[-120.9743,39.653],[-120.9342,39.7056],[-120.936,39.7368],[-120.8721,39.7743],[-120.7539,39.7211],[-120.682,39.6783],[-120.6537,39.7053],[-120.4284,39.7099],[-120.1485,39.7089],[-120.1092,39.7948],[-120.1116,39.9399],[-120.2035,40.0133],[-120.2126,40.0844],[-120.2676,40.1145],[-120.3434,40.1144],[-120.3821,40.1292],[-120.4842,40.2055],[-120.4924,40.234],[-120.5781,40.285],[-120.6544,40.3065],[-120.7655,40.3141],[-120.8726,40.2404],[-120.8736,40.1982],[-120.9288,40.1917],[-120.9481,40.2196],[-121.0041,40.2198],[-121.0627,40.2559],[-121.0626,40.445],[-121.4994,40.4443],[-121.4708,40.3499],[-121.3787,40.3368],[-121.3569,40.261],[-121.3626,40.2259],[-121.4473,40.1757],[-121.4443,40.1508],[-121.4051,40.15],[-121.377,40.1078],[-121.3785,40.0516],[-121.4202,40.0151],[-121.4097,39.9586],[-121.4285,39.9007],[-121.3596,39.8564],[-121.3156,39.7976],[-121.2109,39.7261],[-121.1376,39.6582],[-121.1381,39.6287],[-121.0759,39.5978]]]},"properties":{"GID_0":"USA","GID_1":"USA.5_1","GID_2":"USA.5.32_1","NAME_1":"California","NAME_2":"Plumas"}},
{"type":"Feature","geometry":{"type":"Polygon","coordinates":[[[-114.4331,34.0856],[-114.787,34.0828],[-115.1928,34.084],[-115.3157,34.0813],[-115.3152,34.038],[-116.2611,34.0369],[-116.5817,34.0332],[-116.9299,34.0346],[-116.9303,34.0051],[-117.2269,34.0045],[-117.227,34.0186],[-117.3767,34.0191],[-117.3774,34.0328],[-117.5598,34.0328],[-117.5592,33.9887],[-117.6117,33.9718],[-117.6112,33.9254],[-117.6566,33.9244],[-117.6744,33.8737],[-117.5813,33.7676],[-117.5363,33.7568],[-117.5358,33.7113],[-117.473,33.703],[-117.414,33.6592],[-117.5104,33.5344],[-117.5101,33.5053],[-117.3652,33.5045],[-117.3711,33.4919],[-117.2419,33.4477],[-117.2412,33.4317],[-117.0307,33.4269],[-116.3897,33.4277],[-116.197,33.4296],[-116.0771,33.4269],[-115.8667,33.43],[-115.4659,33.4326],[-114.8288,33.4326],[-114.6243,33.4368],[-114.5917,33.5004],[-114.5247,33.5579],[-114.5295,33.6742],[-114.491,33.711],[-114.5253,33.816],[-114.5283,33.8562],[-114.5002,33.8796],[-114.5329,33.9316],[-114.4389,34.0226],[-114.4331,34.0856]]]},"properties":{"GID_0":"USA","GID_1":"USA.5_1","GID_2":"USA.5.33_1","NAME_1":"California","NAME_2":"Riverside"}},
{"type":"Feature","geometry":{"type":"Polygon","coordinates":[[[-121.0228,38.2983],[-121.0242,38.5068],[-121.117,38.7155],[-121.1447,38.712],[-121.5081,38.737],[-121.6054,38.7354],[-121.6348,38.6923],[-121.5606,38.6092],[-121.5368,38.6032],[-121.518,38.6026],[-121.5113,38.596],[-121.508,38.5842],[-121.5122,38.5438],[-121.5561,38.4923],[-121.5138,38.474],[-121.532,38.4283],[-121.5248,38.3596],[-121.5934,38.314],[-121.6146,38.1976],[-121.665,38.179],[-121.7125,38.0816],[-121.8046,38.055],[-121.7884,38.0199],[-121.7016,38.0501],[-121.6621,38.0979],[-121.6056,38.1075],[-121.5703,38.0981],[-121.5337,38.1513],[-121.529,38.194],[-121.4751,38.257],[-121.3453,38.2268],[-121.2821,38.2527],[-121.225,38.2422],[-121.1648,38.2516],[-121.068,38.3005],[-121.0228,38.2983]]]},"properties":{"GID_0":"USA","GID_1":"USA.5_1","GID_2":"USA.5.34_1","NAME_1":"California","NAME_2":"Sacramento"}},
{"type":"Feature","geometry":{"type":"Polygon","coordinates":[[[-120.9183,36.7414],[-121.138,36.8361],[-121.1839,36.9099],[-121.2232,36.9152],[-121.2116,36.9607],[-121.4195,36.9608],[-121.4869,36.9837],[-121.5187,36.9419],[-121.5803,36.8996],[-121.6434,36.8935],[-121.6401,36.8786],[-121.5081,36.7621],[-121.4491,36.7245],[-121.4653,36.6857],[-121.3624,36.6565],[-121.32,36.61],[-121.3279,36.5568],[-121.2384,36.5041],[-121.2292,36.4752],[-121.0412,36.3231],[-121.0257,36.2612],[-120.9199,36.3115],[-120.8642,36.2926],[-120.7467,36.1982],[-120.6799,36.266],[-120.6814,36.2859],[-120.6447,36.3176],[-120.5969,36.3275],[-120.597,36.4881],[-120.9183,36.7414]]]},"properties":{"GID_0":"USA","GID_1":"USA.5_1","GID_2":"USA.5.35_1","NAME_1":"California","NAME_2":"SanBenito"}},
{"type":"Feature","geometry":{"type":"Polygon","coordinates":[[[-114.4331,34.0856],[-114.41,34.1134],[-114.3164,34.1455],[-114.2521,34.1784],[-114.1556,34.2638],[-114.1378,34.3081],[-114.1845,34.3585],[-114.2225,34.3685],[-114.3354,34.4544],[-114.3849,34.4639],[-114.3789,34.5304],[-114.431,34.5925],[-114.4708,34.7152],[-114.5585,34.7796],[-114.5803,34.8307],[-114.635,34.8867],[-114.6329,35.0021],[-115.1563,35.4234],[-115.648,35.8111],[-115.7359,35.8116],[-115.7362,35.7953],[-116.3389,35.7929],[-116.6071,35.7965],[-117.0917,35.7946],[-117.6362,35.7958],[-117.636,35.0872],[-117.6351,34.8233],[-117.6704,34.8221],[-117.6693,34.5591],[-117.6474,34.2875],[-117.733,34.0211],[-117.7707,34.0221],[-117.8033,33.9762],[-117.7943,33.9533],[-117.7306,33.9073],[-117.6744,33.8737],[-117.6566,33.9244],[-117.6112,33.9254],[-117.6117,33.9718],[-117.5592,33.9887],[-117.5598,34.0328],[-117.3774,34.0328],[-117.3767,34.0191],[-117.227,34.0186],[-117.2269,34.0045],[-116.9303,34.0051],[-116.9299,34.0346],[-116.5817,34.0332],[-116.2611,34.0369],[-115.3152,34.038],[-115.3157,34.0813],[-115.1928,34.084],[-114.787,34.0828],[-114.4331,34.0856]]]},"properties":{"GID_0":"USA","GID_1":"USA.5_1","GID_2":"USA.5.36_1","NAME_1":"California","NAME_2":"SanBernardino"}},
{"type":"Feature","geometry":{"type":"Polygon","coordinates":[[[-117.5796,33.4533],[-117.5954,33.3872],[-117.5108,33.3381],[-117.4719,33.2989],[-117.3262,33.1189],[-117.2789,33.0005],[-117.2514,32.8744],[-117.2811,32.8214],[-117.2339,32.7697],[-117.255,32.7467],[-117.1211,32.675],[-117.0914,32.5978],[-117.1159,32.5919],[-117.1231,32.5344],[-116.106,32.6183],[-116.102,32.8135],[-116.1028,33.0749],[-116.0797,33.0755],[-116.0821,33.2363],[-116.0826,33.4271],[-116.197,33.4296],[-116.3897,33.4277],[-117.0307,33.4269],[-117.2412,33.4317],[-117.2419,33.4477],[-117.3711,33.4919],[-117.3652,33.5045],[-117.5101,33.5053],[-117.511,33.4698],[-117.5796,33.4533]]]},"properties":{"GID_0":"USA","GID_1":"USA.5_1","GID_2":"USA.5.37_1","NAME_1":"California","NAME_2":"SanDiego"}},
{"type":"Feature","geometry":{"type":"Polygon","coordinates":[[[-122.5021,37.7065],[-122.3875,37.7089],[-122.3661,37.7331],[-122.4089,37.8117],[-122.5153,37.7811],[-122.5021,37.7065]]]},"properties":{"GID_0":"USA","GID_1":"USA.5_1","GID_2":"USA.5.38_1","NAME_1":"California","NAME_2":"SanFrancisco"}},
{"type":"Feature","geometry":{"type":"Polygon","coordinates":[[[-121.4707,37.4819],[-121.2012,37.6963],[-121.0864,37.7413],[-121.0462,37.7378],[-120.989,37.7598],[-120.9212,37.7425],[-120.9264,37.8956],[-120.9259,38.0779],[-120.9383,38.0886],[-121.0228,38.2983],[-121.068,38.3005],[-121.1648,38.2516],[-121.225,38.2422],[-121.2821,38.2527],[-121.3453,38.2268],[-121.4751,38.257],[-121.529,38.194],[-121.5337,38.1513],[-121.5703,38.0981],[-121.5655,38.0964],[-121.5809,38.063],[-121.5598,38.019],[-121.584,37.985],[-121.5542,37.9221],[-121.5791,37.8736],[-121.5365,37.8494],[-121.5356,37.838],[-121.5577,37.8173],[-121.5576,37.5416],[-121.5506,37.5399],[-121.5044,37.5262],[-121.4707,37.4819]]]},"properties":{"GID_0":"USA","GID_1":"USA.5_1","GID_2":"USA.5.39_1","NAME_1":"California","NAME_2":"SanJoaquin"}},
{"type":"Feature","geometry":{"type":"Polygon","coordinates":[[[-120.1951,35.6151],[-120.1945,35.788],[-120.7264,35.7901],[-121.1104,35.7937],[-121.3533,35.7996],[-121.317,35.7548],[-121.3148,35.714],[-121.2788,35.6673],[-121.1719,35.6382],[-121.1266,35.596],[-121.0977,35.547],[-121.0059,35.4617],[-120.9087,35.4482],[-120.8733,35.4122],[-120.8669,35.3394],[-120.8982,35.2466],[-120.8531,35.2045],[-120.7877,35.1774],[-120.7002,35.1713],[-120.647,35.1446],[-120.6286,35.0961],[-120.6403,34.9648],[-120.6342,34.9649],[-120.5854,34.9667],[-120.4982,34.9951],[-120.4347,34.9875],[-120.302,34.9081],[-120.2974,34.9513],[-120.3372,34.9996],[-120.2567,35.0274],[-120.191,35.0355],[-120.1711,35.0747],[-120.0945,35.1146],[-119.9958,35.0642],[-119.9283,35.0563],[-119.8513,35.0293],[-119.8338,35.0071],[-119.7467,34.9747],[-119.6709,34.9729],[-119.5385,34.8991],[-119.4909,34.8999],[-119.4746,34.9004],[-119.4745,35.077],[-119.5628,35.0883],[-119.5549,35.1791],[-119.6675,35.175],[-119.6688,35.2617],[-119.8113,35.2641],[-119.8122,35.3508],[-119.8815,35.3501],[-119.8831,35.4377],[-119.9999,35.4396],[-120.0007,35.4695],[-120.0875,35.5276],[-120.0876,35.6139],[-120.1951,35.6151]]]},"properties":{"GID_0":"USA","GID_1":"USA.5_1","GID_2":"USA.5.40_1","NAME_1":"California","NAME_2":"SanLuisObispo"}},
{"type":"Feature","geometry":{"type":"Polygon","coordinates":[[[-122.1033,37.4564],[-122.1383,37.4831],[-122.2108,37.4919],[-122.2012,37.5396],[-122.2622,37.5744],[-122.3608,37.5928],[-122.3892,37.6328],[-122.3928,37.7079],[-122.5021,37.7065],[-122.4936,37.6275],[-122.5194,37.5378],[-122.4989,37.5008],[-122.4475,37.4739],[-122.4431,37.4332],[-122.401,37.3593],[-122.4192,37.2478],[-122.4058,37.1972],[-122.3608,37.1631],[-122.3385,37.12],[-122.2945,37.1084],[-122.3205,37.1876],[-122.2455,37.1911],[-122.2447,37.217],[-122.1539,37.2163],[-122.1517,37.2862],[-122.1548,37.292],[-122.2021,37.3658],[-122.1886,37.4259],[-122.1805,37.4411],[-122.1658,37.4532],[-122.1457,37.4573],[-122.1033,37.4564]]]},"properties":{"GID_0":"USA","GID_1":"USA.5_1","GID_2":"USA.5.41_1","NAME_1":"California","NAME_2":"SanMateo"}},
{"type":"Feature","geometry":{"type":"MultiPolygon","coordinates":[[[[-119.915,34.0773],[-119.8764,34.0322],[-119.8881,34.0069],[-119.8504,33.9674],[-119.7208,33.9589],[-119.6637,33.9851],[-119.5603,33.9956],[-119.5325,34.0431],[-119.5862,34.0539],[-119.6331,34.0128],[-119.7114,34.0431],[-119.8571,34.0725],[-119.915,34.0773]]],[[[-120.0523,34.0375],[-120.0889,34.0206],[-120.1394,34.0273],[-120.175,34.0064],[-120.2472,34.0017],[-120.1606,33.9161],[-120.1203,33.8942],[-119.971,33.9413],[-119.9814,33.9798],[-120.0466,34],[-120.0523,34.0375]]],[[[-120.3656,34.0757],[-120.4097,34.0323],[-120.3604,34.0134],[-120.3656,34.0757]]],[[[-119.4438,34.8999],[-119.4909,34.8999],[-119.5385,34.8991],[-119.6709,34.9729],[-119.7467,34.9747],[-119.8338,35.0071],[-119.8513,35.0293],[-119.9283,35.0563],[-119.9958,35.0642],[-120.0945,35.1146],[-120.1711,35.0747],[-120.191,35.0355],[-120.2567,35.0274],[-120.3372,34.9996],[-120.2974,34.9513],[-120.302,34.9081],[-120.4347,34.9875],[-120.4982,34.9951],[-120.5854,34.9667],[-120.6342,34.9649],[-120.6403,34.9648],[-120.6675,34.9297],[-120.6097,34.8436],[-120.6386,34.7564],[-120.6006,34.7059],[-120.6464,34.5789],[-120.5147,34.5253],[-120.4725,34.4486],[-120.3422,34.4569],[-120.2967,34.4706],[-120.1214,34.4705],[-120.007,34.4603],[-119.9281,34.4353],[-119.8783,34.4064],[-119.7817,34.4156],[-119.7281,34.3956],[-119.6875,34.4131],[-119.5607,34.4145],[-119.4812,34.3769],[-119.4447,34.4353],[-119.4438,34.8999]]]]},"properties":{"GID_0":"USA","GID_1":"USA.5_1","GID_2":"USA.5.42_1","NAME_1":"California","NAME_2":"SantaBarbara"}},
{"type":"Feature","geometry":{"type":"Polygon","coordinates":[[[-121.9909,37.4626],[-122.0637,37.4452],[-122.1033,37.4564],[-122.1457,37.4573],[-122.1658,37.4532],[-122.1805,37.4411],[-122.1886,37.4259],[-122.2021,37.3658],[-122.1548,37.292],[-122.1426,37.2732],[-122.0947,37.2253],[-122.0584,37.2129],[-121.9914,37.1458],[-121.839,37.094],[-121.7541,37.0516],[-121.6899,36.968],[-121.6516,36.9396],[-121.5801,36.919],[-121.5803,36.8996],[-121.5187,36.9419],[-121.4869,36.9837],[-121.4195,36.9608],[-121.2116,36.9607],[-121.2424,36.9748],[-121.2478,37.0314],[-121.2266,37.1369],[-121.2808,37.1819],[-121.3215,37.1691],[-121.3646,37.1843],[-121.3856,37.1681],[-121.4553,37.2491],[-121.4421,37.2991],[-121.4067,37.3187],[-121.4721,37.4243],[-121.4707,37.4819],[-121.8653,37.4848],[-121.9234,37.4542],[-121.9614,37.4629],[-121.9828,37.4615],[-121.9909,37.4626]]]},"properties":{"GID_0":"USA","GID_1":"USA.5_1","GID_2":"USA.5.43_1","NAME_1":"California","NAME_2":"SantaClara"}},
{"type":"Feature","geometry":{"type":"Polygon","coordinates":[[[-121.6434,36.8935],[-121.5803,36.8996],[-121.5801,36.919],[-121.6516,36.9396],[-121.6899,36.968],[-121.7541,37.0516],[-121.839,37.094],[-121.9914,37.1458],[-122.0584,37.2129],[-122.0947,37.2253],[-122.1426,37.2732],[-122.1517,37.2862],[-122.1539,37.2163],[-122.2447,37.217],[-122.2455,37.1911],[-122.3205,37.1876],[-122.2945,37.1084],[-122.2231,37.0242],[-122.1065,36.9556],[-121.9722,36.9536],[-121.9398,36.9777],[-121.8663,36.9366],[-121.8074,36.856],[-121.7458,36.9089],[-121.646,36.9021],[-121.6434,36.8935]]]},"properties":{"GID_0":"USA","GID_1":"USA.5_1","GID_2":"USA.5.44_1","NAME_1":"California","NAME_2":"SantaCruz"}},
{"type":"Feature","geometry":{"type":"Polygon","coordinates":[[[-121.3323,41.1841],[-122.0014,41.1832],[-122.4986,41.1852],[-122.499,41.1811],[-122.4563,41.1676],[-122.4559,41.1008],[-122.5158,41.0886],[-122.5309,41.0128],[-122.6028,40.9721],[-122.6029,40.9053],[-122.6435,40.8463],[-122.6712,40.7729],[-122.7182,40.7386],[-122.753,40.6896],[-122.709,40.6281],[-122.7011,40.5866],[-122.7797,40.5446],[-122.7946,40.5143],[-122.8444,40.5062],[-122.8997,40.4466],[-122.9951,40.4195],[-122.9975,40.3954],[-123.0604,40.3492],[-123.0627,40.2865],[-122.9808,40.3137],[-122.9184,40.3082],[-122.8549,40.3421],[-122.7467,40.3658],[-122.675,40.3295],[-122.6336,40.3333],[-122.526,40.3867],[-122.4367,40.3729],[-122.3075,40.3722],[-122.2296,40.3894],[-122.2021,40.3786],[-122.13,40.4051],[-122.0111,40.4252],[-121.9383,40.4148],[-121.8791,40.4341],[-121.7845,40.4422],[-121.6702,40.4373],[-121.5992,40.4244],[-121.5617,40.446],[-121.4994,40.4443],[-121.3272,40.4451],[-121.3243,40.4982],[-121.3226,40.9043],[-121.3336,40.9041],[-121.3323,41.1841]]]},"properties":{"GID_0":"USA","GID_1":"USA.5_1","GID_2":"USA.5.45_1","NAME_1":"California","NAME_2":"Shasta"}},
{"type":"Feature","geometry":{"type":"Polygon","coordinates":[[[-120.1485,39.7089],[-120.4284,39.7099],[-120.6537,39.7053],[-120.682,39.6783],[-120.7539,39.7211],[-120.8721,39.7743],[-120.936,39.7368],[-120.9342,39.7056],[-120.9743,39.653],[-121.0093,39.6376],[-121.0232,39.5612],[-121.0603,39.5368],[-121.0323,39.5149],[-121.0197,39.3949],[-120.9962,39.4124],[-120.7925,39.4419],[-120.728,39.4697],[-120.6645,39.5216],[-120.5528,39.5085],[-120.506,39.4473],[-120.0032,39.448],[-120.0021,39.7238],[-120.0182,39.71],[-120.1485,39.7089]]]},"properties":{"GID_0":"USA","GID_1":"USA.5_1","GID_2":"USA.5.46_1","NAME_1":"California","NAME_2":"Sierra"}},
{"type":"Feature","geometry":{"type":"Polygon","coordinates":[[[-123.6591,41.3821],[-123.5445,41.3816],[-123.4743,41.3639],[-123.4644,41.3183],[-123.4559,41.2981],[-123.409,41.1801],[-123.2982,41.1421],[-123.241,41.0762],[-123.1135,41.0762],[-123.0678,41.053],[-123.0343,41.0049],[-122.899,41.0294],[-122.9714,41.1124],[-122.9348,41.1765],[-122.8915,41.2022],[-122.806,41.203],[-122.7285,41.2459],[-122.629,41.3319],[-122.5583,41.3649],[-122.5303,41.3424],[-122.5058,41.3421],[-122.5184,41.207],[-122.4977,41.1929],[-122.4986,41.1852],[-122.0014,41.1832],[-121.4459,41.1847],[-121.4493,41.7757],[-121.4579,41.9504],[-121.4469,41.9981],[-121.8758,42.003],[-122.3503,42.0098],[-122.5968,42.0058],[-123.0508,42.0028],[-123.1379,42.0084],[-123.3361,41.9987],[-123.5198,41.9994],[-123.5624,41.904],[-123.703,41.8291],[-123.6784,41.7381],[-123.6594,41.7187],[-123.7159,41.6033],[-123.6845,41.5929],[-123.6846,41.5421],[-123.6498,41.5364],[-123.6121,41.4585],[-123.6591,41.3821]]]},"properties":{"GID_0":"USA","GID_1":"USA.5_1","GID_2":"USA.5.47_1","NAME_1":"California","NAME_2":"Siskiyou"}},
{"type":"Feature","geometry":{"type":"Polygon","coordinates":[[[-122.1966,38.1562],[-122.3693,38.1564],[-122.4042,38.1511],[-122.3139,38.1092],[-122.2742,38.0661],[-122.1883,38.07],[-122.1319,38.0425],[-122.0442,38.1369],[-121.9733,38.0736],[-121.9122,38.0835],[-121.9021,38.0495],[-121.8355,38.0712],[-121.7996,38.0628],[-121.71,38.1166],[-121.665,38.179],[-121.6146,38.1976],[-121.5934,38.314],[-121.6949,38.3158],[-121.6947,38.5257],[-121.7122,38.539],[-121.8195,38.5257],[-121.8605,38.5385],[-121.9409,38.532],[-122.01,38.4893],[-122.0827,38.5141],[-122.1054,38.5091],[-122.1267,38.4284],[-122.0652,38.3341],[-122.0611,38.3178],[-122.2083,38.316],[-122.1925,38.2203],[-122.2148,38.1894],[-122.1966,38.1562]]]},"properties":{"GID_0":"USA","GID_1":"USA.5_1","GID_2":"USA.5.48_1","NAME_1":"California","NAME_2":"Solano"}},
{"type":"Feature","geometry":{"type":"Polygon","coordinates":[[[-122.8087,38.8378],[-122.8181,38.8502],[-123.0796,38.8525],[-123.1392,38.8395],[-123.1383,38.8091],[-123.3698,38.8057],[-123.3718,38.7775],[-123.4995,38.7794],[-123.5308,38.764],[-123.4611,38.7164],[-123.3333,38.5644],[-123.1306,38.4523],[-123.0647,38.3536],[-123.0789,38.3211],[-122.9951,38.3003],[-122.9619,38.3171],[-122.8911,38.3104],[-122.7399,38.207],[-122.6265,38.1782],[-122.5691,38.1839],[-122.5205,38.1429],[-122.5005,38.1134],[-122.4433,38.1164],[-122.4042,38.1511],[-122.3693,38.1564],[-122.3524,38.2035],[-122.3957,38.3063],[-122.4449,38.3773],[-122.4996,38.4231],[-122.5473,38.5239],[-122.6183,38.5612],[-122.6465,38.5999],[-122.6258,38.6675],[-122.6445,38.7038],[-122.6933,38.7139],[-122.7462,38.8018],[-122.8087,38.8378]]]},"properties":{"GID_0":"USA","GID_1":"USA.5_1","GID_2":"USA.5.49_1","NAME_1":"California","NAME_2":"Sonoma"}},
{"type":"Feature","geometry":{"type":"Polygon","coordinates":[[[-120.9259,38.0779],[-120.9264,37.8956],[-120.9212,37.7425],[-120.989,37.7598],[-121.0462,37.7378],[-121.0864,37.7413],[-121.2012,37.6963],[-121.4707,37.4819],[-121.4721,37.4243],[-121.4067,37.3187],[-121.4421,37.2991],[-121.4553,37.2491],[-121.3856,37.1681],[-121.3646,37.1843],[-121.3215,37.1691],[-121.2808,37.1819],[-121.2266,37.1369],[-120.9662,37.3434],[-120.9858,37.399],[-120.3873,37.6347],[-120.6542,37.8323],[-120.7258,37.8987],[-120.9259,38.0779]]]},"properties":{"GID_0":"USA","GID_1":"USA.5_1","GID_2":"USA.5.50_1","NAME_1":"California","NAME_2":"Stanislaus"}},
{"type":"Feature","geometry":{"type":"Polygon","coordinates":[[[-121.9086,39.3052],[-121.9454,39.2482],[-121.9426,39.1839],[-121.9337,39.1655],[-121.8717,39.0679],[-121.8475,39.0701],[-121.8158,39.0055],[-121.8351,38.9248],[-121.7925,38.9043],[-121.7816,38.8583],[-121.7308,38.8601],[-121.7196,38.8023],[-121.6612,38.7662],[-121.6251,38.7845],[-121.6054,38.7354],[-121.5081,38.737],[-121.485,38.7346],[-121.4849,38.751],[-121.4701,38.7512],[-121.4684,38.9258],[-121.4139,38.9266],[-121.4141,39.0014],[-121.4856,38.993],[-121.5795,38.9448],[-121.6072,39.0636],[-121.597,39.1],[-121.6134,39.2153],[-121.6345,39.244],[-121.6253,39.2949],[-121.6298,39.3066],[-121.9086,39.3052]]]},"properties":{"GID_0":"USA","GID_1":"USA.5_1","GID_2":"USA.5.51_1","NAME_1":"California","NAME_2":"Sutter"}},
{"type":"Feature","geometry":{"type":"Polygon","coordinates":[[[-121.4443,40.1508],[-121.4473,40.1757],[-121.3626,40.2259],[-121.3569,40.261],[-121.3787,40.3368],[-121.4708,40.3499],[-121.4994,40.4443],[-121.5617,40.446],[-121.5992,40.4244],[-121.6702,40.4373],[-121.7845,40.4422],[-121.8791,40.4341],[-121.9383,40.4148],[-122.0111,40.4252],[-122.13,40.4051],[-122.2021,40.3786],[-122.2296,40.3894],[-122.3075,40.3722],[-122.4367,40.3729],[-122.526,40.3867],[-122.6336,40.3333],[-122.675,40.3295],[-122.7467,40.3658],[-122.8549,40.3421],[-122.9184,40.3082],[-122.9808,40.3137],[-123.0627,40.2865],[-122.9818,40.2479],[-122.9693,40.1389],[-122.9408,39.9954],[-122.9244,39.9677],[-122.9259,39.9486],[-122.909,39.9341],[-122.9485,39.9077],[-122.9421,39.7989],[-122.717,39.8008],[-122.59,39.7995],[-122.0456,39.8008],[-122.0646,39.8127],[-122.0408,39.8844],[-121.8956,39.8831],[-121.7759,39.8895],[-121.7021,39.9842],[-121.6456,39.9829],[-121.6361,40.0257],[-121.5955,40.0536],[-121.5854,40.1],[-121.5006,40.1005],[-121.4443,40.1508]]]},"properties":{"GID_0":"USA","GID_1":"USA.5_1","GID_2":"USA.5.52_1","NAME_1":"California","NAME_2":"Tehama"}},
{"type":"Feature","geometry":{"type":"Polygon","coordinates":[[[-123.5438,40.0038],[-123.5429,39.978],[-122.9339,39.9784],[-122.9336,39.9829],[-122.9408,39.9954],[-122.9693,40.1389],[-122.9818,40.2479],[-123.0627,40.2865],[-123.0604,40.3492],[-122.9975,40.3954],[-122.9951,40.4195],[-122.8997,40.4466],[-122.8444,40.5062],[-122.7946,40.5143],[-122.7797,40.5446],[-122.7011,40.5866],[-122.709,40.6281],[-122.753,40.6896],[-122.7182,40.7386],[-122.6712,40.7729],[-122.6435,40.8463],[-122.6029,40.9053],[-122.6028,40.9721],[-122.5309,41.0128],[-122.5158,41.0886],[-122.4559,41.1008],[-122.4563,41.1676],[-122.499,41.1811],[-122.4977,41.1929],[-122.5184,41.207],[-122.5058,41.3421],[-122.5303,41.3424],[-122.5583,41.3649],[-122.629,41.3319],[-122.7285,41.2459],[-122.806,41.203],[-122.8915,41.2022],[-122.9348,41.1765],[-122.9714,41.1124],[-122.899,41.0294],[-123.0343,41.0049],[-123.0678,41.053],[-123.1135,41.0762],[-123.241,41.0762],[-123.2982,41.1421],[-123.409,41.1801],[-123.4508,41.0644],[-123.408,41.0303],[-123.4447,40.9451],[-123.479,40.9159],[-123.6195,40.9346],[-123.5985,40.8781],[-123.5594,40.8421],[-123.5413,40.7392],[-123.5466,40.502],[-123.5438,40.0038]]]},"properties":{"GID_0":"USA","GID_1":"USA.5_1","GID_2":"USA.5.53_1","NAME_1":"California","NAME_2":"Trinity"}},
{"type":"Feature","geometry":{"type":"Polygon","coordinates":[[[-119.5776,36.4886],[-119.5284,36.4886],[-119.529,36.4015],[-119.4758,36.401],[-119.4775,36.2682],[-119.5289,36.2691],[-119.5368,36.138],[-119.5395,35.79],[-118.5233,35.7892],[-118.4706,35.7919],[-118.009,35.7861],[-118.0094,35.8555],[-117.9842,35.8929],[-118.0053,35.9784],[-118.0332,36.0051],[-118.069,36.0963],[-118.0618,36.1751],[-118.1099,36.2247],[-118.1266,36.2793],[-118.1065,36.3476],[-118.1623,36.3913],[-118.1599,36.4298],[-118.2131,36.4308],[-118.2413,36.5187],[-118.2894,36.5586],[-118.2819,36.5957],[-118.3478,36.6735],[-118.3362,36.7151],[-118.3644,36.7471],[-118.5552,36.7388],[-118.9847,36.7428],[-118.9853,36.6589],[-119.3048,36.6603],[-119.3056,36.5746],[-119.4706,36.5756],[-119.5776,36.4886]]]},"properties":{"GID_0":"USA","GID_1":"USA.5_1","GID_2":"USA.5.54_1","NAME_1":"California","NAME_2":"Tulare"}},
{"type":"Feature","geometry":{"type":"Polygon","coordinates":[[[-120.0169,38.4363],[-120.0929,38.4002],[-120.1533,38.3858],[-120.2666,38.2705],[-120.2902,38.2345],[-120.4087,38.1023],[-120.4654,38.0103],[-120.5346,37.9898],[-120.509,37.956],[-120.5418,37.9213],[-120.6348,37.8606],[-120.6542,37.8323],[-120.3873,37.6347],[-120.3675,37.681],[-120.3241,37.6505],[-120.3091,37.6565],[-120.3068,37.6669],[-120.3098,37.6742],[-120.3436,37.7265],[-120.2628,37.7375],[-120.202,37.7646],[-120.1743,37.7983],[-120.1258,37.7836],[-120.079,37.8287],[-120.0253,37.8122],[-119.9429,37.7644],[-119.8422,37.7711],[-119.8072,37.7549],[-119.745,37.7836],[-119.6672,37.8006],[-119.6562,37.8315],[-119.5984,37.8617],[-119.5885,37.8903],[-119.5383,37.9021],[-119.5057,37.8695],[-119.4264,37.864],[-119.4025,37.8332],[-119.3146,37.7937],[-119.3048,37.7701],[-119.288,37.7451],[-119.2682,37.7396],[-119.2028,37.7957],[-119.2292,37.9068],[-119.3096,37.945],[-119.3049,38.0238],[-119.3451,38.0827],[-119.3979,38.1063],[-119.4635,38.0976],[-119.4698,38.1287],[-119.5753,38.1577],[-119.6269,38.1935],[-119.6211,38.2506],[-119.6452,38.2796],[-119.6365,38.3286],[-119.6986,38.3652],[-119.6967,38.4089],[-119.751,38.4168],[-119.8793,38.3597],[-120.0169,38.4363]]]},"properties":{"GID_0":"USA","GID_1":"USA.5_1","GID_2":"USA.5.55_1","NAME_1":"California","NAME_2":"Tuolumne"}},
{"type":"Feature","geometry":{"type":"MultiPolygon","coordinates":[[[[-119.5247,33.2834],[-119.5467,33.2346],[-119.4704,33.2144],[-119.4598,33.2563],[-119.5247,33.2834]]],[[[-119.3849,34.899],[-119.4438,34.8999],[-119.4447,34.4353],[-119.4812,34.3769],[-119.4297,34.3556],[-119.3903,34.3181],[-119.2781,34.2669],[-119.2133,34.1453],[-119.1439,34.1083],[-119.0392,34.0839],[-118.9459,34.0457],[-118.9414,34.0741],[-118.7885,34.1687],[-118.6703,34.1683],[-118.6695,34.2401],[-118.6335,34.2817],[-118.7907,34.6012],[-118.8825,34.791],[-118.9772,34.7902],[-118.9771,34.8126],[-119.2462,34.8147],[-119.2461,34.857],[-119.2779,34.8793],[-119.3844,34.8794],[-119.3849,34.899]]]]},"properties":{"GID_0":"USA","GID_1":"USA.5_1","GID_2":"USA.5.56_1","NAME_1":"California","NAME_2":"Ventura"}},
{"type":"Feature","geometry":{"type":"Polygon","coordinates":[[[-122.3386,38.9248],[-122.4037,38.9246],[-122.3925,38.8668],[-122.396,38.8636],[-122.3806,38.8494],[-122.3547,38.8373],[-122.2862,38.8394],[-122.2226,38.7188],[-122.2156,38.689],[-122.1592,38.644],[-122.1322,38.6006],[-122.1054,38.5091],[-122.0827,38.5141],[-122.01,38.4893],[-121.9409,38.532],[-121.8605,38.5385],[-121.8195,38.5257],[-121.7122,38.539],[-121.6947,38.5257],[-121.6949,38.3158],[-121.5934,38.314],[-121.5248,38.3596],[-121.532,38.4283],[-121.5138,38.474],[-121.5561,38.4923],[-121.5122,38.5438],[-121.508,38.5842],[-121.5113,38.596],[-121.518,38.6026],[-121.5368,38.6032],[-121.5606,38.6092],[-121.6348,38.6923],[-121.6054,38.7354],[-121.6251,38.7845],[-121.6612,38.7662],[-121.7196,38.8023],[-121.7308,38.8601],[-121.7816,38.8583],[-121.7925,38.9043],[-121.8351,38.9248],[-122.3386,38.9248]]]},"properties":{"GID_0":"USA","GID_1":"USA.5_1","GID_2":"USA.5.57_1","NAME_1":"California","NAME_2":"Yolo"}},
{"type":"Feature","geometry":{"type":"Polygon","coordinates":[[[-121.6253,39.2949],[-121.6345,39.244],[-121.6134,39.2153],[-121.597,39.1],[-121.6072,39.0636],[-121.5795,38.9448],[-121.4856,38.993],[-121.4141,39.0014],[-121.3392,39.0365],[-121.3034,39.0493],[-121.295,39.0435],[-121.2788,39.0365],[-121.2794,39.2287],[-121.2655,39.2706],[-121.2183,39.2831],[-121.1979,39.3291],[-121.081,39.3946],[-121.034,39.3956],[-121.0226,39.3908],[-121.0197,39.3949],[-121.0323,39.5149],[-121.0603,39.5368],[-121.0232,39.5612],[-121.0093,39.6376],[-121.0311,39.6269],[-121.0759,39.5978],[-121.1484,39.5565],[-121.1483,39.5279],[-121.3038,39.5199],[-121.3331,39.4274],[-121.3709,39.3679],[-121.407,39.3397],[-121.4747,39.3332],[-121.6253,39.2949]]]},"properties":{"GID_0":"USA","GID_1":"USA.5_1","GID_2":"USA.5.58_1","NAME_1":"California","NAME_2":"Yuba"}}
]}