{"type":"FeatureCollection", "features": [
{"type":"Feature","geometry":{"type":"Polygon","coordinates":[[[-85.074,40.9181],[-85.0689,40.5688],[-84.8037,40.5723],[-84.8026,40.9221],[-84.8799,40.9199],[-85.074,40.9181]]]},"properties":{"GID_0":"USA","GID_1":"USA.15_1","GID_2":"USA.15.1_1","NAME_1":"Indiana","NAME_2":"Adams"}},
{"type":"Feature","geometry":{"type":"Polygon","coordinates":[[[-84.8026,40.9221],[-84.8049,41.2702],[-85.1935,41.2643],[-85.309,41.265],[-85.3397,41.1781],[-85.3346,41.0061],[-85.3349,40.9172],[-84.998,40.9186],[-84.8026,40.9221]]]},"properties":{"GID_0":"USA","GID_1":"USA.15_1","GID_2":"USA.15.2_1","NAME_1":"Indiana","NAME_2":"Allen"}},
{"type":"Feature","geometry":{"type":"Polygon","coordinates":[[[-86.0805,39.0501],[-86.08,39.0361],[-85.8608,39.041],[-85.7983,39.0683],[-85.7989,39.1291],[-85.688,39.1307],[-85.6849,39.3505],[-85.7998,39.3507],[-85.914,39.3472],[-86.0854,39.3452],[-86.0805,39.0501]]]},"properties":{"GID_0":"USA","GID_1":"USA.15_1","GID_2":"USA.15.3_1","NAME_1":"Indiana","NAME_2":"Bartholomew"}},
{"type":"Feature","geometry":{"type":"Polygon","coordinates":[[[-87.5263,40.7378],[-87.5262,40.4793],[-87.0934,40.4761],[-87.0987,40.7383],[-87.5263,40.7378]]]},"properties":{"GID_0":"USA","GID_1":"USA.15_1","GID_2":"USA.15.4_1","NAME_1":"Indiana","NAME_2":"Benton"}},
{"type":"Feature","geometry":{"type":"Polygon","coordinates":[[[-85.2205,40.379],[-85.2008,40.5679],[-85.4453,40.567],[-85.4451,40.3792],[-85.2205,40.379]]]},"properties":{"GID_0":"USA","GID_1":"USA.15_1","GID_2":"USA.15.5_1","NAME_1":"Indiana","NAME_2":"Blackford"}},
{"type":"Feature","geometry":{"type":"Polygon","coordinates":[[[-86.6962,40.1785],[-86.6937,39.9228],[-86.3267,39.9238],[-86.2385,39.9259],[-86.2417,40.0419],[-86.2424,40.1807],[-86.6962,40.1785]]]},"properties":{"GID_0":"USA","GID_1":"USA.15_1","GID_2":"USA.15.6_1","NAME_1":"Indiana","NAME_2":"Boone"}},
{"type":"Feature","geometry":{"type":"Polygon","coordinates":[[[-86.0854,39.3452],[-86.3816,39.3399],[-86.3723,39.252],[-86.3702,39.0485],[-86.3181,39.0489],[-86.0805,39.0501],[-86.0854,39.3452]]]},"properties":{"GID_0":"USA","GID_1":"USA.15_1","GID_2":"USA.15.7_1","NAME_1":"Indiana","NAME_2":"Brown"}},
{"type":"Feature","geometry":{"type":"Polygon","coordinates":[[[-86.3756,40.4317],[-86.3739,40.6924],[-86.5248,40.6925],[-86.5237,40.7347],[-86.7529,40.7376],[-86.7721,40.6659],[-86.7717,40.563],[-86.696,40.5631],[-86.6951,40.432],[-86.3756,40.4317]]]},"properties":{"GID_0":"USA","GID_1":"USA.15_1","GID_2":"USA.15.8_1","NAME_1":"Indiana","NAME_2":"Carroll"}},
{"type":"Feature","geometry":{"type":"Polygon","coordinates":[[[-86.3748,40.5614],[-86.1654,40.5633],[-86.1707,40.7157],[-86.1694,40.7424],[-86.1692,40.9098],[-86.4672,40.9093],[-86.5797,40.912],[-86.5819,40.7356],[-86.5237,40.7347],[-86.5248,40.6925],[-86.3739,40.6924],[-86.3748,40.5614]]]},"properties":{"GID_0":"USA","GID_1":"USA.15_1","GID_2":"USA.15.9_1","NAME_1":"Indiana","NAME_2":"Cass"}},
{"type":"Feature","geometry":{"type":"Polygon","coordinates":[[[-85.7923,38.2874],[-85.7432,38.2689],[-85.6517,38.3277],[-85.5981,38.4442],[-85.5047,38.4645],[-85.4235,38.5313],[-85.4279,38.5861],[-85.4971,38.6071],[-85.7939,38.6046],[-85.8479,38.5632],[-85.8849,38.5032],[-85.9938,38.4887],[-85.9949,38.403],[-85.8082,38.4044],[-85.7612,38.3502],[-85.7923,38.2874]]]},"properties":{"GID_0":"USA","GID_1":"USA.15_1","GID_2":"USA.15.10_1","NAME_1":"Indiana","NAME_2":"Clark"}},
{"type":"Feature","geometry":{"type":"Polygon","coordinates":[[[-87.0549,39.1701],[-87.0532,39.3433],[-86.9426,39.3424],[-86.9404,39.4734],[-87.0125,39.4736],[-87.011,39.6041],[-87.1992,39.6082],[-87.2001,39.5207],[-87.2359,39.521],[-87.2383,39.1728],[-87.0549,39.1701]]]},"properties":{"GID_0":"USA","GID_1":"USA.15_1","GID_2":"USA.15.11_1","NAME_1":"Indiana","NAME_2":"Clay"}},
{"type":"Feature","geometry":{"type":"Polygon","coordinates":[[[-86.2424,40.1807],[-86.2435,40.2152],[-86.2423,40.3734],[-86.2803,40.3735],[-86.3093,40.388],[-86.3098,40.4316],[-86.6951,40.432],[-86.6962,40.1785],[-86.2424,40.1807]]]},"properties":{"GID_0":"USA","GID_1":"USA.15_1","GID_2":"USA.15.12_1","NAME_1":"Indiana","NAME_2":"Clinton"}},
{"type":"Feature","geometry":{"type":"Polygon","coordinates":[[[-86.2544,38.4224],[-86.3091,38.4225],[-86.3068,38.3971],[-86.6814,38.3976],[-86.6799,38.2634],[-86.5715,38.2645],[-86.572,38.2082],[-86.4613,38.2083],[-86.4631,38.1137],[-86.406,38.1059],[-86.3198,38.1465],[-86.3314,38.18],[-86.2774,38.2271],[-86.2578,38.2837],[-86.2525,38.295],[-86.2601,38.2973],[-86.2894,38.3164],[-86.2458,38.3879],[-86.2522,38.407],[-86.2645,38.412],[-86.2592,38.4152],[-86.2544,38.4224]]]},"properties":{"GID_0":"USA","GID_1":"USA.15_1","GID_2":"USA.15.13_1","NAME_1":"Indiana","NAME_2":"Crawford"}},
{"type":"Feature","geometry":{"type":"Polygon","coordinates":[[[-86.924,38.5048],[-86.9229,38.8189],[-86.9046,38.8195],[-86.9062,38.9069],[-87.0191,38.9051],[-87.0978,38.9066],[-87.1404,38.8438],[-87.1947,38.8318],[-87.1982,38.8281],[-87.2578,38.7688],[-87.2794,38.6935],[-87.2436,38.6443],[-87.242,38.545],[-87.1825,38.5476],[-87.1517,38.5156],[-87.0723,38.5147],[-86.924,38.5048]]]},"properties":{"GID_0":"USA","GID_1":"USA.15_1","GID_2":"USA.15.14_1","NAME_1":"Indiana","NAME_2":"Daviess"}},
{"type":"Feature","geometry":{"type":"Polygon","coordinates":[[[-84.8049,41.2702],[-84.8063,41.5303],[-85.1947,41.5276],[-85.1935,41.2643],[-84.8049,41.2702]]]},"properties":{"GID_0":"USA","GID_1":"USA.15_1","GID_2":"USA.15.15_1","NAME_1":"Indiana","NAME_2":"DeKalb"}},
{"type":"Feature","geometry":{"type":"Polygon","coordinates":[[[-85.0652,39.3082],[-85.1222,39.0006],[-85.135,38.9481],[-85.1128,38.9361],[-85.0962,38.9355],[-84.9985,38.996],[-84.9134,39.0189],[-84.8987,39.0133],[-84.8752,39.0334],[-84.8884,39.065],[-84.8191,39.1069],[-84.8191,39.3056],[-85.0652,39.3082]]]},"properties":{"GID_0":"USA","GID_1":"USA.15_1","GID_2":"USA.15.16_1","NAME_1":"Indiana","NAME_2":"Dearborn"}},
{"type":"Feature","geometry":{"type":"Polygon","coordinates":[[[-85.688,39.1307],[-85.5664,39.1325],[-85.2966,39.268],[-85.2977,39.4534],[-85.6302,39.453],[-85.6302,39.3515],[-85.6849,39.3505],[-85.688,39.1307]]]},"properties":{"GID_0":"USA","GID_1":"USA.15_1","GID_2":"USA.15.17_1","NAME_1":"Indiana","NAME_2":"Decatur"}},
{"type":"Feature","geometry":{"type":"Polygon","coordinates":[[[-85.4451,40.3792],[-85.5784,40.3794],[-85.5763,40.0769],[-85.2157,40.0765],[-85.2205,40.379],[-85.4451,40.3792]]]},"properties":{"GID_0":"USA","GID_1":"USA.15_1","GID_2":"USA.15.18_1","NAME_1":"Indiana","NAME_2":"Delaware"}},
{"type":"Feature","geometry":{"type":"Polygon","coordinates":[[[-86.6814,38.3976],[-86.6823,38.5263],[-86.8376,38.526],[-86.924,38.5048],[-87.0723,38.5147],[-87.0728,38.2065],[-86.7934,38.207],[-86.7936,38.2492],[-86.6799,38.2485],[-86.6814,38.3976]]]},"properties":{"GID_0":"USA","GID_1":"USA.15_1","GID_2":"USA.15.19_1","NAME_1":"Indiana","NAME_2":"Dubois"}},
{"type":"Feature","geometry":{"type":"Polygon","coordinates":[[[-85.6552,41.4384],[-85.6606,41.7608],[-86.0624,41.7619],[-86.059,41.4367],[-85.6552,41.4384]]]},"properties":{"GID_0":"USA","GID_1":"USA.15_1","GID_2":"USA.15.20_1","NAME_1":"Indiana","NAME_2":"Elkhart"}},
{"type":"Feature","geometry":{"type":"Polygon","coordinates":[[[-85.0364,39.5273],[-85.0344,39.7145],[-85.1851,39.7152],[-85.1837,39.7891],[-85.3017,39.789],[-85.2989,39.5264],[-85.0364,39.5273]]]},"properties":{"GID_0":"USA","GID_1":"USA.15_1","GID_2":"USA.15.21_1","NAME_1":"Indiana","NAME_2":"Fayette"}},
{"type":"Feature","geometry":{"type":"Polygon","coordinates":[[[-85.9948,38.4184],[-86.0324,38.4177],[-86.033,38.3307],[-85.9549,38.2606],[-85.9508,38.1857],[-85.8987,38.1786],[-85.7923,38.2874],[-85.7612,38.3502],[-85.8082,38.4044],[-85.9949,38.403],[-85.9948,38.4184]]]},"properties":{"GID_0":"USA","GID_1":"USA.15_1","GID_2":"USA.15.22_1","NAME_1":"Indiana","NAME_2":"Floyd"}},
{"type":"Feature","geometry":{"type":"Polygon","coordinates":[[[-87.0919,40.2172],[-87.0919,40.3664],[-87.0974,40.3664],[-87.1063,40.3545],[-87.1315,40.3404],[-87.2313,40.3112],[-87.3376,40.2235],[-87.4192,40.1926],[-87.4046,40.1351],[-87.4072,40.1088],[-87.4356,40.0238],[-87.4221,39.9563],[-87.4209,39.9541],[-87.0909,39.9538],[-87.0919,40.2172]]]},"properties":{"GID_0":"USA","GID_1":"USA.15_1","GID_2":"USA.15.23_1","NAME_1":"Indiana","NAME_2":"Fountain"}},
{"type":"Feature","geometry":{"type":"Polygon","coordinates":[[[-84.8191,39.3056],[-84.8154,39.5218],[-85.0227,39.5275],[-85.2989,39.5264],[-85.2966,39.268],[-85.2186,39.308],[-85.0652,39.3082],[-84.8191,39.3056]]]},"properties":{"GID_0":"USA","GID_1":"USA.15_1","GID_2":"USA.15.24_1","NAME_1":"Indiana","NAME_2":"Franklin"}},
{"type":"Feature","geometry":{"type":"Polygon","coordinates":[[[-86.1692,40.9098],[-86.1676,40.9965],[-85.9466,40.9993],[-85.9457,41.0424],[-86.017,41.0414],[-86.0758,41.0851],[-86.0777,41.1736],[-86.4671,41.1711],[-86.4672,40.9093],[-86.1692,40.9098]]]},"properties":{"GID_0":"USA","GID_1":"USA.15_1","GID_2":"USA.15.25_1","NAME_1":"Indiana","NAME_2":"Fulton"}},
{"type":"Feature","geometry":{"type":"Polygon","coordinates":[[[-87.7434,38.4141],[-87.7727,38.3766],[-87.8766,38.3098],[-87.9344,38.2952],[-87.9817,38.2324],[-87.7994,38.2286],[-87.7996,38.2009],[-87.6889,38.202],[-87.6889,38.1685],[-87.4676,38.1655],[-87.4663,38.2035],[-87.317,38.2051],[-87.316,38.3773],[-87.4076,38.3794],[-87.4071,38.4361],[-87.4639,38.4669],[-87.4642,38.5322],[-87.4654,38.5317],[-87.4925,38.497],[-87.5002,38.4952],[-87.5364,38.5184],[-87.5469,38.5165],[-87.6112,38.4466],[-87.7434,38.4141]]]},"properties":{"GID_0":"USA","GID_1":"USA.15_1","GID_2":"USA.15.26_1","NAME_1":"Indiana","NAME_2":"Gibson"}},
{"type":"Feature","geometry":{"type":"Polygon","coordinates":[[[-85.4453,40.567],[-85.4476,40.6541],[-85.8645,40.6528],[-85.8621,40.3784],[-85.4451,40.3792],[-85.4453,40.567]]]},"properties":{"GID_0":"USA","GID_1":"USA.15_1","GID_2":"USA.15.27_1","NAME_1":"Indiana","NAME_2":"Grant"}},
{"type":"Feature","geometry":{"type":"Polygon","coordinates":[[[-87.2383,39.1728],[-87.238,39.0858],[-87.2421,38.9104],[-87.1321,38.9101],[-87.1321,38.9073],[-87.0191,38.9051],[-86.6845,38.9079],[-86.6853,38.994],[-86.6816,39.1667],[-86.9041,39.1689],[-87.1267,39.1702],[-87.2383,39.1728]]]},"properties":{"GID_0":"USA","GID_1":"USA.15_1","GID_2":"USA.15.28_1","NAME_1":"Indiana","NAME_2":"Greene"}},
{"type":"Feature","geometry":{"type":"Polygon","coordinates":[[[-86.2385,39.9259],[-85.8625,39.9286],[-85.863,40.139],[-85.8617,40.2201],[-86.2435,40.2152],[-86.2417,40.0419],[-86.2385,39.9259]]]},"properties":{"GID_0":"USA","GID_1":"USA.15_1","GID_2":"USA.15.29_1","NAME_1":"Indiana","NAME_2":"Hamilton"}},
{"type":"Feature","geometry":{"type":"Polygon","coordinates":[[[-85.9369,39.9272],[-85.9541,39.8696],[-85.9518,39.6969],[-85.6338,39.6987],[-85.6333,39.7862],[-85.5968,39.786],[-85.5969,39.8735],[-85.5774,39.9459],[-85.8624,39.9436],[-85.8625,39.9286],[-85.9369,39.9272]]]},"properties":{"GID_0":"USA","GID_1":"USA.15_1","GID_2":"USA.15.30_1","NAME_1":"Indiana","NAME_2":"Hancock"}},
{"type":"Feature","geometry":{"type":"Polygon","coordinates":[[[-86.3314,38.18],[-86.2729,38.1341],[-86.2603,38.0514],[-86.1682,38.0093],[-86.0145,37.9958],[-85.9398,38.0089],[-85.9028,38.0926],[-85.8987,38.1786],[-85.9508,38.1857],[-85.9549,38.2606],[-86.033,38.3307],[-86.0324,38.4177],[-86.2544,38.4224],[-86.2592,38.4152],[-86.2645,38.412],[-86.2522,38.407],[-86.2458,38.3879],[-86.2894,38.3164],[-86.2601,38.2973],[-86.2525,38.295],[-86.2578,38.2837],[-86.2774,38.2271],[-86.3314,38.18]]]},"properties":{"GID_0":"USA","GID_1":"USA.15_1","GID_2":"USA.15.31_1","NAME_1":"Indiana","NAME_2":"Harrison"}},
{"type":"Feature","geometry":{"type":"Polygon","coordinates":[[[-86.6937,39.9228],[-86.6929,39.8643],[-86.6845,39.8648],[-86.6858,39.63],[-86.6522,39.6087],[-86.6546,39.6001],[-86.4642,39.6006],[-86.4648,39.6297],[-86.3268,39.6318],[-86.328,39.8662],[-86.3267,39.9238],[-86.6937,39.9228]]]},"properties":{"GID_0":"USA","GID_1":"USA.15_1","GID_2":"USA.15.32_1","NAME_1":"Indiana","NAME_2":"Hendricks"}},
{"type":"Feature","geometry":{"type":"Polygon","coordinates":[[[-85.5763,40.0769],[-85.5774,39.9459],[-85.5969,39.8735],[-85.5968,39.786],[-85.4651,39.7886],[-85.2214,39.7895],[-85.2013,39.875],[-85.2014,40.0042],[-85.2152,40.0044],[-85.2157,40.0765],[-85.5763,40.0769]]]},"properties":{"GID_0":"USA","GID_1":"USA.15_1","GID_2":"USA.15.33_1","NAME_1":"Indiana","NAME_2":"Henry"}},
{"type":"Feature","geometry":{"type":"Polygon","coordinates":[[[-86.3756,40.4317],[-86.3098,40.4316],[-86.3093,40.388],[-86.2803,40.3735],[-86.2423,40.3734],[-86.2422,40.4029],[-85.8624,40.407],[-85.8641,40.5666],[-86.3748,40.5614],[-86.3756,40.4317]]]},"properties":{"GID_0":"USA","GID_1":"USA.15_1","GID_2":"USA.15.34_1","NAME_1":"Indiana","NAME_2":"Howard"}},
{"type":"Feature","geometry":{"type":"Polygon","coordinates":[[[-85.3346,41.0061],[-85.5655,41.0012],[-85.644,41.0013],[-85.6385,40.6542],[-85.3343,40.655],[-85.3346,41.0061]]]},"properties":{"GID_0":"USA","GID_1":"USA.15_1","GID_2":"USA.15.35_1","NAME_1":"Indiana","NAME_2":"Huntington"}},
{"type":"Feature","geometry":{"type":"Polygon","coordinates":[[[-86.0805,39.0501],[-86.3181,39.0489],[-86.3177,38.9936],[-86.2786,38.9935],[-86.2793,38.9636],[-86.2752,38.7642],[-86.271,38.766],[-86.2037,38.7826],[-86.1353,38.7625],[-86.0225,38.7671],[-86.0155,38.7657],[-86.0179,38.7612],[-86.0149,38.7566],[-85.8888,38.7343],[-85.8853,38.7343],[-85.8747,38.7284],[-85.8422,38.7391],[-85.7949,38.8077],[-85.7983,39.0683],[-85.8608,39.041],[-86.08,39.0361],[-86.0805,39.0501]]]},"properties":{"GID_0":"USA","GID_1":"USA.15_1","GID_2":"USA.15.36_1","NAME_1":"Indiana","NAME_2":"Jackson"}},
{"type":"Feature","geometry":{"type":"Polygon","coordinates":[[[-87.0987,40.7383],[-87.0995,40.8399],[-86.9872,40.8408],[-86.9877,40.9134],[-86.9293,40.9136],[-86.9309,41.086],[-86.93,41.2371],[-86.966,41.2202],[-87.0592,41.2693],[-87.1308,41.2862],[-87.1918,41.2654],[-87.2263,41.2353],[-87.2762,41.2187],[-87.2759,40.9133],[-87.2655,40.7383],[-87.0987,40.7383]]]},"properties":{"GID_0":"USA","GID_1":"USA.15_1","GID_2":"USA.15.37_1","NAME_1":"Indiana","NAME_2":"Jasper"}},
{"type":"Feature","geometry":{"type":"Polygon","coordinates":[[[-85.0689,40.5688],[-85.2008,40.5679],[-85.2205,40.379],[-85.2182,40.3073],[-84.8064,40.3102],[-84.8037,40.5723],[-85.0689,40.5688]]]},"properties":{"GID_0":"USA","GID_1":"USA.15_1","GID_2":"USA.15.38_1","NAME_1":"Indiana","NAME_2":"Jay"}},
{"type":"Feature","geometry":{"type":"Polygon","coordinates":[[[-85.4279,38.5861],[-85.4536,38.6847],[-85.4168,38.7357],[-85.2505,38.7322],[-85.2023,38.6911],[-85.203,38.9167],[-85.5384,38.9134],[-85.5371,38.8826],[-85.6105,38.8255],[-85.6843,38.8247],[-85.6847,38.7386],[-85.5704,38.6784],[-85.5701,38.6063],[-85.4971,38.6071],[-85.4279,38.5861]]]},"properties":{"GID_0":"USA","GID_1":"USA.15_1","GID_2":"USA.15.39_1","NAME_1":"Indiana","NAME_2":"Jefferson"}},
{"type":"Feature","geometry":{"type":"Polygon","coordinates":[[[-85.7983,39.0683],[-85.7949,38.8077],[-85.754,38.8206],[-85.7381,38.8196],[-85.6844,38.8152],[-85.6843,38.8247],[-85.6105,38.8255],[-85.5371,38.8826],[-85.5384,38.9134],[-85.445,38.914],[-85.4403,39.1954],[-85.5664,39.1325],[-85.7989,39.1291],[-85.7983,39.0683]]]},"properties":{"GID_0":"USA","GID_1":"USA.15_1","GID_2":"USA.15.40_1","NAME_1":"Indiana","NAME_2":"Jennings"}},
{"type":"Feature","geometry":{"type":"Polygon","coordinates":[[[-85.9521,39.347],[-85.9523,39.638],[-86.248,39.6335],[-86.2495,39.517],[-86.249,39.342],[-85.9521,39.347]]]},"properties":{"GID_0":"USA","GID_1":"USA.15_1","GID_2":"USA.15.41_1","NAME_1":"Indiana","NAME_2":"Johnson"}},
{"type":"Feature","geometry":{"type":"Polygon","coordinates":[[[-87.3562,38.9037],[-87.5182,38.9052],[-87.5437,38.8911],[-87.4971,38.7431],[-87.5369,38.683],[-87.5994,38.6641],[-87.6534,38.5579],[-87.6475,38.5175],[-87.7381,38.4794],[-87.7434,38.4141],[-87.6112,38.4466],[-87.5469,38.5165],[-87.5364,38.5184],[-87.5002,38.4952],[-87.4925,38.497],[-87.4654,38.5317],[-87.4624,38.5331],[-87.3318,38.5281],[-87.2887,38.5117],[-87.242,38.545],[-87.2436,38.6443],[-87.2794,38.6935],[-87.2578,38.7688],[-87.1982,38.8281],[-87.1947,38.8318],[-87.1404,38.8438],[-87.0978,38.9066],[-87.1321,38.9073],[-87.1321,38.9101],[-87.2421,38.9104],[-87.2421,38.9049],[-87.3562,38.9037]]]},"properties":{"GID_0":"USA","GID_1":"USA.15_1","GID_2":"USA.15.42_1","NAME_1":"Indiana","NAME_2":"Knox"}},
{"type":"Feature","geometry":{"type":"Polygon","coordinates":[[[-86.059,41.4367],[-86.0539,41.1735],[-86.0777,41.1736],[-86.0758,41.0851],[-86.017,41.0414],[-85.6849,41.0465],[-85.6876,41.179],[-85.6522,41.1787],[-85.6552,41.4384],[-86.059,41.4367]]]},"properties":{"GID_0":"USA","GID_1":"USA.15_1","GID_2":"USA.15.43_1","NAME_1":"Indiana","NAME_2":"Kosciusko"}},
{"type":"Feature","geometry":{"type":"Polygon","coordinates":[[[-85.6554,41.5251],[-85.1947,41.5276],[-85.1978,41.7605],[-85.6606,41.7608],[-85.6554,41.5251]]]},"properties":{"GID_0":"USA","GID_1":"USA.15_1","GID_2":"USA.15.44_1","NAME_1":"Indiana","NAME_2":"LaGrange"}},
{"type":"Feature","geometry":{"type":"Polygon","coordinates":[[[-87.524,41.7135],[-87.5263,41.1661],[-87.4147,41.1619],[-87.3241,41.1862],[-87.2859,41.2154],[-87.2263,41.2353],[-87.2184,41.2417],[-87.2223,41.6248],[-87.315,41.6201],[-87.4228,41.6439],[-87.524,41.7135]]]},"properties":{"GID_0":"USA","GID_1":"USA.15_1","GID_2":"USA.15.45_1","NAME_1":"Indiana","NAME_2":"Lake"}},
{"type":"Feature","geometry":{"type":"Polygon","coordinates":[[[-87.524,41.7135],[-87.4228,41.6439],[-87.315,41.6201],[-87.2223,41.6248],[-87.0924,41.654],[-86.9465,41.7082],[-86.9164,41.7164],[-86.8262,41.7609],[-87.524,41.7603],[-87.524,41.7135]]]},"properties":{"GID_0":"USA","GID_1":"USA.15_1","GID_2":"USA.15.46_1","NAME_1":"Indiana","NAME_2":"LakeMichigan"}},
{"type":"Feature","geometry":{"type":"Polygon","coordinates":[[[-86.9323,41.7119],[-86.93,41.2371],[-86.7842,41.2852],[-86.7391,41.3225],[-86.7021,41.4006],[-86.6415,41.4338],[-86.5245,41.4339],[-86.5245,41.5201],[-86.4865,41.5769],[-86.4871,41.649],[-86.5264,41.6499],[-86.524,41.7603],[-86.8262,41.7609],[-86.9164,41.7164],[-86.9323,41.7119]]]},"properties":{"GID_0":"USA","GID_1":"USA.15_1","GID_2":"USA.15.47_1","NAME_1":"Indiana","NAME_2":"LaPorte"}},
{"type":"Feature","geometry":{"type":"Polygon","coordinates":[[[-86.6845,38.9079],[-86.6839,38.6867],[-86.3084,38.6876],[-86.2799,38.7628],[-86.2752,38.7642],[-86.2793,38.9636],[-86.2786,38.9935],[-86.6853,38.994],[-86.6845,38.9079]]]},"properties":{"GID_0":"USA","GID_1":"USA.15_1","GID_2":"USA.15.48_1","NAME_1":"Indiana","NAME_2":"Lawrence"}},
{"type":"Feature","geometry":{"type":"Polygon","coordinates":[[[-85.5784,40.3794],[-85.8621,40.3784],[-85.8624,39.9436],[-85.5774,39.9459],[-85.5763,40.0769],[-85.5784,40.3794]]]},"properties":{"GID_0":"USA","GID_1":"USA.15_1","GID_2":"USA.15.49_1","NAME_1":"Indiana","NAME_2":"Madison"}},
{"type":"Feature","geometry":{"type":"Polygon","coordinates":[[[-86.3267,39.9238],[-86.328,39.8662],[-86.3268,39.6318],[-85.9523,39.638],[-85.9541,39.8696],[-85.9369,39.9272],[-86.2385,39.9259],[-86.3267,39.9238]]]},"properties":{"GID_0":"USA","GID_1":"USA.15_1","GID_2":"USA.15.50_1","NAME_1":"Indiana","NAME_2":"Marion"}},
{"type":"Feature","geometry":{"type":"Polygon","coordinates":[[[-86.0593,41.479],[-86.3063,41.4787],[-86.4669,41.4765],[-86.4671,41.1711],[-86.0539,41.1735],[-86.0574,41.3033],[-86.0593,41.479]]]},"properties":{"GID_0":"USA","GID_1":"USA.15_1","GID_2":"USA.15.51_1","NAME_1":"Indiana","NAME_2":"Marshall"}},
{"type":"Feature","geometry":{"type":"Polygon","coordinates":[[[-86.924,38.5048],[-86.8376,38.526],[-86.6823,38.5263],[-86.6845,38.9079],[-86.9062,38.9069],[-86.9046,38.8195],[-86.9229,38.8189],[-86.924,38.5048]]]},"properties":{"GID_0":"USA","GID_1":"USA.15_1","GID_2":"USA.15.52_1","NAME_1":"Indiana","NAME_2":"Martin"}},
{"type":"Feature","geometry":{"type":"Polygon","coordinates":[[[-86.1654,40.5633],[-85.8641,40.5666],[-85.8645,40.6528],[-85.9396,40.6527],[-85.9466,40.9993],[-86.1676,40.9965],[-86.1694,40.7424],[-86.1707,40.7157],[-86.1654,40.5633]]]},"properties":{"GID_0":"USA","GID_1":"USA.15_1","GID_2":"USA.15.53_1","NAME_1":"Indiana","NAME_2":"Miami"}},
{"type":"Feature","geometry":{"type":"Polygon","coordinates":[[[-86.3816,39.3399],[-86.5732,39.3395],[-86.6309,39.3413],[-86.6309,39.3481],[-86.638,39.3481],[-86.6476,39.3558],[-86.6553,39.3494],[-86.6535,39.334],[-86.6844,39.3372],[-86.6816,39.1667],[-86.6853,38.994],[-86.3177,38.9936],[-86.3181,39.0489],[-86.3702,39.0485],[-86.3723,39.252],[-86.3816,39.3399]]]},"properties":{"GID_0":"USA","GID_1":"USA.15_1","GID_2":"USA.15.54_1","NAME_1":"Indiana","NAME_2":"Monroe"}},
{"type":"Feature","geometry":{"type":"Polygon","coordinates":[[[-86.6962,40.1785],[-86.6957,40.2144],[-87.0919,40.2172],[-87.0914,39.8685],[-86.6929,39.8643],[-86.6962,40.1785]]]},"properties":{"GID_0":"USA","GID_1":"USA.15_1","GID_2":"USA.15.55_1","NAME_1":"Indiana","NAME_2":"Montgomery"}},
{"type":"Feature","geometry":{"type":"Polygon","coordinates":[[[-86.249,39.342],[-86.2495,39.517],[-86.248,39.6335],[-86.4648,39.6297],[-86.4642,39.6006],[-86.6546,39.6001],[-86.6528,39.5666],[-86.6861,39.5262],[-86.6859,39.47],[-86.6323,39.4696],[-86.6309,39.3413],[-86.5732,39.3395],[-86.4631,39.3391],[-86.249,39.342]]]},"properties":{"GID_0":"USA","GID_1":"USA.15_1","GID_2":"USA.15.56_1","NAME_1":"Indiana","NAME_2":"Morgan"}},
{"type":"Feature","geometry":{"type":"Polygon","coordinates":[[[-87.5263,40.7378],[-87.2655,40.7383],[-87.2759,40.9133],[-87.275,40.9991],[-87.2762,41.2187],[-87.2859,41.2154],[-87.3241,41.1862],[-87.4147,41.1619],[-87.5263,41.1661],[-87.5263,40.7378]]]},"properties":{"GID_0":"USA","GID_1":"USA.15_1","GID_2":"USA.15.57_1","NAME_1":"Indiana","NAME_2":"Newton"}},
{"type":"Feature","geometry":{"type":"Polygon","coordinates":[[[-85.1935,41.2643],[-85.1947,41.5276],[-85.6554,41.5251],[-85.6527,41.2949],[-85.5384,41.295],[-85.5387,41.2664],[-85.1935,41.2643]]]},"properties":{"GID_0":"USA","GID_1":"USA.15_1","GID_2":"USA.15.58_1","NAME_1":"Indiana","NAME_2":"Noble"}},
{"type":"Feature","geometry":{"type":"Polygon","coordinates":[[[-85.135,38.9481],[-85.1435,38.9034],[-84.8603,38.9017],[-84.8347,38.9607],[-84.8752,39.0334],[-84.8987,39.0133],[-84.9134,39.0189],[-84.9985,38.996],[-85.0962,38.9355],[-85.1128,38.9361],[-85.135,38.9481]]]},"properties":{"GID_0":"USA","GID_1":"USA.15_1","GID_2":"USA.15.59_1","NAME_1":"Indiana","NAME_2":"Ohio"}},
{"type":"Feature","geometry":{"type":"Polygon","coordinates":[[[-86.3091,38.4225],[-86.3084,38.6876],[-86.6839,38.6867],[-86.6814,38.3976],[-86.3068,38.3971],[-86.3091,38.4225]]]},"properties":{"GID_0":"USA","GID_1":"USA.15_1","GID_2":"USA.15.60_1","NAME_1":"Indiana","NAME_2":"Orange"}},
{"type":"Feature","geometry":{"type":"Polygon","coordinates":[[[-87.0549,39.1701],[-86.9041,39.1689],[-86.6816,39.1667],[-86.6844,39.3372],[-86.6535,39.334],[-86.6553,39.3494],[-86.6476,39.3558],[-86.638,39.3481],[-86.6309,39.3481],[-86.6323,39.4696],[-86.9404,39.4734],[-86.9426,39.3424],[-87.0532,39.3433],[-87.0549,39.1701]]]},"properties":{"GID_0":"USA","GID_1":"USA.15_1","GID_2":"USA.15.61_1","NAME_1":"Indiana","NAME_2":"Owen"}},
{"type":"Feature","geometry":{"type":"Polygon","coordinates":[[[-87.011,39.6041],[-87.0078,39.8222],[-87.0087,39.8685],[-87.0914,39.8685],[-87.0909,39.9538],[-87.4209,39.9541],[-87.4197,39.9523],[-87.3728,39.8968],[-87.3662,39.8429],[-87.3819,39.6093],[-87.2356,39.6089],[-87.011,39.6041]]]},"properties":{"GID_0":"USA","GID_1":"USA.15_1","GID_2":"USA.15.62_1","NAME_1":"Indiana","NAME_2":"Parke"}},
{"type":"Feature","geometry":{"type":"Polygon","coordinates":[[[-86.6799,38.2634],[-86.6799,38.2485],[-86.7936,38.2492],[-86.7933,38.1893],[-86.8002,38.1395],[-86.7718,38.0634],[-86.8089,38.0007],[-86.7311,37.8927],[-86.6673,37.9134],[-86.6673,37.8555],[-86.6015,37.8639],[-86.5816,37.921],[-86.5285,37.9178],[-86.5219,38.0289],[-86.431,38.08],[-86.4643,38.1095],[-86.4613,38.2083],[-86.572,38.2082],[-86.5715,38.2645],[-86.6799,38.2634]]]},"properties":{"GID_0":"USA","GID_1":"USA.15_1","GID_2":"USA.15.63_1","NAME_1":"Indiana","NAME_2":"Perry"}},
{"type":"Feature","geometry":{"type":"Polygon","coordinates":[[[-87.242,38.545],[-87.2887,38.5117],[-87.3318,38.5281],[-87.4624,38.5331],[-87.4642,38.5322],[-87.4639,38.4669],[-87.4071,38.4361],[-87.4076,38.3794],[-87.316,38.3773],[-87.3169,38.2459],[-87.2981,38.246],[-87.2985,38.2319],[-87.073,38.2323],[-87.0723,38.5147],[-87.1517,38.5156],[-87.1825,38.5476],[-87.242,38.545]]]},"properties":{"GID_0":"USA","GID_1":"USA.15_1","GID_2":"USA.15.64_1","NAME_1":"Indiana","NAME_2":"Pike"}},
{"type":"Feature","geometry":{"type":"Polygon","coordinates":[[[-86.93,41.2371],[-86.9323,41.7119],[-86.9465,41.7082],[-87.0924,41.654],[-87.2223,41.6248],[-87.2184,41.2417],[-87.1918,41.2654],[-87.1308,41.2862],[-87.0592,41.2693],[-86.966,41.2202],[-86.93,41.2371]]]},"properties":{"GID_0":"USA","GID_1":"USA.15_1","GID_2":"USA.15.65_1","NAME_1":"Indiana","NAME_2":"Porter"}},
{"type":"Feature","geometry":{"type":"Polygon","coordinates":[[[-87.9817,38.2324],[-87.9768,38.2001],[-87.915,38.1603],[-87.977,38.1115],[-87.9613,38.0716],[-88.0344,38.0341],[-88.0129,37.8973],[-88.0333,37.8111],[-87.9627,37.7743],[-87.9086,37.809],[-87.9364,37.892],[-87.898,37.9279],[-87.8361,37.881],[-87.7003,37.8973],[-87.6888,38.1254],[-87.6889,38.202],[-87.7996,38.2009],[-87.7994,38.2286],[-87.9817,38.2324]]]},"properties":{"GID_0":"USA","GID_1":"USA.15_1","GID_2":"USA.15.66_1","NAME_1":"Indiana","NAME_2":"Posey"}},
{"type":"Feature","geometry":{"type":"Polygon","coordinates":[[[-86.4672,40.9093],[-86.4671,41.1711],[-86.699,41.1728],[-86.9309,41.1722],[-86.9293,40.9136],[-86.5797,40.912],[-86.4672,40.9093]]]},"properties":{"GID_0":"USA","GID_1":"USA.15_1","GID_2":"USA.15.67_1","NAME_1":"Indiana","NAME_2":"Pulaski"}},
{"type":"Feature","geometry":{"type":"Polygon","coordinates":[[[-86.9404,39.4734],[-86.6859,39.47],[-86.6861,39.5262],[-86.6528,39.5666],[-86.6552,39.5965],[-86.6522,39.6087],[-86.6858,39.63],[-86.6845,39.8648],[-86.8056,39.865],[-87.0087,39.8685],[-87.0078,39.8222],[-87.0125,39.4736],[-86.9404,39.4734]]]},"properties":{"GID_0":"USA","GID_1":"USA.15_1","GID_2":"USA.15.68_1","NAME_1":"Indiana","NAME_2":"Putnam"}},
{"type":"Feature","geometry":{"type":"Polygon","coordinates":[[[-85.2157,40.0765],[-85.2152,40.0044],[-84.8131,40.006],[-84.8064,40.3102],[-85.2182,40.3073],[-85.2157,40.0765]]]},"properties":{"GID_0":"USA","GID_1":"USA.15_1","GID_2":"USA.15.69_1","NAME_1":"Indiana","NAME_2":"Randolph"}},
{"type":"Feature","geometry":{"type":"Polygon","coordinates":[[[-85.0652,39.3082],[-85.2186,39.308],[-85.4403,39.1954],[-85.445,38.914],[-85.203,38.9167],[-85.2034,38.9294],[-85.1389,38.9296],[-85.1305,38.9707],[-85.1222,39.0006],[-85.0652,39.3082]]]},"properties":{"GID_0":"USA","GID_1":"USA.15_1","GID_2":"USA.15.70_1","NAME_1":"Indiana","NAME_2":"Ripley"}},
{"type":"Feature","geometry":{"type":"Polygon","coordinates":[[[-85.2977,39.4534],[-85.3017,39.789],[-85.6333,39.7862],[-85.6338,39.6987],[-85.6302,39.453],[-85.2977,39.4534]]]},"properties":{"GID_0":"USA","GID_1":"USA.15_1","GID_2":"USA.15.71_1","NAME_1":"Indiana","NAME_2":"Rush"}},
{"type":"Feature","geometry":{"type":"Polygon","coordinates":[[[-86.0624,41.7619],[-86.524,41.7603],[-86.5264,41.6499],[-86.4871,41.649],[-86.4865,41.5769],[-86.5245,41.5201],[-86.5245,41.4339],[-86.4669,41.4339],[-86.4669,41.4765],[-86.3063,41.4787],[-86.0593,41.479],[-86.0624,41.7619]]]},"properties":{"GID_0":"USA","GID_1":"USA.15_1","GID_2":"USA.15.72_1","NAME_1":"Indiana","NAME_2":"SaintJoseph"}},
{"type":"Feature","geometry":{"type":"Polygon","coordinates":[[[-85.5701,38.6063],[-85.5704,38.6784],[-85.6847,38.7386],[-85.6844,38.8152],[-85.7381,38.8196],[-85.754,38.8206],[-85.7949,38.8077],[-85.8422,38.7391],[-85.8747,38.7284],[-85.8853,38.7343],[-85.8888,38.7343],[-85.8855,38.5761],[-85.8479,38.5632],[-85.7939,38.6046],[-85.5701,38.6063]]]},"properties":{"GID_0":"USA","GID_1":"USA.15_1","GID_2":"USA.15.73_1","NAME_1":"Indiana","NAME_2":"Scott"}},
{"type":"Feature","geometry":{"type":"Polygon","coordinates":[[[-85.6849,39.3505],[-85.6302,39.3515],[-85.6338,39.6987],[-85.9518,39.6969],[-85.9521,39.347],[-85.7998,39.3507],[-85.6849,39.3505]]]},"properties":{"GID_0":"USA","GID_1":"USA.15_1","GID_2":"USA.15.74_1","NAME_1":"Indiana","NAME_2":"Shelby"}},
{"type":"Feature","geometry":{"type":"Polygon","coordinates":[[[-87.0166,38.2063],[-87.0165,38.1215],[-87.0733,38.1222],[-87.0979,38.0568],[-87.2303,37.9654],[-87.2678,37.9257],[-87.2684,37.8754],[-87.1673,37.8387],[-87.1336,37.788],[-87.071,37.8014],[-87.0263,37.9109],[-86.9126,37.9409],[-86.8089,38.0007],[-86.7718,38.0634],[-86.8002,38.1395],[-86.7933,38.1893],[-86.7934,38.207],[-87.0166,38.2063]]]},"properties":{"GID_0":"USA","GID_1":"USA.15_1","GID_2":"USA.15.75_1","NAME_1":"Indiana","NAME_2":"Spencer"}},
{"type":"Feature","geometry":{"type":"Polygon","coordinates":[[[-86.9309,41.1722],[-86.699,41.1728],[-86.4671,41.1711],[-86.4669,41.4339],[-86.6415,41.4338],[-86.7021,41.4006],[-86.7391,41.3225],[-86.7842,41.2852],[-86.93,41.2371],[-86.9309,41.1722]]]},"properties":{"GID_0":"USA","GID_1":"USA.15_1","GID_2":"USA.15.76_1","NAME_1":"Indiana","NAME_2":"Starke"}},
{"type":"Feature","geometry":{"type":"Polygon","coordinates":[[[-84.8063,41.5303],[-84.8076,41.7605],[-85.1978,41.7605],[-85.1947,41.5276],[-84.8063,41.5303]]]},"properties":{"GID_0":"USA","GID_1":"USA.15_1","GID_2":"USA.15.77_1","NAME_1":"Indiana","NAME_2":"Steuben"}},
{"type":"Feature","geometry":{"type":"Polygon","coordinates":[[[-87.6011,39.2612],[-87.5748,39.2162],[-87.6549,39.1357],[-87.5724,39.0607],[-87.5685,38.9854],[-87.5132,38.9554],[-87.5176,38.9052],[-87.3562,38.9037],[-87.2421,38.9049],[-87.238,39.0858],[-87.238,39.2607],[-87.6011,39.2612]]]},"properties":{"GID_0":"USA","GID_1":"USA.15_1","GID_2":"USA.15.78_1","NAME_1":"Indiana","NAME_2":"Sullivan"}},
{"type":"Feature","geometry":{"type":"Polygon","coordinates":[[[-85.2023,38.6911],[-85.1462,38.6958],[-84.9923,38.7777],[-84.883,38.7931],[-84.7877,38.8823],[-84.8603,38.9017],[-85.1435,38.9034],[-85.1389,38.9296],[-85.2034,38.9294],[-85.2023,38.6911]]]},"properties":{"GID_0":"USA","GID_1":"USA.15_1","GID_2":"USA.15.79_1","NAME_1":"Indiana","NAME_2":"Switzerland"}},
{"type":"Feature","geometry":{"type":"Polygon","coordinates":[[[-87.0934,40.4761],[-87.0919,40.2172],[-86.6957,40.2144],[-86.6944,40.388],[-86.696,40.5631],[-87.0954,40.5637],[-87.0934,40.4761]]]},"properties":{"GID_0":"USA","GID_1":"USA.15_1","GID_2":"USA.15.80_1","NAME_1":"Indiana","NAME_2":"Tippecanoe"}},
{"type":"Feature","geometry":{"type":"Polygon","coordinates":[[[-86.2435,40.2152],[-85.8617,40.2201],[-85.8624,40.407],[-86.2422,40.4029],[-86.2435,40.2152]]]},"properties":{"GID_0":"USA","GID_1":"USA.15_1","GID_2":"USA.15.81_1","NAME_1":"Indiana","NAME_2":"Tipton"}},
{"type":"Feature","geometry":{"type":"Polygon","coordinates":[[[-85.0364,39.5273],[-85.0227,39.5275],[-84.8154,39.5218],[-84.8146,39.7267],[-85.0347,39.729],[-85.0364,39.5273]]]},"properties":{"GID_0":"USA","GID_1":"USA.15_1","GID_2":"USA.15.82_1","NAME_1":"Indiana","NAME_2":"Union"}},
{"type":"Feature","geometry":{"type":"Polygon","coordinates":[[[-87.6889,38.1685],[-87.6888,38.1254],[-87.7003,37.8973],[-87.6784,37.8338],[-87.6045,37.8405],[-87.5934,37.8902],[-87.6279,37.9235],[-87.5807,37.9661],[-87.5114,37.9067],[-87.4512,37.9394],[-87.4501,38.0373],[-87.4676,38.1242],[-87.4676,38.1655],[-87.6889,38.1685]]]},"properties":{"GID_0":"USA","GID_1":"USA.15_1","GID_2":"USA.15.83_1","NAME_1":"Indiana","NAME_2":"Vanderburgh"}},
{"type":"Feature","geometry":{"type":"Polygon","coordinates":[[[-87.5311,39.6091],[-87.3819,39.6093],[-87.3662,39.8429],[-87.3728,39.8968],[-87.4197,39.9523],[-87.4221,39.9563],[-87.4356,40.0238],[-87.4072,40.1088],[-87.4063,40.1301],[-87.5323,40.1504],[-87.5311,39.6091]]]},"properties":{"GID_0":"USA","GID_1":"USA.15_1","GID_2":"USA.15.84_1","NAME_1":"Indiana","NAME_2":"Vermillion"}},
{"type":"Feature","geometry":{"type":"Polygon","coordinates":[[[-87.6011,39.2612],[-87.238,39.2607],[-87.2359,39.521],[-87.2001,39.5207],[-87.1992,39.6082],[-87.5311,39.6091],[-87.5304,39.3516],[-87.6061,39.3128],[-87.6011,39.2612]]]},"properties":{"GID_0":"USA","GID_1":"USA.15_1","GID_2":"USA.15.85_1","NAME_1":"Indiana","NAME_2":"Vigo"}},
{"type":"Feature","geometry":{"type":"Polygon","coordinates":[[[-85.9466,40.9993],[-85.9396,40.6527],[-85.6385,40.6542],[-85.644,41.0013],[-85.6836,41.0015],[-85.6849,41.0465],[-85.9457,41.0424],[-85.9466,40.9993]]]},"properties":{"GID_0":"USA","GID_1":"USA.15_1","GID_2":"USA.15.86_1","NAME_1":"Indiana","NAME_2":"Wabash"}},
{"type":"Feature","geometry":{"type":"Polygon","coordinates":[[[-87.5323,40.1504],[-87.4063,40.1301],[-87.4046,40.1351],[-87.4192,40.1926],[-87.3376,40.2235],[-87.2313,40.3112],[-87.1315,40.3404],[-87.1063,40.3545],[-87.0974,40.3664],[-87.0919,40.3664],[-87.0934,40.4761],[-87.5262,40.4793],[-87.5323,40.1504]]]},"properties":{"GID_0":"USA","GID_1":"USA.15_1","GID_2":"USA.15.87_1","NAME_1":"Indiana","NAME_2":"Warren"}},
{"type":"Feature","geometry":{"type":"Polygon","coordinates":[[[-87.073,38.2323],[-87.2985,38.2319],[-87.2981,38.246],[-87.3169,38.2459],[-87.317,38.2051],[-87.4663,38.2035],[-87.4676,38.1242],[-87.4501,38.0373],[-87.4512,37.9394],[-87.3943,37.9392],[-87.2684,37.8754],[-87.2678,37.9257],[-87.2303,37.9654],[-87.0979,38.0568],[-87.0733,38.1222],[-87.0165,38.1215],[-87.0166,38.2063],[-87.0728,38.2065],[-87.073,38.2323]]]},"properties":{"GID_0":"USA","GID_1":"USA.15_1","GID_2":"USA.15.88_1","NAME_1":"Indiana","NAME_2":"Warrick"}},
{"type":"Feature","geometry":{"type":"Polygon","coordinates":[[[-85.8479,38.5632],[-85.8855,38.5761],[-85.8888,38.7343],[-86.0149,38.7566],[-86.0179,38.7612],[-86.0155,38.7657],[-86.0225,38.7671],[-86.1353,38.7625],[-86.2037,38.7826],[-86.271,38.766],[-86.2799,38.7628],[-86.3084,38.6876],[-86.3091,38.4225],[-86.0324,38.4177],[-85.9948,38.4184],[-85.9938,38.4887],[-85.8849,38.5032],[-85.8479,38.5632]]]},"properties":{"GID_0":"USA","GID_1":"USA.15_1","GID_2":"USA.15.89_1","NAME_1":"Indiana","NAME_2":"Washington"}},
{"type":"Feature","geometry":{"type":"Polygon","coordinates":[[[-85.0344,39.7145],[-85.0347,39.729],[-84.8146,39.7267],[-84.8131,40.006],[-85.2014,40.0042],[-85.2013,39.875],[-85.2214,39.7895],[-85.1837,39.7891],[-85.1851,39.7152],[-85.0344,39.7145]]]},"properties":{"GID_0":"USA","GID_1":"USA.15_1","GID_2":"USA.15.90_1","NAME_1":"Indiana","NAME_2":"Wayne"}},
{"type":"Feature","geometry":{"type":"Polygon","coordinates":[[[-85.074,40.9181],[-85.3349,40.9172],[-85.3343,40.655],[-85.4476,40.6541],[-85.4453,40.567],[-85.0689,40.5688],[-85.074,40.9181]]]},"properties":{"GID_0":"USA","GID_1":"USA.15_1","GID_2":"USA.15.91_1","NAME_1":"Indiana","NAME_2":"Wells"}},
{"type":"Feature","geometry":{"type":"Polygon","coordinates":[[[-87.0954,40.5637],[-86.7717,40.563],[-86.7721,40.6659],[-86.7529,40.7376],[-86.5819,40.7356],[-86.5797,40.912],[-86.9877,40.9134],[-86.9872,40.8408],[-87.0995,40.8399],[-87.0954,40.5637]]]},"properties":{"GID_0":"USA","GID_1":"USA.15_1","GID_2":"USA.15.92_1","NAME_1":"Indiana","NAME_2":"White"}},
{"type":"Feature","geometry":{"type":"Polygon","coordinates":[[[-85.309,41.265],[-85.5387,41.2664],[-85.5384,41.295],[-85.6527,41.2949],[-85.6522,41.1787],[-85.6876,41.179],[-85.6836,41.0015],[-85.5655,41.0012],[-85.3346,41.0061],[-85.3397,41.1781],[-85.309,41.265]]]},"properties":{"GID_0":"USA","GID_1":"USA.15_1","GID_2":"USA.15.93_1","NAME_1":"Indiana","NAME_2":"Whitley"}}
]}