{"type":"FeatureCollection", "features": [
{"type":"Feature","geometry":{"type":"Polygon","coordinates":[[[-71.318,41.7759],[-71.3537,41.7502],[-71.3377,41.7248],[-71.2947,41.7215],[-71.2875,41.6702],[-71.2587,41.6479],[-71.2389,41.671],[-71.2277,41.7151],[-71.2614,41.7515],[-71.318,41.7759]]]},"properties":{"GID_0":"USA","GID_1":"USA.40_1","GID_2":"USA.40.1_1","NAME_1":"RhodeIsland","NAME_2":"Bristol"}},
{"type":"Feature","geometry":{"type":"Polygon","coordinates":[[[-71.7894,41.5992],[-71.6542,41.599],[-71.4848,41.6032],[-71.478,41.6309],[-71.4104,41.6545],[-71.3649,41.6926],[-71.3857,41.7607],[-71.4373,41.7598],[-71.4583,41.7308],[-71.7904,41.7232],[-71.7894,41.5992]]]},"properties":{"GID_0":"USA","GID_1":"USA.40_1","GID_2":"USA.40.2_1","NAME_1":"RhodeIsland","NAME_2":"Kent"}},
{"type":"Feature","geometry":{"type":"MultiPolygon","coordinates":[[[[-71.3628,41.4774],[-71.3602,41.5659],[-71.3934,41.5242],[-71.3628,41.4774]]],[[[-71.2413,41.5058],[-71.2349,41.5761],[-71.2447,41.5889],[-71.2335,41.6438],[-71.2747,41.6207],[-71.3235,41.515],[-71.3193,41.4782],[-71.2476,41.479],[-71.2413,41.5058]]],[[[-71.1959,41.6746],[-71.2126,41.6378],[-71.2185,41.5462],[-71.207,41.498],[-71.176,41.4589],[-71.1206,41.4956],[-71.1324,41.5946],[-71.1332,41.6595],[-71.1959,41.6746]]]]},"properties":{"GID_0":"USA","GID_1":"USA.40_1","GID_2":"USA.40.3_1","NAME_1":"RhodeIsland","NAME_2":"Newport"}},
{"type":"Feature","geometry":{"type":"Polygon","coordinates":[[[-71.7904,41.7232],[-71.4583,41.7308],[-71.4373,41.7598],[-71.3857,41.7607],[-71.3537,41.7502],[-71.318,41.7759],[-71.3394,41.797],[-71.3331,41.8574],[-71.3386,41.8983],[-71.3824,41.8915],[-71.3797,42.0191],[-71.7979,42.0089],[-71.7904,41.7232]]]},"properties":{"GID_0":"USA","GID_1":"USA.40_1","GID_2":"USA.40.4_1","NAME_1":"RhodeIsland","NAME_2":"Providence"}},
{"type":"Feature","geometry":{"type":"MultiPolygon","coordinates":[[[[-71.5765,41.2311],[-71.574,41.2002],[-71.6057,41.1827],[-71.5996,41.1469],[-71.5501,41.1519],[-71.5668,41.1852],[-71.5548,41.2163],[-71.5765,41.2311]]],[[[-71.7894,41.5992],[-71.7977,41.4187],[-71.8406,41.4094],[-71.8276,41.3388],[-71.8409,41.3141],[-71.7631,41.3297],[-71.7147,41.3305],[-71.6159,41.3638],[-71.5062,41.3749],[-71.487,41.3616],[-71.4306,41.4474],[-71.4173,41.5133],[-71.4271,41.5569],[-71.4074,41.5882],[-71.4104,41.6545],[-71.478,41.6309],[-71.4848,41.6032],[-71.6542,41.599],[-71.7894,41.5992]]]]},"properties":{"GID_0":"USA","GID_1":"USA.40_1","GID_2":"USA.40.5_1","NAME_1":"RhodeIsland","NAME_2":"Washington"}}
]}