{"type":"FeatureCollection", "features": [
{"type":"Feature","geometry":{"type":"Polygon","coordinates":[[[-118.9805,47.2613],[-118.983,47.0395],[-118.9813,46.9105],[-119.3684,46.9119],[-119.3708,46.7371],[-118.9992,46.7368],[-118.8582,46.7347],[-118.3601,46.7365],[-118.2196,46.7393],[-118.1576,46.7493],[-118.1004,46.7735],[-118.0488,46.7713],[-117.9736,46.8635],[-117.9624,46.9133],[-117.9596,47.0028],[-117.961,47.2606],[-118.0865,47.2596],[-118.9805,47.2613]]]},"properties":{"GID_0":"USA","GID_1":"USA.48_1","GID_2":"USA.48.1_1","NAME_1":"Washington","NAME_2":"Adams"}},
{"type":"Feature","geometry":{"type":"Polygon","coordinates":[[[-117.038,46.4288],[-117.0907,46.4177],[-117.1507,46.4307],[-117.2144,46.4276],[-117.216,46.4578],[-117.227,46.4614],[-117.2275,46.4119],[-117.358,46.4113],[-117.4227,46.3825],[-117.4189,46.1244],[-117.48,46.123],[-117.4784,45.9989],[-117.3534,45.997],[-116.9125,45.9972],[-116.9448,46.0661],[-116.9764,46.08],[-116.9218,46.1711],[-116.9631,46.2032],[-116.9587,46.2396],[-116.987,46.2957],[-117.0605,46.3629],[-117.0323,46.4131],[-117.038,46.4288]]]},"properties":{"GID_0":"USA","GID_1":"USA.48_1","GID_2":"USA.48.2_1","NAME_1":"Washington","NAME_2":"Asotin"}},
{"type":"Feature","geometry":{"type":"Polygon","coordinates":[[[-119.8688,45.8376],[-119.8301,45.848],[-119.6765,45.8572],[-119.6103,45.9167],[-119.5775,45.9256],[-119.5261,45.9072],[-119.26,45.9394],[-119.185,45.9265],[-119.1082,45.9395],[-119.0284,45.9679],[-118.983,46.007],[-118.9431,46.0299],[-118.9433,46.078],[-118.9766,46.1393],[-119.0313,46.1889],[-119.0476,46.1955],[-119.0768,46.2109],[-119.209,46.2383],[-119.261,46.2704],[-119.2681,46.2792],[-119.249,46.3143],[-119.2722,46.3773],[-119.2607,46.4294],[-119.2602,46.4904],[-119.2767,46.5258],[-119.372,46.5849],[-119.4059,46.6149],[-119.4152,46.6535],[-119.4572,46.6727],[-119.4484,46.6827],[-119.4687,46.698],[-119.512,46.7263],[-119.5863,46.6672],[-119.6256,46.6459],[-119.6877,46.6504],[-119.8308,46.6255],[-119.8764,46.628],[-119.8737,46.2155],[-119.8641,46.1276],[-119.8688,45.8376]]]},"properties":{"GID_0":"USA","GID_1":"USA.48_1","GID_2":"USA.48.3_1","NAME_1":"Washington","NAME_2":"Benton"}},
{"type":"Feature","geometry":{"type":"Polygon","coordinates":[[[-121.0015,48.2956],[-121.0111,48.2814],[-121.0035,48.2612],[-120.9224,48.1932],[-120.906,48.1651],[-120.964,48.1368],[-120.9421,48.1125],[-121.0284,48.0799],[-121.1531,48.0407],[-121.1122,48.0035],[-121.1644,47.9558],[-121.1807,47.9014],[-121.1745,47.8849],[-121.1383,47.8431],[-121.0721,47.8223],[-121.1216,47.782],[-121.1188,47.7756],[-121.0904,47.7587],[-121.0706,47.7178],[-121.124,47.6816],[-121.1331,47.6503],[-121.1105,47.6017],[-121.111,47.5911],[-121.0778,47.554],[-120.9937,47.5138],[-120.9223,47.452],[-120.9047,47.4254],[-120.8518,47.4145],[-120.799,47.4238],[-120.7728,47.3999],[-120.671,47.3473],[-120.5874,47.3395],[-120.5693,47.3115],[-120.5039,47.3179],[-120.4538,47.2982],[-120.3897,47.2586],[-120.2582,47.2635],[-120.09,47.2604],[-120.0888,47.3463],[-120.1809,47.375],[-120.2872,47.3936],[-120.3211,47.4631],[-120.3035,47.5219],[-120.2598,47.5605],[-120.2321,47.6014],[-120.2347,47.629],[-120.203,47.6708],[-120.2236,47.7224],[-120.1985,47.755],[-120.1143,47.775],[-120.0781,47.7662],[-119.9999,47.7816],[-119.9715,47.805],[-119.955,47.8459],[-119.9103,47.8659],[-119.9134,47.9009],[-119.87,47.9288],[-119.8597,47.9477],[-119.8737,47.9593],[-120.0647,47.9591],[-120.0852,48.0172],[-120.1432,48.0445],[-120.1342,48.0639],[-120.2072,48.0769],[-120.2719,48.1222],[-120.3186,48.1255],[-120.3611,48.1703],[-120.3454,48.1984],[-120.3867,48.2408],[-120.4626,48.2653],[-120.5121,48.3119],[-120.5813,48.3211],[-120.5684,48.3788],[-120.6405,48.3981],[-120.6671,48.4474],[-120.6537,48.536],[-120.6966,48.5318],[-120.7918,48.5081],[-120.8233,48.5473],[-120.8525,48.5505],[-120.9475,48.5022],[-121.0305,48.4936],[-121.0615,48.4584],[-121.0408,48.4271],[-121.0637,48.397],[-121.0389,48.363],[-121.067,48.3163],[-121.0015,48.2956]]]},"properties":{"GID_0":"USA","GID_1":"USA.48_1","GID_2":"USA.48.4_1","NAME_1":"Washington","NAME_2":"Chelan"}},
{"type":"Feature","geometry":{"type":"Polygon","coordinates":[[[-124.6077,47.8788],[-124.2462,47.8789],[-124.046,47.8804],[-123.6332,47.8784],[-123.6315,47.8706],[-123.3821,47.8714],[-122.9465,47.8668],[-122.9466,48.0663],[-122.9277,48.0667],[-122.9147,48.0953],[-122.9752,48.097],[-123.0247,48.0831],[-123.1267,48.1542],[-123.1864,48.1475],[-123.2408,48.1172],[-123.3339,48.1128],[-123.425,48.1183],[-123.5183,48.1336],[-123.5553,48.1511],[-123.5833,48.1367],[-123.7061,48.1661],[-123.8633,48.1542],[-123.9794,48.165],[-124.0495,48.1776],[-124.1292,48.2206],[-124.2491,48.2641],[-124.3844,48.285],[-124.5646,48.3676],[-124.6184,48.3666],[-124.6581,48.391],[-124.7211,48.39],[-124.7077,48.3537],[-124.6595,48.327],[-124.6878,48.2872],[-124.7047,48.2369],[-124.7,48.1906],[-124.7342,48.1639],[-124.6872,48.0978],[-124.6775,47.9678],[-124.6077,47.8788]]]},"properties":{"GID_0":"USA","GID_1":"USA.48_1","GID_2":"USA.48.5_1","NAME_1":"Washington","NAME_2":"Clallam"}},
{"type":"Feature","geometry":{"type":"Polygon","coordinates":[[[-122.7767,45.8573],[-122.7883,45.815],[-122.7587,45.7688],[-122.7684,45.6891],[-122.745,45.6533],[-122.6459,45.6129],[-122.6181,45.6174],[-122.4386,45.5799],[-122.367,45.5822],[-122.3261,45.5631],[-122.246,45.561],[-122.2482,45.8665],[-122.2446,46.0551],[-122.2671,46.0603],[-122.3261,46.0124],[-122.3243,45.9731],[-122.3613,45.9598],[-122.4471,45.9851],[-122.5263,45.9849],[-122.5601,45.9555],[-122.6133,45.9387],[-122.6942,45.9381],[-122.7201,45.9251],[-122.7284,45.9185],[-122.7413,45.8735],[-122.7767,45.8573]]]},"properties":{"GID_0":"USA","GID_1":"USA.48_1","GID_2":"USA.48.6_1","NAME_1":"Washington","NAME_2":"Clark"}},
{"type":"Feature","geometry":{"type":"Polygon","coordinates":[[[-117.9973,46.0012],[-117.6029,46.0002],[-117.6134,46.1209],[-117.611,46.3394],[-117.673,46.3389],[-117.6738,46.382],[-117.7179,46.3985],[-117.718,46.4416],[-117.7412,46.4705],[-117.8646,46.4724],[-117.8551,46.6263],[-117.8997,46.5859],[-117.9556,46.5925],[-118.0891,46.5752],[-118.1104,46.554],[-118.1777,46.5551],[-118.2326,46.5923],[-118.2455,46.5609],[-118.2427,46.2954],[-118.1184,46.2937],[-118.1189,46.2081],[-117.9908,46.2076],[-117.9915,46.0482],[-117.9973,46.0012]]]},"properties":{"GID_0":"USA","GID_1":"USA.48_1","GID_2":"USA.48.7_1","NAME_1":"Washington","NAME_2":"Columbia"}},
{"type":"Feature","geometry":{"type":"Polygon","coordinates":[[[-123.2127,46.1767],[-123.1595,46.1938],[-123.0448,46.1662],[-122.9392,46.1003],[-122.9106,46.1054],[-122.8723,46.0809],[-122.8753,46.0383],[-122.7965,45.9398],[-122.8047,45.9095],[-122.7767,45.8573],[-122.7413,45.8735],[-122.7284,45.9185],[-122.7201,45.9251],[-122.6942,45.9381],[-122.6133,45.9387],[-122.5601,45.9555],[-122.5263,45.9849],[-122.4471,45.9851],[-122.3613,45.9598],[-122.3243,45.9731],[-122.3261,46.0124],[-122.2671,46.0603],[-122.2446,46.0551],[-122.2389,46.2109],[-122.2401,46.3836],[-122.3693,46.3851],[-122.99,46.3862],[-123.2205,46.3828],[-123.2127,46.1767]]]},"properties":{"GID_0":"USA","GID_1":"USA.48_1","GID_2":"USA.48.8_1","NAME_1":"Washington","NAME_2":"Cowlitz"}},
{"type":"Feature","geometry":{"type":"Polygon","coordinates":[[[-120.09,47.2604],[-120.0702,47.2249],[-120.0241,47.2275],[-120.0148,47.227],[-120.0102,47.2243],[-120.0055,47.2243],[-120.0054,47.318],[-119.9195,47.3627],[-119.9193,47.3926],[-119.877,47.4071],[-119.8767,47.4347],[-119.7488,47.4391],[-119.5366,47.4401],[-119.5367,47.5265],[-119.4079,47.6116],[-119.3468,47.6116],[-119.3028,47.6696],[-119.2998,47.7271],[-119.2571,47.7424],[-119.2545,47.7714],[-119.2162,47.8019],[-119.2146,47.8866],[-119.1502,47.903],[-119.1044,47.9634],[-118.9796,47.9625],[-118.9546,48.0198],[-119.0126,48.0546],[-119.0288,48.1114],[-119.048,48.131],[-119.1322,48.1498],[-119.2474,48.1057],[-119.2946,48.1158],[-119.3344,48.0853],[-119.3437,48.0512],[-119.4005,48.0503],[-119.4413,48.0778],[-119.5047,48.0838],[-119.5295,48.0577],[-119.6289,47.998],[-119.6546,47.9977],[-119.6881,48.0196],[-119.6912,48.0399],[-119.6733,48.0665],[-119.6725,48.0771],[-119.7022,48.0828],[-119.7285,48.0829],[-119.8103,48.0871],[-119.8979,48.0483],[-119.8945,48.0395],[-119.8699,48.0026],[-119.8741,47.9924],[-119.8737,47.9593],[-119.8597,47.9477],[-119.87,47.9288],[-119.9134,47.9009],[-119.9103,47.8659],[-119.955,47.8459],[-119.9715,47.805],[-119.9999,47.7816],[-120.0781,47.7662],[-120.1143,47.775],[-120.1985,47.755],[-120.2236,47.7224],[-120.203,47.6708],[-120.2347,47.629],[-120.2321,47.6014],[-120.2598,47.5605],[-120.3035,47.5219],[-120.3211,47.4631],[-120.2872,47.3936],[-120.1809,47.375],[-120.0888,47.3463],[-120.09,47.2604]]]},"properties":{"GID_0":"USA","GID_1":"USA.48_1","GID_2":"USA.48.9_1","NAME_1":"Washington","NAME_2":"Douglas"}},
{"type":"Feature","geometry":{"type":"Polygon","coordinates":[[[-118.1998,49.0003],[-118.8356,49.0004],[-118.8357,48.6528],[-118.8691,48.6523],[-118.8694,48.4796],[-118.8469,48.4802],[-118.8452,48.309],[-118.8484,48.0522],[-118.8468,47.9564],[-118.8428,47.9559],[-118.8093,47.9195],[-118.7282,47.8987],[-118.6839,47.9433],[-118.6411,47.9275],[-118.5762,47.9317],[-118.5328,47.9178],[-118.5433,47.8829],[-118.5012,47.8703],[-118.4618,47.8803],[-118.4441,47.8446],[-118.3921,47.8282],[-118.3608,47.836],[-118.3387,47.8951],[-118.3557,47.9317],[-118.3491,47.9662],[-118.3991,48.0268],[-118.3498,48.0482],[-118.2627,48.045],[-118.2307,48.0896],[-118.2461,48.1328],[-118.1978,48.1412],[-118.1879,48.1516],[-118.1905,48.2121],[-118.1379,48.2624],[-118.1819,48.3388],[-118.2038,48.4112],[-118.2037,48.4712],[-118.1733,48.5219],[-118.1522,48.5211],[-118.1272,48.5706],[-118.1304,48.5951],[-118.1023,48.6542],[-118.1217,48.7035],[-118.1288,48.7683],[-118.1945,48.8415],[-118.2119,48.8927],[-118.2193,48.9728],[-118.1998,49.0003]]]},"properties":{"GID_0":"USA","GID_1":"USA.48_1","GID_2":"USA.48.10_1","NAME_1":"Washington","NAME_2":"Ferry"}},
{"type":"Feature","geometry":{"type":"Polygon","coordinates":[[[-119.3708,46.7371],[-119.3711,46.6775],[-119.4525,46.6777],[-119.4572,46.6727],[-119.4152,46.6535],[-119.4059,46.6149],[-119.372,46.5849],[-119.2767,46.5258],[-119.2602,46.4904],[-119.2607,46.4294],[-119.2722,46.3773],[-119.249,46.3143],[-119.2681,46.2792],[-119.261,46.2704],[-119.209,46.2383],[-119.0768,46.2109],[-119.0405,46.1922],[-119.0255,46.2136],[-118.9776,46.2401],[-118.8583,46.2543],[-118.8233,46.2864],[-118.7698,46.2953],[-118.7744,46.3178],[-118.7397,46.3637],[-118.6389,46.4095],[-118.6185,46.5014],[-118.5436,46.5581],[-118.4703,46.5988],[-118.4239,46.5839],[-118.3759,46.5941],[-118.3227,46.6057],[-118.2482,46.5985],[-118.2143,46.5856],[-118.2011,46.6239],[-118.2303,46.6578],[-118.2182,46.6829],[-118.2422,46.7365],[-118.2196,46.7393],[-118.3601,46.7365],[-118.8582,46.7347],[-118.9992,46.7368],[-119.3708,46.7371]]]},"properties":{"GID_0":"USA","GID_1":"USA.48_1","GID_2":"USA.48.11_1","NAME_1":"Washington","NAME_2":"Franklin"}},
{"type":"Feature","geometry":{"type":"Polygon","coordinates":[[[-117.4784,45.9989],[-117.48,46.123],[-117.4189,46.1244],[-117.4227,46.3825],[-117.358,46.4113],[-117.2275,46.4119],[-117.227,46.4614],[-117.2372,46.4676],[-117.2316,46.501],[-117.257,46.5484],[-117.2915,46.5726],[-117.345,46.5871],[-117.3789,46.6122],[-117.3928,46.6533],[-117.4335,46.6598],[-117.4585,46.6934],[-117.476,46.6997],[-117.5041,46.6806],[-117.5531,46.6794],[-117.6188,46.6757],[-117.6541,46.7008],[-117.6865,46.7019],[-117.7325,46.6955],[-117.8056,46.6245],[-117.8551,46.6263],[-117.8646,46.4724],[-117.7412,46.4705],[-117.718,46.4416],[-117.7179,46.3985],[-117.6738,46.382],[-117.673,46.3389],[-117.611,46.3394],[-117.6134,46.1209],[-117.6029,46.0002],[-117.4784,45.9989]]]},"properties":{"GID_0":"USA","GID_1":"USA.48_1","GID_2":"USA.48.12_1","NAME_1":"Washington","NAME_2":"Garfield"}},
{"type":"Feature","geometry":{"type":"Polygon","coordinates":[[[-118.9805,47.2613],[-118.9749,47.8731],[-118.9796,47.9625],[-119.1044,47.9634],[-119.1502,47.903],[-119.2146,47.8866],[-119.2162,47.8019],[-119.2545,47.7714],[-119.2571,47.7424],[-119.2998,47.7271],[-119.3028,47.6696],[-119.3468,47.6116],[-119.4079,47.6116],[-119.5367,47.5265],[-119.5366,47.4401],[-119.7488,47.4391],[-119.8767,47.4347],[-119.877,47.4071],[-119.9193,47.3926],[-119.9195,47.3627],[-120.0054,47.318],[-120.006,47.1558],[-119.9989,47.1259],[-120.0244,47.104],[-120.038,47.0641],[-120.0056,47.0327],[-120.0065,46.9992],[-119.9644,46.9431],[-119.9618,46.8586],[-119.925,46.8144],[-119.9666,46.7549],[-119.9687,46.749],[-119.9735,46.7288],[-119.9631,46.7026],[-119.9481,46.6792],[-119.9158,46.6543],[-119.8764,46.628],[-119.8308,46.6255],[-119.6877,46.6504],[-119.6256,46.6459],[-119.5863,46.6672],[-119.512,46.7263],[-119.4687,46.698],[-119.4484,46.6827],[-119.4525,46.6777],[-119.3711,46.6775],[-119.3684,46.9119],[-118.9813,46.9105],[-118.983,47.0395],[-118.9805,47.2613]]]},"properties":{"GID_0":"USA","GID_1":"USA.48_1","GID_2":"USA.48.13_1","NAME_1":"Washington","NAME_2":"Grant"}},
{"type":"Feature","geometry":{"type":"Polygon","coordinates":[[[-124.0452,47.5319],[-124.1753,47.5326],[-124.298,47.5307],[-124.3545,47.5342],[-124.3369,47.4055],[-124.3203,47.3558],[-124.2793,47.3099],[-124.2339,47.2847],[-124.2056,47.2107],[-124.1758,47.0594],[-124.1753,46.9311],[-124.1272,46.9489],[-124.1492,47.0283],[-124.107,47.0424],[-124.0292,47.0299],[-124.0203,46.9911],[-123.8574,46.9674],[-123.8756,46.941],[-123.983,46.9229],[-124.05,46.89],[-124.0861,46.8617],[-124.1275,46.9025],[-124.0983,46.7951],[-123.8548,46.793],[-123.3714,46.792],[-123.1599,46.793],[-123.1589,46.9974],[-123.2028,46.9974],[-123.2004,47.0848],[-123.488,47.0834],[-123.4894,47.2589],[-123.5034,47.2586],[-123.5019,47.5176],[-123.7729,47.5188],[-124.0456,47.5153],[-124.0452,47.5319]]]},"properties":{"GID_0":"USA","GID_1":"USA.48_1","GID_2":"USA.48.14_1","NAME_1":"Washington","NAME_2":"GraysHarbor"}},
{"type":"Feature","geometry":{"type":"MultiPolygon","coordinates":[[[[-122.6053,48.4107],[-122.6647,48.4017],[-122.6705,48.3603],[-122.7539,48.258],[-122.7637,48.2155],[-122.6858,48.1733],[-122.6208,48.1604],[-122.5986,48.1098],[-122.6139,48.0728],[-122.5987,48.0269],[-122.5222,47.9725],[-122.4811,47.9919],[-122.4412,47.9532],[-122.4308,47.9139],[-122.3757,47.9096],[-122.3492,47.959],[-122.3767,48.0345],[-122.4462,48.0528],[-122.4917,48.0972],[-122.5114,48.0745],[-122.5717,48.1027],[-122.5672,48.1478],[-122.6057,48.2082],[-122.6714,48.2244],[-122.6052,48.2976],[-122.529,48.2828],[-122.5064,48.3103],[-122.5606,48.3464],[-122.6053,48.4107]]],[[[-122.3926,48.2382],[-122.4664,48.2703],[-122.5351,48.2404],[-122.5372,48.1839],[-122.49,48.1206],[-122.4419,48.1307],[-122.4783,48.1878],[-122.3917,48.2331],[-122.3926,48.2382]]]]},"properties":{"GID_0":"USA","GID_1":"USA.48_1","GID_2":"USA.48.15_1","NAME_1":"Washington","NAME_2":"Island"}},
{"type":"Feature","geometry":{"type":"MultiPolygon","coordinates":[[[[-122.9277,48.0667],[-122.9466,48.0663],[-122.9465,47.8668],[-123.3821,47.8714],[-123.6315,47.8706],[-123.6332,47.8784],[-124.046,47.8804],[-124.2462,47.8789],[-124.6077,47.8788],[-124.4969,47.8225],[-124.4728,47.7717],[-124.4247,47.7369],[-124.3878,47.6471],[-124.3586,47.545],[-124.298,47.5307],[-124.1753,47.5326],[-124.0452,47.5319],[-124.0456,47.5153],[-123.7729,47.5188],[-123.5019,47.5176],[-123.5027,47.6077],[-122.9881,47.6055],[-122.9426,47.6319],[-122.8889,47.6903],[-122.8952,47.7052],[-122.8645,47.7699],[-122.8697,47.81],[-122.7942,47.8211],[-122.7866,47.8038],[-122.8062,47.7325],[-122.8322,47.6918],[-122.7715,47.6934],[-122.7835,47.7218],[-122.7601,47.7459],[-122.7431,47.8092],[-122.6872,47.8336],[-122.6888,47.8689],[-122.6304,47.8846],[-122.6764,47.9589],[-122.7181,47.9881],[-122.7347,48.0334],[-122.8008,48.0867],[-122.7487,48.117],[-122.7892,48.1425],[-122.8308,48.1345],[-122.8858,48.1042],[-122.879,48.0471],[-122.9277,48.0667]]],[[[-122.6919,48.1031],[-122.7391,48.0806],[-122.7247,48.0258],[-122.67,48.0172],[-122.6919,48.1031]]]]},"properties":{"GID_0":"USA","GID_1":"USA.48_1","GID_2":"USA.48.16_1","NAME_1":"Washington","NAME_2":"Jefferson"}},
{"type":"Feature","geometry":{"type":"MultiPolygon","coordinates":[[[[-122.4522,47.5036],[-122.5132,47.4529],[-122.5152,47.3779],[-122.5268,47.3421],[-122.4916,47.3321],[-122.4844,47.3803],[-122.4266,47.402],[-122.4606,47.4867],[-122.4522,47.5036]]],[[[-121.1188,47.7756],[-121.1929,47.7821],[-121.4532,47.7783],[-121.972,47.776],[-122.3964,47.7787],[-122.3736,47.7266],[-122.402,47.6981],[-122.4168,47.642],[-122.3369,47.6008],[-122.4209,47.5761],[-122.4,47.5546],[-122.3682,47.4592],[-122.3259,47.3934],[-122.3239,47.351],[-122.416,47.3198],[-122.3309,47.258],[-122.1446,47.2576],[-122.0964,47.1971],[-122.0518,47.1718],[-122.0152,47.1764],[-121.95,47.1546],[-121.8974,47.1565],[-121.8412,47.1446],[-121.7911,47.174],[-121.7194,47.1513],[-121.6321,47.153],[-121.5782,47.1185],[-121.5237,47.1249],[-121.4526,47.0895],[-121.3812,47.0813],[-121.374,47.0869],[-121.405,47.1124],[-121.3654,47.1425],[-121.334,47.1339],[-121.306,47.1364],[-121.3027,47.1966],[-121.3645,47.2238],[-121.3308,47.2552],[-121.3653,47.2904],[-121.422,47.2859],[-121.4355,47.3414],[-121.4597,47.3527],[-121.4343,47.3998],[-121.365,47.4637],[-121.2983,47.488],[-121.2134,47.5658],[-121.1799,47.5655],[-121.1553,47.5936],[-121.1111,47.5961],[-121.1105,47.6017],[-121.1331,47.6503],[-121.124,47.6816],[-121.0706,47.7178],[-121.0904,47.7587],[-121.1188,47.7756]]]]},"properties":{"GID_0":"USA","GID_1":"USA.48_1","GID_2":"USA.48.17_1","NAME_1":"Washington","NAME_2":"King"}},
{"type":"Feature","geometry":{"type":"MultiPolygon","coordinates":[[[[-122.536,47.7068],[-122.5925,47.6631],[-122.5778,47.5994],[-122.4976,47.5893],[-122.4901,47.6334],[-122.5095,47.7051],[-122.536,47.7068]]],[[[-122.6347,47.4031],[-122.5514,47.4029],[-122.5319,47.4697],[-122.4957,47.5101],[-122.5474,47.5276],[-122.5485,47.5874],[-122.6077,47.5469],[-122.662,47.5982],[-122.7078,47.605],[-122.6994,47.6411],[-122.6409,47.5826],[-122.6034,47.5737],[-122.5909,47.6347],[-122.6142,47.6533],[-122.6142,47.7012],[-122.5827,47.7022],[-122.549,47.7331],[-122.4728,47.7484],[-122.5016,47.7889],[-122.5133,47.8806],[-122.5478,47.9189],[-122.5967,47.9202],[-122.5735,47.8746],[-122.6846,47.7979],[-122.7487,47.7201],[-122.7532,47.6678],[-122.9155,47.6218],[-122.9229,47.5978],[-122.9637,47.5848],[-122.9754,47.5599],[-123.023,47.5202],[-122.7988,47.5204],[-122.8006,47.4031],[-122.6347,47.4031]]]]},"properties":{"GID_0":"USA","GID_1":"USA.48_1","GID_2":"USA.48.18_1","NAME_1":"Washington","NAME_2":"Kitsap"}},
{"type":"Feature","geometry":{"type":"Polygon","coordinates":[[[-121.1111,47.5961],[-121.1553,47.5936],[-121.1799,47.5655],[-121.2134,47.5658],[-121.2983,47.488],[-121.365,47.4637],[-121.4343,47.3998],[-121.4597,47.3527],[-121.4355,47.3414],[-121.422,47.2859],[-121.3653,47.2904],[-121.3308,47.2552],[-121.3645,47.2238],[-121.3027,47.1966],[-121.306,47.1364],[-121.334,47.1339],[-121.3654,47.1425],[-121.405,47.1124],[-121.374,47.0869],[-121.3631,47.0718],[-121.2788,47.0893],[-121.2226,47.0666],[-121.141,47.0206],[-121.0202,46.91],[-120.635,46.9121],[-120.6346,46.8259],[-120.5078,46.8243],[-120.5085,46.7381],[-120.4018,46.7367],[-119.9707,46.7371],[-119.9666,46.7549],[-119.925,46.8144],[-119.9618,46.8586],[-119.9644,46.9431],[-120.0065,46.9992],[-120.0056,47.0327],[-120.038,47.0641],[-120.0244,47.104],[-119.9989,47.1259],[-120.006,47.1558],[-120.0055,47.2243],[-120.0102,47.2243],[-120.0148,47.227],[-120.0241,47.2275],[-120.0702,47.2249],[-120.09,47.2604],[-120.2582,47.2635],[-120.3897,47.2586],[-120.4538,47.2982],[-120.5039,47.3179],[-120.5693,47.3115],[-120.5874,47.3395],[-120.671,47.3473],[-120.7728,47.3999],[-120.799,47.4238],[-120.8518,47.4145],[-120.9047,47.4254],[-120.9223,47.452],[-120.9937,47.5138],[-121.0778,47.554],[-121.111,47.5911],[-121.1111,47.5961]]]},"properties":{"GID_0":"USA","GID_1":"USA.48_1","GID_2":"USA.48.19_1","NAME_1":"Washington","NAME_2":"Kittitas"}},
{"type":"Feature","geometry":{"type":"Polygon","coordinates":[[[-121.5251,45.7262],[-121.4111,45.6929],[-121.3455,45.7066],[-121.2167,45.6719],[-121.1763,45.6064],[-121.1288,45.6133],[-121.079,45.6538],[-120.9793,45.6507],[-120.9442,45.6598],[-120.9011,45.6453],[-120.8492,45.6744],[-120.6896,45.7173],[-120.631,45.7478],[-120.554,45.7401],[-120.492,45.6971],[-120.4255,45.7005],[-120.2853,45.7227],[-120.2142,45.7267],[-120.1769,45.7587],[-120.1239,45.7794],[-120.0586,45.7906],[-119.978,45.8253],[-119.8688,45.8376],[-119.8662,46.0388],[-120.3681,46.0415],[-121.6113,46.0435],[-121.607,45.7863],[-121.5362,45.7727],[-121.5251,45.7262]]]},"properties":{"GID_0":"USA","GID_1":"USA.48_1","GID_2":"USA.48.20_1","NAME_1":"Washington","NAME_2":"Klickitat"}},
{"type":"Feature","geometry":{"type":"Polygon","coordinates":[[[-122.2401,46.3836],[-122.2402,46.3859],[-122.0156,46.3877],[-121.4998,46.3888],[-121.3922,46.3871],[-121.3855,46.4115],[-121.4561,46.5128],[-121.4197,46.5497],[-121.3852,46.6339],[-121.4185,46.652],[-121.4096,46.6819],[-121.3707,46.6917],[-121.3552,46.7166],[-121.4297,46.7427],[-121.4528,46.7852],[-121.7544,46.786],[-121.8236,46.7377],[-121.8672,46.7304],[-121.9761,46.7439],[-122.0337,46.7414],[-122.2171,46.7636],[-122.498,46.7648],[-122.6159,46.7626],[-123.1607,46.7632],[-123.1599,46.793],[-123.3714,46.792],[-123.3594,46.5619],[-123.3601,46.3813],[-122.99,46.3862],[-122.3693,46.3851],[-122.2401,46.3836]]]},"properties":{"GID_0":"USA","GID_1":"USA.48_1","GID_2":"USA.48.21_1","NAME_1":"Washington","NAME_2":"Lewis"}},
{"type":"Feature","geometry":{"type":"Polygon","coordinates":[[[-117.961,47.2606],[-117.8228,47.2598],[-117.8212,47.3471],[-117.8217,47.6117],[-117.8181,47.7],[-117.8217,47.8234],[-117.8321,47.8342],[-117.8509,47.8355],[-117.8774,47.8466],[-117.9349,47.8237],[-117.9863,47.8348],[-118.008,47.8149],[-118.0369,47.797],[-118.068,47.7953],[-118.1032,47.8263],[-118.1228,47.8598],[-118.1831,47.9082],[-118.2074,47.945],[-118.2604,47.9348],[-118.3387,47.8951],[-118.3608,47.836],[-118.3921,47.8282],[-118.4441,47.8446],[-118.4618,47.8803],[-118.5012,47.8703],[-118.5433,47.8829],[-118.5328,47.9178],[-118.5762,47.9317],[-118.6411,47.9275],[-118.6839,47.9433],[-118.7282,47.8987],[-118.8093,47.9195],[-118.8428,47.9559],[-118.8779,47.9554],[-118.9301,47.9426],[-118.9787,47.9408],[-118.9749,47.8731],[-118.9805,47.2613],[-118.0865,47.2596],[-117.961,47.2606]]]},"properties":{"GID_0":"USA","GID_1":"USA.48_1","GID_2":"USA.48.22_1","NAME_1":"Washington","NAME_2":"Lincoln"}},
{"type":"Feature","geometry":{"type":"MultiPolygon","coordinates":[[[[-122.8489,47.3008],[-122.9194,47.2761],[-122.9253,47.2328],[-122.8542,47.1797],[-122.8406,47.2078],[-122.8711,47.2469],[-122.8489,47.3008]]],[[[-123.488,47.0834],[-123.3662,47.0842],[-123.0738,47.0849],[-123.0738,47.1],[-123.0226,47.1234],[-123.0195,47.1524],[-122.9628,47.1695],[-122.9295,47.2461],[-122.9276,47.2804],[-122.846,47.3114],[-122.8033,47.3581],[-122.8007,47.3673],[-122.7988,47.5204],[-123.023,47.5202],[-123.0345,47.4921],[-123.0841,47.4429],[-123.1194,47.3914],[-123.0242,47.3613],[-123.0136,47.3786],[-122.901,47.4225],[-122.9209,47.3894],[-122.9887,47.3738],[-123.0202,47.3542],[-123.1187,47.3391],[-123.158,47.3703],[-123.1075,47.4614],[-123.0578,47.5014],[-123.032,47.5513],[-122.9825,47.6053],[-123.5027,47.6077],[-123.5021,47.3184],[-123.5034,47.2586],[-123.4894,47.2589],[-123.488,47.0834]]]]},"properties":{"GID_0":"USA","GID_1":"USA.48_1","GID_2":"USA.48.23_1","NAME_1":"Washington","NAME_2":"Mason"}},
{"type":"Feature","geometry":{"type":"Polygon","coordinates":[[[-120.8563,49.0001],[-120.8809,48.9672],[-120.8342,48.9405],[-120.7705,48.96],[-120.7634,48.8805],[-120.7297,48.8533],[-120.7412,48.8232],[-120.7281,48.7766],[-120.6535,48.7249],[-120.7474,48.6587],[-120.7896,48.6245],[-120.7662,48.589],[-120.7471,48.5798],[-120.7315,48.583],[-120.6824,48.5743],[-120.6966,48.5318],[-120.6537,48.536],[-120.6671,48.4474],[-120.6405,48.3981],[-120.5684,48.3788],[-120.5813,48.3211],[-120.5121,48.3119],[-120.4626,48.2653],[-120.3867,48.2408],[-120.3454,48.1984],[-120.3611,48.1703],[-120.3186,48.1255],[-120.2719,48.1222],[-120.2072,48.0769],[-120.1342,48.0639],[-120.1432,48.0445],[-120.0852,48.0172],[-120.0647,47.9591],[-119.8737,47.9593],[-119.8741,47.9924],[-119.8699,48.0026],[-119.8945,48.0395],[-119.8979,48.0483],[-119.8103,48.0871],[-119.7285,48.0829],[-119.7022,48.0828],[-119.6725,48.0771],[-119.6733,48.0665],[-119.6912,48.0399],[-119.6881,48.0196],[-119.6546,47.9977],[-119.6289,47.998],[-119.5295,48.0577],[-119.5047,48.0838],[-119.4413,48.0778],[-119.4005,48.0503],[-119.3437,48.0512],[-119.3344,48.0853],[-119.2946,48.1158],[-119.2474,48.1057],[-119.1322,48.1498],[-119.048,48.131],[-119.0288,48.1114],[-119.0126,48.0546],[-118.9546,48.0198],[-118.9796,47.9625],[-118.9787,47.9408],[-118.9301,47.9426],[-118.8779,47.9554],[-118.8468,47.9564],[-118.8484,48.0522],[-118.8452,48.309],[-118.8469,48.4802],[-118.8694,48.4796],[-118.8691,48.6523],[-118.8357,48.6528],[-118.8356,49.0004],[-120.8563,49.0001]]]},"properties":{"GID_0":"USA","GID_1":"USA.48_1","GID_2":"USA.48.24_1","NAME_1":"Washington","NAME_2":"Okanogan"}},
{"type":"Feature","geometry":{"type":"MultiPolygon","coordinates":[[[[-123.9786,46.4972],[-123.9958,46.4553],[-123.9417,46.4108],[-123.9497,46.4675],[-123.9786,46.4972]]],[[[-123.3714,46.792],[-123.8548,46.793],[-124.0983,46.7951],[-124.0956,46.7442],[-124.0011,46.71],[-123.9708,46.7378],[-123.8747,46.7297],[-123.8369,46.71],[-123.9222,46.6731],[-123.9403,46.6386],[-123.9216,46.5685],[-123.8947,46.5486],[-123.9439,46.4756],[-123.9054,46.4291],[-123.9664,46.3792],[-124.0147,46.3811],[-124.0311,46.4936],[-124.0236,46.5842],[-124.07,46.6364],[-124.0594,46.5386],[-124.0594,46.3956],[-124.0778,46.2842],[-124.0192,46.3147],[-123.9697,46.3006],[-123.9494,46.2706],[-123.9088,46.2455],[-123.7905,46.2833],[-123.7596,46.2748],[-123.7256,46.3011],[-123.7254,46.3855],[-123.3601,46.3813],[-123.3594,46.5619],[-123.3714,46.792]]]]},"properties":{"GID_0":"USA","GID_1":"USA.48_1","GID_2":"USA.48.25_1","NAME_1":"Washington","NAME_2":"Pacific"}},
{"type":"Feature","geometry":{"type":"Polygon","coordinates":[[[-117.0426,48.0459],[-117.0403,48.2515],[-117.0391,48.5904],[-117.0294,48.9998],[-117.4335,49.0007],[-117.4325,48.9213],[-117.499,48.9205],[-117.4988,48.8372],[-117.5618,48.8362],[-117.5626,48.7447],[-117.631,48.7438],[-117.6322,48.6551],[-117.5012,48.6551],[-117.5009,48.1344],[-117.4373,48.1344],[-117.4353,48.0472],[-117.0426,48.0459]]]},"properties":{"GID_0":"USA","GID_1":"USA.48_1","GID_2":"USA.48.26_1","NAME_1":"Washington","NAME_2":"PendOreille"}},
{"type":"Feature","geometry":{"type":"MultiPolygon","coordinates":[[[[-121.3812,47.0813],[-121.4526,47.0895],[-121.5237,47.1249],[-121.5782,47.1185],[-121.6321,47.153],[-121.7194,47.1513],[-121.7911,47.174],[-121.8412,47.1446],[-121.8974,47.1565],[-121.95,47.1546],[-122.0152,47.1764],[-122.0518,47.1718],[-122.0964,47.1971],[-122.1446,47.2576],[-122.3309,47.258],[-122.416,47.3198],[-122.4064,47.2842],[-122.4311,47.2625],[-122.5101,47.307],[-122.5631,47.2443],[-122.5916,47.1767],[-122.6142,47.1683],[-122.6857,47.0987],[-122.7056,47.0857],[-122.6818,47.0315],[-122.5705,46.9606],[-122.5645,46.9392],[-122.5039,46.9139],[-122.4892,46.8677],[-122.4062,46.8441],[-122.3076,46.8285],[-122.3112,46.7908],[-122.2582,46.7676],[-122.2171,46.7636],[-122.0337,46.7414],[-121.9761,46.7439],[-121.8672,46.7304],[-121.8236,46.7377],[-121.7544,46.786],[-121.4528,46.7852],[-121.4565,46.8095],[-121.5211,46.8747],[-121.499,46.9042],[-121.4464,46.9362],[-121.4561,46.9642],[-121.408,46.9957],[-121.3812,47.0813]]],[[[-122.6516,47.2732],[-122.6129,47.2203],[-122.5895,47.2368],[-122.6516,47.2732]]],[[[-122.6939,47.1842],[-122.7419,47.1531],[-122.6964,47.1259],[-122.6746,47.1512],[-122.6939,47.1842]]],[[[-122.8033,47.3581],[-122.7877,47.2989],[-122.8308,47.244],[-122.7721,47.1685],[-122.7497,47.1771],[-122.7212,47.2214],[-122.7532,47.2894],[-122.731,47.3358],[-122.6418,47.3792],[-122.6347,47.4031],[-122.8006,47.4031],[-122.8007,47.3673],[-122.8033,47.3581]]],[[[-122.5515,47.4027],[-122.6283,47.4028],[-122.6247,47.3719],[-122.6699,47.3428],[-122.6887,47.3091],[-122.6733,47.2881],[-122.5662,47.2641],[-122.5481,47.2851],[-122.5733,47.3178],[-122.5385,47.376],[-122.5515,47.4027]]]]},"properties":{"GID_0":"USA","GID_1":"USA.48_1","GID_2":"USA.48.27_1","NAME_1":"Washington","NAME_2":"Pierce"}},
{"type":"Feature","geometry":{"type":"MultiPolygon","coordinates":[[[[-122.8825,48.5703],[-122.9198,48.5511],[-122.9122,48.5169],[-122.9425,48.4956],[-122.9457,48.4656],[-122.8776,48.432],[-122.8031,48.4268],[-122.8192,48.4622],[-122.8567,48.4581],[-122.8733,48.5019],[-122.8569,48.535],[-122.8825,48.5703]]],[[[-123.1417,48.6239],[-123.1738,48.5786],[-123.1631,48.5291],[-123.133,48.4981],[-123.0368,48.458],[-123.0063,48.5534],[-123.1417,48.6239]]],[[[-122.9653,48.5931],[-123.0014,48.58],[-122.9488,48.5467],[-122.9039,48.5819],[-122.9653,48.5931]]],[[[-122.8861,48.7119],[-122.9122,48.7144],[-122.9858,48.6742],[-122.9808,48.6413],[-122.9482,48.5975],[-122.8883,48.5883],[-122.8625,48.6065],[-122.8203,48.6008],[-122.7978,48.6324],[-122.7513,48.665],[-122.8861,48.7119]]]]},"properties":{"GID_0":"USA","GID_1":"USA.48_1","GID_2":"USA.48.28_1","NAME_1":"Washington","NAME_2":"SanJuan"}},
{"type":"Feature","geometry":{"type":"MultiPolygon","coordinates":[[[[-121.0015,48.2956],[-121.067,48.3163],[-121.0389,48.363],[-121.0637,48.397],[-121.0408,48.4271],[-121.0615,48.4584],[-121.0305,48.4936],[-120.9475,48.5022],[-120.8525,48.5505],[-120.8233,48.5473],[-120.7918,48.5081],[-120.6966,48.5318],[-120.6824,48.5743],[-120.7315,48.583],[-120.7471,48.5798],[-120.7662,48.589],[-120.7896,48.6245],[-120.7474,48.6587],[-120.9064,48.6598],[-120.9076,48.6394],[-121.3863,48.6432],[-121.8323,48.6448],[-122.487,48.6435],[-122.4261,48.6],[-122.4336,48.5806],[-122.4892,48.5575],[-122.4818,48.4876],[-122.4942,48.4636],[-122.5372,48.4669],[-122.6147,48.5225],[-122.6708,48.5042],[-122.6547,48.4575],[-122.6758,48.4361],[-122.6575,48.4083],[-122.5592,48.4214],[-122.5233,48.3764],[-122.4156,48.3344],[-122.3658,48.2966],[-121.8306,48.2986],[-121.3375,48.2969],[-121.0015,48.2956]]],[[[-122.6434,48.5886],[-122.6522,48.5306],[-122.5756,48.5421],[-122.6434,48.5886]]],[[[-122.7108,48.6072],[-122.7391,48.5725],[-122.7216,48.5403],[-122.6846,48.5436],[-122.6776,48.5766],[-122.7108,48.6072]]]]},"properties":{"GID_0":"USA","GID_1":"USA.48_1","GID_2":"USA.48.29_1","NAME_1":"Washington","NAME_2":"Skagit"}},
{"type":"Feature","geometry":{"type":"Polygon","coordinates":[[[-121.5251,45.7262],[-121.5362,45.7727],[-121.607,45.7863],[-121.6113,46.0435],[-121.5188,46.0428],[-121.5196,46.3886],[-122.0156,46.3877],[-122.2402,46.3859],[-122.2389,46.2109],[-122.2446,46.0551],[-122.2482,45.8665],[-122.246,45.561],[-122.2117,45.5646],[-122.1434,45.5938],[-122.0766,45.6029],[-122.016,45.6292],[-121.9679,45.6343],[-121.909,45.6552],[-121.8991,45.6784],[-121.8091,45.7091],[-121.7104,45.6958],[-121.5251,45.7262]]]},"properties":{"GID_0":"USA","GID_1":"USA.48_1","GID_2":"USA.48.30_1","NAME_1":"Washington","NAME_2":"Skamania"}},
{"type":"Feature","geometry":{"type":"Polygon","coordinates":[[[-121.0111,48.2814],[-121.0015,48.2956],[-121.3375,48.2969],[-121.8306,48.2986],[-122.3658,48.2966],[-122.3926,48.2382],[-122.3917,48.2331],[-122.3564,48.1856],[-122.3708,48.1648],[-122.362,48.1204],[-122.3216,48.0808],[-122.2378,48.0303],[-122.2154,48.006],[-122.2506,47.9593],[-122.3066,47.9498],[-122.337,47.8505],[-122.3954,47.8066],[-122.3964,47.7787],[-121.972,47.776],[-121.4532,47.7783],[-121.1929,47.7821],[-121.1216,47.782],[-121.0721,47.8223],[-121.1383,47.8431],[-121.1745,47.8849],[-121.1807,47.9014],[-121.1644,47.9558],[-121.1122,48.0035],[-121.1531,48.0407],[-121.0284,48.0799],[-120.9421,48.1125],[-120.964,48.1368],[-120.906,48.1651],[-120.9224,48.1932],[-121.0035,48.2612],[-121.0111,48.2814]]]},"properties":{"GID_0":"USA","GID_1":"USA.48_1","GID_2":"USA.48.31_1","NAME_1":"Washington","NAME_2":"Snohomish"}},
{"type":"Feature","geometry":{"type":"Polygon","coordinates":[[[-117.0418,47.2586],[-117.0422,47.3665],[-117.0426,48.0459],[-117.5421,48.0477],[-117.5324,47.8019],[-117.5799,47.7951],[-117.7044,47.8571],[-117.7829,47.8181],[-117.8013,47.8129],[-117.8217,47.8234],[-117.8181,47.7],[-117.8217,47.6117],[-117.8212,47.3471],[-117.8228,47.2598],[-117.0418,47.2586]]]},"properties":{"GID_0":"USA","GID_1":"USA.48_1","GID_2":"USA.48.32_1","NAME_1":"Washington","NAME_2":"Spokane"}},
{"type":"Feature","geometry":{"type":"Polygon","coordinates":[[[-117.4325,48.9213],[-117.4335,49.0009],[-118.1998,49.0003],[-118.2193,48.9728],[-118.2119,48.8927],[-118.1945,48.8415],[-118.1288,48.7683],[-118.1217,48.7035],[-118.1023,48.6542],[-118.1304,48.5951],[-118.1272,48.5706],[-118.1522,48.5211],[-118.1733,48.5219],[-118.2037,48.4712],[-118.2038,48.4112],[-118.1819,48.3388],[-118.1379,48.2624],[-118.1905,48.2121],[-118.1879,48.1516],[-118.1978,48.1412],[-118.2461,48.1328],[-118.2307,48.0896],[-118.2627,48.045],[-118.3498,48.0482],[-118.3991,48.0268],[-118.3491,47.9662],[-118.3557,47.9317],[-118.3387,47.8951],[-118.2604,47.9348],[-118.2074,47.945],[-118.1831,47.9082],[-118.1228,47.8598],[-118.1032,47.8263],[-118.068,47.7953],[-118.0369,47.797],[-118.008,47.8149],[-117.9863,47.8348],[-117.9349,47.8237],[-117.8774,47.8466],[-117.8509,47.8355],[-117.8321,47.8342],[-117.8217,47.8234],[-117.8013,47.8129],[-117.7829,47.8181],[-117.7044,47.8571],[-117.5799,47.7951],[-117.5324,47.8019],[-117.5421,48.0477],[-117.4353,48.0472],[-117.4373,48.1344],[-117.5009,48.1344],[-117.5012,48.6551],[-117.6322,48.6551],[-117.631,48.7438],[-117.5626,48.7447],[-117.5618,48.8362],[-117.4988,48.8372],[-117.499,48.9205],[-117.4325,48.9213]]]},"properties":{"GID_0":"USA","GID_1":"USA.48_1","GID_2":"USA.48.33_1","NAME_1":"Washington","NAME_2":"Stevens"}},
{"type":"Feature","geometry":{"type":"Polygon","coordinates":[[[-123.1589,46.9974],[-123.1601,46.798],[-123.1607,46.7632],[-122.6159,46.7626],[-122.498,46.7648],[-122.2171,46.7636],[-122.2582,46.7676],[-122.3112,46.7908],[-122.3076,46.8285],[-122.4062,46.8441],[-122.4892,46.8677],[-122.5039,46.9139],[-122.5645,46.9392],[-122.5705,46.9606],[-122.6818,47.0315],[-122.7056,47.0857],[-122.6857,47.0987],[-122.728,47.1017],[-122.7858,47.127],[-122.8155,47.1781],[-122.9079,47.14],[-122.8928,47.1131],[-122.912,47.0556],[-122.9621,47.104],[-122.9421,47.1718],[-123.0273,47.1088],[-123.0738,47.1],[-123.0738,47.0849],[-123.2004,47.0848],[-123.2028,46.9974],[-123.1589,46.9974]]]},"properties":{"GID_0":"USA","GID_1":"USA.48_1","GID_2":"USA.48.34_1","NAME_1":"Washington","NAME_2":"Thurston"}},
{"type":"Feature","geometry":{"type":"MultiPolygon","coordinates":[[[[-123.3998,46.1963],[-123.4258,46.1824],[-123.3718,46.1515],[-123.3613,46.1805],[-123.3998,46.1963]]],[[[-123.7254,46.3855],[-123.7251,46.3017],[-123.6906,46.3036],[-123.6741,46.2689],[-123.5864,46.2598],[-123.4976,46.2738],[-123.4572,46.2687],[-123.4074,46.2135],[-123.323,46.1607],[-123.2832,46.1519],[-123.2127,46.1767],[-123.2205,46.3828],[-123.3601,46.3813],[-123.7254,46.3855]]]]},"properties":{"GID_0":"USA","GID_1":"USA.48_1","GID_2":"USA.48.35_1","NAME_1":"Washington","NAME_2":"Wahkiakum"}},
{"type":"Feature","geometry":{"type":"Polygon","coordinates":[[[-117.9973,46.0012],[-117.9915,46.0482],[-117.9908,46.2076],[-118.1189,46.2081],[-118.1184,46.2937],[-118.2427,46.2954],[-118.2455,46.5609],[-118.2326,46.5923],[-118.2482,46.5985],[-118.3227,46.6057],[-118.3759,46.5941],[-118.4239,46.5839],[-118.4703,46.5988],[-118.5436,46.5581],[-118.6185,46.5014],[-118.6389,46.4095],[-118.7397,46.3637],[-118.7744,46.3178],[-118.7698,46.2953],[-118.8233,46.2864],[-118.8583,46.2543],[-118.9776,46.2401],[-119.0255,46.2136],[-119.0405,46.1922],[-119.0313,46.1889],[-118.9766,46.1393],[-118.9433,46.078],[-118.9431,46.0299],[-118.983,46.007],[-118.9857,46.0036],[-118.4285,46.0034],[-117.9973,46.0012]]]},"properties":{"GID_0":"USA","GID_1":"USA.48_1","GID_2":"USA.48.36_1","NAME_1":"Washington","NAME_2":"WallaWalla"}},
{"type":"Feature","geometry":{"type":"MultiPolygon","coordinates":[[[[-120.8563,49.0001],[-121.9554,49],[-122.1162,49.0023],[-122.7539,49.0033],[-122.82,48.9392],[-122.7472,48.9314],[-122.7866,48.8855],[-122.7147,48.84],[-122.6486,48.7722],[-122.5391,48.7763],[-122.4936,48.7436],[-122.5191,48.7168],[-122.4967,48.6945],[-122.487,48.6435],[-121.8323,48.6448],[-121.3863,48.6432],[-120.9076,48.6394],[-120.9064,48.6598],[-120.7474,48.6587],[-120.6535,48.7249],[-120.7281,48.7766],[-120.7412,48.8232],[-120.7297,48.8533],[-120.7634,48.8805],[-120.7705,48.96],[-120.8342,48.9405],[-120.8809,48.9672],[-120.8563,49.0001]]],[[[-123.0354,49.0036],[-123.0917,49.0033],[-123.0817,48.9711],[-123.0217,48.9759],[-123.0354,49.0036]]]]},"properties":{"GID_0":"USA","GID_1":"USA.48_1","GID_2":"USA.48.37_1","NAME_1":"Washington","NAME_2":"Whatcom"}},
{"type":"Feature","geometry":{"type":"Polygon","coordinates":[[[-117.0418,47.2586],[-117.961,47.2606],[-117.9596,47.0028],[-117.9624,46.9133],[-117.9736,46.8635],[-118.0488,46.7713],[-118.1004,46.7735],[-118.1576,46.7493],[-118.2196,46.7393],[-118.2422,46.7365],[-118.2182,46.6829],[-118.2303,46.6578],[-118.2011,46.6239],[-118.2143,46.5856],[-118.1777,46.5551],[-118.1104,46.554],[-118.0891,46.5752],[-117.9556,46.5925],[-117.8997,46.5859],[-117.8551,46.6263],[-117.8056,46.6245],[-117.7325,46.6955],[-117.6865,46.7019],[-117.6541,46.7008],[-117.6188,46.6757],[-117.5531,46.6794],[-117.5041,46.6806],[-117.476,46.6997],[-117.4585,46.6934],[-117.4335,46.6598],[-117.3928,46.6533],[-117.3789,46.6122],[-117.345,46.5871],[-117.2915,46.5726],[-117.257,46.5484],[-117.2316,46.501],[-117.2372,46.4676],[-117.216,46.4578],[-117.2144,46.4276],[-117.1507,46.4307],[-117.0907,46.4177],[-117.038,46.4288],[-117.0418,47.2586]]]},"properties":{"GID_0":"USA","GID_1":"USA.48_1","GID_2":"USA.48.38_1","NAME_1":"Washington","NAME_2":"Whitman"}},
{"type":"Feature","geometry":{"type":"Polygon","coordinates":[[[-119.8764,46.628],[-119.9158,46.6543],[-119.9481,46.6792],[-119.9631,46.7026],[-119.9735,46.7288],[-119.9707,46.7371],[-120.4018,46.7367],[-120.5085,46.7381],[-120.5078,46.8243],[-120.6346,46.8259],[-120.635,46.9121],[-121.0202,46.91],[-121.141,47.0206],[-121.2226,47.0666],[-121.2788,47.0893],[-121.3631,47.0718],[-121.374,47.0869],[-121.3812,47.0813],[-121.408,46.9957],[-121.4561,46.9642],[-121.4464,46.9362],[-121.499,46.9042],[-121.5211,46.8747],[-121.4565,46.8095],[-121.4528,46.7852],[-121.4297,46.7427],[-121.3552,46.7166],[-121.3707,46.6917],[-121.4096,46.6819],[-121.4185,46.652],[-121.3852,46.6339],[-121.4197,46.5497],[-121.4561,46.5128],[-121.3855,46.4115],[-121.3922,46.3871],[-121.5196,46.3886],[-121.5188,46.0428],[-120.3681,46.0415],[-119.8662,46.0388],[-119.8641,46.1276],[-119.8737,46.2155],[-119.8764,46.628]]]},"properties":{"GID_0":"USA","GID_1":"USA.48_1","GID_2":"USA.48.39_1","NAME_1":"Washington","NAME_2":"Yakima"}}
]}