{"type":"FeatureCollection", "features": [
{"type":"Feature","geometry":{"type":"Polygon","coordinates":[[[-114.0493,38.1503],[-113.0325,38.1481],[-112.4806,38.1474],[-112.4754,38.1497],[-112.4362,38.1494],[-112.4368,38.163],[-112.4258,38.1816],[-112.3593,38.229],[-112.3805,38.2479],[-112.3381,38.3364],[-112.4184,38.4191],[-112.5032,38.4569],[-112.5171,38.5099],[-112.518,38.5502],[-112.5133,38.5575],[-112.5181,38.567],[-112.514,38.5729],[-112.73,38.57],[-113.2722,38.5715],[-114.0491,38.5728],[-114.0493,38.1503]]]},"properties":{"GID_0":"USA","GID_1":"USA.45_1","GID_2":"USA.45.1_1","NAME_1":"Utah","NAME_2":"Beaver"}},
{"type":"Feature","geometry":{"type":"Polygon","coordinates":[[[-112.1718,42.0018],[-112.9579,41.999],[-113.8526,41.9898],[-114.0404,41.9934],[-114.0403,41],[-113.6873,41.0038],[-112.9694,40.9977],[-112.8549,40.998],[-112.7965,41.0007],[-112.4938,41.0762],[-112.2381,41.3369],[-112.0265,41.3367],[-111.9176,41.4117],[-111.893,41.4206],[-111.8795,41.4401],[-111.9161,41.5388],[-111.996,41.5579],[-112.0444,41.7356],[-112.0119,41.7801],[-112.0513,41.8637],[-112.1718,42.0018]]]},"properties":{"GID_0":"USA","GID_1":"USA.45_1","GID_2":"USA.45.2_1","NAME_1":"Utah","NAME_2":"BoxElder"}},
{"type":"Feature","geometry":{"type":"Polygon","coordinates":[[[-111.507,42.0028],[-112.109,41.9982],[-112.1718,42.0018],[-112.0513,41.8637],[-112.0119,41.7801],[-112.0444,41.7356],[-111.996,41.5579],[-111.9161,41.5388],[-111.8795,41.4401],[-111.8836,41.4265],[-111.8683,41.3987],[-111.7351,41.3759],[-111.6957,41.417],[-111.5102,41.4242],[-111.4414,41.5315],[-111.426,41.6835],[-111.4594,41.8153],[-111.5004,41.8496],[-111.4709,41.9253],[-111.507,42.0028]]]},"properties":{"GID_0":"USA","GID_1":"USA.45_1","GID_2":"USA.45.3_1","NAME_1":"Utah","NAME_2":"Cache"}},
{"type":"Feature","geometry":{"type":"Polygon","coordinates":[[[-111.2468,39.7076],[-111.2319,39.7011],[-111.2219,39.6925],[-111.1868,39.6211],[-111.1291,39.6062],[-111.0769,39.4694],[-110.0235,39.4692],[-110.0201,39.4802],[-110.0368,39.5698],[-109.9841,39.6591],[-109.9891,39.7386],[-109.929,39.7458],[-109.8861,39.8031],[-110.0818,39.8053],[-110.5165,39.8058],[-110.8559,39.8157],[-111.0768,39.8152],[-111.2469,39.8155],[-111.2468,39.7076]]]},"properties":{"GID_0":"USA","GID_1":"USA.45_1","GID_2":"USA.45.4_1","NAME_1":"Utah","NAME_2":"Carbon"}},
{"type":"Feature","geometry":{"type":"Polygon","coordinates":[[[-109.0501,40.6545],[-109.049,41],[-110.0001,40.9992],[-110.0018,40.8096],[-109.9904,40.8063],[-109.9746,40.8065],[-109.8685,40.7607],[-109.6708,40.7927],[-109.5353,40.8287],[-109.4807,40.7418],[-109.3911,40.7877],[-109.3927,40.8585],[-109.2007,40.8581],[-109.1622,40.786],[-109.1572,40.6842],[-109.0501,40.6545]]]},"properties":{"GID_0":"USA","GID_1":"USA.45_1","GID_2":"USA.45.5_1","NAME_1":"Utah","NAME_2":"Daggett"}},
{"type":"Feature","geometry":{"type":"Polygon","coordinates":[[[-111.8574,41.136],[-111.9703,41.1511],[-112.1905,41.1523],[-112.4938,41.0762],[-112.2611,40.7706],[-112.0069,40.9201],[-111.9625,40.8526],[-111.8684,40.8235],[-111.7352,40.8627],[-111.791,40.9163],[-111.7884,40.9844],[-111.8472,41.0652],[-111.8574,41.136]]]},"properties":{"GID_0":"USA","GID_1":"USA.45_1","GID_2":"USA.45.6_1","NAME_1":"Utah","NAME_2":"Davis"}},
{"type":"Feature","geometry":{"type":"Polygon","coordinates":[[[-109.9729,39.8036],[-109.9757,40.1093],[-109.9738,40.346],[-109.9746,40.8065],[-109.9904,40.8063],[-110.0398,40.8193],[-110.2218,40.827],[-110.2551,40.8347],[-110.3235,40.8197],[-110.5172,40.7622],[-110.6245,40.7689],[-110.6535,40.7424],[-110.7499,40.7457],[-110.8929,40.6799],[-110.9001,40.6786],[-110.8937,40.4304],[-110.8887,39.9017],[-110.8569,39.9009],[-110.8559,39.8157],[-110.5165,39.8058],[-110.0818,39.8053],[-109.9729,39.8036]]]},"properties":{"GID_0":"USA","GID_1":"USA.45_1","GID_2":"USA.45.7_1","NAME_1":"Utah","NAME_2":"Duchesne"}},
{"type":"Feature","geometry":{"type":"Polygon","coordinates":[[[-111.2468,39.7076],[-111.2463,39.4687],[-111.3012,39.4676],[-111.3004,39.0542],[-111.2992,39.018],[-111.307,38.6726],[-111.305,38.4995],[-110.0237,38.4992],[-110.0441,38.5068],[-110.0384,38.5194],[-109.9965,38.5686],[-110.0126,38.5607],[-110.0167,38.5616],[-110.0216,38.5749],[-110.0062,38.6227],[-110.0168,38.6237],[-110.0236,38.6107],[-110.0661,38.6096],[-110.0694,38.6164],[-110.0646,38.6195],[-110.0588,38.6616],[-110.1142,38.7318],[-110.0816,38.7567],[-110.1455,38.8442],[-110.1431,38.8696],[-110.1642,38.8994],[-110.1775,38.9118],[-110.1366,38.9611],[-110.15,39.042],[-110.1171,39.0963],[-110.1061,39.1805],[-110.0525,39.2299],[-110.0767,39.2766],[-110.023,39.3515],[-110.0224,39.4612],[-110.0235,39.4692],[-111.0769,39.4694],[-111.1291,39.6062],[-111.1868,39.6211],[-111.2219,39.6925],[-111.2319,39.7011],[-111.2468,39.7076]]]},"properties":{"GID_0":"USA","GID_1":"USA.45_1","GID_2":"USA.45.8_1","NAME_1":"Utah","NAME_2":"Emery"}},
{"type":"Feature","geometry":{"type":"Polygon","coordinates":[[[-112.4806,38.1474],[-112.483,37.9788],[-112.4715,37.9059],[-112.5815,37.8832],[-112.5815,37.8057],[-112.6928,37.8065],[-112.6874,37.545],[-112.3658,37.5436],[-111.9154,37.5351],[-111.8446,37.5396],[-110.9844,37.539],[-110.6471,37.5403],[-110.6012,37.6055],[-110.5697,37.6142],[-110.4841,37.6807],[-110.3971,37.8845],[-110.2078,37.8955],[-110.2074,37.9367],[-110.1286,38.009],[-110.1122,38.0083],[-110.0898,37.9934],[-110.0792,37.9978],[-110.0769,38.0172],[-110.0651,38.0438],[-110.0173,38.1056],[-109.954,38.1299],[-109.9297,38.14],[-109.9267,38.1454],[-109.9271,38.1494],[-110.5101,38.1516],[-110.7313,38.1504],[-111.4173,38.1515],[-111.9516,38.152],[-112.0622,38.1497],[-112.2629,38.1504],[-112.4754,38.1497],[-112.4806,38.1474]]]},"properties":{"GID_0":"USA","GID_1":"USA.45_1","GID_2":"USA.45.9_1","NAME_1":"Utah","NAME_2":"Garfield"}},
{"type":"Feature","geometry":{"type":"Polygon","coordinates":[[[-109.0528,39.4976],[-109.1039,39.4623],[-110.0224,39.4612],[-110.023,39.3515],[-110.0767,39.2766],[-110.0525,39.2299],[-110.1061,39.1805],[-110.1171,39.0963],[-110.15,39.042],[-110.1366,38.9611],[-110.1775,38.9118],[-110.1642,38.8994],[-110.1431,38.8696],[-110.1455,38.8442],[-110.0816,38.7567],[-110.1142,38.7318],[-110.0588,38.6616],[-110.0646,38.6195],[-110.0694,38.6164],[-110.0661,38.6096],[-110.0236,38.6107],[-110.0168,38.6237],[-110.0062,38.6227],[-110.0216,38.5749],[-110.0167,38.5616],[-110.0126,38.5607],[-109.9965,38.5686],[-110.0384,38.5194],[-110.0441,38.5068],[-110.0237,38.4992],[-109.0602,38.4991],[-109.0538,39.0008],[-109.0528,39.4976]]]},"properties":{"GID_0":"USA","GID_1":"USA.45_1","GID_2":"USA.45.10_1","NAME_1":"Utah","NAME_2":"Grand"}},
{"type":"Feature","geometry":{"type":"Polygon","coordinates":[[[-114.0539,37.6075],[-113.592,37.6059],[-113.4784,37.6182],[-113.4772,37.5302],[-113.2601,37.5313],[-113.2605,37.481],[-113.0411,37.4744],[-113.0415,37.5007],[-112.9046,37.5005],[-112.9051,37.5449],[-112.6874,37.545],[-112.6928,37.8065],[-112.5815,37.8057],[-112.5815,37.8832],[-112.4715,37.9059],[-112.483,37.9788],[-112.4806,38.1474],[-113.0325,38.1481],[-114.0493,38.1503],[-114.0539,37.6075]]]},"properties":{"GID_0":"USA","GID_1":"USA.45_1","GID_2":"USA.45.11_1","NAME_1":"Utah","NAME_2":"Iron"}},
{"type":"Feature","geometry":{"type":"Polygon","coordinates":[[[-114.0468,39.543],[-113.8157,39.5516],[-113.0257,39.5515],[-112.2156,39.5532],[-112.1909,39.4699],[-112.1893,39.3357],[-112.0168,39.3132],[-112.0156,39.3364],[-111.9582,39.3373],[-111.9223,39.3814],[-111.7475,39.384],[-111.7118,39.4602],[-111.7177,39.6951],[-111.583,39.7839],[-111.622,39.7839],[-111.6412,39.798],[-111.6412,39.813],[-111.7657,39.8106],[-111.7385,39.8654],[-111.8315,39.9365],[-111.91,39.8953],[-111.9726,39.8064],[-112.0487,39.7774],[-112.0942,39.9541],[-112.1773,40.0112],[-112.2635,39.9412],[-112.3419,39.9038],[-114.0474,39.9053],[-114.0468,39.543]]]},"properties":{"GID_0":"USA","GID_1":"USA.45_1","GID_2":"USA.45.12_1","NAME_1":"Utah","NAME_2":"Juab"}},
{"type":"Feature","geometry":{"type":"Polygon","coordinates":[[[-111.4043,37.0037],[-111.3028,37.0131],[-111.2113,37.0574],[-111.1732,37.1062],[-110.9908,37.1111],[-110.8902,37.2005],[-110.8733,37.2855],[-110.7364,37.3463],[-110.7033,37.418],[-110.7478,37.4561],[-110.6683,37.4952],[-110.6471,37.5403],[-110.9844,37.539],[-111.8446,37.5396],[-111.9154,37.5351],[-112.3658,37.5436],[-112.9051,37.5449],[-112.9041,37.4579],[-112.9056,37.2992],[-112.9037,37.0027],[-111.4043,37.0037]]]},"properties":{"GID_0":"USA","GID_1":"USA.45_1","GID_2":"USA.45.13_1","NAME_1":"Utah","NAME_2":"Kane"}},
{"type":"Feature","geometry":{"type":"Polygon","coordinates":[[[-114.0491,38.5728],[-113.2722,38.5715],[-112.73,38.57],[-112.5176,38.5733],[-112.5028,38.5716],[-112.4863,38.6455],[-112.4482,38.6815],[-112.3096,38.6769],[-112.2361,38.7269],[-112.2259,38.8643],[-112.1905,38.8652],[-112.1357,38.9573],[-112.0658,38.9601],[-112.0156,39.0236],[-112.0168,39.3132],[-112.1893,39.3357],[-112.1909,39.4699],[-112.2156,39.5532],[-113.0257,39.5515],[-113.8157,39.5516],[-114.0468,39.543],[-114.052,38.9994],[-114.0491,38.5728]]]},"properties":{"GID_0":"USA","GID_1":"USA.45_1","GID_2":"USA.45.14_1","NAME_1":"Utah","NAME_2":"Millard"}},
{"type":"Feature","geometry":{"type":"Polygon","coordinates":[[[-111.7352,40.8627],[-111.6982,40.8617],[-111.6684,40.8544],[-111.6401,40.8194],[-111.6432,40.7953],[-111.5151,40.7945],[-111.4837,40.8601],[-111.5256,40.956],[-111.5923,40.9889],[-111.5298,41.0531],[-111.4932,41.0657],[-111.3802,41.0874],[-111.3692,41.0982],[-111.2913,41.1432],[-111.2651,41.1444],[-111.2318,41.1769],[-111.2762,41.2466],[-111.2647,41.2933],[-111.3302,41.3553],[-111.4188,41.3621],[-111.4483,41.2756],[-111.4925,41.2422],[-111.589,41.2416],[-111.6131,41.2081],[-111.7035,41.1825],[-111.773,41.2194],[-111.8555,41.1986],[-111.8574,41.136],[-111.8472,41.0652],[-111.7884,40.9844],[-111.791,40.9163],[-111.7352,40.8627]]]},"properties":{"GID_0":"USA","GID_1":"USA.45_1","GID_2":"USA.45.15_1","NAME_1":"Utah","NAME_2":"Morgan"}},
{"type":"Feature","geometry":{"type":"Polygon","coordinates":[[[-112.4362,38.1494],[-112.0622,38.1497],[-111.9516,38.152],[-111.8427,38.1528],[-111.8486,38.4261],[-111.8215,38.4588],[-111.7658,38.5018],[-112.0625,38.501],[-112.0631,38.5114],[-112.5171,38.5099],[-112.5032,38.4569],[-112.4184,38.4191],[-112.3381,38.3364],[-112.3805,38.2479],[-112.3593,38.229],[-112.4258,38.1816],[-112.4368,38.163],[-112.4362,38.1494]]]},"properties":{"GID_0":"USA","GID_1":"USA.45_1","GID_2":"USA.45.16_1","NAME_1":"Utah","NAME_2":"Piute"}},
{"type":"Feature","geometry":{"type":"Polygon","coordinates":[[[-111.507,42.0028],[-111.4709,41.9253],[-111.5004,41.8496],[-111.4594,41.8153],[-111.426,41.6835],[-111.4414,41.5315],[-111.5102,41.4242],[-111.4188,41.3621],[-111.3302,41.3553],[-111.2647,41.2933],[-111.2762,41.2466],[-111.2318,41.1769],[-111.2651,41.1444],[-111.2431,41.1452],[-111.1579,41.1778],[-111.0458,41.2514],[-111.0463,42.0005],[-111.507,42.0028]]]},"properties":{"GID_0":"USA","GID_1":"USA.45_1","GID_2":"USA.45.17_1","NAME_1":"Utah","NAME_2":"Rich"}},
{"type":"Feature","geometry":{"type":"Polygon","coordinates":[[[-112.2611,40.7706],[-112.196,40.6927],[-112.173,40.4674],[-112.0213,40.4398],[-111.9748,40.4149],[-111.9126,40.4416],[-111.7619,40.5276],[-111.6796,40.5328],[-111.5983,40.5789],[-111.5638,40.5855],[-111.5497,40.6118],[-111.593,40.6541],[-111.5897,40.704],[-111.6438,40.7926],[-111.6401,40.8194],[-111.6684,40.8544],[-111.6982,40.8617],[-111.7352,40.8627],[-111.8684,40.8235],[-111.9625,40.8526],[-112.0069,40.9201],[-112.2611,40.7706]]]},"properties":{"GID_0":"USA","GID_1":"USA.45_1","GID_2":"USA.45.18_1","NAME_1":"Utah","NAME_2":"SaltLake"}},
{"type":"Feature","geometry":{"type":"Polygon","coordinates":[[[-111.4043,37.0037],[-110.6102,37.0046],[-110.4719,36.9996],[-109.0449,36.9986],[-109.0437,37.7536],[-109.0409,38.1603],[-109.0607,38.2768],[-109.0602,38.4991],[-110.0237,38.4992],[-110.0043,38.4127],[-109.9132,38.2693],[-109.8875,38.205],[-109.9048,38.1917],[-109.9032,38.1889],[-109.8844,38.1909],[-109.9023,38.178],[-109.9299,38.1558],[-109.9267,38.1454],[-109.9297,38.14],[-109.954,38.1299],[-110.0173,38.1056],[-110.0651,38.0438],[-110.0769,38.0172],[-110.0792,37.9978],[-110.0898,37.9934],[-110.1122,38.0083],[-110.1286,38.009],[-110.2074,37.9367],[-110.2078,37.8955],[-110.3971,37.8845],[-110.4841,37.6807],[-110.5697,37.6142],[-110.6012,37.6055],[-110.6471,37.5403],[-110.6683,37.4952],[-110.7478,37.4561],[-110.7033,37.418],[-110.7364,37.3463],[-110.8733,37.2855],[-110.8902,37.2005],[-110.9908,37.1111],[-111.1732,37.1062],[-111.2113,37.0574],[-111.3028,37.0131],[-111.4043,37.0037]]]},"properties":{"GID_0":"USA","GID_1":"USA.45_1","GID_2":"USA.45.19_1","NAME_1":"Utah","NAME_2":"SanJuan"}},
{"type":"Feature","geometry":{"type":"Polygon","coordinates":[[[-111.2469,39.8155],[-111.6412,39.813],[-111.6412,39.798],[-111.622,39.7839],[-111.583,39.7839],[-111.7177,39.6951],[-111.7118,39.4602],[-111.7475,39.384],[-111.9223,39.3814],[-111.9582,39.3373],[-112.0156,39.3364],[-112.0156,39.0465],[-111.8527,39.033],[-111.2995,39.0324],[-111.3004,39.0542],[-111.3012,39.4676],[-111.2463,39.4687],[-111.2469,39.8155]]]},"properties":{"GID_0":"USA","GID_1":"USA.45_1","GID_2":"USA.45.20_1","NAME_1":"Utah","NAME_2":"Sanpete"}},
{"type":"Feature","geometry":{"type":"Polygon","coordinates":[[[-112.5171,38.5099],[-112.0631,38.5114],[-112.0625,38.501],[-111.9578,38.5005],[-111.7658,38.5018],[-111.7573,38.5094],[-111.305,38.5099],[-111.307,38.6726],[-111.2992,39.018],[-111.2995,39.0324],[-111.8527,39.033],[-112.0156,39.0465],[-112.0156,39.0236],[-112.0658,38.9601],[-112.1357,38.9573],[-112.1905,38.8652],[-112.2259,38.8643],[-112.2361,38.7269],[-112.3096,38.6769],[-112.4482,38.6815],[-112.4863,38.6455],[-112.5028,38.5716],[-112.514,38.5729],[-112.5181,38.567],[-112.5133,38.5575],[-112.518,38.5502],[-112.5171,38.5099]]]},"properties":{"GID_0":"USA","GID_1":"USA.45_1","GID_2":"USA.45.21_1","NAME_1":"Utah","NAME_2":"Sevier"}},
{"type":"Feature","geometry":{"type":"Polygon","coordinates":[[[-110.0001,40.9992],[-110.2764,40.9963],[-111.0456,40.9978],[-111.0458,41.2514],[-111.1579,41.1778],[-111.2431,41.1452],[-111.2913,41.1432],[-111.3692,41.0982],[-111.3802,41.0874],[-111.4932,41.0657],[-111.5298,41.0531],[-111.5923,40.9889],[-111.5256,40.956],[-111.4837,40.8601],[-111.5151,40.7945],[-111.6432,40.7953],[-111.6438,40.7926],[-111.5897,40.704],[-111.593,40.6541],[-111.5497,40.6118],[-111.4807,40.6102],[-111.4092,40.6806],[-111.3733,40.6315],[-111.1622,40.5531],[-111.1218,40.5914],[-110.9705,40.5921],[-110.9269,40.6761],[-110.8929,40.6799],[-110.7499,40.7457],[-110.6535,40.7424],[-110.6245,40.7689],[-110.5172,40.7622],[-110.3235,40.8197],[-110.2551,40.8347],[-110.2218,40.827],[-110.0398,40.8193],[-110.0018,40.8096],[-110.0001,40.9992]]]},"properties":{"GID_0":"USA","GID_1":"USA.45_1","GID_2":"USA.45.22_1","NAME_1":"Utah","NAME_2":"Summit"}},
{"type":"Feature","geometry":{"type":"Polygon","coordinates":[[[-114.0403,41],[-114.0463,40.4287],[-114.0474,39.9053],[-112.3419,39.9038],[-112.2635,39.9412],[-112.1773,40.0112],[-112.1746,40.1354],[-112.1452,40.1744],[-112.1918,40.2664],[-112.1769,40.3358],[-112.2116,40.4587],[-112.173,40.4674],[-112.196,40.6927],[-112.2611,40.7706],[-112.4938,41.0762],[-112.7965,41.0007],[-112.8263,40.9991],[-113.0041,40.9978],[-113.6873,41.0038],[-114.0403,41]]]},"properties":{"GID_0":"USA","GID_1":"USA.45_1","GID_2":"USA.45.23_1","NAME_1":"Utah","NAME_2":"Tooele"}},
{"type":"Feature","geometry":{"type":"Polygon","coordinates":[[[-109.0528,39.4976],[-109.0525,39.6693],[-109.0501,40.6545],[-109.1572,40.6842],[-109.1622,40.786],[-109.2007,40.8581],[-109.3927,40.8585],[-109.3911,40.7877],[-109.4807,40.7418],[-109.5353,40.8287],[-109.6708,40.7927],[-109.8685,40.7607],[-109.9746,40.8065],[-109.9738,40.346],[-109.9757,40.1093],[-109.9729,39.8036],[-109.8861,39.8031],[-109.929,39.7458],[-109.9891,39.7386],[-109.9841,39.6591],[-110.0368,39.5698],[-110.0201,39.4802],[-110.0224,39.4612],[-109.1039,39.4623],[-109.0528,39.4976]]]},"properties":{"GID_0":"USA","GID_1":"USA.45_1","GID_2":"USA.45.24_1","NAME_1":"Utah","NAME_2":"Uintah"}},
{"type":"Feature","geometry":{"type":"Polygon","coordinates":[[[-110.8559,39.8157],[-110.8569,39.9009],[-111.0703,39.9022],[-111.0715,39.9458],[-111.2479,40.0576],[-111.2207,40.1349],[-111.2867,40.2668],[-111.3883,40.2987],[-111.4819,40.3612],[-111.5525,40.3624],[-111.5907,40.4314],[-111.5658,40.5484],[-111.5923,40.577],[-111.5983,40.5789],[-111.6796,40.5328],[-111.7619,40.5276],[-111.9126,40.4416],[-111.9748,40.4149],[-112.0213,40.4398],[-112.173,40.4674],[-112.2116,40.4587],[-112.1769,40.3358],[-112.1918,40.2664],[-112.1452,40.1744],[-112.1746,40.1354],[-112.1773,40.0112],[-112.0942,39.9541],[-112.0487,39.7774],[-111.9726,39.8064],[-111.91,39.8953],[-111.8315,39.9365],[-111.7385,39.8654],[-111.7657,39.8106],[-111.7373,39.812],[-111.3086,39.8154],[-111.0768,39.8152],[-110.8559,39.8157]]]},"properties":{"GID_0":"USA","GID_1":"USA.45_1","GID_2":"USA.45.25_1","NAME_1":"Utah","NAME_2":"Utah"}},
{"type":"Feature","geometry":{"type":"Polygon","coordinates":[[[-110.9001,40.6786],[-110.9269,40.6761],[-110.9705,40.5921],[-111.1218,40.5914],[-111.1622,40.5531],[-111.3733,40.6315],[-111.4092,40.6806],[-111.4807,40.6102],[-111.5497,40.6118],[-111.5638,40.5855],[-111.5923,40.577],[-111.5658,40.5484],[-111.5907,40.4314],[-111.5525,40.3624],[-111.4819,40.3612],[-111.3883,40.2987],[-111.2867,40.2668],[-111.2207,40.1349],[-111.2479,40.0576],[-111.0715,39.9458],[-111.0703,39.9022],[-110.8887,39.9017],[-110.8937,40.4304],[-110.9001,40.6786]]]},"properties":{"GID_0":"USA","GID_1":"USA.45_1","GID_2":"USA.45.26_1","NAME_1":"Utah","NAME_2":"Wasatch"}},
{"type":"Feature","geometry":{"type":"Polygon","coordinates":[[[-112.9037,37.0027],[-112.9056,37.2992],[-112.9046,37.5005],[-113.0415,37.5007],[-113.0411,37.4744],[-113.2605,37.481],[-113.2601,37.5313],[-113.4772,37.5302],[-113.4784,37.6182],[-113.592,37.6059],[-114.0539,37.6075],[-114.051,37],[-112.9037,37.0027]]]},"properties":{"GID_0":"USA","GID_1":"USA.45_1","GID_2":"USA.45.27_1","NAME_1":"Utah","NAME_2":"Washington"}},
{"type":"Feature","geometry":{"type":"Polygon","coordinates":[[[-111.305,38.5099],[-111.7573,38.5094],[-111.8215,38.4588],[-111.8486,38.4261],[-111.8427,38.1528],[-111.4173,38.1515],[-110.7313,38.1504],[-110.5101,38.1516],[-109.9271,38.1494],[-109.9299,38.1558],[-109.9023,38.178],[-109.8844,38.1909],[-109.9032,38.1889],[-109.9048,38.1917],[-109.8875,38.205],[-109.9132,38.2693],[-110.0043,38.4127],[-110.0237,38.4992],[-111.305,38.4995],[-111.305,38.5099]]]},"properties":{"GID_0":"USA","GID_1":"USA.45_1","GID_2":"USA.45.28_1","NAME_1":"Utah","NAME_2":"Wayne"}},
{"type":"Feature","geometry":{"type":"Polygon","coordinates":[[[-112.4938,41.0762],[-112.1905,41.1523],[-111.9703,41.1511],[-111.8574,41.136],[-111.8555,41.1986],[-111.773,41.2194],[-111.7035,41.1825],[-111.6131,41.2081],[-111.589,41.2416],[-111.4925,41.2422],[-111.4483,41.2756],[-111.4188,41.3621],[-111.5102,41.4242],[-111.6957,41.417],[-111.7351,41.3759],[-111.8683,41.3987],[-111.8836,41.4265],[-111.893,41.4206],[-111.9176,41.4117],[-112.0265,41.3367],[-112.2381,41.3369],[-112.4938,41.0762]]]},"properties":{"GID_0":"USA","GID_1":"USA.45_1","GID_2":"USA.45.29_1","NAME_1":"Utah","NAME_2":"Weber"}}
]}