{"type":"FeatureCollection", "features": [
{"type":"Feature","geometry":{"type":"Polygon","coordinates":[[[32.7043,-18.9602],[32.7124,-18.8285],[32.8146,-18.7788],[32.9278,-18.7663],[32.9541,-18.6902],[32.8759,-18.5173],[33.0153,-18.4726],[33.0543,-18.3578],[32.9404,-18.0306],[32.9601,-17.8175],[33.0432,-17.6034],[32.9814,-17.5628],[32.9623,-17.4814],[33.0453,-17.347],[32.9974,-17.3086],[32.9865,-17.1793],[32.938,-17.0686],[32.8332,-16.9209],[32.9122,-16.8942],[32.9785,-16.7072],[32.7698,-16.7094],[32.7023,-16.6751],[32.712,-16.6025],[32.412,-16.4696],[32.2853,-16.4346],[32.0375,-16.4424],[31.9135,-16.4129],[31.8938,-16.3365],[31.6917,-16.2017],[31.4321,-16.1562],[31.3073,-16.0272],[31.144,-15.9847],[30.9821,-16.059],[30.921,-16],[30.4219,-16.0008],[30.4224,-15.6225],[30.2013,-15.6502],[30.1751,-15.6178],[29.9817,-15.6369],[29.8007,-15.6073],[29.6576,-15.6542],[29.4527,-15.6805],[29.214,-15.7809],[29.0952,-15.8648],[29.0235,-15.9457],[28.9542,-15.9444],[28.8741,-16.031],[28.8541,-16.1595],[28.8655,-16.3711],[28.8293,-16.4917],[28.7531,-16.5556],[28.6745,-16.5628],[28.2757,-16.7279],[28.1696,-16.8277],[27.8376,-16.9634],[27.6298,-17.2476],[27.6203,-17.3344],[27.5523,-17.4107],[27.3438,-17.5754],[27.1317,-17.8019],[27.1461,-17.8415],[27.0347,-17.9622],[26.8262,-17.9901],[26.7178,-18.0774],[26.5868,-18.0424],[26.554,-17.9858],[26.3992,-17.9359],[26.2381,-17.9131],[26.1009,-17.9211],[26.0918,-17.9673],[25.979,-17.9965],[25.8599,-17.9683],[25.8498,-17.9016],[25.6735,-17.8052],[25.6181,-17.8354],[25.3433,-17.8295],[25.2677,-17.7825],[25.238,-17.9107],[25.3221,-18.0776],[25.3949,-18.1203],[25.5214,-18.3792],[25.6915,-18.5693],[25.783,-18.623],[25.8261,-18.8349],[25.9504,-18.908],[25.9967,-19.0252],[25.9756,-19.1296],[26.1423,-19.4362],[26.1702,-19.5424],[26.3572,-19.611],[26.4153,-19.7234],[26.5721,-19.7932],[26.6163,-19.876],[26.7263,-19.9376],[26.8519,-19.9592],[26.9711,-20.0118],[27.0462,-20.0095],[27.2357,-20.1177],[27.305,-20.3258],[27.2897,-20.497],[27.3628,-20.4667],[27.7303,-20.5231],[27.7063,-20.665],[27.736,-20.7604],[27.6929,-20.8777],[27.7016,-21.0992],[27.8049,-21.1737],[27.9199,-21.3296],[28.0191,-21.572],[28.1975,-21.6017],[28.3806,-21.6078],[28.5007,-21.6679],[28.5822,-21.6284],[28.8601,-21.7523],[28.9901,-21.7673],[29.0783,-21.8166],[29.022,-21.9323],[29.1066,-22.0601],[29.2482,-22.0585],[29.3628,-22.1903],[29.582,-22.1388],[29.7734,-22.1383],[30.0212,-22.2317],[30.1176,-22.304],[30.2332,-22.2946],[30.2746,-22.345],[30.3909,-22.3471],[30.4791,-22.3155],[30.639,-22.3306],[30.8317,-22.2894],[31.087,-22.3453],[31.1599,-22.3276],[31.2743,-22.3727],[31.3815,-22.3718],[31.7578,-21.9939],[32.3998,-21.3276],[32.476,-21.3113],[32.363,-21.1396],[32.4684,-21.0118],[32.5168,-20.9144],[32.4885,-20.6275],[32.5669,-20.5529],[32.6676,-20.5545],[32.8637,-20.2861],[32.8389,-20.2193],[32.8702,-20.1036],[32.9211,-20.043],[33.014,-20.011],[33.0528,-19.7806],[32.8897,-19.6847],[32.8528,-19.6238],[32.8449,-19.4765],[32.7857,-19.3867],[32.8526,-19.2787],[32.8775,-19.1128],[32.8453,-19.0248],[32.7169,-19.0238],[32.7043,-18.9602]]]},"properties":{"GID_0":"ZWE","ISO_A2":"ZW","ISO_A3":"ZWE","NAME_EN":"Zimbabwe","NAME_IT":"Zimbabwe"}}
]}