{"type":"FeatureCollection", "features": [
{"type":"Feature","geometry":{"type":"MultiPolygon","coordinates":[[[[5.477904048355356,5.534623840314873],[5.4968,5.5715],[5.491,5.5843],[5.476,5.589],[5.4718,5.5879],[5.4663,5.5913],[5.4496,5.5788],[5.439,5.5807],[5.4365,5.5851],[5.424,5.5832],[5.4154,5.5746],[5.4018,5.5496],[5.4288,5.4657],[5.4554,5.4793],[5.4701,5.506],[5.466,5.5143],[5.4701,5.5282],[5.477904048355356,5.534623840314873]]],[[[5.6568,5.434],[5.6918,5.4204],[5.7032,5.3946],[5.7179,5.3874],[5.7146,5.371],[5.6718,5.339],[5.639,5.3626],[5.6046,5.3332],[5.5793,5.3704],[5.5543,5.3885],[5.5421,5.3676],[5.464,5.3474],[5.4726,5.3274],[5.4685,5.2999],[5.491,5.301],[5.4926,5.2562],[5.4612,5.2226],[5.4518,5.1835],[5.4693,5.1649],[5.4635,5.1435],[5.3774,5.1268],[5.4326,5.0049],[5.4454,4.9549],[5.5007,4.8463],[5.5293,4.8215],[5.5588,4.8304],[5.576,4.8115],[5.6176,4.8368],[5.6113,4.8193],[5.6104,4.8021],[5.6157,4.8004],[5.6265,4.8104],[5.639,4.8099],[5.6696,4.7974],[5.6938,4.8074],[5.696,4.8113],[5.7004,4.8113],[5.7165,4.8079],[5.7265,4.7987],[5.7549,4.7954],[5.7657,4.8093],[5.7799,4.8054],[5.7562,4.7701],[5.7557,4.7596],[5.7279,4.7257],[5.7082,4.7154],[5.6685,4.6726],[5.656,4.6729],[5.6279,4.691],[5.5751,4.6868],[5.6668,4.5565],[5.711275012224939,4.538996234718826],[5.726,4.5132],[5.7501,4.5201],[5.784612875536481,4.55369270386266],[5.7763,4.5293],[5.726,4.5057],[5.7449,4.4829],[5.7957,4.4579],[5.791,4.4485],[5.8846,4.3737],[5.9607,4.336],[5.9782,4.311],[6.0665,4.2874],[6.0696,4.3235],[6.0435,4.3549],[6.0482,4.3715],[6.0349,4.4065],[6.0768,4.4021],[6.1215,4.421],[6.129,4.4368],[6.1496,4.3954],[6.1376,4.3663],[6.1246,4.3626],[6.0999,4.3668],[6.1013,4.3396],[6.1365,4.3265],[6.1485,4.3301],[6.1585,4.3288],[6.1704,4.3199],[6.1846,4.3274],[6.214,4.3238],[6.2379,4.3882],[6.234,4.4096],[6.1974,4.4276],[6.1876,4.4443],[6.1857,4.496],[6.1732,4.5188],[6.1843,4.5957],[6.1988,4.5921],[6.1949,4.5393],[6.2063,4.5151],[6.2071,4.4582],[6.2443,4.4004],[6.2638,4.3849],[6.3024,4.416],[6.2974,4.4562],[6.301,4.4635],[6.3093,4.469],[6.324,4.4679],[6.3376,4.4782],[6.3474,4.471],[6.3435,4.4229],[6.3532,4.4015],[6.3549,4.3751],[6.3757,4.3715],[6.4015,4.3354],[6.4443,4.316],[6.5832,4.3263],[6.5854,4.3546],[6.5507,4.4201],[6.5268,4.4396],[6.544,4.479],[6.5515,4.4726],[6.5585,4.4626],[6.5637,4.4718],[6.5768,4.471],[6.576,4.4901],[6.5796,4.4965],[6.604,4.4635],[6.6026,4.3865],[6.5943,4.3535],[6.6307,4.3185],[6.6462,4.3343],[6.7001,4.3393],[6.6913,4.3985],[6.669,4.4171],[6.671,4.4535],[6.654,4.5012],[6.634,4.5087],[6.6124,4.5421],[6.5943,4.546],[6.5851,4.6418],[6.6026,4.6454],[6.6238,4.6265],[6.6174,4.6057],[6.6393,4.5976],[6.6513,4.5663],[6.6785,4.5276],[6.6599,4.5115],[6.7113,4.4524],[6.7129,4.3638],[6.7351,4.3496],[6.7657,4.3471],[6.8646,4.3585],[6.8326,4.4054],[6.8332,4.4318],[6.8007,4.5285],[6.7965,4.574],[6.8282,4.6063],[6.8232,4.621],[6.7735,4.6704],[6.7576,4.7457],[6.7596,4.7704],[6.7338,4.8012],[6.7754,4.8113],[6.7907,4.7976],[6.8015,4.8035],[6.8068,4.791],[6.8165,4.7943],[6.8232,4.8062],[6.8257,4.826],[6.8549,4.8079],[6.884,4.804],[6.8926,4.7932],[6.939,4.7963],[6.9496,4.7737],[6.9657,4.7707],[6.9762,4.7579],[7.0004,4.774],[7.0035,4.7424],[7.0271,4.7149],[7.0604,4.7274],[7.0535,4.7668],[7.0712,4.7774],[7.1051,4.6751],[7.1521,4.6643],[7.1968,4.6238],[7.2079,4.6435],[7.2387,4.5774],[7.241,4.5421],[7.2665,4.5021],[7.2871,4.526],[7.2704,4.5449],[7.2824,4.6035],[7.336,4.579],[7.3804,4.571],[7.441,4.5429],[7.4685,4.5696],[7.4971,4.561],[7.5154,4.5329],[7.5301,4.5476],[7.5529,4.5199],[7.5879,4.5046],[7.6093,4.4729],[7.6629,4.4943],[7.6724,4.5199],[7.7329,4.5099],[7.8082,4.5179],[7.9854,4.5424],[8.1657,4.5465],[8.2757,4.534],[8.3054,4.6101],[8.3276,4.6415],[8.3237,4.7088],[8.3115,4.7224],[8.3179,4.751],[8.3563,4.7863],[8.3746,4.776],[8.3962,4.7354],[8.424,4.7268],[8.4704,4.7396],[8.4563,4.6987],[8.4801,4.689],[8.5093,4.694],[8.5318,4.7104],[8.5224,4.7337],[8.5413,4.7966],[8.597,4.8012],[8.6265,4.8175],[8.6255,4.8439],[8.603,4.8724],[8.622,4.905],[8.6519,4.915],[8.649,4.9349],[8.6781,4.973],[8.6824,4.9954],[8.7211,5.0418],[8.7253,5.0748],[8.7484,5.1012],[8.7886,5.1241],[8.8187,5.1856],[8.8128,5.2202],[8.8152,5.2838],[8.8342,5.3285],[8.8402,5.3878],[8.831,5.43],[8.8405,5.4546],[8.8918,5.5175],[8.9203,5.5647],[8.8986,5.6242],[8.8366,5.6796],[8.8322,5.7059],[8.8541,5.7087],[8.8678,5.7352],[8.883,5.7928],[8.8492,5.8025],[8.8397,5.8231],[8.8588,5.8451],[8.9029,5.8631],[8.9142,5.9041],[8.9451,5.9112],[9.0536,5.9992],[9.1526,6.0906],[9.1675,6.1307],[9.2117,6.1673],[9.2657,6.1842],[9.3082,6.2628],[9.3364,6.3033],[9.3348,6.3221],[9.3524,6.353],[9.4313,6.3172],[9.442,6.3486],[9.4677,6.4562],[9.5136,6.4431],[9.5419,6.4494],[9.588,6.4752],[9.5828,6.4929],[9.5972,6.5305],[9.6662,6.5127],[9.7015,6.5107],[9.7199,6.5583],[9.731,6.611],[9.7531,6.6741],[9.7697,6.7662],[9.7794,6.7945],[9.8639,6.7765],[9.8884,6.7954],[10.0201,6.9205],[10.0483,6.9395],[10.1534,7.0385],[10.1845,6.9666],[10.1741,6.9382],[10.2171,6.8888],[10.4631,6.9148],[10.4959,6.9148],[10.5281,6.9266],[10.551,6.9777],[10.5663,7.1469],[10.5978,7.1454],[10.607,7.1033],[10.5977,7.0779],[10.6276,7.0494],[10.6836,7.036],[10.7208,6.9893],[10.7384,6.9901],[10.7655,6.9574],[10.7822,6.968],[10.8412,6.9396],[10.8433,6.9207],[10.8177,6.8531],[10.8405,6.8118],[10.8804,6.7955],[10.8894,6.7749],[10.9171,6.7552],[10.9192,6.7085],[10.9471,6.6883],[10.9943,6.687],[11.0323,6.716],[11.0686,6.7109],[11.0966,6.6821],[11.0939,6.6119],[11.0991,6.5216],[11.1186,6.5177],[11.1424,6.5341],[11.1843,6.5247],[11.2179,6.5396],[11.241,6.5237],[11.2802,6.5386],[11.3156,6.5088],[11.3376,6.5079],[11.3657,6.5277],[11.4239,6.5302],[11.4321,6.5449],[11.4189,6.5972],[11.464,6.6113],[11.4942,6.5998],[11.522,6.619],[11.5258,6.645],[11.5556,6.6705],[11.5515,6.7158],[11.5858,6.7406],[11.5724,6.7877],[11.5875,6.7983],[11.5809,6.8395],[11.5545,6.8641],[11.5833,6.9088],[11.6066,6.9112],[11.6192,6.9761],[11.6692,6.9985],[11.6857,7.0213],[11.7171,7.0316],[11.7329,7.0577],[11.783,7.0509],[11.8069,7.0814],[11.8269,7.073],[11.874,7.1036],[11.8429,7.1536],[11.8348,7.1912],[11.8507,7.229],[11.8137,7.2281],[11.8807,7.3073],[11.8923,7.3485],[11.9433,7.3944],[11.9403,7.4168],[11.9623,7.433],[11.9653,7.474],[11.9809,7.4934],[12.0343,7.5211],[12.0205,7.5397],[12.0154,7.5736],[12.0186,7.625],[12.0071,7.6595],[12.0261,7.6638],[12.0319,7.7302],[12.0553,7.7572],[12.0525,7.7726],[12.0765,7.8051],[12.0885,7.8364],[12.1295,7.8678],[12.1537,7.8953],[12.1876,7.9588],[12.2057,7.9706],[12.2213,8.0026],[12.2184,8.069],[12.2113,8.1066],[12.2422,8.1647],[12.2574,8.1765],[12.2573,8.2255],[12.2388,8.3391],[12.2647,8.3701],[12.2474,8.3859],[12.2689,8.4463],[12.2995,8.4438],[12.3134,8.4258],[12.3818,8.4822],[12.4213,8.4947],[12.4657,8.5244],[12.4463,8.5641],[12.4457,8.6009],[12.4826,8.6432],[12.5599,8.6261],[12.5753,8.614],[12.6153,8.6391],[12.6323,8.636],[12.6932,8.6622],[12.7106,8.7016],[12.715,8.7542],[12.7588,8.7604],[12.7858,8.7431],[12.798,8.7878],[12.8118,8.8004],[12.8009,8.8533],[12.804,8.9165],[12.8209,8.9357],[12.8385,9.0073],[12.8876,9.0877],[12.8981,9.1169],[12.8838,9.1466],[12.886,9.1803],[12.9136,9.2516],[12.9087,9.2847],[12.9166,9.3379],[12.8924,9.355],[12.8657,9.3588],[12.871,9.3914],[12.9368,9.4193],[12.9671,9.4513],[12.9723,9.4711],[13.0049,9.4834],[13.0343,9.5113],[13.0738,9.5144],[13.0926,9.527],[13.1259,9.5285],[13.2077,9.5578],[13.2361,9.621],[13.2289,9.6522],[13.2331,9.688],[13.2468,9.6916],[13.2582,9.743],[13.2589,9.7776],[13.2991,9.8277],[13.2421,9.864],[13.2368,9.9197],[13.2694,9.9332],[13.286,9.958],[13.2776,9.9912],[13.2476,10.0005],[13.2522,10.0422],[13.2877,10.063],[13.2907,10.0831],[13.3465,10.1136],[13.4341,10.1348],[13.4675,10.164],[13.4832,10.2013],[13.4656,10.2462],[13.4874,10.2954],[13.4983,10.3395],[13.4977,10.3947],[13.5239,10.4039],[13.5383,10.4519],[13.5281,10.4662],[13.574,10.5353],[13.5583,10.5584],[13.5668,10.5837],[13.5474,10.6212],[13.5709,10.6347],[13.5869,10.6799],[13.6213,10.719],[13.6509,10.7914],[13.6519,10.8206],[13.7013,10.8466],[13.7188,10.8764],[13.7261,10.9315],[13.708,10.972],[13.7263,10.9835],[13.7347,11.0114],[13.7849,11.0076],[13.8185,11.0743],[13.8554,11.1007],[13.8817,11.1534],[13.9062,11.1682],[13.9153,11.197],[13.9403,11.2244],[13.9686,11.2804],[13.9806,11.3188],[14.0678,11.2822],[14.1008,11.2788],[14.1107,11.2628],[14.169,11.2456],[14.2136,11.2643],[14.2357,11.2887],[14.3223,11.3328],[14.4141,11.4018],[14.4283,11.4199],[14.4661,11.425],[14.5161,11.4728],[14.5549,11.482],[14.6131,11.5114],[14.6502,11.6092],[14.6405,11.6485],[14.5991,11.7006],[14.5568,11.7089],[14.5719,11.7353],[14.6126,11.7806],[14.6046,11.7956],[14.6028,11.865],[14.6282,11.9013],[14.6335,11.9274],[14.6525,11.9522],[14.6312,11.9964],[14.6197,12.0403],[14.639,12.0753],[14.634,12.0918],[14.654,12.1175],[14.6557,12.138],[14.6762,12.1598],[14.6594,12.1971],[14.6193,12.1826],[14.5921,12.2257],[14.5719,12.2241],[14.5536,12.2449],[14.5338,12.2878],[14.5012,12.329],[14.4335,12.3692],[14.376,12.3578],[14.3289,12.3747],[14.3114,12.3591],[14.2732,12.3735],[14.2205,12.3624],[14.2182,12.376],[14.1733,12.4078],[14.1874,12.4457],[14.1734,12.4739],[14.197,12.5039],[14.1837,12.5292],[14.1229,12.8791],[14.0854,13.0781],[13.8893,13.3461],[13.7519,13.545],[13.6378,13.7015],[13.6128,13.7087],[13.5549,13.7113],[13.3411,13.71],[13.2483,13.613],[13.2517,13.5806],[13.2376,13.5583],[13.2143,13.5503],[13.2083,13.5266],[13.1653,13.5283],[13.1552,13.5127],[13.0936,13.5163],[13.0671,13.5271],[13.065,13.5471],[13.0262,13.531],[13.0078,13.5111],[12.9542,13.5096],[12.924,13.4832],[12.8771,13.4971],[12.8744,13.4704],[12.8354,13.438],[12.8196,13.3931],[12.7874,13.3612],[12.7533,13.3536],[12.7383,13.3214],[12.7037,13.3134],[12.6765,13.2743],[12.6483,13.286],[12.6261,13.2723],[12.5892,13.2778],[12.5724,13.2312],[12.5535,13.2191],[12.5541,13.1614],[12.5424,13.1404],[12.5187,13.1499],[12.4948,13.1289],[12.4969,13.0937],[12.4805,13.0647],[12.4098,13.0787],[12.3704,13.0766],[12.3072,13.0957],[12.2871,13.092],[12.257,13.1145],[12.2338,13.1073],[12.2027,13.1227],[12.1875,13.1066],[12.1298,13.0912],[12.1042,13.0935],[12.0474,13.1265],[11.995,13.1732],[11.9285,13.2229],[11.8846,13.2465],[11.6958,13.287],[11.6015,13.3191],[11.5396,13.348],[11.3956,13.3701],[11.1746,13.376],[11.025,13.3724],[10.9855,13.3738],[10.8815,13.3664],[10.6692,13.3569],[10.562,13.3205],[10.4664,13.2825],[10.4033,13.2775],[10.2071,13.2678],[10.0609,13.2035],[9.9965,13.1633],[9.9127,13.0706],[9.8468,13.015],[9.7943,12.9421],[9.6955,12.8444],[9.6502,12.8036],[9.4882,12.8108],[9.3903,12.8231],[9.3056,12.8112],[9.2205,12.8284],[9.16,12.8338],[8.9565,12.8399],[8.7812,12.8967],[8.6964,12.9168],[8.6485,12.9386],[8.6317,12.9771],[8.6018,13.0105],[8.5648,13.0383],[8.5159,13.0628],[8.4688,13.0689],[8.4156,13.0548],[8.3279,13.1328],[8.2559,13.2075],[8.2117,13.219],[8.1645,13.2587],[8.1067,13.2893],[8.0676,13.3025],[7.9475,13.3236],[7.8249,13.3396],[7.7805,13.3215],[7.6318,13.2275],[7.4578,13.1267],[7.4263,13.1105],[7.3814,13.0988],[7.2279,13.1109],[7.1516,13.0323],[7.0632,13.001],[7.0101,12.9915],[6.928,12.9899],[6.8186,13.118],[6.6778,13.3554],[6.4336,13.592],[6.3144,13.6556],[6.2834,13.6667],[6.2244,13.6664],[6.1494,13.6428],[6.0848,13.68],[5.7532,13.7944],[5.5265,13.892],[5.3553,13.8449],[5.2705,13.7461],[5.1844,13.7437],[5.106,13.7525],[5.0019,13.7412],[4.9095,13.7486],[4.8707,13.7825],[4.7423,13.7571],[4.626,13.7368],[4.4648,13.7033],[4.2134,13.4853],[4.1972,13.4743],[4.1305,13.4726],[4.1282,13.1865],[4.1296,13.1483],[4.0961,12.9958],[4.0036,12.8644],[3.9422,12.7642],[3.9276,12.7493],[3.8172,12.6682],[3.7223,12.5898],[3.6426,12.5201],[3.6497,12.3658],[3.6575,12.2685],[3.6369,12.2002],[3.6308,12.1172],[3.6679,11.9916],[3.6667,11.9733],[3.6177,11.9169],[3.6226,11.8528],[3.6344,11.8311],[3.6659,11.8105],[3.6792,11.7585],[3.6002,11.692],[3.5613,11.6016],[3.496,11.2921],[3.6919,11.1282],[3.7275,11.1177],[3.7192,11.0867],[3.7238,11.0556],[3.7169,11.0243],[3.7515,11.0114],[3.7595,10.9972],[3.7712,10.9308],[3.7691,10.8981],[3.7492,10.8375],[3.7522,10.8159],[3.7975,10.7352],[3.841,10.7049],[3.8517,10.6058],[3.8318,10.5686],[3.801,10.4853],[3.8022,10.4552],[3.786,10.4054],[3.6877,10.4564],[3.6461,10.4351],[3.6347,10.3949],[3.6144,10.3557],[3.5842,10.2784],[3.5977,10.2418],[3.6463,10.1894],[3.679,10.1698],[3.6628,10.1069],[3.6292,10.0932],[3.6116,10.0624],[3.6114,9.996],[3.5958,9.9457],[3.5642,9.916],[3.5623,9.8951],[3.5387,9.8688],[3.5111,9.8573],[3.4564,9.8612],[3.3566,9.8257],[3.3295,9.7984],[3.3286,9.7459],[3.3504,9.705],[3.3486,9.6854],[3.3149,9.6577],[3.2716,9.659],[3.2559,9.6397],[3.2534,9.6099],[3.2079,9.5445],[3.1948,9.5151],[3.1548,9.4931],[3.1362,9.4629],[3.1334,9.4261],[3.1518,9.3757],[3.1519,9.3214],[3.1583,9.291],[3.1222,9.2384],[3.1237,9.1922],[3.1013,9.1522],[3.0835,9.0979],[3.0081,9.0739],[2.9841,9.0723],[2.9564,9.0924],[2.8961,9.0837],[2.8792,9.0647],[2.7809,9.0651],[2.7862,9.0449],[2.7778,8.9949],[2.7888,8.9703],[2.7706,8.9188],[2.7736,8.8947],[2.7581,8.8301],[2.7284,8.7727],[2.7441,8.744],[2.7504,8.7003],[2.739,8.6506],[2.7491,8.6404],[2.7491,8.5834],[2.7587,8.5616],[2.7495,8.5331],[2.7619,8.5225],[2.7569,8.4826],[2.7349,8.4363],[2.7069,8.4203],[2.714,8.3872],[2.6971,8.3573],[2.6982,8.3072],[2.7146,8.2605],[2.7541,8.2113],[2.7482,8.1647],[2.7299,8.1283],[2.7233,8.0611],[2.7073,8],[2.6955,7.9308],[2.6758,7.8932],[2.7113,7.8132],[2.7247,7.8076],[2.7324,7.7722],[2.7254,7.648],[2.7303,7.5802],[2.7548,7.5213],[2.7982,7.4826],[2.7992,7.4265],[2.7476,7.4174],[2.7495,7.2612],[2.7743,7.2344],[2.7849,7.1592],[2.7753,7.1282],[2.7507,7.1058],[2.7529,7.0773],[2.7926,7.0413],[2.7433,7.0125],[2.7206,6.9865],[2.7182,6.9403],[2.7479,6.9283],[2.7492,6.8393],[2.7298,6.8085],[2.7326,6.7792],[2.7518,6.7591],[2.7787,6.7592],[2.7897,6.7389],[2.7866,6.6948],[2.7525,6.6657],[2.7314,6.6308],[2.7531,6.5705],[2.7293,6.5344],[2.7063,6.4256],[2.7094,6.3757],[2.8376,6.3918],[3.1979,6.4046],[3.3115,6.4051],[3.3932,6.3965],[3.416,6.4221],[3.4793,6.4212],[3.7196,6.4279],[3.8029,6.4396],[3.8904,6.4382],[3.959,6.4324],[4.051,6.4182],[4.2015,6.3896],[4.3021,6.3796],[4.3907,6.3626],[4.4479,6.3435],[4.4963,6.3213],[4.5376,6.2951],[4.6537,6.204],[4.7113,6.1529],[4.7374,6.1357],[4.8315,6.049],[4.886,5.9938],[4.9804,5.8888],[5.0099,5.8479],[5.0496,5.7768],[5.1093,5.8237],[5.2221,5.884],[5.2385,5.8857],[5.2901,5.9171],[5.3076,5.8585],[5.3193,5.8496],[5.3371,5.8446],[5.3326,5.8396],[5.3332,5.8226],[5.3524,5.8118],[5.3368,5.7915],[5.334,5.7596],[5.3424,5.7482],[5.3365,5.7346],[5.3246,5.7263],[5.3571,5.696],[5.4101,5.7068],[5.4399,5.7404],[5.4565,5.7488],[5.4724,5.7371],[5.4857,5.7063],[5.5162,5.7096],[5.5238,5.7004],[5.5129,5.6574],[5.5107,5.6543],[5.5049,5.6557],[5.499,5.6618],[5.4668,5.6646],[5.4551,5.6432],[5.5099,5.6207],[5.5382,5.6235],[5.5401,5.6068],[5.5565,5.6071],[5.5668,5.591],[5.5801,5.606],[5.5951,5.6054],[5.6304,5.6337],[5.634833250207813,5.609632917705736],[5.634920022753128,5.609547440273038],[5.6399,5.5982],[5.6371,5.5868],[5.6401,5.5829],[5.6363,5.5799],[5.6382,5.5724],[5.6465,5.5668],[5.6596,5.5663],[5.6565,5.556],[5.6621,5.5443],[5.7015,5.5354],[5.7243,5.5068],[5.7051,5.4643],[5.6918,5.4574],[5.6676,5.4524],[5.6568,5.434]]],[[[5.7088,5.4762],[5.7138,5.5126],[5.7043,5.5293],[5.6624,5.5399],[5.6376,5.5293],[5.6151,5.5376],[5.6057,5.5143],[5.5801,5.5024],[5.5499,5.5029],[5.5568,5.489],[5.551,5.4774],[5.5649,5.4718],[5.5682,5.4804],[5.5724,5.4843],[5.5926,5.4921],[5.6024,5.4779],[5.646,5.4868],[5.6568,5.4529],[5.6913,5.4579],[5.7088,5.4762]]],[[[5.4326,5.3987],[5.4143,5.4193],[5.3985,5.471],[5.3732,5.4821],[5.359,5.5007],[5.3529,5.5335],[5.3565,5.5657],[5.3615,5.5832],[5.3296,5.5851],[5.2896,5.599],[5.2388,5.6029],[5.206,5.5985],[5.1582,5.5376],[5.2204,5.4593],[5.2565,5.4332],[5.3501,5.3929],[5.4324,5.3882],[5.4326,5.3987]]],[[[5.366,5.5374],[5.3543,5.529],[5.3682,5.489],[5.4018,5.5238],[5.366,5.5374]]],[[[5.2501,5.7085],[5.2321,5.6912],[5.204,5.7165],[5.1788,5.7232],[5.1607,5.7468],[5.1396,5.8007],[5.1054,5.8076],[5.0907,5.7946],[5.0779,5.7437],[5.0821,5.7187],[5.1218,5.6499],[5.1696,5.5982],[5.1818,5.5943],[5.229,5.6229],[5.2907,5.6188],[5.3026,5.6699],[5.3213,5.7046],[5.3226,5.7313],[5.339,5.7426],[5.331,5.7601],[5.3296,5.809],[5.3215,5.819],[5.3326,5.8237],[5.3313,5.8399],[5.3338,5.8454],[5.319,5.8488],[5.3074,5.8574],[5.2846,5.9037],[5.249,5.8699],[5.1965,5.8535],[5.1451,5.8129],[5.1604,5.7688],[5.179,5.7474],[5.1779,5.7265],[5.206,5.7176],[5.2257,5.7038],[5.2501,5.7085]]],[[[5.4224,5.6376],[5.3771,5.5732],[5.3576,5.5618],[5.3615,5.5457],[5.3785,5.5338],[5.4232,5.5854],[5.4299,5.5849],[5.4407,5.5885],[5.4396,5.5818],[5.449,5.5799],[5.4654,5.5918],[5.4751,5.5888],[5.486,5.601],[5.4615,5.6346],[5.4224,5.6376]]],[[[5.4621,5.7437],[5.406,5.7007],[5.3554,5.6932],[5.3257,5.6799],[5.3076,5.6432],[5.3235,5.609],[5.3546,5.5985],[5.381,5.6029],[5.4057,5.6501],[5.4568,5.6871],[5.4685,5.6654],[5.4979,5.6637],[5.5096,5.656],[5.5124,5.6788],[5.5193,5.6954],[5.516,5.7065],[5.4843,5.7043],[5.4621,5.7437]]],[[[5.3262,5.3638],[5.3304,5.2999],[5.3465,5.2571],[5.3596,5.1699],[5.386,5.139],[5.4226,5.1543],[5.4521,5.1518],[5.4451,5.1846],[5.4565,5.2385],[5.4918,5.2571],[5.4904,5.3004],[5.4688,5.2988],[5.4563,5.3051],[5.4704,5.3182],[5.4415,5.3632],[5.3743,5.3546],[5.3262,5.3638]]],[[[5.6807,4.7774],[5.6571,4.7982],[5.6318,4.8099],[5.6226,4.8026],[5.6121,4.799],[5.6079,4.8046],[5.6082,4.8174],[5.5774,4.8079],[5.5524,4.8249],[5.5246,4.8179],[5.5332,4.754],[5.5624,4.7351],[5.5813,4.6915],[5.629,4.6929],[5.6657,4.6735],[5.7132,4.7237],[5.7413,4.7454],[5.761,4.7951],[5.7368,4.7946],[5.7249,4.7979],[5.7165,4.8065],[5.706,4.8054],[5.6965,4.8101],[5.696,4.7963],[5.6929,4.7799],[5.6807,4.7774]]],[[[6.8618,4.7737],[6.8837,4.8012],[6.8518,4.8074],[6.8249,4.8032],[6.8176,4.7926],[6.8085,4.7896],[6.804,4.791],[6.8018,4.8018],[6.7899,4.7963],[6.7824,4.8021],[6.764,4.7754],[6.7654,4.7421],[6.7965,4.7621],[6.8293,4.7546],[6.8676,4.7285],[6.8618,4.7737]]],[[[6.7974,4.6985],[6.8201,4.6896],[6.8263,4.6946],[6.8257,4.7071],[6.8335,4.7032],[6.846,4.7118],[6.8549,4.7076],[6.8646,4.7268],[6.8285,4.7532],[6.7963,4.7607],[6.769,4.7346],[6.7812,4.6687],[6.8182,4.6488],[6.8321,4.6624],[6.824,4.6699],[6.819,4.6879],[6.7974,4.6985]]],[[[6.9096,4.771],[6.8862,4.7963],[6.8646,4.7707],[6.8821,4.7363],[6.8676,4.7076],[6.8879,4.7018],[6.9193,4.6663],[6.9618,4.6868],[6.9612,4.7338],[6.9463,4.7546],[6.9096,4.771]]],[[[7.0046,4.7035],[7.0174,4.7235],[7.0004,4.7426],[6.9904,4.7671],[6.9751,4.7551],[6.9643,4.7701],[6.9329,4.7721],[6.9668,4.7318],[6.9699,4.7079],[7.0046,4.7035]]],[[[5.7132,5.3879],[5.7021,5.3943],[5.6904,5.4196],[5.6593,5.4285],[5.6126,5.3796],[5.5793,5.3771],[5.6038,5.3376],[5.6385,5.3646],[5.671,5.341],[5.7129,5.3715],[5.7132,5.3879]]],[[[5.6568,5.434],[5.6454,5.4865],[5.6021,5.4774],[5.5943,5.4896],[5.5874,5.4843],[5.5699,5.4804],[5.5671,5.4707],[5.5535,5.4724],[5.5493,5.4801],[5.5546,5.4904],[5.539,5.5062],[5.5176,5.5004],[5.5088,5.4515],[5.5313,5.3999],[5.5899,5.3815],[5.6307,5.3996],[5.6568,5.434]]],[[[5.634920022753128,5.609547440273038],[5.634833250207813,5.609632917705736],[5.5796,5.6018],[5.5662,5.5876],[5.5554,5.604],[5.5151,5.5951],[5.5021,5.5826],[5.491,5.551],[5.4718,5.5257],[5.4718,5.5043],[5.4599,5.4815],[5.4321,5.4621],[5.4315,5.419],[5.4654,5.4029],[5.4857,5.4263],[5.4985,5.4774],[5.5146,5.5093],[5.5304,5.5176],[5.5826,5.519],[5.604,5.5443],[5.634,5.5476],[5.6443,5.5663],[5.6363,5.574],[5.6354,5.5799],[5.6385,5.5832],[5.6307,5.6029],[5.634920022753128,5.609547440273038]]],[[[6.0971,4.354],[6.0801,4.3329],[6.0863,4.2707],[6.2149,4.2796],[6.2213,4.2924],[6.1996,4.3046],[6.1857,4.3265],[6.1721,4.3187],[6.1582,4.3207],[6.1515,4.3282],[6.139,4.3251],[6.1121,4.3301],[6.0999,4.339],[6.0971,4.354]]],[[[7.331,4.4499],[7.4199,4.4349],[7.4801,4.4485],[7.5788,4.4501],[7.5882,4.491],[7.5496,4.4768],[7.4985,4.4804],[7.4065,4.4993],[7.3426,4.4863],[7.331,4.4499]]],[[[7.2149,4.476],[7.1929,4.4615],[7.2024,4.4388],[7.2238,4.4479],[7.2149,4.476]]],[[[6.3254,4.4254],[6.3035,4.4076],[6.314,4.3782],[6.2946,4.3579],[6.2576,4.3462],[6.2351,4.2974],[6.2496,4.291],[6.4099,4.3054],[6.3785,4.3638],[6.356,4.371],[6.3451,4.3813],[6.3399,4.4221],[6.3254,4.4254]]],[[[6.1329,4.4201],[6.1021,4.4101],[6.0771,4.3865],[6.079,4.3699],[6.0899,4.3601],[6.1015,4.3707],[6.1249,4.3654],[6.1396,4.3735],[6.1413,4.3951],[6.1329,4.4201]]],[[[6.9093,4.461],[6.8757,4.4399],[6.8488,4.4404],[6.8615,4.3979],[6.9463,4.3757],[6.9668,4.3999],[6.9326,4.4121],[6.9229,4.4365],[6.9126,4.4424],[6.9093,4.461]]],[[[6.5818,4.4865],[6.5799,4.4715],[6.5735,4.4696],[6.564,4.4707],[6.5607,4.4613],[6.5568,4.4615],[6.5454,4.4768],[6.5296,4.4424],[6.5529,4.4213],[6.5821,4.3632],[6.5929,4.3771],[6.5976,4.4576],[6.5818,4.4865]]],[[[6.3329,4.4729],[6.3235,4.4671],[6.3099,4.4685],[6.301,4.461],[6.3018,4.4349],[6.3338,4.4254],[6.3443,4.4515],[6.3329,4.4729]]],[[[7.496,4.5513],[7.4543,4.5535],[7.4407,4.516],[7.474,4.5165],[7.534,4.4971],[7.5429,4.5135],[7.5079,4.5332],[7.496,4.5513]]],[[[7.389,4.5657],[7.3687,4.5671],[7.3507,4.5382],[7.3915,4.5351],[7.389,4.5657]]],[[[7.2085,4.481],[7.2268,4.4721],[7.2326,4.4474],[7.1951,4.4357],[7.1651,4.4435],[7.1326,4.3979],[7.1349,4.3849],[7.209,4.3807],[7.326,4.4182],[7.3165,4.4676],[7.2618,4.4768],[7.2346,4.5032],[7.2085,4.481]]],[[[6.8268,4.5065],[6.8474,4.4488],[6.874,4.4418],[6.8782,4.4738],[6.8601,4.4963],[6.8268,4.5065]]],[[[6.8546,4.6063],[6.8351,4.5974],[6.814,4.576],[6.8218,4.5165],[6.8488,4.5149],[6.8785,4.4746],[6.9079,4.4804],[6.9182,4.4413],[6.9435,4.4435],[6.9882,4.374],[7.0201,4.3979],[6.9979,4.4207],[6.9921,4.4693],[6.9729,4.5046],[6.9618,4.5451],[6.9174,4.5676],[6.9104,4.5963],[6.8765,4.5954],[6.8562,4.5985],[6.8546,4.6063]]],[[[7.1051,4.536436363636361],[7.0935,4.5499],[7.0868,4.5515],[7.0824,4.5557],[7.0813,4.559],[7.0526,4.5568],[7.0757,4.5062],[7.0604,4.4779],[7.0768,4.459],[7.1054,4.451],[7.106,4.4871],[7.1176,4.5082],[7.105168261376896,4.53610746791132],[7.1051,4.536436363636361]]],[[[7.1051,4.536436363636361],[7.105168261376896,4.53610746791132],[7.1193,4.5087],[7.1088,4.4646],[7.1415,4.4604],[7.161,4.4715],[7.1751,4.5279],[7.134,4.564],[7.0785,4.5768],[7.084,4.571],[7.0843,4.5624],[7.0832,4.556],[7.096,4.5493],[7.1051,4.536436363636361]]],[[[7.0326,4.5862],[6.9929,4.5901],[7.0101,4.5326],[7.0079,4.5121],[7.0224,4.4443],[7.0368,4.4354],[7.0724,4.444],[7.0562,4.4785],[7.0704,4.5049],[7.0521,4.5312],[7.0462,4.5776],[7.0326,4.5862]]],[[[6.6388,4.596],[6.6165,4.5901],[6.6154,4.5432],[6.6388,4.5112],[6.6746,4.5276],[6.6476,4.5618],[6.6388,4.596]]],[[[6.9535,4.6007],[6.9315,4.5957],[6.9435,4.566],[6.9801,4.5426],[6.9771,4.5926],[6.9535,4.6007]]],[[[8.3315,4.6363],[8.3071,4.6101],[8.314,4.5871],[8.3432,4.6032],[8.3315,4.6363]]],[[[6.6021,4.6399],[6.5874,4.6421],[6.5915,4.5826],[6.6124,4.6129],[6.6021,4.6399]]],[[[7.1746,4.5862],[7.1504,4.6407],[7.1321,4.6215],[7.1304,4.5799],[7.1557,4.5582],[7.1746,4.5862]]],[[[7.06962262295082,4.634938524590164],[7.069973173652694,4.634787425149701],[7.0829,4.5874],[7.131,4.5668],[7.1185,4.634],[7.1004,4.6532],[7.0782,4.6979],[7.0274,4.7113],[7.0024,4.6912],[7.0201,4.6763],[7.0365,4.6368],[7.06962262295082,4.634938524590164]]],[[[7.0315,4.6121],[7.0415,4.6226],[7.0229,4.6599],[7.0013,4.6288],[7.0074,4.6007],[7.0315,4.6121]]],[[[6.9629,4.6824],[6.9207,4.6638],[6.9449,4.614],[6.984,4.6174],[6.9629,4.6824]]],[[[6.9018,4.6779],[6.8829,4.6985],[6.8407,4.7076],[6.8404,4.7038],[6.8285,4.701],[6.8276,4.6949],[6.8229,4.6915],[6.8215,4.684],[6.8246,4.6732],[6.8457,4.646],[6.8199,4.6435],[6.8407,4.616],[6.854,4.6093],[6.859,4.5993],[6.8907,4.5974],[6.9393,4.6001],[6.9018,4.6779]]]]},"properties":{"GID_0":"NGA","ISO_A2":"NG","ISO_A3":"NGA","NAME_EN":"Nigeria","NAME_IT":"Nigeria"}}
]}