{"type":"FeatureCollection", "features": [
{"type":"Feature","geometry":{"type":"Polygon","coordinates":[[[-13.0235,21.5184],[-13.0548,21.84],[-13.1062,22.3357],[-13.1457,22.7314],[-13.0852,22.9945],[-13.0589,23.0585],[-12.9571,23.2131],[-12.8988,23.2825],[-12.8071,23.3617],[-12.7404,23.3913],[-12,23.4545],[-12,24],[-12.0039,24.1052],[-12.003,24.5133],[-12.0063,24.7866],[-12.0034,25.7292],[-12.0039,25.9986],[-10.8413,25.9985],[-10.3741,25.9987],[-9.8881,25.9977],[-9.5629,26],[-8.979,25.9969],[-8.6742,25.9976],[-8.672,26.3044],[-8.673,27.0457],[-8.67,27.6701],[-13.1671,27.6831],[-13.1979,27.6221],[-13.2299,27.5046],[-13.3232,27.2907],[-13.4087,27.1651],[-13.4179,27.0857],[-13.4729,26.961],[-13.4987,26.8732],[-13.5712,26.7343],[-13.6168,26.6893],[-13.7232,26.6179],[-13.9029,26.5246],[-13.9776,26.4707],[-14.1079,26.429],[-14.1829,26.4246],[-14.2457,26.3365],[-14.3279,26.2768],[-14.4035,26.2626],[-14.4743,26.1807],[-14.5018,26.1279],[-14.486,26.094],[-14.496,25.9963],[-14.5674,25.8476],[-14.6376,25.7687],[-14.6865,25.6187],[-14.6979,25.5446],[-14.7874,25.419],[-14.8287,25.2957],[-14.8457,25.2074],[-14.8415,25.0818],[-14.8207,25.0571],[-14.8307,24.9071],[-14.8716,24.8082],[-14.8826,24.7018],[-14.9868,24.631],[-15.0065,24.5613],[-15.1443,24.5021],[-15.2215,24.4401],[-15.3326,24.3018],[-15.4176,24.241],[-15.5735,24.0943],[-15.5929,24.044],[-15.7638,23.9494],[-15.8413,23.8888],[-15.9168,23.7976],[-15.9337,23.7426],[-16.006,23.6496],[-15.9821,23.6371],[-15.9168,23.7151],[-15.9062,23.7674],[-15.8474,23.8579],[-15.8018,23.8726],[-15.7471,23.9287],[-15.7101,23.8924],[-15.7462,23.8251],[-15.7468,23.7774],[-15.8757,23.6274],[-15.9065,23.5646],[-15.9754,23.509],[-15.9518,23.4735],[-15.9976,23.3893],[-16.1157,23.2329],[-16.1312,23.1799],[-16.1893,23.1276],[-16.1415,23.0338],[-16.1574,22.9746],[-16.2143,22.9182],[-16.2882,22.8949],[-16.2907,22.8268],[-16.3304,22.7746],[-16.3599,22.5785],[-16.4279,22.5232],[-16.4949,22.3243],[-16.5604,22.2856],[-16.6362,22.269],[-16.6815,22.2957],[-16.8068,22.1626],[-16.9107,21.8813],[-16.9671,21.7965],[-16.9821,21.7188],[-16.9746,21.6454],[-16.9954,21.4885],[-17.0329,21.3199],[-17.044,21.1654],[-17.0651,21.0793],[-17.0031,21.1046],[-16.9397,21.3266],[-16.9193,21.3304],[-15.8771,21.3412],[-14.9609,21.3436],[-14.5479,21.3431],[-13.8829,21.3404],[-13.4296,21.3367],[-13.0018,21.3308],[-13.0235,21.5184]]]},"properties":{"GID_0":"ESH","ISO_A2":"EH","ISO_A3":"ESH","NAME_EN":"W. Sahara","NAME_IT":"Sahara Occidentale"}}
]}