{"type":"FeatureCollection", "features": [
{"type":"Feature","geometry":{"type":"Polygon","coordinates":[[[144.7182,13.2505],[144.7326,13.2524],[144.7727,13.3034],[144.7723,13.3712],[144.7868,13.4246],[144.8076,13.4271],[144.9025,13.5128],[144.9264,13.5214],[144.9544,13.6004],[144.9065,13.6061],[144.8669,13.6532],[144.8356,13.6244],[144.8307,13.5779],[144.8014,13.5348],[144.8049,13.5162],[144.7578,13.4783],[144.7235,13.4779],[144.6659,13.4573],[144.6402,13.442],[144.6606,13.3911],[144.6389,13.3431],[144.6492,13.3288],[144.6618,13.2711],[144.6773,13.2546],[144.7182,13.2505]]]},"properties":{"GID_0":"GUM","ISO_A2":"GU","ISO_A3":"GUM","NAME_EN":"Guam","NAME_IT":"Guam"}}
]}