{"type":"FeatureCollection", "features": [
{"type":"Feature","geometry":{"type":"MultiPolygon","coordinates":[[[[-128.3058,-24.3424],[-128.343,-24.3368],[-128.3569,-24.363],[-128.3527,-24.3834],[-128.336,-24.4086],[-128.2915,-24.4189],[-128.2928,-24.3895],[-128.3058,-24.3424]]],[[[-130.1101,-25.0594],[-130.1236,-25.0695],[-130.1056,-25.0799],[-130.0881,-25.0728],[-130.1101,-25.0594]]]]},"properties":{"GID_0":"PCN","ISO_A2":"PN","ISO_A3":"PCN","NAME_EN":"Pitcairn Is.","NAME_IT":"Isole Pitcairn"}}
]}