{"type":"FeatureCollection", "features": [
{"type":"Feature","geometry":{"type":"Polygon","coordinates":[[[29.9113,-1.4769],[29.9776,-1.4579],[30.083,-1.3728],[30.1693,-1.3439],[30.1619,-1.3187],[30.2926,-1.1896],[30.3409,-1.1304],[30.3493,-1.0697],[30.4944,-1.0578],[30.5401,-1.0749],[30.659,-1.0614],[30.7009,-1.0132],[30.7668,-0.9858],[30.7988,-0.9989],[31.165,-0.9977],[31.619,-1.0013],[31.7662,-0.9968],[33.6528,-0.9965],[33.9457,-0.993],[33.9286,-0.6725],[33.9286,-0.5371],[33.9405,-0.4188],[33.987,-0.1285],[33.912,0.111],[34.0377,0.2727],[34.1086,0.3809],[34.0882,0.4567],[34.142,0.5831],[34.2201,0.6328],[34.2768,0.643],[34.3136,0.7008],[34.3043,0.7654],[34.354,0.7741],[34.4461,0.8635],[34.4799,0.9401],[34.4931,1.0427],[34.5269,1.1071],[34.5744,1.1023],[34.5793,1.1501],[34.6695,1.2082],[34.7952,1.2232],[34.8307,1.2693],[34.829,1.3098],[34.7867,1.3664],[34.7938,1.4137],[34.8442,1.4572],[34.864,1.5285],[34.9436,1.5768],[34.9912,1.6645],[35.0003,1.7587],[35.0002,1.9626],[34.9455,2.2115],[34.9166,2.4249],[34.9539,2.4581],[34.913,2.5168],[34.8973,2.5883],[34.8522,2.5838],[34.7754,2.6981],[34.7841,2.7488],[34.7363,2.8552],[34.6529,2.8678],[34.599,2.9249],[34.5723,3.0917],[34.5458,3.1368],[34.4558,3.1823],[34.4474,3.2833],[34.4006,3.3709],[34.4193,3.4337],[34.396,3.4883],[34.4515,3.5175],[34.4632,3.6698],[34.4049,3.6931],[34.3823,3.7279],[34.3079,3.7117],[34.2456,3.7842],[34.2155,3.8812],[34.1278,3.8725],[34.1346,3.9617],[34.0588,4.0281],[34.0916,4.0617],[34.0495,4.1215],[34.0474,4.1795],[33.9877,4.2345],[33.5145,3.7553],[33.1788,3.7791],[33.0278,3.894],[32.9012,3.816],[32.7202,3.7682],[32.4153,3.746],[32.1972,3.6008],[32.2179,3.5646],[32.2002,3.5073],[32.089,3.538],[32.0529,3.5939],[31.9616,3.5721],[31.9604,3.6486],[31.8698,3.7851],[31.8004,3.801],[31.7074,3.7243],[31.5759,3.6826],[31.5457,3.6567],[31.3525,3.7532],[31.2884,3.797],[31.1651,3.7971],[31.1173,3.7564],[31.0689,3.7456],[31.0221,3.6963],[30.9729,3.6965],[30.9484,3.6361],[30.8875,3.558],[30.8613,3.4859],[30.9369,3.5091],[30.9378,3.4046],[30.89,3.34],[30.8097,3.1617],[30.7807,3.0229],[30.858,2.9619],[30.888,2.8787],[30.8842,2.8144],[30.8374,2.7673],[30.7792,2.6063],[30.7501,2.5865],[30.761,2.512],[30.7418,2.4482],[30.834,2.426],[30.881,2.346],[30.931,2.336],[30.948,2.398],[30.9805,2.4075],[31.0635,2.3532],[31.0919,2.293],[31.1306,2.2647],[31.203,2.2945],[31.2031,2.2211],[31.3057,2.1571],[31.3056,2.1165],[31.1996,1.9672],[31.0334,1.7574],[30.701,1.496],[30.6325,1.411],[30.5497,1.2663],[30.5198,1.2662],[30.4755,1.2127],[30.3892,1.1909],[30.36,1.2052],[30.32,1.157],[30.2399,1.1004],[30.2262,0.9999],[30.1745,0.9445],[30.1489,0.8893],[30.1158,0.8973],[29.9875,0.8492],[29.9603,0.7869],[29.9749,0.7486],[29.9548,0.6355],[29.9904,0.535],[29.9125,0.4388],[29.929,0.4034],[29.8639,0.353],[29.8229,0.1748],[29.7762,0.1697],[29.7348,0.1271],[29.7152,0.0376],[29.7574,-0.0138],[29.7296,-0.0908],[29.6773,-0.3428],[29.7035,-0.347],[29.6703,-0.4718],[29.6595,-0.6231],[29.6365,-0.6729],[29.6249,-0.7899],[29.6408,-0.8225],[29.6311,-0.8975],[29.5814,-0.9163],[29.5964,-0.9844],[29.5875,-1.125],[29.5723,-1.188],[29.6042,-1.2153],[29.605,-1.3177],[29.5889,-1.3857],[29.6787,-1.3825],[29.742,-1.3412],[29.7953,-1.3645],[29.8243,-1.3088],[29.8639,-1.3576],[29.9113,-1.4769]]]},"properties":{"GID_0":"UGA","ISO_A2":"UG","ISO_A3":"UGA","NAME_EN":"Uganda","NAME_IT":"Uganda"}}
]}