{"type":"FeatureCollection", "features": [
{"type":"Feature","geometry":{"type":"MultiPolygon","coordinates":[[[[-14.0262,10.106],[-14.0165,10.0013],[-13.9851,9.9796],[-13.9401,9.976],[-13.9535,10.0279],[-14.0262,10.106]]],[[[-14.1226,10.111],[-14.1546,10.1393],[-14.1871,10.0954],[-14.1246,10.051],[-14.0779,10.0638],[-14.1226,10.111]]],[[[-14.1876,10.1971],[-14.2315,10.1796],[-14.2496,10.141],[-14.2007,10.1026],[-14.1454,10.1674],[-14.1876,10.1971]]],[[[-14.3026,10.2204],[-14.3026,10.2065],[-14.3088,10.1943],[-14.2549,10.1587],[-14.2271,10.1885],[-14.276,10.214],[-14.2929,10.2104],[-14.2999,10.2132],[-14.3026,10.2204]]],[[[-13.6587,9.8246],[-13.6913,9.8201],[-13.7315,9.8168],[-13.7576,9.7699],[-13.679,9.7401],[-13.6337,9.7851],[-13.6587,9.8246]]],[[[-13.6743,9.9376],[-13.6799,9.904],[-13.7354,9.8332],[-13.6935,9.8207],[-13.6593,9.8296],[-13.6671,9.854],[-13.6743,9.9376]]],[[[-14.284359837545127,10.22678772563177],[-14.2257,10.1932],[-14.2043,10.2079],[-14.1401,10.1768],[-14.0915,10.1749],[-13.9321,10.009],[-13.9371,9.9751],[-13.9501,9.9649],[-13.7879,9.8393],[-13.7251,9.8663],[-13.6757,9.9418],[-13.6365,9.8615],[-13.6146,9.7349],[-13.6249,9.6385],[-13.6551,9.6079],[-13.6462,9.5479],[-13.5937,9.5674],[-13.5482,9.5013],[-13.524,9.496],[-13.5024,9.4393],[-13.4232,9.3876],[-13.4118,9.2779],[-13.3257,9.279],[-13.3074,9.2263],[-13.319,9.1587],[-13.2626,9.1404],[-13.3174,9.074],[-13.3038,9.0399],[-13.2476,9.0751],[-13.1742,9.0924],[-13.0876,9.0484],[-13.0508,9.0826],[-13.0021,9.0974],[-12.9542,9.1898],[-12.9588,9.2353],[-12.9351,9.2867],[-12.7941,9.2975],[-12.7578,9.3884],[-12.6855,9.4308],[-12.6507,9.5089],[-12.6605,9.532],[-12.5667,9.7027],[-12.5361,9.7205],[-12.4902,9.826],[-12.4317,9.8816],[-12.2271,9.9247],[-12.12,9.8719],[-11.9066,9.9358],[-11.8858,9.9975],[-11.2067,10.0004],[-11.175,9.9758],[-11.1602,9.8905],[-11.0387,9.7977],[-10.9838,9.725],[-10.9679,9.6737],[-10.9214,9.65],[-10.911,9.6019],[-10.831,9.5206],[-10.8434,9.4428],[-10.8166,9.3919],[-10.731,9.3802],[-10.7074,9.3301],[-10.6689,9.3093],[-10.6637,9.21],[-10.7235,9.1835],[-10.73,9.0792],[-10.6603,9.0815],[-10.5848,9.0432],[-10.5982,8.959],[-10.5869,8.8043],[-10.5358,8.7725],[-10.5232,8.7375],[-10.4694,8.6746],[-10.4818,8.6379],[-10.5823,8.5914],[-10.6224,8.5417],[-10.6496,8.4763],[-10.6531,8.3879],[-10.674,8.3409],[-10.5971,8.3323],[-10.5535,8.3077],[-10.4458,8.4035],[-10.386,8.4929],[-10.3314,8.5029],[-10.2869,8.4848],[-10.1255,8.5253],[-10.0526,8.4933],[-10.0668,8.4235],[-9.9987,8.4394],[-9.9345,8.4917],[-9.8043,8.5026],[-9.773,8.5518],[-9.7046,8.4809],[-9.6711,8.4935],[-9.6249,8.4512],[-9.5741,8.4316],[-9.5333,8.3834],[-9.487,8.381],[-9.5202,8.3262],[-9.4893,8.2642],[-9.5166,8.2427],[-9.5148,8.1759],[-9.4635,8.1659],[-9.4593,8.1055],[-9.4118,7.9726],[-9.4324,7.9479],[-9.4235,7.8623],[-9.3904,7.8092],[-9.3594,7.7961],[-9.3439,7.7487],[-9.3692,7.6939],[-9.3546,7.6257],[-9.4187,7.4717],[-9.4564,7.4338],[-9.4056,7.42],[-9.2953,7.4226],[-9.2746,7.3796],[-9.2273,7.3894],[-9.1902,7.3032],[-9.1538,7.2734],[-9.1206,7.2765],[-9.066,7.201],[-9.0168,7.2437],[-8.9028,7.2611],[-8.8635,7.2581],[-8.8335,7.2835],[-8.8458,7.3473],[-8.8113,7.4014],[-8.7799,7.4122],[-8.7067,7.5142],[-8.7226,7.5522],[-8.7068,7.64],[-8.6594,7.6962],[-8.5597,7.6926],[-8.5652,7.6259],[-8.4722,7.5546],[-8.4174,7.6082],[-8.3797,7.579],[-8.3028,7.6014],[-8.2149,7.5337],[-8.1726,7.5817],[-8.1719,7.62],[-8.1399,7.6933],[-8.094,7.722],[-8.0718,7.8083],[-8.1147,7.8448],[-8.0407,8.0328],[-7.9466,8.0424],[-8.0106,8.094],[-8.009,8.1638],[-8.0433,8.2021],[-8.0689,8.1615],[-8.1264,8.1962],[-8.1667,8.1964],[-8.2191,8.234],[-8.238,8.3278],[-8.2258,8.3607],[-8.2424,8.4569],[-8.1969,8.5027],[-8.157,8.4862],[-8.0651,8.5066],[-7.9851,8.4838],[-7.9381,8.5011],[-7.9213,8.4473],[-7.8524,8.42],[-7.835,8.4809],[-7.7884,8.4637],[-7.7517,8.3789],[-7.6411,8.3774],[-7.68,8.4549],[-7.6611,8.5059],[-7.6876,8.5448],[-7.7268,8.6673],[-7.7727,8.7671],[-7.8455,8.7768],[-7.9011,8.7653],[-7.947,8.7866],[-7.9626,8.8217],[-7.9548,8.8694],[-7.9171,8.967],[-7.9183,9.004],[-7.788,9.1061],[-7.8392,9.1531],[-7.8819,9.1577],[-7.9257,9.2173],[-7.8874,9.2906],[-7.8885,9.3423],[-7.8665,9.3754],[-7.8831,9.4356],[-7.9681,9.396],[-8.0603,9.4018],[-8.0989,9.4471],[-8.1492,9.5321],[-8.1529,9.5891],[-8.1278,9.6548],[-8.1364,9.6905],[-8.1015,9.8326],[-8.1245,9.901],[-8.1655,9.9268],[-8.1178,9.9577],[-8.1373,9.9922],[-8.1067,10.0469],[-8.0165,10.0971],[-7.9487,10.2515],[-7.9686,10.3136],[-8.0068,10.3431],[-8.0917,10.3581],[-8.1205,10.4221],[-8.1639,10.401],[-8.2254,10.41],[-8.2777,10.5311],[-8.2781,10.5879],[-8.3015,10.6362],[-8.2956,10.7509],[-8.3293,10.7709],[-8.2756,10.8531],[-8.2871,10.9951],[-8.3235,11.0482],[-8.3819,11.076],[-8.4824,11.0651],[-8.5151,10.972],[-8.5905,10.9502],[-8.6806,10.9671],[-8.6792,11.0114],[-8.6504,11.0337],[-8.6253,11.1139],[-8.5643,11.1549],[-8.5663,11.2047],[-8.4865,11.222],[-8.4993,11.2628],[-8.4671,11.2892],[-8.4223,11.2705],[-8.377,11.2792],[-8.3644,11.317],[-8.4218,11.3356],[-8.3969,11.3823],[-8.4563,11.3816],[-8.5021,11.3993],[-8.5354,11.4778],[-8.5817,11.4434],[-8.6126,11.4528],[-8.6541,11.4993],[-8.6906,11.5875],[-8.6851,11.6311],[-8.7337,11.6303],[-8.7601,11.6068],[-8.8543,11.6283],[-8.8222,11.7693],[-8.7949,11.9239],[-8.8162,11.9726],[-8.8054,12.0052],[-8.8559,12.042],[-8.9129,12.0412],[-8.915,12.095],[-8.8955,12.1466],[-8.9224,12.1958],[-8.9786,12.1929],[-8.9929,12.2214],[-8.987,12.2807],[-8.9577,12.3208],[-8.9689,12.3484],[-9.0457,12.4284],[-9.0859,12.4391],[-9.1617,12.4862],[-9.2533,12.5026],[-9.2842,12.4819],[-9.362,12.4957],[-9.4046,12.4615],[-9.3125,12.3694],[-9.3188,12.277],[-9.3656,12.245],[-9.4114,12.2594],[-9.4793,12.2458],[-9.5414,12.1927],[-9.6304,12.1728],[-9.6808,12.1163],[-9.6757,12.0788],[-9.6998,12.0238],[-9.7696,12.0319],[-9.8099,12.0567],[-9.8829,12.0571],[-9.9144,12.0985],[-9.9708,12.0983],[-10.0017,12.1282],[-10.0671,12.1391],[-10.091,12.1797],[-10.149,12.1727],[-10.1951,12.2007],[-10.2379,12.1986],[-10.3094,12.2188],[-10.3711,12.1676],[-10.4564,12.1165],[-10.4945,12.1227],[-10.5327,12.0317],[-10.5709,12.0273],[-10.577,11.9861],[-10.6208,11.9692],[-10.6401,11.9132],[-10.6722,11.8939],[-10.7355,11.9193],[-10.7564,11.9938],[-10.7951,12.0376],[-10.7874,12.105],[-10.8768,12.1611],[-10.8905,12.2023],[-10.9328,12.2233],[-11.0154,12.2056],[-11.0448,12.221],[-11.0728,12.1353],[-11.1343,12.0951],[-11.1381,12.0595],[-11.192,12.0145],[-11.2575,11.9925],[-11.3618,12.0599],[-11.3709,12.0993],[-11.4641,12.1336],[-11.4978,12.2095],[-11.4531,12.253],[-11.4337,12.2974],[-11.4418,12.3576],[-11.4259,12.3855],[-11.3803,12.3834],[-11.3775,12.418],[-11.4776,12.4502],[-11.63,12.4353],[-11.6927,12.4043],[-11.766,12.3859],[-11.8008,12.4059],[-11.8435,12.3965],[-11.8981,12.4494],[-11.9615,12.4105],[-12.0099,12.4031],[-12.0399,12.4278],[-12.0887,12.4253],[-12.1314,12.3882],[-12.189,12.3609],[-12.2469,12.3531],[-12.3557,12.3079],[-12.3904,12.3758],[-12.4484,12.4001],[-12.5153,12.4041],[-12.5632,12.3675],[-12.6119,12.4259],[-12.6423,12.4377],[-12.7577,12.4331],[-12.7517,12.4647],[-12.8435,12.4973],[-12.8897,12.5531],[-12.9424,12.536],[-12.9431,12.4769],[-13.0597,12.4841],[-13.0674,12.5338],[-13.0416,12.5784],[-13.0473,12.6231],[-13.076,12.6356],[-13.2055,12.6538],[-13.3317,12.6444],[-13.345,12.6582],[-13.5005,12.6751],[-13.7086,12.6744],[-13.6775,12.5279],[-13.6388,12.4663],[-13.663,12.4054],[-13.6662,12.312],[-13.7321,12.2494],[-13.8239,12.2606],[-13.8719,12.2379],[-13.9224,12.236],[-13.9647,12.1781],[-13.9418,12.1359],[-13.8872,12.1244],[-13.8178,12.0793],[-13.7761,12.0247],[-13.7138,12.0089],[-13.7203,11.8814],[-13.7115,11.8134],[-13.7134,11.7098],[-13.7824,11.6865],[-13.8297,11.7086],[-13.8798,11.6686],[-13.9205,11.6825],[-14,11.6449],[-14.0374,11.6561],[-14.089,11.6305],[-14.1376,11.6643],[-14.1768,11.6602],[-14.2681,11.6784],[-14.3195,11.6031],[-14.5162,11.4988],[-14.6654,11.5067],[-14.7034,11.472],[-14.7681,11.3824],[-14.823,11.2497],[-14.9132,11.0791],[-14.8835,10.981],[-14.8479,10.966],[-14.7518,11.0251],[-14.7129,10.9924],[-14.816,10.9293],[-14.8037,10.8199],[-14.756,10.8199],[-14.7896,10.7626],[-14.7751,10.7207],[-14.7429,10.7187],[-14.7065,10.7693],[-14.6493,10.8146],[-14.6338,10.8712],[-14.6121,10.8804],[-14.6015,10.8779],[-14.5871,10.8662],[-14.5568,10.859],[-14.5421,10.8135],[-14.5649,10.7465],[-14.6074,10.7054],[-14.6243,10.6229],[-14.6015,10.5868],[-14.6576,10.5549],[-14.6588,10.4804],[-14.6226,10.474],[-14.5468,10.4296],[-14.4718,10.3471],[-14.4524,10.2993],[-14.4676,10.2599],[-14.4543,10.2065],[-14.399,10.2351],[-14.3171,10.2001],[-14.306,10.2054],[-14.3101,10.2165],[-14.3035,10.2251],[-14.2974,10.2143],[-14.2885,10.2132],[-14.284359837545127,10.22678772563177]]],[[[-14.696532910284464,10.73260840262582],[-14.6468,10.7449],[-14.6262,10.7624],[-14.6135,10.7568],[-14.6224,10.7449],[-14.6026,10.7401],[-14.5679,10.8018],[-14.6521,10.8043],[-14.696532910284464,10.73260840262582]]],[[[-14.6199,10.759],[-14.6424,10.7474],[-14.6449,10.7296],[-14.6579,10.7143],[-14.706,10.6768],[-14.6993,10.6324],[-14.6304,10.6824],[-14.6082,10.7321],[-14.6237,10.7435],[-14.6199,10.759]]],[[[-14.6051,10.8787],[-14.6338,10.869],[-14.6043,10.809],[-14.5487,10.8213],[-14.5874,10.8654],[-14.6051,10.8787]]],[[[-14.8896,10.9185],[-14.9362,10.861],[-14.9171,10.8121],[-14.8879,10.8174],[-14.8896,10.9185]]],[[[-14.9521,10.974],[-15.0076,10.9468],[-15.0737,10.886],[-15.0721,10.854],[-15.016,10.7807],[-14.9621,10.7685],[-14.9732,10.8151],[-14.9018,10.929],[-14.9521,10.974]]],[[[-14.9756,10.9786],[-14.8982,10.9637],[-14.8987,11.0099],[-14.9316,11.0465],[-14.9756,10.9786]]]]},"properties":{"GID_0":"GIN","ISO_A2":"GN","ISO_A3":"GIN","NAME_EN":"Guinea","NAME_IT":"Guinea"}}
]}