{"type":"FeatureCollection", "features": [
{"type":"Feature","geometry":{"type":"Polygon","coordinates":[[[-1.7731,4.8754],[-1.7001,4.9569],[-1.6432,4.9713],[-1.6224,5.021],[-1.5045,5.0429],[-1.3467,5.0821],[-1.2464,5.1006],[-1.0835,5.1961],[-0.8469,5.209],[-0.8074,5.2157],[-0.7245,5.3],[-0.499,5.3778],[-0.4565,5.4363],[-0.3445,5.502],[-0.2084,5.5328],[-0.1231,5.5657],[-0.0599,5.6064],[0.0042,5.6244],[0.0673,5.6931],[0.1257,5.7074],[0.1848,5.7434],[0.3222,5.7822],[0.4583,5.7888],[0.6771,5.7686],[0.8165,5.7696],[0.9245,5.7867],[0.9809,5.8405],[0.9956,5.9265],[1.0818,6.0465],[1.1995,6.1127],[1.2002,6.1676],[1.0857,6.1686],[1.0548,6.2333],[1.0079,6.2938],[1.0036,6.3353],[0.8926,6.3355],[0.8619,6.3792],[0.7875,6.4134],[0.7492,6.4482],[0.719,6.5349],[0.7424,6.589],[0.6917,6.5917],[0.6352,6.6406],[0.6504,6.7376],[0.5817,6.7615],[0.573,6.81],[0.5341,6.8753],[0.5661,6.9208],[0.5225,6.9725],[0.6027,7.0232],[0.5944,7.1189],[0.6313,7.1964],[0.6589,7.3166],[0.6447,7.3979],[0.6196,7.4133],[0.5617,7.3986],[0.5359,7.4263],[0.5214,7.5201],[0.5366,7.6046],[0.586,7.6239],[0.5907,7.703],[0.6114,7.7528],[0.6274,7.8682],[0.6126,8.0057],[0.585,8.0933],[0.6113,8.1541],[0.6389,8.2606],[0.731,8.2887],[0.7282,8.3436],[0.686,8.4112],[0.6518,8.422],[0.6453,8.4938],[0.591,8.5167],[0.4717,8.5997],[0.3742,8.7543],[0.3796,8.791],[0.4412,8.7891],[0.5002,8.8143],[0.5276,8.8778],[0.5147,8.9354],[0.4555,9.0356],[0.5391,9.2135],[0.508,9.2546],[0.5637,9.3173],[0.5666,9.4056],[0.4958,9.4458],[0.4891,9.4868],[0.4464,9.5014],[0.3596,9.4992],[0.3376,9.4519],[0.2847,9.4298],[0.2284,9.4638],[0.3079,9.5017],[0.243,9.524],[0.2434,9.5763],[0.3518,9.5727],[0.382,9.6449],[0.3458,9.7145],[0.3187,9.7282],[0.3581,9.8485],[0.3602,10.0294],[0.4104,10.0217],[0.4149,10.0632],[0.3645,10.0853],[0.351,10.1919],[0.3611,10.2586],[0.348,10.3076],[0.286,10.4211],[0.2018,10.4069],[0.1754,10.424],[0.1426,10.5266],[0.0604,10.5616],[0.0413,10.6016],[-0.0603,10.6337],[-0.0784,10.6906],[-0.0746,10.7569],[-0.0222,10.8197],[-0.0299,10.8559],[-0.0058,10.9636],[0.0248,10.9725],[0.0243,11.0629],[-0.0049,11.1078],[-0.0544,11.0861],[-0.1413,11.105],[-0.1365,11.1398],[-0.276,11.1748],[-0.2734,11.1235],[-0.3367,11.1067],[-0.3817,11.1258],[-0.4281,11.1142],[-0.4336,11.0371],[-0.4757,11.0353],[-0.5658,10.9929],[-0.5932,10.9237],[-0.6717,10.9612],[-0.6841,10.9986],[-0.855,10.9983],[-0.87,10.9667],[-0.9165,11.0022],[-1.0003,11.0079],[-1.1148,11.0039],[-1.1146,10.9858],[-1.3961,10.9906],[-1.4285,11.0111],[-1.5441,11.0102],[-1.5458,11.0402],[-1.7445,11.038],[-1.7434,11.0081],[-2.0063,11.004],[-2.058,11.0175],[-2.2202,11.0207],[-2.3776,11.0088],[-2.4523,11.0233],[-2.7575,11.019],[-2.834,11.0041],[-2.8406,10.9675],[-2.8183,10.9216],[-2.8583,10.8912],[-2.9109,10.6998],[-2.9406,10.6366],[-2.8675,10.4618],[-2.7801,10.4084],[-2.8314,10.3881],[-2.8501,10.3183],[-2.7633,10.264],[-2.76,10.2276],[-2.7978,10.1909],[-2.7823,10.027],[-2.7449,9.9482],[-2.7623,9.884],[-2.7305,9.8381],[-2.7786,9.757],[-2.784,9.6893],[-2.7473,9.6317],[-2.7711,9.6013],[-2.7622,9.5576],[-2.6841,9.4863],[-2.6901,9.4469],[-2.6738,9.3839],[-2.7195,9.3347],[-2.6619,9.2401],[-2.7143,9.2095],[-2.7323,9.1654],[-2.7746,9.1373],[-2.7605,9.0256],[-2.6727,9.0202],[-2.6513,8.944],[-2.6159,8.9115],[-2.6229,8.878],[-2.5965,8.8319],[-2.549,8.5423],[-2.5044,8.334],[-2.4949,8.2052],[-2.5448,8.1757],[-2.5554,8.1469],[-2.6085,8.1519],[-2.6299,8.1151],[-2.6367,8.0547],[-2.7717,7.9971],[-2.8086,7.9656],[-2.8329,7.8486],[-2.8261,7.8057],[-2.8486,7.7802],[-2.9235,7.6086],[-2.9347,7.4865],[-2.9782,7.2721],[-2.9534,7.2392],[-3.0236,7.1425],[-3.0321,7.0717],[-3.0749,7.0629],[-3.1166,7.0059],[-3.2258,6.8249],[-3.233,6.7945],[-3.2089,6.7344],[-3.2567,6.6439],[-3.2341,6.5965],[-3.2366,6.5387],[-3.1858,6.326],[-3.1023,6.1519],[-3.074,5.9853],[-3.0205,5.8571],[-3.0261,5.7097],[-2.9527,5.716],[-2.9667,5.6406],[-2.9345,5.6198],[-2.8487,5.6486],[-2.7614,5.5993],[-2.7683,5.5544],[-2.7478,5.4379],[-2.7242,5.3878],[-2.7266,5.3409],[-2.7853,5.2856],[-2.7277,5.1314],[-2.756,5.1118],[-2.8524,5.1108],[-2.8768,5.1281],[-2.9431,5.1143],[-2.9762,5.0871],[-3.019,5.116],[-3.109,5.116],[-3.1086,5.0902],[-2.6712,4.9993],[-2.635,4.9823],[-2.5537,4.9823],[-2.382,4.9412],[-2.2684,4.899],[-2.2431,4.8593],[-2.1673,4.7963],[-2.1223,4.7897],[-2.0912,4.7451],[-1.9735,4.7596],[-1.9378,4.8058],[-1.8025,4.8738],[-1.7731,4.8754]]]},"properties":{"GID_0":"GHA","ISO_A2":"GH","ISO_A3":"GHA","NAME_EN":"Ghana","NAME_IT":"Ghana"}}
]}