{"type":"FeatureCollection", "features": [
{"type":"Feature","geometry":{"type":"MultiPolygon","coordinates":[[[[33.2742,21.9298],[33.559,21.7271],[33.5641,21.7254],[34.0052,21.7723],[34.1607,22.2071],[34.3757,22.2455],[34.692,22.2979],[34.9514,22.8576],[35.2122,22.7873],[35.6213,23.1451],[35.5701,23.2132],[35.5704,23.2593],[35.551,23.3143],[35.5546,23.3621],[35.5318,23.4274],[35.4938,23.4662],[35.4815,23.5018],[35.5024,23.536],[35.5088,23.5849],[35.4963,23.6301],[35.5074,23.6407],[35.5018,23.7424],[35.4724,23.7938],[35.4815,23.9274],[35.5021,23.9771],[35.544,23.9701],[35.5879,23.9321],[35.6415,23.9307],[35.6924,23.9101],[35.7226,23.9324],[35.7593,23.9357],[35.7535,23.9699],[35.716,23.9921],[35.6671,24.0063],[35.629,24.0038],[35.5982,24.0174],[35.5887,24.0799],[35.5443,24.1154],[35.4926,24.1104],[35.481,24.1385],[35.4465,24.1646],[35.4318,24.2085],[35.3635,24.3129],[35.2651,24.3762],[35.2226,24.4151],[35.1943,24.4743],[35.1415,24.5082],[35.1474,24.5524],[35.1351,24.6071],[35.1004,24.6349],[35.1068,24.6668],[35.0815,24.6818],[35.0893,24.7132],[35.071,24.7538],[34.996,24.8257],[34.9874,24.8963],[34.936,24.9626],[34.9446,25.0001],[34.9162,25.029],[34.8971,25.0765],[34.8443,25.1765],[34.8215,25.1946],[34.7768,25.279],[34.744,25.3174],[34.7332,25.3693],[34.694,25.4165],[34.6765,25.4868],[34.6518,25.5068],[34.6365,25.5782],[34.5885,25.6274],[34.5832,25.6621],[34.5621,25.6782],[34.5401,25.749],[34.4854,25.7926],[34.4696,25.8285],[34.4279,25.8493],[34.4132,25.904],[34.3771,25.964],[34.3424,25.989],[34.3138,26.0657],[34.289,26.1118],[34.2435,26.1626],[34.2168,26.2113],[34.2029,26.2635],[34.1874,26.2826],[34.184,26.3215],[34.1093,26.4076],[34.0643,26.5243],[34.0354,26.5626],[34.0204,26.6107],[33.9963,26.6324],[33.9468,26.6529],[33.9324,26.6796],[33.9499,26.7601],[33.9368,26.7926],[33.9424,26.8276],[33.9699,26.8899],[33.9382,26.9321],[33.9099,27.0079],[33.8846,27.0321],[33.9038,27.0529],[33.8826,27.0796],[33.8288,27.1101],[33.829,27.1771],[33.8499,27.2432],[33.8332,27.2593],[33.7824,27.2749],[33.7529,27.3018],[33.7229,27.3079],[33.6854,27.3554],[33.6776,27.4182],[33.6368,27.4524],[33.6213,27.4951],[33.5904,27.5204],[33.559,27.5243],[33.5574,27.5851],[33.5018,27.6607],[33.5315,27.6838],[33.556,27.7454],[33.5193,27.7499],[33.4893,27.7988],[33.479,27.8346],[33.5118,27.8315],[33.5404,27.8121],[33.581,27.8121],[33.5851,27.8474],[33.5601,27.8715],[33.5337,27.9226],[33.4832,27.9888],[33.4068,28.0343],[33.3776,28.0304],[33.3413,28.0524],[33.3354,28.0849],[33.3001,28.109],[33.1624,28.2482],[33.1504,28.2801],[33.1246,28.2926],[33.1071,28.3593],[33.0782,28.369],[33.0426,28.4188],[33.0232,28.4632],[32.974,28.4949],[32.9304,28.5521],[32.8679,28.5721],[32.8638,28.6201],[32.8432,28.6649],[32.8246,28.7357],[32.8013,28.7851],[32.7568,28.8007],[32.7254,28.8443],[32.6899,28.869],[32.6635,28.9376],[32.6207,28.9901],[32.6232,29.0479],[32.6621,29.0829],[32.6476,29.1765],[32.6318,29.2021],[32.6315,29.2379],[32.6068,29.2776],[32.594,29.3432],[32.566,29.3846],[32.506,29.4221],[32.4446,29.4876],[32.3815,29.526],[32.3426,29.5896],[32.366,29.6315],[32.3676,29.6893],[32.4199,29.7682],[32.4858,29.8224],[32.5088,29.8596],[32.4746,29.8679],[32.4624,29.8885],[32.4768,29.9365],[32.5154,29.954],[32.5557,29.9579],[32.5607,29.9204],[32.5832,29.9149],[32.6343,29.8671],[32.621,29.8176],[32.6796,29.756],[32.6982,29.7099],[32.681,29.6582],[32.7207,29.5524],[32.7321,29.4601],[32.7829,29.4332],[32.8187,29.401],[32.8157,29.356],[32.8301,29.3149],[32.8701,29.2885],[32.8843,29.2332],[32.9246,29.2049],[32.9535,29.2032],[32.976,29.1668],[32.9971,29.1629],[33.0768,29.086],[33.0754,29.0668],[33.1218,29.0443],[33.1818,29.0001],[33.171,28.9463],[33.1879,28.9249],[33.1735,28.8946],[33.1732,28.8529],[33.2329,28.7679],[33.2088,28.716],[33.1979,28.6704],[33.2224,28.6282],[33.2235,28.5868],[33.2571,28.5821],[33.2846,28.5104],[33.3688,28.4482],[33.374,28.4268],[33.4332,28.3643],[33.5029,28.3226],[33.5674,28.2938],[33.5929,28.2446],[33.6237,28.2268],[33.6271,28.1812],[33.6693,28.1579],[33.6704,28.1332],[33.7099,28.089],[33.7137,28.0665],[33.7607,28.0493],[33.766,28.0187],[33.7907,28.0096],[33.8218,27.9729],[33.8732,27.939],[33.9079,27.9385],[33.9504,27.8932],[33.9871,27.8846],[34.0468,27.8157],[34.0899,27.7962],[34.1382,27.7951],[34.2035,27.7776],[34.2499,27.7232],[34.2515,27.7604],[34.221,27.7646],[34.2057,27.7901],[34.2582,27.7907],[34.2729,27.8532],[34.3162,27.8471],[34.3332,27.9135],[34.3688,27.9196],[34.3999,27.9618],[34.4326,27.9868],[34.4429,28.0287],[34.4357,28.0929],[34.4496,28.1513],[34.4468,28.1854],[34.4146,28.2218],[34.4099,28.3201],[34.4415,28.359],[34.4562,28.4349],[34.4851,28.4768],[34.5213,28.4993],[34.5187,28.5526],[34.5451,28.5796],[34.5526,28.6107],[34.5757,28.6237],[34.5904,28.674],[34.6226,28.726],[34.6276,28.7651],[34.6221,28.8424],[34.6482,28.8601],[34.6404,28.9399],[34.6535,28.9699],[34.6865,28.9818],[34.6846,29.0135],[34.6646,29.0468],[34.6926,29.1479],[34.7182,29.1724],[34.7412,29.2199],[34.7432,29.3132],[34.7796,29.3432],[34.789,29.374],[34.8526,29.4443],[34.8696,29.4824],[34.9107,29.4971],[34.8723,29.5444],[34.8635,29.5903],[34.8776,29.6449],[34.8552,29.691],[34.8559,29.7392],[34.7536,29.9894],[34.7557,30.0046],[34.6371,30.294],[34.6167,30.3605],[34.547,30.4001],[34.5444,30.4308],[34.5651,30.4813],[34.5217,30.5254],[34.5246,30.58],[34.4956,30.6841],[34.4076,30.8439],[34.3505,30.988],[34.229,31.3343],[34.1404,31.2724],[34.0585,31.2293],[33.9568,31.1885],[33.8688,31.159],[33.6818,31.1179],[33.5396,31.1154],[33.4526,31.1424],[33.4235,31.1685],[33.3976,31.1682],[33.3699,31.1149],[33.3101,31.1099],[33.2585,31.0782],[33.1976,31.069],[33.1682,31.0471],[33.1124,31.119],[33.1299,31.1357],[33.0938,31.1785],[33.0254,31.1515],[32.9807,31.094],[33.0265,31.0657],[33.0088,31.0493],[32.9754,31.0535],[32.9707,31.0835],[32.8704,31.0904],[32.819,31.0685],[32.7882,31.0429],[32.7151,31.0499],[32.6979,31.0607],[32.6307,31.056],[32.5582,31.0749],[32.5057,31.1146],[32.4671,31.1646],[32.4349,31.1901],[32.3301,31.2474],[32.3146,31.2721],[32.2126,31.2876],[32.0585,31.369],[32.006,31.4085],[31.9668,31.4643],[31.9626,31.4968],[31.919,31.5251],[31.8471,31.524],[31.7701,31.4874],[31.7207,31.4729],[31.5857,31.4443],[31.5324,31.4471],[31.4487,31.4809],[31.3904,31.5126],[31.2693,31.5627],[31.1032,31.6029],[31.0471,31.6015],[30.9554,31.5815],[30.8493,31.5526],[30.7132,31.5068],[30.5665,31.4676],[30.4954,31.4557],[30.4099,31.4726],[30.3621,31.4665],[30.3346,31.3921],[30.2887,31.3271],[30.2437,31.2938],[30.1638,31.2679],[30.086,31.2826],[30.0707,31.3165],[29.9979,31.2713],[29.8999,31.2015],[29.8207,31.136],[29.7871,31.1465],[29.7621,31.1168],[29.5338,30.9646],[29.4643,30.929],[29.3463,30.8779],[29.2129,30.8368],[29.1429,30.8218],[29.0751,30.8196],[28.9782,30.834],[28.969,30.8532],[28.9107,30.8729],[28.8921,30.8929],[28.8332,30.9271],[28.8307,30.9532],[28.7699,30.9654],[28.7638,30.9843],[28.7257,30.9862],[28.7101,31.0026],[28.6557,31.004],[28.5996,31.0201],[28.5526,31.0499],[28.486,31.0576],[28.4374,31.0871],[28.396,31.0846],[28.3215,31.066],[28.2968,31.0726],[28.2054,31.0721],[28.1668,31.0901],[28.0546,31.086],[27.9263,31.0974],[27.896,31.1176],[27.8918,31.1704],[27.8707,31.1907],[27.8671,31.2424],[27.8249,31.2182],[27.6939,31.1812],[27.6374,31.1961],[27.5713,31.1904],[27.5568,31.2068],[27.4496,31.2143],[27.3851,31.2621],[27.3402,31.3728],[27.2412,31.3574],[27.182,31.359],[27.1632,31.3763],[27.1026,31.3749],[27.0642,31.4037],[27.0176,31.4088],[26.9746,31.4432],[26.8449,31.4407],[26.7874,31.4596],[26.7488,31.4835],[26.6524,31.4899],[26.587,31.4888],[26.5611,31.4967],[26.4957,31.4951],[26.4476,31.5113],[26.3779,31.5171],[26.1543,31.5724],[26.019,31.6085],[25.8851,31.6287],[25.7921,31.6071],[25.6018,31.5471],[25.4796,31.516],[25.3951,31.5029],[25.2935,31.5049],[25.2113,31.5196],[25.171,31.5368],[25.174,31.5751],[25.1315,31.6666],[25.0901,31.6196],[25.0625,31.5418],[24.9636,31.4802],[24.8611,31.4059],[24.8672,31.343],[24.8869,31.3039],[24.8882,31.2621],[24.8777,31.1671],[24.8831,31.134],[24.9188,31.0662],[24.963,30.937],[24.9806,30.9131],[24.9901,30.8618],[25.0183,30.778],[24.9923,30.7129],[24.9786,30.6444],[24.9551,30.5986],[24.9478,30.5453],[24.9265,30.4811],[24.8902,30.4484],[24.8344,30.3689],[24.7831,30.3313],[24.7596,30.2648],[24.7094,30.1819],[24.6981,30.1488],[24.7533,30.0957],[24.8132,29.9189],[24.8201,29.8862],[24.8194,29.789],[24.8958,29.6314],[24.895,29.6088],[24.8577,29.5483],[24.883,29.4811],[24.957,29.3458],[24.9994,29.2502],[25,21.9992],[25.1392,22.0044],[26.3756,22.0058],[26.476,22.0073],[26.9475,22.0052],[27.634,22.0077],[27.6749,22.0064],[28.1255,22.0076],[28.6756,22.0067],[28.7672,22.0077],[29.3118,22.0061],[29.3173,22.0043],[29.6664,22.0056],[30,22.0052],[30.8258,22.0081],[31.3185,22.0064],[31.3569,22.115],[31.4103,22.1814],[31.4688,22.2228],[31.5129,22.1808],[31.4355,22.0812],[31.4121,22.0081],[31.9427,22.0067],[32.0867,22.0047],[33.1665,22.0062],[33.2742,21.9298]]],[[[33.9315,27.5363],[33.9299,27.5043],[33.9779,27.4943],[34.0243,27.4957],[33.9621,27.5351],[33.9315,27.5363]]],[[[33.7676,27.6262],[33.7404,27.5857],[33.789,27.5649],[33.7676,27.6262]]]]},"properties":{"GID_0":"EGY","ISO_A2":"EG","ISO_A3":"EGY","NAME_EN":"Egypt","NAME_IT":"Egitto"}}
]}