{"type":"FeatureCollection", "features": [
{"type":"Feature","geometry":{"type":"Polygon","coordinates":[[[1.5216,42.4852],[1.5505,42.5261],[1.4958,42.5044],[1.5216,42.4852]]]},"properties":{"NAME_1":"AndorralaVella","GID_1":"AND.1_1"}},
{"type":"Feature","geometry":{"type":"Polygon","coordinates":[[[1.7241,42.5208],[1.7387,42.5655],[1.7229,42.6117],[1.6904,42.6223],[1.6102,42.622],[1.6096,42.6165],[1.6007,42.6094],[1.568,42.5809],[1.5678,42.5473],[1.6847,42.5536],[1.7241,42.5208]]]},"properties":{"NAME_1":"Canillo","GID_1":"AND.2_1"}},
{"type":"Feature","geometry":{"type":"Polygon","coordinates":[[[1.5678,42.5473],[1.5505,42.5261],[1.6309,42.5018],[1.6616,42.4802],[1.7036,42.4898],[1.7241,42.5208],[1.6847,42.5536],[1.5678,42.5473]]]},"properties":{"NAME_1":"Encamp","GID_1":"AND.3_1"}},
{"type":"Feature","geometry":{"type":"Polygon","coordinates":[[[1.5216,42.4852],[1.5645,42.4591],[1.6616,42.4802],[1.6309,42.5018],[1.5505,42.5261],[1.5216,42.4852]]]},"properties":{"NAME_1":"Escaldes-Engordany","GID_1":"AND.4_1"}},
{"type":"Feature","geometry":{"type":"Polygon","coordinates":[[[1.5505,42.5261],[1.5678,42.5473],[1.5287,42.5505],[1.4711,42.6056],[1.4488,42.5989],[1.4397,42.5437],[1.4779,42.5069],[1.4958,42.5044],[1.5505,42.5261]]]},"properties":{"NAME_1":"LaMassana","GID_1":"AND.5_1"}},
{"type":"Feature","geometry":{"type":"Polygon","coordinates":[[[1.6102,42.622],[1.553,42.6521],[1.489,42.6517],[1.4711,42.6056],[1.5287,42.5505],[1.5678,42.5473],[1.568,42.5809],[1.6007,42.6094],[1.6096,42.6165],[1.6102,42.622]]]},"properties":{"NAME_1":"Ordino","GID_1":"AND.6_1"}},
{"type":"Feature","geometry":{"type":"Polygon","coordinates":[[[1.4958,42.5044],[1.4779,42.5069],[1.441,42.4755],[1.4516,42.4375],[1.5526,42.4335],[1.5645,42.4591],[1.5216,42.4852],[1.4958,42.5044]]]},"properties":{"NAME_1":"SantJuliàdeLòria","GID_1":"AND.7_1"}}
]}