{"type":"FeatureCollection", "features": [
{"type":"Feature","geometry":{"type":"Polygon","coordinates":[[[-63.0731,18.1821],[-63.0763,18.1863],[-63.1052,18.1837],[-63.101,18.1682],[-63.0731,18.1821]]]},"properties":{"NAME_1":"BlowingPoint","GID_1":"AIA.1_1"}},
{"type":"Feature","geometry":{"type":"Polygon","coordinates":[[[-63.2512,18.2839],[-63.2578,18.2838],[-63.2594,18.2743],[-63.2465,18.2746],[-63.2512,18.2839]]]},"properties":{"NAME_1":"DogIsland","GID_1":"AIA.15_1"}},
{"type":"Feature","geometry":{"type":"MultiPolygon","coordinates":[[[[-62.9905,18.2257],[-62.9803,18.2443],[-62.9951,18.2465],[-62.9905,18.2257]]],[[[-63.0168,18.2342],[-62.9951,18.2465],[-63.0127,18.2521],[-63.0168,18.2342]]]]},"properties":{"NAME_1":"EastEnd","GID_1":"AIA.2_1"}},
{"type":"Feature","geometry":{"type":"Polygon","coordinates":[[[-63.0731,18.1821],[-63.0543,18.1907],[-63.0516,18.2109],[-63.0758,18.2128],[-63.079,18.21],[-63.0784,18.2005],[-63.0763,18.1863],[-63.0731,18.1821]]]},"properties":{"NAME_1":"GeorgeHill","GID_1":"AIA.3_1"}},
{"type":"Feature","geometry":{"type":"Polygon","coordinates":[[[-62.9951,18.2465],[-62.9754,18.2565],[-62.9798,18.2651],[-63.0171,18.2552],[-63.0127,18.2521],[-62.9951,18.2465]]]},"properties":{"NAME_1":"IslandHarbour","GID_1":"AIA.4_1"}},
{"type":"Feature","geometry":{"type":"Polygon","coordinates":[[[-63.079,18.21],[-63.0925,18.2045],[-63.0784,18.2005],[-63.079,18.21]]]},"properties":{"NAME_1":"NorthHill","GID_1":"AIA.5_1"}},
{"type":"Feature","geometry":{"type":"Polygon","coordinates":[[[-63.0348,18.2355],[-63.0295,18.2562],[-63.0554,18.2454],[-63.0711,18.2332],[-63.0678,18.2203],[-63.0505,18.2169],[-63.0477,18.2363],[-63.0348,18.2355]]]},"properties":{"NAME_1":"NorthSide","GID_1":"AIA.6_1"}},
{"type":"Feature","geometry":{"type":"Polygon","coordinates":[[[-63.1769,18.2651],[-63.1701,18.2616],[-63.1714,18.2652],[-63.1769,18.2651]]]},"properties":{"NAME_1":"PriclyPearCays","GID_1":"AIA.16_1"}},
{"type":"Feature","geometry":{"type":"Polygon","coordinates":[[[-63.0925,18.2045],[-63.0851,18.1965],[-63.0784,18.2005],[-63.0925,18.2045]]]},"properties":{"NAME_1":"SandyGround","GID_1":"AIA.7_1"}},
{"type":"Feature","geometry":{"type":"Polygon","coordinates":[[[-62.9951,18.2465],[-63.0168,18.2342],[-63.0348,18.2355],[-63.0331,18.2294],[-63.0359,18.223],[-63.0075,18.2227],[-62.9905,18.2257],[-62.9951,18.2465]]]},"properties":{"NAME_1":"SandyHill","GID_1":"AIA.8_1"}},
{"type":"Feature","geometry":{"type":"Polygon","coordinates":[[[-62.9449,18.2961],[-62.9464,18.2837],[-62.9336,18.2855],[-62.9307,18.2944],[-62.9449,18.2961]]]},"properties":{"NAME_1":"ScrubIsland","GID_1":"AIA.17_1"}},
{"type":"Feature","geometry":{"type":"Polygon","coordinates":[[[-63.426,18.5858],[-63.4232,18.5918],[-63.4278,18.5903],[-63.426,18.5858]]]},"properties":{"NAME_1":"SombreroIsland","GID_1":"AIA.18_1"}},
{"type":"Feature","geometry":{"type":"Polygon","coordinates":[[[-63.0763,18.1863],[-63.0784,18.2005],[-63.0851,18.1965],[-63.1219,18.1925],[-63.1208,18.1728],[-63.1052,18.1837],[-63.0763,18.1863]]]},"properties":{"NAME_1":"SouthHill","GID_1":"AIA.9_1"}},
{"type":"Feature","geometry":{"type":"MultiPolygon","coordinates":[[[[-63.0477,18.2363],[-63.0505,18.2169],[-63.0381,18.2119],[-63.0331,18.2294],[-63.0348,18.2355],[-63.0477,18.2363]]],[[[-63.0168,18.2342],[-63.0127,18.2521],[-63.0171,18.2552],[-63.0295,18.2562],[-63.0348,18.2355],[-63.0168,18.2342]]]]},"properties":{"NAME_1":"StoneyGround","GID_1":"AIA.10_1"}},
{"type":"Feature","geometry":{"type":"Polygon","coordinates":[[[-63.0359,18.223],[-63.0381,18.2119],[-63.0354,18.2009],[-63.0122,18.2114],[-63.0075,18.2227],[-63.0359,18.223]]]},"properties":{"NAME_1":"TheFarrington","GID_1":"AIA.11_1"}},
{"type":"Feature","geometry":{"type":"Polygon","coordinates":[[[-63.0543,18.1907],[-63.0354,18.2009],[-63.0381,18.2119],[-63.0505,18.2169],[-63.0516,18.2109],[-63.0543,18.1907]]]},"properties":{"NAME_1":"TheQuarter","GID_1":"AIA.12_1"}},
{"type":"Feature","geometry":{"type":"Polygon","coordinates":[[[-63.0516,18.2109],[-63.0505,18.2169],[-63.0678,18.2203],[-63.0758,18.2128],[-63.0516,18.2109]]]},"properties":{"NAME_1":"TheValley","GID_1":"AIA.13_1"}},
{"type":"Feature","geometry":{"type":"Polygon","coordinates":[[[-63.1219,18.1925],[-63.1622,18.171],[-63.1208,18.1728],[-63.1219,18.1925]]]},"properties":{"NAME_1":"WestEnd","GID_1":"AIA.14_1"}}
]}