{"type":"FeatureCollection", "features": [
{"type":"Feature","geometry":{"type":"Polygon","coordinates":[[[-170.7147,-14.3188],[-170.5862,-14.2554],[-170.6622,-14.2467],[-170.7103,-14.2607],[-170.7403,-14.2902],[-170.7147,-14.3188]]]},"properties":{"NAME_1":"Eastern","GID_1":"ASM.1_1"}},
{"type":"Feature","geometry":{"type":"Polygon","coordinates":[[[-169.4191,-14.2275],[-169.4286,-14.2119],[-169.4971,-14.217],[-169.5144,-14.2355],[-169.485,-14.2718],[-169.4565,-14.2472],[-169.4238,-14.2558],[-169.4191,-14.2275]]]},"properties":{"NAME_1":"Manu'a","GID_1":"ASM.2_1"}},
{"type":"Feature","geometry":{"type":"Polygon","coordinates":[[[-171.0708,-11.0487],[-171.0886,-11.0509],[-171.0821,-11.0651],[-171.0708,-11.0487]]]},"properties":{"NAME_1":"Unorganized","GID_1":"ASM.3_1"}},
{"type":"Feature","geometry":{"type":"Polygon","coordinates":[[[-170.7403,-14.2902],[-170.7986,-14.2896],[-170.8377,-14.3257],[-170.7901,-14.3355],[-170.7856,-14.356],[-170.7428,-14.3655],[-170.7021,-14.3268],[-170.7147,-14.3188],[-170.7403,-14.2902]]]},"properties":{"NAME_1":"Western","GID_1":"ASM.4_1"}}
]}