{"type":"FeatureCollection", "features": [
{"type":"Feature","geometry":{"type":"Polygon","coordinates":[[[-59.4738,13.077],[-59.5116,13.123],[-59.6081,13.0768],[-59.519,13.0454],[-59.4738,13.077]]]},"properties":{"NAME_1":"ChristChurch","GID_1":"BRB.1_1"}},
{"type":"Feature","geometry":{"type":"Polygon","coordinates":[[[-59.5977,13.2154],[-59.575,13.2033],[-59.5412,13.2338],[-59.5724,13.2938],[-59.5946,13.263],[-59.6006,13.2361],[-59.5977,13.2154]]]},"properties":{"NAME_1":"SaintAndrew","GID_1":"BRB.2_1"}},
{"type":"Feature","geometry":{"type":"Polygon","coordinates":[[[-59.5116,13.123],[-59.5062,13.1344],[-59.5401,13.1795],[-59.553,13.167],[-59.5823,13.1564],[-59.5676,13.096],[-59.5116,13.123]]]},"properties":{"NAME_1":"SaintGeorge","GID_1":"BRB.3_1"}},
{"type":"Feature","geometry":{"type":"Polygon","coordinates":[[[-59.6006,13.2361],[-59.6427,13.2249],[-59.6362,13.136],[-59.614,13.1444],[-59.6173,13.1874],[-59.5977,13.2154],[-59.6006,13.2361]]]},"properties":{"NAME_1":"SaintJames","GID_1":"BRB.4_1"}},
{"type":"Feature","geometry":{"type":"Polygon","coordinates":[[[-59.5062,13.1344],[-59.4676,13.1799],[-59.5088,13.2099],[-59.5401,13.1795],[-59.5062,13.1344]]]},"properties":{"NAME_1":"SaintJohn","GID_1":"BRB.5_1"}},
{"type":"Feature","geometry":{"type":"Polygon","coordinates":[[[-59.575,13.2033],[-59.5573,13.1868],[-59.553,13.167],[-59.5088,13.2099],[-59.5412,13.2338],[-59.575,13.2033]]]},"properties":{"NAME_1":"SaintJoseph","GID_1":"BRB.6_1"}},
{"type":"Feature","geometry":{"type":"Polygon","coordinates":[[[-59.6465,13.2732],[-59.5746,13.2988],[-59.6121,13.3349],[-59.6507,13.3065],[-59.6465,13.2732]]]},"properties":{"NAME_1":"SaintLucy","GID_1":"BRB.7_1"}},
{"type":"Feature","geometry":{"type":"Polygon","coordinates":[[[-59.5676,13.096],[-59.5823,13.1564],[-59.6362,13.136],[-59.6081,13.0768],[-59.5676,13.096]]]},"properties":{"NAME_1":"SaintMichael","GID_1":"BRB.8_1"}},
{"type":"Feature","geometry":{"type":"Polygon","coordinates":[[[-59.5946,13.263],[-59.6468,13.2732],[-59.6432,13.2249],[-59.6004,13.2361],[-59.5946,13.263]]]},"properties":{"NAME_1":"SaintPeter","GID_1":"BRB.9_1"}},
{"type":"Feature","geometry":{"type":"Polygon","coordinates":[[[-59.4738,13.077],[-59.4199,13.149],[-59.4568,13.1817],[-59.5062,13.1344],[-59.5116,13.123],[-59.4738,13.077]]]},"properties":{"NAME_1":"SaintPhilip","GID_1":"BRB.10_1"}},
{"type":"Feature","geometry":{"type":"Polygon","coordinates":[[[-59.5977,13.2154],[-59.6173,13.1874],[-59.614,13.1447],[-59.553,13.167],[-59.5573,13.1868],[-59.5977,13.2154]]]},"properties":{"NAME_1":"SaintThomas","GID_1":"BRB.11_1"}}
]}