{"type":"FeatureCollection", "features": [
{"type":"Feature","geometry":{"type":"Polygon","coordinates":[[[-2.1771,49.7329],[-2.1885,49.7218],[-2.199,49.726],[-2.2329,49.7118],[-2.2349,49.7038],[-2.2126,49.7004],[-2.1751,49.7135],[-2.1557,49.726],[-2.1624,49.7326],[-2.1771,49.7329]]]},"properties":{"NAME_1":"Alderney","GID_1":"GGY.1_1"}},
{"type":"Feature","geometry":{"type":"Polygon","coordinates":[[[-2.6246,49.4651],[-2.6242,49.4545],[-2.6038,49.4456],[-2.5894,49.4453],[-2.5697,49.4629],[-2.5678,49.4699],[-2.5791,49.4807],[-2.6063,49.4762],[-2.6082,49.466],[-2.6246,49.4651]]]},"properties":{"NAME_1":"Castel","GID_1":"GGY.3_1"}},
{"type":"Feature","geometry":{"type":"Polygon","coordinates":[[[-2.5796,49.4243],[-2.5759,49.4335],[-2.5829,49.4344],[-2.5831,49.4365],[-2.5981,49.4357],[-2.6085,49.4326],[-2.6099,49.4287],[-2.6148,49.4243],[-2.6063,49.4185],[-2.5851,49.419],[-2.5796,49.4243]]]},"properties":{"NAME_1":"Forest","GID_1":"GGY.4_1"}},
{"type":"Feature","geometry":{"type":"Polygon","coordinates":[[[-2.5894,49.4453],[-2.5975,49.4358],[-2.5746,49.4366],[-2.5598,49.445],[-2.5577,49.4497],[-2.5593,49.4552],[-2.5661,49.4674],[-2.5685,49.4671],[-2.5697,49.4629],[-2.5894,49.4453]]]},"properties":{"NAME_1":"SaintAndrew","GID_1":"GGY.7_1"}},
{"type":"Feature","geometry":{"type":"Polygon","coordinates":[[[-2.5796,49.4243],[-2.5674,49.4229],[-2.5626,49.416],[-2.5496,49.4232],[-2.5274,49.424],[-2.536,49.4354],[-2.5457,49.447],[-2.5552,49.4482],[-2.5577,49.4497],[-2.5598,49.445],[-2.5746,49.4366],[-2.5831,49.4365],[-2.5829,49.4344],[-2.5759,49.4335],[-2.5796,49.4243]]]},"properties":{"NAME_1":"SaintMartin","GID_1":"GGY.8_1"}},
{"type":"Feature","geometry":{"type":"Polygon","coordinates":[[[-2.5593,49.4552],[-2.5552,49.4482],[-2.5457,49.447],[-2.536,49.4354],[-2.5251,49.4518],[-2.534,49.4688],[-2.5485,49.4726],[-2.5615,49.4727],[-2.5644,49.4718],[-2.5593,49.4552]]]},"properties":{"NAME_1":"SaintPeterPort","GID_1":"GGY.9_1"}},
{"type":"Feature","geometry":{"type":"Polygon","coordinates":[[[-2.6148,49.4243],[-2.6117,49.4312],[-2.6296,49.4388],[-2.6404,49.4541],[-2.6499,49.4482],[-2.6576,49.4362],[-2.6539,49.4298],[-2.6596,49.4264],[-2.6529,49.4294],[-2.6356,49.4316],[-2.6229,49.4201],[-2.6148,49.4243]]]},"properties":{"NAME_1":"SaintPierreduBois","GID_1":"GGY.10_1"}},
{"type":"Feature","geometry":{"type":"MultiPolygon","coordinates":[[[[-2.5485,49.4726],[-2.5338,49.4688],[-2.511,49.4801],[-2.523,49.4854],[-2.5395,49.4875],[-2.5529,49.4901],[-2.5654,49.4864],[-2.5598,49.4742],[-2.5615,49.4727],[-2.5485,49.4726]]],[[[-2.5664,49.488],[-2.5518,49.499],[-2.5729,49.4979],[-2.5664,49.488]]]]},"properties":{"NAME_1":"SaintSampson","GID_1":"GGY.11_1"}},
{"type":"Feature","geometry":{"type":"Polygon","coordinates":[[[-2.6246,49.4651],[-2.6404,49.4541],[-2.6296,49.4388],[-2.6117,49.4312],[-2.5975,49.4358],[-2.5894,49.4453],[-2.6038,49.4456],[-2.6242,49.4545],[-2.6246,49.4651]]]},"properties":{"NAME_1":"SaintSaviour","GID_1":"GGY.12_1"}},
{"type":"Feature","geometry":{"type":"Polygon","coordinates":[[[-2.3687,49.4524],[-2.3701,49.4349],[-2.3763,49.4287],[-2.3646,49.4193],[-2.3429,49.4271],[-2.3687,49.4524]]]},"properties":{"NAME_1":"Sark","GID_1":"GGY.13_1"}},
{"type":"Feature","geometry":{"type":"MultiPolygon","coordinates":[[[[-2.6529,49.4294],[-2.6385,49.4221],[-2.6229,49.4201],[-2.6356,49.4316],[-2.6529,49.4294]]],[[[-2.6539,49.4298],[-2.6665,49.4374],[-2.676,49.4357],[-2.6676,49.4235],[-2.6596,49.4264],[-2.6539,49.4298]]]]},"properties":{"NAME_1":"Torteval","GID_1":"GGY.14_1"}},
{"type":"Feature","geometry":{"type":"MultiPolygon","coordinates":[[[[-2.5678,49.4699],[-2.5685,49.4671],[-2.5661,49.4674],[-2.5644,49.4718],[-2.5598,49.4742],[-2.5654,49.4864],[-2.5529,49.4901],[-2.5664,49.488],[-2.5813,49.4901],[-2.5791,49.4807],[-2.5678,49.4699]]],[[[-2.523,49.4854],[-2.5074,49.4818],[-2.5013,49.4982],[-2.5101,49.5051],[-2.5412,49.5026],[-2.5395,49.4875],[-2.523,49.4854]]]]},"properties":{"NAME_1":"Vale","GID_1":"GGY.15_1"}}
]}