{"type":"FeatureCollection", "features": [
{"type":"Feature","geometry":{"type":"Polygon","coordinates":[[[144.7396,13.4565],[144.7517,13.4576],[144.7514,13.4704],[144.7415,13.4688],[144.738,13.4603],[144.7396,13.4565]]]},"properties":{"NAME_1":"AganaHeights","GID_1":"GUM.1_1"}},
{"type":"Feature","geometry":{"type":"Polygon","coordinates":[[[144.636,13.3417],[144.6726,13.3296],[144.7019,13.3469],[144.7027,13.3522],[144.6693,13.3817],[144.6684,13.3981],[144.6511,13.3774],[144.636,13.3417]]]},"properties":{"NAME_1":"Agat","GID_1":"GUM.2_1"}},
{"type":"Feature","geometry":{"type":"Polygon","coordinates":[[[144.7323,13.4753],[144.7316,13.4783],[144.709,13.4624],[144.7106,13.438],[144.7432,13.4371],[144.7478,13.4354],[144.748,13.4452],[144.7458,13.4466],[144.738,13.4603],[144.7415,13.4688],[144.7323,13.4753]]]},"properties":{"NAME_1":"Asan","GID_1":"GUM.3_1"}},
{"type":"Feature","geometry":{"type":"Polygon","coordinates":[[[144.8193,13.5021],[144.8006,13.4917],[144.779,13.4815],[144.784,13.4622],[144.799,13.4584],[144.8326,13.4621],[144.8343,13.4983],[144.8193,13.5021]]]},"properties":{"NAME_1":"Barrigada","GID_1":"GUM.4_1"}},
{"type":"Feature","geometry":{"type":"Polygon","coordinates":[[[144.7396,13.4565],[144.748,13.4452],[144.7478,13.4354],[144.7554,13.437],[144.768,13.428],[144.7843,13.422],[144.7928,13.4247],[144.781,13.461],[144.7721,13.4605],[144.7517,13.4576],[144.7396,13.4565]]]},"properties":{"NAME_1":"Chalan-Pago-Ordot","GID_1":"GUM.5_1"}},
{"type":"Feature","geometry":{"type":"Polygon","coordinates":[[[144.8343,13.4983],[144.8708,13.5004],[144.8778,13.547],[144.8734,13.5775],[144.8602,13.6543],[144.8356,13.6244],[144.8372,13.5965],[144.8097,13.5464],[144.8193,13.5021],[144.8343,13.4983]]]},"properties":{"NAME_1":"Dededo","GID_1":"GUM.6_1"}},
{"type":"Feature","geometry":{"type":"Polygon","coordinates":[[[144.7522,13.4672],[144.7583,13.4644],[144.761,13.466],[144.759,13.477],[144.7316,13.4783],[144.7323,13.4753],[144.7514,13.4704],[144.7522,13.4672]]]},"properties":{"NAME_1":"Hagåtña","GID_1":"GUM.7_1"}},
{"type":"Feature","geometry":{"type":"Polygon","coordinates":[[[144.7188,13.2505],[144.7326,13.2524],[144.7643,13.2854],[144.7727,13.3034],[144.7711,13.3347],[144.7604,13.3402],[144.7143,13.3106],[144.6872,13.2998],[144.6927,13.2795],[144.7054,13.2697],[144.7188,13.2505]]]},"properties":{"NAME_1":"Inarajan","GID_1":"GUM.8_1"}},
{"type":"Feature","geometry":{"type":"Polygon","coordinates":[[[144.784,13.4622],[144.781,13.461],[144.7928,13.4247],[144.8058,13.4261],[144.872,13.4865],[144.8708,13.5004],[144.8343,13.4983],[144.8326,13.4621],[144.799,13.4584],[144.784,13.4622]]]},"properties":{"NAME_1":"Mangilao","GID_1":"GUM.9_1"}},
{"type":"Feature","geometry":{"type":"Polygon","coordinates":[[[144.7054,13.2697],[144.6792,13.2844],[144.6678,13.2867],[144.6608,13.2854],[144.6773,13.2546],[144.7048,13.2464],[144.7188,13.2505],[144.7054,13.2697]]]},"properties":{"NAME_1":"Merizo","GID_1":"GUM.10_1"}},
{"type":"Feature","geometry":{"type":"Polygon","coordinates":[[[144.779,13.4815],[144.7715,13.4821],[144.759,13.477],[144.761,13.466],[144.7639,13.467],[144.7721,13.4605],[144.784,13.4622],[144.779,13.4815]]]},"properties":{"NAME_1":"Mongmong-Toto-Maite","GID_1":"GUM.11_1"}},
{"type":"Feature","geometry":{"type":"Polygon","coordinates":[[[144.709,13.4624],[144.6753,13.4633],[144.6821,13.4483],[144.675,13.4283],[144.6922,13.411],[144.6994,13.4215],[144.7051,13.4306],[144.7106,13.438],[144.709,13.4624]]]},"properties":{"NAME_1":"Piti","GID_1":"GUM.12_1"}},
{"type":"Feature","geometry":{"type":"Polygon","coordinates":[[[144.7027,13.3522],[144.7215,13.3587],[144.722,13.3881],[144.7012,13.4182],[144.6922,13.411],[144.675,13.4283],[144.665,13.4418],[144.6402,13.442],[144.6461,13.4132],[144.6684,13.3981],[144.6693,13.3817],[144.7027,13.3522]]]},"properties":{"NAME_1":"SantaRita","GID_1":"GUM.13_1"}},
{"type":"Feature","geometry":{"type":"Polygon","coordinates":[[[144.7517,13.4576],[144.7721,13.4605],[144.7639,13.467],[144.7583,13.4644],[144.7522,13.4672],[144.7517,13.4576]]]},"properties":{"NAME_1":"Sinajana","GID_1":"GUM.14_1"}},
{"type":"Feature","geometry":{"type":"Polygon","coordinates":[[[144.6726,13.3296],[144.6872,13.2998],[144.7143,13.3106],[144.7604,13.3402],[144.7699,13.367],[144.7217,13.3681],[144.7215,13.3587],[144.7019,13.3469],[144.6726,13.3296]]]},"properties":{"NAME_1":"Talofofo","GID_1":"GUM.15_1"}},
{"type":"Feature","geometry":{"type":"Polygon","coordinates":[[[144.8193,13.5021],[144.8097,13.5464],[144.7991,13.5076],[144.7737,13.5063],[144.7715,13.4821],[144.779,13.4815],[144.8006,13.4917],[144.8193,13.5021]]]},"properties":{"NAME_1":"Tamuning","GID_1":"GUM.16_1"}},
{"type":"Feature","geometry":{"type":"Polygon","coordinates":[[[144.636,13.3417],[144.6492,13.3288],[144.6586,13.2859],[144.6678,13.2867],[144.6792,13.2844],[144.6927,13.2795],[144.6872,13.2998],[144.6726,13.3296],[144.636,13.3417]]]},"properties":{"NAME_1":"Umatac","GID_1":"GUM.17_1"}},
{"type":"Feature","geometry":{"type":"Polygon","coordinates":[[[144.8708,13.5004],[144.872,13.4865],[144.9025,13.5128],[144.9266,13.5216],[144.9569,13.5989],[144.9069,13.6058],[144.8804,13.6441],[144.8604,13.6543],[144.8734,13.5775],[144.8778,13.547],[144.8708,13.5004]]]},"properties":{"NAME_1":"Yigo","GID_1":"GUM.18_1"}},
{"type":"Feature","geometry":{"type":"Polygon","coordinates":[[[144.7106,13.438],[144.7051,13.4306],[144.6994,13.4215],[144.7219,13.3887],[144.7217,13.3681],[144.7699,13.367],[144.7843,13.422],[144.768,13.428],[144.7554,13.437],[144.7522,13.4357],[144.7432,13.4371],[144.7106,13.438]]]},"properties":{"NAME_1":"Yona","GID_1":"GUM.19_1"}}
]}