{"type":"FeatureCollection", "features": [
{"type":"Feature","geometry":{"type":"Polygon","coordinates":[[[166.9112,-0.5411],[166.9179,-0.5395],[166.9159,-0.5362],[166.9139,-0.5274],[166.9099,-0.5288],[166.9112,-0.5411]]]},"properties":{"NAME_1":"Aiwo","GID_1":"NRU.1_1"}},
{"type":"Feature","geometry":{"type":"Polygon","coordinates":[[[166.9487,-0.5038],[166.9444,-0.517],[166.94,-0.5197],[166.9473,-0.5164],[166.9581,-0.5131],[166.9487,-0.5038]]]},"properties":{"NAME_1":"Anabar","GID_1":"NRU.2_1"}},
{"type":"Feature","geometry":{"type":"Polygon","coordinates":[[[166.9487,-0.5038],[166.9393,-0.5024],[166.9415,-0.5177],[166.9444,-0.517],[166.9487,-0.5038]]]},"properties":{"NAME_1":"Anetan","GID_1":"NRU.3_1"}},
{"type":"Feature","geometry":{"type":"Polygon","coordinates":[[[166.9442,-0.5201],[166.9393,-0.5223],[166.9377,-0.5279],[166.9357,-0.5293],[166.9395,-0.538],[166.9453,-0.5383],[166.9514,-0.5417],[166.9524,-0.5298],[166.9577,-0.5231],[166.9476,-0.5225],[166.9442,-0.5201]]]},"properties":{"NAME_1":"Anibare","GID_1":"NRU.4_1"}},
{"type":"Feature","geometry":{"type":"Polygon","coordinates":[[[166.94,-0.5197],[166.9311,-0.5058],[166.9261,-0.5111],[166.9366,-0.5235],[166.94,-0.5197]]]},"properties":{"NAME_1":"Baiti","GID_1":"NRU.5_1"}},
{"type":"Feature","geometry":{"type":"Polygon","coordinates":[[[166.9112,-0.5411],[166.9147,-0.5462],[166.918,-0.541],[166.9179,-0.5395],[166.9112,-0.5411]]]},"properties":{"NAME_1":"Boe","GID_1":"NRU.6_1"}},
{"type":"Feature","geometry":{"type":"Polygon","coordinates":[[[166.9179,-0.5395],[166.918,-0.541],[166.9225,-0.5427],[166.9329,-0.5373],[166.9366,-0.5369],[166.9357,-0.5293],[166.9326,-0.53],[166.9296,-0.5263],[166.9178,-0.529],[166.9159,-0.5362],[166.9179,-0.5395]]]},"properties":{"NAME_1":"Buada","GID_1":"NRU.7_1"}},
{"type":"Feature","geometry":{"type":"Polygon","coordinates":[[[166.9178,-0.529],[166.9167,-0.5194],[166.9099,-0.5288],[166.9139,-0.5274],[166.9178,-0.529]]]},"properties":{"NAME_1":"Denigomodu","GID_1":"NRU.8_1"}},
{"type":"Feature","geometry":{"type":"Polygon","coordinates":[[[166.9415,-0.5177],[166.9393,-0.5024],[166.9311,-0.5058],[166.94,-0.5197],[166.9415,-0.5177]]]},"properties":{"NAME_1":"Ewa","GID_1":"NRU.9_1"}},
{"type":"Feature","geometry":{"type":"Polygon","coordinates":[[[166.9442,-0.5201],[166.9476,-0.5225],[166.9577,-0.5231],[166.9581,-0.5131],[166.9473,-0.5164],[166.9442,-0.5201]]]},"properties":{"NAME_1":"Ijuw","GID_1":"NRU.10_1"}},
{"type":"Feature","geometry":{"type":"Polygon","coordinates":[[[166.9366,-0.5369],[166.9285,-0.5399],[166.9298,-0.5452],[166.9288,-0.5535],[166.9368,-0.5534],[166.9514,-0.5417],[166.9453,-0.5383],[166.9395,-0.538],[166.9366,-0.5369]]]},"properties":{"NAME_1":"Meneng","GID_1":"NRU.11_1"}},
{"type":"Feature","geometry":{"type":"Polygon","coordinates":[[[166.9167,-0.5194],[166.9255,-0.5274],[166.9298,-0.5264],[166.9328,-0.5301],[166.9371,-0.528],[166.9357,-0.5258],[166.9232,-0.5137],[166.9167,-0.5194]]]},"properties":{"NAME_1":"Nibok","GID_1":"NRU.12_1"}},
{"type":"Feature","geometry":{"type":"Polygon","coordinates":[[[166.9357,-0.5258],[166.9366,-0.5235],[166.9261,-0.5111],[166.9232,-0.5137],[166.9357,-0.5258]]]},"properties":{"NAME_1":"Uaboe","GID_1":"NRU.13_1"}},
{"type":"Feature","geometry":{"type":"Polygon","coordinates":[[[166.9147,-0.5462],[166.9288,-0.5535],[166.9298,-0.5452],[166.9285,-0.5399],[166.9147,-0.5462]]]},"properties":{"NAME_1":"Yaren","GID_1":"NRU.14_1"}}
]}