{"type":"FeatureCollection", "features": [
{"type":"Feature","geometry":{"type":"Polygon","coordinates":[[[12.4339,43.9552],[12.401,43.9494],[12.4117,43.9302],[12.4298,43.9396],[12.4283,43.9454],[12.4339,43.9552]]]},"properties":{"NAME_1":"Acquaviva","GID_1":"SMR.1_1"}},
{"type":"Feature","geometry":{"type":"Polygon","coordinates":[[[12.4339,43.9552],[12.4283,43.9454],[12.4328,43.9424],[12.4464,43.9374],[12.4537,43.9309],[12.4519,43.9182],[12.4752,43.9263],[12.474,43.9391],[12.4643,43.9406],[12.4624,43.9431],[12.456,43.946],[12.4621,43.9581],[12.4587,43.9637],[12.4531,43.9656],[12.4339,43.9552]]]},"properties":{"NAME_1":"BorgoMaggiore","GID_1":"SMR.2_1"}},
{"type":"Feature","geometry":{"type":"Polygon","coordinates":[[[12.4178,43.9291],[12.4056,43.9176],[12.4182,43.8984],[12.4346,43.9084],[12.4241,43.9165],[12.4178,43.9291]]]},"properties":{"NAME_1":"Chiesanuova","GID_1":"SMR.3_1"}},
{"type":"Feature","geometry":{"type":"Polygon","coordinates":[[[12.5057,43.9685],[12.4909,43.9652],[12.4745,43.9634],[12.4661,43.9586],[12.456,43.946],[12.4624,43.9431],[12.4643,43.9406],[12.4762,43.9404],[12.5101,43.956],[12.5057,43.9685]]]},"properties":{"NAME_1":"Domagnano","GID_1":"SMR.4_1"}},
{"type":"Feature","geometry":{"type":"Polygon","coordinates":[[[12.5101,43.956],[12.4762,43.9404],[12.474,43.9391],[12.4752,43.9263],[12.4744,43.9225],[12.4826,43.9174],[12.4921,43.9187],[12.513,43.9426],[12.5101,43.956]]]},"properties":{"NAME_1":"Faetano","GID_1":"SMR.5_1"}},
{"type":"Feature","geometry":{"type":"Polygon","coordinates":[[[12.4685,43.8987],[12.4719,43.9087],[12.4705,43.913],[12.4744,43.9225],[12.4519,43.9182],[12.4499,43.9152],[12.4293,43.9131],[12.4479,43.8968],[12.4685,43.8987]]]},"properties":{"NAME_1":"Fiorentino","GID_1":"SMR.6_1"}},
{"type":"Feature","geometry":{"type":"Polygon","coordinates":[[[12.4685,43.8987],[12.4863,43.8999],[12.4826,43.9174],[12.4744,43.9225],[12.4705,43.913],[12.4719,43.9087],[12.4685,43.8987]]]},"properties":{"NAME_1":"Montegiardino","GID_1":"SMR.7_1"}},
{"type":"Feature","geometry":{"type":"Polygon","coordinates":[[[12.4298,43.9396],[12.4178,43.9291],[12.4241,43.9165],[12.4293,43.9131],[12.4499,43.9152],[12.4537,43.9309],[12.4464,43.9374],[12.4328,43.9424],[12.4298,43.9396]]]},"properties":{"NAME_1":"SanMarino","GID_1":"SMR.8_1"}},
{"type":"Feature","geometry":{"type":"Polygon","coordinates":[[[12.5057,43.9685],[12.5131,43.9886],[12.4672,43.9787],[12.4531,43.9656],[12.4587,43.9637],[12.4621,43.9581],[12.4661,43.9586],[12.4745,43.9634],[12.4909,43.9652],[12.5057,43.9685]]]},"properties":{"NAME_1":"Serravalle","GID_1":"SMR.9_1"}}
]}