{"type":"FeatureCollection", "features": [
{"type":"Feature","geometry":{"type":"Polygon","coordinates":[[[-176.4803,0.2009],[-176.4856,0.1906],[-176.4728,0.1903],[-176.4803,0.2009]]]},"properties":{"NAME_1":"Baker","GID_1":"UMI.1_1"}},
{"type":"Feature","geometry":{"type":"Polygon","coordinates":[[[-176.6197,0.8183],[-176.6239,0.8172],[-176.6183,0.7964],[-176.6125,0.8067],[-176.6197,0.8183]]]},"properties":{"NAME_1":"Howland","GID_1":"UMI.2_1"}},
{"type":"Feature","geometry":{"type":"Polygon","coordinates":[[[-160.0096,-0.3883],[-160.0046,-0.3788],[-160.0176,-0.369],[-160.0297,-0.3776],[-160.0317,-0.387],[-160.0096,-0.3883]]]},"properties":{"NAME_1":"Jarvisisland","GID_1":"UMI.3_1"}},
{"type":"Feature","geometry":{"type":"MultiPolygon","coordinates":[[[[-169.5217,16.7378],[-169.5464,16.7281],[-169.545,16.7192],[-169.5217,16.7378]]],[[[-169.4965,16.7758],[-169.5044,16.7747],[-169.5099,16.7713],[-169.5161,16.7711],[-169.5322,16.7571],[-169.555,16.7269],[-169.5534,16.7269],[-169.5294,16.7575],[-169.5166,16.7687],[-169.5069,16.77],[-169.4965,16.7758]]]]},"properties":{"NAME_1":"Johnston","GID_1":"UMI.4_1"}},
{"type":"Feature","geometry":{"type":"Polygon","coordinates":[[[-162.3831,6.4331],[-162.3586,6.4089],[-162.3514,6.4133],[-162.3831,6.4331]]]},"properties":{"NAME_1":"KingmanReef","GID_1":"UMI.5_1"}},
{"type":"Feature","geometry":{"type":"MultiPolygon","coordinates":[[[[-171.73,25.7792],[-171.74,25.7778],[-171.7427,25.7599],[-171.7345,25.7575],[-171.73,25.7792]]],[[[-177.3692,28.2172],[-177.387,28.2158],[-177.3903,28.1956],[-177.3597,28.2083],[-177.3692,28.2172]]]]},"properties":{"NAME_1":"Midway","GID_1":"UMI.6_1"}},
{"type":"Feature","geometry":{"type":"Polygon","coordinates":[[[-75.0271,18.4143],[-75.0188,18.3949],[-75.0018,18.394],[-75.004,18.4104],[-75.0271,18.4143]]]},"properties":{"NAME_1":"Navassa","GID_1":"UMI.7_1"}},
{"type":"Feature","geometry":{"type":"Polygon","coordinates":[[[-162.07,5.8931],[-162.0712,5.8798],[-162.0844,5.8792],[-162.0881,5.874],[-162.0683,5.8731],[-162.07,5.8931]]]},"properties":{"NAME_1":"Palmyra","GID_1":"UMI.8_1"}},
{"type":"Feature","geometry":{"type":"Polygon","coordinates":[[[166.6461,19.31],[166.6339,19.3056],[166.6461,19.2878],[166.6428,19.2836],[166.6214,19.2886],[166.6011,19.3039],[166.5975,19.2989],[166.6172,19.2847],[166.657,19.2683],[166.6536,19.2889],[166.6461,19.31]]]},"properties":{"NAME_1":"Wake","GID_1":"UMI.9_1"}}
]}