{"type":"FeatureCollection", "features": [
{"type":"Feature","geometry":{"type":"Polygon","coordinates":[[[-3.7069,31.1543],[-3.7294,31.1167],[-3.7767,31.1216],[-3.7593,31.1735],[-3.7896,31.2358],[-3.7592,31.2618],[-3.7753,31.3035],[-3.7618,31.3346],[-3.6584,31.3791],[-3.6627,31.3994],[-3.6618,31.6339],[-2.9995,31.7582],[-2.9922,31.7659],[-2.8316,31.798],[-2.8525,31.84],[-2.8522,31.8809],[-2.8919,31.9623],[-2.9395,32.0357],[-2.9152,32.1188],[-2.7275,32.1104],[-2.6625,32.1174],[-2.599,32.1125],[-2.5456,32.1448],[-2.4627,32.1594],[-2.3144,32.1547],[-2.2745,32.1679],[-2.1893,32.1427],[-2.1314,32.1461],[-2.0139,32.1818],[-1.9675,32.1569],[-1.896,32.1607],[-1.7147,32.1142],[-1.6861,32.1155],[-1.5775,32.0917],[-1.5037,32.1035],[-1.4839,32.0951],[-1.3372,32.0828],[-1.2051,32.0848],[-1.1552,32.1144],[-1.1812,32.1622],[-1.2432,32.2047],[-1.2358,32.2954],[-1.2487,32.3279],[-1.2226,32.3454],[-1.1979,32.4041],[-1.1214,32.4143],[-1.0671,32.4498],[-0.9963,32.517],[-1.2701,32.6955],[-1.3812,32.7393],[-1.5413,32.9573],[-1.4849,32.975],[-1.4607,33.0418],[-1.4744,33.0762],[-1.5122,33.093],[-1.5754,33.1501],[-1.6029,33.2061],[-1.6314,33.2258],[-1.6703,33.286],[-1.6633,33.3799],[-1.6233,33.4537],[-1.6207,33.4918],[-1.5882,33.5303],[-1.6011,33.5473],[-1.5985,33.6151],[-1.6303,33.6311],[-1.6528,33.6824],[-1.6869,33.6764],[-1.737,33.7003],[-1.7285,33.7353],[-1.6703,33.7728],[-1.699,33.8703],[-1.6476,34.1067],[-1.7113,34.237],[-1.7049,34.3096],[-1.7802,34.393],[-1.6865,34.4938],[-1.7323,34.5074],[-1.814,34.6058],[-1.8207,34.6495],[-1.7391,34.745],[-1.8865,34.8098],[-1.8934,34.8431],[-1.9697,34.8802],[-1.9728,34.9355],[-2.0424,34.9269],[-2.2153,35.0473],[-2.2119,35.0843],[-2.3388,35.1232],[-2.4326,35.1426],[-2.4896,35.1001],[-2.5676,35.0812],[-2.6818,35.0988],[-2.7399,35.121],[-2.7635,35.0985],[-2.8292,35.1079],[-2.9001,35.1451],[-2.924,35.1829],[-2.9368,35.2804],[-2.9626,35.3],[-2.9713,35.3649],[-2.9496,35.4243],[-2.9943,35.4351],[-3.0099,35.3838],[-3.074,35.2885],[-3.1346,35.2799],[-3.1699,35.2404],[-3.3049,35.2049],[-3.3332,35.1862],[-3.4907,35.199],[-3.576,35.2215],[-3.7085,35.2885],[-3.749,35.2754],[-3.7654,35.2313],[-3.8015,35.2038],[-3.8568,35.1979],[-3.9071,35.214],[-3.9296,35.2621],[-3.9799,35.2365],[-4.0304,35.2371],[-4.1365,35.1996],[-4.2524,35.1882],[-4.3551,35.1474],[-4.4268,35.154],[-4.4907,35.1763],[-4.6804,35.2043],[-4.7507,35.2246],[-4.8249,35.2626],[-4.8674,35.3018],[-4.9279,35.3185],[-5.0063,35.389],[-5.0621,35.4068],[-5.1057,35.4771],[-5.1732,35.5318],[-5.2435,35.5529],[-5.2843,35.6629],[-5.3346,35.7124],[-5.3532,35.8468],[-5.3849,35.9115],[-5.4654,35.9149],[-5.5521,35.8454],[-5.6529,35.8262],[-5.6874,35.8393],[-5.7499,35.8187],[-5.7668,35.7835],[-5.9076,35.8018],[-5.9262,35.7924],[-5.969,35.6754],[-6.0157,35.504],[-6.0815,35.3957],[-6.1501,35.2035],[-6.1699,35.1937],[-6.2126,35.0926],[-6.2404,35.0076],[-6.3029,34.8693],[-6.3901,34.6976],[-6.524,34.4712],[-6.6757,34.2657],[-6.7179,34.1757],[-6.7862,34.089],[-6.9143,33.9646],[-6.9729,33.9162],[-7.1135,33.8354],[-7.2388,33.7968],[-7.3612,33.7101],[-7.416,33.6979],[-7.5218,33.6249],[-7.5951,33.6051],[-7.6537,33.6113],[-7.7112,33.5713],[-7.8013,33.5282],[-7.8196,33.5357],[-7.8976,33.4943],[-7.9579,33.4799],[-8.1304,33.4118],[-8.2132,33.384],[-8.2985,33.3665],[-8.3349,33.3237],[-8.3962,33.276],[-8.4607,33.2457],[-8.5107,33.2674],[-8.5465,33.2463],[-8.6304,33.1621],[-8.631,33.1132],[-8.744,32.999],[-8.7912,32.9424],[-8.926,32.8213],[-9.041,32.7424],[-9.1204,32.6626],[-9.2862,32.5429],[-9.2332,32.4799],[-9.2615,32.3988],[-9.2912,32.3638],[-9.2815,32.3293],[-9.2449,32.3001],[-9.2665,32.2521],[-9.2513,32.2185],[-9.2621,32.1751],[-9.3229,32.1126],[-9.3457,32.0304],[-9.3832,31.9979],[-9.6074,31.7626],[-9.6768,31.6971],[-9.6746,31.6362],[-9.6874,31.6018],[-9.7387,31.5388],[-9.7854,31.4626],[-9.8337,31.4137],[-9.7974,31.3535],[-9.7974,31.2815],[-9.8207,31.2374],[-9.8168,31.1851],[-9.8393,31.1376],[-9.8168,31.0918],[-9.8235,30.9801],[-9.8079,30.8913],[-9.8271,30.8471],[-9.8057,30.8146],[-9.8499,30.7213],[-9.8729,30.701],[-9.8893,30.6299],[-9.8404,30.6282],[-9.7832,30.6093],[-9.7399,30.5504],[-9.7013,30.5404],[-9.6601,30.4443],[-9.614,30.424],[-9.5976,30.394],[-9.6199,30.304],[-9.6387,30.1868],[-9.6699,30.0782],[-9.6949,30.051],[-9.7954,29.8551],[-9.8321,29.8057],[-9.9829,29.676],[-10.0674,29.544],[-10.0779,29.5015],[-10.1207,29.4399],[-10.1821,29.3774],[-10.2154,29.3135],[-10.3057,29.2529],[-10.4029,29.1557],[-10.4404,29.0943],[-10.5099,29.0285],[-10.6251,28.9582],[-10.7129,28.9115],[-11.0676,28.7443],[-11.1135,28.6871],[-11.2115,28.6162],[-11.2529,28.5688],[-11.3054,28.5313],[-11.4424,28.3776],[-11.4624,28.3379],[-11.5074,28.3088],[-11.6587,28.2529],[-11.7035,28.2432],[-11.9396,28.1557],[-12.0843,28.0859],[-12.1938,28.061],[-12.669,27.9807],[-12.9171,27.9532],[-12.959,27.921],[-13.0501,27.7513],[-13.1599,27.6971],[-13.1679,27.684],[-8.669,27.6701],[-8.6663,27.7861],[-8.6677,28.7135],[-8.4612,28.796],[-8.321,28.9157],[-8.1777,29.0157],[-8.1642,29.0128],[-8.0783,29.0657],[-7.9591,29.1298],[-7.9323,29.1645],[-7.8437,29.2101],[-7.7853,29.2554],[-7.6831,29.2972],[-7.65,29.2983],[-7.6257,29.3569],[-7.5916,29.3769],[-7.4868,29.3646],[-7.3343,29.4013],[-7.2387,29.4849],[-7.1487,29.5222],[-7.1066,29.522],[-7.0215,29.4931],[-6.9142,29.4969],[-6.8326,29.4675],[-6.7761,29.4616],[-6.7198,29.5052],[-6.6796,29.5175],[-6.5211,29.524],[-6.4395,29.5652],[-6.2885,29.5699],[-6.2463,29.5649],[-6.1642,29.5818],[-6.0687,29.5616],[-5.8624,29.6074],[-5.7987,29.6142],[-5.7221,29.5857],[-5.7496,29.5297],[-5.6876,29.539],[-5.6497,29.504],[-5.5525,29.4825],[-5.536,29.5164],[-5.3336,29.7679],[-5.3198,29.7959],[-5.3225,29.8463],[-5.285,29.8971],[-5.1376,30.0007],[-5.1134,30.009],[-4.9355,30.14],[-4.6064,30.2821],[-4.3202,30.5284],[-4.1455,30.5848],[-3.9948,30.5924],[-3.843,30.6274],[-3.647,30.6975],[-3.6209,30.7408],[-3.6572,30.7683],[-3.6462,30.8521],[-3.6146,30.8653],[-3.5562,30.9336],[-3.5359,31.0113],[-3.5761,31.0473],[-3.6058,31.0961],[-3.6366,31.1123],[-3.6382,31.1508],[-3.6366,31.0976],[-3.6551,31.0826],[-3.6783,31.0881],[-3.6701,31.1489],[-3.7069,31.1543]]]},"properties":{"GID_0":"MAR","ISO_A2":"MA","ISO_A3":"MAR","NAME_EN":"Morocco","NAME_IT":"Marocco"}}
]}