{"type":"FeatureCollection", "features": [
{"type":"Feature","geometry":{"type":"MultiPolygon","coordinates":[[[[103.7108,1.2914],[103.6831,1.2756],[103.6834,1.289],[103.6561,1.2698],[103.6667,1.2507],[103.6907,1.2405],[103.7218,1.2605],[103.7233,1.2903],[103.7108,1.2914]]],[[[103.7575,1.2986],[103.7722,1.2678],[103.7783,1.2789],[103.8043,1.2634],[103.8383,1.2672],[103.8527,1.2618],[103.8938,1.2935],[103.9614,1.3139],[103.9833,1.3167],[104.0019,1.31],[104.0106,1.3153],[104.0328,1.3156],[104.0322,1.3253],[103.9967,1.3214],[103.9908,1.329],[104.0064,1.3653],[103.9997,1.3911],[103.9758,1.3928],[103.9602,1.3814],[103.924,1.3971],[103.9131,1.4107],[103.8799,1.4162],[103.8688,1.4251],[103.8505,1.4556],[103.8182,1.471],[103.7961,1.4667],[103.7678,1.4478],[103.7617,1.4387],[103.7423,1.4383],[103.7278,1.4511],[103.7072,1.4465],[103.696,1.4354],[103.6778,1.4289],[103.6628,1.4057],[103.6552,1.3727],[103.6344,1.3461],[103.6169,1.2919],[103.615,1.2678],[103.6215,1.262],[103.6386,1.2702],[103.6424,1.286],[103.6338,1.298],[103.6442,1.3069],[103.6669,1.2878],[103.6833,1.2992],[103.7094,1.3022],[103.7575,1.2986]]],[[[103.8119,1.2589],[103.8328,1.2372],[103.8484,1.2519],[103.8119,1.2589]]],[[[104.0594,1.4313],[104.0286,1.4249],[104.0283,1.4071],[104.0503,1.3807],[104.0794,1.3913],[104.0858,1.4101],[104.0718,1.43],[104.0594,1.4313]]],[[[103.9386,1.426],[103.9578,1.3999],[103.9781,1.4079],[103.9897,1.4182],[103.9543,1.4203],[103.9386,1.426]]]]},"properties":{"GID_0":"SGP","ISO_A2":"SG","ISO_A3":"SGP","NAME_EN":"Singapore","NAME_IT":"Singapore"}}
]}