{"type":"FeatureCollection", "features": [
{"type":"Feature","geometry":{"type":"MultiPolygon","coordinates":[[[[10.4548,47.5564],[10.4893,47.541],[10.5737,47.5346],[10.5983,47.5703],[10.677,47.5596],[10.695,47.5454],[10.7589,47.5351],[10.7779,47.5145],[10.8135,47.527],[10.8907,47.5379],[10.9048,47.5187],[10.8724,47.501],[10.9103,47.4861],[10.984,47.4306],[10.9708,47.4008],[11.1153,47.396],[11.1584,47.4222],[11.2494,47.4331],[11.2245,47.4021],[11.2816,47.4012],[11.2915,47.4276],[11.339,47.4505],[11.4159,47.4476],[11.3913,47.4827],[11.4426,47.5185],[11.5061,47.5053],[11.5729,47.5151],[11.6063,47.5816],[11.7816,47.5918],[11.8479,47.5829],[11.8641,47.6015],[11.9143,47.6144],[12,47.6221],[12.0613,47.6194],[12.1404,47.6059],[12.2088,47.614],[12.1691,47.6809],[12.1841,47.7011],[12.2656,47.7331],[12.2419,47.695],[12.2853,47.6907],[12.3386,47.6976],[12.3642,47.6844],[12.4297,47.6969],[12.4657,47.6503],[12.5129,47.6259],[12.5757,47.6329],[12.5976,47.6667],[12.6667,47.6816],[12.7329,47.6802],[12.8139,47.6125],[12.7798,47.5797],[12.795,47.5576],[12.8835,47.5212],[12.9094,47.4975],[13.0073,47.4649],[13.0483,47.4927],[13.0564,47.5579],[13.0444,47.5839],[13.0966,47.6285],[13.0815,47.6876],[13.0467,47.7132],[12.9339,47.7101],[12.906,47.724],[12.9359,47.7479],[12.9402,47.7788],[12.9648,47.8005],[13.0021,47.855],[12.933,47.9405],[12.8693,47.9716],[12.858,48.0082],[12.7709,48.0667],[12.7499,48.1091],[12.7872,48.124],[12.8,48.1473],[12.8479,48.1676],[12.8708,48.2019],[12.9663,48.2145],[13.023,48.2586],[13.0817,48.2778],[13.1282,48.279],[13.1801,48.2954],[13.2574,48.2943],[13.3302,48.3239],[13.407,48.3719],[13.44,48.4313],[13.4279,48.4575],[13.459,48.5125],[13.4385,48.5578],[13.4762,48.5567],[13.5284,48.5879],[13.5704,48.5619],[13.6006,48.57],[13.6543,48.5497],[13.6655,48.5346],[13.728,48.5136],[13.7445,48.5447],[13.8018,48.5742],[13.8022,48.598],[13.8281,48.6287],[13.815,48.6503],[13.82,48.7325],[13.8311,48.7708],[13.8153,48.7969],[13.7739,48.8306],[13.7305,48.8871],[13.6716,48.8801],[13.638,48.9257],[13.5907,48.9528],[13.5855,48.9685],[13.5071,48.9691],[13.4956,48.9413],[13.4029,48.9873],[13.4093,49.0031],[13.3923,49.0543],[13.2892,49.1186],[13.2364,49.1136],[13.1703,49.144],[13.1769,49.1642],[13.1293,49.1969],[13.0808,49.2474],[13.0339,49.2639],[13.0291,49.3043],[12.95,49.3429],[12.8802,49.3505],[12.8025,49.3416],[12.7581,49.3752],[12.7576,49.3948],[12.7087,49.4247],[12.6559,49.4345],[12.6372,49.4758],[12.6442,49.523],[12.5885,49.5385],[12.5771,49.5863],[12.5175,49.6445],[12.5216,49.6868],[12.4429,49.7037],[12.4128,49.7325],[12.4047,49.7628],[12.4683,49.7867],[12.4729,49.8336],[12.498,49.8376],[12.5219,49.8817],[12.5497,49.9011],[12.5385,49.9248],[12.4784,49.9357],[12.4939,49.9698],[12.4607,49.9949],[12.3675,50.0174],[12.3109,50.0555],[12.2793,50.0552],[12.2666,50.0784],[12.1996,50.1117],[12.1952,50.143],[12.216,50.1682],[12.1576,50.2271],[12.1089,50.2379],[12.0975,50.2624],[12.1399,50.2777],[12.1247,50.3154],[12.1845,50.3223],[12.2015,50.2728],[12.247,50.2683],[12.2396,50.2462],[12.2939,50.2213],[12.2747,50.1967],[12.3192,50.1719],[12.3327,50.2343],[12.3709,50.2853],[12.3943,50.2896],[12.4034,50.324],[12.4371,50.3276],[12.512,50.3973],[12.6002,50.4058],[12.617,50.4156],[12.7076,50.4078],[12.7346,50.4322],[12.8194,50.4598],[12.9364,50.4116],[12.9835,50.4197],[13.0199,50.4467],[13.0225,50.4869],[13.056,50.5013],[13.1947,50.5153],[13.2291,50.5497],[13.2484,50.5921],[13.2909,50.575],[13.3194,50.6022],[13.3667,50.6184],[13.4153,50.6163],[13.4648,50.6019],[13.5444,50.6774],[13.5275,50.699],[13.5563,50.7145],[13.6023,50.7101],[13.6643,50.7319],[13.7065,50.7169],[13.7282,50.7337],[13.8552,50.7271],[13.9028,50.7529],[13.8875,50.7705],[13.904,50.794],[13.9392,50.79],[13.9903,50.82],[14.0307,50.8042],[14.1615,50.8475],[14.201,50.8513],[14.2675,50.8953],[14.3048,50.884],[14.3876,50.8991],[14.4021,50.9241],[14.3873,50.9418],[14.3117,50.9538],[14.2586,50.9875],[14.2922,51.0465],[14.4218,51.0196],[14.4538,51.0359],[14.5787,51.0003],[14.5961,50.9628],[14.5607,50.9254],[14.5832,50.9143],[14.6502,50.9315],[14.6189,50.8577],[14.7087,50.8409],[14.7664,50.8193],[14.8,50.8228],[14.8249,50.8696],[14.8196,50.8851],[14.8681,50.9179],[14.9031,50.9717],[14.9194,50.9753],[14.9352,51.0202],[14.9647,51.0501],[14.9978,51.1224],[14.9931,51.1624],[15.0142,51.1957],[15.0161,51.2273],[15.0379,51.244],[15.0334,51.2941],[14.9778,51.3417],[14.9837,51.3736],[14.9647,51.3868],[14.9742,51.4419],[14.9224,51.4823],[14.8516,51.4896],[14.796,51.5179],[14.7367,51.5256],[14.7112,51.5627],[14.761,51.6025],[14.7576,51.6615],[14.7474,51.6757],[14.6681,51.7258],[14.6538,51.7836],[14.6067,51.804],[14.5902,51.8381],[14.6944,51.9021],[14.7214,51.9516],[14.707,51.9796],[14.7413,52.0234],[14.7584,52.0674],[14.7004,52.0981],[14.6796,52.1449],[14.7031,52.1643],[14.6885,52.1989],[14.716,52.2355],[14.6927,52.2557],[14.5965,52.2729],[14.5748,52.2956],[14.5521,52.3741],[14.5344,52.395],[14.5442,52.426],[14.5793,52.4417],[14.6345,52.4923],[14.6039,52.5313],[14.6391,52.573],[14.5962,52.6107],[14.5097,52.6416],[14.433,52.6815],[14.424,52.6962],[14.351,52.7515],[14.2788,52.7745],[14.2064,52.8193],[14.1433,52.8239],[14.1229,52.8377],[14.1577,52.8748],[14.1437,52.9614],[14.2356,52.9932],[14.3486,53.0547],[14.3667,53.0806],[14.3877,53.143],[14.3663,53.172],[14.3773,53.2017],[14.4506,53.2623],[14.4212,53.2761],[14.4155,53.3243],[14.3733,53.4089],[14.3713,53.4564],[14.3506,53.496],[14.3269,53.5038],[14.3026,53.5534],[14.3169,53.6181],[14.2839,53.6344],[14.2837,53.6826],[14.2668,53.6987],[14.2836,53.7723],[14.2139,53.8654],[14.2058,53.9106],[14.2264,53.9291],[14.1831,53.9463],[14.1419,53.9765],[14.0142,54.0543],[13.9319,54.0754],[13.8708,54.1015],[13.8358,54.1282],[13.8058,54.1729],[13.7492,54.159],[13.8125,54.099],[13.7875,54.0565],[13.7903,54.0488],[13.7636,54.031],[13.7692,54.019],[13.8014,54.0185],[13.8203,54.0368],[13.9242,54.0354],[13.9247,54.0632],[13.9686,54.0593],[13.9969,54.0412],[14.0036,54.0107],[14.0369,54.0129],[14.0464,53.9738],[14.0142,53.9607],[13.9608,53.9632],[13.9653,53.9901],[13.9058,53.9899],[13.8981,53.9621],[13.9231,53.9504],[13.9375,53.9143],[13.9219,53.8879],[13.8564,53.871],[13.8536,53.8924],[13.9142,53.9224],[13.8347,53.9843],[13.7964,53.9951],[13.7597,54.0221],[13.7653,54.0365],[13.7853,54.0493],[13.7958,54.1076],[13.6964,54.149],[13.5286,54.1304],[13.4769,54.1188],[13.3364,54.1765],[13.2864,54.2351],[13.2164,54.241],[13.1847,54.2665],[13.1058,54.2818],[13.1092,54.3088],[13.0758,54.3454],[13.0731,54.3826],[13.0253,54.3965],[13.0325,54.4351],[12.9575,54.4229],[12.8975,54.4018],[12.8786,54.3654],[12.8103,54.3499],[12.8036,54.3724],[12.7203,54.3729],[12.7153,54.4043],[12.6858,54.4068],[12.6569,54.384],[12.5353,54.3387],[12.4731,54.3299],[12.4792,54.3043],[12.3831,54.2793],[12.3819,54.309],[12.4219,54.3413],[12.4358,54.3787],[12.5097,54.3776],[12.6347,54.4218],[12.721,54.4324],[12.7392,54.4151],[12.8314,54.4226],[12.8564,54.4404],[12.6553,54.4426],[12.5581,54.454],[12.4964,54.4699],[12.4675,54.4207],[12.4075,54.3776],[12.3392,54.2979],[12.3064,54.281],[12.1958,54.2429],[12.1492,54.2007],[12.1092,54.1779],[12.0103,54.1782],[11.8536,54.1451],[11.7614,54.1546],[11.6825,54.1532],[11.5892,54.0996],[11.6242,54.0771],[11.5814,54.0635],[11.5725,54.0326],[11.5108,54.0129],[11.4447,54.0213],[11.3781,53.9974],[11.3864,53.9685],[11.4825,53.9468],[11.4381,53.9107],[11.3647,53.9351],[11.3269,53.9571],[11.2869,53.9304],[11.2586,53.934],[11.2453,53.9715],[11.1792,54.0157],[11.0881,54.014],[11.0403,54.0065],[10.9347,53.9646],[10.8908,53.9557],[10.8736,53.9893],[10.7853,53.9974],[10.7525,54.0335],[10.7597,54.0599],[10.8019,54.0907],[10.8925,54.0954],[10.9536,54.1404],[11.0936,54.1979],[11.0814,54.2474],[11.0847,54.2818],[11.0719,54.3413],[11.1264,54.3737],[11.1186,54.3946],[11.0258,54.3676],[11.0225,54.3807],[10.9286,54.3818],[10.8692,54.3574],[10.7886,54.3115],[10.7125,54.3049],[10.6831,54.3104],[10.6386,54.3476],[10.6036,54.3626],[10.4481,54.4012],[10.3908,54.4257],[10.3353,54.4354],[10.2203,54.4082],[10.1886,54.3921],[10.1714,54.4271],[10.1903,54.4571],[10.1358,54.484],[9.9597,54.4668],[9.8686,54.4474],[9.8581,54.4712],[9.9658,54.5029],[10.0275,54.5504],[10.0336,54.6579],[9.9542,54.6754],[9.9447,54.6413],[9.9264,54.619],[9.9053,54.6143],[9.7486,54.5465],[9.7419,54.5296],[9.7158,54.5174],[9.7158,54.4926],[9.6919,54.4901],[9.6392,54.5218],[9.7347,54.5324],[9.7536,54.5585],[9.8103,54.579],[9.8919,54.6232],[9.9331,54.6276],[9.9381,54.6729],[9.9914,54.6935],[9.9619,54.7141],[9.8702,54.7411],[9.8202,54.7307],[9.772,54.7469],[9.7845,54.7773],[9.7616,54.8011],[9.7102,54.8089],[9.5901,54.8449],[9.5167,54.8389],[9.4936,54.8223],[9.4273,54.8163],[9.3827,54.8392],[9.3421,54.8036],[9.2501,54.8097],[9.2401,54.85],[9.1433,54.873],[9.0482,54.8719],[8.9479,54.9026],[8.8487,54.8973],[8.8113,54.9059],[8.728,54.8927],[8.6803,54.9105],[8.5881,54.8868],[8.4297,54.8776],[8.3814,54.8907],[8.3625,54.9087],[8.3536,54.9685],[8.3792,54.9968],[8.4331,55.0149],[8.3836,55.0354],[8.3281,54.9593],[8.2892,54.8821],[8.3658,54.8754],[8.4164,54.8471],[8.5103,54.8821],[8.5821,54.8847],[8.6058,54.8707],[8.6053,54.8413],[8.6753,54.7893],[8.7064,54.7399],[8.7447,54.7082],[8.7547,54.681],[8.8147,54.6535],[8.8408,54.619],[8.8258,54.5996],[8.8869,54.5929],[8.8697,54.5632],[8.8786,54.5426],[8.8503,54.5137],[8.8053,54.4979],[8.8281,54.4621],[8.9181,54.4649],[8.9636,54.5132],[9.0125,54.4904],[8.9986,54.4626],[8.9614,54.4579],[8.8936,54.4121],[8.8553,54.4032],[8.8197,54.4121],[8.6708,54.4007],[8.6092,54.3865],[8.6064,54.3704],[8.6692,54.3662],[8.6342,54.3421],[8.6047,54.3582],[8.5797,54.3096],[8.6453,54.2726],[8.6858,54.2682],[8.7097,54.2876],[8.7931,54.2821],[8.8314,54.2893],[8.8414,54.2568],[8.8347,54.2179],[8.8075,54.1732],[8.8608,54.1221],[8.9264,54.1324],[8.9558,54.0854],[8.9858,54.0612],[8.9642,54.0351],[8.8781,54.0462],[8.8308,54.0215],[8.9064,53.9335],[8.9719,53.8924],[9.0514,53.899],[9.0942,53.8883],[9.219,53.8887],[9.3273,53.8603],[9.4,53.8112],[9.4284,53.7527],[9.4572,53.7318],[9.5211,53.7125],[9.5537,53.6686],[9.5555,53.6207],[9.6413,53.5902],[9.6723,53.5714],[9.7706,53.5631],[9.7661,53.5466],[9.685,53.5479],[9.5961,53.5836],[9.5374,53.6153],[9.4938,53.6787],[9.4175,53.7252],[9.3655,53.7746],[9.3122,53.8366],[9.2746,53.8576],[9.2198,53.863],[9.0842,53.8618],[9.0164,53.836],[8.9781,53.8407],[8.9192,53.8301],[8.8169,53.831],[8.7269,53.8571],[8.6808,53.8921],[8.6086,53.879],[8.5519,53.8251],[8.5214,53.7474],[8.4836,53.6943],[8.4836,53.6557],[8.5564,53.5546],[8.4647,53.5529],[8.3942,53.5701],[8.3464,53.6101],[8.2719,53.6099],[8.2408,53.5788],[8.2308,53.5204],[8.3164,53.5221],[8.3136,53.4557],[8.2825,53.4146],[8.2525,53.399],[8.2114,53.4018],[8.1525,53.4479],[8.0992,53.4457],[8.0642,53.4782],[8.0608,53.5004],[8.1553,53.5137],[8.1686,53.5451],[8.0892,53.6387],[8.0447,53.6418],[8.0203,53.6885],[8.0314,53.7054],[7.9108,53.7176],[7.6931,53.701],[7.5303,53.6715],[7.4753,53.6835],[7.2958,53.6804],[7.2447,53.6688],[7.1581,53.6279],[7.1442,53.609],[7.0925,53.5807],[7.1014,53.5262],[7.0342,53.5332],[7.0497,53.5076],[7.0253,53.4835],[6.9992,53.359],[7.0269,53.3363],[7.1531,53.3354],[7.1911,53.3176],[7.2174,53.1977],[7.1789,53.1381],[7.2028,53.1133],[7.1993,53.081],[7.2128,53.011],[7.1816,52.9413],[7.1047,52.8642],[7.072,52.8109],[7.0556,52.6434],[7.0419,52.6327],[6.9758,52.6463],[6.9384,52.6379],[6.8731,52.6531],[6.742,52.6453],[6.7271,52.6151],[6.6977,52.4863],[6.7746,52.4596],[6.8543,52.4596],[6.9417,52.4355],[6.9918,52.4675],[7.0358,52.4025],[7.0588,52.3993],[7.0722,52.3523],[7.0267,52.2922],[7.061,52.2348],[6.9851,52.2253],[6.9513,52.181],[6.9121,52.1772],[6.8554,52.1204],[6.7606,52.1187],[6.7512,52.0855],[6.6947,52.0698],[6.6877,52.0399],[6.7526,52.0286],[6.8266,51.9935],[6.8285,51.9641],[6.794,51.9351],[6.7217,51.8962],[6.6745,51.9159],[6.5524,51.8862],[6.4996,51.8618],[6.3908,51.8739],[6.4092,51.8523],[6.3895,51.8333],[6.2989,51.8679],[6.2154,51.8678],[6.1572,51.9052],[6.1255,51.8983],[6.1664,51.8408],[6.0553,51.8523],[5.9937,51.8308],[5.945,51.8237],[5.9782,51.7972],[5.9925,51.7386],[6.0264,51.7093],[6.0369,51.6728],[6.1182,51.6561],[6.0912,51.6059],[6.157,51.5667],[6.2121,51.5134],[6.2234,51.4749],[6.2052,51.3995],[6.2261,51.3605],[6.1686,51.333],[6.1245,51.2746],[6.0727,51.2426],[6.0733,51.183],[6.1388,51.1733],[6.1754,51.1585],[6.0919,51.135],[6.0375,51.097],[6.0099,51.091],[5.9381,51.0351],[5.9132,51.0667],[5.878,51.0375],[5.9055,51.0022],[5.8972,50.9748],[5.9552,50.9884],[6.0264,50.9833],[6.0182,50.9344],[6.0925,50.9178],[6.0753,50.8934],[6.0882,50.8724],[6.074,50.8468],[6.0159,50.8388],[6.0035,50.8013],[6.0278,50.7737],[6.0332,50.731],[6.1108,50.7235],[6.1726,50.6568],[6.1833,50.6323],[6.2691,50.6192],[6.2348,50.5888],[6.1744,50.5575],[6.2307,50.4975],[6.3091,50.5014],[6.3416,50.4835],[6.3405,50.4622],[6.3776,50.4394],[6.3699,50.4089],[6.3422,50.38],[6.3983,50.3457],[6.405,50.3233],[6.3705,50.3128],[6.3055,50.3176],[6.2779,50.2664],[6.2361,50.2625],[6.1757,50.2354],[6.1903,50.1876],[6.1398,50.1693],[6.1547,50.1419],[6.1124,50.0605],[6.1459,50.0227],[6.1453,49.9984],[6.1756,49.9618],[6.2273,49.9366],[6.2336,49.9004],[6.2621,49.8809],[6.311,49.8699],[6.3283,49.8361],[6.3642,49.8508],[6.3974,49.8223],[6.432,49.8106],[6.4709,49.8226],[6.5079,49.7919],[6.5065,49.7164],[6.43,49.6689],[6.4408,49.6559],[6.4214,49.62],[6.3749,49.5919],[6.3801,49.5595],[6.357,49.5313],[6.3671,49.4695],[6.4204,49.4764],[6.4994,49.4504],[6.5508,49.4254],[6.5408,49.4012],[6.5875,49.383],[6.5657,49.3477],[6.5891,49.3221],[6.6601,49.2837],[6.7112,49.1883],[6.7386,49.1637],[6.7827,49.1682],[6.8341,49.1511],[6.859,49.1746],[6.8589,49.2228],[6.8933,49.2091],[6.9187,49.2227],[6.9596,49.2031],[7.0332,49.188],[7.0276,49.1703],[7.0572,49.1119],[7.1072,49.1526],[7.1594,49.1205],[7.2451,49.1301],[7.2984,49.1173],[7.3298,49.1448],[7.3627,49.1431],[7.3651,49.1718],[7.4359,49.1797],[7.4597,49.1628],[7.494,49.1694],[7.4976,49.1346],[7.5287,49.0971],[7.5636,49.0802],[7.601,49.0832],[7.6312,49.0549],[7.6747,49.045],[7.7314,49.0555],[7.7693,49.0476],[7.7944,49.0657],[7.8668,49.0329],[7.9318,49.0581],[8.0639,49.0055],[8.0877,48.9898],[8.1399,48.9785],[8.2151,48.9752],[8.1304,48.8805],[8.1038,48.8201],[8.0722,48.7924],[8.0258,48.7822],[8.0143,48.761],[7.972,48.7581],[7.9633,48.7215],[7.89,48.6626],[7.8397,48.6413],[7.8048,48.5926],[7.8068,48.5202],[7.7669,48.4871],[7.765,48.4566],[7.7332,48.3972],[7.7452,48.3351],[7.6916,48.2991],[7.6657,48.2205],[7.6006,48.1577],[7.577,48.1191],[7.5685,48.0352],[7.6102,47.9987],[7.622,47.9728],[7.5806,47.9241],[7.5828,47.9014],[7.5556,47.8688],[7.5629,47.8427],[7.5298,47.7813],[7.5481,47.7395],[7.5138,47.7028],[7.5211,47.6638],[7.5674,47.6317],[7.6193,47.5769],[7.6458,47.597],[7.6837,47.574],[7.6403,47.5579],[7.6964,47.5328],[7.7889,47.5548],[7.8231,47.588],[7.8852,47.5888],[7.9188,47.5474],[7.9567,47.5577],[8.0225,47.5505],[8.1002,47.5638],[8.1156,47.5839],[8.1649,47.5941],[8.2041,47.6209],[8.2975,47.6057],[8.3238,47.5729],[8.4337,47.5666],[8.457,47.5973],[8.5083,47.6175],[8.558,47.6243],[8.5957,47.6431],[8.5543,47.6694],[8.5229,47.6449],[8.4711,47.6423],[8.4056,47.6745],[8.4044,47.6981],[8.4452,47.723],[8.489,47.7733],[8.5201,47.7705],[8.6114,47.8019],[8.6316,47.7582],[8.6809,47.7867],[8.7401,47.7528],[8.728,47.6927],[8.7849,47.6767],[8.7977,47.7029],[8.7698,47.7181],[8.8064,47.7383],[8.8506,47.6812],[8.8985,47.6484],[8.9435,47.6565],[9.0143,47.6858],[9.0978,47.6787],[9.1858,47.6577],[9.2759,47.6561],[9.4393,47.5899],[9.5244,47.5451],[9.5625,47.5399],[9.5621,47.5052],[9.7359,47.5348],[9.7355,47.5473],[9.7773,47.5961],[9.8277,47.5793],[9.816,47.5483],[9.8688,47.5327],[9.8894,47.5446],[9.9655,47.5215],[10.0377,47.4898],[10.1059,47.4293],[10.0694,47.4108],[10.1001,47.3554],[10.1196,47.3762],[10.1662,47.3695],[10.1876,47.3906],[10.2375,47.3742],[10.1799,47.2966],[10.1743,47.2708],[10.282,47.2883],[10.349,47.3178],[10.3951,47.3762],[10.4312,47.3845],[10.4389,47.4141],[10.4763,47.4334],[10.464,47.481],[10.4317,47.5044],[10.4548,47.5564]]],[[[6.7692,53.6171],[6.6542,53.6071],[6.6631,53.5776],[6.7108,53.5646],[6.7692,53.6171]]],[[[7.0953,53.6829],[7.0481,53.6846],[6.9325,53.6763],[6.9269,53.6662],[7.0953,53.6829]]],[[[7.3242,53.7218],[7.2497,53.7171],[7.1842,53.721],[7.1508,53.6974],[7.2714,53.7038],[7.3242,53.7218]]],[[[8.2925,54.6704],[8.3625,54.6085],[8.3953,54.6121],[8.3392,54.6893],[8.2925,54.6704]]],[[[8.5242,54.681],[8.5681,54.6807],[8.5953,54.7179],[8.5836,54.7443],[8.5397,54.7557],[8.4314,54.7463],[8.3964,54.7176],[8.4025,54.7004],[8.4803,54.681],[8.5242,54.681]]],[[[8.7014,54.5554],[8.5925,54.5335],[8.5925,54.5074],[8.6231,54.489],[8.6719,54.4946],[8.7064,54.5382],[8.7014,54.5554]]],[[[13.7181,54.2843],[13.7169,54.3101],[13.7408,54.3462],[13.6736,54.4007],[13.6236,54.3985],[13.5731,54.4485],[13.5742,54.4765],[13.6686,54.5207],[13.6797,54.5626],[13.6336,54.5851],[13.4625,54.5696],[13.4014,54.5893],[13.3808,54.6135],[13.3875,54.6499],[13.4219,54.6568],[13.4292,54.6846],[13.2864,54.6729],[13.2819,54.6138],[13.2425,54.5615],[13.3347,54.5826],[13.3836,54.5812],[13.4458,54.5515],[13.5025,54.5479],[13.5147,54.5157],[13.5008,54.4879],[13.5481,54.4749],[13.5572,54.4385],[13.5065,54.4384],[13.4131,54.4938],[13.4086,54.5274],[13.3715,54.5222],[13.3531,54.5537],[13.2364,54.5543],[13.1747,54.5454],[13.1636,54.5163],[13.2581,54.4779],[13.2242,54.4643],[13.1931,54.4551],[13.1692,54.4535],[13.1619,54.4357],[13.1497,54.429],[13.1586,54.421],[13.2131,54.4287],[13.2369,54.3699],[13.1275,54.3713],[13.1147,54.3318],[13.1425,54.3149],[13.1419,54.2807],[13.1808,54.2876],[13.2697,54.2538],[13.3275,54.2576],[13.3297,54.239],[13.3836,54.229],[13.4242,54.2438],[13.4036,54.2649],[13.4125,54.2968],[13.5064,54.344],[13.5519,54.3393],[13.5753,54.3529],[13.6136,54.3307],[13.6736,54.3507],[13.6875,54.3154],[13.6464,54.2965],[13.7181,54.2843]]],[[[13.1926,54.4932],[13.1486,54.4818],[13.1631,54.4493],[13.1703,54.4571],[13.1847,54.4571],[13.1886,54.4657],[13.2247,54.4657],[13.2253,54.4865],[13.1926,54.4932]]],[[[11.0719,54.5335],[11.0442,54.5238],[11.0103,54.4824],[11.0092,54.4413],[11.0636,54.4526],[11.0969,54.4437],[11.0947,54.4096],[11.1781,54.4015],[11.2453,54.4121],[11.3108,54.4012],[11.2981,54.4315],[11.2525,54.4712],[11.2353,54.5043],[11.1714,54.5215],[11.0719,54.5335]]]]},"properties":{"GID_0":"DEU","ISO_A2":"DE","ISO_A3":"DEU","NAME_EN":"Germany","NAME_IT":"Germania"}}
]}