{"type":"FeatureCollection", "features": [
{"type":"Feature","geometry":{"type":"MultiPolygon","coordinates":[[[[-56.1656,46.8161],[-56.1944,46.81],[-56.2342,46.7668],[-56.1917,46.7564],[-56.1536,46.7972],[-56.1656,46.8161]]],[[[-56.3235,46.9409],[-56.3053,46.9783],[-56.3381,46.9731],[-56.3583,47.005],[-56.2953,46.9894],[-56.2694,46.9989],[-56.2489,47.0383],[-56.2539,47.0611],[-56.3214,47.0825],[-56.3503,47.0992],[-56.3836,47.0764],[-56.39,47.0533],[-56.3786,47.0128],[-56.3613,47.0066],[-56.3367,46.9619],[-56.3286,46.905],[-56.3567,46.8633],[-56.3828,46.8569],[-56.3775,46.8008],[-56.33,46.7906],[-56.2431,46.8433],[-56.2378,46.8706],[-56.2706,46.8947],[-56.3156,46.9006],[-56.3235,46.9409]]]]},"properties":{"GID_0":"SPM","ISO_A2":"PM","ISO_A3":"SPM","NAME_EN":"St. Pierre and Miquelon","NAME_IT":"Saint-Pierre e Miquelon"}}
]}