{"type":"FeatureCollection", "features": [
{"type":"Feature","geometry":{"type":"Polygon","coordinates":[[[73.3111,-52.9761],[73.2505,-52.9896],[73.2626,-53.0144],[73.2942,-53.0219],[73.3622,-53.0215],[73.3807,-53.0454],[73.3806,-53.0775],[73.4069,-53.1401],[73.4354,-53.1659],[73.4956,-53.195],[73.5234,-53.186],[73.6011,-53.1875],[73.6665,-53.1474],[73.7201,-53.1385],[73.7491,-53.1192],[73.6778,-53.0864],[73.65,-53.0481],[73.6171,-53.058],[73.6057,-53.0364],[73.5367,-53.0137],[73.459,-53.0294],[73.4167,-53.0156],[73.3678,-53.0197],[73.3322,-52.9814],[73.3111,-52.9761]]]},"properties":{"GID_0":"HMD","ISO_A2":"HM","ISO_A3":"HMD","NAME_EN":"Heard I. and McDonald Is.","NAME_IT":"Isole Heard e McDonald"}}
]}