{"type":"FeatureCollection", "features": [
{"type":"Feature","geometry":{"type":"Polygon","coordinates":[[[179.1986,-8.5258],[179.2034,-8.5195],[179.1986,-8.5146],[179.1912,-8.5287],[179.1986,-8.5258]]]},"properties":{"NAME_1":"Funafuti","GID_1":"TUV.1_1"}},
{"type":"Feature","geometry":{"type":"Polygon","coordinates":[[[176.3229,-6.3019],[176.3275,-6.2861],[176.3216,-6.2742],[176.3125,-6.2913],[176.3229,-6.3019]]]},"properties":{"NAME_1":"Nanumanga","GID_1":"TUV.2_1"}},
{"type":"Feature","geometry":{"type":"Polygon","coordinates":[[[176.1183,-5.6611],[176.1255,-5.68],[176.11,-5.67],[176.1367,-5.7014],[176.1267,-5.6722],[176.1183,-5.6611]]]},"properties":{"NAME_1":"Nanumea","GID_1":"TUV.3_1"}},
{"type":"Feature","geometry":{"type":"Polygon","coordinates":[[[179.4719,-10.7864],[179.472,-10.7916],[179.4761,-10.7911],[179.4775,-10.7869],[179.4719,-10.7864]]]},"properties":{"NAME_1":"Niulakita","GID_1":"TUV.4_1"}},
{"type":"Feature","geometry":{"type":"Polygon","coordinates":[[[177.3429,-6.1039],[177.3305,-6.1075],[177.3387,-6.1153],[177.35,-6.1143],[177.3525,-6.1035],[177.3429,-6.1039]]]},"properties":{"NAME_1":"Niutao","GID_1":"TUV.5_1"}},
{"type":"Feature","geometry":{"type":"Polygon","coordinates":[[[177.1494,-7.1878],[177.1433,-7.1964],[177.15,-7.1997],[177.16,-7.2103],[177.1636,-7.21],[177.1494,-7.1878]]]},"properties":{"NAME_1":"Nui","GID_1":"TUV.6_1"}},
{"type":"Feature","geometry":{"type":"Polygon","coordinates":[[[178.4274,-7.9563],[178.4311,-7.9744],[178.4214,-7.9889],[178.3992,-8.0133],[178.3943,-8.0253],[178.3857,-8.0374],[178.3784,-8.0599],[178.3728,-8.0703],[178.3808,-8.0722],[178.3805,-8.0572],[178.3864,-8.0483],[178.3863,-8.0396],[178.3953,-8.0272],[178.4006,-8.0136],[178.4374,-7.9735],[178.4274,-7.9563]]]},"properties":{"NAME_1":"Nukufetau","GID_1":"TUV.7_1"}},
{"type":"Feature","geometry":{"type":"Polygon","coordinates":[[[179.8666,-9.4312],[179.8709,-9.4164],[179.8704,-9.4048],[179.8648,-9.3916],[179.8627,-9.392],[179.8693,-9.408],[179.8691,-9.4176],[179.8666,-9.4312]]]},"properties":{"NAME_1":"Nukulaelae","GID_1":"TUV.8_1"}},
{"type":"Feature","geometry":{"type":"Polygon","coordinates":[[[178.6667,-7.4578],[178.6626,-7.4645],[178.6806,-7.4961],[178.6885,-7.4986],[178.6977,-7.4884],[178.6942,-7.4823],[178.6828,-7.4758],[178.6814,-7.4708],[178.6667,-7.4578]]]},"properties":{"NAME_1":"Vaitupu","GID_1":"TUV.9_1"}}
]}