{"type":"FeatureCollection", "features": [
{"type":"Feature","geometry":{"type":"Polygon","coordinates":[[[-74.8307,-15.5679],[-74.7479,-15.6032],[-74.646,-15.6615],[-74.4624,-15.7257],[-74.4626,-15.7557],[-74.4404,-15.7951],[-74.396,-15.8304],[-74.3201,-15.8501],[-74.2829,-15.836],[-74.251,-15.8693],[-74.176,-15.8943],[-74.0532,-15.9529],[-74.0254,-15.9915],[-74.0335,-16.0135],[-73.9596,-16.0618],[-73.9468,-16.0788],[-73.8882,-16.1101],[-73.8685,-16.1376],[-73.7285,-16.1954],[-73.7196,-16.209],[-73.6493,-16.2349],[-73.534,-16.2563],[-73.4815,-16.2849],[-73.4607,-16.2787],[-73.3374,-16.3268],[-73.3035,-16.3476],[-73.2968,-16.3957],[-73.2237,-16.4137],[-73.1568,-16.4218],[-73.1315,-16.4513],[-73.101,-16.4557],[-73.0113,-16.5112],[-72.919,-16.5187],[-72.8465,-16.5657],[-72.7643,-16.6332],[-72.7174,-16.651],[-72.6074,-16.6651],[-72.4488,-16.7057],[-72.3999,-16.7526],[-72.364,-16.7624],[-72.2951,-16.8324],[-72.2918,-16.8693],[-72.2113,-16.9037],[-72.0907,-17.0132],[-72.0249,-17.0229],[-71.9307,-17.0818],[-71.8763,-17.1451],[-71.8404,-17.1754],[-71.786,-17.1946],[-71.6721,-17.2176],[-71.5646,-17.261],[-71.5382,-17.2535],[-71.4726,-17.2982],[-71.4771,-17.316],[-71.4374,-17.3399],[-71.4335,-17.3646],[-71.3968,-17.389],[-71.3613,-17.5088],[-71.3688,-17.5215],[-71.3593,-17.5888],[-71.3421,-17.6368],[-71.3674,-17.6721],[-71.3496,-17.6946],[-71.1979,-17.7749],[-71.1629,-17.8174],[-71.106,-17.846],[-71.0987,-17.8687],[-71.0179,-17.8888],[-70.9146,-17.9454],[-70.8907,-17.969],[-70.8863,-18.0101],[-70.8187,-18.0385],[-70.759,-18.0829],[-70.7299,-18.1204],[-70.6804,-18.1624],[-70.5093,-18.2571],[-70.3788,-18.3518],[-70.3421,-18.3198],[-70.2747,-18.3099],[-70.1977,-18.3223],[-70.1495,-18.3194],[-70.0504,-18.2693],[-69.9659,-18.2622],[-69.9065,-18.2033],[-69.8605,-18.1705],[-69.8162,-18.1164],[-69.7544,-17.9865],[-69.7502,-17.9473],[-69.7798,-17.9119],[-69.7991,-17.8658],[-69.8015,-17.7692],[-69.8234,-17.7437],[-69.8226,-17.6859],[-69.7971,-17.646],[-69.6639,-17.6582],[-69.5524,-17.5753],[-69.4687,-17.4986],[-69.4692,-17.3735],[-69.5759,-17.2914],[-69.6417,-17.2869],[-69.6168,-17.2617],[-69.5994,-17.2147],[-69.5784,-17.2065],[-69.558,-17.1656],[-69.5155,-17.1497],[-69.4511,-17.094],[-69.4325,-17.1103],[-69.374,-17.0724],[-69.3946,-17.0222],[-69.3686,-16.9889],[-69.34,-16.9875],[-69.3044,-16.9166],[-69.2533,-16.8605],[-69.2191,-16.8368],[-69.1877,-16.7966],[-69.1698,-16.7273],[-69.0438,-16.6885],[-68.9989,-16.6515],[-69.0344,-16.6044],[-69.0402,-16.5726],[-68.9997,-16.4481],[-68.8188,-16.3515],[-68.8189,-16.3219],[-68.963,-16.1922],[-69.0276,-16.2098],[-69.0555,-16.1982],[-69.1021,-16.2272],[-69.1977,-16.1645],[-69.4018,-15.6061],[-69.3269,-15.5335],[-69.3085,-15.503],[-69.2905,-15.437],[-69.2534,-15.4696],[-69.2475,-15.371],[-69.2154,-15.3177],[-69.1959,-15.3141],[-69.176,-15.2615],[-69.1365,-15.255],[-69.132,-15.2289],[-69.1526,-15.1993],[-69.2171,-15.1366],[-69.2855,-15.0969],[-69.3302,-14.9967],[-69.3526,-14.9749],[-69.3644,-14.9298],[-69.3435,-14.8828],[-69.3575,-14.8128],[-69.3163,-14.7748],[-69.2423,-14.7595],[-69.2262,-14.7366],[-69.258,-14.6855],[-69.2265,-14.6276],[-69.2255,-14.5809],[-69.1492,-14.5763],[-69.1493,-14.5127],[-69.1159,-14.5045],[-69.0486,-14.4481],[-68.9846,-14.335],[-68.9852,-14.2374],[-68.8467,-14.2374],[-68.8318,-14.2055],[-68.8544,-14.1752],[-68.8449,-14.141],[-68.872,-14.1105],[-68.8906,-14.047],[-68.9308,-14.0265],[-68.9795,-13.9758],[-68.9789,-13.8804],[-68.995,-13.8448],[-68.974,-13.7788],[-68.9774,-13.7583],[-69.0267,-13.7385],[-69.067,-13.6879],[-69.0635,-13.6585],[-69.0371,-13.6471],[-68.9941,-13.6521],[-68.992,-13.6185],[-68.9474,-13.5712],[-68.9381,-13.5197],[-68.8916,-13.4311],[-68.8977,-13.4115],[-68.8622,-13.3199],[-68.8522,-13.2107],[-68.8696,-13.1789],[-68.8734,-13.1319],[-68.855,-13.0652],[-68.8713,-13.0194],[-68.8782,-12.9563],[-68.8652,-12.9221],[-68.8646,-12.8674],[-68.8343,-12.8554],[-68.8341,-12.8102],[-68.7844,-12.7403],[-68.747,-12.7306],[-68.7345,-12.6681],[-68.7417,-12.6341],[-68.7142,-12.6052],[-68.6522,-12.4977],[-68.97,-11.9125],[-69.1485,-11.6364],[-69.2556,-11.4575],[-69.3232,-11.3555],[-69.5764,-10.9418],[-69.6338,-10.9572],[-69.7396,-10.9655],[-69.7604,-10.9396],[-69.8118,-10.9258],[-69.8328,-10.9337],[-69.9012,-10.9205],[-69.9577,-10.9392],[-70.2013,-11.0536],[-70.2424,-11.0481],[-70.3109,-11.0706],[-70.4083,-11.0476],[-70.4383,-11.0268],[-70.4755,-10.9714],[-70.5325,-10.9374],[-70.5922,-10.9619],[-70.6279,-11.0039],[-70.6267,-9.8337],[-70.613,-9.8052],[-70.5598,-9.7895],[-70.537,-9.7656],[-70.5281,-9.7256],[-70.5516,-9.6694],[-70.5744,-9.6564],[-70.5983,-9.6074],[-70.5672,-9.5728],[-70.5643,-9.5412],[-70.5046,-9.4945],[-70.523,-9.4575],[-70.4964,-9.424],[-70.5714,-9.433],[-70.6322,-9.479],[-70.6606,-9.5214],[-70.7301,-9.5664],[-70.751,-9.5602],[-70.7605,-9.6052],[-70.8123,-9.6395],[-70.8531,-9.6551],[-70.8887,-9.6894],[-70.9239,-9.7408],[-70.9739,-9.7595],[-70.9995,-9.8183],[-71.0322,-9.8141],[-71.0776,-9.8282],[-71.11,-9.8547],[-71.1575,-9.8717],[-71.1925,-9.9417],[-71.2216,-9.9702],[-71.2982,-9.9916],[-71.3432,-9.9667],[-71.3759,-10.0007],[-72.1803,-10.0002],[-72.1495,-9.9667],[-72.1746,-9.9315],[-72.151,-9.9058],[-72.1474,-9.8733],[-72.1606,-9.826],[-72.1514,-9.797],[-72.2156,-9.7779],[-72.2453,-9.751],[-72.2589,-9.7127],[-72.2462,-9.6615],[-72.2888,-9.6029],[-72.2819,-9.5422],[-72.3185,-9.544],[-72.341,-9.5069],[-72.4082,-9.4769],[-72.5176,-9.4905],[-72.539,-9.4691],[-72.6534,-9.4507],[-72.7042,-9.4338],[-72.716,-9.4124],[-73.2094,-9.4136],[-73.1916,-9.3664],[-73.1067,-9.3053],[-73.1111,-9.2782],[-73.0844,-9.2353],[-73.0344,-9.2332],[-72.9975,-9.1931],[-73.0138,-9.169],[-72.9584,-9.1428],[-72.9402,-9.0949],[-72.9579,-9.0225],[-72.9575,-8.9764],[-73.0378,-8.9024],[-73.1344,-8.771],[-73.155,-8.7168],[-73.2003,-8.6868],[-73.2634,-8.6887],[-73.3276,-8.6113],[-73.3409,-8.583],[-73.341,-8.529],[-73.3245,-8.4988],[-73.3414,-8.477],[-73.3902,-8.4724],[-73.4725,-8.3878],[-73.5012,-8.382],[-73.529,-8.3505],[-73.5374,-8.2605],[-73.5689,-8.2329],[-73.5832,-8.1992],[-73.5909,-8.1126],[-73.6183,-8.071],[-73.632,-8.0201],[-73.6712,-8.0061],[-73.6962,-7.9594],[-73.7467,-7.956],[-73.7656,-7.8705],[-73.707,-7.8729],[-73.6842,-7.8455],[-73.6816,-7.7959],[-73.7019,-7.7606],[-73.7483,-7.7314],[-73.8207,-7.7171],[-73.8453,-7.6758],[-73.8842,-7.6574],[-73.8869,-7.6328],[-73.9365,-7.6045],[-73.9891,-7.5359],[-73.9446,-7.5229],[-73.9171,-7.4589],[-73.9176,-7.4348],[-73.9496,-7.373],[-73.9534,-7.3461],[-73.8772,-7.3747],[-73.8206,-7.338],[-73.7371,-7.3381],[-73.7051,-7.3247],[-73.6891,-7.2968],[-73.7145,-7.2202],[-73.7401,-7.1943],[-73.7559,-7.1512],[-73.7957,-7.1136],[-73.7589,-7.0518],[-73.7265,-7.0347],[-73.729,-6.9962],[-73.7617,-6.9385],[-73.6845,-6.8162],[-73.6664,-6.8053],[-73.6382,-6.7539],[-73.5682,-6.7217],[-73.5053,-6.6726],[-73.4583,-6.6671],[-73.4389,-6.6512],[-73.3801,-6.6359],[-73.3531,-6.5936],[-73.3289,-6.5977],[-73.1995,-6.5689],[-73.1698,-6.5175],[-73.1355,-6.512],[-73.1365,-6.4789],[-73.1086,-6.447],[-73.1019,-6.4026],[-73.1333,-6.3703],[-73.1599,-6.2707],[-73.1857,-6.2555],[-73.2178,-6.2073],[-73.2182,-6.1726],[-73.2456,-6.1436],[-73.2472,-6.1093],[-73.2265,-6.0248],[-73.1819,-5.9795],[-73.1807,-5.9254],[-73.1502,-5.8664],[-73.1296,-5.8691],[-73.1144,-5.8318],[-73.054,-5.792],[-73.0423,-5.7515],[-72.9851,-5.6921],[-72.9602,-5.6556],[-72.9738,-5.6104],[-72.9564,-5.5832],[-72.9612,-5.5208],[-72.9393,-5.418],[-72.8982,-5.3241],[-72.8706,-5.2877],[-72.8717,-5.195],[-72.8898,-5.1628],[-72.8615,-5.1389],[-72.8156,-5.1333],[-72.7414,-5.0881],[-72.7362,-5.06],[-72.6925,-5.061],[-72.6208,-5.0491],[-72.599,-4.9838],[-72.5417,-4.9527],[-72.4302,-4.9096],[-72.3877,-4.8658],[-72.3824,-4.8264],[-72.325,-4.8022],[-72.3102,-4.7744],[-72.2447,-4.7811],[-72.1926,-4.7452],[-72.1239,-4.7155],[-72.0765,-4.6803],[-72.0367,-4.6372],[-72.0053,-4.6363],[-71.9429,-4.5942],[-71.9195,-4.5634],[-71.9067,-4.5152],[-71.8574,-4.5121],[-71.8274,-4.4956],[-71.7394,-4.4825],[-71.7079,-4.5099],[-71.6339,-4.5079],[-71.5931,-4.5256],[-71.525,-4.4648],[-71.5043,-4.476],[-71.4722,-4.4339],[-71.4179,-4.464],[-71.3897,-4.4264],[-71.2833,-4.4416],[-71.2683,-4.4089],[-71.2349,-4.3828],[-71.183,-4.3939],[-71.1481,-4.3806],[-71.0822,-4.3722],[-71.0367,-4.3994],[-71.0191,-4.3801],[-70.9339,-4.3808],[-70.9005,-4.3271],[-70.8756,-4.3214],[-70.8647,-4.2535],[-70.829,-4.2499],[-70.8187,-4.1988],[-70.7663,-4.1615],[-70.7313,-4.1814],[-70.6727,-4.1963],[-70.6452,-4.1275],[-70.6187,-4.1398],[-70.6333,-4.1805],[-70.6168,-4.1936],[-70.5582,-4.172],[-70.523,-4.137],[-70.5029,-4.1678],[-70.454,-4.1587],[-70.4336,-4.131],[-70.3789,-4.1337],[-70.3529,-4.1696],[-70.3293,-4.1477],[-70.2861,-4.169],[-70.2785,-4.231],[-70.2842,-4.2721],[-70.2602,-4.3084],[-70.2039,-4.3258],[-70.2003,-4.3575],[-70.1524,-4.3204],[-70.1577,-4.2752],[-70.0765,-4.2852],[-70.0723,-4.3218],[-70.0441,-4.3308],[-70.0272,-4.3686],[-69.9677,-4.3863],[-69.9721,-4.3283],[-69.9541,-4.2925],[-69.9487,-4.2393],[-69.9575,-4.2177],[-70.0012,-4.1974],[-70.0621,-4.0833],[-70.1398,-4.058],[-70.1659,-4.0318],[-70.1848,-3.9168],[-70.2589,-3.8859],[-70.2852,-3.8389],[-70.3342,-3.8117],[-70.3769,-3.8279],[-70.4157,-3.8675],[-70.4776,-3.8845],[-70.5408,-3.8736],[-70.5856,-3.839],[-70.6493,-3.8423],[-70.6682,-3.8054],[-70.6983,-3.7789],[-70.3322,-3.2036],[-70.2045,-2.9996],[-70.0529,-2.7635],[-70.0667,-2.7342],[-70.0615,-2.6947],[-70.0999,-2.6558],[-70.126,-2.7054],[-70.1587,-2.686],[-70.1536,-2.6498],[-70.1781,-2.635],[-70.2174,-2.6437],[-70.2239,-2.5809],[-70.2445,-2.5511],[-70.2692,-2.5474],[-70.3142,-2.5823],[-70.3514,-2.5717],[-70.3354,-2.541],[-70.2953,-2.5111],[-70.3611,-2.4944],[-70.4046,-2.5273],[-70.4347,-2.5194],[-70.4596,-2.4601],[-70.4951,-2.4774],[-70.5412,-2.4566],[-70.5803,-2.4856],[-70.6216,-2.4729],[-70.6282,-2.4479],[-70.6148,-2.4075],[-70.6662,-2.4041],[-70.6508,-2.3686],[-70.6686,-2.3453],[-70.7337,-2.3296],[-70.7513,-2.3029],[-70.8044,-2.2952],[-70.8252,-2.2787],[-70.8418,-2.2327],[-70.8871,-2.2241],[-70.9298,-2.2512],[-70.959,-2.2138],[-70.9948,-2.2117],[-71.0068,-2.2308],[-70.9785,-2.2954],[-71.0008,-2.2986],[-71.0331,-2.2643],[-71.1424,-2.2972],[-71.1308,-2.3401],[-71.1687,-2.3419],[-71.1953,-2.3787],[-71.2347,-2.3393],[-71.3024,-2.3445],[-71.3128,-2.3704],[-71.3892,-2.4073],[-71.4065,-2.3846],[-71.3951,-2.3522],[-71.4247,-2.3252],[-71.4454,-2.2862],[-71.495,-2.2781],[-71.479,-2.3463],[-71.5003,-2.3509],[-71.5198,-2.2995],[-71.5166,-2.2541],[-71.5806,-2.2407],[-71.6308,-2.2059],[-71.6724,-2.2043],[-71.7037,-2.225],[-71.73,-2.2076],[-71.7178,-2.1667],[-71.838,-2.199],[-71.8722,-2.2943],[-71.8847,-2.3119],[-71.9383,-2.3209],[-71.9548,-2.357],[-72.0006,-2.3698],[-72.0572,-2.3357],[-72.0958,-2.385],[-72.1304,-2.4091],[-72.1422,-2.4644],[-72.1845,-2.4285],[-72.2204,-2.4449],[-72.2582,-2.4312],[-72.2936,-2.4726],[-72.364,-2.4883],[-72.408,-2.4144],[-72.4278,-2.4374],[-72.4629,-2.4227],[-72.5693,-2.3991],[-72.5954,-2.3666],[-72.6375,-2.3583],[-72.6369,-2.3868],[-72.6871,-2.4252],[-72.7091,-2.3889],[-72.7873,-2.3951],[-72.8577,-2.4386],[-72.9382,-2.4471],[-72.9306,-2.4216],[-72.9833,-2.3432],[-73.0197,-2.3297],[-73.0426,-2.3561],[-73.0975,-2.3257],[-73.1198,-2.3269],[-73.1257,-2.2805],[-73.167,-2.2314],[-73.1644,-2.1863],[-73.1293,-2.1778],[-73.1093,-2.1238],[-73.0711,-2.1015],[-73.1104,-2.0802],[-73.0961,-2.0292],[-73.1224,-2.0087],[-73.1123,-1.95],[-73.1129,-1.8739],[-73.1558,-1.8565],[-73.1476,-1.804],[-73.1924,-1.789],[-73.2122,-1.7502],[-73.2439,-1.7848],[-73.2994,-1.777],[-73.3303,-1.8056],[-73.3915,-1.7731],[-73.4156,-1.7877],[-73.4445,-1.7499],[-73.4898,-1.7324],[-73.539,-1.6999],[-73.5158,-1.662],[-73.5163,-1.6368],[-73.4649,-1.5898],[-73.5104,-1.4829],[-73.5309,-1.4608],[-73.5501,-1.401],[-73.5806,-1.343],[-73.6098,-1.3215],[-73.6185,-1.266],[-73.6554,-1.2629],[-73.681,-1.2391],[-73.7295,-1.2517],[-73.753,-1.2311],[-73.8119,-1.2486],[-73.8667,-1.2247],[-73.8934,-1.1728],[-73.9035,-1.1274],[-73.9682,-1.1226],[-73.9998,-1.1018],[-74.0236,-1.0511],[-74.0608,-1.0552],[-74.1353,-1.0289],[-74.1778,-1.0044],[-74.2258,-1.0064],[-74.2759,-0.9746],[-74.2612,-0.9442],[-74.2751,-0.9074],[-74.3202,-0.8859],[-74.3114,-0.8676],[-74.27,-0.8548],[-74.2911,-0.8103],[-74.3163,-0.7951],[-74.377,-0.7171],[-74.3419,-0.6987],[-74.3405,-0.6771],[-74.3739,-0.6559],[-74.3618,-0.6361],[-74.3897,-0.575],[-74.3875,-0.5522],[-74.4253,-0.5455],[-74.4203,-0.5054],[-74.5004,-0.4619],[-74.5287,-0.4667],[-74.5466,-0.4164],[-74.5983,-0.38],[-74.6108,-0.3505],[-74.6744,-0.3706],[-74.6764,-0.3328],[-74.7157,-0.3486],[-74.7329,-0.3335],[-74.7312,-0.2889],[-74.7617,-0.2243],[-74.7931,-0.1883],[-74.836,-0.2088],[-74.8573,-0.2385],[-74.9206,-0.2277],[-74.9556,-0.1973],[-74.9825,-0.1496],[-75.0216,-0.1403],[-75.0808,-0.0806],[-75.1432,-0.0642],[-75.1644,-0.0443],[-75.2119,-0.0484],[-75.223,-0.0796],[-75.2602,-0.1278],[-75.3227,-0.1601],[-75.3645,-0.1466],[-75.4104,-0.168],[-75.516,-0.115],[-75.5688,-0.1318],[-75.6105,-0.1135],[-75.6102,-0.193],[-75.5377,-0.1761],[-75.4823,-0.2369],[-75.4661,-0.3114],[-75.3882,-0.434],[-75.3271,-0.4603],[-75.2974,-0.4966],[-75.2495,-0.5195],[-75.2282,-0.5701],[-75.2352,-0.6287],[-75.2748,-0.6711],[-75.2784,-0.7124],[-75.2687,-0.7869],[-75.2418,-0.7987],[-75.2518,-0.8318],[-75.2215,-0.8731],[-75.2338,-0.9325],[-75.199,-0.9595],[-75.2022,-0.9796],[-75.2678,-0.971],[-75.2934,-0.9875],[-75.3323,-0.9728],[-75.3454,-0.9483],[-75.3867,-0.9301],[-75.5544,-1.5439],[-75.5852,-1.5494],[-76.0433,-2.1246],[-76.2103,-2.2547],[-76.5429,-2.5054],[-76.5374,-2.5143],[-76.623,-2.5818],[-76.6921,-2.61],[-77.1815,-2.7753],[-77.3675,-2.8356],[-77.4133,-2.8535],[-77.8456,-2.9986],[-77.8878,-3.0355],[-77.9404,-3.0656],[-77.9726,-3.1189],[-78.0649,-3.2255],[-78.092,-3.2355],[-78.1133,-3.2865],[-78.1434,-3.327],[-78.1928,-3.3617],[-78.1796,-3.41],[-78.1551,-3.421],[-78.1508,-3.4776],[-78.2164,-3.5094],[-78.2345,-3.4695],[-78.2469,-3.4022],[-78.3017,-3.3999],[-78.3294,-3.3864],[-78.3557,-3.4033],[-78.35,-3.458],[-78.3653,-3.5314],[-78.3882,-3.5553],[-78.3984,-3.6215],[-78.3871,-3.6412],[-78.3997,-3.6885],[-78.4236,-3.6929],[-78.4061,-3.7441],[-78.409,-3.7818],[-78.4735,-3.8537],[-78.4902,-3.9362],[-78.524,-3.9373],[-78.5666,-3.9933],[-78.5704,-4.0379],[-78.5405,-4.0673],[-78.5826,-4.136],[-78.5777,-4.1966],[-78.5986,-4.2092],[-78.6012,-4.2527],[-78.638,-4.3036],[-78.6489,-4.3395],[-78.6332,-4.4151],[-78.6384,-4.4972],[-78.6607,-4.5277],[-78.6562,-4.5634],[-78.7061,-4.6241],[-78.7695,-4.6401],[-78.8039,-4.6369],[-78.8409,-4.6536],[-78.8907,-4.7197],[-78.891,-4.7569],[-78.9149,-4.7805],[-78.8961,-4.812],[-78.9116,-4.8426],[-78.8942,-4.8857],[-78.9721,-4.8914],[-78.984,-4.9423],[-79.0152,-5.0158],[-79.0347,-5.0132],[-79.075,-4.9661],[-79.1139,-4.9747],[-79.1818,-4.955],[-79.2652,-4.9671],[-79.3059,-4.9028],[-79.352,-4.8803],[-79.3612,-4.8441],[-79.3948,-4.8309],[-79.4276,-4.7474],[-79.4575,-4.7014],[-79.4633,-4.652],[-79.4861,-4.6281],[-79.4944,-4.581],[-79.4769,-4.5684],[-79.4878,-4.5275],[-79.5438,-4.5259],[-79.6002,-4.4564],[-79.6554,-4.4342],[-79.7459,-4.4816],[-79.8151,-4.4889],[-79.8531,-4.4519],[-79.8703,-4.4141],[-79.9194,-4.3859],[-79.9622,-4.3955],[-80.0344,-4.3489],[-80.0616,-4.3104],[-80.1438,-4.2864],[-80.1792,-4.3001],[-80.1951,-4.3503],[-80.2366,-4.3869],[-80.285,-4.4081],[-80.3301,-4.4648],[-80.3819,-4.4774],[-80.4383,-4.4564],[-80.4517,-4.3816],[-80.4113,-4.3186],[-80.3293,-4.223],[-80.3721,-4.1975],[-80.4087,-4.2172],[-80.4491,-4.2089],[-80.4491,-4.1291],[-80.4818,-4.0944],[-80.468,-4.0341],[-80.4465,-3.9969],[-80.3986,-3.9812],[-80.3003,-4.0171],[-80.2727,-4.008],[-80.2365,-3.9626],[-80.1852,-3.9281],[-80.1402,-3.9128],[-80.1268,-3.8951],[-80.1574,-3.8677],[-80.1606,-3.8025],[-80.19,-3.7561],[-80.1793,-3.7256],[-80.1996,-3.6883],[-80.1871,-3.6704],[-80.1886,-3.5998],[-80.2185,-3.5741],[-80.2047,-3.5498],[-80.2185,-3.4992],[-80.2422,-3.4668],[-80.236,-3.4259],[-80.2812,-3.4304],[-80.3063,-3.4065],[-80.3337,-3.4496],[-80.3913,-3.499],[-80.4946,-3.4996],[-80.5351,-3.5712],[-80.5796,-3.634],[-80.6029,-3.636],[-80.6332,-3.6679],[-80.6568,-3.6671],[-80.7554,-3.7196],[-80.7857,-3.7471],[-80.8288,-3.8368],[-80.8321,-3.869],[-80.8546,-3.8937],[-80.9546,-3.9557],[-80.9871,-3.9851],[-81.0124,-4.0449],[-81.0551,-4.1057],[-81.101,-4.1276],[-81.1279,-4.1749],[-81.1721,-4.214],[-81.2404,-4.2535],[-81.2596,-4.3071],[-81.2513,-4.3412],[-81.254,-4.3993],[-81.2774,-4.4504],[-81.3063,-4.4799],[-81.2799,-4.5418],[-81.3179,-4.6971],[-81.179,-4.8532],[-81.1363,-4.9118],[-81.0974,-4.9512],[-81.0626,-5.0212],[-81.0624,-5.0507],[-81.0862,-5.0801],[-81.1335,-5.0688],[-81.1696,-5.0804],[-81.1604,-5.1237],[-81.174,-5.1824],[-81.194,-5.2171],[-81.1382,-5.2632],[-81.1021,-5.3154],[-81.0535,-5.3318],[-80.9592,-5.4223],[-80.8981,-5.508],[-80.866,-5.5901],[-80.85,-5.6626],[-80.8558,-5.7314],[-80.9032,-5.8228],[-80.9454,-5.8459],[-81.0207,-5.8293],[-81.069,-5.7829],[-81.1007,-5.8415],[-81.1263,-5.8404],[-81.1471,-5.9068],[-81.1524,-5.9776],[-81.146,-6.0046],[-81.0901,-6.0879],[-80.9229,-6.1849],[-80.8463,-6.2424],[-80.7907,-6.2968],[-80.6971,-6.3374],[-80.5099,-6.4301],[-80.399,-6.4907],[-80.2768,-6.5515],[-80.1607,-6.6179],[-80.0793,-6.6737],[-79.9776,-6.7562],[-79.9385,-6.8279],[-79.919,-6.8932],[-79.8662,-6.9349],[-79.8246,-6.9821],[-79.744,-7.0576],[-79.6868,-7.1237],[-79.694,-7.1743],[-79.629,-7.2438],[-79.5893,-7.3171],[-79.591,-7.3521],[-79.5707,-7.3901],[-79.5918,-7.421],[-79.579,-7.4629],[-79.5404,-7.5249],[-79.4482,-7.6482],[-79.4357,-7.6949],[-79.4662,-7.7168],[-79.3885,-7.7974],[-79.3771,-7.8449],[-79.3121,-7.9126],[-79.309,-7.9262],[-79.1646,-8.0337],[-79.1196,-8.076],[-79.1246,-8.0921],[-79.0535,-8.1482],[-78.9885,-8.2082],[-78.9865,-8.2357],[-78.9624,-8.266],[-78.9485,-8.3107],[-78.8965,-8.3912],[-78.9135,-8.4649],[-78.8385,-8.5143],[-78.7874,-8.5621],[-78.7637,-8.5968],[-78.7412,-8.6699],[-78.7412,-8.7407],[-78.7626,-8.7732],[-78.656,-8.9157],[-78.6462,-8.9804],[-78.6315,-9.0071],[-78.6346,-9.0674],[-78.5879,-9.0801],[-78.5579,-9.1357],[-78.5668,-9.1682],[-78.6032,-9.1862],[-78.5646,-9.2296],[-78.5496,-9.1757],[-78.5085,-9.179],[-78.4851,-9.2085],[-78.5085,-9.2571],[-78.4871,-9.3215],[-78.4251,-9.3415],[-78.4282,-9.411],[-78.384,-9.4457],[-78.4035,-9.4746],[-78.3665,-9.5599],[-78.3604,-9.624],[-78.3226,-9.6612],[-78.2954,-9.7049],[-78.2976,-9.7249],[-78.2265,-9.7971],[-78.2446,-9.8735],[-78.1982,-10.0121],[-78.1765,-10.0438],[-78.1735,-10.1154],[-78.1643,-10.1471],[-78.1038,-10.2007],[-78.0879,-10.2771],[-78.0582,-10.3018],[-78.0563,-10.3454],[-78.0049,-10.384],[-78.0154,-10.4104],[-77.981,-10.4415],[-77.9526,-10.4993],[-77.9049,-10.5518],[-77.9093,-10.5693],[-77.8815,-10.6215],[-77.8118,-10.6993],[-77.8054,-10.7257],[-77.7618,-10.7651],[-77.749,-10.819],[-77.7085,-10.8526],[-77.7093,-10.8718],[-77.6785,-10.9154],[-77.649,-10.9982],[-77.6446,-11.0371],[-77.6182,-11.1315],[-77.5949,-11.1704],[-77.6046,-11.2149],[-77.6424,-11.2137],[-77.6513,-11.2443],[-77.6435,-11.304],[-77.4985,-11.379],[-77.4193,-11.4251],[-77.3443,-11.4765],[-77.3026,-11.5179],[-77.2771,-11.5585],[-77.2804,-11.5879],[-77.2107,-11.6476],[-77.1996,-11.6946],[-77.1726,-11.7301],[-77.1776,-11.8157],[-77.1904,-11.8287],[-77.1593,-11.8718],[-77.1399,-11.9293],[-77.1329,-11.979],[-77.149,-12.031],[-77.1324,-12.071],[-77.0843,-12.0926],[-77.031,-12.1337],[-77.0399,-12.1812],[-77.0307,-12.2079],[-76.9413,-12.2462],[-76.8562,-12.2993],[-76.7824,-12.389],[-76.7751,-12.439],[-76.7996,-12.5099],[-76.7487,-12.5404],[-76.7107,-12.5754],[-76.6776,-12.6221],[-76.6729,-12.6615],[-76.6335,-12.716],[-76.6374,-12.7429],[-76.6074,-12.7779],[-76.5632,-12.8054],[-76.524,-12.8446],[-76.5054,-12.9271],[-76.5157,-12.9546],[-76.4885,-13.0087],[-76.491,-13.0307],[-76.3924,-13.139],[-76.2312,-13.3437],[-76.1921,-13.4257],[-76.186,-13.579],[-76.1913,-13.624],[-76.2251,-13.6829],[-76.2204,-13.7168],[-76.2618,-13.8654],[-76.299,-13.8374],[-76.291,-13.8062],[-76.3182,-13.7907],[-76.3712,-13.8062],[-76.386,-13.8443],[-76.3954,-13.9093],[-76.3296,-13.9271],[-76.3115,-13.894],[-76.274,-13.9487],[-76.2676,-14.0149],[-76.2801,-14.1263],[-76.2926,-14.1612],[-76.2176,-14.1554],[-76.1888,-14.1993],[-76.1387,-14.234],[-76.1099,-14.2938],[-76.1271,-14.3607],[-76.0687,-14.3868],[-76.0365,-14.4288],[-75.9749,-14.4701],[-75.9607,-14.5346],[-75.9313,-14.5712],[-75.9332,-14.6104],[-75.9179,-14.661],[-75.8771,-14.6807],[-75.8529,-14.7174],[-75.7832,-14.7499],[-75.6782,-14.8199],[-75.5351,-14.8932],[-75.4962,-14.9296],[-75.5057,-14.9663],[-75.4482,-15.0007],[-75.4135,-15.0443],[-75.3857,-15.1168],[-75.3529,-15.1468],[-75.279,-15.1682],[-75.2343,-15.2015],[-75.2168,-15.2432],[-75.244,-15.2674],[-75.1565,-15.3229],[-75.1862,-15.3546],[-75.144,-15.4065],[-75.0843,-15.426],[-75.0557,-15.4563],[-75.009,-15.4624],[-74.969,-15.4915],[-74.8882,-15.5232],[-74.8307,-15.5679]]]},"properties":{"GID_0":"PER","ISO_A2":"PE","ISO_A3":"PER","NAME_EN":"Peru","NAME_IT":"Perù"}}
]}