{"type":"FeatureCollection", "features": [
{"type":"Feature","geometry":{"type":"MultiPolygon","coordinates":[[[[-84.9299,10.9511],[-84.9108,10.9438],[-84.6804,11.0845],[-84.606,11.0384],[-84.5644,11.0332],[-84.4859,11.0008],[-84.4506,10.961],[-84.4203,10.9552],[-84.3584,10.9959],[-84.3236,10.9188],[-84.2917,10.911],[-84.2192,10.863],[-84.2231,10.801],[-84.1752,10.786],[-84.136,10.787],[-84.1267,10.765],[-84.0836,10.7594],[-84.0358,10.7713],[-83.9722,10.7453],[-83.9322,10.7074],[-83.8633,10.7175],[-83.8403,10.744],[-83.7933,10.7694],[-83.7144,10.7927],[-83.6716,10.7969],[-83.6604,10.8198],[-83.6749,10.854],[-83.6669,10.8803],[-83.6882,10.9334],[-83.7301,10.9507],[-83.7582,10.9801],[-83.806,11.0613],[-83.829,11.1171],[-83.8604,11.2243],[-83.8746,11.3174],[-83.866,11.3971],[-83.8276,11.4474],[-83.8001,11.4446],[-83.7513,11.5621],[-83.7174,11.5668],[-83.6554,11.6301],[-83.6776,11.7649],[-83.704,11.8563],[-83.7387,11.8719],[-83.7524,11.8396],[-83.7459,11.8043],[-83.7838,11.8001],[-83.8401,11.8776],[-83.769,11.9429],[-83.7399,12.0843],[-83.7285,12.0638],[-83.6871,12.0468],[-83.6857,12.1762],[-83.6671,12.2607],[-83.6424,12.3174],[-83.7035,12.3238],[-83.7315,12.3371],[-83.7351,12.384],[-83.7201,12.4013],[-83.7349,12.4738],[-83.7733,12.4693],[-83.7774,12.5301],[-83.7465,12.5535],[-83.7004,12.5496],[-83.5979,12.6438],[-83.6001,12.6824],[-83.619,12.739],[-83.6543,12.7993],[-83.6115,12.8212],[-83.5471,12.7913],[-83.544,12.7568],[-83.5726,12.6688],[-83.561,12.6029],[-83.5821,12.5593],[-83.6135,12.5649],[-83.6351,12.5443],[-83.6393,12.4776],[-83.6035,12.4246],[-83.6363,12.3874],[-83.6215,12.3632],[-83.5893,12.3826],[-83.4912,12.3932],[-83.4874,12.4651],[-83.5296,12.5326],[-83.544,12.6018],[-83.5449,12.6696],[-83.5315,12.7904],[-83.5088,12.881],[-83.5521,13.0957],[-83.5663,13.1985],[-83.5713,13.3404],[-83.5579,13.441],[-83.5257,13.5379],[-83.5501,13.5915],[-83.5926,13.6054],[-83.6176,13.6729],[-83.569,13.6751],[-83.541,13.714],[-83.5146,13.6993],[-83.5413,13.6568],[-83.5229,13.6157],[-83.5074,13.7171],[-83.4882,13.8026],[-83.4554,13.8765],[-83.4637,13.9271],[-83.4449,13.9368],[-83.4176,13.9929],[-83.354,14.049],[-83.3335,14.0907],[-83.2974,14.1263],[-83.2543,14.2018],[-83.2026,14.311],[-83.2004,14.3557],[-83.2165,14.4432],[-83.2737,14.6015],[-83.2993,14.7151],[-83.2965,14.8137],[-83.251,14.9204],[-83.2185,14.9521],[-83.169,14.9712],[-83.2092,14.993],[-83.2369,14.9805],[-83.291,14.9829],[-83.3307,15.0076],[-83.4073,15.0213],[-83.4277,14.9873],[-83.4681,14.9751],[-83.5066,14.9988],[-83.5636,14.91],[-83.6715,14.8712],[-83.7112,14.8258],[-83.7388,14.8314],[-83.7634,14.8021],[-83.8355,14.7837],[-83.8515,14.7668],[-83.8989,14.759],[-83.918,14.7722],[-83.9803,14.74],[-84.0034,14.7493],[-84.0992,14.7376],[-84.1802,14.7079],[-84.2287,14.7312],[-84.269,14.7189],[-84.2545,14.6746],[-84.2788,14.6551],[-84.3093,14.6817],[-84.3832,14.6773],[-84.4331,14.6319],[-84.4691,14.6145],[-84.498,14.621],[-84.5245,14.6538],[-84.5818,14.6501],[-84.681,14.687],[-84.7122,14.6887],[-84.7468,14.7115],[-84.7713,14.7471],[-84.7929,14.8095],[-84.8197,14.8233],[-84.8601,14.807],[-84.9034,14.8077],[-84.9289,14.7579],[-84.9615,14.7513],[-85.0281,14.698],[-85.0252,14.602],[-85.0451,14.5723],[-85.0897,14.5491],[-85.1297,14.5797],[-85.151,14.5666],[-85.1376,14.5172],[-85.1783,14.461],[-85.2067,14.3896],[-85.2255,14.3668],[-85.1811,14.328],[-85.1579,14.2935],[-85.1836,14.2506],[-85.2784,14.2574],[-85.3387,14.2446],[-85.3752,14.2113],[-85.3794,14.1755],[-85.4053,14.1248],[-85.4699,14.0918],[-85.509,14.0816],[-85.523,14.0464],[-85.5765,14.0624],[-85.6079,14.0254],[-85.6637,14.0107],[-85.6825,13.9784],[-85.7125,13.988],[-85.7591,13.9583],[-85.7643,13.8793],[-85.7437,13.8398],[-85.8112,13.8402],[-85.8445,13.8772],[-85.8438,13.9032],[-85.8879,13.9221],[-85.92,13.9079],[-85.9476,13.9388],[-86.0154,13.9898],[-86.0233,14.0076],[-86.0065,14.0708],[-86.0924,14.0639],[-86.1505,14.0325],[-86.1359,14.0085],[-86.1861,13.9821],[-86.1859,13.9551],[-86.2222,13.9274],[-86.2521,13.8842],[-86.3028,13.8416],[-86.3013,13.814],[-86.3521,13.7596],[-86.4387,13.7622],[-86.4511,13.7829],[-86.4991,13.7692],[-86.5345,13.7979],[-86.6537,13.7778],[-86.7153,13.7871],[-86.7628,13.7731],[-86.7619,13.7208],[-86.785,13.6567],[-86.7515,13.6359],[-86.767,13.5701],[-86.7457,13.5507],[-86.7374,13.4783],[-86.7224,13.4253],[-86.7363,13.38],[-86.7104,13.3694],[-86.7065,13.2954],[-86.7618,13.2686],[-86.8192,13.3063],[-86.8646,13.2942],[-86.9079,13.2563],[-86.929,13.1823],[-86.9183,13.1455],[-86.9333,13.1211],[-86.9179,13.0923],[-86.9481,13.0641],[-86.959,13.0322],[-87.0277,12.9888],[-87.1227,12.9983],[-87.2813,12.9852],[-87.309,12.9878],[-87.3818,12.946],[-87.3707,12.9132],[-87.4307,12.9199],[-87.4735,12.9396],[-87.4662,12.9632],[-87.4879,12.9977],[-87.5501,13.0499],[-87.5882,13.054],[-87.6182,13.0091],[-87.661,12.9893],[-87.691,12.9113],[-87.6543,12.8793],[-87.4995,12.7813],[-87.4315,12.7176],[-87.3426,12.6099],[-87.2229,12.5379],[-87.1699,12.4768],[-87.109,12.4471],[-87.1235,12.431],[-87.0496,12.3849],[-87.0218,12.3579],[-86.8085,12.2268],[-86.7704,12.1993],[-86.7274,12.0807],[-86.6843,12.0065],[-86.6385,11.9629],[-86.6162,11.9051],[-86.5604,11.856],[-86.521,11.8068],[-86.5179,11.776],[-86.4051,11.6979],[-86.3293,11.6165],[-86.2643,11.5882],[-86.1776,11.5262],[-86.1738,11.4996],[-86.0887,11.4441],[-85.9932,11.346],[-85.9723,11.3449],[-85.9215,11.3074],[-85.8893,11.2588],[-85.8351,11.206],[-85.7946,11.144],[-85.7962,11.1246],[-85.7426,11.0874],[-85.693,11.0789],[-85.6098,11.2198],[-85.5604,11.21],[-85.5223,11.1676],[-85.424,11.129],[-85.3575,11.1263],[-85.2286,11.0631],[-84.9299,10.9511]]],[[[-82.7674,14.4193],[-82.7979,14.3688],[-82.7471,14.3535],[-82.7346,14.3768],[-82.7421,14.4174],[-82.7674,14.4193]]]]},"properties":{"GID_0":"NIC","ISO_A2":"NI","ISO_A3":"NIC","NAME_EN":"Nicaragua","NAME_IT":"Nicaragua"}}
]}