{"type":"FeatureCollection", "features": [
{"type":"Feature","geometry":{"type":"MultiPolygon","coordinates":[[[[124.3547,-9.4842],[124.3819,-9.3895],[124.38,-9.3568],[124.4626,-9.2995],[124.4781,-9.1762],[124.412,-9.1727],[124.3696,-9.1984],[124.3308,-9.1963],[124.1856,-9.2497],[124.1567,-9.2956],[124.045,-9.3436],[124.0968,-9.4081],[124.15,-9.4273],[124.2167,-9.3656],[124.2614,-9.3963],[124.287,-9.4512],[124.2788,-9.5033],[124.3547,-9.4842]]],[[[125.0872,-9.4564],[125.1406,-9.4194],[125.21,-9.4108],[125.3074,-9.3176],[125.3933,-9.2636],[125.4528,-9.2539],[125.5886,-9.1897],[125.7017,-9.1942],[125.7268,-9.1672],[125.8172,-9.1511],[125.8633,-9.1243],[125.9364,-9.1347],[126.0647,-9.0562],[126.126,-9.0031],[126.1891,-8.9763],[126.3045,-8.9824],[126.4067,-8.9478],[126.4799,-8.9462],[126.5419,-8.8517],[126.588,-8.8013],[126.6158,-8.8026],[126.6731,-8.765],[126.7608,-8.7475],[126.8278,-8.7565],[126.9766,-8.6792],[127.0136,-8.6858],[127.1325,-8.5586],[127.1834,-8.5294],[127.2761,-8.4405],[127.2981,-8.3939],[127.2324,-8.378],[127.1944,-8.3353],[127.1144,-8.3681],[127.0642,-8.3633],[127.0011,-8.3219],[126.9586,-8.3272],[126.9045,-8.3614],[126.7861,-8.4178],[126.7295,-8.4032],[126.6378,-8.451],[126.554,-8.4815],[126.5044,-8.45],[126.4167,-8.4144],[126.3614,-8.4256],[126.2368,-8.5024],[126.1217,-8.5039],[126.0922,-8.5197],[126.0283,-8.5128],[125.9869,-8.4877],[125.8506,-8.4742],[125.7514,-8.521],[125.6147,-8.5314],[125.5694,-8.5483],[125.5336,-8.5367],[125.4478,-8.5714],[125.4175,-8.5617],[125.3097,-8.5889],[125.2967,-8.6022],[125.2106,-8.6056],[125.1236,-8.6394],[125.0978,-8.6889],[125.0956,-8.7981],[125.0053,-8.8642],[124.9755,-8.9423],[124.9564,-8.9492],[124.9318,-9.0281],[124.9839,-9.0662],[125.0993,-8.9994],[125.112,-8.9675],[125.1847,-9.0259],[125.1794,-9.1664],[125.097,-9.2018],[125.0748,-9.1755],[125.0144,-9.1691],[124.9827,-9.1914],[124.9945,-9.2902],[125.0356,-9.3235],[125.08,-9.3921],[125.0872,-9.4564]]],[[[125.5971,-8.2877],[125.61,-8.2214],[125.6444,-8.1633],[125.5911,-8.1608],[125.5489,-8.22],[125.5033,-8.2589],[125.5289,-8.2969],[125.5785,-8.309],[125.5971,-8.2877]]]]},"properties":{"GID_0":"TLS","ISO_A2":"TL","ISO_A3":"TLS","NAME_EN":"Timor-Leste","NAME_IT":"Timor Est"}}
]}